{"version": 0.6, "generator": "Overpass API 0.7.56.1004 6cd3eaec", "osm3s": {"timestamp_osm_base": "2020-07-22T03:34:03Z", "copyright": "The data included in this document is from www.openstreetmap.org. The data is made available under ODbL."}, "elements": [{"type": "node", "id": 479652775, "lat": 41.8841895, "lon": -87.6472956, "tags": {"addr:city": "Chicago", "addr:housenumber": "737", "addr:postcode": "60661", "addr:state": "IL", "addr:street": "West Randolph Street", "amenity": "bar", "microbrewery": "yes", "name": "Haymarket Pub & Brewery", "opening_hours": "Su-Fr 11:00-02:00; Sa 11:00-03:00", "phone": "+1-312-638-0700", "website": "http://haymarketbrewing.com/"}}, {"type": "node", "id": 479652780, "lat": 41.8846406, "lon": -87.6476069, "tags": {"addr:city": "Chicago", "addr:housenumber": "800", "addr:postcode": "60607", "addr:state": "IL", "addr:street": "West Randolph Street", "amenity": "restaurant", "cuisine": "upscale_\"diner\";burger;american", "name": "Au Cheval", "opening_hours": "Mo-Sa 10:00-01:00; Su 09:00-00:00", "phone": "1-312-929-4580", "website": "http://auchevalchicago.com/"}}, {"type": "node", "id": 2200107680, "lat": 41.900711, "lon": -87.6672093}, {"type": "node", "id": 2200107714, "lat": 41.9007148, "lon": -87.6669172}, {"type": "node", "id": 2200107795, "lat": 41.9007262, "lon": -87.6672257}, {"type": "node", "id": 2200107958, "lat": 41.9007578, "lon": -87.6672272}, {"type": "node", "id": 2200108058, "lat": 41.9007769, "lon": -87.6672086}, {"type": "node", "id": 2200108076, "lat": 41.9007807, "lon": -87.6669202}, {"type": "node", "id": 2200109452, "lat": 41.9010733, "lon": -87.6636682}, {"type": "node", "id": 2200109752, "lat": 41.9011176, "lon": -87.6637375}, {"type": "node", "id": 2200111013, "lat": 41.9012804, "lon": -87.6634272}, {"type": "node", "id": 2200111113, "lat": 41.9013247, "lon": -87.6634966}, {"type": "node", "id": 2203578021, "lat": 41.8864495, "lon": -87.6485349}, {"type": "node", "id": 2203578023, "lat": 41.8864504, "lon": -87.6484469}, {"type": "node", "id": 2203578385, "lat": 41.8866769, "lon": -87.6485392}, {"type": "node", "id": 2203578387, "lat": 41.8866779, "lon": -87.6484512}, {"type": "node", "id": 2203578493, "lat": 41.8868516, "lon": -87.6520574}, {"type": "node", "id": 2203578494, "lat": 41.8868556, "lon": -87.6516901}, {"type": "node", "id": 2203578606, "lat": 41.8870717, "lon": -87.6516943}, {"type": "node", "id": 2203578659, "lat": 41.8871136, "lon": -87.6520583}, {"type": "node", "id": 2203578661, "lat": 41.8871156, "lon": -87.6516966}, {"type": "node", "id": 2203580582, "lat": 41.8900939, "lon": -87.6578717}, {"type": "node", "id": 2203580583, "lat": 41.8900957, "lon": -87.6574769}, {"type": "node", "id": 2203580648, "lat": 41.8901189, "lon": -87.6551243}, {"type": "node", "id": 2203580662, "lat": 41.8901248, "lon": -87.6547276}, {"type": "node", "id": 2203580748, "lat": 41.8901667, "lon": -87.6578728}, {"type": "node", "id": 2203580750, "lat": 41.8901685, "lon": -87.6574779}, {"type": "node", "id": 2203580768, "lat": 41.8901779, "lon": -87.6551273}, {"type": "node", "id": 2203580772, "lat": 41.8901838, "lon": -87.6547288}, {"type": "node", "id": 2203583448, "lat": 41.8907222, "lon": -87.6599457}, {"type": "node", "id": 2203583453, "lat": 41.890723, "lon": -87.6598557}, {"type": "node", "id": 2203583502, "lat": 41.8907441, "lon": -87.6599454}, {"type": "node", "id": 2203583549, "lat": 41.8908013, "lon": -87.6598567}, {"type": "node", "id": 2203583552, "lat": 41.8908096, "lon": -87.6598731}, {"type": "node", "id": 2203583587, "lat": 41.8908631, "lon": -87.6598726}, {"type": "node", "id": 2203583591, "lat": 41.8908712, "lon": -87.6598596}, {"type": "node", "id": 2203583715, "lat": 41.8909404, "lon": -87.6599489}, {"type": "node", "id": 2203583724, "lat": 41.8909426, "lon": -87.6598607}, {"type": "node", "id": 2203936165, "lat": 41.8912981, "lon": -87.6472549}, {"type": "node", "id": 2203936451, "lat": 41.8914248, "lon": -87.6472556}, {"type": "node", "id": 2357293589, "lat": 41.8846322, "lon": -87.6484701, "tags": {"addr:city": "Chicago", "addr:housenumber": "820", "addr:postcode": "60607", "addr:state": "IL", "addr:street": "West Randolph Street", "amenity": "restaurant", "cuisine": "american", "name": "Little Goat Diner", "opening_hours": "Mo-Th 07:00-22:00; Fr-Sa 07:00-00:00; Su 07:00-22:00", "phone": "+1-312-888-3455", "website": "https://littlegoatchicago.com/"}}, {"type": "node", "id": 2496841186, "lat": 41.8963373, "lon": -87.6670898, "tags": {"addr:city": "Chicago", "addr:housenumber": "811", "addr:postcode": "60622", "addr:state": "IL", "addr:street": "North Ashland Avenue", "amenity": "restaurant", "name": "Taqueria Traspasada", "phone": "+1-312-850-2069"}}, {"type": "node", "id": 3094904880, "lat": 41.8912975, "lon": -87.6474278}, {"type": "node", "id": 3094904881, "lat": 41.8915099, "lon": -87.6472562}, {"type": "node", "id": 3094904882, "lat": 41.8915093, "lon": -87.6474291}, {"type": "node", "id": 3240592096, "lat": 41.8863874, "lon": -87.6667991, "tags": {"addr:city": "Chicago", "addr:housenumber": "235", "addr:postcode": "60607", "addr:state": "IL", "addr:street": "North Ashland Avenue", "amenity": "bar", "name": "Cobra Lounge", "phone": "+1-312-226-6300", "smoking": "no", "website": "https://www.cobralounge.com/"}}, {"type": "node", "id": 3367138857, "lat": 41.8861273, "lon": -87.6484831}, {"type": "node", "id": 3367138858, "lat": 41.8861312, "lon": -87.648271}, {"type": "node", "id": 3367138859, "lat": 41.8861848, "lon": -87.6483855}, {"type": "node", "id": 3367138860, "lat": 41.8861869, "lon": -87.6482729}, {"type": "node", "id": 3367138861, "lat": 41.8861959, "lon": -87.6484855}, {"type": "node", "id": 3367138862, "lat": 41.8861978, "lon": -87.6483859}, {"type": "node", "id": 3575072897, "lat": 41.9004836, "lon": -87.6676383, "tags": {"addr:city": "Chicago", "addr:housenumber": "1024", "addr:postcode": "60622", "addr:state": "IL", "addr:street": "North Ashland Avenue", "addr:street:name": "Ashland", "addr:street:prefix": "North", "addr:street:type": "Avenue", "amenity": "restaurant", "cuisine": "mexican", "name": "Alegrias Seafood Chicago", "opening_hours": "Mo-Th, Su 10:00-22:00; Fr-Sa 10:00-23:00", "phone": "+1-773-252-7200", "website": "http://alegriasseafoodchicago.com"}}, {"type": "node", "id": 3575084293, "lat": 41.8970869, "lon": -87.6650571, "tags": {"addr:city": "Chicago", "addr:housenumber": "832", "addr:postcode": "60622", "addr:state": "IL", "addr:street": "North Greenview Avenue", "amenity": "bar", "name": "The Chipp Inn", "outdoor_seating": "no", "phone": "+1-312-421-9052"}}, {"type": "node", "id": 3575084296, "lat": 41.8963372, "lon": -87.6629342, "tags": {"addr:city": "Chicago", "addr:housenumber": "1412", "addr:postcode": "60622", "addr:state": "IL", "addr:street": "West Chicago Avenue", "amenity": "bar", "name": "Lush Wine & Spirits", "phone": "+1-312-666-6900", "website": "http://www.luswineandspirits.com/"}}, {"type": "node", "id": 3575084297, "lat": 41.8962244, "lon": -87.6668569, "tags": {"amenity": "restaurant", "cuisine": "thai", "name": "Manee Thai"}}, {"type": "node", "id": 3575173111, "lat": 41.8865946, "lon": -87.6520069, "tags": {"addr:city": "Chicago", "addr:housenumber": "953", "addr:postcode": "60607", "addr:state": "IL", "addr:street": "West Fulton Market", "amenity": "restaurant", "cuisine": "fine_dining", "name": "Next", "phone": "+1-312-226-0858", "website": "https://www.nextrestaurant.com/", "wikidata": "Q7020950", "wikipedia": "en:Next (restaurant)"}}, {"type": "node", "id": 3575173112, "lat": 41.8865101, "lon": -87.6519209, "tags": {"addr:city": "Chicago", "addr:housenumber": "955", "addr:postcode": "60607", "addr:state": "IL", "addr:street": "West Fulton Market", "amenity": "bar", "name": "The Aviary", "opening_hours": "Su-We 17:00-00:00; Th-Fr 17:00-02:00; 17:00-03:00", "phone": "+1-312-226-0868", "website": "theaviary.com"}}, {"type": "node", "id": 3575231494, "lat": 41.8910574, "lon": -87.6471083, "tags": {"addr:city": "Chicago", "addr:housenumber": "495", "addr:postcode": "60654", "addr:state": "IL", "addr:street": "North Milwaukee Avenue", "amenity": "bar", "name": "Emmit's Irish Pub", "opening_hours": "Mo-Th 16:00-02:00; Fr 15:00-02:00; Sa 11:00-03:00; Su 11:00-02:00", "phone": "+1-312-563-9631", "website": "https://www.emmits.com/"}}, {"type": "node", "id": 3575231495, "lat": 41.8910436, "lon": -87.6470004, "tags": {"addr:city": "Chicago", "addr:housenumber": "491", "addr:postcode": "60654", "addr:state": "IL", "addr:street": "North Milwaukee Avenue", "amenity": "bar", "name": "Richard's Bar", "opening_hours": "Mo-Fr 08:00-02:00; Sa 09:00-03:00; Su 12:00-02:00", "phone": "+1-312-733-2251"}}, {"type": "node", "id": 3575231496, "lat": 41.8910439, "lon": -87.6468381, "tags": {"addr:city": "Chicago", "addr:housenumber": "721", "addr:postcode": "60654", "addr:state": "IL", "addr:street": "West Grand Avenue", "amenity": "restaurant", "cuisine": "italian", "name": "La Scarola", "opening_hours": "Mo-Fr 17:00-23:00; Sa 16:00-23:00; Su 16:00-22:00", "phone": "+1-312-243-1740", "website": "http://lascarola.com/"}}, {"type": "node", "id": 3596874096, "lat": 41.8975839, "lon": -87.6670559, "tags": {"addr:city": "Chicago", "addr:housenumber": "851", "addr:postcode": "60622", "addr:state": "IL", "addr:street": "North Ashland Avenue", "amenity": "restaurant", "cuisine": "american", "delivery": "no", "name": "Ruxbin", "phone": "(312) 624\u20138509", "smoking": "no", "takeaway": "no", "website": "http://www.ruxbinchicago.com"}}, {"type": "node", "id": 3618178425, "lat": 41.8961397, "lon": -87.6554969, "tags": {"addr:city": "Chicago", "addr:housenumber": "1105", "addr:postcode": "60622", "addr:state": "IL", "addr:street": "West Chicago Avenue", "amenity": "cafe", "name": "Big Shoulders Coffee", "opening_hours": "Mo-Fr 06:00-19:00; Sa-Su 07:30-17:00"}}, {"type": "node", "id": 4076939309, "lat": 41.8866569, "lon": -87.6488989, "tags": {"addr:city": "Chicago", "addr:housenumber": "837", "addr:postcode": "60607", "addr:state": "IL", "addr:street": "West Fulton Market", "amenity": "restaurant", "cuisine": "seafood;pork", "name": "The Publican", "opening_hours": "Mo-Th 15:30-21:30; Fr-Sa 15:30-22:30; Su 17:00-21:30", "phone": "+1-312-733-9555", "website": "thepublicanrestaurant.com"}}, {"type": "node", "id": 4076939311, "lat": 41.8845767, "lon": -87.6519538, "tags": {"amenity": "cafe", "brand": "Starbucks", "brand:wikidata": "Q37158", "brand:wikipedia": "en:Starbucks", "cuisine": "coffee_shop", "name": "Starbucks", "official_name": "Starbucks Coffee", "takeaway": "yes"}}, {"type": "node", "id": 4076939316, "lat": 41.8846242, "lon": -87.6490718, "tags": {"addr:city": "Chicago", "addr:housenumber": "840", "addr:postcode": "60607", "addr:state": "IL", "addr:street": "West Randolph Street", "amenity": "bar", "name": "Maude's Liquor Bar", "opening_hours": "Mo 17:00-22:00; Tu-Th 17:00-23:00; Fr 17:00-00:00; Sa 17:00-00:00; Su 17:00-22:00", "phone": "+1-312-243-9712", "website": "http://maudesliquorbar.com/"}}, {"type": "node", "id": 4076939317, "lat": 41.8846219, "lon": -87.6492059, "tags": {"addr:city": "Chicago", "addr:housenumber": "844", "addr:postcode": "60607", "addr:state": "IL", "addr:street": "West Randolph Street", "amenity": "restaurant", "cuisine": "burger;american", "name": "Grange Hall Burger Bar", "opening_hours": "Tu-th 17:00-22:00; Fr 11:30-23:00; Sa 09:00-23:00; Su 09:00-16:00", "phone": "+1-312-491-0844", "website": "http://grangehallburgerbar.com"}}, {"type": "node", "id": 4076939318, "lat": 41.8841463, "lon": -87.6487698, "tags": {"addr:city": "Chicago", "addr:housenumber": "833", "addr:postcode": "60607", "addr:state": "IL", "addr:street": "West Randolph Street", "amenity": "restaurant", "cuisine": "european;small_plates", "name": "Nellc\u00f4te", "opening_hours": "Mo-Th 17:00-22:00; Fr 17:00-00:00; Sa 11:00-00:00; Su 11:00-22:00", "phone": "+1-312-432-0500", "website": "http://nellcoterestaurant.com"}}, {"type": "node", "id": 4076939321, "lat": 41.8841711, "lon": -87.6480454, "tags": {"addr:city": "Chicago", "addr:housenumber": "809", "addr:postcode": "60607", "addr:state": "IL", "addr:street": "West Randolph Street", "amenity": "restaurant", "cuisine": "small_plates", "name": "Girl & The Goat", "opening_hours": "Su-Th 16:30-23:00; Fr-Sa 16:30-00:00", "phone": "+1-312-492-6262", "website": "https://girlandthegoat.com/"}}, {"type": "node", "id": 4457007838, "lat": 41.8846234, "lon": -87.6488209, "tags": {"addr:city": "Chicago", "addr:country": "US", "addr:housenumber": "832", "addr:postcode": "60607", "addr:state": "IL", "addr:street": "West Randolph Street", "amenity": "restaurant", "name": "Bar Siena", "opening_hours": "Tu-Fr 11:30-02:00; Sa 09:00-03:00; Su 09:00-02:00; Mo 11:30-02:00", "phone": "+1-312-492-7775", "website": "http://barsiena.com"}}, {"type": "node", "id": 4564043792, "lat": 41.895873, "lon": -87.6693545, "tags": {"addr:city": "Chicago", "addr:housenumber": "1651", "addr:postcode": "60622", "addr:state": "IL", "addr:street": "West Chicago Avenue", "amenity": "cafe", "cuisine": "coffee_shop", "name": "Pickwick Coffee"}}, {"type": "node", "id": 4567406790, "lat": 41.8962701, "lon": -87.6482164, "tags": {"addr:city": "Chicago", "addr:housenumber": "811", "addr:postcode": "60642", "addr:state": "IL", "addr:street": "West Chicago Avenue", "amenity": "cafe", "name": "Cafe Blue", "phone": "+1-312-763-2870", "website": "http://www.cafe.blue/"}}, {"type": "node", "id": 4567575190, "lat": 41.8844194, "lon": -87.6613607, "tags": {"addr:city": "Chicago", "addr:housenumber": "1364", "addr:postcode": "60607", "addr:state": "IL", "addr:street": "West Randolph Street", "amenity": "restaurant", "cuisine": "japanese;asian;bbq;barbecue;barbeque", "name": "Gyu-Kaku Japanese BBQ", "name:en": "Gyu-Kaku Japanese BBQ", "opening_hours": "Mo-Th 11:30-22:00; Fr-Sa 11:30-22:30; Su 11:30-21:30", "phone": "+1-312-982-2840", "website": "https://www.gyu-kaku.com/"}}, {"type": "node", "id": 4688046612, "lat": 41.8846306, "lon": -87.6478713, "tags": {"addr:city": "Chicago", "addr:housenumber": "800", "addr:postcode": "60607", "addr:state": "IL", "addr:street": "West Randolph Street", "amenity": "bar", "name": "Lone Wolf", "opening_hours": "Mo-Fr 16:00-02:00; Sa 12:00-15:00; Su 12:00-02:00", "phone": "+1-312-600-9391", "website": "https://www.lonewolftavern.com/#new-page"}}, {"type": "node", "id": 4697798553, "lat": 41.894242, "lon": -87.659813, "tags": {"addr:city": "Chicago", "addr:housenumber": "1303", "addr:postcode": "60642", "addr:state": "IL", "addr:street": "West Huron Street", "amenity": "restaurant", "cuisine": "mexican", "name": "Taqueria El Jardin", "opening_hours": "09:00-19:30", "outdoor_seating": "no", "smoking": "no", "takeaway": "yes"}}, {"type": "node", "id": 4726220389, "lat": 41.8858519, "lon": -87.648447, "tags": {"addr:city": "Chicago", "addr:housenumber": "820", "addr:postcode": "60607", "addr:state": "IL", "addr:street": "West Lake Street", "amenity": "restaurant", "cuisine": "japanese;sushi", "name": "The Izakaya at Momotaro", "opening_hours": "Su 16:30-22:30; Mo-Th 17:00-22:30; Fr 16:30-23:00; Sa 16:30-00:00", "phone": "+1-312-733-4818", "website": "http://momotarochicago.com"}}, {"type": "node", "id": 4731260221, "lat": 41.8869199, "lon": -87.652526, "tags": {"addr:city": "Chicago", "addr:housenumber": "1000", "addr:postcode": "60607", "addr:state": "IL", "addr:street": "West Fulton Market", "amenity": "restaurant", "cuisine": "seafood;sandwiches", "name": "Cold Storage", "name:en": "Cold Storage", "opening_hours": "Mo-Th 11:00-23:00; Sa 16:30-00:00; Su 16:30-22:30", "phone": "+1-312-638-6280", "website": "https://www.coldstoragechicago.com/"}}, {"type": "node", "id": 4888074922, "lat": 41.8891109, "lon": -87.6520123, "tags": {"addr:city": "Chicago", "addr:housenumber": "401", "addr:postcode": "60607", "addr:state": "IL", "addr:street": "North Morgan Street", "amenity": "restaurant", "delivery": "no", "description": "The Brass Monkey is a private event venue.", "name": "The Brass Monkey", "outdoor_seating": "no", "phone": "+1-312-763-3316", "takeaway": "no"}}, {"type": "node", "id": 5028745128, "lat": 41.8959528, "lon": -87.6660177, "tags": {"addr:postcode": "60622", "amenity": "restaurant", "cuisine": "mexican;french", "name": "Mexique", "phone": "(312)850-0288"}}, {"type": "node", "id": 5141715525, "lat": 41.884627, "lon": -87.6479979, "tags": {"addr:housenumber": "802", "addr:street": "West Randolph Street", "amenity": "restaurant", "name": "Bad Hunter"}}, {"type": "node", "id": 5168249921, "lat": 41.884148, "lon": -87.6493685, "tags": {"addr:city": "Chicago", "addr:housenumber": "847", "addr:postcode": "60607", "addr:state": "IL", "addr:street": "West Randolph Street", "amenity": "restaurant", "cuisine": "indian", "description": "Bib Gourmand recommendation", "name": "Jaipur", "opening_hours": "Mo-Su 11:00-14:30, 17:00-20:45", "phone": "+1-312-526-3655", "website": "http://jaipurindiancuisinechicago.com/"}}, {"type": "node", "id": 5249789676, "lat": 41.8848398, "lon": -87.6507983, "tags": {"addr:city": "Chicago", "addr:housenumber": "161", "addr:postcode": "60607", "addr:state": "IL", "addr:street": "North Sangamon Street", "amenity": "restaurant", "cuisine": "roman;italian", "name": "Bonci Pizzeria", "opening_hours": "Mo-Th 11:00-22:00; Fr-Sa 11:00-23:00; Su 11:00-21:00", "phone": "+1-312-243-4016", "website": "https://bonciusa.com/"}}, {"type": "node", "id": 5299997866, "lat": 41.896462, "lon": -87.6550805, "tags": {"addr:city": "Chicago", "addr:housenumber": "1062", "addr:postcode": "60642", "addr:state": "IL", "addr:street": "West Chicago Avenue", "amenity": "restaurant", "name": "Windy City Cafe", "phone": "+1-312-492-8010", "website": "https://windycity-cafe.com/"}}, {"type": "node", "id": 5398863224, "lat": 41.8913731, "lon": -87.648171, "tags": {"addr:city": "Chicago", "addr:housenumber": "506", "addr:postcode": "60642", "addr:state": "IL", "addr:street": "North Milwaukee Avenue", "amenity": "cafe", "cuisine": "coffee_shop", "name": "Starbucks"}}, {"type": "node", "id": 5441371907, "lat": 41.8872097, "lon": -87.650725, "tags": {"addr:city": "Chicago", "addr:housenumber": "311", "addr:postcode": "60607", "addr:state": "IL", "addr:street": "North Sangamon Street", "amenity": "restaurant", "cuisine": "american;drinks", "name": "Fulton Market Kitchen", "opening_hours": "Tu-Fr 17:00-02:00; Sa 17:00-03:00", "phone": "+1-312-733-6900", "website": "https://www.fultonmarketkitchen.com/"}}, {"type": "node", "id": 5441373072, "lat": 41.8866336, "lon": -87.6494008, "tags": {"addr:city": "Chicago", "addr:housenumber": "847", "addr:postcode": "60607", "addr:state": "IL", "addr:street": "West Fulton Market", "amenity": "restaurant", "cuisine": "southern;chicken;fried_chicken", "name": "Gus's World Famous Fried Chicken", "opening_hours": "Mo-Th 11:00-22:00; Fr-Sa 11:00-23:00; Su 11:00-21:00", "phone": "+1-312-733-1971", "website": "http://gusfriedchicken.com/"}}, {"type": "node", "id": 5441374473, "lat": 41.8866376, "lon": -87.6496341, "tags": {"addr:city": "Chicago", "addr:housenumber": "857", "addr:postcode": "60607", "addr:state": "IL", "addr:street": "West Fulton Market", "amenity": "restaurant", "cuisine": "chinese", "name": "Duck Duck Goat", "opening_hours": "Su-Th 16:30-22:30; Fr-Sa 16:30-23:30; Sa-Su 11:00-16:00", "phone": "+1-312-902-3825", "website": "duckduckgoatchicago.com"}}, {"type": "node", "id": 5441377149, "lat": 41.886605, "lon": -87.6518793, "tags": {"addr:city": "Chicago", "addr:housenumber": "951", "addr:postcode": "60607", "addr:state": "IL", "addr:street": "West Fulton Market", "amenity": "restaurant", "cuisine": "american", "name": "Roister Restaurant", "opening_hours": "Mo-Th 17:00-21:00; Fr-Su 10:00-14:00; Fr-Su 17:00-22:00", "website": "http://roisterrestaurant.com"}}, {"type": "node", "id": 5441383176, "lat": 41.8869381, "lon": -87.6488617, "tags": {"addr:city": "Chicago", "addr:housenumber": "834", "addr:postcode": "60607", "addr:state": "IL", "addr:street": "West Fulton Market", "amenity": "restaurant", "cuisine": "american;drinks", "name": "Beatrix Fulton Market", "opening_hours": "Mo-Fr 07:00-22:00; Sa 08:00-23:00; Su 08:00-21:00", "phone": "+1-312-733-0370", "website": "http://beatrixrestaurants.com"}}, {"type": "node", "id": 5441383743, "lat": 41.8869605, "lon": -87.6496187, "tags": {"addr:city": "Chicago", "addr:housenumber": "852", "addr:postcode": "60607", "addr:state": "IL", "addr:street": "West Fulton Market", "amenity": "restaurant", "cuisine": "burger", "name": "Kuma's Corner - West Loop", "opening_hours": "Su-Th 11:15-23:00; Fr-Sa 11:15-00:00", "phone": "+1-312-666-9090", "website": "https://kumascorner.com/"}}, {"type": "node", "id": 5441385374, "lat": 41.8866515, "lon": -87.6484218, "tags": {"addr:city": "Chicago", "addr:housenumber": "819", "addr:postcode": "60607", "addr:state": "IL", "addr:street": "West Fulton Market", "amenity": "restaurant", "cuisine": "ramen;noodle", "name": "Omakase Takeya", "opening_hours": "Tu-Su 11:30-14:30; We-Th 17:00-22:30; Fr-Sa 17:00-23:00; Su 17:00-21:30", "phone": "+1-312-666-7710", "website": "http://ramentakeya.com"}}, {"type": "node", "id": 5441388896, "lat": 41.8875203, "lon": -87.6519922, "tags": {"addr:city": "Chicago", "addr:housenumber": "311", "addr:postcode": "60607", "addr:state": "IL", "addr:street": "North Morgan Street", "amenity": "restaurant", "cuisine": "american;drinks", "name": "City Mouse Chicago", "opening_hours": "Mo-Su 07:00-23:00", "phone": "+1-312-764-1908", "website": "https://www.citymousechicago.com/"}}, {"type": "node", "id": 5441396526, "lat": 41.8876449, "lon": -87.6523807, "tags": {"addr:city": "Chicago", "addr:housenumber": "326", "addr:postcode": "60607", "addr:state": "IL", "addr:street": "North Morgan Street", "amenity": "restaurant", "cuisine": "american;street_food", "name": "Regards to Edith", "opening_hours": "Mo-Th 17:00-22:00; Fr 16:00-23:00; Sa 10:00-23:00; Su 10:00-22:00", "phone": "+1-312-763-6564", "website": "regardstoedith.com"}}, {"type": "node", "id": 5441403136, "lat": 41.8871969, "lon": -87.6524263, "tags": {"addr:city": "Chicago", "addr:housenumber": "1000", "addr:postcode": "60607", "addr:state": "IL", "addr:street": "West Fulton Market", "amenity": "restaurant", "cuisine": "steak;seafood", "name": "Swift & Sons", "opening_hours": "Mo-Th 16:30-23:00; Fr-Sa 16:30-00:00; Su 16:30-22:30", "phone": "+1-312-733-9420", "website": "https://www.swiftandsonschicago.com/"}}, {"type": "node", "id": 5448894821, "lat": 41.8845857, "lon": -87.6542009, "tags": {"addr:city": "Chicago", "addr:housenumber": "1048", "addr:postcode": "60607", "addr:state": "IL", "addr:street": "West Randolph Street", "amenity": "restaurant", "cuisine": "pizza;italian", "email": "Fornorossochicago@gmail.com", "name": "Forno Rosso Pizzeria Napoletana", "opening_hours": "Su-Th 11:00-22:00; Fr-Sa 11:00-00:00", "phone": "+1-773-716-3000", "website": "http://www.fornorossopizzeria.com/"}}, {"type": "node", "id": 5452994604, "lat": 41.8853503, "lon": -87.6519829, "tags": {"addr:city": "Chicago", "addr:housenumber": "181", "addr:postcode": "60607", "addr:state": "IL", "addr:street": "North Morgan Street", "amenity": "cafe", "cuisine": "donut;coffee;chicken;sandwich", "name": "Do-Rite Donuts & Coffee", "opening_hours": "Mo-Th 06:30-19:00; Fr 06:30-01:00; Sa 07:00-01:00; Su 07:00-19:00", "phone": "+1-312-624-8878", "website": "http://doritedonuts.com/"}}, {"type": "node", "id": 5460377110, "lat": 41.8847628, "lon": -87.6472909, "tags": {"addr:city": "Chicago", "addr:housenumber": "738", "addr:postcode": "60661", "addr:state": "IL", "addr:street": "West Randolph Street", "amenity": "restaurant", "name": "Ronero", "phone": "+1-312-600-6105", "website": "https://www.ronerochicago.com/"}}, {"type": "node", "id": 5460380983, "lat": 41.8847049, "lon": -87.646666, "tags": {"addr:city": "Chicago", "addr:housenumber": "720", "addr:postcode": "60661", "addr:state": "IL", "addr:street": "West Randolph Street", "amenity": "restaurant", "cuisine": "japanese;sushi;asian", "name": "Tanoshii", "opening_hours": "Mo-Fr 11:30-14:30; Su-Th 16:30-22:00; Fr-Sa 16:30-23:00", "phone": "+1-312-207-8894", "website": "http://tanoshiisushi.com/"}}, {"type": "node", "id": 5460388170, "lat": 41.8849925, "lon": -87.6472212, "tags": {"addr:city": "Chicago", "addr:housenumber": "738", "addr:postcode": "60661", "addr:state": "IL", "addr:street": "West Randolph Street", "amenity": "bar", "name": "Esco Bar", "opening_hours": "Th-Fr 21:00-02:00; Sa 21:00-03:00", "phone": "+1-872-206-5245"}}, {"type": "node", "id": 5460389674, "lat": 41.8841852, "lon": -87.6477165, "tags": {"amenity": "restaurant", "cuisine": "mediterranean;tapas", "name": "Nia Mediterranean Tapas", "opening_hours": "Su-Th 16:30-22:00; Fr-Sa 16:30-23:00", "phone": "+1-312-226-3110", "website": "https://www.niarestaurant.com/"}}, {"type": "node", "id": 5460391091, "lat": 41.8848667, "lon": -87.6477496, "tags": {"addr:city": "Chicago", "addr:housenumber": "160", "addr:postcode": "60661", "addr:state": "IL", "addr:street": "North Halsted Street", "amenity": "restaurant", "cuisine": "american;breakfast;sandwich;burger", "name": "Johnnies Snack Shop", "opening_hours": "Mo-Sa 06:00-15:00; Su 07:00-14:00", "phone": "+1-312-226-7769", "website": "http://johnniessnackshop.com/"}}, {"type": "node", "id": 5460409431, "lat": 41.884171, "lon": -87.6484133, "tags": {"addr:city": "Chicago", "addr:housenumber": "823", "addr:postcode": "60607", "addr:state": "IL", "addr:street": "West Randolph Street", "amenity": "restaurant", "cuisine": "japanese;sushi;asian", "name": "sushiDOKKU", "opening_hours": "Tu-Th 12:00-22:00; Fr 12:00-23:00; Sa 17:00-23:00", "phone": "+1-312-455-8238", "website": "http://sushidokku.com/"}}, {"type": "node", "id": 5460565146, "lat": 41.8854339, "lon": -87.6524622, "tags": {"addr:city": "Chicago", "addr:housenumber": "180", "addr:postcode": "60607", "addr:state": "IL", "addr:street": "North Morgan Street", "amenity": "restaurant", "cuisine": "mexican;barbecue;bbq;taco;tacos", "name": "Federales", "opening_hours": "Mo-Th 16:00-02:00; Fr 11:00-02:00; Sa 11:00-03:00; Su 11:00-02:00", "phone": "+1-773-831-9696", "website": "https://federaleschicago.com/"}}, {"type": "node", "id": 5460569481, "lat": 41.8854238, "lon": -87.6526362, "tags": {"addr:city": "Chicago", "addr:housenumber": "1009", "addr:postcode": "60607", "addr:state": "IL", "addr:street": "West Lake Street", "amenity": "restaurant", "cuisine": "sandwich;american", "name": "The Corned Beef Factory Sandwich Shop", "opening_hours": "Mo-Fr 06:00-15:00; Sa 10:00-15:00", "phone": "+1-312-666-2536", "website": "http://cornedbeeffactorychicago.com/"}}, {"type": "node", "id": 5460570321, "lat": 41.8857772, "lon": -87.6527738, "tags": {"addr:city": "Chicago", "addr:housenumber": "1012", "addr:postcode": "60607", "addr:state": "IL", "addr:street": "West Lake Street", "amenity": "cafe", "cuisine": "juice;american;organic", "name": "Harvest Juicery", "opening_hours": "Mo-Fr 07:00-19:00; Sa 08:00-14:00", "phone": "+1-312-265-0182", "website": "https://www.harvestjuicery.com/"}}, {"type": "node", "id": 5460571170, "lat": 41.8857512, "lon": -87.6519857, "tags": {"addr:city": "Chicago", "addr:housenumber": "201", "addr:postcode": "60607", "addr:state": "IL", "addr:street": "North Morgan Street", "amenity": "restaurant", "cuisine": "latin_american;tapas", "name": "Bar Takito", "opening_hours": "Mo-Tu 11:00-22:00; We-Th 11:00-23:00; Fr-Sa 11:00-01:00; Su 11:00-15:00", "phone": "+1-312-888-9602", "website": "http://bartakito.com/"}}, {"type": "node", "id": 5460583911, "lat": 41.8845456, "lon": -87.6492396, "tags": {"addr:city": "Chicago", "addr:housenumber": "844", "addr:postcode": "60607", "addr:state": "IL", "addr:street": "West Randolph Street", "amenity": "bar", "name": "Backdoor Saloon", "phone": "+1-312-491-0844", "website": "https://www.thebackdoorsaloon.com/"}}, {"type": "node", "id": 5460586766, "lat": 41.8846081, "lon": -87.6499579, "tags": {"addr:city": "Chicago", "addr:housenumber": "900", "addr:postcode": "60607", "addr:state": "IL", "addr:street": "West Randolph Street", "amenity": "restaurant", "cuisine": "mexican;latin_american", "name": "Le\u00f1a Brava", "opening_hours": "Tu-Th 17:30-22:00; Fr-Sa 17:30-23:00; Su 17:30-21:00", "phone": "+1-312-733-1975", "website": "http://www.rickbayless.com/restaurants/lena-brava/"}}, {"type": "node", "id": 5460599291, "lat": 41.8846013, "lon": -87.6501403, "tags": {"addr:city": "Chicago", "addr:housenumber": "904", "addr:postcode": "60607", "addr:state": "IL", "addr:street": "West Randolph Street", "amenity": "restaurant", "cuisine": "taco;mexican", "name": "Cruz Blanca Brewery & Taquer\u00eda", "opening_hours": "Tu-Th 11:00-22:00; Fr-Sa 11:00-00:00; Su 11:00-21:00", "phone": "+1-312-733-1975", "website": "http://cruzblanca.com"}}, {"type": "node", "id": 5460607041, "lat": 41.8847223, "lon": -87.6487697, "tags": {"addr:city": "Chicago", "addr:housenumber": "832", "addr:postcode": "60607", "addr:state": "IL", "addr:street": "West Randolph Street", "amenity": "cafe", "cuisine": "donut;coffee_shop;coffee", "name": "Bombobar - West Loop", "opening_hours": "Mo-Su 08:00-23:00", "phone": "+1-312-967-7000", "website": "http://www.bombobar.com/"}}, {"type": "node", "id": 5460610021, "lat": 41.8855009, "lon": -87.648244, "tags": {"addr:city": "Chicago", "addr:housenumber": "817", "addr:postcode": "60607", "addr:state": "IL", "addr:street": "West Lake Street", "amenity": "restaurant", "cuisine": "american;fine_dining", "name": "BLVD", "opening_hours": "Su-Mo 17:00-22:00; Tu-Th 17:00-23:00; Fr-Sa 17:00-00:00", "phone": "+1-312-526-3116", "website": "https://blvdchicago.com/"}}, {"type": "node", "id": 5460621821, "lat": 41.8844846, "lon": -87.6627038, "tags": {"addr:city": "Chicago", "addr:housenumber": "1400", "addr:postcode": "60607", "addr:state": "IL", "addr:street": "West Randolph Street", "amenity": "restaurant", "cuisine": "asian;barbecue;bbq;barbeque", "name": "bellyQ", "opening_hours": "Mo-Sa 17:00-22:00", "phone": "+1-312-563-1010", "website": "http://www.bellyqchicago.com/"}}, {"type": "node", "id": 5460625911, "lat": 41.8849698, "lon": -87.6604106, "tags": {"addr:city": "Chicago", "addr:housenumber": "177", "addr:postcode": "60607", "addr:state": "IL", "addr:street": "North Ada Street", "addr:unit": "001", "amenity": "restaurant", "cuisine": "american", "name": "The Loyalist", "opening_hours": "Tu-Th 16:00-23:00; Fr-Sa 16:00-01:00", "phone": "+1-773-913-3774", "website": "http://www.smythandtheloyalist.com"}}, {"type": "node", "id": 5460642403, "lat": 41.8845043, "lon": -87.6611939, "tags": {"addr:city": "Chicago", "addr:housenumber": "1358", "addr:postcode": "60607", "addr:state": "IL", "addr:street": "West Randolph Street", "amenity": "restaurant", "cuisine": "breakfast;american", "name": "Bespoke Cuisine", "opening_hours": "Mo-Fr 09:00-17:00", "phone": "+1-312-455-8400", "website": "http://bespokecuisine.com/"}}, {"type": "node", "id": 5460645975, "lat": 41.8841706, "lon": -87.6482249, "tags": {"addr:city": "Chicago", "addr:housenumber": "823", "addr:postcode": "60607", "addr:state": "IL", "addr:street": "West Randolph Street", "amenity": "bar", "name": "Booze Box", "opening_hours": "Tu-Th 18:00-00:00; Fr-Sa 18:00-02:00", "phone": "+1-312-455-8238", "website": "http://sushidokku.com/booze-box/"}}, {"type": "node", "id": 5460646709, "lat": 41.8844593, "lon": -87.6626445, "tags": {"addr:city": "Chicago", "addr:housenumber": "1400", "addr:postcode": "60607", "addr:state": "IL", "addr:street": "West Randolph Street", "amenity": "restaurant", "cuisine": "asian", "name": "urbanbelly", "opening_hours": "Mo-Sa 11:00-22:00", "phone": "+1-773-583-0500", "website": "http://www.urbanbellychicago.com/"}}, {"type": "node", "id": 5460648618, "lat": 41.8866344, "lon": -87.6482299, "tags": {"addr:city": "Chicago", "addr:housenumber": "817", "addr:postcode": "60607", "addr:state": "IL", "addr:street": "West Fulton Market", "amenity": "restaurant", "cuisine": "mexican;sandwich", "name": "Cemitas Puebla", "opening_hours": "Su-Th 11:00-21:00; Fr-Sa 11:00-22:30", "phone": "+1-312-455-9200", "website": "http://www.cemitaspuebla.com/"}}, {"type": "node", "id": 5460657121, "lat": 41.8846692, "lon": -87.6570694, "tags": {"addr:city": "Chicago", "addr:housenumber": "1200", "addr:postcode": "60607", "addr:state": "IL", "addr:street": "West Randolph Street", "amenity": "bar", "name": "City Winery", "opening_hours": "Su-We 11:00-22:00; Th-Sa 11:00-23:00", "phone": "+1-312-733-9463", "website": "http://www.citywinery.com/chicago/"}}, {"type": "node", "id": 5460660364, "lat": 41.8844717, "lon": -87.6609272, "tags": {"addr:city": "Chicago", "addr:housenumber": "1350", "addr:postcode": "60607", "addr:state": "IL", "addr:street": "West Randolph Street", "amenity": "restaurant", "cuisine": "american", "name": "Elske", "opening_hours": "We-Th 18:00-22:00; Fr-Sa 18:00-23:00; Su 18:00-22:00", "phone": "+1-312-733-1314", "website": "https://elskerestaurant.com/"}}, {"type": "node", "id": 5460661639, "lat": 41.8909236, "lon": -87.6474629, "tags": {"addr:city": "Chicago", "addr:housenumber": "494", "addr:postcode": "60654", "addr:state": "IL", "addr:street": "North Milwaukee Avenue", "amenity": "restaurant", "cuisine": "american;burger", "name": "Maillard Tavern", "opening_hours": "Su-Th 11:00-23:00; Fr-Sa 11:00-01:00", "phone": "+1-312-766-2727", "website": "https://www.maillardtavern.com/"}}, {"type": "node", "id": 5460663376, "lat": 41.8866569, "lon": -87.6491936, "tags": {"addr:city": "Chicago", "addr:housenumber": "839", "addr:postcode": "60607", "addr:state": "IL", "addr:street": "West Fulton Market", "amenity": "bar", "name": "Emporium Arcade Bar", "opening_hours": "Mo-Th 16:00-02:00; Fr 15:00-02:00; Sa 12:00-03:00; Su 12:00-02:00", "phone": "+1-312-733-2222", "website": "http://www.emporiumchicago.com/"}}, {"type": "node", "id": 5460666621, "lat": 41.8872669, "lon": -87.6490322, "tags": {"addr:city": "Chicago", "addr:housenumber": "310", "addr:postcode": "60607", "addr:state": "IL", "addr:street": "North Green Street", "amenity": "restaurant", "name": "Punch Bowl Social Chicago", "phone": "+1-312-809-9551", "website": "https://www.punchbowlsocial.com/"}}, {"type": "node", "id": 5460671009, "lat": 41.8905209, "lon": -87.6591892, "tags": {"addr:city": "Chicago", "addr:housenumber": "459", "addr:postcode": "60642", "addr:state": "IL", "addr:street": "North Ogden Avenue", "amenity": "bar", "name": "G & O", "opening_hours": "Mo-Fr 16:00-02:00; Sa 10:00-03:00; Su 10:00-00:00", "phone": "+1-312-888-3367", "website": "http://grandandogden.com/"}}, {"type": "node", "id": 5460688022, "lat": 41.8846734, "lon": -87.6472823, "tags": {"addr:city": "Chicago", "addr:housenumber": "740", "addr:postcode": "60661", "addr:state": "IL", "addr:street": "West Randolph Street", "amenity": "restaurant", "cuisine": "mexican", "name": "La Josie", "opening_hours": "Mo-Th 11:00-01:00; Fr-Sa 11:00-02:00; Su 11:00-00:00", "phone": "+1-312-929-2900", "website": "https://www.lajosie.com/"}}, {"type": "node", "id": 5460697773, "lat": 41.8852668, "lon": -87.6582229, "tags": {"addr:city": "Chicago", "addr:housenumber": "1235", "addr:postcode": "60607", "addr:state": "IL", "addr:street": "West Lake Street", "amenity": "restaurant", "cuisine": "italian", "name": "Macello Ristorante", "opening_hours": "Tu-Th 11:30-22:00; Fr 11:30-23:00; Sa 17:00-23:00; Su 15:00-20:00", "phone": "+1-312-850-9870"}}, {"type": "node", "id": 5460698312, "lat": 41.8846138, "lon": -87.658239, "tags": {"addr:city": "Chicago", "addr:housenumber": "1240", "addr:postcode": "60607", "addr:state": "IL", "addr:street": "West Randolph Street", "amenity": "restaurant", "cuisine": "middle_eastern", "name": "Alhambra Palace", "opening_hours": "Su-Mo 11:00-22:00; Tu 11:00-02:00; We-Th 11:00-22:00; Fr 11:00-01:45; Sa 11:00-02:45", "phone": "+1-312-666-9555", "website": "http://www.alhambrapalacerestaurant.com/"}}, {"type": "node", "id": 5460701279, "lat": 41.8846236, "lon": -87.6489767, "tags": {"addr:city": "Chicago", "addr:housenumber": "838", "addr:postcode": "60607", "addr:state": "IL", "addr:street": "West Randolph Street", "amenity": "restaurant", "cuisine": "american", "name": "Nosh & Booze", "opening_hours": "Tu-Th 16:00-23:00; Fr 12:00-23:00; Sa 10:00-23:00; Su 10:00-17:00", "phone": "+1-312-733-6090", "website": "http://www.noshingaround.com/"}}, {"type": "node", "id": 5460708812, "lat": 41.8908598, "lon": -87.647944, "tags": {"addr:city": "Chicago", "addr:housenumber": "464", "addr:postcode": "60642", "addr:state": "IL", "addr:street": "North Halsted Street", "amenity": "restaurant", "cuisine": "italian", "name": "Piccolo Sogno", "opening_hours": "Mo-Th 11:30-14:30, 17:30-22:30; Fr 11:30-14:30, 17:00-23:00; Sa 17:00-23:00; Su 17:00-22:00", "phone": "+1-312-421-0077", "website": "https://www.piccolosognorestaurant.com/"}}, {"type": "node", "id": 5460714621, "lat": 41.887566, "lon": -87.6524066, "tags": {"addr:city": "Chicago", "addr:housenumber": "326", "addr:postcode": "60607", "addr:state": "IL", "addr:street": "North Morgan Street", "amenity": "bar", "name": "Prairie School", "opening_hours": "Su-We 16:00-02:00; Th 17:00-02:00; Fr-Sa 16:00-02:00", "phone": "+1-312-763-6564", "website": "https://www.prairieschoolchicago.com/"}}, {"type": "node", "id": 5460722827, "lat": 41.8852803, "lon": -87.6605832, "tags": {"addr:city": "Chicago", "addr:housenumber": "177", "addr:postcode": "60607", "addr:state": "IL", "addr:street": "North Ada Street", "addr:unit": "101", "amenity": "restaurant", "cuisine": "new_american;american", "name": "Smyth", "opening_hours": "Tu-Sa 17:00-22:00", "phone": "+1-773-913-3773", "website": "http://www.smythandtheloyalist.com/smyth"}}, {"type": "node", "id": 5460735957, "lat": 41.8897346, "lon": -87.6620754, "tags": {"addr:city": "Chicago", "addr:housenumber": "1381", "addr:postcode": "60642", "addr:state": "IL", "addr:street": "West Hubbard Street", "amenity": "restaurant", "cuisine": "american;breakfast", "name": "The Breakfast Club & Grill", "phone": "+1-312-666-2372", "website": "https://thebreakfastclubchicago.com/"}}, {"type": "node", "id": 5460758421, "lat": 41.8912522, "lon": -87.6559754, "tags": {"addr:city": "Chicago", "addr:housenumber": "1132", "addr:postcode": "60642", "addr:state": "IL", "addr:street": "West Grand Avenue", "amenity": "restaurant", "cuisine": "american", "name": "TWO Restaurant", "opening_hours": "Tu-Th 17:00-22:00; Fr-Sa 17:00-23:00; Su 17:00-21:00", "phone": "+1-312-624-8363", "website": "http://113two.com/"}}, {"type": "node", "id": 5460763042, "lat": 41.8875396, "lon": -87.6518407, "tags": {"addr:city": "Chicago", "addr:housenumber": "311", "addr:postcode": "60607", "addr:state": "IL", "addr:street": "North Morgan Street", "amenity": "restaurant", "cuisine": "american", "name": "Waydown", "opening_hours": "Su-Fr 16:00-02:00; Sa 16:00-03:00", "outdoor_seating": "no", "phone": "+1-312-764-1919", "website": "https://www.acehotel.com/"}}, {"type": "node", "id": 5460766489, "lat": 41.8876567, "lon": -87.6520507, "tags": {"addr:city": "Chicago", "addr:housenumber": "311", "addr:postcode": "60607", "addr:state": "IL", "addr:street": "North Morgan Street", "amenity": "cafe", "cuisine": "coffee_shop;coffee", "name": "Stumptown Coffee Roasters", "opening_hours": "Mo-Su 06:20-19:00", "phone": "+1-855-711-3385", "website": "http://www.stumptowncoffee.com/"}}, {"type": "node", "id": 5460836745, "lat": 41.8850614, "lon": -87.654223, "tags": {"addr:city": "Chicago", "addr:housenumber": "171", "addr:postcode": "60607", "addr:state": "IL", "addr:street": "North Aberdeen Street", "amenity": "restaurant", "cuisine": "american;sandwich", "name": "Capriotti's Sandwich Shop", "opening_hours": "Mo-Th 09:00-20:30; Fr 09:00-22:00; Sa 11:00-22:00; Su 11:00-20:30", "phone": "+1-312-988-0670", "website": "https://www.capriottis.com/"}}, {"type": "node", "id": 5460871124, "lat": 41.8963394, "lon": -87.6677065, "tags": {"addr:city": "Chicago", "addr:housenumber": "1604", "addr:postcode": "60622", "addr:state": "IL", "addr:street": "West Chicago Avenue", "amenity": "bar", "name": "Beatnik", "opening_hours": "Tu-Fr 17:00-02:00; Sa 11:00-03:00; Su 11:00-02:00", "phone": "+1-312-929-4945", "website": "https://www.beatnikchicago.com/"}}, {"type": "node", "id": 5829654085, "lat": 41.8958975, "lon": -87.6701778, "tags": {"addr:city": "Chicago", "addr:housenumber": "1709", "addr:postcode": "60622", "addr:state": "IL", "addr:street": "West Chicago Avenue", "amenity": "restaurant", "cuisine": "german", "name": "Funkenhausen", "opening_hours": "Mo-Th 17:00-23:00; Fr-Sa 17:00-00:00; Su 17:00-22:00", "phone": "+1-312-929-4727", "website": "https://www.funkenhausen.com/"}}, {"type": "node", "id": 5916848688, "lat": 41.8923569, "lon": -87.6620789, "tags": {"addr:city": "Chicago", "addr:housenumber": "543", "addr:postcode": "60642", "addr:state": "IL", "addr:street": "North Noble Street", "amenity": "restaurant", "name": "Nini's Deli", "phone": "+1-312-243-9822", "website": "https://ninisdeli.com/"}}, {"type": "node", "id": 6025987986, "lat": 41.8861336, "lon": -87.6484577, "tags": {"addr:city": "Chicago", "addr:housenumber": "217", "addr:postcode": "60607", "addr:state": "IL", "addr:street": "North Green Street", "amenity": "cafe", "name": "Limitless Coffee - Fulton Market", "phone": "+1-312-929-4643", "website": "https://limitlesscoffee.com/find-us/"}}, {"type": "node", "id": 6026364085, "lat": 41.8861214, "lon": -87.6488411, "tags": {"addr:city": "Chicago", "addr:housenumber": "212", "addr:postcode": "60607", "addr:state": "IL", "addr:street": "North Green Street", "amenity": "bar", "name": "Ballast Point Brewing", "phone": "+1-312-243-9570", "website": "https://www.ballastpoint.com/locations/"}}, {"type": "node", "id": 6026364086, "lat": 41.8861711, "lon": -87.6484558, "tags": {"addr:city": "Chicago", "addr:housenumber": "219", "addr:postcode": "60607", "addr:state": "IL", "addr:street": "North Green Street", "amenity": "restaurant", "cuisine": "japanese", "name": "Ramen-San", "phone": "+1-773-645-0085", "website": "https://www.ramensan.com/"}}, {"type": "node", "id": 6250223840, "lat": 41.8901294, "lon": -87.6595267, "tags": {"addr:city": "Chicago", "addr:housenumber": "439", "addr:postcode": "60642", "addr:state": "IL", "addr:street": "North Ogden Avenue", "amenity": "bar", "name": "439 Nightclub"}}, {"type": "node", "id": 6256520187, "lat": 41.8869088, "lon": -87.6488326, "tags": {"addr:city": "Chicago", "addr:housenumber": "302", "addr:postcode": "60607", "addr:state": "IL", "addr:street": "North Green Street", "addr:unit": "FL 3", "amenity": "restaurant", "cuisine": "american", "name": "Aba", "phone": "+1-773-645-1400", "website": "http://abarestaurantchicago.com"}}, {"type": "node", "id": 6262038806, "lat": 41.9008233, "lon": -87.6627954, "tags": {"addr:city": "Chicago", "addr:housenumber": "1046", "addr:postcode": "60622", "addr:state": "IL", "addr:street": "North Milwaukee Avenue", "amenity": "cafe", "name": "Arabia Caf\u00e9 & Hookah Lounge", "phone": "+1-773-276-2345"}}, {"type": "node", "id": 6265172903, "lat": 41.8963785, "lon": -87.6644256, "tags": {"addr:city": "Chicago", "addr:housenumber": "1450", "addr:postcode": "60654", "addr:state": "IL", "addr:street": "North Greenview Avenue", "amenity": "restaurant", "cuisine": "spanish;tapas;small_plates", "name": "Bar Biscay", "phone": "+1-312-455-8900", "website": "https://www.barbiscay.com"}}, {"type": "node", "id": 6265647624, "lat": 41.8963937, "lon": -87.6641441, "tags": {"addr:city": "Chicago", "addr:housenumber": "1444", "addr:postcode": "60642", "addr:state": "IL", "addr:street": "West Chicago Avenue", "amenity": "bar", "name": "Beauty Bar", "phone": "+1-312-226-8828", "website": "http://www.thebeautybar.com/"}}, {"type": "node", "id": 6267363323, "lat": 41.8869576, "lon": -87.6518004, "tags": {"addr:city": "Chicago", "addr:housenumber": "948", "addr:postcode": "60607", "addr:state": "IL", "addr:street": "West Fulton Market", "amenity": "bar", "name": "Blind Barber", "outdoor_seating": "yes", "phone": "+1-312-405-9929", "website": "https://blindbarber.com/"}}, {"type": "node", "id": 6269384932, "lat": 41.8909218, "lon": -87.6561974, "tags": {"addr:city": "Chicago", "addr:housenumber": "1139", "addr:postcode": "60642", "addr:state": "IL", "addr:street": "West Grand Avenue", "amenity": "restaurant", "name": "Butterfly Sushi Bar & Thai Cuisine", "phone": "+1-312- 563-5555", "website": "http://www.butterflysushi2go.com/"}}, {"type": "node", "id": 6269627500, "lat": 41.8959189, "lon": -87.6638671, "tags": {"addr:city": "Chicago", "addr:housenumber": "1437", "addr:postcode": "60642", "addr:state": "IL", "addr:street": "West Chicago Avenue", "amenity": "restaurant", "name": "Cafe Central", "phone": "+1-312-243-6776"}}, {"type": "node", "id": 6273529503, "lat": 41.8852726, "lon": -87.6617947, "tags": {"addr:city": "Chicago", "addr:housenumber": "1375", "addr:postcode": "60607", "addr:state": "IL", "addr:street": "West Lake Street", "amenity": "restaurant", "name": "Bottom Lounge Restaurant & Patio", "phone": "+1-312-666-6775", "website": "https://bottomlounge.com/"}}, {"type": "node", "id": 6282897113, "lat": 41.8913482, "lon": -87.6468352, "tags": {"addr:city": "Chicago", "addr:housenumber": "722", "addr:postcode": "60654", "addr:state": "IL", "addr:street": "West Grand Avenue", "amenity": "bar", "name": "Clover", "phone": "+1-312-344-1934", "website": "http://cloverchicago.com/"}}, {"type": "node", "id": 6283222471, "lat": 41.9008216, "lon": -87.6627776, "tags": {"addr:city": "Chicago", "addr:housenumber": "1046", "addr:postcode": "60622", "addr:state": "IL", "addr:street": "North Milwaukee Avenue", "amenity": "cafe", "name": "Coffee On Milwaukee", "phone": "+1-773-276-3200"}}, {"type": "node", "id": 6285894590, "lat": 41.8932185, "lon": -87.6676308, "tags": {"addr:city": "Chicago", "addr:housenumber": "624", "addr:postcode": "60622", "addr:state": "IL", "addr:street": "North Ashland Avenue", "amenity": "restaurant", "name": "El Potosino Grill", "phone": "+1-312-285-2711", "website": "http://orderelpotosinogrill.com/"}}, {"type": "node", "id": 6286444981, "lat": 41.8852921, "lon": -87.6550709, "tags": {"addr:city": "Chicago", "addr:housenumber": "1111", "addr:postcode": "60607", "addr:state": "IL", "addr:street": "West Lake Street", "amenity": "restaurant", "name": "Eleven Eleven", "phone": "+1-312-248-8942", "website": "https://elevenelevenchicago.com/"}}, {"type": "node", "id": 6290954452, "lat": 41.8963373, "lon": -87.6638657, "tags": {"addr:city": "Chicago", "addr:housenumber": "1434", "addr:postcode": "60642", "addr:state": "IL", "addr:street": "West Chicago Avenue", "amenity": "restaurant", "name": "Flo", "phone": "+1-312-243-0477", "website": "https://flochicago.com/"}}, {"type": "node", "id": 6291640639, "lat": 41.8859157, "lon": -87.6496107, "tags": {"addr:city": "Chicago", "addr:housenumber": "205", "addr:postcode": "60607", "addr:state": "IL", "addr:street": "North Peoria Street", "amenity": "restaurant", "name": "Fulton Market Company", "phone": "+1-312-989-9801", "website": "http://fultonmarketcompany.com/"}}, {"type": "node", "id": 6294267462, "lat": 41.8965552, "lon": -87.667071, "tags": {"addr:city": "Chicago", "addr:housenumber": "815", "addr:postcode": "60622", "addr:state": "IL", "addr:street": "North Ashland Avenue", "amenity": "cafe", "name": "Healthy and Simple", "phone": "+1-312-624-8971"}}, {"type": "node", "id": 6294395924, "lat": 41.895838, "lon": -87.6693982, "tags": {"addr:city": "Chicago", "addr:housenumber": "1651", "addr:postcode": "60622", "addr:state": "IL", "addr:street": "West Chicago Avenue", "amenity": "cafe", "name": "HERO Coffee Bar", "phone": "+1-312-285-2857", "website": "https://www.herocoffeebars.com/"}}, {"type": "node", "id": 6294534344, "lat": 41.8923742, "lon": -87.6619407, "tags": {"addr:city": "Chicago", "addr:housenumber": "1363", "addr:postcode": "60642", "addr:state": "IL", "addr:street": "West Ohio Street", "amenity": "restaurant", "name": "Home Team Pizza", "phone": "+1-312-291-8666", "website": "http://www.hometeampizzachicago.us/"}}, {"type": "node", "id": 6297808319, "lat": 41.8918097, "lon": -87.6474344, "tags": {"addr:city": "Chicago", "addr:housenumber": "517", "addr:postcode": "60642", "addr:state": "IL", "addr:street": "North Halsted Street", "amenity": "cafe", "name": "Iguana Caf\u00e9", "phone": "+1-312432-0663", "website": "http://www.iguanacafe.com/"}}, {"type": "node", "id": 6298375107, "lat": 41.8895868, "lon": -87.6507598, "tags": {"addr:city": "Chicago", "addr:housenumber": "415", "addr:postcode": "60642", "addr:state": "IL", "addr:street": "North Sangamon Street", "amenity": "bar", "name": "Illuminated Brew Works", "website": "http://www.ibw-chicago.com/"}}, {"type": "node", "id": 6298799785, "lat": 41.89088, "lon": -87.6583534, "tags": {"addr:city": "Chicago", "addr:housenumber": "1223", "addr:postcode": "60642", "addr:state": "IL", "addr:street": "West Grand Avenue", "amenity": "cafe", "name": "Sip Coffee House & Garden", "phone": "+1-312-563-1123", "website": "http://www.sipcoffeehouse.com/"}}, {"type": "node", "id": 6298813013, "lat": 41.895807, "lon": -87.6689374, "tags": {"addr:city": "Chicago", "addr:housenumber": "1641", "addr:postcode": "60622", "addr:state": "IL", "addr:street": "West Chicago Avenue", "amenity": "restaurant", "name": "Six06 Cafe Bar", "phone": "+1-312-929-4911", "website": "http://cafe606.com/"}}, {"type": "node", "id": 6300513971, "lat": 41.884604, "lon": -87.6523421, "tags": {"addr:city": "Chicago", "addr:housenumber": "1000", "addr:postcode": "60607", "addr:state": "IL", "addr:street": "West Randolph Street", "amenity": "cafe", "name": "Princi", "phone": "+1-312-243-9097", "website": "http://www.princi.com/"}}, {"type": "node", "id": 6300667059, "lat": 41.8963169, "lon": -87.6647172, "tags": {"addr:city": "Chicago", "addr:housenumber": "1458", "addr:postcode": "60642", "addr:state": "IL", "addr:street": "West Chicago Avenue", "amenity": "cafe", "name": "Standing Passengers", "phone": "+1-312-374-3177", "website": "https://www.standingpassengers.com/"}}, {"type": "node", "id": 6304001071, "lat": 41.8912668, "lon": -87.6618238, "tags": {"addr:city": "Chicago", "addr:housenumber": "1372", "addr:postcode": "60642", "addr:state": "IL", "addr:street": "West Grand Avenue", "amenity": "restaurant", "name": "Tempesta Market", "phone": "+1-312-929-2551", "website": "http://tempestamarket.com/"}}, {"type": "node", "id": 6304017578, "lat": 41.8989063, "lon": -87.6670205, "tags": {"addr:city": "Chicago", "addr:housenumber": "933", "addr:postcode": "60622", "addr:state": "IL", "addr:street": "North Ashland Avenue", "amenity": "restaurant", "cuisine": "american;american_new;new_american", "name": "Temporis", "opening_hours": "Tu-Sa 17:00-21:00", "phone": "+1-773-697-4961", "website": "https://www.temporischicago.com/"}}, {"type": "node", "id": 6306592684, "lat": 41.8857581, "lon": -87.6527639, "tags": {"addr:city": "Chicago", "addr:housenumber": "1016", "addr:postcode": "60607", "addr:state": "IL", "addr:street": "West Lake Street", "amenity": "restaurant", "name": "The Corned Beef Factory Sandwich Shop", "phone": "+1-312-666-2536", "website": "http://cornedbeeffactorychicago.com/"}}, {"type": "node", "id": 6307019781, "lat": 41.8913101, "lon": -87.6585687, "tags": {"addr:city": "Chicago", "addr:housenumber": "501", "addr:postcode": "60642", "addr:state": "IL", "addr:street": "North Ogden Avenue", "amenity": "restaurant", "name": "Twisted Spoke", "phone": "+1-312-666-1500", "website": "http://twistedspoke.com/"}}, {"type": "node", "id": 6315186963, "lat": 41.8989749, "lon": -87.6490724, "tags": {"addr:city": "Chicago", "addr:housenumber": "900", "addr:postcode": "60642", "addr:state": "IL", "addr:street": "North Branch Street", "amenity": "cafe", "name": "The Daily Grind", "phone": "+1-312-752-2000"}}, {"type": "node", "id": 6315187492, "lat": 41.8841859, "lon": -87.6501448, "tags": {"addr:city": "Chicago", "addr:housenumber": "905", "addr:postcode": "60607", "addr:state": "IL", "addr:street": "West Randolph Street", "amenity": "bar", "name": "The Darling", "phone": "+1-312-285-2609", "website": "https://thedarlingchi.com/"}}, {"type": "node", "id": 6315188078, "lat": 41.8913788, "lon": -87.647221, "tags": {"addr:city": "Chicago", "addr:housenumber": "730", "addr:postcode": "60654", "addr:state": "IL", "addr:street": "West Grand Avenue", "amenity": "restaurant", "name": "The Dawson", "phone": "+1-312-243-8955", "website": "https://the-dawson.com/"}}, {"type": "node", "id": 6315603271, "lat": 41.8932944, "lon": -87.6620632, "tags": {"addr:city": "Chicago", "addr:housenumber": "1367", "addr:postcode": "60642", "addr:state": "IL", "addr:street": "West Erie Street", "amenity": "bar", "name": "The Irish Nobleman", "phone": "+1-312-374-3487", "website": "http://www.irishnobleman.com/"}}, {"type": "node", "id": 6315665345, "lat": 41.8957112, "lon": -87.6548491, "tags": {"addr:city": "Chicago", "addr:housenumber": "770", "addr:postcode": "60642", "addr:state": "IL", "addr:street": "North Milwaukee Avenue", "amenity": "bar", "name": "The Matchbox", "phone": "+1-312-666-9292"}}, {"type": "node", "id": 6315679717, "lat": 41.8865111, "lon": -87.6518726, "tags": {"addr:city": "Chicago", "addr:housenumber": "955", "addr:postcode": "60607", "addr:state": "IL", "addr:street": "West Fulton Market", "amenity": "restaurant", "name": "The Office", "phone": "+1-312-226-0868", "website": "https://www.exploretock.com/theoffice/"}}, {"type": "node", "id": 6319264224, "lat": 41.8991184, "lon": -87.666976, "tags": {"addr:city": "Chicago", "addr:housenumber": "939", "addr:postcode": "60622", "addr:state": "IL", "addr:street": "North Ashland Avenue", "amenity": "restaurant", "name": "Kimchi Pop", "phone": "+1-872-802-4424", "website": "https://www.kimchipopchicago.com/"}}, {"type": "node", "id": 6319897991, "lat": 41.8963535, "lon": -87.6639632, "tags": {"addr:city": "Chicago", "addr:housenumber": "1438", "addr:postcode": "60642", "addr:state": "IL", "addr:street": "West Chicago Avenue", "amenity": "restaurant", "name": "La Calavera Chicago", "phone": "+1-312-255-7925", "website": "http://www.calaverachicago.com/"}}, {"type": "node", "id": 6320612929, "lat": 41.8962815, "lon": -87.6678216, "tags": {"addr:city": "Chicago", "addr:housenumber": "1610", "addr:postcode": "60622", "addr:state": "IL", "addr:street": "West Chicago Avenue", "amenity": "bar", "name": "Loop Tavern", "phone": "+1-312-226-6740"}}, {"type": "node", "id": 6321398186, "lat": 41.8909316, "lon": -87.6474389, "tags": {"addr:city": "Chicago", "addr:housenumber": "494", "addr:postcode": "60654", "addr:state": "IL", "addr:street": "North Milwaukee Avenue", "amenity": "bar", "name": "Maillard Tavern", "phone": "+1-312-766-2727", "website": "https://www.maillardtavern.com/"}}, {"type": "node", "id": 6321599274, "lat": 41.8846847, "lon": -87.6491444, "tags": {"addr:city": "Chicago", "addr:housenumber": "840", "addr:postcode": "60607", "addr:state": "IL", "addr:street": "West Randolph Street", "amenity": "restaurant", "name": "Maude\u2019s Liquor Bar", "phone": "+1-312-243-9712", "website": "http://www.maudesliquorbar.com/"}}, {"type": "node", "id": 6322760739, "lat": 41.9012153, "lon": -87.6476574, "tags": {"addr:city": "Chicago", "addr:housenumber": "1059", "addr:postcode": "60642", "addr:state": "IL", "addr:street": "North Halsted Street", "amenity": "restaurant", "name": "Mod Mex & Mod Mix With Rick Bayless"}}, {"type": "node", "id": 6322784614, "lat": 41.8859058, "lon": -87.6484698, "tags": {"addr:city": "Chicago", "addr:housenumber": "820", "addr:postcode": "60607", "addr:state": "IL", "addr:street": "West Lake Street", "amenity": "restaurant", "name": "Momotaro", "phone": "+1-312-733-4818", "website": "https://www.momotarochicago.com/"}}, {"type": "node", "id": 6323827056, "lat": 41.8913263, "lon": -87.6554785, "tags": {"addr:city": "Chicago", "addr:housenumber": "1118", "addr:postcode": "60642", "addr:state": "IL", "addr:street": "West Grand Avenue", "amenity": "restaurant", "name": "Oggi Trattoria", "phone": "+1-312-733-0442", "website": "http://www.oggitrattoria.org/"}}, {"type": "node", "id": 6324088187, "lat": 41.8959969, "lon": -87.6621632, "tags": {"addr:city": "Chicago", "addr:housenumber": "1371", "addr:postcode": "60642", "addr:state": "IL", "addr:street": "West Chicago Avenue", "amenity": "restaurant", "name": "Opart Thai House", "phone": "+1-312-988-0986", "website": "https://www.opartthai.com"}}, {"type": "node", "id": 6324261230, "lat": 41.8859414, "lon": -87.6477162, "tags": {"addr:city": "Chicago", "addr:housenumber": "204", "addr:postcode": "60661", "addr:state": "IL", "addr:street": "North Halsted Street", "amenity": "bar", "name": "Paddy O\u2019Fegan\u2019s", "phone": "+1-312-997-3100", "website": "paddyofegans.com"}}, {"type": "node", "id": 6394391045, "lat": 41.889422, "lon": -87.6667839, "tags": {"addr:city": "Chicago", "addr:housenumber": "417", "addr:postcode": "60622", "addr:state": "IL", "addr:street": "North Ashland Avenue", "amenity": "bar", "brewery": "yes", "description": "District Brew Yards is a taproom for three breweries: Burnt City Brewing, Bold Dog Beer Co., Around the Bend Beer Co. ", "name": "District Brew Yards"}}, {"type": "node", "id": 6397120472, "lat": 41.8963061, "lon": -87.6648107, "tags": {"addr:city": "Chicago", "addr:housenumber": "1460", "addr:postcode": "60642", "addr:state": "IL", "addr:street": "West Chicago Avenue", "amenity": "restaurant", "cuisine": "asian;japanese", "name": "Jeong", "opening_hours": "Tu-Sa 17:00-22:00", "phone": "+1-312-877-5016", "website": "http://jeongchicago.com"}}, {"type": "node", "id": 6407178684, "lat": 41.8859191, "lon": -87.6488691, "tags": {"addr:city": "Chicago", "addr:housenumber": "200", "addr:postcode": "60607", "addr:state": "IL", "addr:street": "North Green Street", "amenity": "restaurant", "cuisine": "peruvian", "name": "Cabra", "opening_hours": "Su-Th 16:00-23:00; Fr-Sa 16:00-00:00", "phone": "+1-312-761-1717", "website": "https://www.cabrachicago.com"}}, {"type": "node", "id": 6407436054, "lat": 41.8858183, "lon": -87.6488637, "tags": {"addr:city": "Chicago", "addr:housenumber": "200", "addr:postcode": "60607", "addr:state": "IL", "addr:street": "North Green Street", "amenity": "restaurant", "cuisine": "breakfast;small_plates;tapas", "name": "Cira", "opening_hours": "Su-Th 07:00-23:00, Fr-Sa 07:00-00:00", "phone": "+1-312-761-1777", "website": "https://cirachicago.com/"}}, {"type": "node", "id": 6407444258, "lat": 41.8858782, "lon": -87.6488678, "tags": {"addr:city": "Chicago", "addr:housenumber": "200", "addr:postcode": "60607", "addr:state": "IL", "addr:street": "North Green Street", "amenity": "bar", "name": "Lazy Bird", "phone": "+1-312-761-1799", "website": "https://www.lazybirdchicago.com"}}, {"type": "node", "id": 6431343085, "lat": 41.8866245, "lon": -87.6497016, "tags": {"addr:city": "Chicago", "addr:housenumber": "857", "addr:postcode": "60607", "addr:state": "IL", "addr:street": "West Fulton Market", "amenity": "restaurant", "cuisine": "snackbar;snack;snacks;taiwanese", "name": "Baobing", "opening_hours": "Mo-Th 17:00-22:00; Fr 16:30-23:00; Sa 11:00-23:00; Su 11:00-22:00", "phone": "+1-312-902-3825", "website": "http://www.baobingchi.com"}}, {"type": "node", "id": 6459394817, "lat": 41.8858371, "lon": -87.6469637, "tags": {"addr:city": "Chicago", "addr:housenumber": "731", "addr:postcode": "60661", "addr:state": "IL", "addr:street": "West Lake Street", "amenity": "restaurant", "cuisine": "sushi;japanese;asian", "name": "Mako", "phone": "+1-312-988-0687", "website": "https://www.makochicago.com"}}, {"type": "node", "id": 6757767546, "lat": 41.886506, "lon": -87.6554061, "tags": {"addr:city": "Chicago", "addr:housenumber": "115", "addr:postcode": "60607", "addr:state": "IL", "addr:street": "West Fulton Market", "amenity": "restaurant", "cuisine": "regional", "name": "Fulton Galley", "phone": "+1-312-210-0920"}}, {"type": "node", "id": 6757776653, "lat": 41.8865666, "lon": -87.6518679, "tags": {"addr:city": "Chicago", "addr:housenumber": "951", "addr:postcode": "60607", "addr:state": "IL", "addr:street": "West Fulton Market", "amenity": "restaurant", "cuisine": "american", "name": "St. Clair Supper Club", "phone": "+1-312-789-4896", "website": "http://stclairsupperclub.com"}}, {"type": "node", "id": 6757797206, "lat": 41.8846497, "lon": -87.6471365, "tags": {"addr:city": "Chicago", "addr:housenumber": "736", "addr:postcode": "60661", "addr:state": "IL", "addr:street": "West Randolph Street", "amenity": "restaurant", "cuisine": "indian", "name": "ROOH", "phone": "+1-312-267-2323", "website": "https://www.roohchicago.com"}}, {"type": "node", "id": 6842452391, "lat": 41.9018301, "lon": -87.6676707, "tags": {"addr:housenumber": "1108", "addr:street": "North Ashland Avenue", "amenity": "cafe", "cuisine": "ice_cream;smoothies", "name": "Coco Ice Cream"}}, {"type": "node", "id": 6936048967, "lat": 41.8892241, "lon": -87.6490881, "tags": {"addr:city": "Chicago", "addr:housenumber": "838", "addr:postcode": "60607", "addr:state": "IL", "addr:street": "West Kinzie Street", "amenity": "restaurant", "name": "Recess", "phone": "+1-312-801-1181", "website": "https://chicagoinrecess.com"}}, {"type": "node", "id": 6997474713, "lat": 41.8869631, "lon": -87.6505461, "tags": {"addr:city": "Chicago", "addr:housenumber": "916", "addr:postcode": "60607", "addr:state": "IL", "addr:street": "West Fulton Market", "amenity": "restaurant", "cuisine": "food_hall;cafeteria", "name": "Time Out Market Chicago", "phone": "+1-312-637-7888", "website": "https://www.timeout.com/chicago/time-out-market"}}, {"type": "node", "id": 7073555751, "lat": 41.8942118, "lon": -87.6525505, "tags": {"addr:city": "Chicago", "addr:housenumber": "694", "addr:postcode": "60642", "addr:state": "IL", "addr:street": "North Milwaukee Avenue", "amenity": "bar", "name": "The Dandy Crown", "phone": "+1-312-846-6420", "website": "http://thedandycrown.com"}}, {"type": "node", "id": 7259838185, "lat": 41.891969, "lon": -87.6490538, "tags": {"addr:housenumber": "522", "addr:street": "North Milwaukee Avenue", "amenity": "restaurant", "name": "Stax Cafe", "opening_hours": "Mo-Fr 07:00-15:00; Sa-Su 07:00-15:30"}}, {"type": "node", "id": 7283913812, "lat": 41.8849437, "lon": -87.6508212, "tags": {"addr:housenumber": "163", "addr:street": "North Sangamon", "amenity": "restaurant", "description": "Ramen", "name": "Kinton Ramen", "phone": "312-374-3942", "website": "kintonramen.com"}}, {"type": "node", "id": 7598304985, "lat": 41.8958747, "lon": -87.6667787, "tags": {"addr:housenumber": "1549", "amenity": "restaurant", "name": "Spicy Fingers Seafood Kitchen"}}, {"type": "way", "id": 209846451, "nodes": [2200107680, 2200107795, 2200107958, 2200108058, 2200108076, 2200107714, 2200107680], "tags": {"addr:housenumber": "1035", "addr:street": "North Ashland Avenue", "addr:street:name": "Ashland", "addr:street:prefix": "North", "addr:street:type": "Avenue", "amenity": "restaurant", "building": "yes", "building:levels": "1", "chicago:building_id": "327552", "cuisine": "mexican", "name": "El Barco Mariscos"}}, {"type": "way", "id": 209846687, "nodes": [2200109452, 2200109752, 2200111113, 2200111013, 2200109452], "tags": {"addr:city": "Chicago", "addr:housenumber": "1072", "addr:postcode": "60642", "addr:state": "IL", "addr:street": "North Milwaukee Avenue", "addr:street:name": "Milwaukee", "addr:street:prefix": "North", "addr:street:type": "Avenue", "amenity": "restaurant", "building": "yes", "building:levels": "2", "chicago:building_id": "326171", "name": "The Frontier", "phone": "+1-773-772-4322", "website": "https://www.thefrontierchicago.com/", "wikidata": "Q16993845", "wikipedia": "en:Frontier (restaurant)"}}, {"type": "way", "id": 210269961, "nodes": [2203583502, 2203583715, 2203583724, 2203583591, 2203583587, 2203583552, 2203583549, 2203583453, 2203583448, 2203583502], "tags": {"addr:city": "Chicago", "addr:housenumber": "1321", "addr:postcode": "60642", "addr:street": "West Grand Avenue", "addr:street:name": "Grand", "addr:street:prefix": "West", "addr:street:type": "Avenue", "amenity": "restaurant", "building": "yes", "chicago:building_id": "348949", "cuisine": "pizza", "name": "Coalfire", "phone": "312.226.2625", "website": "http://coalfirechicago.com/"}}, {"type": "way", "id": 210270387, "nodes": [2203580648, 2203580768, 2203580772, 2203580662, 2203580648], "tags": {"addr:city": "Chicago", "addr:housenumber": "440", "addr:postcode": "60642", "addr:state": "IL", "addr:street": "North Aberdeen Street", "addr:street:name": "Aberdeen", "addr:street:prefix": "North", "addr:street:type": "Street", "amenity": "bar", "building": "yes", "chicago:building_id": "350040", "name": "The Aberdeen Tap", "opening_hours": "Su-Fr 11:00-02:00; Sa 11:00-03:00", "phone": "+1-312-929-3845", "website": "http://theaberdeentap.com/", "wheelchair": "limited"}}, {"type": "way", "id": 210270390, "nodes": [2203580582, 2203580748, 2203580750, 2203580583, 2203580582], "tags": {"addr:housenumber": "440", "addr:street": "North Racine Avenue", "addr:street:name": "Racine", "addr:street:prefix": "North", "addr:street:type": "Avenue", "amenity": "restaurant", "building": "yes", "chicago:building_id": "350062", "name": "Mart Anthony's"}}, {"type": "way", "id": 210270584, "nodes": [2203578023, 2203578021, 2203578385, 2203578387, 2203578023], "tags": {"addr:city": "Chicago", "addr:housenumber": "825", "addr:postcode": "60607", "addr:state": "IL", "addr:street": "West Fulton Market", "addr:street:name": "Fulton Market", "addr:street:prefix": "West", "amenity": "cafe", "building": "yes", "building:levels": "3", "chicago:building_id": "888189", "cuisine": "sandwich;american", "name": "Publican Quality Meats", "opening_hours": "Mo-Sa 10:00-18:00; Su 10:00-17:00", "phone": "+1-312-445-8977", "website": "http://publicanqualitymeats.com/"}}, {"type": "way", "id": 210270693, "nodes": [2203578606, 2203578494, 2203578493, 2203578659, 2203578661, 2203578606], "tags": {"addr:housenumber": "948-954", "addr:street": "West Fulton Market", "addr:street:name": "Fulton Market", "addr:street:prefix": "West", "amenity": "bar", "building": "yes", "building:levels": "2", "chicago:building_id": "879729"}}, {"type": "way", "id": 304920610, "nodes": [3094904880, 2203936165, 2203936451, 3094904881, 3094904882, 3094904880], "tags": {"amenity": "restaurant", "building": "yes", "name": "The Dawson"}}, {"type": "way", "id": 329775434, "nodes": [3367138861, 3367138857, 3367138858, 3367138860, 3367138859, 3367138862, 3367138861], "tags": {"amenity": "restaurant", "building": "yes"}}]}