{"version": 0.6, "generator": "Overpass API 0.7.56.1004 6cd3eaec", "osm3s": {"timestamp_osm_base": "2020-07-09T04:56:02Z", "copyright": "The data included in this document is from www.openstreetmap.org. The data is made available under ODbL."}, "elements": [{"type": "node", "id": 6258049946, "lat": 41.8168214, "lon": -87.6129712, "tags": {"addr:city": "Chicago", "addr:housenumber": "526", "addr:postcode": "60653", "addr:state": "IL", "addr:street": "East 43rd Street", "amenity": "cafe", "name": "Ain\u2019t She Sweet Cafe", "phone": "+1-773-373-3530", "website": "http://aintshesweetcafe.com/"}}, {"type": "node", "id": 6298795081, "lat": 41.8168186, "lon": -87.6128774, "tags": {"addr:city": "Chicago", "addr:housenumber": "528", "addr:postcode": "60653", "addr:state": "IL", "addr:street": "East 43rd Street", "amenity": "cafe", "name": "Sip & Savor", "phone": "+1-773-855-2125", "website": "http://www.sipandsavorchicago.com/"}}, {"type": "node", "id": 7243417794, "lat": 41.816976, "lon": -87.60634, "tags": {"addr:city": "Chicago", "addr:housenumber": "810", "addr:postcode": "60653", "addr:state": "IL", "addr:street": "East 43rd Street", "amenity": "bar", "name": "Some Like It Black", "phone": "+1-773-891-4866", "website": "https://www.somelikeitblack.com"}}]}