{"version": 0.6, "generator": "Overpass API 0.7.56.3 eb200aeb", "osm3s": {"timestamp_osm_base": "2020-07-04T04:24:02Z", "copyright": "The data included in this document is from www.openstreetmap.org. The data is made available under ODbL."}, "elements": [{"type": "node", "id": 735215937, "lat": 42.0141195, "lon": -87.6670731}, {"type": "node", "id": 735215940, "lat": 42.0142929, "lon": -87.66723}, {"type": "node", "id": 735215946, "lat": 42.0144573, "lon": -87.6673963}, {"type": "node", "id": 735215980, "lat": 42.0146077, "lon": -87.6675599}, {"type": "node", "id": 735215985, "lat": 42.0147552, "lon": -87.6677262}, {"type": "node", "id": 735216218, "lat": 42.0140916, "lon": -87.6669966}, {"type": "node", "id": 735216222, "lat": 42.0142719, "lon": -87.6671562}, {"type": "node", "id": 735216225, "lat": 42.0144403, "lon": -87.6673212}, {"type": "node", "id": 735216228, "lat": 42.0145978, "lon": -87.6674888}, {"type": "node", "id": 735216230, "lat": 42.0147671, "lon": -87.6676752}, {"type": "node", "id": 735216717, "lat": 42.0147313, "lon": -87.6677798}, {"type": "node", "id": 735216720, "lat": 42.0145439, "lon": -87.6675612}, {"type": "node", "id": 735216724, "lat": 42.0143696, "lon": -87.6673775}, {"type": "node", "id": 735216733, "lat": 42.0142032, "lon": -87.6672112}, {"type": "node", "id": 735216850, "lat": 42.0147103, "lon": -87.6678308}, {"type": "node", "id": 735216853, "lat": 42.0145101, "lon": -87.6676001}, {"type": "node", "id": 735216856, "lat": 42.0143506, "lon": -87.6674298}, {"type": "node", "id": 735216859, "lat": 42.0142181, "lon": -87.667297}, {"type": "node", "id": 735216864, "lat": 42.0140816, "lon": -87.6671683}, {"type": "node", "id": 735249553, "lat": 42.0140032, "lon": -87.6671019}, {"type": "node", "id": 735249708, "lat": 42.0140062, "lon": -87.6669244}, {"type": "node", "id": 735249722, "lat": 42.0140081, "lon": -87.6669793}, {"type": "node", "id": 735249729, "lat": 42.0148631, "lon": -87.6678534}, {"type": "node", "id": 735249825, "lat": 42.01401, "lon": -87.6670433}, {"type": "node", "id": 735249888, "lat": 42.0148174, "lon": -87.66796}, {"type": "node", "id": 735249913, "lat": 42.0148632, "lon": -87.6677915}, {"type": "node", "id": 735250005, "lat": 42.0148642, "lon": -87.6679441}, {"type": "node", "id": 1288454599, "lat": 42.0076938, "lon": -87.6680759, "tags": {"addr:city": "Chicago", "addr:housenumber": "1501", "addr:postcode": "60626", "addr:state": "IL", "addr:street": "West Morse Avenue", "amenity": "cafe", "cuisine": "coffee_shop", "name": "Common Cup", "phone": "+1-773-338-0256", "website": "http://www.commoncupchicago.com"}}, {"type": "node", "id": 2201050025, "lat": 42.0038979, "lon": -87.672981}, {"type": "node", "id": 2201050058, "lat": 42.003902, "lon": -87.6727382}, {"type": "node", "id": 2201050259, "lat": 42.0039527, "lon": -87.6729565}, {"type": "node", "id": 2201050275, "lat": 42.0039534, "lon": -87.6728462}, {"type": "node", "id": 2201050278, "lat": 42.0039556, "lon": -87.6729823}, {"type": "node", "id": 2201050282, "lat": 42.0039568, "lon": -87.6729565}, {"type": "node", "id": 2201050342, "lat": 42.0039643, "lon": -87.672835}, {"type": "node", "id": 2201050356, "lat": 42.0039652, "lon": -87.6727577}, {"type": "node", "id": 2990179090, "lat": 42.010791, "lon": -87.67421, "tags": {"amenity": "restaurant", "cuisine": "ice_cream", "name": "Something North"}}, {"type": "node", "id": 4069098504, "lat": 42.0124817, "lon": -87.6744293, "tags": {"addr:housenumber": "7137", "addr:street": "North Clark Street", "amenity": "restaurant", "contact:phone": "773-961-7676", "name": "Markello's Dining Restaurant", "website": "http://markellosonline.com/"}}, {"type": "node", "id": 6297696580, "lat": 42.0039382, "lon": -87.6728635, "tags": {"addr:city": "Chicago", "addr:housenumber": "6712", "addr:postcode": "60626", "addr:state": "IL", "addr:street": "North Clark Street", "amenity": "cafe", "name": "Sebastian\u2019s Coffee & Bakery", "phone": "+1-773-942-6749"}}, {"type": "node", "id": 6298772685, "lat": 42.0099898, "lon": -87.6745597, "tags": {"addr:city": "Chicago", "addr:housenumber": "7030", "addr:postcode": "60626", "addr:state": "IL", "addr:street": "North Clark Street", "amenity": "bar", "name": "Silvana Bar", "phone": "+1-773-465-8590"}}, {"type": "node", "id": 6303787394, "lat": 42.0013884, "lon": -87.6712636, "tags": {"addr:city": "Chicago", "addr:housenumber": "6545", "addr:postcode": "60626", "addr:state": "IL", "addr:street": "North Clark Street", "amenity": "restaurant", "cuisine": "peruvian", "name": "Taste of Peru", "phone": "+1-773-381-4540", "website": "https://tasteofperu.com/"}}, {"type": "node", "id": 6412790908, "lat": 42.0097903, "lon": -87.6744103, "tags": {"addr:city": "Chicago", "addr:housenumber": "7024", "addr:postcode": "60626", "addr:state": "IL", "addr:street": "North Clark Street", "amenity": "restaurant", "cuisine": "mexican", "name": "Tamales Lo Mejor De Guerrero", "opening_hours": "Tu-Su 05:00-20:00", "phone": "+1-773-338-6450"}}, {"type": "node", "id": 6412790976, "lat": 42.0099178, "lon": -87.6739865, "tags": {"addr:city": "Chicago", "addr:housenumber": "7027", "addr:postcode": "60626", "addr:state": "IL", "addr:street": "North Clark Street", "amenity": "restaurant", "cuisine": "mexican", "name": "El Sabor Pobloano", "opening_hours": "Su-Mo 08:00-21:00; We-Th 08:00-21:00; Fr-Sa 08:00-22:00"}}, {"type": "node", "id": 6412792357, "lat": 42.0097145, "lon": -87.6744344, "tags": {"addr:city": "Chicago", "addr:housenumber": "7022", "addr:postcode": "60626", "addr:state": "IL", "addr:street": "North Clark Street", "amenity": "restaurant", "cuisine": "mexican", "name": "La Choza Mexican Grill", "phone": "+1-773-465-2162", "website": "Su-Th 10:00-00:00;Fr-Sa 10:00-02:00"}}, {"type": "node", "id": 6412795318, "lat": 42.0096687, "lon": -87.6739181, "tags": {"addr:city": "Chicago", "addr:housenumber": "7021", "addr:postcode": "60626", "addr:state": "IL", "addr:street": "North Clark Street", "amenity": "restaurant", "cuisine": "mexican", "name": "Birrier\u00eda Y Carnitas El Gallito", "opening_hours": "Mo-Su 09:00-21:00", "phone": "+1-773-901-9067", "website": "http://orderbirreriaycarnitaselgallito.com"}}, {"type": "node", "id": 6412805048, "lat": 42.002297, "lon": -87.6718007, "tags": {"addr:city": "Chicago", "addr:housenumber": "6619", "addr:postcode": "60626", "addr:state": "IL", "addr:street": "North Clark Street", "amenity": "restaurant", "cuisine": "mexican", "name": "El Pulpo Loco Restaurant", "phone": "+1-773-274-2241", "website": "https://el-pulpo-loco-restaurant.business.site"}}, {"type": "node", "id": 6412813680, "lat": 42.0073012, "lon": -87.6738079, "tags": {"addr:city": "Chicago", "addr:housenumber": "6922", "addr:postcode": "60626", "addr:state": "IL", "addr:street": "North Clark Street", "amenity": "restaurant", "cuisine": "mexican", "name": "El Pecado Mexican Restaurant", "phone": "+1-773-681-0220", "website": "http://orderelpecadomexicanrestaurant.com/"}}, {"type": "node", "id": 6412818878, "lat": 42.002762, "lon": -87.6720083, "tags": {"addr:city": "Chicago", "addr:housenumber": "6635", "addr:postcode": "60626", "addr:state": "IL", "addr:street": "North Clark Street", "amenity": "restaurant", "cuisine": "eritrean", "name": "Denden Restaurant", "phone": "+1-773-973-4752"}}, {"type": "node", "id": 6412822257, "lat": 42.0104528, "lon": -87.6740973, "tags": {"addr:city": "Chicago", "addr:housenumber": "7047", "addr:postcode": "60626", "addr:state": "IL", "addr:street": "North Clark Street", "amenity": "restaurant", "cuisine": "mexican", "name": "El Famous Burrito", "phone": "+1-773-465-0377"}}, {"type": "node", "id": 6412827080, "lat": 42.0103581, "lon": -87.674002, "tags": {"addr:city": "Chicago", "addr:housenumber": "7043", "addr:postcode": "60626", "addr:state": "IL", "addr:street": "North Clark Street", "amenity": "restaurant", "cuisine": "tacos;mexican", "name": "Rocky's Tacos", "phone": "+1-773-274-4555"}}, {"type": "node", "id": 6412828571, "lat": 42.0123579, "lon": -87.6749547, "tags": {"addr:city": "Chicago", "addr:housenumber": "7138", "addr:postcode": "60626", "addr:state": "IL", "addr:street": "North Clark Street", "amenity": "restaurant", "cuisine": "mexican", "name": "Su Taqueria El Rey Del Taco y Sus Mariscos", "phone": "+1-773-274-9004"}}, {"type": "node", "id": 6651820248, "lat": 42.0093864, "lon": -87.6730635, "tags": {"addr:city": "Chicago", "addr:housenumber": "1716", "addr:postcode": "60626", "addr:state": "IL", "addr:street": "West Lunt Avenue", "amenity": "restaurant", "cuisine": "indian;vegetarean", "name": "Krishna Lunch", "phone": "+1-773-973-0900", "website": "http://www.iskconchicago.com/programs/krishna-lunch/"}}, {"type": "way", "id": 59294747, "nodes": [735249722, 735215937, 735215940, 735215946, 735215980, 735215985, 735249729], "tags": {"electrified": "rail", "gauge": "1435", "name": "North Side Main Line", "oneway": "yes", "operator": "Chicago Transit Authority", "railway": "subway", "voltage": "600"}}, {"type": "way", "id": 59294751, "nodes": [735249888, 735216850, 735216853, 735216856, 735216859, 735216864, 735249553], "tags": {"electrified": "rail", "frequency": "0", "gauge": "1435", "name": "North Side Main Line", "oneway": "yes", "operator": "Chicago Transit Authority", "railway": "subway", "voltage": "600"}}, {"type": "way", "id": 59294754, "nodes": [735250005, 735216717, 735216720, 735216724, 735216733, 735249825], "tags": {"electrified": "rail", "gauge": "1435", "name": "North Side Main Line", "oneway": "yes", "operator": "Chicago Transit Authority", "railway": "subway", "voltage": "600"}}, {"type": "way", "id": 59294755, "nodes": [735249708, 735216218, 735216222, 735216225, 735216228, 735216230, 735249913], "tags": {"electrified": "rail", "frequency": "0", "gauge": "1435", "name": "North Side Main Line", "oneway": "yes", "operator": "Chicago Transit Authority", "railway": "subway", "voltage": "600"}}, {"type": "way", "id": 209953665, "nodes": [2201050025, 2201050278, 2201050282, 2201050259, 2201050275, 2201050342, 2201050356, 2201050058, 2201050025], "tags": {"addr:housenumber": "6712", "addr:street": "North Clark Street", "addr:street:name": "Clark", "addr:street:prefix": "North", "addr:street:type": "Street", "amenity": "restaurant", "building": "yes", "building:levels": "2", "capacity": "50", "chicago:building_id": "16630", "cuisine": "bakery;coffee", "name": "Sebastian\u2019s Coffee and Bakery", "opening_hours": "Mo-Su 6:00-18:00"}}]}