{"version": 0.6, "generator": "Overpass API 0.7.56.1004 6cd3eaec", "osm3s": {"timestamp_osm_base": "2020-07-22T04:23:01Z", "copyright": "The data included in this document is from www.openstreetmap.org. The data is made available under ODbL."}, "elements": [{"type": "node", "id": 256618510, "lat": 41.8658835, "lon": -87.6451248}, {"type": "node", "id": 258030969, "lat": 41.8692737, "lon": -87.6454545}, {"type": "node", "id": 258030970, "lat": 41.8688302, "lon": -87.6454313}, {"type": "node", "id": 258030971, "lat": 41.8680786, "lon": -87.6453001}, {"type": "node", "id": 258030972, "lat": 41.8677305, "lon": -87.6452849}, {"type": "node", "id": 495804966, "lat": 41.8816365, "lon": -87.6626514}, {"type": "node", "id": 495804967, "lat": 41.8817159, "lon": -87.6626522}, {"type": "node", "id": 495804968, "lat": 41.8817177, "lon": -87.6624953}, {"type": "node", "id": 495804969, "lat": 41.8817726, "lon": -87.6624959}, {"type": "node", "id": 495804970, "lat": 41.8817737, "lon": -87.6624015}, {"type": "node", "id": 495804971, "lat": 41.8816393, "lon": -87.6624}, {"type": "node", "id": 624842100, "lat": 41.8661261, "lon": -87.6509285}, {"type": "node", "id": 624842102, "lat": 41.8647519, "lon": -87.6508749}, {"type": "node", "id": 624842113, "lat": 41.8634175, "lon": -87.6508481}, {"type": "node", "id": 624842116, "lat": 41.8623697, "lon": -87.65081}, {"type": "node", "id": 624842118, "lat": 41.8624081, "lon": -87.647875}, {"type": "node", "id": 1308245862, "lat": 41.8730195, "lon": -87.6566515}, {"type": "node", "id": 1309310753, "lat": 41.8705582, "lon": -87.6510938}, {"type": "node", "id": 1309310769, "lat": 41.8728194, "lon": -87.6512488}, {"type": "node", "id": 1309310772, "lat": 41.8728556, "lon": -87.6512875}, {"type": "node", "id": 1309310781, "lat": 41.8728544, "lon": -87.6513238}, {"type": "node", "id": 1309310786, "lat": 41.8718736, "lon": -87.6511361}, {"type": "node", "id": 1309310791, "lat": 41.8729799, "lon": -87.6515273}, {"type": "node", "id": 1309310795, "lat": 41.8711509, "lon": -87.6511104}, {"type": "node", "id": 1309310830, "lat": 41.872569, "lon": -87.6511511}, {"type": "node", "id": 1309310834, "lat": 41.8728564, "lon": -87.6513962}, {"type": "node", "id": 1309521523, "lat": 41.8697849, "lon": -87.6511257}, {"type": "node", "id": 1309521528, "lat": 41.8700144, "lon": -87.6510741}, {"type": "node", "id": 1309521533, "lat": 41.869876, "lon": -87.6510868}, {"type": "node", "id": 1324310267, "lat": 41.8672329, "lon": -87.6509271}, {"type": "node", "id": 1324339868, "lat": 41.8695079, "lon": -87.6511376, "tags": {"highway": "traffic_signals"}}, {"type": "node", "id": 1563768183, "lat": 41.8677741, "lon": -87.6525895}, {"type": "node", "id": 1563768280, "lat": 41.8682055, "lon": -87.6522318}, {"type": "node", "id": 1564610532, "lat": 41.8671888, "lon": -87.6529727}, {"type": "node", "id": 1564610597, "lat": 41.8673195, "lon": -87.6529751}, {"type": "node", "id": 1567935379, "lat": 41.8691481, "lon": -87.6515497}, {"type": "node", "id": 1567935392, "lat": 41.868256, "lon": -87.6522619}, {"type": "node", "id": 1567935428, "lat": 41.8685971, "lon": -87.6519722}, {"type": "node", "id": 1567935437, "lat": 41.8685197, "lon": -87.6520566}, {"type": "node", "id": 1567935483, "lat": 41.8682319, "lon": -87.6522096}, {"type": "node", "id": 1567935487, "lat": 41.8672769, "lon": -87.6529743}, {"type": "node", "id": 1567935598, "lat": 41.8686145, "lon": -87.6520056}, {"type": "node", "id": 1567935611, "lat": 41.8692679, "lon": -87.6514462}, {"type": "node", "id": 1567935613, "lat": 41.8684628, "lon": -87.6520559}, {"type": "node", "id": 1640078305, "lat": 41.8750617, "lon": -87.6477795}, {"type": "node", "id": 1640078309, "lat": 41.8746412, "lon": -87.6472987}, {"type": "node", "id": 1640078310, "lat": 41.8751704, "lon": -87.6489907}, {"type": "node", "id": 1640078313, "lat": 41.8746225, "lon": -87.6472615}, {"type": "node", "id": 1640078314, "lat": 41.8751984, "lon": -87.6497309}, {"type": "node", "id": 1640078316, "lat": 41.8751894, "lon": -87.6494084}, {"type": "node", "id": 1640078325, "lat": 41.8751284, "lon": -87.6485017}, {"type": "node", "id": 1640078326, "lat": 41.8751833, "lon": -87.6492436}, {"type": "node", "id": 1643970052, "lat": 41.8736833, "lon": -87.64619}, {"type": "node", "id": 1643970061, "lat": 41.8695057, "lon": -87.6512623}, {"type": "node", "id": 1643970072, "lat": 41.8734125, "lon": -87.6461313}, {"type": "node", "id": 1643970081, "lat": 41.8739152, "lon": -87.6462705}, {"type": "node", "id": 1645121278, "lat": 41.8726271, "lon": -87.6511611}, {"type": "node", "id": 1645121392, "lat": 41.8728385, "lon": -87.6512586}, {"type": "node", "id": 1645121508, "lat": 41.8726879, "lon": -87.6511848}, {"type": "node", "id": 1645121523, "lat": 41.8730367, "lon": -87.6515997}, {"type": "node", "id": 1645164035, "lat": 41.8726081, "lon": -87.6458381}, {"type": "node", "id": 1645208835, "lat": 41.8720548, "lon": -87.65114}, {"type": "node", "id": 1655435354, "lat": 41.8670032, "lon": -87.6451676}, {"type": "node", "id": 1655435355, "lat": 41.8673, "lon": -87.6452802}, {"type": "node", "id": 1655435357, "lat": 41.8670723, "lon": -87.6452268}, {"type": "node", "id": 1655435361, "lat": 41.8682982, "lon": -87.6453494}, {"type": "node", "id": 1655435366, "lat": 41.8695302, "lon": -87.6454595}, {"type": "node", "id": 1846853872, "lat": 41.8731599, "lon": -87.6460597}, {"type": "node", "id": 1846853875, "lat": 41.8742112, "lon": -87.646933}, {"type": "node", "id": 1846853878, "lat": 41.8742224, "lon": -87.6472729}, {"type": "node", "id": 2200032209, "lat": 41.8909966, "lon": -87.6722207}, {"type": "node", "id": 2200032211, "lat": 41.8909975, "lon": -87.6721343}, {"type": "node", "id": 2200032617, "lat": 41.8911846, "lon": -87.6722261}, {"type": "node", "id": 2200032621, "lat": 41.8911855, "lon": -87.6721398}, {"type": "node", "id": 2203580582, "lat": 41.8900939, "lon": -87.6578717}, {"type": "node", "id": 2203580583, "lat": 41.8900957, "lon": -87.6574769}, {"type": "node", "id": 2203580748, "lat": 41.8901667, "lon": -87.6578728}, {"type": "node", "id": 2203580750, "lat": 41.8901685, "lon": -87.6574779}, {"type": "node", "id": 2203583448, "lat": 41.8907222, "lon": -87.6599457}, {"type": "node", "id": 2203583453, "lat": 41.890723, "lon": -87.6598557}, {"type": "node", "id": 2203583502, "lat": 41.8907441, "lon": -87.6599454}, {"type": "node", "id": 2203583549, "lat": 41.8908013, "lon": -87.6598567}, {"type": "node", "id": 2203583552, "lat": 41.8908096, "lon": -87.6598731}, {"type": "node", "id": 2203583587, "lat": 41.8908631, "lon": -87.6598726}, {"type": "node", "id": 2203583591, "lat": 41.8908712, "lon": -87.6598596}, {"type": "node", "id": 2203583715, "lat": 41.8909404, "lon": -87.6599489}, {"type": "node", "id": 2203583724, "lat": 41.8909426, "lon": -87.6598607}, {"type": "node", "id": 2207261995, "lat": 41.8753129, "lon": -87.654403}, {"type": "node", "id": 2207262066, "lat": 41.8638442, "lon": -87.6469008}, {"type": "node", "id": 2207262112, "lat": 41.8751211, "lon": -87.6542903}, {"type": "node", "id": 2207262133, "lat": 41.8638244, "lon": -87.6479273}, {"type": "node", "id": 2207262135, "lat": 41.8743682, "lon": -87.656704}, {"type": "node", "id": 2207262136, "lat": 41.8743143, "lon": -87.6596974}, {"type": "node", "id": 2207262137, "lat": 41.8641937, "lon": -87.6469062}, {"type": "node", "id": 2207262178, "lat": 41.8751451, "lon": -87.65436}, {"type": "node", "id": 2207262255, "lat": 41.875225, "lon": -87.6597456}, {"type": "node", "id": 2207262259, "lat": 41.875189, "lon": -87.6543922}, {"type": "node", "id": 2242858400, "lat": 41.8642252, "lon": -87.6450831}, {"type": "node", "id": 2242858434, "lat": 41.8642071, "lon": -87.6461313}, {"type": "node", "id": 2397026625, "lat": 41.8699282, "lon": -87.6454906}, {"type": "node", "id": 2412572912, "lat": 41.8730968, "lon": -87.6519023}, {"type": "node", "id": 2412572932, "lat": 41.8730627, "lon": -87.6517502}, {"type": "node", "id": 2535218213, "lat": 41.8910659, "lon": -87.6718335, "tags": {"addr:city": "Chicago", "addr:housenumber": "1758", "addr:postcode": "60622", "addr:state": "IL", "addr:street": "West Grand Avenue", "amenity": "bar", "delivery": "yes", "name": "Output Lounge & Sports Bar", "phone": "312-929-2515", "website": "outputlounge.com"}}, {"type": "node", "id": 2535218224, "lat": 41.8910216, "lon": -87.6714159, "tags": {"amenity": "restaurant", "cuisine": "pizza", "name": "Tortorice's Pizza"}}, {"type": "node", "id": 3240592096, "lat": 41.8863874, "lon": -87.6667991, "tags": {"addr:city": "Chicago", "addr:housenumber": "235", "addr:postcode": "60607", "addr:state": "IL", "addr:street": "North Ashland Avenue", "amenity": "bar", "name": "Cobra Lounge", "phone": "+1-312-226-6300", "smoking": "no", "website": "https://www.cobralounge.com/"}}, {"type": "node", "id": 3914989147, "lat": 41.8788941, "lon": -87.6774089, "tags": {"amenity": "restaurant", "cuisine": "brazilian", "name": "Sinh\u00e1"}}, {"type": "node", "id": 4226924443, "lat": 41.869633, "lon": -87.6511322}, {"type": "node", "id": 4567575190, "lat": 41.8844194, "lon": -87.6613607, "tags": {"addr:city": "Chicago", "addr:housenumber": "1364", "addr:postcode": "60607", "addr:state": "IL", "addr:street": "West Randolph Street", "amenity": "restaurant", "cuisine": "japanese;asian;bbq;barbecue;barbeque", "name": "Gyu-Kaku Japanese BBQ", "name:en": "Gyu-Kaku Japanese BBQ", "opening_hours": "Mo-Th 11:30-22:00; Fr-Sa 11:30-22:30; Su 11:30-21:30", "phone": "+1-312-982-2840", "website": "https://www.gyu-kaku.com/"}}, {"type": "node", "id": 5067237460, "lat": 41.8838272, "lon": -87.6629791, "tags": {"addr:city": "Chicago", "addr:housenumber": "1415", "addr:postcode": "60607", "addr:state": "IL", "addr:street": "West Randolph Street", "amenity": "restaurant", "cuisine": "pub;american", "name": "Kaiser Tiger", "opening_hours": "Su-Fr 11:00-02:00; Sa 11:00-03:00", "phone": "+1-312-243-3100", "website": "https://kaisertiger.com/"}}, {"type": "node", "id": 5452698962, "lat": 41.8816852, "lon": -87.6625129, "tags": {"addr:city": "Chicago", "addr:housenumber": "1408", "addr:postcode": "60607", "addr:state": "IL", "addr:street": "West Madison Street", "amenity": "restaurant", "cuisine": "sandwich;sandwiches;regional", "name": "Palace Grill Restaurant", "opening_hours": "Sa 06:00-15:00; Su 07:00-14:00; Mo 06:00-15:00; Tu 06:00-19:00; We 06:00-15:00; Th 06:00-19:00; Fr 06:00-15:00", "phone": "+1-312-226-9529", "website": "http://palacegrillonmadison.com/"}}, {"type": "node", "id": 5452736284, "lat": 41.881786, "lon": -87.6608926, "tags": {"addr:city": "Chicago", "addr:housenumber": "1330", "addr:postcode": "60607", "addr:state": "IL", "addr:street": "West Madison Street", "amenity": "restaurant", "cuisine": "italian", "name": "Viaggio Ristorante & Lounge", "opening_hours": "Mo-Th 11:00-22:00; Fr 11:00-23:00; Sa 16:00-23:00; Su 16:00-20:00", "phone": "+1-312-829-3333", "website": "https://www.viaggiochicago.com/"}}, {"type": "node", "id": 5452756831, "lat": 41.8817001, "lon": -87.6607415, "tags": {"addr:city": "Chicago", "addr:housenumber": "1326", "addr:postcode": "60607", "addr:state": "IL", "addr:street": "West Madison Street", "amenity": "bar", "name": "WestEnd", "opening_hours": "Mo-Fr 17:00-02:00; Sa 10:00-03:00; Su 10:00-02:00", "phone": "+1-312-981-7100", "website": "https://westendwestloop.com/"}}, {"type": "node", "id": 5460621821, "lat": 41.8844846, "lon": -87.6627038, "tags": {"addr:city": "Chicago", "addr:housenumber": "1400", "addr:postcode": "60607", "addr:state": "IL", "addr:street": "West Randolph Street", "amenity": "restaurant", "cuisine": "asian;barbecue;bbq;barbeque", "name": "bellyQ", "opening_hours": "Mo-Sa 17:00-22:00", "phone": "+1-312-563-1010", "website": "http://www.bellyqchicago.com/"}}, {"type": "node", "id": 5460625911, "lat": 41.8849698, "lon": -87.6604106, "tags": {"addr:city": "Chicago", "addr:housenumber": "177", "addr:postcode": "60607", "addr:state": "IL", "addr:street": "North Ada Street", "addr:unit": "001", "amenity": "restaurant", "cuisine": "american", "name": "The Loyalist", "opening_hours": "Tu-Th 16:00-23:00; Fr-Sa 16:00-01:00", "phone": "+1-773-913-3774", "website": "http://www.smythandtheloyalist.com"}}, {"type": "node", "id": 5460626543, "lat": 41.8817668, "lon": -87.657892, "tags": {"addr:city": "Chicago", "addr:housenumber": "1222", "addr:postcode": "60607", "addr:state": "IL", "addr:street": "West Madison Street", "amenity": "restaurant", "cuisine": "sushi;thai;asian", "name": "Talay Sushi & Thai", "opening_hours": "Mo-Th 11:00-22:00; Fr 11:00-23:00; Sa 12:00-23:00; Su 12:00-22:00", "phone": "+1-312-733-0812", "website": "https://www.talaychicago.com/"}}, {"type": "node", "id": 5460642403, "lat": 41.8845043, "lon": -87.6611939, "tags": {"addr:city": "Chicago", "addr:housenumber": "1358", "addr:postcode": "60607", "addr:state": "IL", "addr:street": "West Randolph Street", "amenity": "restaurant", "cuisine": "breakfast;american", "name": "Bespoke Cuisine", "opening_hours": "Mo-Fr 09:00-17:00", "phone": "+1-312-455-8400", "website": "http://bespokecuisine.com/"}}, {"type": "node", "id": 5460646709, "lat": 41.8844593, "lon": -87.6626445, "tags": {"addr:city": "Chicago", "addr:housenumber": "1400", "addr:postcode": "60607", "addr:state": "IL", "addr:street": "West Randolph Street", "amenity": "restaurant", "cuisine": "asian", "name": "urbanbelly", "opening_hours": "Mo-Sa 11:00-22:00", "phone": "+1-773-583-0500", "website": "http://www.urbanbellychicago.com/"}}, {"type": "node", "id": 5460657121, "lat": 41.8846692, "lon": -87.6570694, "tags": {"addr:city": "Chicago", "addr:housenumber": "1200", "addr:postcode": "60607", "addr:state": "IL", "addr:street": "West Randolph Street", "amenity": "bar", "name": "City Winery", "opening_hours": "Su-We 11:00-22:00; Th-Sa 11:00-23:00", "phone": "+1-312-733-9463", "website": "http://www.citywinery.com/chicago/"}}, {"type": "node", "id": 5460660364, "lat": 41.8844717, "lon": -87.6609272, "tags": {"addr:city": "Chicago", "addr:housenumber": "1350", "addr:postcode": "60607", "addr:state": "IL", "addr:street": "West Randolph Street", "amenity": "restaurant", "cuisine": "american", "name": "Elske", "opening_hours": "We-Th 18:00-22:00; Fr-Sa 18:00-23:00; Su 18:00-22:00", "phone": "+1-312-733-1314", "website": "https://elskerestaurant.com/"}}, {"type": "node", "id": 5460671009, "lat": 41.8905209, "lon": -87.6591892, "tags": {"addr:city": "Chicago", "addr:housenumber": "459", "addr:postcode": "60642", "addr:state": "IL", "addr:street": "North Ogden Avenue", "amenity": "bar", "name": "G & O", "opening_hours": "Mo-Fr 16:00-02:00; Sa 10:00-03:00; Su 10:00-00:00", "phone": "+1-312-888-3367", "website": "http://grandandogden.com/"}}, {"type": "node", "id": 5460697773, "lat": 41.8852668, "lon": -87.6582229, "tags": {"addr:city": "Chicago", "addr:housenumber": "1235", "addr:postcode": "60607", "addr:state": "IL", "addr:street": "West Lake Street", "amenity": "restaurant", "cuisine": "italian", "name": "Macello Ristorante", "opening_hours": "Tu-Th 11:30-22:00; Fr 11:30-23:00; Sa 17:00-23:00; Su 15:00-20:00", "phone": "+1-312-850-9870"}}, {"type": "node", "id": 5460698312, "lat": 41.8846138, "lon": -87.658239, "tags": {"addr:city": "Chicago", "addr:housenumber": "1240", "addr:postcode": "60607", "addr:state": "IL", "addr:street": "West Randolph Street", "amenity": "restaurant", "cuisine": "middle_eastern", "name": "Alhambra Palace", "opening_hours": "Su-Mo 11:00-22:00; Tu 11:00-02:00; We-Th 11:00-22:00; Fr 11:00-01:45; Sa 11:00-02:45", "phone": "+1-312-666-9555", "website": "http://www.alhambrapalacerestaurant.com/"}}, {"type": "node", "id": 5460722827, "lat": 41.8852803, "lon": -87.6605832, "tags": {"addr:city": "Chicago", "addr:housenumber": "177", "addr:postcode": "60607", "addr:state": "IL", "addr:street": "North Ada Street", "addr:unit": "101", "amenity": "restaurant", "cuisine": "new_american;american", "name": "Smyth", "opening_hours": "Tu-Sa 17:00-22:00", "phone": "+1-773-913-3773", "website": "http://www.smythandtheloyalist.com/smyth"}}, {"type": "node", "id": 5460735957, "lat": 41.8897346, "lon": -87.6620754, "tags": {"addr:city": "Chicago", "addr:housenumber": "1381", "addr:postcode": "60642", "addr:state": "IL", "addr:street": "West Hubbard Street", "amenity": "restaurant", "cuisine": "american;breakfast", "name": "The Breakfast Club & Grill", "phone": "+1-312-666-2372", "website": "https://thebreakfastclubchicago.com/"}}, {"type": "node", "id": 5632900492, "lat": 41.8751653, "lon": -87.6519389}, {"type": "node", "id": 5632900499, "lat": 41.8752939, "lon": -87.6555594}, {"type": "node", "id": 5632908777, "lat": 41.8699299, "lon": -87.6510819}, {"type": "node", "id": 5792394594, "lat": 41.8896255, "lon": -87.670578, "tags": {"addr:city": "Chicago", "addr:housenumber": "1725", "addr:postcode": "60622", "addr:state": "IL", "addr:street": "West Hubbard Street", "amenity": "bar", "name": "On Tour Brewin", "outdoor_seating": "no", "phone": "+1-312-796-3119", "website": "https://ontourbrewing.com/"}}, {"type": "node", "id": 5794886652, "lat": 41.8868879, "lon": -87.6776977, "tags": {"addr:city": "Chicago", "addr:housenumber": "2010", "addr:postcode": "60612", "addr:state": "IL", "addr:street": "West Fulton Street", "amenity": "bar", "craft": "distillery", "name": "Rhine Hall Distillery", "note": "Rhine Hall Distillery has a tasting room that's open to the public.", "opening_hours": "We-Fr 17:00-21:00; Sa 14:00-19:00", "phone": "+1-312-243-4313", "product": "brandy", "website": "https://www.rhinehall.com/"}}, {"type": "node", "id": 5794890475, "lat": 41.886502, "lon": -87.6783765, "tags": {"addr:city": "Chicago", "addr:housenumber": "2021", "addr:postcode": "60612", "addr:state": "IL", "addr:street": "West Fulton Street", "addr:unit": "K-101B", "amenity": "cafe", "name": "Metric Coffee", "opening_hours": "Mo-Fr 07:00-16:00; Sa 08:00-14:00", "phone": "+1-312-982-2196", "website": "https://metriccoffee.com/pages/metric-west-fulton"}}, {"type": "node", "id": 6250223840, "lat": 41.8901294, "lon": -87.6595267, "tags": {"addr:city": "Chicago", "addr:housenumber": "439", "addr:postcode": "60642", "addr:state": "IL", "addr:street": "North Ogden Avenue", "amenity": "bar", "name": "439 Nightclub"}}, {"type": "node", "id": 6263059442, "lat": 41.8899164, "lon": -87.6782682, "tags": {"addr:city": "Chicago", "addr:housenumber": "2032", "addr:postcode": "60612", "addr:state": "IL", "addr:street": "West Hubbard Street", "amenity": "restaurant", "name": "Art Of Dosa", "phone": "+1-312-899-6238"}}, {"type": "node", "id": 6273529503, "lat": 41.8852726, "lon": -87.6617947, "tags": {"addr:city": "Chicago", "addr:housenumber": "1375", "addr:postcode": "60607", "addr:state": "IL", "addr:street": "West Lake Street", "amenity": "restaurant", "name": "Bottom Lounge Restaurant & Patio", "phone": "+1-312-666-6775", "website": "https://bottomlounge.com/"}}, {"type": "node", "id": 6283983275, "lat": 41.8810096, "lon": -87.6742287, "tags": {"addr:city": "Chicago", "addr:housenumber": "1901", "addr:postcode": "60612", "addr:state": "IL", "addr:street": "West Madison Street", "amenity": "bar", "name": "Queenie\u2019s Supper Club & Cocktails", "phone": "+1-312-455-4500", "website": "https://www.queeniessupperclub.com/"}}, {"type": "node", "id": 6285038717, "lat": 41.8854222, "lon": -87.6712386, "tags": {"addr:city": "Chicago", "addr:housenumber": "1748", "addr:postcode": "60612", "addr:state": "IL", "addr:street": "West Lake Street", "amenity": "restaurant", "name": "Eden", "phone": "+1-312-366-2294", "website": "https://edeninchicago.com/"}}, {"type": "node", "id": 6289954136, "lat": 41.8863189, "lon": -87.672127, "tags": {"addr:city": "Chicago", "addr:housenumber": "1800", "addr:postcode": "60612", "addr:state": "IL", "addr:street": "West Walnut Street", "amenity": "bar", "name": "Finch Beer Co", "phone": "+1-312-929-4773", "website": "https://www.finchbeer.com/"}}, {"type": "node", "id": 6292138425, "lat": 41.8858542, "lon": -87.6712618, "tags": {"addr:city": "Chicago", "addr:housenumber": "221", "addr:postcode": "60612", "addr:state": "IL", "addr:street": "North Wood Street", "amenity": "bar", "name": "Great Central Brewing Company", "phone": "+1-855-464-4222", "website": "http://www.greatcentralbrewing.com/"}}, {"type": "node", "id": 6298048500, "lat": 41.8875309, "lon": -87.6778969, "tags": {"addr:city": "Chicago", "addr:housenumber": "2023", "addr:postcode": "60612", "addr:state": "IL", "addr:street": "West Carroll Avenue", "amenity": "cafe", "name": "Ineeka", "phone": "+1-312-661-1550", "website": "http://www.treleela.com/"}}, {"type": "node", "id": 6298799785, "lat": 41.89088, "lon": -87.6583534, "tags": {"addr:city": "Chicago", "addr:housenumber": "1223", "addr:postcode": "60642", "addr:state": "IL", "addr:street": "West Grand Avenue", "amenity": "cafe", "name": "Sip Coffee House & Garden", "phone": "+1-312-563-1123", "website": "http://www.sipcoffeehouse.com/"}}, {"type": "node", "id": 6300078345, "lat": 41.8870697, "lon": -87.6740659, "tags": {"addr:city": "Chicago", "addr:housenumber": "1850", "addr:postcode": "60612", "addr:state": "IL", "addr:street": "West Fulton Street", "amenity": "cafe", "name": "Intelligentsia Roasting Works & Offices", "phone": "+1-888-945-9786", "website": "https://www.intelligentsiacoffee.com/"}}, {"type": "node", "id": 6300747755, "lat": 41.880305, "lon": -87.6669921, "tags": {"addr:city": "Chicago", "addr:housenumber": "36", "addr:postcode": "60607", "addr:state": "IL", "addr:street": "South Ashland Avenue", "amenity": "restaurant", "cuisine": "barbecue", "name": "SoJu BBQ", "phone": "+1-312-877-5206", "website": "https://www.sojubbq.com/"}}, {"type": "node", "id": 6300998968, "lat": 41.8806489, "lon": -87.6612557, "tags": {"addr:city": "Chicago", "addr:housenumber": "1340", "addr:postcode": "60607", "addr:state": "IL", "addr:street": "West Monroe Street", "amenity": "cafe", "name": "Rituals Coffee Companyc", "phone": "+1-312-733-1884"}}, {"type": "node", "id": 6304001071, "lat": 41.8912668, "lon": -87.6618238, "tags": {"addr:city": "Chicago", "addr:housenumber": "1372", "addr:postcode": "60642", "addr:state": "IL", "addr:street": "West Grand Avenue", "amenity": "restaurant", "name": "Tempesta Market", "phone": "+1-312-929-2551", "website": "http://tempestamarket.com/"}}, {"type": "node", "id": 6307019781, "lat": 41.8913101, "lon": -87.6585687, "tags": {"addr:city": "Chicago", "addr:housenumber": "501", "addr:postcode": "60642", "addr:state": "IL", "addr:street": "North Ogden Avenue", "amenity": "restaurant", "name": "Twisted Spoke", "phone": "+1-312-666-1500", "website": "http://twistedspoke.com/"}}, {"type": "node", "id": 6315672750, "lat": 41.8795977, "lon": -87.6679468, "tags": {"addr:city": "Chicago", "addr:housenumber": "1659", "addr:postcode": "60612", "addr:state": "IL", "addr:street": "West Ogden Avenue", "amenity": "restaurant", "name": "The Ogden", "phone": "+1-312-226-1888", "website": "https://theogdenchicago.com/"}}, {"type": "node", "id": 6316948064, "lat": 41.8770334, "lon": -87.6572288, "tags": {"addr:city": "Chicago", "addr:housenumber": "324", "addr:postcode": "60607", "addr:state": "IL", "addr:street": "South Racine Avenue", "amenity": "bar", "name": "Wise Owl Drinkery & Cookhouse", "phone": "+1-312-374-8915", "website": "https://www.wiseowlchicago.com/"}}, {"type": "node", "id": 6319238724, "lat": 41.8903498, "lon": -87.677052, "tags": {"addr:city": "Chicago", "addr:housenumber": "456", "addr:postcode": "60612", "addr:state": "IL", "addr:street": "North Damen Avenue", "amenity": "restaurant", "cuisine": "american", "name": "Lilly Bell's Diner"}}, {"type": "node", "id": 6324435419, "lat": 41.8818343, "lon": -87.6619234, "tags": {"addr:city": "Chicago", "addr:housenumber": "1350", "addr:postcode": "60607", "addr:state": "IL", "addr:street": "West Madison Street", "amenity": "bar", "name": "The Stanley Club", "phone": "+1-312-226-5555"}}, {"type": "node", "id": 6366358671, "lat": 41.8741382, "lon": -87.6463662}, {"type": "node", "id": 6366358672, "lat": 41.8742256, "lon": -87.6464115}, {"type": "node", "id": 6366358673, "lat": 41.8742109, "lon": -87.6467369}, {"type": "node", "id": 6386781829, "lat": 41.8910136, "lon": -87.6792392}, {"type": "node", "id": 6386781838, "lat": 41.8910189, "lon": -87.6789727}, {"type": "node", "id": 6386781854, "lat": 41.8908915, "lon": -87.6792348}, {"type": "node", "id": 6386781855, "lat": 41.8908967, "lon": -87.6789684}, {"type": "node", "id": 6394391045, "lat": 41.889422, "lon": -87.6667839, "tags": {"addr:city": "Chicago", "addr:housenumber": "417", "addr:postcode": "60622", "addr:state": "IL", "addr:street": "North Ashland Avenue", "amenity": "bar", "brewery": "yes", "description": "District Brew Yards is a taproom for three breweries: Burnt City Brewing, Bold Dog Beer Co., Around the Bend Beer Co. ", "name": "District Brew Yards"}}, {"type": "node", "id": 6779167975, "lat": 41.8749225, "lon": -87.6472949}, {"type": "node", "id": 7018263926, "lat": 41.8807947, "lon": -87.6727821, "tags": {"amenity": "bar", "name": "Mad West & Atruium Bar"}}, {"type": "node", "id": 7018263927, "lat": 41.8805191, "lon": -87.6727311, "tags": {"amenity": "restaurant", "name": "Queenie's Supper Club"}}, {"type": "node", "id": 7282826587, "lat": 41.8751891, "lon": -87.6495149}, {"type": "node", "id": 7282892857, "lat": 41.8751919, "lon": -87.6496031}, {"type": "node", "id": 7509422947, "lat": 41.8753099, "lon": -87.6545869}, {"type": "node", "id": 7511858556, "lat": 41.8641966, "lon": -87.6467374}, {"type": "node", "id": 7511858557, "lat": 41.86477, "lon": -87.6450968}, {"type": "node", "id": 7615474068, "lat": 41.8750061, "lon": -87.647513}, {"type": "way", "id": 40785416, "nodes": [495804966, 495804967, 495804968, 495804969, 495804970, 495804971, 495804966], "tags": {"addr:city": "Chicago", "addr:housenumber": "1408", "addr:postcode": "60607", "addr:state": "IL", "addr:street": "West Madison Street", "addr:street:name": "Madison", "addr:street:prefix": "West", "addr:street:type": "Street", "amenity": "restaurant", "building": "yes", "building:levels": "1", "chicago:building_id": "357200", "name": "Palace Grill Restaurant", "phone": "+1-312-226-9529", "website": "https://www.palacegrillonmadison.com/"}}, {"type": "way", "id": 209839539, "nodes": [2200032209, 2200032617, 2200032621, 2200032211, 2200032209], "tags": {"addr:housenumber": "1800", "addr:street": "West Grand Avenue", "addr:street:name": "Grand", "addr:street:prefix": "West", "addr:street:type": "Avenue", "amenity": "restaurant", "building": "yes", "building:levels": "2", "chicago:building_id": "348688", "cuisine": "breakfast", "name": "Breakfast House"}}, {"type": "way", "id": 210269961, "nodes": [2203583502, 2203583715, 2203583724, 2203583591, 2203583587, 2203583552, 2203583549, 2203583453, 2203583448, 2203583502], "tags": {"addr:city": "Chicago", "addr:housenumber": "1321", "addr:postcode": "60642", "addr:street": "West Grand Avenue", "addr:street:name": "Grand", "addr:street:prefix": "West", "addr:street:type": "Avenue", "amenity": "restaurant", "building": "yes", "chicago:building_id": "348949", "cuisine": "pizza", "name": "Coalfire", "phone": "312.226.2625", "website": "http://coalfirechicago.com/"}}, {"type": "way", "id": 210270390, "nodes": [2203580582, 2203580748, 2203580750, 2203580583, 2203580582], "tags": {"addr:housenumber": "440", "addr:street": "North Racine Avenue", "addr:street:name": "Racine", "addr:street:prefix": "North", "addr:street:type": "Avenue", "amenity": "restaurant", "building": "yes", "chicago:building_id": "350062", "name": "Mart Anthony's"}}, {"type": "way", "id": 210649421, "nodes": [624842102, 624842100, 1324310267, 1564610532, 1567935487, 1564610597, 1563768183, 1563768280, 1567935483, 1567935392, 1567935613, 1567935437, 1567935428, 1567935598, 1567935379, 1567935611, 1643970061, 1324339868, 4226924443, 1309521523, 1309521533, 5632908777, 1309521528, 1309310753, 1309310795, 1309310786, 1645208835, 1309310830, 1645121278, 1645121508, 1309310769, 1645121392, 1309310772, 1309310781, 1309310834, 1309310791, 1645121523, 2412572932, 2412572912, 1308245862, 2207262135, 2207262136, 2207262255, 5632900499, 7509422947, 2207261995, 2207262259, 2207262178, 2207262112, 5632900492, 1640078314, 7282892857, 7282826587, 1640078316, 1640078326, 1640078310, 1640078325, 1640078305, 7615474068, 6779167975, 1640078309, 1640078313, 1846853878, 1846853875, 6366358673, 6366358672, 6366358671, 1643970081, 1643970052, 1643970072, 1846853872, 1645164035, 2397026625, 1655435366, 258030969, 258030970, 1655435361, 258030971, 258030972, 1655435355, 1655435357, 1655435354, 256618510, 7511858557, 2242858400, 2242858434, 7511858556, 2207262137, 2207262066, 2207262133, 624842118, 624842116, 624842113, 624842102], "tags": {"alt_name": "UIC", "amenity": "university", "education": "university", "ele": "181", "gnis:county_id": "031", "gnis:created": "05/03/1999", "gnis:feature_id": "1837071", "gnis:state_id": "17", "name": "University of Illinois at Chicago", "wikidata": "Q955764", "wikipedia": "en:University of Illinois at Chicago"}}, {"type": "way", "id": 682002315, "nodes": [6386781829, 6386781838, 6386781855, 6386781854, 6386781829], "tags": {"addr:city": "Chicago", "addr:housenumber": "2054", "addr:postcode": "60612", "addr:state": "IL", "addr:street": "West Grand Avenue", "amenity": "restaurant", "building": "yes", "name": "Upton\u2019s Breakroom", "phone": "+1-312-666-7838", "website": "http://www.uptonsnaturals.com/breakroom"}}]}