{"version": 0.6, "generator": "Overpass API 0.7.56.1004 6cd3eaec", "osm3s": {"timestamp_osm_base": "2020-07-22T01:29:03Z", "copyright": "The data included in this document is from www.openstreetmap.org. The data is made available under ODbL."}, "elements": [{"type": "node", "id": 261137171, "lat": 41.789634, "lon": -87.5947984}, {"type": "node", "id": 261139500, "lat": 41.7896618, "lon": -87.5915553}, {"type": "node", "id": 261139501, "lat": 41.7896475, "lon": -87.593169}, {"type": "node", "id": 261148611, "lat": 41.7858999, "lon": -87.6028092}, {"type": "node", "id": 261148612, "lat": 41.7840862, "lon": -87.6027672}, {"type": "node", "id": 261157995, "lat": 41.7858843, "lon": -87.6044301}, {"type": "node", "id": 261157996, "lat": 41.7840685, "lon": -87.6043879}, {"type": "node", "id": 261176766, "lat": 41.7859156, "lon": -87.6011868}, {"type": "node", "id": 261176767, "lat": 41.7841039, "lon": -87.6011387}, {"type": "node", "id": 261192484, "lat": 41.7859533, "lon": -87.5979528}, {"type": "node", "id": 261192485, "lat": 41.7841392, "lon": -87.5979008}, {"type": "node", "id": 261192510, "lat": 41.7932495, "lon": -87.5981069}, {"type": "node", "id": 261192511, "lat": 41.7914254, "lon": -87.5980749}, {"type": "node", "id": 261202782, "lat": 41.7914457, "lon": -87.59646, "tags": {"highway": "traffic_signals"}}, {"type": "node", "id": 261217408, "lat": 41.7841214, "lon": -87.599535}, {"type": "node", "id": 261217409, "lat": 41.7841567, "lon": -87.5962901, "tags": {"highway": "traffic_signals"}}, {"type": "node", "id": 261266040, "lat": 41.7858705, "lon": -87.6058578}, {"type": "node", "id": 261266042, "lat": 41.7860071, "lon": -87.5963328}, {"type": "node", "id": 1395196786, "lat": 41.7859795, "lon": -87.596604}, {"type": "node", "id": 1569129786, "lat": 41.7923579, "lon": -87.5980945}, {"type": "node", "id": 1587772175, "lat": 41.7886413, "lon": -87.5915309}, {"type": "node", "id": 1587883237, "lat": 41.7859329, "lon": -87.5995821, "tags": {"crossing": "no", "highway": "crossing"}}, {"type": "node", "id": 1589258704, "lat": 41.7840598, "lon": -87.6051872}, {"type": "node", "id": 1589258737, "lat": 41.7852525, "lon": -87.605859}, {"type": "node", "id": 1589258757, "lat": 41.7852666, "lon": -87.6051983}, {"type": "node", "id": 1589300557, "lat": 41.7851017, "lon": -87.5963123}, {"type": "node", "id": 1658287430, "lat": 41.7852235, "lon": -87.5963152}, {"type": "node", "id": 1674040525, "lat": 41.7896504, "lon": -87.5928392}, {"type": "node", "id": 1678655361, "lat": 41.7859378, "lon": -87.5992842}, {"type": "node", "id": 1678655478, "lat": 41.7859433, "lon": -87.5988461}, {"type": "node", "id": 1685262396, "lat": 41.7904707, "lon": -87.5956245}, {"type": "node", "id": 1685262407, "lat": 41.7896407, "lon": -87.5939861}, {"type": "node", "id": 1685262428, "lat": 41.7896269, "lon": -87.5956037}, {"type": "node", "id": 1685262461, "lat": 41.7914529, "lon": -87.5956491}, {"type": "node", "id": 1685296310, "lat": 41.7914355, "lon": -87.5972717}, {"type": "node", "id": 1929835281, "lat": 41.784095, "lon": -87.6019586}, {"type": "node", "id": 1929835313, "lat": 41.7841481, "lon": -87.5970796}, {"type": "node", "id": 1929835332, "lat": 41.7841125, "lon": -87.6003491}, {"type": "node", "id": 1929835339, "lat": 41.7840772, "lon": -87.6035912}, {"type": "node", "id": 1929835452, "lat": 41.7841303, "lon": -87.5987184}, {"type": "node", "id": 2372687526, "lat": 41.7858798, "lon": -87.6048969}, {"type": "node", "id": 2372687562, "lat": 41.7858803, "lon": -87.6048432}, {"type": "node", "id": 2380367815, "lat": 41.7877878, "lon": -87.6059295}, {"type": "node", "id": 2380367821, "lat": 41.7912756, "lon": -87.606037}, {"type": "node", "id": 2406147378, "lat": 41.7859199, "lon": -87.6008144}, {"type": "node", "id": 3235484969, "lat": 41.7858833, "lon": -87.6045285, "tags": {"highway": "crossing"}}, {"type": "node", "id": 3235484971, "lat": 41.7859502, "lon": -87.5982298, "tags": {"crossing": "no", "highway": "crossing"}}, {"type": "node", "id": 3259301888, "lat": 41.7949312, "lon": -87.5981693}, {"type": "node", "id": 4047380721, "lat": 41.7841023, "lon": -87.6012858}, {"type": "node", "id": 4047380722, "lat": 41.7841053, "lon": -87.6010158}, {"type": "node", "id": 4047380730, "lat": 41.7859146, "lon": -87.6012933, "tags": {"highway": "crossing"}}, {"type": "node", "id": 4047380731, "lat": 41.7859169, "lon": -87.6010783, "tags": {"highway": "crossing"}}, {"type": "node", "id": 4047380732, "lat": 41.785994, "lon": -87.5964417, "tags": {"highway": "crossing"}}, {"type": "node", "id": 4584322194, "lat": 41.7837978, "lon": -87.6130835, "tags": {"addr:city": "Chicago", "addr:housenumber": "501", "addr:postcode": "60637", "addr:state": "IL", "addr:street": "East 61st Street", "amenity": "cafe", "name": "Greenline Coffee", "phone": "+1-773-729-2282", "website": "https://www.greenlinecoffee.net/"}}, {"type": "node", "id": 4706138495, "lat": 41.7842732, "lon": -87.6051945}, {"type": "node", "id": 5322743176, "lat": 41.7925886, "lon": -87.6060695}, {"type": "node", "id": 5394546338, "lat": 41.7859224, "lon": -87.5963316, "tags": {"highway": "crossing"}}, {"type": "node", "id": 5545781672, "lat": 41.7879529, "lon": -87.5902808}, {"type": "node", "id": 5545781673, "lat": 41.7884906, "lon": -87.5915292}, {"type": "node", "id": 5545781674, "lat": 41.7885077, "lon": -87.5902419}, {"type": "node", "id": 5545781677, "lat": 41.788231, "lon": -87.5902281}, {"type": "node", "id": 5545781678, "lat": 41.7882433, "lon": -87.589449}, {"type": "node", "id": 5546046954, "lat": 41.7884909, "lon": -87.5915063}, {"type": "node", "id": 5546046956, "lat": 41.7879605, "lon": -87.5894438}, {"type": "node", "id": 5546076600, "lat": 41.7905388, "lon": -87.5956262}, {"type": "node", "id": 5622914298, "lat": 41.794856, "lon": -87.6060849}, {"type": "node", "id": 5827271177, "lat": 41.7859429, "lon": -87.5988791, "tags": {"bus": "yes", "local_ref": "17057", "name": "1111 E 60th Street", "network": "CTA", "operator": "Chicago Transit Authority", "public_transport": "stop_position"}}, {"type": "node", "id": 5827271178, "lat": 41.7859201, "lon": -87.6007936, "tags": {"bus": "yes", "local_ref": "14019", "name": "60th Street & Ellis", "network": "CTA", "operator": "Chicago Transit Authority", "public_transport": "stop_position"}}, {"type": "node", "id": 5827271179, "lat": 41.7859174, "lon": -87.6010195, "tags": {"bus": "yes", "local_ref": "14032", "name": "60th Street & Ellis", "network": "CTA", "operator": "Chicago Transit Authority", "public_transport": "stop_position"}}, {"type": "node", "id": 5827271180, "lat": 41.785893, "lon": -87.6035227, "tags": {"bus": "yes", "local_ref": "18050", "name": "915 E 60th Street", "network": "CTA", "operator": "Chicago Transit Authority", "public_transport": "stop_position"}}, {"type": "node", "id": 5827286705, "lat": 41.7859636, "lon": -87.5972658, "tags": {"bus": "yes", "local_ref": "14020", "name": "60th Street & University", "network": "CTA", "operator": "Chicago Transit Authority", "public_transport": "stop_position"}}, {"type": "node", "id": 5827286706, "lat": 41.7859506, "lon": -87.5981978, "tags": {"bus": "yes", "local_ref": "17903", "name": "60th Street & University", "network": "CTA", "operator": "Chicago Transit Authority", "public_transport": "stop_position"}}, {"type": "node", "id": 5827302680, "lat": 41.7859877, "lon": -87.5965023, "tags": {"bus": "yes", "local_ref": "15433", "name": "60th Street & Woodlawn", "network": "CTA", "operator": "Chicago Transit Authority", "public_transport": "stop_position"}}, {"type": "node", "id": 5885767564, "lat": 41.7949763, "lon": -87.5981734}, {"type": "node", "id": 5935554925, "lat": 41.780531, "lon": -87.6056016, "tags": {"addr:city": "Chicago", "addr:housenumber": "800", "addr:postcode": "60637", "addr:street": "East 63rd Street", "amenity": "restaurant", "cuisine": "american", "name": "Daley's Restaurant", "website": "https://www.daleysrestaurant.com/"}}, {"type": "node", "id": 6154685397, "lat": 41.7777448, "lon": -87.6154163, "tags": {"addr:city": "Chicago", "addr:housenumber": "6421", "addr:postcode": "60637", "addr:state": "IL", "addr:street": "South Doctor Martin Luther King Junior Drive", "amenity": "restaurant", "name": "Babas Halal"}}, {"type": "node", "id": 6154685400, "lat": 41.7841734, "lon": -87.6133639, "tags": {"addr:city": "Chicago", "addr:housenumber": "6052", "addr:postcode": "60637", "addr:state": "IL", "addr:street": "South Eberhart Avenue", "amenity": "restaurant", "name": "2 Potz & A Pan Eatery"}}, {"type": "node", "id": 6682404925, "lat": 41.785917, "lon": -87.6010719}, {"type": "node", "id": 7211503770, "lat": 41.7851116, "lon": -87.5963125}, {"type": "node", "id": 7244535738, "lat": 41.7889594, "lon": -87.5915385}, {"type": "way", "id": 145510717, "nodes": [261266042, 4047380732, 5827302680, 1395196786, 5827286705, 261192484, 5827286706, 3235484971, 1678655478, 5827271177, 1678655361, 1587883237, 5827271178, 2406147378, 5827271179, 6682404925, 4047380731, 261176766, 4047380730, 261148611, 5827271180, 261157995, 3235484969, 2372687562, 2372687526, 261266040, 1589258737, 1589258757, 4706138495, 1589258704, 261157996, 1929835339, 261148612, 1929835281, 4047380721, 261176767, 4047380722, 1929835332, 261217408, 1929835452, 261192485, 1929835313, 261217409, 1589300557, 7211503770, 1658287430, 5394546338, 261266042], "tags": {"addr:city": "Chicago", "addr:housenumber": "5801", "addr:postcode": "60637", "addr:state": "IL", "addr:street": "South Ellis Avenue", "amenity": "university", "name": "The University of Chicago", "website": "https://uchicago.edu", "wheelchair": "limited"}}, {"type": "way", "id": 145510728, "nodes": [5885767564, 5622914298, 5322743176, 2380367821, 2380367815, 5545781672, 5546046956, 5545781678, 5545781677, 5545781674, 5546046954, 5545781673, 1587772175, 7244535738, 261139500, 1674040525, 261139501, 1685262407, 261137171, 1685262428, 1685262396, 5546076600, 1685262461, 261202782, 1685296310, 261192511, 1569129786, 261192510, 3259301888, 5885767564], "tags": {"addr:city": "Chicago", "addr:housenumber": "5801", "addr:postcode": "60637", "addr:state": "IL", "addr:street": "South Ellis Avenue", "amenity": "university", "name": "The University of Chicago", "phone": "+1 773.702.1234", "website": "https://uchicago.edu", "wikidata": "Q131252", "wikipedia": "en:University of Chicago"}}]}