{"version": 0.6, "generator": "Overpass API 0.7.56.1004 6cd3eaec", "osm3s": {"timestamp_osm_base": "2020-07-22T04:40:02Z", "copyright": "The data included in this document is from www.openstreetmap.org. The data is made available under ODbL."}, "elements": [{"type": "node", "id": 346210195, "lat": 41.9291497, "lon": -87.6535647, "tags": {"addr:city": "Chicago", "addr:housenumber": "958", "addr:postcode": "60614", "addr:state": "IL", "addr:street": "West Wrightwood Avenue", "amenity": "restaurant", "brand": "Lou Malnati's Pizzeria", "brand:wikidata": "Q6685628", "brand:wikipedia": "en:Lou Malnati's Pizzeria", "cuisine": "pizza", "name": "Lou Malnati's Pizzeria"}}, {"type": "node", "id": 347162170, "lat": 41.9285367, "lon": -87.6534874, "tags": {"amenity": "cafe", "name": "Savor the Flavor"}}, {"type": "node", "id": 347433848, "lat": 41.9288055, "lon": -87.6584501, "tags": {"amenity": "cafe", "brand": "Starbucks", "brand:wikidata": "Q37158", "brand:wikipedia": "en:Starbucks", "cuisine": "coffee_shop", "name": "Starbucks", "official_name": "Starbucks Coffee", "takeaway": "yes"}}, {"type": "node", "id": 495655712, "lat": 41.9359674, "lon": -87.6632892, "tags": {"addr:housenumber": "2971", "addr:street": "North Lincoln Avenue", "amenity": "restaurant", "name": "Golden Apple", "phone": "773-528-1413"}}, {"type": "node", "id": 495655717, "lat": 41.9376211, "lon": -87.6660205, "tags": {"addr:housenumber": "3045", "addr:street": "North Greenview Avenue", "amenity": "cafe", "brand": "Starbucks", "brand:wikidata": "Q37158", "brand:wikipedia": "en:Starbucks", "cuisine": "coffee_shop", "name": "Starbucks", "official_name": "Starbucks Coffee", "takeaway": "yes"}}, {"type": "node", "id": 503798695, "lat": 41.940004, "lon": -87.6556831, "tags": {"addr:housenumber": "1040", "addr:street": "West Belmont Avenue", "amenity": "restaurant", "name": "Giordano's", "name:ko": "\uc9c0\uc624\ub2e4\ub178\uc2a4"}}, {"type": "node", "id": 503799637, "lat": 41.9439463, "lon": -87.6641268, "tags": {"amenity": "cafe", "name": "Ann Sather"}}, {"type": "node", "id": 662726458, "lat": 41.9401147, "lon": -87.6491097, "tags": {"amenity": "restaurant", "name": "Drew's on Halsted", "url": "http://www.jacksonhalsted.com/"}}, {"type": "node", "id": 949099772, "lat": 41.9435267, "lon": -87.6495172, "tags": {"amenity": "bar", "name": "Roscoe's Tavern & Cafe"}}, {"type": "node", "id": 949100448, "lat": 41.9435227, "lon": -87.6492449, "tags": {"amenity": "bar", "name": "Progress Bar Chicago"}}, {"type": "node", "id": 949101374, "lat": 41.9432554, "lon": -87.6492221, "tags": {"amenity": "bar", "name": "Sidetrack"}}, {"type": "node", "id": 949101636, "lat": 41.9429791, "lon": -87.6492355, "tags": {"amenity": "bar", "name": "Minibar"}}, {"type": "node", "id": 949101795, "lat": 41.9428145, "lon": -87.6494997, "tags": {"amenity": "restaurant", "name": "Nookie's"}}, {"type": "node", "id": 949101940, "lat": 41.9424334, "lon": -87.6494743, "tags": {"amenity": "bar", "name": "Scarlet"}}, {"type": "node", "id": 1710876951, "lat": 41.9286198, "lon": -87.6535883}, {"type": "node", "id": 1710876952, "lat": 41.928635, "lon": -87.6533929}, {"type": "node", "id": 1710876953, "lat": 41.9287461, "lon": -87.6535901}, {"type": "node", "id": 1710876954, "lat": 41.9287621, "lon": -87.6535758}, {"type": "node", "id": 1892429574, "lat": 41.9440434, "lon": -87.66374, "tags": {"amenity": "restaurant", "brand": "Noodles & Company", "brand:wikidata": "Q7049673", "brand:wikipedia": "en:Noodles & Company", "cuisine": "pasta", "name": "Noodles & Company"}}, {"type": "node", "id": 1892429616, "lat": 41.9441566, "lon": -87.6637577, "tags": {"amenity": "restaurant", "name": "Cooba", "wheelchair": "yes"}}, {"type": "node", "id": 1892450589, "lat": 41.9440789, "lon": -87.6641263, "tags": {"addr:housenumber": "3418", "addr:street": "North Southport Avenue", "amenity": "restaurant", "name": "Sopo Lounge & Grill"}}, {"type": "node", "id": 2149599047, "lat": 41.9372356, "lon": -87.6590804, "tags": {"addr:city": "Chicago", "addr:housenumber": "3030", "addr:postcode": "60657", "addr:state": "IL", "addr:street": "North Racine Avenue", "amenity": "bar", "atm": "yes", "food": "yes", "name": "Will's Northwoods Inn", "outdoor_seating": "yes", "phone": "773-528-4400", "smoking": "outside", "website": "http://willsnorthwoodsinn.com/"}}, {"type": "node", "id": 2167184271, "lat": 41.9278273, "lon": -87.6636143, "tags": {"addr:city": "Chicago", "addr:housenumber": "2524", "addr:postcode": "60614", "addr:street": "North Southport Avenue", "amenity": "restaurant", "name": "The Monkey's Paw", "smoking": "no"}}, {"type": "node", "id": 2200366030, "lat": 41.9329518, "lon": -87.6641628}, {"type": "node", "id": 2200366044, "lat": 41.9329587, "lon": -87.6637242}, {"type": "node", "id": 2200366395, "lat": 41.933012, "lon": -87.6641645}, {"type": "node", "id": 2200366402, "lat": 41.933019, "lon": -87.663726}, {"type": "node", "id": 2200369775, "lat": 41.9343189, "lon": -87.6682783}, {"type": "node", "id": 2200369788, "lat": 41.934323, "lon": -87.6680339}, {"type": "node", "id": 2200369846, "lat": 41.9343503, "lon": -87.6680042}, {"type": "node", "id": 2200369850, "lat": 41.9343505, "lon": -87.6680354}, {"type": "node", "id": 2200370017, "lat": 41.9343903, "lon": -87.6682813}, {"type": "node", "id": 2200370036, "lat": 41.9343942, "lon": -87.6680056}, {"type": "node", "id": 2200375034, "lat": 41.9361355, "lon": -87.6682595}, {"type": "node", "id": 2200375035, "lat": 41.9361356, "lon": -87.6682833}, {"type": "node", "id": 2200375051, "lat": 41.9361415, "lon": -87.6683494}, {"type": "node", "id": 2200375055, "lat": 41.9361423, "lon": -87.6682484}, {"type": "node", "id": 2200375056, "lat": 41.9361426, "lon": -87.6682943}, {"type": "node", "id": 2200375058, "lat": 41.9361475, "lon": -87.6679543}, {"type": "node", "id": 2200375143, "lat": 41.9361938, "lon": -87.664126}, {"type": "node", "id": 2200375144, "lat": 41.936194, "lon": -87.6641535}, {"type": "node", "id": 2200375147, "lat": 41.9361955, "lon": -87.664646}, {"type": "node", "id": 2200375151, "lat": 41.9361974, "lon": -87.6640304}, {"type": "node", "id": 2200375152, "lat": 41.9361975, "lon": -87.6640451}, {"type": "node", "id": 2200375154, "lat": 41.9361976, "lon": -87.6643042}, {"type": "node", "id": 2200375165, "lat": 41.9362006, "lon": -87.6641167}, {"type": "node", "id": 2200375167, "lat": 41.9362009, "lon": -87.6641627}, {"type": "node", "id": 2200375169, "lat": 41.9362014, "lon": -87.6640193}, {"type": "node", "id": 2200375170, "lat": 41.9362016, "lon": -87.6640542}, {"type": "node", "id": 2200375176, "lat": 41.9362035, "lon": -87.6643354}, {"type": "node", "id": 2200375179, "lat": 41.9362045, "lon": -87.6643041}, {"type": "node", "id": 2200375183, "lat": 41.936206, "lon": -87.6683506}, {"type": "node", "id": 2200375192, "lat": 41.9362096, "lon": -87.6640137}, {"type": "node", "id": 2200375200, "lat": 41.936212, "lon": -87.6679573}, {"type": "node", "id": 2200375224, "lat": 41.9362178, "lon": -87.6640118}, {"type": "node", "id": 2200375246, "lat": 41.9362261, "lon": -87.6640135}, {"type": "node", "id": 2200375257, "lat": 41.9362302, "lon": -87.6640172}, {"type": "node", "id": 2200375268, "lat": 41.9362344, "lon": -87.6640245}, {"type": "node", "id": 2200375269, "lat": 41.9362344, "lon": -87.6640355}, {"type": "node", "id": 2200375272, "lat": 41.9362354, "lon": -87.6643365}, {"type": "node", "id": 2200375315, "lat": 41.9362442, "lon": -87.6647131}, {"type": "node", "id": 2200375475, "lat": 41.9362842, "lon": -87.6642816}, {"type": "node", "id": 2200375703, "lat": 41.9363444, "lon": -87.6642042}, {"type": "node", "id": 2200375720, "lat": 41.9363501, "lon": -87.6641967}, {"type": "node", "id": 2200376304, "lat": 41.9364942, "lon": -87.664397}, {"type": "node", "id": 2200517049, "lat": 41.9408113, "lon": -87.6698575}, {"type": "node", "id": 2200517060, "lat": 41.9408122, "lon": -87.6697748}, {"type": "node", "id": 2200517417, "lat": 41.9408416, "lon": -87.6698811}, {"type": "node", "id": 2200517588, "lat": 41.9408703, "lon": -87.6696235}, {"type": "node", "id": 2200518044, "lat": 41.9409295, "lon": -87.6696615}, {"type": "node", "id": 2200532931, "lat": 41.942628, "lon": -87.6710535}, {"type": "node", "id": 2200533571, "lat": 41.9426969, "lon": -87.6708727}, {"type": "node", "id": 2200533849, "lat": 41.9427203, "lon": -87.670639}, {"type": "node", "id": 2200536114, "lat": 41.942865, "lon": -87.6702663}, {"type": "node", "id": 2200536507, "lat": 41.942897, "lon": -87.6710618}, {"type": "node", "id": 2200536534, "lat": 41.9428981, "lon": -87.6710103}, {"type": "node", "id": 2200536565, "lat": 41.9428994, "lon": -87.670764}, {"type": "node", "id": 2200537391, "lat": 41.9429545, "lon": -87.6703279}, {"type": "node", "id": 2200537423, "lat": 41.9429562, "lon": -87.6706182}, {"type": "node", "id": 2200538922, "lat": 41.943044, "lon": -87.6703913}, {"type": "node", "id": 2204054829, "lat": 41.9286645, "lon": -87.649427}, {"type": "node", "id": 2204054879, "lat": 41.9286698, "lon": -87.6489879}, {"type": "node", "id": 2204055130, "lat": 41.9287302, "lon": -87.6494285}, {"type": "node", "id": 2204055146, "lat": 41.9287355, "lon": -87.6489894}, {"type": "node", "id": 2204055723, "lat": 41.9289325, "lon": -87.6492998}, {"type": "node", "id": 2204055739, "lat": 41.9289362, "lon": -87.6489973}, {"type": "node", "id": 2204055852, "lat": 41.9289907, "lon": -87.6493014}, {"type": "node", "id": 2204055884, "lat": 41.9289944, "lon": -87.6489982}, {"type": "node", "id": 2204064432, "lat": 41.9316382, "lon": -87.6572443}, {"type": "node", "id": 2204065117, "lat": 41.9318316, "lon": -87.6575142}, {"type": "node", "id": 2204065252, "lat": 41.9318735, "lon": -87.6569401}, {"type": "node", "id": 2204065299, "lat": 41.9318836, "lon": -87.6575026}, {"type": "node", "id": 2204065421, "lat": 41.9319279, "lon": -87.6575646}, {"type": "node", "id": 2204065568, "lat": 41.9319693, "lon": -87.6571342}, {"type": "node", "id": 2204065575, "lat": 41.9319735, "lon": -87.6573878}, {"type": "node", "id": 2204065617, "lat": 41.9319887, "lon": -87.6574096}, {"type": "node", "id": 2204065625, "lat": 41.9319924, "lon": -87.6571064}, {"type": "node", "id": 2204065636, "lat": 41.9319983, "lon": -87.6571725}, {"type": "node", "id": 2204065661, "lat": 41.9320051, "lon": -87.6571632}, {"type": "node", "id": 2204065675, "lat": 41.9320078, "lon": -87.6573856}, {"type": "node", "id": 2204065782, "lat": 41.9320369, "lon": -87.6574257}, {"type": "node", "id": 2204065833, "lat": 41.9320536, "lon": -87.6572307}, {"type": "node", "id": 2204071494, "lat": 41.9330306, "lon": -87.649374}, {"type": "node", "id": 2204071505, "lat": 41.9330372, "lon": -87.6491428}, {"type": "node", "id": 2204071515, "lat": 41.9330402, "lon": -87.6493757}, {"type": "node", "id": 2204071519, "lat": 41.9330404, "lon": -87.6494015}, {"type": "node", "id": 2204071681, "lat": 41.9330994, "lon": -87.6494027}, {"type": "node", "id": 2204071685, "lat": 41.9331017, "lon": -87.649331}, {"type": "node", "id": 2204071732, "lat": 41.9331157, "lon": -87.6493694}, {"type": "node", "id": 2204071737, "lat": 41.9331168, "lon": -87.6493308}, {"type": "node", "id": 2204071865, "lat": 41.9331472, "lon": -87.6493709}, {"type": "node", "id": 2204071867, "lat": 41.9331483, "lon": -87.6493158}, {"type": "node", "id": 2204071872, "lat": 41.9331519, "lon": -87.6492276}, {"type": "node", "id": 2204071875, "lat": 41.933153, "lon": -87.6491945}, {"type": "node", "id": 2204071893, "lat": 41.9331661, "lon": -87.6493174}, {"type": "node", "id": 2204071900, "lat": 41.9331683, "lon": -87.6492292}, {"type": "node", "id": 2204071907, "lat": 41.9331692, "lon": -87.6491484}, {"type": "node", "id": 2204071908, "lat": 41.9331692, "lon": -87.649152}, {"type": "node", "id": 2204071910, "lat": 41.9331695, "lon": -87.6491961}, {"type": "node", "id": 2204095268, "lat": 41.9396023, "lon": -87.657355}, {"type": "node", "id": 2204095273, "lat": 41.9396031, "lon": -87.6572704}, {"type": "node", "id": 2204095390, "lat": 41.9396584, "lon": -87.6573434}, {"type": "node", "id": 2204095393, "lat": 41.9396585, "lon": -87.6573562}, {"type": "node", "id": 2204095422, "lat": 41.9396735, "lon": -87.6573432}, {"type": "node", "id": 2204095436, "lat": 41.9396786, "lon": -87.6572733}, {"type": "node", "id": 2204095437, "lat": 41.9396787, "lon": -87.6572862}, {"type": "node", "id": 2204095440, "lat": 41.9396805, "lon": -87.6573578}, {"type": "node", "id": 2204095463, "lat": 41.9396897, "lon": -87.6572861}, {"type": "node", "id": 2204095504, "lat": 41.9397061, "lon": -87.657273}, {"type": "node", "id": 2204095676, "lat": 41.9397697, "lon": -87.6573606}, {"type": "node", "id": 2204095680, "lat": 41.9397705, "lon": -87.6572742}, {"type": "node", "id": 2204102142, "lat": 41.9406187, "lon": -87.6494303, "tags": {"addr:city": "Chicago", "addr:housenumber": "800", "addr:postcode": "60657", "addr:state": "IL", "addr:street": "West Belmont Avenue", "amenity": "restaurant", "cuisine": "ramen;asian;japanese", "name": "Furious Spoon - Lakeview", "opening_hours": "Su-Th 11:00-00:00; Fr-Sa 11:00-01:00", "phone": "+1-773-697-9085", "website": "http://furiousramen.com"}}, {"type": "node", "id": 2262363338, "lat": 41.9440287, "lon": -87.6495776, "tags": {"addr:city": "Chicago", "addr:housenumber": "3404", "addr:postcode": "60657", "addr:state": "IL", "addr:street": "North Halsted Street", "amenity": "restaurant", "cuisine": "american", "name": "Home Bistro", "phone": "+1-773-661-0299", "website": "http://homebistrochicago.com/"}}, {"type": "node", "id": 2262371979, "lat": 41.9277431, "lon": -87.6486926, "tags": {"addr:city": "Chicago", "addr:housenumber": "2519", "addr:postcode": "60614", "addr:state": "IL", "addr:street": "North Halsted Street", "amenity": "bar", "name": "B.L.U.E.S.", "phone": "+1-773-528-1012", "website": "http://www.chicagobluesbar.com"}}, {"type": "node", "id": 2282440770, "lat": 41.9398402, "lon": -87.6507796, "tags": {"addr:city": "Chicago", "addr:housenumber": "3184", "addr:postcode": "60657", "addr:state": "IL", "addr:street": "North Clark Street", "amenity": "cafe", "brand": "Starbucks", "brand:wikidata": "Q37158", "brand:wikipedia": "en:Starbucks", "cuisine": "coffee_shop", "internet_access": "wlan", "internet_access:fee": "no", "name": "Starbucks", "official_name": "Starbucks Coffee", "takeaway": "yes", "website": "https://www.starbucks.com"}}, {"type": "node", "id": 2361072397, "lat": 41.9307707, "lon": -87.655881, "tags": {"addr:housenumber": "2679", "addr:street": "North Lincoln Avenue", "amenity": "restaurant", "cuisine": "pizza", "name": "Pat's Pizzeria"}}, {"type": "node", "id": 2933401201, "lat": 41.9399274, "lon": -87.6612013, "tags": {"addr:city": "Chicago", "addr:housenumber": "1258", "addr:postcode": "60657", "addr:state": "IL", "addr:street": "West Belmont Avenue", "amenity": "restaurant", "delivery": "no", "name": "Fahlstrom's Fresh Fish Market", "opening_hours": "Mo-Fr 11:00-22:00; Sa 09:00-22:00; Su 09:00-21:00", "phone": "+1-773-281-6000", "takeaway": "yes", "website": "https://www.fahlstromsfreshfish.com/"}}, {"type": "node", "id": 2951767683, "lat": 41.9284346, "lon": -87.653186, "tags": {"addr:city": "Chicago", "addr:housenumber": "2566", "addr:postcode": "60614", "addr:state": "IL", "addr:street": "North Lincoln Avenue", "amenity": "bar", "cuisine": "german", "name": "Prost", "phone": "+1-773-880-9900", "website": "https://www.prostchi.com/"}}, {"type": "node", "id": 2968230657, "lat": 41.9277243, "lon": -87.6516908, "tags": {"addr:city": "Chicago", "addr:housenumber": "2519", "addr:postcode": "60614", "addr:street": "North Lincoln Avenue", "amenity": "bar", "name": "Irish Eyes"}}, {"type": "node", "id": 3489971056, "lat": 41.9383791, "lon": -87.6490889, "tags": {"amenity": "restaurant", "cuisine": "thai", "name": "Thaiday Street Cafe"}}, {"type": "node", "id": 4049483564, "lat": 41.9368582, "lon": -87.6650564, "tags": {"amenity": "restaurant", "cuisine": "american", "level": "0", "name": "Grand River"}}, {"type": "node", "id": 4053862155, "lat": 41.929524, "lon": -87.6491944, "tags": {"addr:city": "Chicago", "addr:housenumber": "2610", "addr:postcode": "60614", "addr:state": "IL", "addr:street": "North Halsted Street", "amenity": "bar", "name": "The Wild Hare", "opening_hours": "18:00-02:00", "smoking": "no"}}, {"type": "node", "id": 4692788467, "lat": 41.9347553, "lon": -87.6537697, "tags": {"addr:city": "Chicago", "addr:housenumber": "2909", "addr:postcode": "60657", "addr:street": "North Sheffield Avenue", "amenity": "restaurant", "cuisine": "bar&grill", "name": "The River Kitchen and Bar", "opening_hours": "Mo-Fr 17:00-02:00; Sa 11:00-03:00; Su 11:00-02:00", "phone": "+1 773 935 7500", "website": "https://www.theriverchicago.com"}}, {"type": "node", "id": 4726227996, "lat": 41.9327716, "lon": -87.6535024, "tags": {"addr:housenumber": "954", "addr:street": "West Diversey Parkway", "amenity": "restaurant", "name": "Nori Sushi Lincoln Park", "opening_hours": "Mo-Su 11:00-16:00, 17:00-22:00"}}, {"type": "node", "id": 5033308929, "lat": 41.9447083, "lon": -87.6540662, "tags": {"addr:city": "Chicago", "addr:housenumber": "3439", "addr:postcode": "60657", "addr:state": "IL", "addr:street": "North Sheffield Avenue", "amenity": "bar", "name": "Nisei Lounge", "phone": "+1-773-525-0557", "website": "https://niseiloungechicago.com/"}}, {"type": "node", "id": 5161056762, "lat": 41.9400136, "lon": -87.6544566, "tags": {"amenity": "bar", "name": "Big City Tap"}}, {"type": "node", "id": 5161056765, "lat": 41.9400486, "lon": -87.6537882, "tags": {"addr:city": "Chicago", "addr:housenumber": "958", "addr:postcode": "60657", "addr:state": "IL", "addr:street": "West Belmont Avenue", "amenity": "bar", "name": "Cheesie's Pub & Grub", "opening_hours": "Mo-We 11:00-02:00, Th 11:00-03:00, Fr,Sa 11:00-05:00, Su 11:00-02:00", "phone": "+1-773-388-1574", "website": "https://cheesies.com/"}}, {"type": "node", "id": 5161056767, "lat": 41.939802, "lon": -87.6535927, "tags": {"addr:city": "Chicago", "addr:housenumber": "953", "addr:postcode": "60657", "addr:state": "IL", "addr:street": "West Belmont Avenue", "amenity": "restaurant", "brand": "Blaze Pizza", "brand:wikidata": "Q23016666", "brand:wikipedia": "en:Blaze Pizza", "cuisine": "pizza", "name": "Blaze Pizza", "opening_hours": "Mo-Th 11:00-23:00, Fr-Sa 11:00-01:00, Su 11:00-22:00"}}, {"type": "node", "id": 5161056770, "lat": 41.9397747, "lon": -87.6561359, "tags": {"amenity": "restaurant", "name": "Jin Asian Cafe"}}, {"type": "node", "id": 5161056771, "lat": 41.9397702, "lon": -87.6563655, "tags": {"addr:city": "Chicago", "addr:housenumber": "1059", "addr:postcode": "60657", "addr:state": "IL", "addr:street": "West Belmont Avenue", "amenity": "restaurant", "cuisine": "sushi;japanese", "name": "Ukai Sushi", "opening_hours": "Mo-We 16:00-22:00; Th 15:00-22:00; Fr-Sa 11:00-23:00; Su 12:00-22:00", "phone": "+1-773-868-9900", "website": "https://ukai-japaenase-restaurant-onlinle-ordering.securebrygid.com/zgrid/themes/10649/intro/index.jsp"}}, {"type": "node", "id": 5161056772, "lat": 41.939981, "lon": -87.6572805, "tags": {"addr:city": "Chicago", "addr:housenumber": "1114", "addr:postcode": "60657", "addr:state": "IL", "addr:street": "West Belmont Avenue", "amenity": "cafe", "name": "Bittersweet Pastry Shop", "opening_hours": "Tu-Fr 07:00-19:00; Sa 08:00-19:00; Su 08:00-18:00", "phone": "+1-773-929-1100", "website": "https://www.bittersweetpastry.com/"}}, {"type": "node", "id": 5161385984, "lat": 41.9382088, "lon": -87.6538954, "tags": {"addr:city": "Chicago", "addr:housenumber": "3101", "addr:postcode": "60657", "addr:state": "IL", "addr:street": "North Sheffield Avenue", "addr:unit": "1", "amenity": "bar", "name": "Matilda", "opening_hours": "Mo-Fr 17:00-02:00; Sa 10:00-03:00; Su 11:00-17:00", "phone": "+1-773-883-4400", "website": "https://matilda-babyatlas.com"}}, {"type": "node", "id": 5161385986, "lat": 41.9434096, "lon": -87.6543631, "tags": {"amenity": "bar", "name": "Redmonds"}}, {"type": "node", "id": 5161413724, "lat": 41.9360501, "lon": -87.6541256, "tags": {"addr:city": "Chicago", "addr:housenumber": "2954", "addr:postcode": "60657", "addr:state": "IL", "addr:street": "North Sheffield Avenue", "amenity": "restaurant", "cuisine": "burger", "name": "DMK Burger Bar", "opening_hours": "Mo-Th 11:30-23:00; Fr-Su 11:30-00:00", "phone": "+1-773-360-8686", "website": "https://dmkburgerbar.com/"}}, {"type": "node", "id": 5161413725, "lat": 41.9354732, "lon": -87.6541061, "tags": {"addr:city": "Chicago", "addr:housenumber": "2934", "addr:postcode": "60657", "addr:state": "IL", "addr:street": "North Sheffield Avenue", "amenity": "restaurant", "cuisine": "american;pub", "name": "Kirkwood Bar & Grill", "opening_hours": "Mo-Fr 17:00-02:00; Sa 11:00-03:00; Su 11:00-02:00", "phone": "+1-773-770-0700", "website": "https://kirkwoodbar.com/"}}, {"type": "node", "id": 5161413726, "lat": 41.9346785, "lon": -87.6537664, "tags": {"addr:city": "Chicago", "addr:housenumber": "2901", "addr:postcode": "60657", "addr:state": "IL", "addr:street": "North Sheffield Avenue", "amenity": "restaurant", "cuisine": "mexican", "name": "Barcocina", "opening_hours": "Mo-Th 17:00-00:00; Fr 17:00-02:00; Sa 11:00-03:00; Su 11:00-00:00", "outdoor_seating": "yes", "phone": "+1-773-687-9949", "website": "https://barcocinachicago.com"}}, {"type": "node", "id": 5161413727, "lat": 41.934997, "lon": -87.6538, "tags": {"addr:city": "Chicago", "addr:housenumber": "2917", "addr:postcode": "60657", "addr:state": "IL", "addr:street": "North Sheffield Avenue", "amenity": "bar", "name": "Vaughan\u2019s Pub - Lakeview", "phone": "+1-773-281-8188", "website": "https://vaughanhospitality.com/"}}, {"type": "node", "id": 5161413728, "lat": 41.9361318, "lon": -87.6541309, "tags": {"addr:city": "Chicago", "addr:housenumber": "2956", "addr:postcode": "60657", "addr:state": "IL", "addr:street": "North Sheffield Avenue", "amenity": "restaurant", "cuisine": "seafood", "name": "Fish Bar", "opening_hours": "Su-Th 11:30-22:00; Fr,Sa 11:30-23:00", "outdoor_seating": "yes"}}, {"type": "node", "id": 5161413729, "lat": 41.9327759, "lon": -87.6533288, "tags": {"amenity": "restaurant", "name": "Andy's Thai Kitchen"}}, {"type": "node", "id": 5161413730, "lat": 41.9364819, "lon": -87.6541398, "tags": {"addr:city": "Chicago", "addr:housenumber": "3002", "addr:postcode": "60657", "addr:state": "IL", "addr:street": "North Sheffield Avenue", "amenity": "cafe", "cuisine": "sandwich", "name": "Panes Bread Cafe", "opening_hours": "Su 09:00-22:00; Mo-Sa 10:00-22:00", "phone": "+1-773-665-0972"}}, {"type": "node", "id": 5161413731, "lat": 41.9365543, "lon": -87.6541433, "tags": {"addr:city": "Chicago", "addr:housenumber": "3006", "addr:postcode": "60657", "addr:state": "IL", "addr:street": "North Sheffield Avenue", "amenity": "restaurant", "cuisine": "sushi;japanese", "name": "Tanuki", "opening_hours": "Mo-Th 11:30-22:00; Fr,Sa 11:30-23:00; Su 12:00-22:00"}}, {"type": "node", "id": 5178274147, "lat": 41.9398268, "lon": -87.6519964, "tags": {"addr:city": "Chicago", "addr:housenumber": "909", "addr:postcode": "60657", "addr:state": "IL", "addr:street": "West Belmont Avenue", "amenity": "restaurant", "cuisine": "swedish", "name": "Ann Sather Restaurant", "opening_hours": "Mo-Fr 07:00-15:00; Sa,Su 07:00-16:00", "phone": "+1-773-348-2378"}}, {"type": "node", "id": 5178274149, "lat": 41.9394504, "lon": -87.6504571, "tags": {"amenity": "restaurant", "name": "Cesar's Killer Margarita"}}, {"type": "node", "id": 5178274154, "lat": 41.9398293, "lon": -87.6523651, "tags": {"addr:city": "Chicago", "addr:housenumber": "919", "addr:postcode": "60657", "addr:state": "IL", "addr:street": "West Belmont Avenue", "amenity": "restaurant", "cuisine": "ramen", "name": "Strings Ramen Shop Lakeview", "opening_hours": "Mo-Su 11:00-23:59", "phone": "+1-773-661-6442", "website": "https://www.ramenchicago.com"}}, {"type": "node", "id": 5178274155, "lat": 41.9404541, "lon": -87.6542735, "tags": {"amenity": "bar", "name": "Trader Todd's"}}, {"type": "node", "id": 5178274159, "lat": 41.9398678, "lon": -87.6490939, "tags": {"amenity": "restaurant", "name": "Lucky Horsehoe Lounge"}}, {"type": "node", "id": 5178274163, "lat": 41.940804, "lon": -87.651186, "tags": {"addr:city": "Chicago", "addr:housenumber": "3231", "addr:postcode": "60657", "addr:state": "IL", "addr:street": "North Clark Street", "amenity": "restaurant", "cuisine": "american", "name": "Kanela Breakfast Club", "opening_hours": "Mo-Th 09:00-15:00; Fr-Su 08:00-15:00", "phone": "+1-773-248-1622", "website": "https://kanelabreakfastclub.com/"}}, {"type": "node", "id": 5178274165, "lat": 41.9406252, "lon": -87.6510458, "tags": {"amenity": "restaurant", "name": "Royal Indian Grill"}}, {"type": "node", "id": 5178274166, "lat": 41.940235, "lon": -87.6506779, "tags": {"addr:city": "Chicago", "addr:housenumber": "3207", "addr:postcode": "60657", "addr:state": "IL", "addr:street": "North Clark Street", "amenity": "bar", "name": "L & L Tavern", "phone": "+1-773-528-1303"}}, {"type": "node", "id": 5178274167, "lat": 41.9410486, "lon": -87.6517288, "tags": {"amenity": "restaurant", "name": "Matsuya"}}, {"type": "node", "id": 5178274176, "lat": 41.9418943, "lon": -87.6520522, "tags": {"addr:city": "Chicago", "addr:housenumber": "3301", "addr:postcode": "60657", "addr:state": "IL", "addr:street": "North Clark Street", "amenity": "restaurant", "cuisine": "american", "name": "Hutch"}}, {"type": "node", "id": 5225519836, "lat": 41.9285968, "lon": -87.6534387}, {"type": "node", "id": 5225519837, "lat": 41.9286614, "lon": -87.6535329}, {"type": "node", "id": 5252276976, "lat": 41.9434018, "lon": -87.6532551, "tags": {"amenity": "bar", "name": "Houndstooth"}}, {"type": "node", "id": 5364425022, "lat": 41.9427161, "lon": -87.652684, "tags": {"amenity": "restaurant", "name": "El Jardin"}}, {"type": "node", "id": 5364425023, "lat": 41.944352, "lon": -87.6544113, "tags": {"amenity": "bar", "name": "Chicago's Blarney Stone"}}, {"type": "node", "id": 5364425025, "lat": 41.9447909, "lon": -87.6540921, "tags": {"addr:city": "Chicago", "addr:housenumber": "3441", "addr:postcode": "60657", "addr:state": "IL", "addr:street": "North Sheffield Avenue", "amenity": "bar", "name": "The Graystone Tavern", "phone": "+1-773-666-5450", "website": "https://www.graystonetavernchicago.com/"}}, {"type": "node", "id": 5381744322, "lat": 41.9421958, "lon": -87.6523157, "tags": {"addr:city": "Chicago", "addr:housenumber": "3313", "addr:postcode": "60657", "addr:state": "IL", "addr:street": "North Clark Street", "amenity": "restaurant", "name": "BITES"}}, {"type": "node", "id": 5393821521, "lat": 41.9286066, "lon": -87.6485213, "tags": {"addr:city": "Chicago", "addr:housenumber": "2545", "addr:postcode": "60614", "addr:state": "IL", "addr:street": "North Halsted Street", "amenity": "restaurant", "cuisine": "chinese", "email": "cdir.chicago@gmail.com", "name": "Chengdu Impression", "opening_hours": "Mo-Su 16:00-22:00", "phone": "+1-(773)477-6256", "website": "https://www.chengduimpression.com/"}}, {"type": "node", "id": 5460785521, "lat": 41.9395264, "lon": -87.6636243, "tags": {"addr:city": "Chicago", "addr:housenumber": "3157", "addr:postcode": "60657", "addr:state": "IL", "addr:street": "North Southport Avenue", "amenity": "restaurant", "cuisine": "american;new_american;american_new", "name": "Tied House", "opening_hours": "Su-Th 16:30-23:00; Fr-Sa 16:30-00:00", "phone": "+1-773-697-4632", "website": "https://www.tiedhousechicago.com"}}, {"type": "node", "id": 5460886933, "lat": 41.9398722, "lon": -87.6696522, "tags": {"addr:city": "Chicago", "addr:housenumber": "1622", "addr:postcode": "60657", "addr:state": "IL", "addr:street": "West Belmont Avenue", "amenity": "restaurant", "cuisine": "american;pub", "name": "Flagship Tavern and Grill", "opening_hours": "Mo-Th 17:00-02:00; Fr 15:00-02:00; Sa 11:00-03:00; Su 11:00-02:00", "phone": "+1-773-281-3805", "website": "https://www.flagshipchicago.com/"}}, {"type": "node", "id": 5460893286, "lat": 41.9426479, "lon": -87.6635911, "tags": {"addr:city": "Chicago", "addr:housenumber": "3335", "addr:postcode": "60657", "addr:state": "IL", "addr:street": "North Southport Avenue", "amenity": "restaurant", "cuisine": "italian", "name": "Coda di Volpe", "opening_hours": "Mo-Th 16:30-22:00; Fr 16:30-23:00; Sa 10:00-23:00; Su 10:00-22:00", "phone": "+1-773-687-8568", "website": "http://www.cdvolpe.com/"}}, {"type": "node", "id": 5651992039, "lat": 41.9396498, "lon": -87.6636315, "tags": {"amenity": "bar", "name": "Schuba's"}}, {"type": "node", "id": 5652012632, "lat": 41.9327782, "lon": -87.6533762, "tags": {"amenity": "restaurant", "name": "Penny's Noodle Shop"}}, {"type": "node", "id": 5652012634, "lat": 41.932768, "lon": -87.6541252, "tags": {"amenity": "cafe", "brand": "Starbucks", "brand:wikidata": "Q37158", "brand:wikipedia": "en:Starbucks", "cuisine": "coffee_shop", "name": "Starbucks", "official_name": "Starbucks Coffee", "takeaway": "yes"}}, {"type": "node", "id": 5652012636, "lat": 41.9327302, "lon": -87.6550447, "tags": {"addr:city": "Chicago", "addr:housenumber": "1028", "addr:postcode": "60614", "addr:state": "IL", "addr:street": "West Diversey Parkway", "amenity": "bar", "name": "Paddy Long\u2019s", "phone": "+1-773-290-6988", "website": "https://www.paddylongs.com/"}}, {"type": "node", "id": 5652012639, "lat": 41.9333106, "lon": -87.6537045, "tags": {"addr:city": "Chicago", "addr:housenumber": "2825", "addr:postcode": "60657", "addr:state": "IL", "addr:street": "North Sheffield Avenue", "amenity": "cafe", "name": "Zizi's Cafe", "phone": "+1-773-697-9228", "website": "http://www.ziziscafechicago.com/"}}, {"type": "node", "id": 5689237336, "lat": 41.9328066, "lon": -87.6593929, "tags": {"addr:housenumber": "2812", "addr:street": "North Lincoln Avenue", "amenity": "bar", "name": "Beermiscuous", "phone": "+1-773-698-6824", "website": "https://beermiscuous.com/"}}, {"type": "node", "id": 5693977769, "lat": 41.9447676, "lon": -87.6492558, "tags": {"amenity": "bar", "name": "Replay"}}, {"type": "node", "id": 5693977770, "lat": 41.944889, "lon": -87.6492509, "tags": {"addr:city": "Chicago", "addr:housenumber": "3441", "addr:postcode": "60657", "addr:state": "IL", "addr:street": "North Halsted Street", "amenity": "bar", "name": "Lark", "phone": "+1-773-799-8968", "website": "https://www.larkchicago.com/"}}, {"type": "node", "id": 5695506953, "lat": 41.9448988, "lon": -87.6544078, "tags": {"amenity": "restaurant", "name": "Cozy's Noodles and Rice"}}, {"type": "node", "id": 5695558674, "lat": 41.9429745, "lon": -87.6529045, "tags": {"amenity": "restaurant", "name": "PS Bangkok"}}, {"type": "node", "id": 5695558676, "lat": 41.9428926, "lon": -87.6528527, "tags": {"addr:city": "Chicago", "addr:housenumber": "3343", "addr:postcode": "60657", "addr:state": "IL", "addr:street": "North Clark Street", "amenity": "restaurant", "name": "Lowcountry Lakeview", "phone": "+1-888-883-8375", "website": "https://www.lowcountrychicago.com/"}}, {"type": "node", "id": 5698210188, "lat": 41.9416752, "lon": -87.6491615, "tags": {"amenity": "restaurant", "name": "Yoshi's Cafe"}}, {"type": "node", "id": 5698233276, "lat": 41.9401766, "lon": -87.6491213, "tags": {"amenity": "restaurant", "cuisine": "thai", "name": "Krung Thep"}}, {"type": "node", "id": 5698233278, "lat": 41.9401343, "lon": -87.6495937, "tags": {"amenity": "restaurant", "name": "Pok\u00e9 Pok\u00e9"}}, {"type": "node", "id": 5698236642, "lat": 41.9429961, "lon": -87.6495351, "tags": {"addr:city": "Chicago", "addr:housenumber": "3340", "addr:postcode": "60657", "addr:state": "IL", "addr:street": "North Halsted Street", "amenity": "bar", "name": "Town Hall Pub", "phone": "1+773-472-4405", "website": "http://www.townhallpub.com/"}}, {"type": "node", "id": 5791122717, "lat": 41.9447594, "lon": -87.6643524, "tags": {"addr:city": "Chicago", "addr:housenumber": "3446", "addr:postcode": "60657", "addr:state": "IL", "addr:street": "North Southport Avenue", "amenity": "restaurant", "name": "Corridor Brewery and Provisions", "phone": "+1-773-270-4272", "website": "https://www.corridorchicago.com/"}}, {"type": "node", "id": 5859460641, "lat": 41.9437201, "lon": -87.6539169, "tags": {"addr:city": "Chicago", "addr:housenumber": "3404", "addr:postcode": "60657", "addr:state": "IL", "addr:street": "North Clark Street", "amenity": "restaurant", "cuisine": "caribbean;jamaican", "description": "Jamaican fusion", "name": "Irie Jerk Bar and Grill", "phone": "+1-872-802-4999", "website": "http://iriejerkbargrill.comm/"}}, {"type": "node", "id": 5872612136, "lat": 41.9317127, "lon": -87.6487652, "tags": {"addr:city": "Chicago", "addr:housenumber": "2703", "addr:postcode": "60614", "addr:state": "IL", "addr:street": "North Halsted Street", "amenity": "restaurant", "cuisine": "mexican", "name": "The Mayan Palace", "opening_hours": "Su-Mo 11:00-22:00; Tu-Sa 11:00-23:00", "phone": "+1-773-935-4200", "website": "https://www.themayanpalacechicago.com/"}}, {"type": "node", "id": 5914601985, "lat": 41.9433087, "lon": -87.6640752, "tags": {"addr:city": "Chicago", "addr:housenumber": "3358", "addr:postcode": "60657", "addr:state": "IL", "addr:street": "North Southport Avenue", "amenity": "restaurant", "cuisine": "mexican;tacos;taco", "name": "Tuco and Blondie", "opening_hours": "Mo-Th 11:00-22:00; Fr 11:00-00:00; Sa 10:00-00:00; Su 10:00-22:00", "phone": "+1-773-327-8226", "website": "http://www.tucoandblondie.com"}}, {"type": "node", "id": 6018664585, "lat": 41.9274485, "lon": -87.6513724, "tags": {"amenity": "restaurant", "name": "Ringo Japanese Restaurant", "opening_hours": "Mo,Fr,Sa 16:00-22:30", "phone": "+1-773-248-5788", "short_name": "Ringo Sushi", "website": "http://www.ringosushi.com/"}}, {"type": "node", "id": 6231087536, "lat": 41.9398524, "lon": -87.651043, "tags": {"addr:city": "Chicago", "addr:housenumber": "843", "addr:postcode": "60657", "addr:state": "IL", "addr:street": "West Belmont Avenue", "amenity": "restaurant", "cuisine": "sushi;poke;sushi_bowl", "delivery": "yes", "name": "Aloha Poke Co", "opening_hours": "Mo-Su 10:00-22:00", "outdoor_seating": "no"}}, {"type": "node", "id": 6249954562, "lat": 41.940101, "lon": -87.6503958, "tags": {"addr:city": "Chicago", "addr:housenumber": "824", "addr:postcode": "60657", "addr:state": "IL", "addr:street": "West Belmont Avenue", "amenity": "cafe", "cuisine": "american;coffee_shop;coffee", "name": "11 Degrees North", "phone": "+1-773 904-7284", "website": "https://www.11degreenorth.com/"}}, {"type": "node", "id": 6261035288, "lat": 41.9314578, "lon": -87.6487892, "tags": {"addr:city": "Chicago", "addr:housenumber": "2683", "addr:postcode": "60614", "addr:state": "IL", "addr:street": "North Halsted Street", "amenity": "bar", "name": "aliveOne", "phone": "+1-773-348-9800", "website": "http://aliveone.com/"}}, {"type": "node", "id": 6263471199, "lat": 41.9286184, "lon": -87.6715995, "tags": {"addr:city": "Chicago", "addr:housenumber": "1721", "addr:postcode": "60614", "addr:state": "IL", "addr:street": "West Wrightwood Avenue", "amenity": "bar", "name": "Augie\u2019s", "phone": "+1-773-296-0018", "website": "http://augiesbooze.homestead.com/"}}, {"type": "node", "id": 6263526427, "lat": 41.9286414, "lon": -87.6623901, "tags": {"addr:city": "Chicago", "addr:housenumber": "1335", "addr:postcode": "60614", "addr:state": "IL", "addr:street": "West Wrightwood Avenue", "amenity": "restaurant", "name": "Avli Taverna", "phone": "+1-773-857-5577", "website": "http://avli.us/"}}, {"type": "node", "id": 6267158437, "lat": 41.9400101, "lon": -87.6554869, "tags": {"addr:city": "Chicago", "addr:housenumber": "1034", "addr:postcode": "60657", "addr:state": "IL", "addr:street": "West Belmont Avenue", "amenity": "restaurant", "name": "BIG & little\u2019s Restaurant", "phone": "+1-773-857-6677", "website": "https://www.bigandlittleschicago.com/"}}, {"type": "node", "id": 6267320530, "lat": 41.9428732, "lon": -87.6705192, "tags": {"addr:city": "Chicago", "addr:housenumber": "3345", "addr:postcode": "60657", "addr:state": "IL", "addr:street": "North Lincoln Avenue", "amenity": "bar", "name": "Bitter Pops", "phone": "+1-773-857-7677", "website": "https://www.bitterpops.com/"}}, {"type": "node", "id": 6268245739, "lat": 41.9275165, "lon": -87.6519592, "tags": {"addr:city": "Chicago", "addr:housenumber": "2518", "addr:postcode": "60657", "addr:state": "IL", "addr:street": "North Lincoln Avenue", "amenity": "restaurant", "name": "Bobby\u2019s Lincoln Park", "phone": "+1-773-799-8555", "website": "http://www.bobbysrestaurants.com/"}}, {"type": "node", "id": 6269118585, "lat": 41.9284536, "lon": -87.6636452, "tags": {"addr:city": "Chicago", "addr:housenumber": "2548", "addr:postcode": "60614", "addr:state": "IL", "addr:street": "North Southport Avenue", "amenity": "bar", "name": "Broken Barrel Bar", "phone": "+1-773-327-4900", "website": "https://www.brokenbarrelbar.com/"}}, {"type": "node", "id": 6269367678, "lat": 41.9318459, "lon": -87.6572325, "tags": {"addr:city": "Chicago", "addr:housenumber": "2747", "addr:postcode": "60614", "addr:state": "IL", "addr:street": "North Lincoln Avenue", "amenity": "bar", "name": "Burnt City Brewing", "phone": "+1-773-295-1270", "website": "https://burntcitybrewing.com/"}}, {"type": "node", "id": 6269670151, "lat": 41.9435259, "lon": -87.6690303, "tags": {"addr:city": "Chicago", "addr:housenumber": "3400", "addr:postcode": "60657", "addr:state": "IL", "addr:street": "North Ashland Avenue", "amenity": "restaurant", "name": "Cafe El Tapatio", "phone": "+1-773-327-5475", "website": "http://cafetapatio.com/"}}, {"type": "node", "id": 6280486513, "lat": 41.9445167, "lon": -87.6637447, "tags": {"addr:city": "Chicago", "addr:housenumber": "3425", "addr:postcode": "60657", "addr:state": "IL", "addr:street": "North Southport Avenue", "amenity": "cafe", "name": "Capital One Caf\u00e9", "phone": "+1-312-279-8061", "website": "https://www.capitalone.com/local/chicago-southport"}}, {"type": "node", "id": 6282433414, "lat": 41.9385233, "lon": -87.6675367, "tags": {"addr:city": "Chicago", "addr:housenumber": "3134", "addr:postcode": "60657", "addr:state": "IL", "addr:street": "North Lincoln Avenue", "amenity": "cafe", "cuisine": "coffee_shop", "name": "Chicago Diplomat Cafe", "phone": "+1-773-262-2722", "website": "https://chicago-diplomat-cafe.business.site/"}}, {"type": "node", "id": 6283178216, "lat": 41.938034, "lon": -87.6709073, "tags": {"addr:city": "Chicago", "addr:housenumber": "1658", "addr:postcode": "60657", "addr:state": "IL", "addr:street": "West Barry Avenue", "amenity": "bar", "name": "Cody\u2019s Public House", "phone": "+1-773-528-4050"}}, {"type": "node", "id": 6283213091, "lat": 41.9332915, "lon": -87.6593217, "tags": {"addr:city": "Chicago", "addr:housenumber": "2823", "addr:postcode": "60614", "addr:state": "IL", "addr:street": "North Lincoln Avenue", "amenity": "cafe", "name": "Coffee Lab & Roasters", "phone": "+1-773-687-9453", "website": "https://www.bcbccoffeelab.com/"}}, {"type": "node", "id": 6283925387, "lat": 41.9367963, "lon": -87.651179, "tags": {"addr:city": "Chicago", "addr:housenumber": "836", "addr:postcode": "60657", "addr:state": "IL", "addr:street": "West Nelson Street", "amenity": "cafe", "name": "Courtyard Cafe"}}, {"type": "node", "id": 6284192680, "lat": 41.9448556, "lon": -87.6540273, "tags": {"addr:city": "Chicago", "addr:housenumber": "3443", "addr:postcode": "60657", "addr:state": "IL", "addr:street": "North Sheffield Avenue", "amenity": "bar", "name": "Dark Horse Tap & Grille", "phone": "+1-773-248-4400", "website": "http://www.darkhorsechicago.com/"}}, {"type": "node", "id": 6284367730, "lat": 41.9322843, "lon": -87.6580892, "tags": {"addr:city": "Chicago", "addr:housenumber": "2771", "addr:postcode": "60614", "addr:state": "IL", "addr:street": "North Lincoln Avenue", "amenity": "bar", "name": "Delilah\u2019", "phone": "+1-773-472-2771", "website": "http://www.delilahschicago.com/"}}, {"type": "node", "id": 6284391360, "lat": 41.932851, "lon": -87.6492874, "tags": {"addr:city": "Chicago", "addr:housenumber": "800", "addr:postcode": "60614", "addr:state": "IL", "addr:street": "West Diversey Parkway", "amenity": "cafe", "cuisine": "coffee_shop", "name": "Department of Coffee and Social Affairs", "phone": "+1-773-697-9581", "website": "https://www.departmentofcoffee.com/"}}, {"type": "node", "id": 6284991328, "lat": 41.9376857, "lon": -87.6523692, "tags": {"addr:city": "Chicago", "addr:housenumber": "900", "addr:postcode": "60657", "addr:state": "IL", "addr:street": "West Barry Avenue", "amenity": "cafe", "name": "Ecos Cafe"}}, {"type": "node", "id": 6289397250, "lat": 41.9363597, "lon": -87.6614074, "tags": {"addr:city": "Chicago", "addr:housenumber": "1300", "addr:postcode": "60657", "addr:state": "Il", "addr:street": "West Wellington Avenue", "amenity": "restaurant", "name": "Farm Bar Lakeview", "phone": "+1-773-281-2599", "website": "http://farm-bar.com/"}}, {"type": "node", "id": 6289909793, "lat": 41.9398986, "lon": -87.6707542, "tags": {"addr:city": "Chicago", "addr:housenumber": "1652", "addr:postcode": "60657", "addr:state": "IL", "addr:street": "West Belmont Avenue", "amenity": "restaurant", "name": "Fennel & Iris", "phone": "+1-773-687-8442", "website": "http://fennelandiris.com/"}}, {"type": "node", "id": 6289950585, "lat": 41.9402434, "lon": -87.6539754, "tags": {"addr:city": "Chicago", "addr:housenumber": "3207", "addr:postcode": "60657", "addr:state": "IL", "addr:street": "North Sheffield Avenue", "amenity": "bar", "name": "Figo Wine Bar", "phone": "+1-312-819-6111", "website": "https://figowinebar.com/"}}, {"type": "node", "id": 6291153865, "lat": 41.9322813, "lon": -87.6687371, "tags": {"addr:city": "Chicago", "addr:housenumber": "2758", "addr:postcode": "60657", "addr:state": "IL", "addr:street": "North Ashland Avenue", "amenity": "bar", "name": "Four Shadows", "phone": "+1-773-248-9160", "website": "http://fourshadows.net/"}}, {"type": "node", "id": 6291523976, "lat": 41.9431375, "lon": -87.6714232, "tags": {"addr:city": "Chicago", "addr:housenumber": "3358", "addr:postcode": "60657", "addr:state": "IL", "addr:street": "North Paulina Street", "amenity": "restaurant", "cuisine": "pizza;italian", "name": "Frasca Pizzeria and Wine Bar", "phone": "+1-773-248-5222", "website": "http://www.frascapizzeria.com/"}}, {"type": "node", "id": 6291781728, "lat": 41.9344071, "lon": -87.6492749, "tags": {"addr:city": "Chicago", "addr:housenumber": "2858", "addr:postcode": "60614", "addr:state": "IL", "addr:street": "North Halsted Street", "amenity": "bar", "name": "George Street Pub", "phone": "+1-773-661-6635", "website": "http://www.gspchicago.com/"}}, {"type": "node", "id": 6294169235, "lat": 41.9332916, "lon": -87.6492713, "tags": {"addr:city": "Chicago", "addr:housenumber": "2816", "addr:postcode": "60657", "addr:state": "IL", "addr:street": "North Halsted Street", "amenity": "bar", "name": "Harrigan\u2019s", "phone": "+1-773-248-5933", "website": "http://www.harriganspubchicago.com/"}}, {"type": "node", "id": 6294293052, "lat": 41.9357623, "lon": -87.6628497, "tags": {"addr:city": "Chicago", "addr:housenumber": "2959", "addr:postcode": "60657", "addr:state": "IL", "addr:street": "North Lincoln Avenue", "amenity": "cafe", "name": "Heritage Bicycles General Store", "phone": "+1-773-245-3005", "website": "https://www.heritagebicycles.com/"}}, {"type": "node", "id": 6297537502, "lat": 41.9335076, "lon": -87.6638856, "tags": {"addr:city": "Chicago", "addr:housenumber": "2834", "addr:postcode": "60657", "addr:state": "IL", "addr:street": "North Southport Avenue", "amenity": "restaurant", "name": "Sal\u2019s Trattoria", "phone": "+1-773-857-1401", "website": "http://salstrattoria.com/"}}, {"type": "node", "id": 6297566248, "lat": 41.9362512, "lon": -87.6641824, "tags": {"addr:city": "Chicago", "addr:housenumber": "3000", "addr:postcode": "60657", "addr:state": "IL", "addr:street": "North Lincoln Avenue", "amenity": "restaurant", "name": "Sam & George\u2019s", "phone": "+1-773-935-4025", "website": "http://www.sandg-chicago.com/"}}, {"type": "node", "id": 6297599701, "lat": 41.9316579, "lon": -87.6485447, "tags": {"addr:city": "Chicago", "addr:housenumber": "2701", "addr:postcode": "60614", "addr:state": "IL", "addr:street": "North Halsted Street", "amenity": "restaurant", "name": "Sapori Trattoria", "phone": "+1-312-967-9358", "website": "https://www.saporitrattoria.net/"}}, {"type": "node", "id": 6297639056, "lat": 41.9396579, "lon": -87.6633518, "tags": {"addr:city": "Chicago", "addr:housenumber": "3159", "addr:postcode": "60657", "addr:state": "IL", "addr:street": "North Southport Avenue", "amenity": "bar", "name": "Schubas Tavern", "phone": "+1-773-525-2508", "website": "https://www.schubastavern.com/"}}, {"type": "node", "id": 6297781137, "lat": 41.9392288, "lon": -87.6502846, "tags": {"addr:city": "Chicago", "addr:housenumber": "3160", "addr:postcode": "60657", "addr:state": "IL", "addr:street": "North Clark Street", "amenity": "bar", "name": "Shakers On Clark", "phone": "+1-773-327-5969", "website": "http://shakersonclark.com/"}}, {"type": "node", "id": 6297807571, "lat": 41.9415907, "lon": -87.6545108, "tags": {"addr:city": "Chicago", "addr:housenumber": "3258", "addr:postcode": "60657", "addr:state": "IL", "addr:street": "North Sheffield Avenue", "amenity": "bar", "name": "Sheffield\u2019s Wine & Beer Garden", "phone": "+1-773-281-4989", "website": "http://www.sheffieldschicago.com/"}}, {"type": "node", "id": 6297827190, "lat": 41.9344543, "lon": -87.6658815, "tags": {"addr:city": "Chicago", "addr:housenumber": "1456", "addr:postcode": "60657", "addr:state": "IL", "addr:street": "West George Street", "amenity": "bar", "name": "Side Street Saloon", "phone": "+1-773-327-1127"}}, {"type": "node", "id": 6297839310, "lat": 41.94334, "lon": -87.6490311, "tags": {"addr:city": "Chicago", "addr:housenumber": "3349", "addr:postcode": "60657", "addr:state": "IL", "addr:street": "North Halsted Street", "amenity": "bar", "name": "Sidetrack", "phone": "+1-773-477-9189", "website": "https://www.sidetrackchicago.com/"}}, {"type": "node", "id": 6298966885, "lat": 41.9423222, "lon": -87.6635629, "tags": {"addr:city": "Chicago", "addr:housenumber": "3325", "addr:postcode": "60657", "addr:state": "IL", "addr:street": "North Southport Avenue", "amenity": "bar", "name": "Southport Lanes", "phone": "+1-773-472-6600", "website": "https://southportlanes.com/"}}, {"type": "node", "id": 6299449463, "lat": 41.9333248, "lon": -87.6594383, "tags": {"addr:city": "Chicago", "addr:housenumber": "2825", "addr:postcode": "60657", "addr:state": "IL", "addr:street": "North Lincoln Avenue", "amenity": "restaurant", "name": "Patsy\u2019s Place", "phone": "+1-773-248-2825", "website": "http://www.patsyspub.com/"}}, {"type": "node", "id": 6300519480, "lat": 41.9270793, "lon": -87.6512541, "tags": {"addr:city": "Chicago", "addr:housenumber": "2482", "addr:postcode": "60614", "addr:state": "IL", "addr:street": "North Lincoln Avenue", "amenity": "cafe", "name": "Printer\u2019s Row Coffee", "phone": "+1-773-666-5394", "website": "http://www.printersrowcoffeeco.com/"}}, {"type": "node", "id": 6300564010, "lat": 41.9298635, "lon": -87.6552862, "tags": {"addr:city": "Chicago", "addr:housenumber": "2642", "addr:postcode": "60614", "addr:state": "IL", "addr:street": "North Lincoln Avenue", "amenity": "bar", "name": "Racine Plumbing Bar & Grill", "phone": "+1-773-871-1600", "website": "https://www.racineplumbingchicago.com/"}}, {"type": "node", "id": 6301025352, "lat": 41.9406511, "lon": -87.6543865, "tags": {"addr:city": "Chicago", "addr:housenumber": "3222", "addr:postcode": "60657", "addr:state": "IL", "addr:street": "North Sheffield Avenue", "amenity": "bar", "name": "Room 13", "phone": "+1-773-472-2278", "website": "https://www.oldchicagoinn.com/room13/"}}, {"type": "node", "id": 6301057031, "lat": 41.93012, "lon": -87.655636, "tags": {"addr:city": "Chicago", "addr:housenumber": "2656", "addr:postcode": "60614", "addr:state": "IL", "addr:street": "North Lincoln Avenue", "amenity": "bar", "name": "Rose\u2019s Lounge", "phone": "+1-773-327-4000"}}, {"type": "node", "id": 6302030514, "lat": 41.9400544, "lon": -87.663414, "tags": {"addr:city": "Chicago", "addr:housenumber": "1358", "addr:postcode": "60657", "addr:state": "IL", "addr:street": "West Belmont Avenue", "amenity": "restaurant", "name": "The Spanish Square", "phone": "+1-773-717-7900", "website": "http://www.thespanishsquare.com/"}}, {"type": "node", "id": 6303119388, "lat": 41.9287226, "lon": -87.6558771, "tags": {"addr:city": "Chicago", "addr:housenumber": "1059", "addr:postcode": "60614", "addr:state": "IL", "addr:street": "West Wrightwood Avenue", "amenity": "bar", "name": "Tapster Lincoln Park", "phone": "+1-773-549-4949"}}, {"type": "node", "id": 6304062112, "lat": 41.9397228, "lon": -87.6512814, "tags": {"addr:city": "Chicago", "addr:housenumber": "851", "addr:postcode": "60657", "addr:state": "IL", "addr:street": "West Belmont Avenue", "amenity": "bar", "name": "The Annoyance Theatre and Bar", "phone": "+1-773-697-9693", "website": "https://theannoyance.com/"}}, {"type": "node", "id": 6304074588, "lat": 41.9371009, "lon": -87.6681753, "tags": {"addr:city": "Chicago", "addr:housenumber": "3033", "addr:postcode": "60657", "addr:state": "IL", "addr:street": "North Ashland Avenue", "amenity": "restaurant", "name": "The Art of Pizza", "phone": "+1-773-327-5600", "website": "http://www.artofpizzachicago.com/"}}, {"type": "node", "id": 6305224799, "lat": 41.9269434, "lon": -87.6504598, "tags": {"addr:city": "Chicago", "addr:housenumber": "2461", "addr:postcode": "60614", "addr:state": "IL", "addr:street": "North Lincoln Avenue", "amenity": "cafe", "name": "The Bagelers Coffeehouse", "phone": "+1-872-802-0347", "website": "http://www.thebagelers.com/"}}, {"type": "node", "id": 6305252806, "lat": 41.9294688, "lon": -87.6547325, "tags": {"addr:city": "Chicago", "addr:housenumber": "2624", "addr:postcode": "60614", "addr:state": "IL", "addr:street": "North Lincoln Avenue", "amenity": "restaurant", "name": "The Barrelhouse Flat", "phone": "+1-773-857-0421", "website": "http://www.barrelhouseflat.com/"}}, {"type": "node", "id": 6306543880, "lat": 41.9440209, "lon": -87.6491763, "tags": {"addr:city": "Chicago", "addr:housenumber": "3411", "addr:postcode": "60657", "addr:state": "IL", "addr:street": "North Halsted Street", "amenity": "restaurant", "diet:gluten_free": "yes", "diet:vegan": "yes", "diet:vegetarian": "only", "name": "The Chicago Diner", "phone": "+1-773-935-6696", "website": "http://www.veggiediner.com/"}}, {"type": "node", "id": 6306915776, "lat": 41.9343553, "lon": -87.6681643, "tags": {"addr:city": "Chicago", "addr:housenumber": "2901", "addr:postcode": "60657", "addr:state": "IL", "addr:street": "North Ashland Avenue", "amenity": "restaurant", "name": "Tutto Fresco", "phone": "+1-773-661-9009", "website": "http://www.tuttofrescochicago.com/"}}, {"type": "node", "id": 6307022465, "lat": 41.9348552, "lon": -87.661554, "tags": {"addr:city": "Chicago", "addr:housenumber": "1913", "addr:postcode": "60657", "addr:state": "IL", "addr:street": "North Lincoln Avenue", "amenity": "bar", "name": "Twisted Tap"}}, {"type": "node", "id": 6307031974, "lat": 41.9433812, "lon": -87.6592419, "tags": {"addr:city": "Chicago", "addr:housenumber": "1201", "addr:postcode": "60657", "addr:state": "IL", "addr:street": "West Roscoe Street", "amenity": "cafe", "cuisine": "coffee_shop", "name": "Two Hearted Queen", "phone": "+1-773-360-8189", "website": "http://twoheartedqueen.com/"}}, {"type": "node", "id": 6315194719, "lat": 41.934158, "lon": -87.6639155, "tags": {"addr:city": "Chicago", "addr:housenumber": "2856", "addr:postcode": "60657", "addr:state": "IL", "addr:street": "North Southport Avenue", "amenity": "bar", "name": "The Diag", "phone": "+1-773-404-8400", "website": "https://www.diagchicago.com/"}}, {"type": "node", "id": 6315206885, "lat": 41.9342202, "lon": -87.6607793, "tags": {"addr:city": "Chicago", "addr:housenumber": "2871", "addr:postcode": "60657", "addr:state": "IL", "addr:street": "North Lincoln Avenue", "amenity": "bar", "name": "The Elbo Room", "phone": "+1-773-549-5549", "website": "elboroomlive.com"}}, {"type": "node", "id": 6315245428, "lat": 41.9423073, "lon": -87.6707332, "tags": {"addr:city": "Chicago", "addr:housenumber": "3328", "addr:postcode": "60657", "addr:state": "IL", "addr:street": "North Lincoln Avenue", "amenity": "bar", "name": "The Green Lady", "phone": "+1-773-525-5571", "website": "http://thegreenlady-chicago.com/"}}, {"type": "node", "id": 6315598366, "lat": 41.9331414, "lon": -87.6597871, "tags": {"addr:city": "Chicago", "addr:housenumber": "2828", "addr:postcode": "60657", "addr:state": "IL", "addr:street": "North Lincoln Avenue", "amenity": "bar", "name": "The Hometavern", "phone": "+1-773-549-9253"}}, {"type": "node", "id": 6315632339, "lat": 41.9367992, "lon": -87.6649701, "tags": {"addr:city": "Chicago", "addr:housenumber": "3032", "addr:postcode": "60657", "addr:state": "IL", "addr:street": "North Lincoln Avenue", "amenity": "bar", "name": "The Land on Lincoln", "phone": "+1-872-802-0111", "website": "https://www.thelandonlincoln.com/"}}, {"type": "node", "id": 6315711823, "lat": 41.9398934, "lon": -87.6701961, "tags": {"addr:city": "Chicago", "addr:housenumber": "1638", "addr:postcode": "60657", "addr:state": "IL", "addr:street": "West Belmont Avenue", "amenity": "bar", "name": "The Pony Inn", "phone": "+1-312-453-9397", "website": "http://theponychicago.com/"}}, {"type": "node", "id": 6316695865, "lat": 41.9435937, "lon": -87.6709918, "tags": {"addr:city": "Chicago", "addr:housenumber": "3407", "addr:postcode": "60657", "addr:state": "IL", "addr:street": "North Paulina Street", "amenity": "bar", "name": "Waterhouse", "phone": "+1-773-871-1200", "website": "https://waterhousechicago.com/"}}, {"type": "node", "id": 6316960393, "lat": 41.9416503, "lon": -87.670303, "tags": {"addr:city": "Chicago", "addr:housenumber": "3300", "addr:postcode": "60657", "addr:state": "IL", "addr:street": "North Lincoln Avenue", "amenity": "restaurant", "cuisine": "southern", "name": "Wishbone", "phone": "+1-773-549-2663", "website": "http://www.wishbonenorth.com/"}}, {"type": "node", "id": 6316972664, "lat": 41.9428754, "lon": -87.6490912, "tags": {"addr:city": "Chicago", "addr:housenumber": "3335", "addr:postcode": "60657", "addr:state": "IL", "addr:street": "North Halsted Street", "amenity": "restaurant", "name": "Wood", "phone": "+1-773-935-9663", "website": "http://woodchicago.com/"}}, {"type": "node", "id": 6317060712, "lat": 41.9326492, "lon": -87.6584829, "tags": {"addr:city": "Chicago", "addr:postcode": "60657", "addr:state": "IL", "addr:street": "West Diversey Parkway", "amenity": "cafe", "name": "Y2K Cafe"}}, {"type": "node", "id": 6317062826, "lat": 41.9431839, "lon": -87.6496538, "tags": {"addr:city": "Chicago", "addr:housenumber": "3344", "addr:postcode": "60657", "addr:state": "IL", "addr:street": "North Halsted Street", "amenity": "cafe", "name": "Yefseis Cafe", "phone": "+1-773-857-3002", "website": "https://yefseis-cafe.business.site/"}}, {"type": "node", "id": 6318385635, "lat": 41.9397696, "lon": -87.6507781, "tags": {"addr:city": "Chicago", "addr:housenumber": "3178", "addr:postcode": "60657", "addr:state": "IL", "addr:street": "North Clark Street", "amenity": "cafe", "name": "Life Spring Health Foods & Juice Bar", "phone": "+1-773-327-1023", "website": "http://lifespringchicago.com/"}}, {"type": "node", "id": 6318428983, "lat": 41.9363406, "lon": -87.6643657, "tags": {"addr:city": "Chicago", "addr:housenumber": "3010", "addr:postcode": "60657", "addr:state": "IL", "addr:street": "North Lincoln Avenue", "amenity": "bar", "name": "Lincoln Tap Room", "phone": "+1-773-868-0060", "website": "https://www.lincolntaproom.com/"}}, {"type": "node", "id": 6319035481, "lat": 41.9297118, "lon": -87.6552373, "tags": {"addr:city": "Chicago", "addr:housenumber": "2638", "addr:postcode": "60614", "addr:state": "IL", "addr:street": "North Lincoln Avenue", "amenity": "restaurant", "name": "Juno", "phone": "+1-773-935-2000", "website": "http://junosushichicago.com/"}}, {"type": "node", "id": 6319831697, "lat": 41.9399793, "lon": -87.6603361, "tags": {"addr:city": "Chicago", "addr:housenumber": "1232", "addr:postcode": "60657", "addr:state": "IL", "addr:street": "West Belmont Avenue", "amenity": "restaurant", "name": "Kubo Chicago", "phone": "+1-773-857-1408", "website": "https://www.kubochicago.com/"}}, {"type": "node", "id": 6320588149, "lat": 41.9439336, "lon": -87.6718975, "tags": {"addr:city": "Chicago", "addr:housenumber": "3422", "addr:postcode": "60657", "addr:state": "IL", "addr:street": "North Lincoln Avenue", "amenity": "cafe", "name": "Loba Pastry + Coffee", "phone": "+1-773-456-9266", "website": "http://www.lobapastry.com/"}}, {"type": "node", "id": 6321420401, "lat": 41.9420205, "lon": -87.6521692, "tags": {"addr:city": "Chicago", "addr:housenumber": "3307", "addr:postcode": "60657", "addr:state": "IL", "addr:street": "North Clark Street", "amenity": "restaurant", "name": "Maison Parisienne", "phone": "+1-773-904-0777", "website": "http://maison-parisienne.com/"}}, {"type": "node", "id": 6322604322, "lat": 41.9421793, "lon": -87.6521992, "tags": {"addr:city": "Chicago", "addr:housenumber": "3311", "addr:postcode": "60657", "addr:state": "IL", "addr:street": "North Clark Street", "amenity": "restaurant", "name": "Mia Francesca", "phone": "+1-773-281-3310", "website": "https://www.miafrancesca.com/"}}, {"type": "node", "id": 6322764818, "lat": 41.9398721, "lon": -87.6491223, "tags": {"addr:city": "Chicago", "addr:housenumber": "3171", "addr:postcode": "60657", "addr:state": "IL", "addr:street": "North Halsted Street", "amenity": "cafe", "name": "Modern Grill", "phone": "+1-773-528-0705", "website": "https://www.moderngrill.net/"}}, {"type": "node", "id": 6323191927, "lat": 41.9269656, "lon": -87.6485799, "tags": {"addr:city": "Chicago", "addr:housenumber": "2453", "addr:postcode": "60614", "addr:state": "IL", "addr:street": "North Halsted Street", "amenity": "restaurant", "name": "Noodles In the Pot", "phone": "+1-773-975-6177", "website": "http://www.noodlesinthepot.com/"}}, {"type": "node", "id": 6323948118, "lat": 41.9293006, "lon": -87.653336, "tags": {"addr:city": "Chicago", "addr:housenumber": "950", "addr:postcode": "60614", "addr:state": "IL", "addr:street": "West Wrightwood Avenue", "amenity": "bar", "name": "Old Grounds Social", "phone": "+1-773-832-4000", "website": "https://www.ogschicago.com/"}}, {"type": "node", "id": 6326466249, "lat": 41.9340181, "lon": -87.6610034, "tags": {"addr:city": "Chicago", "addr:housenumber": "2878", "addr:postcode": "60657", "addr:state": "IL", "addr:street": "North Lincoln Avenue", "amenity": "restaurant", "name": "Left Coast Food + Juice", "phone": "+1-773-880-5338", "website": "http://www.leftcoastfood.com/"}}, {"type": "node", "id": 6326496079, "lat": 41.9352165, "lon": -87.6627816, "tags": {"addr:city": "Chicago", "addr:housenumber": "2942", "addr:postcode": "60657", "addr:state": "IL", "addr:street": "North Lincoln Avenue", "amenity": "restaurant", "name": "Las Tablas Colombian Steakhouse", "phone": "+1-773-871-2414", "website": "http://www.lastablas.com/"}}, {"type": "node", "id": 6975177633, "lat": 41.9433498, "lon": -87.6495032, "tags": {"amenity": "bar", "name": "D.S. Tequila Company"}}, {"type": "node", "id": 7237325570, "lat": 41.9435413, "lon": -87.6641016, "tags": {"amenity": "cafe", "brand": "Starbucks", "brand:wikidata": "Q37158", "brand:wikipedia": "en:Starbucks", "cuisine": "coffee_shop", "name": "Starbucks", "official_name": "Starbucks Coffee", "takeaway": "yes"}}, {"type": "node", "id": 7237325571, "lat": 41.9432141, "lon": -87.6689925, "tags": {"amenity": "restaurant", "name": "McGuigan\u2019s"}}, {"type": "node", "id": 7237325573, "lat": 41.9436911, "lon": -87.6544873, "tags": {"amenity": "restaurant", "name": "Penny\u2019s Noodle Shop"}}, {"type": "way", "id": 158977040, "nodes": [1710876951, 1710876953, 1710876954, 1710876952, 5225519836, 5225519837, 1710876951], "tags": {"addr:city": "Chicago", "addr:housenumber": "2576", "addr:postcode": "60614", "addr:state": "IL", "addr:street": "North Lincoln Avenue", "addr:street:name": "Lincoln", "addr:street:prefix": "North", "addr:street:type": "Avenue", "amenity": "restaurant", "building": "yes", "building:levels": "1", "chicago:building_id": "251413", "cuisine": "mexican", "name": "Broken English"}}, {"type": "way", "id": 209884980, "nodes": [2200366030, 2200366395, 2200366402, 2200366044, 2200366030], "tags": {"addr:housenumber": "2814", "addr:street": "North Southport Avenue", "addr:street:name": "Southport", "addr:street:prefix": "North", "addr:street:type": "Avenue", "amenity": "restaurant", "building": "yes", "building:levels": "2", "chicago:building_id": "238031", "cuisine": "mexican", "name": "Que Rico"}}, {"type": "way", "id": 209885154, "nodes": [2200369775, 2200370017, 2200370036, 2200369846, 2200369850, 2200369788, 2200369775], "tags": {"addr:housenumber": "2901", "addr:street": "North Ashland Avenue", "addr:street:name": "Ashland", "addr:street:prefix": "North", "addr:street:type": "Avenue", "amenity": "restaurant", "building": "yes", "building:levels": "1", "chicago:building_id": "232184", "cuisine": "latin", "name": "Flo", "opening_hours": "Tu-Fr 17:00-22:00; Sa 09:00-23:00; Su 09:00-15:00; PH off", "outdoor_seating": "no", "smoking": "no"}}, {"type": "way", "id": 209885452, "nodes": [2200375176, 2200375272, 2200375475, 2200375703, 2200375720, 2200375269, 2200375268, 2200375257, 2200375246, 2200375224, 2200375192, 2200375169, 2200375151, 2200375152, 2200375170, 2200375165, 2200375143, 2200375144, 2200375167, 2200375154, 2200375179, 2200375176], "tags": {"addr:housenumber": "3000-3004", "addr:street": "North Lincoln Avenue", "addr:street:name": "Lincoln", "addr:street:prefix": "North", "addr:street:type": "Avenue", "amenity": "restaurant", "building": "yes", "building:levels": "3", "chicago:building_id": "853921", "cuisine": "american", "level": "0", "name": "S&G Restaurant"}}, {"type": "way", "id": 209885453, "nodes": [2200375034, 2200375035, 2200375056, 2200375051, 2200375183, 2200375200, 2200375058, 2200375055, 2200375034], "tags": {"addr:city": "Chicago", "addr:housenumber": "3001", "addr:postcode": "60657", "addr:state": "IL", "addr:street": "North Ashland Avenue", "addr:street:name": "Ashland", "addr:street:prefix": "North", "addr:street:type": "Avenue", "amenity": "restaurant", "building": "yes", "building:levels": "2", "chicago:building_id": "224618", "name": "Breakfast House", "phone": "+1-773-666-5522", "website": "http://www.breakfast-house.com/index.html"}}, {"type": "way", "id": 209885467, "nodes": [2200375720, 2200375703, 2200375475, 2200375272, 2200375176, 2200375147, 2200375315, 2200376304, 2200375720], "tags": {"addr:housenumber": "3008-3012", "addr:street": "North Lincoln Avenue", "addr:street:name": "Lincoln", "addr:street:prefix": "North", "addr:street:type": "Avenue", "amenity": "restaurant", "building": "yes", "building:levels": "2", "chicago:building_id": "882783"}}, {"type": "way", "id": 209895909, "nodes": [2200517049, 2200517417, 2200518044, 2200517588, 2200517060, 2200517049], "tags": {"addr:housenumber": "3244", "addr:street": "North Lincoln Avenue", "addr:street:name": "Lincoln", "addr:street:prefix": "North", "addr:street:type": "Avenue", "amenity": "bar", "building": "yes", "chicago:building_id": "204563", "name": "Northdown Taproom"}}, {"type": "way", "id": 209896758, "nodes": [2200532931, 2200536507, 2200536534, 2200533571, 2200532931], "tags": {"addr:housenumber": "3344-3352", "addr:street": "North Lincoln Avenue", "addr:street:name": "Lincoln", "addr:street:prefix": "North", "addr:street:type": "Avenue", "amenity": "cafe", "brand": "Starbucks", "brand:wikidata": "Q37158", "brand:wikipedia": "en:Starbucks", "building": "yes", "building:levels": "3", "chicago:building_id": "195770", "cuisine": "coffee_shop", "name": "Starbucks", "official_name": "Starbucks Coffee", "takeaway": "yes"}}, {"type": "way", "id": 209896761, "nodes": [2200533849, 2200536565, 2200537423, 2200538922, 2200537391, 2200536114, 2200533849], "tags": {"addr:housenumber": "3345-3349", "addr:street": "North Lincoln Avenue", "addr:street:name": "Lincoln", "addr:street:prefix": "North", "addr:street:type": "Avenue", "amenity": "bar", "building": "yes", "building:levels": "2", "chicago:building_id": "195128"}}, {"type": "way", "id": 210321648, "nodes": [2204055130, 2204055146, 2204054879, 2204054829, 2204055130], "tags": {"addr:city": "Chicago", "addr:housenumber": "2548", "addr:postcode": "60614", "addr:state": "IL", "addr:street": "North Halsted Street", "addr:street:name": "Halsted", "addr:street:prefix": "North", "addr:street:type": "Street", "amenity": "bar", "building": "yes", "building:levels": "2", "chicago:building_id": "863343", "name": "Kingston Mines", "phone": "+1-773-477-4647", "website": "https://kingstonmines.com/"}}, {"type": "way", "id": 210321659, "nodes": [2204055739, 2204055723, 2204055852, 2204055884, 2204055739], "tags": {"addr:housenumber": "2558", "addr:street": "North Halsted Street", "addr:street:name": "Halsted", "addr:street:prefix": "North", "addr:street:type": "Street", "amenity": "restaurant", "building": "yes", "building:levels": "2", "chicago:building_id": "863337", "cuisine": "mexican", "name": "Las Fuentes"}}, {"type": "way", "id": 210322417, "nodes": [2204065252, 2204064432, 2204065117, 2204065833, 2204065661, 2204065636, 2204065568, 2204065625, 2204065252], "tags": {"addr:city": "Chicago", "addr:housenumber": "2747", "addr:postcode": "60614", "addr:state": "IL", "addr:street": "North Lincoln Avenue", "addr:street:name": "Lincoln", "addr:street:prefix": "North", "addr:street:type": "Avenue", "amenity": "bar", "building": "yes", "building:levels": "2", "chicago:building_id": "862997", "microbrewery": "yes", "name": "Burnt City Brewing", "opening_hours": "Mo-Th 17:00-23:00; Fr 17:00-02:00; Sa 12:00-02:00; Su 12:00-23:00", "phone": "+1-773-295-1270", "website": "https://burntcitybrewing.com"}}, {"type": "way", "id": 210322445, "nodes": [2204065299, 2204065421, 2204065782, 2204065675, 2204065617, 2204065575, 2204065299], "tags": {"addr:housenumber": "2751", "addr:street": "North Lincoln Avenue", "addr:street:name": "Lincoln", "addr:street:prefix": "North", "addr:street:type": "Avenue", "amenity": "bar", "building": "yes", "building:levels": "2", "chicago:building_id": "241545", "name": "Delilah's"}}, {"type": "way", "id": 210325183, "nodes": [2204095268, 2204095393, 2204095390, 2204095422, 2204095440, 2204095676, 2204095680, 2204095504, 2204095463, 2204095437, 2204095436, 2204095273, 2204095268], "tags": {"addr:city": "Chicago", "addr:housenumber": "1117", "addr:postcode": "60657", "addr:state": "IL", "addr:street": "West Belmont Avenue", "addr:street:name": "Belmont", "addr:street:prefix": "West", "addr:street:type": "Avenue", "alt_name": "Dark Matter Coffee", "amenity": "cafe", "building": "yes", "building:levels": "3", "chicago:building_id": "209518", "cuisine": "coffee_shop", "internet_access": "yes", "name": "Osmium Coffee", "opening_hours": "Mo-Su 06:00-21:00", "phone": "+1-773-360-7553", "website": "https://www.darkmattercoffee.com/"}}, {"type": "way", "id": 210325560, "nodes": [2204071505, 2204071494, 2204071515, 2204071519, 2204071681, 2204071685, 2204071737, 2204071732, 2204071865, 2204071867, 2204071893, 2204071900, 2204071872, 2204071875, 2204071910, 2204071908, 2204071907, 2204071505], "tags": {"addr:housenumber": "2808", "addr:street": "North Halsted Street", "addr:street:name": "Halsted", "addr:street:prefix": "North", "addr:street:type": "Street", "amenity": "restaurant", "building": "yes", "building:levels": "2", "chicago:building_id": "862810", "cuisine": "steak", "name": "Select Cut Steak House"}}]}