{"version": 0.6, "generator": "Overpass API 0.7.56.1004 6cd3eaec", "osm3s": {"timestamp_osm_base": "2020-07-22T01:24:02Z", "copyright": "The data included in this document is from www.openstreetmap.org. The data is made available under ODbL."}, "elements": [{"type": "node", "id": 317652778, "lat": 42.0108869, "lon": -87.7121596}, {"type": "node", "id": 317652779, "lat": 42.0112108, "lon": -87.7121541}, {"type": "node", "id": 317652780, "lat": 42.0112078, "lon": -87.711842}, {"type": "node", "id": 317652781, "lat": 42.010884, "lon": -87.7118475}, {"type": "node", "id": 2197720114, "lat": 41.9977682, "lon": -87.6930312}, {"type": "node", "id": 2197720116, "lat": 41.9977699, "lon": -87.6929488}, {"type": "node", "id": 2197721463, "lat": 41.9980951, "lon": -87.6930393}, {"type": "node", "id": 2197721494, "lat": 41.9981056, "lon": -87.6929565}, {"type": "node", "id": 2197721508, "lat": 41.9981088, "lon": -87.6930392}, {"type": "node", "id": 2197721512, "lat": 41.9981097, "lon": -87.6929564}, {"type": "node", "id": 2197878099, "lat": 42.0115689, "lon": -87.7034354}, {"type": "node", "id": 2197878106, "lat": 42.0115699, "lon": -87.7033599}, {"type": "node", "id": 2197878371, "lat": 42.0116603, "lon": -87.7033388}, {"type": "node", "id": 2197878372, "lat": 42.0116605, "lon": -87.7033609}, {"type": "node", "id": 2197878434, "lat": 42.0116864, "lon": -87.7033404}, {"type": "node", "id": 2197878575, "lat": 42.011746, "lon": -87.703441}, {"type": "node", "id": 2197878797, "lat": 42.0118942, "lon": -87.703445}, {"type": "node", "id": 2197878801, "lat": 42.0118961, "lon": -87.7033409}, {"type": "node", "id": 3226937301, "lat": 42.0084448, "lon": -87.6899119, "tags": {"addr:city": "Chicago", "addr:housenumber": "6977", "addr:postcode": "60645", "addr:state": "IL", "addr:street": "North Western Avenue", "amenity": "restaurant", "name": "Mike's Place"}}, {"type": "node", "id": 3417560553, "lat": 42.0122854, "lon": -87.7087164}, {"type": "node", "id": 3417560554, "lat": 42.0121378, "lon": -87.7087075}, {"type": "node", "id": 3417697338, "lat": 42.0122841, "lon": -87.7085731}, {"type": "node", "id": 3417697339, "lat": 42.0121381, "lon": -87.7085695}, {"type": "node", "id": 3756828489, "lat": 41.997617, "lon": -87.688861, "tags": {"addr:city": "Chicago", "addr:housenumber": "2331", "addr:street": "West Devon Avenue", "amenity": "restaurant", "cuisine": "indian", "name": "Spinzer", "outdoor_seating": "no", "takeaway": "yes"}}, {"type": "node", "id": 3993938369, "lat": 41.9972107, "lon": -87.6994707, "tags": {"addr:city": "Chicago", "addr:housenumber": "6349", "addr:postcode": "60659", "addr:state": "IL", "addr:street": "North California Avenue", "amenity": "restaurant", "cuisine": "pizza", "diet:kosher": "only", "diet:kosher:chalav_yisrael": "only", "diet:kosher:dairy": "only", "diet:kosher:yoshon": "yes", "name": "Tel Aviv Pizza"}}, {"type": "node", "id": 4317787189, "lat": 41.997446, "lon": -87.6914733, "tags": {"amenity": "restaurant", "name": "Hema's kitchen"}}, {"type": "node", "id": 4317787289, "lat": 41.9979068, "lon": -87.694371, "tags": {"amenity": "restaurant", "name": "Mysore Woodlands"}}, {"type": "node", "id": 4452676808, "lat": 42.0124122, "lon": -87.7122136}, {"type": "node", "id": 4452676809, "lat": 42.0123905, "lon": -87.7122139}, {"type": "node", "id": 4452676810, "lat": 42.0122124, "lon": -87.7119931}, {"type": "node", "id": 4452676811, "lat": 42.0123336, "lon": -87.7122716}, {"type": "node", "id": 4452676813, "lat": 42.0124102, "lon": -87.7119898}, {"type": "node", "id": 4452676820, "lat": 42.012391, "lon": -87.7122706}, {"type": "node", "id": 4452676821, "lat": 42.0122153, "lon": -87.7123059}, {"type": "node", "id": 4452676826, "lat": 42.0123339, "lon": -87.7123039}, {"type": "node", "id": 5165670022, "lat": 41.9979879, "lon": -87.6925552, "tags": {"addr:housenumber": "2502", "addr:street": "West Devon Avenue", "amenity": "restaurant", "description": "Indo-Pakistani joint, Michelin Bib Gourmand recommendation", "name": "Sabri Nihari", "opening_hours": "Mo-Th 14:00-23:30; Fr, Sa 12:00-23:30; Su 12:00-23:00", "phone": "7734653272", "website": "www.sabrinihari.com"}}, {"type": "node", "id": 5842883899, "lat": 41.9979172, "lon": -87.6953201, "tags": {"addr:housenumber": "2608", "addr:street": "West Devon Avenue", "amenity": "restaurant", "name": "Annapurna Simply Vegetarian", "phone": "773 764 1858", "website": "www.eatannapurna.com/"}}, {"type": "node", "id": 5842914387, "lat": 41.9974213, "lon": -87.6945419, "tags": {"addr:housenumber": "2559", "addr:street": "West Devon Avenue", "amenity": "restaurant", "name": "Sukhadia's Sweets amd Snacks", "phone": "773 338 5400", "website": "sukhadiasweetschicago.com"}}, {"type": "node", "id": 5842957474, "lat": 41.9973907, "lon": -87.6957703, "tags": {"addr:housenumber": "2629", "addr:street": "West Devon Avenue", "amenity": "restaurant", "name": "Iri-Swati", "phone": "773 381 1010", "website": "www.uruswatitogo.com"}}, {"type": "node", "id": 5842966770, "lat": 41.9975778, "lon": -87.6901854, "tags": {"addr:housenumber": "2401", "addr:street": "West Devon Avenue", "amenity": "restaurant", "name": "Khaan BBQ", "phone": "773 274 8600", "website": "www.khanbbq.net"}}, {"type": "node", "id": 5842981567, "lat": 41.997981, "lon": -87.6929247, "tags": {"addr:housenumber": "2510", "addr:street": "West Devon Avenue", "amenity": "restaurant", "name": "Bismillah Restaurant", "phone": "773 973 5602", "website": "m.facebook.com/BismillahRestaurantChicago"}}, {"type": "node", "id": 5842994307, "lat": 41.9974709, "lon": -87.6949921, "tags": {"addr:housenumber": "2601", "addr:street": "West Devon Avenue", "amenity": "restaurant", "name": "Nepal House", "phone": "773 681 0200", "website": "www.nepalhouseonline.com"}}, {"type": "node", "id": 6280546643, "lat": 41.9974332, "lon": -87.6986241, "tags": {"addr:city": "Chicago", "addr:housenumber": "2733", "addr:postcode": "60659", "addr:state": "IL", "addr:street": "West Devon Avenue", "amenity": "bar", "name": "Casey\u2019s Corner"}}, {"type": "node", "id": 6291935293, "lat": 41.9951047, "lon": -87.7000085, "tags": {"addr:city": "Chicago", "addr:housenumber": "6240", "addr:postcode": "60659", "addr:state": "IL", "addr:street": "North California Avenue", "amenity": "restaurant", "name": "Gogi", "phone": "+1-773-274-6669", "website": "http://gogichicago.com/"}}, {"type": "node", "id": 6300979402, "lat": 42.0116351, "lon": -87.6899226, "tags": {"addr:city": "Chicago", "addr:housenumber": "7121", "addr:postcode": "60645", "addr:state": "IL", "addr:street": "North Western Avenue", "amenity": "bar", "name": "Ricky G\u2019s", "phone": "+1-773-764-0322"}}, {"type": "node", "id": 6322562164, "lat": 42.0122439, "lon": -87.6998913, "tags": {"addr:city": "Chicago", "addr:housenumber": "2800", "addr:postcode": "60645", "addr:state": "IL", "addr:street": "West Touhy Avenue", "amenity": "bar", "name": "McKellin\u2019s", "phone": "+1-773-973-2428", "website": "mckellins.com"}}, {"type": "way", "id": 28898739, "nodes": [317652778, 317652779, 317652780, 317652781, 317652778], "tags": {"addr:city": "Lincolnwood", "addr:housenumber": "3303", "addr:postcode": "60712", "addr:state": "IL", "addr:street": "West Touhy Avenue", "amenity": "restaurant", "brand": "Olive Garden", "brand:wikidata": "Q3045312", "brand:wikipedia": "en:Olive Garden", "building": "yes", "cuisine": "italian", "name": "Olive Garden"}}, {"type": "way", "id": 209570071, "nodes": [2197721463, 2197721508, 2197721512, 2197721494, 2197720116, 2197720114, 2197721463], "tags": {"addr:housenumber": "2520", "addr:street": "West Devon Avenue", "addr:street:name": "Devon", "addr:street:prefix": "West", "addr:street:type": "Avenue", "amenity": "restaurant", "building": "yes", "building:levels": "2", "chicago:building_id": "841805", "cuisine": "indian", "name": "Viceroy of India"}}, {"type": "way", "id": 209591855, "nodes": [2197878797, 2197878801, 2197878434, 2197878371, 2197878372, 2197878106, 2197878099, 2197878575, 2197878797], "tags": {"addr:housenumber": "2931", "addr:street": "West Touhy Avenue", "addr:street:name": "Touhy", "addr:street:prefix": "West", "addr:street:type": "Avenue", "amenity": "restaurant", "building": "yes", "building:levels": "2", "chicago:building_id": "822059", "cuisine": "pizza", "name": "The Main Pizza / Chalavi"}}, {"type": "way", "id": 334709853, "nodes": [3417560553, 3417697338, 3417697339, 3417560554, 3417560553], "tags": {"amenity": "restaurant", "building": "yes", "cuisine": "thai", "name": "Bangkok Wok"}}, {"type": "way", "id": 448234879, "nodes": [4452676813, 4452676808, 4452676809, 4452676820, 4452676811, 4452676826, 4452676821, 4452676810, 4452676813], "tags": {"addr:city": "Skokie", "addr:housenumber": "3300", "addr:postcode": "60076", "addr:state": "IL", "addr:street": "West Touhy Avenue", "amenity": "restaurant", "brand": "LongHorn Steakhouse", "brand:wikidata": "Q3259007", "brand:wikipedia": "en:LongHorn Steakhouse", "building": "retail", "cuisine": "steak_house", "name": "LongHorn Steakhouse", "website": "https://www.longhornsteakhouse.com/locations/il/skokie/skokie-lincolnwood/5519"}}]}