{"version": 0.6, "generator": "Overpass API 0.7.56.3 eb200aeb", "osm3s": {"timestamp_osm_base": "2020-07-04T01:43:02Z", "copyright": "The data included in this document is from www.openstreetmap.org. The data is made available under ODbL."}, "elements": [{"type": "node", "id": 371266619, "lat": 41.9371493, "lon": -87.6481922, "tags": {"addr:city": "Chicago", "addr:housenumber": "3025", "addr:postcode": "60657", "addr:state": "IL", "addr:street": "North Clark Street", "amenity": "cafe", "brand": "Peet's Coffee", "brand:wikidata": "Q1094101", "brand:wikipedia": "en:Peet's Coffee", "cuisine": "coffee_shop", "name": "Peet's Coffee", "phone": "+1-773-360-5558", "takeaway": "yes", "website": "https://www.peets.com/"}}, {"type": "node", "id": 419481655, "lat": 41.9403568, "lon": -87.6403725, "tags": {"amenity": "pub", "name": "Bridget McNeill's", "website": "http://www.bridgetmcneillspub.com/"}}, {"type": "node", "id": 662726457, "lat": 41.9377792, "lon": -87.6444705, "tags": {"amenity": "restaurant", "name": "Stella's Diner"}}, {"type": "node", "id": 662726458, "lat": 41.9401147, "lon": -87.6491097, "tags": {"amenity": "restaurant", "name": "Drew's on Halsted", "url": "http://www.jacksonhalsted.com/"}}, {"type": "node", "id": 662726461, "lat": 41.9437805, "lon": -87.6449908, "tags": {"addr:city": "Chicago", "addr:housenumber": "3415", "addr:postcode": "60657", "addr:state": "IL", "addr:street": "North Broadway", "amenity": "restaurant", "name": "Ann Sather", "phone": "+1-773-305-0024", "website": "http://annsather.com/"}}, {"type": "node", "id": 662726462, "lat": 41.9367975, "lon": -87.6444222, "tags": {"amenity": "pub", "name": "Friar Tuck", "url": "http://www.friartuck3010.com"}}, {"type": "node", "id": 772288954, "lat": 41.932955, "lon": -87.6444494, "tags": {"amenity": "restaurant"}}, {"type": "node", "id": 903262989, "lat": 41.9409507, "lon": -87.6441233, "tags": {"addr:city": "Chicago", "addr:housenumber": "3233", "addr:postcode": "60657", "addr:state": "IL", "addr:street": "North Broadway", "amenity": "restaurant", "cuisine": "diner", "name": "Eggsperience Pancakes & Cafe", "opening_hours": "Mo-Su 09:00-21:00"}}, {"type": "node", "id": 903263931, "lat": 41.942036, "lon": -87.6446812, "tags": {"addr:city": "Chicago", "addr:housenumber": "3300", "addr:postcode": "60657", "addr:state": "IL", "addr:street": "North Broadway", "amenity": "cafe", "name": "Stan\u2019s Donuts & Coffee", "phone": "+1-773-883-4764", "website": "http://www.stansdonutschicago.com/"}}, {"type": "node", "id": 903264793, "lat": 41.9423073, "lon": -87.6446598, "tags": {"amenity": "restaurant", "name": "Ping Pong Asian-Thai", "wheelchair": "yes"}}, {"type": "node", "id": 1673554503, "lat": 41.9382563, "lon": -87.6441813, "tags": {"addr:city": "Chicago", "addr:housenumber": "3123", "addr:postcode": "60657", "addr:state": "IL", "addr:street": "North Broadway", "amenity": "cafe", "cuisine": "coffee_shop", "internet_access": "wlan", "name": "Intelligentsia", "phone": "+1-773-348-8058", "source": "Bing", "website": "https://www.intelligentsiacoffee.com/"}}, {"type": "node", "id": 1939836286, "lat": 41.9374071, "lon": -87.6484086, "tags": {"addr:housenumber": "3037", "addr:postcode": "60657", "addr:street": "North Clark Street", "amenity": "restaurant", "cuisine": "sandwich", "name": "Sandwich Me In", "website": "http://sandwichmeinchicago.com/"}}, {"type": "node", "id": 2204060335, "lat": 41.9302881, "lon": -87.6441081}, {"type": "node", "id": 2204060429, "lat": 41.93032, "lon": -87.6442029}, {"type": "node", "id": 2204060506, "lat": 41.9303387, "lon": -87.6441329}, {"type": "node", "id": 2204060592, "lat": 41.9303605, "lon": -87.6438283}, {"type": "node", "id": 2204060626, "lat": 41.9303681, "lon": -87.6442244}, {"type": "node", "id": 2204060719, "lat": 41.9303963, "lon": -87.6441212}, {"type": "node", "id": 2204060869, "lat": 41.9304348, "lon": -87.644141}, {"type": "node", "id": 2204061102, "lat": 41.9304949, "lon": -87.6439063}, {"type": "node", "id": 2204091506, "lat": 41.9385872, "lon": -87.6451669}, {"type": "node", "id": 2204091513, "lat": 41.9385878, "lon": -87.6449831}, {"type": "node", "id": 2204091519, "lat": 41.9385889, "lon": -87.6449831}, {"type": "node", "id": 2204091542, "lat": 41.9385956, "lon": -87.6444681}, {"type": "node", "id": 2204091829, "lat": 41.9386737, "lon": -87.6451678}, {"type": "node", "id": 2204091836, "lat": 41.938675, "lon": -87.6449344}, {"type": "node", "id": 2204092025, "lat": 41.9387461, "lon": -87.6449358}, {"type": "node", "id": 2204092036, "lat": 41.9387521, "lon": -87.6444705}, {"type": "node", "id": 2274337309, "lat": 41.9423948, "lon": -87.6442641, "tags": {"addr:city": "Chicago", "addr:housenumber": "3311", "addr:postcode": "60657", "addr:state": "IL", "addr:street": "North Broadway", "amenity": "cafe", "name": "The Coffee & Tea Exchange", "phone": "+1-773-528-2241", "website": "https://coffeeandtea.com/"}}, {"type": "node", "id": 2282741031, "lat": 41.9426831, "lon": -87.6443288, "tags": {"addr:housenumber": "3257", "addr:street": "North Broadway", "amenity": "restaurant", "cuisine": "asian", "name": "Joy's Noodles & Rice"}}, {"type": "node", "id": 2359667303, "lat": 41.9359579, "lon": -87.644101, "tags": {"addr:city": "Chicago", "addr:housenumber": "2933", "addr:postcode": "60657", "addr:street": "North Broadway", "amenity": "restaurant", "cuisine": "mexican", "name": "Janitzio Burritos Y Tagueria"}}, {"type": "node", "id": 2361072388, "lat": 41.9300231, "lon": -87.643667, "tags": {"addr:housenumber": "2616", "addr:postcode": "60614", "addr:street": "North Clark Street", "amenity": "bar", "name": "Duke's Chicago Bar and Grill"}}, {"type": "node", "id": 2361072391, "lat": 41.9311283, "lon": -87.6439425, "tags": {"addr:housenumber": "2665", "addr:postcode": "60614", "addr:street": "North Clark Street", "amenity": "restaurant", "cuisine": "burger", "name": "Fatty's Burgers and More"}}, {"type": "node", "id": 2447746288, "lat": 41.9393077, "lon": -87.644226, "tags": {"addr:city": "Chicago", "addr:housenumber": "3155", "addr:postcode": "60657", "addr:state": "IL", "addr:street": "North Broadway", "amenity": "pub", "microbrewery": "yes", "name": "DryHop Brewers", "phone": "+1-773-857-3155", "website": "https://dryhopchicago.com/"}}, {"type": "node", "id": 2946757911, "lat": 41.9328768, "lon": -87.647886, "tags": {"addr:housenumber": "730", "addr:street": "West Diversey Parkway", "amenity": "restaurant", "cuisine": "japanese", "name": "Sakura", "opening_hours": "Mo-Su 11:30-22:30"}}, {"type": "node", "id": 3489971056, "lat": 41.9383791, "lon": -87.6490889, "tags": {"amenity": "restaurant", "cuisine": "thai", "name": "Thaiday Street Cafe"}}, {"type": "node", "id": 3518291652, "lat": 41.9324546, "lon": -87.6459114, "tags": {"addr:city": "Chicago", "addr:housenumber": "659", "addr:postcode": "60614", "addr:state": "IL", "addr:street": "West Diversey Parkway", "amenity": "cafe", "name": "Next Door Cafe", "opening_hours": "Mo-Su 07:00-22:00", "phone": "+1-773-472-3667", "website": "https://www.nextdoorchicago.com"}}, {"type": "node", "id": 3518312182, "lat": 41.9353036, "lon": -87.6471628, "tags": {"addr:city": "Chicago", "addr:housenumber": "2914", "addr:postcode": "60657", "addr:state": "IL", "addr:street": "North Clark Street", "amenity": "restaurant", "cuisine": "mexican", "delivery": "yes", "name": "El Nuevo Mexicano", "opening_hours": "Mo-Su 11:30-22:00; Fr-Sa 11:30-23:30", "outdoor_seating": "yes", "phone": "+1-773-528 2131", "takeaway": "yes", "website": "https://www.elnuevomexicano.net/"}}, {"type": "node", "id": 4366103741, "lat": 41.929762, "lon": -87.6432957, "tags": {"amenity": "bar", "name": "D.O.C"}}, {"type": "node", "id": 4366103743, "lat": 41.9299851, "lon": -87.6431533, "tags": {"amenity": "restaurant", "cuisine": "mexican", "name": "Tarascas", "phone": "(773) 549-2595", "website": "http://www.cocinatarascas.com/"}}, {"type": "node", "id": 4704620392, "lat": 41.9425068, "lon": -87.6442948, "tags": {"amenity": "bar", "name": "The Closet", "name:en": "The Closet"}}, {"type": "node", "id": 4718874637, "lat": 41.9352464, "lon": -87.6444633, "tags": {"addr:city": "Chicago", "addr:housenumber": "2908", "addr:postcode": "60657", "addr:state": "IL", "addr:street": "North Broadway", "amenity": "restaurant", "cuisine": "turkish", "name": "Troy Mediterranean Grill & Turkish Kitchen", "opening_hours": "Su 12:00-21:00; Mo-Th 12:00-22:00; Fr-Sa 12:00-23:00", "phone": "+1-773-770-3866", "website": "https://www.troymediterraneangrill.com/"}}, {"type": "node", "id": 5002004773, "lat": 41.9361201, "lon": -87.6444045, "tags": {"addr:housenumber": "2940", "addr:street": "North Broadway", "amenity": "restaurant", "name": "Crisp Korean Restaurant", "phone": "773 697 7610", "website": "http://www.crisponline.com/crisp.aspx"}}, {"type": "node", "id": 5168219465, "lat": 41.9384653, "lon": -87.6445563, "tags": {"addr:city": "Chicago", "addr:housenumber": "3124", "addr:postcode": "60657", "addr:state": "IL", "addr:street": "North Broadway", "amenity": "restaurant", "description": "Bib Gourmand recommendation", "name": "Ceres' Table", "phone": "+1-773-922-4020", "website": "https://www.cerestable.com/"}}, {"type": "node", "id": 5178274159, "lat": 41.9398678, "lon": -87.6490939, "tags": {"amenity": "restaurant", "name": "Lucky Horsehoe Lounge"}}, {"type": "node", "id": 5460822466, "lat": 41.9351065, "lon": -87.6465617, "tags": {"addr:city": "Chicago", "addr:housenumber": "2909", "addr:postcode": "60657", "addr:state": "IL", "addr:street": "North Clark Street", "amenity": "restaurant", "name": "The Gundis", "opening_hours": "Mo 09:00-21:00; We-Th 09:00-21:00; Fr-Sa 09:00-22:00; Su 09:00-20:00", "phone": "+1-773-904-8120", "website": "http://thegundis.com/"}}, {"type": "node", "id": 5693947791, "lat": 41.9438463, "lon": -87.6453016, "tags": {"amenity": "restaurant", "name": "El Mariache Restaurant"}}, {"type": "node", "id": 5693947793, "lat": 41.9438117, "lon": -87.6453073, "tags": {"addr:city": "Chicago", "addr:housenumber": "3420", "addr:postcode": "60657", "addr:state": "Il", "addr:street": "North Broadway", "amenity": "bar", "name": "Jacquelines's", "phone": "+1-773-404-5149"}}, {"type": "node", "id": 5693947794, "lat": 41.9438949, "lon": -87.6453372, "tags": {"amenity": "restaurant", "name": "Shiawase Japanese Restaurant"}}, {"type": "node", "id": 5694736438, "lat": 41.9436247, "lon": -87.644836, "tags": {"amenity": "restaurant", "name": "Milt's Barbecue for the Perplexed"}}, {"type": "node", "id": 5864459415, "lat": 41.9329255, "lon": -87.645183, "tags": {"addr:city": "Chicago", "addr:housenumber": "2800", "addr:postcode": "60657", "addr:state": "IL", "addr:street": "North Clark Street", "amenity": "cafe", "name": "Stan\u2019s Donuts & Coffee", "phone": "+1-773-883-4764", "website": "http://www.stansdonutschicago.com/"}}, {"type": "node", "id": 5872612136, "lat": 41.9317127, "lon": -87.6487652, "tags": {"addr:city": "Chicago", "addr:housenumber": "2703", "addr:postcode": "60614", "addr:state": "IL", "addr:street": "North Halsted Street", "amenity": "restaurant", "cuisine": "mexican", "name": "The Mayan Palace", "opening_hours": "Su-Mo 11:00-22:00; Tu-Sa 11:00-23:00", "phone": "+1-773-935-4200", "website": "https://www.themayanpalacechicago.com/"}}, {"type": "node", "id": 5964780985, "lat": 41.9332772, "lon": -87.6445976, "tags": {"addr:city": "Chicago", "addr:housenumber": "2813", "addr:postcode": "60657", "addr:state": "IL", "addr:street": "North Broadway", "amenity": "restaurant", "name": "Gyu-Kaku Japanese Bbq", "phone": "+1- 773-687-8110", "website": "https://www.gyu-kaku.com/chicago-lake-view/"}}, {"type": "node", "id": 6238609220, "lat": 41.9354147, "lon": -87.6467863, "tags": {"addr:city": "Chicago", "addr:housenumber": "2921", "addr:postcode": "60657", "addr:state": "IL", "addr:street": "North Clark Street", "amenity": "restaurant", "cuisine": "sandwich", "name": "ChiTown Sandwich Club", "opening_hours": "Mo,Th,Fr 10:00-16:00; Sa,Su 09:00-16:00", "outdoor_seating": "yes", "phone": "+1-773-697-2371", "website": "https://chitownsandwichclub.com/"}}, {"type": "node", "id": 6258078468, "lat": 41.9360857, "lon": -87.6477688, "tags": {"addr:city": "Chicago", "addr:housenumber": "2942", "addr:postcode": "60657", "addr:state": "IL", "addr:street": "North Clark Street", "amenity": "cafe", "name": "Aje Cafe", "phone": "+1-773-472-2233", "website": "https://ajecafechicago.wixsite.com/mysite"}}, {"type": "node", "id": 6261035288, "lat": 41.9314578, "lon": -87.6487892, "tags": {"addr:city": "Chicago", "addr:housenumber": "2683", "addr:postcode": "60614", "addr:state": "IL", "addr:street": "North Halsted Street", "amenity": "bar", "name": "aliveOne", "phone": "+1-773-348-9800", "website": "http://aliveone.com/"}}, {"type": "node", "id": 6263509527, "lat": 41.9354011, "lon": -87.6446863, "tags": {"addr:city": "Chicago", "addr:housenumber": "2916", "addr:postcode": "60657", "addr:state": "IL", "addr:street": "North Broadway", "amenity": "bar", "name": "Avenue Tavern", "phone": "+1-773-975-7000", "website": "http://avenuetavern.com/"}}, {"type": "node", "id": 6265193537, "lat": 41.9363269, "lon": -87.6441062, "tags": {"addr:city": "Chicago", "addr:housenumber": "2947", "addr:postcode": "60657", "addr:state": "IL", "addr:street": "North Broadway", "amenity": "restaurant", "name": "Bar Pastoral", "phone": "+1-773-472-4781", "website": "https://www.pastoralartisan.com/barpastoral"}}, {"type": "node", "id": 6267402083, "lat": 41.9344594, "lon": -87.6460027, "tags": {"addr:city": "Chicago", "addr:housenumber": "2863", "addr:postcode": "60657", "addr:state": "IL", "addr:street": "North Clark Street", "amenity": "restaurant", "name": "Bluebird", "phone": "+1-773-661-1531", "website": "https://bluebirdchi.com/"}}, {"type": "node", "id": 6269048738, "lat": 41.9402531, "lon": -87.6445602, "tags": {"addr:city": "Chicago", "addr:housenumber": "3204", "addr:postcode": "60657", "addr:state": "IL", "addr:street": "North Broadway", "amenity": "restaurant", "name": "Brazilian Bowl", "phone": "+1-773- 857-2002", "website": "https://brazilianbowl2go.com/"}}, {"type": "node", "id": 6283371365, "lat": 41.9327184, "lon": -87.6407591, "tags": {"addr:city": "Chicago", "addr:housenumber": "433", "addr:postcode": "60614", "addr:state": "IL", "addr:street": "West Diversey Parkway", "amenity": "bar", "name": "Compass Bar", "phone": "+1-773-248-3230", "website": "https://www.compassbarchicago.com/"}}, {"type": "node", "id": 6284775973, "lat": 41.9377382, "lon": -87.6444991, "tags": {"addr:city": "Chicago", "addr:housenumber": "3040", "addr:postcode": "60657", "addr:state": "IL", "addr:street": "North Broadway", "amenity": "bar", "name": "Dram Shop", "phone": "+1-773-549-4401"}}, {"type": "node", "id": 6284856480, "lat": 41.9352735, "lon": -87.6466516, "tags": {"addr:city": "Chicago", "addr:housenumber": "2913", "addr:postcode": "60657", "addr:state": "IL", "addr:street": "North Clark Street", "amenity": "restaurant", "name": "Duke Of Perth", "phone": "+1-773-477-1741", "website": "http://dukeofperth.com/"}}, {"type": "node", "id": 6291549885, "lat": 41.9368175, "lon": -87.6445689, "tags": {"addr:city": "Chicago", "addr:housenumber": "3010", "addr:postcode": "60657", "addr:state": "IL", "addr:street": "North Broadway", "amenity": "bar", "name": "Friar Tuck", "phone": "+1-773-327-5101"}}, {"type": "node", "id": 6291738082, "lat": 41.9332106, "lon": -87.6416208, "tags": {"addr:city": "Chicago", "addr:housenumber": "500", "addr:postcode": "60657", "addr:state": "IL", "addr:street": "West Diversey Parkway", "amenity": "bar", "name": "Galway Bay", "phone": "+1-773-348-3750", "website": "http://www.galwaybaypub.com/"}}, {"type": "node", "id": 6292131009, "lat": 41.9351529, "lon": -87.6444787, "tags": {"addr:city": "Chicago", "addr:housenumber": "2904", "addr:postcode": "60657", "addr:state": "IL", "addr:street": "North Broadway", "amenity": "restaurant", "name": "Grand Mongolian Hot Pot", "phone": "+1-312-866-9555", "website": "https://grandmongolianhotpot.com/"}}, {"type": "node", "id": 6294060040, "lat": 41.9329983, "lon": -87.6465576, "tags": {"addr:city": "Chicago", "addr:housenumber": "676", "addr:postcode": "60614", "addr:state": "IL", "addr:street": "West Diversey Parkway", "amenity": "restaurant", "name": "Half Shell", "phone": "+1-773-549-1773", "website": "http://halfshellchicago.com/"}}, {"type": "node", "id": 6294397336, "lat": 41.9358429, "lon": -87.639797, "tags": {"addr:city": "Chicago", "addr:housenumber": "2950", "addr:postcode": "60657", "addr:state": "IL", "addr:street": "North Sheridan Road", "amenity": "cafe", "name": "HERO Coffee Bar", "phone": "+1-773-661-1254", "website": "https://www.herocoffeebars.com/"}}, {"type": "node", "id": 6297599701, "lat": 41.9316579, "lon": -87.6485447, "tags": {"addr:city": "Chicago", "addr:housenumber": "2701", "addr:postcode": "60614", "addr:state": "IL", "addr:street": "North Halsted Street", "amenity": "restaurant", "name": "Sapori Trattoria", "phone": "+1-312-967-9358", "website": "https://www.saporitrattoria.net/"}}, {"type": "node", "id": 6297839310, "lat": 41.94334, "lon": -87.6490311, "tags": {"addr:city": "Chicago", "addr:housenumber": "3349", "addr:postcode": "60657", "addr:state": "IL", "addr:street": "North Halsted Street", "amenity": "bar", "name": "Sidetrack", "phone": "+1-773-477-9189", "website": "https://www.sidetrackchicago.com/"}}, {"type": "node", "id": 6299336421, "lat": 41.9325966, "lon": -87.6408545, "tags": {"addr:city": "Chicago", "addr:housenumber": "435", "addr:postcode": "60614", "addr:state": "IL", "addr:street": "West Diversey Parkway", "amenity": "restaurant", "cuisine": "middle_eastern", "name": "Pars Cove Restaurant", "phone": "+1-773-549-1515", "website": "https://www.parscove.com/"}}, {"type": "node", "id": 6300339549, "lat": 41.9341333, "lon": -87.6373412, "tags": {"addr:city": "Chicago", "addr:housenumber": "2900", "addr:postcode": "60657", "addr:state": "IL", "addr:street": "North Lake Shore Drive West", "amenity": "cafe", "name": "St. Joseph\u2019s Hospital - Lake Shore Cafe", "phone": "+1-773-665-3000"}}, {"type": "node", "id": 6300395997, "lat": 41.9338851, "lon": -87.6442994, "tags": {"addr:city": "Chicago", "addr:housenumber": "2833", "addr:postcode": "60657", "addr:state": "IL", "addr:street": "North Broadway", "amenity": "restaurant", "name": "Pera Turkish Kitchen & Bar", "phone": "+1-773-880-0063", "website": "http://perachicago.com/"}}, {"type": "node", "id": 6301829167, "lat": 41.935976, "lon": -87.6444108, "tags": {"addr:city": "Chicago", "addr:housenumber": "2936", "addr:postcode": "60657", "addr:state": "IL", "addr:street": "North Broadway", "amenity": "restaurant", "name": "Sumo Sushi and Hibachi", "phone": "+1-773-477-8510", "website": "http://www.sumosushichicago.com/"}}, {"type": "node", "id": 6303091617, "lat": 41.9326539, "lon": -87.6432988, "tags": {"addr:city": "Chicago", "addr:housenumber": "553", "addr:postcode": "60614", "addr:state": "IL", "addr:street": "West Diversey Parkway", "amenity": "restaurant", "name": "Tanaka Ramen", "phone": "+1-773-857-5140", "website": "https://tanakaramen.com/"}}, {"type": "node", "id": 6303939519, "lat": 41.9326796, "lon": -87.6433565, "tags": {"addr:city": "Chicago", "addr:housenumber": "557", "addr:postcode": "60614", "addr:state": "IL", "addr:street": "West Diversey Parkway", "amenity": "cafe", "name": "TeaGschwendner", "phone": "+1-773-360-8009", "website": "https://shop.tgtea.com/"}}, {"type": "node", "id": 6304253435, "lat": 41.930152, "lon": -87.6438156, "tags": {"addr:city": "Chicago", "addr:housenumber": "2622", "addr:postcode": "60614", "addr:state": "IL", "addr:street": "North Clark Street", "amenity": "restaurant", "facebook": "https://www.facebook.com/TheWienerCircle/", "name": "The Wiener\u2019s Circle", "name:en": "The Wiener\u2019s Circle", "name:zh": "\u7dad\u7d0d\u723e\u65af\u5c0f\u5403\u5e97", "opening_hours": "Su-Th 10:30-04:00; Fr-Sa 10:30-05:00", "phone": "+1-773-477-7444", "start_date": "1983", "website": "http://www.wienercircle.net/", "wikidata": "Q3523370", "wikipedia": "en:The Wieners Circle"}}, {"type": "node", "id": 6305337839, "lat": 41.9321476, "lon": -87.6450562, "tags": {"addr:city": "Chicago", "addr:housenumber": "2546", "addr:postcode": "60614", "addr:state": "IL", "addr:street": "North Clark Street", "amenity": "restaurant", "name": "Toro Sushi", "phone": "+1-773-348-7255"}}, {"type": "node", "id": 6306635320, "lat": 41.9357688, "lon": -87.6445452, "tags": {"addr:city": "Chicago", "addr:housenumber": "2928", "addr:postcode": "60657", "addr:state": "IL", "addr:street": "North Broadway", "amenity": "restaurant", "name": "The Crepe Shop", "phone": "+1-773-857-0018", "website": "https://www.thecrepeshopchicago.com/"}}, {"type": "node", "id": 6314880236, "lat": 41.9357245, "lon": -87.6475622, "tags": {"addr:city": "Chicago", "addr:housenumber": "2932", "addr:postcode": "60657", "addr:state": "IL", "addr:street": "North Clark Street", "amenity": "bar", "name": "Jake\u2019s Pub", "phone": "+1-773-248-3318", "website": "http://www.jakespub.net/"}}, {"type": "node", "id": 6315756742, "lat": 41.9413636, "lon": -87.6442012, "tags": {"addr:city": "Chicago", "addr:housenumber": "3243", "addr:postcode": "60657", "addr:state": "IL", "addr:street": "North Broadway", "amenity": "cafe", "name": "Vanille Patisserie", "phone": "+1-773-868-4574", "website": "http://www.vanillepatisserie.com/"}}, {"type": "node", "id": 6316678035, "lat": 41.9425564, "lon": -87.6443063, "tags": {"addr:city": "Chicago", "addr:housenumber": "3317", "addr:postcode": "60657", "addr:state": "IL", "addr:street": "North Broadway", "amenity": "bar", "name": "Wang\u2019s", "phone": "+1-773-296-6800", "website": "http://www.wangslive.com/"}}, {"type": "node", "id": 6316851529, "lat": 41.9349999, "lon": -87.644007, "tags": {"addr:city": "Chicago", "addr:housenumber": "2873", "addr:postcode": "60657", "addr:state": "IL", "addr:street": "North Broadway", "amenity": "bar", "name": "Wheat\u2019s End Cafe", "phone": "+1-773-770-3527", "website": "https://wheatsendcafe.com/"}}, {"type": "node", "id": 6316911957, "lat": 41.9387153, "lon": -87.644825, "tags": {"addr:city": "Chicago", "addr:housenumber": "3130", "addr:postcode": "60657", "addr:state": "IL", "addr:street": "North Broadway", "amenity": "restaurant", "name": "Wilde Bar & Restaurant", "phone": "+1-773-244-0404", "website": "https://wildechicago.com/restaurant/wilde"}}, {"type": "node", "id": 6316972664, "lat": 41.9428754, "lon": -87.6490912, "tags": {"addr:city": "Chicago", "addr:housenumber": "3335", "addr:postcode": "60657", "addr:state": "IL", "addr:street": "North Halsted Street", "amenity": "restaurant", "name": "Wood", "phone": "+1-773-935-9663", "website": "http://woodchicago.com/"}}, {"type": "node", "id": 6320014611, "lat": 41.9340452, "lon": -87.6456834, "tags": {"addr:city": "Chicago", "addr:housenumber": "2845", "addr:postcode": "60657", "addr:state": "IL", "addr:street": "North Clark Street", "amenity": "restaurant", "name": "La Cr\u00eaperie", "phone": "+1-773-528-9050", "website": "http://www.lacreperiechicago.com/"}}, {"type": "node", "id": 6320659647, "lat": 41.9396984, "lon": -87.6442135, "tags": {"addr:city": "Chicago", "addr:housenumber": "3169", "addr:postcode": "60657", "addr:state": "IL", "addr:street": "West Belmont Avenue", "amenity": "bar", "name": "Lower Broadway", "phone": "+1-312-985-6190"}}, {"type": "node", "id": 6321416056, "lat": 41.9382059, "lon": -87.6446069, "tags": {"addr:city": "Chicago", "addr:housenumber": "3114", "addr:postcode": "60657", "addr:state": "IL", "addr:street": "North Broadway", "amenity": "cafe", "name": "Maison Marcel", "phone": "+1-773-661-6942", "website": "https://www.maison-marcel.com/"}}, {"type": "node", "id": 6321594753, "lat": 41.9330575, "lon": -87.6465042, "tags": {"addr:city": "Chicago", "addr:housenumber": "674", "addr:postcode": "60614", "addr:state": "IL", "addr:street": "West Diversey Parkway", "amenity": "bar", "name": "Matisse Tavern & Grill", "phone": "+1-773-528-6670", "website": "https://www.matissetavernchicago.com/"}}, {"type": "node", "id": 6322600949, "lat": 41.9330704, "lon": -87.6408035, "tags": {"addr:city": "Chicago", "addr:housenumber": "432", "addr:postcode": "60657", "addr:state": "IL", "addr:street": "West Diversey Parkway", "amenity": "restaurant", "name": "MFK Restaurant", "phone": "+1-773-857-2540", "website": "https://mfkrestaurant.com/"}}, {"type": "node", "id": 6322807372, "lat": 41.9371372, "lon": -87.6441059, "tags": {"addr:city": "Chicago", "addr:housenumber": "3019", "addr:postcode": "60657", "addr:state": "IL", "addr:street": "North Broadway", "amenity": "bar", "name": "Monsignor Murphys", "phone": "+1-773-348-7285", "website": "https://www.hugedomains.com/domain_profile.cfm?d=monsignormurphys&e=com"}}, {"type": "node", "id": 6322937296, "lat": 41.9335786, "lon": -87.646062, "tags": {"addr:city": "Chicago", "addr:housenumber": "2828", "addr:postcode": "60657", "addr:state": "IL", "addr:street": "North Clark Street", "amenity": "bar", "name": "The Century Bar", "phone": "+1-773-248-7759", "website": "landmarktheatres.com/"}}, {"type": "node", "id": 6323038072, "lat": 41.9329303, "lon": -87.6464132, "tags": {"addr:city": "Chicago", "addr:country": "US", "addr:housenumber": "670", "addr:postcode": "60614", "addr:state": "IL", "addr:street": "West Diversey Parkway", "amenity": "restaurant", "brand": "Nando's", "brand:wikidata": "Q3472954", "brand:wikipedia": "en:Nando's", "cuisine": "chicken;portuguese", "name": "Nando's", "phone": "+1-773-634-7153", "website": "https://www.nandosperiperi.com/"}}, {"type": "node", "id": 6323209548, "lat": 41.929797, "lon": -87.6375066, "tags": {"addr:city": "Chicago", "addr:housenumber": "2610", "addr:postcode": "60614", "addr:state": "IL", "addr:street": "North Cannon Drive", "amenity": "restaurant", "cuisine": "american", "name": "North Pond", "phone": "+1-773-477-5845", "website": "http://northpondrestaurant.com"}}, {"type": "node", "id": 6324135870, "lat": 41.9330169, "lon": -87.6445527, "tags": {"addr:city": "Chicago", "addr:housenumber": "616", "addr:postcode": "60614", "addr:state": "IL", "addr:street": "West Diversey Parkway", "amenity": "restaurant", "brand": "The Original Pancake House", "brand:wikidata": "Q7755384", "brand:wikipedia": "en:The Original Pancake House", "cuisine": "breakfast;pancake", "name": "The Original Pancake House", "phone": "+1-773-929-8130", "website": "https://www.ophchicagoland.com/lincoln-park/"}}, {"type": "node", "id": 6324379534, "lat": 41.9318129, "lon": -87.6412205, "tags": {"addr:city": "Chicago", "addr:housenumber": "2732", "addr:postcode": "60614", "addr:state": "IL", "addr:street": "North Pine Grove Avenue", "amenity": "bar", "name": "Lakeview Men\u2019s Club", "phone": "+1-773-525-9533"}}, {"type": "node", "id": 6326075700, "lat": 41.942959, "lon": -87.6443966, "tags": {"addr:city": "Chicago", "addr:housenumber": "3343", "addr:postcode": "60657", "addr:state": "IL", "addr:street": "North Broadway", "amenity": "restaurant", "name": "Ms. T\u2019s Southern Fried Chicken", "phone": "+1-773-728-2500", "website": "http://mstssouthernfriedchicken.com/"}}, {"type": "node", "id": 6326154015, "lat": 41.9373423, "lon": -87.6447076, "tags": {"addr:city": "Chicago", "addr:housenumber": "3030", "addr:postcode": "60657", "addr:state": "IL", "addr:street": "North Broadway", "amenity": "bar", "name": "Nob\u2019s Wine Bar"}}, {"type": "node", "id": 6410371289, "lat": 41.9340863, "lon": -87.6462185, "tags": {"addr:city": "Chicago", "addr:housenumber": "2850", "addr:postcode": "60657", "addr:state": "IL", "addr:street": "North Clark Street", "amenity": "restaurant", "cuisine": "argentinian;empanada", "name": "5411 Empanadas - Lakeview", "phone": "+1-773-755-5411", "website": "http://www.5411empanadas.com"}}, {"type": "node", "id": 6737957050, "lat": 41.9407147, "lon": -87.6442732, "tags": {"addr:city": "Chicago", "addr:housenumber": "3219", "addr:postcode": "60657", "addr:state": "IL", "addr:street": "North Broadway", "amenity": "restaurant", "cuisine": "sushi", "name": "Sushi + Rotary Sushi Bar"}}, {"type": "node", "id": 6744908257, "lat": 41.9401879, "lon": -87.6447197, "tags": {"addr:city": "Chicago", "addr:housenumber": "604", "addr:postcode": "60657", "addr:state": "IL", "addr:street": "West Belmont Avenue", "amenity": "restaurant", "cuisine": "noodle", "name": "Kameya Ramen & Sushi"}}, {"type": "node", "id": 7277573845, "lat": 41.932665, "lon": -87.6450601, "tags": {"amenity": "cafe", "brand": "Starbucks", "brand:wikidata": "Q37158", "brand:wikipedia": "en:Starbucks", "cuisine": "coffee_shop", "name": "Starbucks", "official_name": "Starbucks Coffee", "takeaway": "yes"}}, {"type": "node", "id": 7330251139, "lat": 41.9393947, "lon": -87.6442304, "tags": {"addr:city": "Chicago", "addr:housenumber": "315", "addr:postcode": "60657", "addr:state": "IL", "addr:street": "North Broadway", "amenity": "restaurant", "cuisine": "pizza", "name": "Roebuck", "phone": "+1-773-857-2229", "website": "https://www.roebuckpizza.com/"}}, {"type": "node", "id": 7330265557, "lat": 41.9329015, "lon": -87.6472424, "tags": {"addr:city": "Chicago", "addr:housenumber": "714", "addr:postcode": "60614", "addr:state": "IL", "addr:street": "West Diversey Parkway", "amenity": "restaurant", "cuisine": "indian", "name": "Mild 2 Spicy", "phone": "+1-773-661-6778"}}, {"type": "node", "id": 7393995551, "lat": 41.9368071, "lon": -87.6475997, "tags": {"amenity": "restaurant", "brand": "Pizza Hut", "brand:wikidata": "Q191615", "brand:wikipedia": "en:Pizza Hut", "cuisine": "pizza", "name": "Pizza Hut"}}, {"type": "way", "id": 210321835, "nodes": [2204060592, 2204060335, 2204060506, 2204060429, 2204060626, 2204060719, 2204060869, 2204061102, 2204060592], "tags": {"addr:housenumber": "2630", "addr:street": "North Clark Street", "addr:street:name": "Clark", "addr:street:prefix": "North", "addr:street:type": "Street", "amenity": "pub", "building": "yes", "building:levels": "1", "chicago:building_id": "862162", "name": "Crossroads Public House", "website": "http://www.crossroadspublichouse.com/"}}, {"type": "way", "id": 210326253, "nodes": [2204091829, 2204091836, 2204092025, 2204092036, 2204091542, 2204091513, 2204091519, 2204091506, 2204091829], "tags": {"addr:city": "Chicago", "addr:housenumber": "3132", "addr:postcode": "60657", "addr:state": "IL", "addr:street": "North Broadway", "addr:street:name": "Broadway", "addr:street:prefix": "North", "amenity": "restaurant", "building": "yes", "building:levels": "2", "chicago:building_id": "848730", "name": "Kitchen 17", "phone": "+1-312-391-8654", "website": "https://www.kitchen17.com/"}}]}