{"version": 0.6, "generator": "Overpass API 0.7.56.1004 6cd3eaec", "osm3s": {"timestamp_osm_base": "2020-07-22T01:28:02Z", "copyright": "The data included in this document is from www.openstreetmap.org. The data is made available under ODbL."}, "elements": [{"type": "node", "id": 2361072387, "lat": 41.8091967, "lon": -87.6200842, "tags": {"addr:housenumber": "225", "addr:street": "East 47th Street", "amenity": "restaurant", "cuisine": "chinese", "name": "Dragon Express"}}, {"type": "node", "id": 6300738093, "lat": 41.8095528, "lon": -87.6159933, "tags": {"addr:city": "Chicago", "addr:housenumber": "4655", "addr:postcode": "60653", "addr:state": "IL", "addr:street": "South Doctor Martin Luther King Junior Drive", "amenity": "cafe", "name": "Spoken Word Cafe", "outdoor_seating": "yes", "phone": "+1-773-373-2233"}}, {"type": "node", "id": 6301077864, "lat": 41.8099311, "lon": -87.6161107, "tags": {"addr:city": "Chicago", "addr:housenumber": "464", "addr:postcode": "60653", "addr:state": "IL", "addr:street": "South Doctor Martin Luther King Junior Drive", "amenity": "bar", "name": "Renaissance Bronzeville", "phone": "+1-773-690-5416", "website": "http://www.renaissancebronzeville.com/"}}, {"type": "node", "id": 6328357234, "lat": 41.802335, "lon": -87.6192115, "tags": {"addr:city": "Chicago", "addr:housenumber": "5059", "addr:postcode": "60615", "addr:state": "IL", "addr:street": "South Prairie Avenue", "amenity": "restaurant", "cuisine": "belgian", "name": "Friistyle"}}, {"type": "node", "id": 6328357236, "lat": 41.8019361, "lon": -87.6196353, "tags": {"addr:city": "Chicago", "addr:housenumber": "235", "addr:postcode": "60615", "addr:state": "IL", "addr:street": "East 51st Street", "amenity": "restaurant", "name": "Skidoe's Caf\u00e9 & Grill"}}, {"type": "node", "id": 6565212549, "lat": 41.8094283, "lon": -87.6231471, "tags": {"addr:city": "Chicago", "addr:housenumber": "78", "addr:postcode": "60653", "addr:state": "IL", "addr:street": "East 47th Street", "amenity": "cafe", "name": "Sip & Savor", "phone": "+1-773-952-4532", "website": "http://www.sipandsavorchicago.com"}}]}