{"version": 0.6, "generator": "Overpass API 0.7.56.3 eb200aeb", "osm3s": {"timestamp_osm_base": "2020-07-21T20:33:02Z", "copyright": "The data included in this document is from www.openstreetmap.org. The data is made available under ODbL."}, "elements": [{"type": "node", "id": 370884554, "lat": 41.9469749, "lon": -87.6566688, "tags": {"amenity": "bar", "name": "Cubby Bear"}}, {"type": "node", "id": 370884874, "lat": 41.9501029, "lon": -87.6590892, "tags": {"addr:city": "Chicago", "addr:housenumber": "3740", "addr:postcode": "60613", "addr:state": "IL", "addr:street": "North Clark Street", "amenity": "bar", "name": "The Ginger Man Tavern", "phone": "+1-773-549-2050", "wifi": "free"}}, {"type": "node", "id": 378091335, "lat": 41.946303, "lon": -87.6560144, "tags": {"amenity": "bar", "name": "Wild Hare"}}, {"type": "node", "id": 495655717, "lat": 41.9376211, "lon": -87.6660205, "tags": {"addr:housenumber": "3045", "addr:street": "North Greenview Avenue", "amenity": "cafe", "brand": "Starbucks", "brand:wikidata": "Q37158", "brand:wikipedia": "en:Starbucks", "cuisine": "coffee_shop", "name": "Starbucks", "official_name": "Starbucks Coffee", "takeaway": "yes"}}, {"type": "node", "id": 503798695, "lat": 41.940004, "lon": -87.6556831, "tags": {"addr:housenumber": "1040", "addr:street": "West Belmont Avenue", "amenity": "restaurant", "name": "Giordano's", "name:ko": "\uc9c0\uc624\ub2e4\ub178\uc2a4"}}, {"type": "node", "id": 503799637, "lat": 41.9439463, "lon": -87.6641268, "tags": {"amenity": "cafe", "name": "Ann Sather"}}, {"type": "node", "id": 1707846189, "lat": 41.9486953, "lon": -87.6582381}, {"type": "node", "id": 1707846196, "lat": 41.9487477, "lon": -87.6582605}, {"type": "node", "id": 1707846198, "lat": 41.948767, "lon": -87.6581776}, {"type": "node", "id": 1707846203, "lat": 41.9488222, "lon": -87.6579582}, {"type": "node", "id": 1707846206, "lat": 41.9488702, "lon": -87.6582268}, {"type": "node", "id": 1707846207, "lat": 41.9488731, "lon": -87.6579926}, {"type": "node", "id": 1720016522, "lat": 41.9490961, "lon": -87.6582546, "tags": {"amenity": "restaurant", "cuisine": "burger", "name": "Rockit Burger Bar", "wifi": "no"}}, {"type": "node", "id": 1892429574, "lat": 41.9440434, "lon": -87.66374, "tags": {"amenity": "restaurant", "brand": "Noodles & Company", "brand:wikidata": "Q7049673", "brand:wikipedia": "en:Noodles & Company", "cuisine": "pasta", "name": "Noodles & Company"}}, {"type": "node", "id": 1892429616, "lat": 41.9441566, "lon": -87.6637577, "tags": {"amenity": "restaurant", "name": "Cooba", "wheelchair": "yes"}}, {"type": "node", "id": 1892450589, "lat": 41.9440789, "lon": -87.6641263, "tags": {"addr:housenumber": "3418", "addr:street": "North Southport Avenue", "amenity": "restaurant", "name": "Sopo Lounge & Grill"}}, {"type": "node", "id": 2149599047, "lat": 41.9372356, "lon": -87.6590804, "tags": {"addr:city": "Chicago", "addr:housenumber": "3030", "addr:postcode": "60657", "addr:state": "IL", "addr:street": "North Racine Avenue", "amenity": "bar", "atm": "yes", "food": "yes", "name": "Will's Northwoods Inn", "outdoor_seating": "yes", "phone": "773-528-4400", "smoking": "outside", "website": "http://willsnorthwoodsinn.com/"}}, {"type": "node", "id": 2200375147, "lat": 41.9361955, "lon": -87.664646}, {"type": "node", "id": 2200375176, "lat": 41.9362035, "lon": -87.6643354}, {"type": "node", "id": 2200375272, "lat": 41.9362354, "lon": -87.6643365}, {"type": "node", "id": 2200375315, "lat": 41.9362442, "lon": -87.6647131}, {"type": "node", "id": 2200375475, "lat": 41.9362842, "lon": -87.6642816}, {"type": "node", "id": 2200375703, "lat": 41.9363444, "lon": -87.6642042}, {"type": "node", "id": 2200375720, "lat": 41.9363501, "lon": -87.6641967}, {"type": "node", "id": 2200376304, "lat": 41.9364942, "lon": -87.664397}, {"type": "node", "id": 2200517049, "lat": 41.9408113, "lon": -87.6698575}, {"type": "node", "id": 2200517060, "lat": 41.9408122, "lon": -87.6697748}, {"type": "node", "id": 2200517417, "lat": 41.9408416, "lon": -87.6698811}, {"type": "node", "id": 2200517588, "lat": 41.9408703, "lon": -87.6696235}, {"type": "node", "id": 2200518044, "lat": 41.9409295, "lon": -87.6696615}, {"type": "node", "id": 2200532931, "lat": 41.942628, "lon": -87.6710535}, {"type": "node", "id": 2200533571, "lat": 41.9426969, "lon": -87.6708727}, {"type": "node", "id": 2200533849, "lat": 41.9427203, "lon": -87.670639}, {"type": "node", "id": 2200536114, "lat": 41.942865, "lon": -87.6702663}, {"type": "node", "id": 2200536507, "lat": 41.942897, "lon": -87.6710618}, {"type": "node", "id": 2200536534, "lat": 41.9428981, "lon": -87.6710103}, {"type": "node", "id": 2200536565, "lat": 41.9428994, "lon": -87.670764}, {"type": "node", "id": 2200537391, "lat": 41.9429545, "lon": -87.6703279}, {"type": "node", "id": 2200537423, "lat": 41.9429562, "lon": -87.6706182}, {"type": "node", "id": 2200538922, "lat": 41.943044, "lon": -87.6703913}, {"type": "node", "id": 2204095268, "lat": 41.9396023, "lon": -87.657355}, {"type": "node", "id": 2204095273, "lat": 41.9396031, "lon": -87.6572704}, {"type": "node", "id": 2204095390, "lat": 41.9396584, "lon": -87.6573434}, {"type": "node", "id": 2204095393, "lat": 41.9396585, "lon": -87.6573562}, {"type": "node", "id": 2204095422, "lat": 41.9396735, "lon": -87.6573432}, {"type": "node", "id": 2204095436, "lat": 41.9396786, "lon": -87.6572733}, {"type": "node", "id": 2204095437, "lat": 41.9396787, "lon": -87.6572862}, {"type": "node", "id": 2204095440, "lat": 41.9396805, "lon": -87.6573578}, {"type": "node", "id": 2204095463, "lat": 41.9396897, "lon": -87.6572861}, {"type": "node", "id": 2204095504, "lat": 41.9397061, "lon": -87.657273}, {"type": "node", "id": 2204095676, "lat": 41.9397697, "lon": -87.6573606}, {"type": "node", "id": 2204095680, "lat": 41.9397705, "lon": -87.6572742}, {"type": "node", "id": 2204119217, "lat": 41.945101, "lon": -87.6546797}, {"type": "node", "id": 2204119458, "lat": 41.9451573, "lon": -87.6547256}, {"type": "node", "id": 2204119487, "lat": 41.9451619, "lon": -87.6545486}, {"type": "node", "id": 2204119688, "lat": 41.9452169, "lon": -87.6547741}, {"type": "node", "id": 2204119738, "lat": 41.9452264, "lon": -87.6545696}, {"type": "node", "id": 2204120016, "lat": 41.9452968, "lon": -87.6545927}, {"type": "node", "id": 2204141516, "lat": 41.9542939, "lon": -87.6553395}, {"type": "node", "id": 2204141519, "lat": 41.9542963, "lon": -87.6552807}, {"type": "node", "id": 2204141590, "lat": 41.954358, "lon": -87.6552855}, {"type": "node", "id": 2204141593, "lat": 41.9543694, "lon": -87.6553461}, {"type": "node", "id": 2204141595, "lat": 41.9543718, "lon": -87.6552964}, {"type": "node", "id": 2361072386, "lat": 41.946146, "lon": -87.6554126, "tags": {"addr:housenumber": "3515", "addr:postcode": "60657", "addr:street": "North Clark Street", "amenity": "restaurant", "cuisine": "pizza", "name": "Bacci Pizza on Clark"}}, {"type": "node", "id": 2527216722, "lat": 41.9467655, "lon": -87.675979, "tags": {"addr:city": "Chicago", "addr:housenumber": "1851", "addr:postcode": "60613", "addr:street": "West Addison Street", "amenity": "restaurant", "name": "Endgrain", "website": "http://www.endgrainrestaurant.com/"}}, {"type": "node", "id": 2600420844, "lat": 41.9431284, "lon": -87.6758683, "tags": {"addr:city": "Chicago", "addr:housenumber": "1847", "addr:postcode": "60657", "addr:state": "IL", "addr:street": "West Roscoe Street", "amenity": "bar", "name": "Four Moon Tavern", "phone": "+1-773-929-6666", "website": "http://fourmoontavern.com/"}}, {"type": "node", "id": 2761669109, "lat": 41.9511963, "lon": -87.659943, "tags": {"amenity": "restaurant", "name": "Uncommon Ground", "website": "https://www.uncommonground.com/"}}, {"type": "node", "id": 2933401201, "lat": 41.9399274, "lon": -87.6612013, "tags": {"addr:city": "Chicago", "addr:housenumber": "1258", "addr:postcode": "60657", "addr:state": "IL", "addr:street": "West Belmont Avenue", "amenity": "restaurant", "delivery": "no", "name": "Fahlstrom's Fresh Fish Market", "opening_hours": "Mo-Fr 11:00-22:00; Sa 09:00-22:00; Su 09:00-21:00", "phone": "+1-773-281-6000", "takeaway": "yes", "website": "https://www.fahlstromsfreshfish.com/"}}, {"type": "node", "id": 4049483564, "lat": 41.9368582, "lon": -87.6650564, "tags": {"amenity": "restaurant", "cuisine": "american", "level": "0", "name": "Grand River"}}, {"type": "node", "id": 4726187690, "lat": 41.9493082, "lon": -87.6584942, "tags": {"addr:city": "Chicago", "addr:housenumber": "3710", "addr:postcode": "60613", "addr:state": "IL", "addr:street": "North Clark Street", "amenity": "restaurant", "cuisine": "american", "name": "Yak-Zies Wrigleyville", "opening_hours": "Mo-Su 10:00-02:00"}}, {"type": "node", "id": 5033308929, "lat": 41.9447083, "lon": -87.6540662, "tags": {"addr:city": "Chicago", "addr:housenumber": "3439", "addr:postcode": "60657", "addr:state": "IL", "addr:street": "North Sheffield Avenue", "amenity": "bar", "name": "Nisei Lounge", "phone": "+1-773-525-0557", "website": "https://niseiloungechicago.com/"}}, {"type": "node", "id": 5161056762, "lat": 41.9400136, "lon": -87.6544566, "tags": {"amenity": "bar", "name": "Big City Tap"}}, {"type": "node", "id": 5161056765, "lat": 41.9400486, "lon": -87.6537882, "tags": {"addr:city": "Chicago", "addr:housenumber": "958", "addr:postcode": "60657", "addr:state": "IL", "addr:street": "West Belmont Avenue", "amenity": "bar", "name": "Cheesie's Pub & Grub", "opening_hours": "Mo-We 11:00-02:00, Th 11:00-03:00, Fr,Sa 11:00-05:00, Su 11:00-02:00", "phone": "+1-773-388-1574", "website": "https://cheesies.com/"}}, {"type": "node", "id": 5161056767, "lat": 41.939802, "lon": -87.6535927, "tags": {"addr:city": "Chicago", "addr:housenumber": "953", "addr:postcode": "60657", "addr:state": "IL", "addr:street": "West Belmont Avenue", "amenity": "restaurant", "brand": "Blaze Pizza", "brand:wikidata": "Q23016666", "brand:wikipedia": "en:Blaze Pizza", "cuisine": "pizza", "name": "Blaze Pizza", "opening_hours": "Mo-Th 11:00-23:00, Fr-Sa 11:00-01:00, Su 11:00-22:00"}}, {"type": "node", "id": 5161056770, "lat": 41.9397747, "lon": -87.6561359, "tags": {"amenity": "restaurant", "name": "Jin Asian Cafe"}}, {"type": "node", "id": 5161056771, "lat": 41.9397702, "lon": -87.6563655, "tags": {"addr:city": "Chicago", "addr:housenumber": "1059", "addr:postcode": "60657", "addr:state": "IL", "addr:street": "West Belmont Avenue", "amenity": "restaurant", "cuisine": "sushi;japanese", "name": "Ukai Sushi", "opening_hours": "Mo-We 16:00-22:00; Th 15:00-22:00; Fr-Sa 11:00-23:00; Su 12:00-22:00", "phone": "+1-773-868-9900", "website": "https://ukai-japaenase-restaurant-onlinle-ordering.securebrygid.com/zgrid/themes/10649/intro/index.jsp"}}, {"type": "node", "id": 5161056772, "lat": 41.939981, "lon": -87.6572805, "tags": {"addr:city": "Chicago", "addr:housenumber": "1114", "addr:postcode": "60657", "addr:state": "IL", "addr:street": "West Belmont Avenue", "amenity": "cafe", "name": "Bittersweet Pastry Shop", "opening_hours": "Tu-Fr 07:00-19:00; Sa 08:00-19:00; Su 08:00-18:00", "phone": "+1-773-929-1100", "website": "https://www.bittersweetpastry.com/"}}, {"type": "node", "id": 5161385984, "lat": 41.9382088, "lon": -87.6538954, "tags": {"addr:city": "Chicago", "addr:housenumber": "3101", "addr:postcode": "60657", "addr:state": "IL", "addr:street": "North Sheffield Avenue", "addr:unit": "1", "amenity": "bar", "name": "Matilda", "opening_hours": "Mo-Fr 17:00-02:00; Sa 10:00-03:00; Su 11:00-17:00", "phone": "+1-773-883-4400", "website": "https://matilda-babyatlas.com"}}, {"type": "node", "id": 5161385986, "lat": 41.9434096, "lon": -87.6543631, "tags": {"amenity": "bar", "name": "Redmonds"}}, {"type": "node", "id": 5161413731, "lat": 41.9365543, "lon": -87.6541433, "tags": {"addr:city": "Chicago", "addr:housenumber": "3006", "addr:postcode": "60657", "addr:state": "IL", "addr:street": "North Sheffield Avenue", "amenity": "restaurant", "cuisine": "sushi;japanese", "name": "Tanuki", "opening_hours": "Mo-Th 11:30-22:00; Fr,Sa 11:30-23:00; Su 12:00-22:00"}}, {"type": "node", "id": 5178274155, "lat": 41.9404541, "lon": -87.6542735, "tags": {"amenity": "bar", "name": "Trader Todd's"}}, {"type": "node", "id": 5215407357, "lat": 41.954406, "lon": -87.6757926, "tags": {"addr:city": "Chicago", "addr:housenumber": "1840", "addr:postcode": "60613", "addr:state": "IL", "addr:street": "West Irving Park Road", "amenity": "cafe", "name": "Steingold's", "opening_hours": "Mo-Th 08:00-15:00; Fr 08:00-20:00; Sa-Su 09:00-15:00", "phone": "+1-773-661-2469", "website": "https://www.steingoldsdeli.com/"}}, {"type": "node", "id": 5252276976, "lat": 41.9434018, "lon": -87.6532551, "tags": {"amenity": "bar", "name": "Houndstooth"}}, {"type": "node", "id": 5252276977, "lat": 41.9458684, "lon": -87.6556246, "tags": {"amenity": "restaurant", "name": "Old Crow Smokehouse"}}, {"type": "node", "id": 5252276978, "lat": 41.9468383, "lon": -87.6564199, "tags": {"amenity": "bar", "name": "Vines on Clark"}}, {"type": "node", "id": 5364425023, "lat": 41.944352, "lon": -87.6544113, "tags": {"amenity": "bar", "name": "Chicago's Blarney Stone"}}, {"type": "node", "id": 5364425025, "lat": 41.9447909, "lon": -87.6540921, "tags": {"addr:city": "Chicago", "addr:housenumber": "3441", "addr:postcode": "60657", "addr:state": "IL", "addr:street": "North Sheffield Avenue", "amenity": "bar", "name": "The Graystone Tavern", "phone": "+1-773-666-5450", "website": "https://www.graystonetavernchicago.com/"}}, {"type": "node", "id": 5364425026, "lat": 41.9454034, "lon": -87.6553501, "tags": {"amenity": "bar", "name": "Roundhouse 66"}}, {"type": "node", "id": 5364425027, "lat": 41.9453854, "lon": -87.6548619, "tags": {"amenity": "bar", "name": "The Sandlot Wrigley"}}, {"type": "node", "id": 5364425028, "lat": 41.9450004, "lon": -87.6549263, "tags": {"amenity": "bar", "name": "The Country Club"}}, {"type": "node", "id": 5364425029, "lat": 41.945142, "lon": -87.6550443, "tags": {"amenity": "bar", "name": "Lucky's Sandwich Co"}}, {"type": "node", "id": 5460774511, "lat": 41.9544928, "lon": -87.6643843, "tags": {"addr:city": "Chicago", "addr:housenumber": "4000", "addr:postcode": "60613", "addr:state": "IL", "addr:street": "North Southport Avenue", "amenity": "restaurant", "name": "Southport & Irving SIP", "phone": "+1-773-857-2890", "website": "http://www.southportandirving.com/"}}, {"type": "node", "id": 5460785521, "lat": 41.9395264, "lon": -87.6636243, "tags": {"addr:city": "Chicago", "addr:housenumber": "3157", "addr:postcode": "60657", "addr:state": "IL", "addr:street": "North Southport Avenue", "amenity": "restaurant", "cuisine": "american;new_american;american_new", "name": "Tied House", "opening_hours": "Su-Th 16:30-23:00; Fr-Sa 16:30-00:00", "phone": "+1-773-697-4632", "website": "https://www.tiedhousechicago.com"}}, {"type": "node", "id": 5460886933, "lat": 41.9398722, "lon": -87.6696522, "tags": {"addr:city": "Chicago", "addr:housenumber": "1622", "addr:postcode": "60657", "addr:state": "IL", "addr:street": "West Belmont Avenue", "amenity": "restaurant", "cuisine": "american;pub", "name": "Flagship Tavern and Grill", "opening_hours": "Mo-Th 17:00-02:00; Fr 15:00-02:00; Sa 11:00-03:00; Su 11:00-02:00", "phone": "+1-773-281-3805", "website": "https://www.flagshipchicago.com/"}}, {"type": "node", "id": 5460893286, "lat": 41.9426479, "lon": -87.6635911, "tags": {"addr:city": "Chicago", "addr:housenumber": "3335", "addr:postcode": "60657", "addr:state": "IL", "addr:street": "North Southport Avenue", "amenity": "restaurant", "cuisine": "italian", "name": "Coda di Volpe", "opening_hours": "Mo-Th 16:30-22:00; Fr 16:30-23:00; Sa 10:00-23:00; Su 10:00-22:00", "phone": "+1-773-687-8568", "website": "http://www.cdvolpe.com/"}}, {"type": "node", "id": 5462763915, "lat": 41.9503531, "lon": -87.6639084, "tags": {"amenity": "restaurant", "name": "Grassroots Restaurant"}}, {"type": "node", "id": 5548151032, "lat": 41.9472259, "lon": -87.6638154, "tags": {"addr:city": "Chicago", "addr:housenumber": "3601", "addr:postcode": "60613", "addr:state": "IL", "addr:street": "North Southport Avenue", "amenity": "cafe", "cuisine": "Austrian", "internet_access": "wlan", "internet_access:fee": "no", "name": "Julius Meinl", "opening_hours": "Mo-Su 07:00-20:00", "outdoor_seating": "yes", "phone": "+1-773-868-1857", "website": "http://www.meinlus.com/"}}, {"type": "node", "id": 5651992039, "lat": 41.9396498, "lon": -87.6636315, "tags": {"amenity": "bar", "name": "Schuba's"}}, {"type": "node", "id": 5695506953, "lat": 41.9448988, "lon": -87.6544078, "tags": {"amenity": "restaurant", "name": "Cozy's Noodles and Rice"}}, {"type": "node", "id": 5695558674, "lat": 41.9429745, "lon": -87.6529045, "tags": {"amenity": "restaurant", "name": "PS Bangkok"}}, {"type": "node", "id": 5695558676, "lat": 41.9428926, "lon": -87.6528527, "tags": {"addr:city": "Chicago", "addr:housenumber": "3343", "addr:postcode": "60657", "addr:state": "IL", "addr:street": "North Clark Street", "amenity": "restaurant", "name": "Lowcountry Lakeview", "phone": "+1-888-883-8375", "website": "https://www.lowcountrychicago.com/"}}, {"type": "node", "id": 5791122717, "lat": 41.9447594, "lon": -87.6643524, "tags": {"addr:city": "Chicago", "addr:housenumber": "3446", "addr:postcode": "60657", "addr:state": "IL", "addr:street": "North Southport Avenue", "amenity": "restaurant", "name": "Corridor Brewery and Provisions", "phone": "+1-773-270-4272", "website": "https://www.corridorchicago.com/"}}, {"type": "node", "id": 5834769442, "lat": 41.9479341, "lon": -87.6573197, "tags": {"addr:city": "Chicago", "addr:housenumber": "3632", "addr:postcode": "60613", "addr:state": "IL", "addr:street": "North Clark Street", "amenity": "restaurant", "cuisine": "american", "name": "Mordecai", "phone": "+1-773-269-5410", "website": "https://www.mordecaichicago.com"}}, {"type": "node", "id": 5834769444, "lat": 41.9481236, "lon": -87.6574646, "tags": {"addr:city": "Chicago", "addr:housenumber": "3636", "addr:postcode": "60613", "addr:state": "IL", "addr:street": "North Clark Street", "amenity": "restaurant", "cuisine": "bbq;barbecue", "name": "Smoke Daddy BBQ - Wrigleyville", "phone": "+1-773-227-2583", "website": "https://www.thesmokedaddy.com/"}}, {"type": "node", "id": 5834769445, "lat": 41.9481784, "lon": -87.6575019, "tags": {"addr:city": "Chicago", "addr:housenumber": "3640", "addr:postcode": "60613", "addr:state": "IL", "addr:street": "North Clark Street", "amenity": "restaurant", "cuisine": "tacos", "name": "Big Star", "opening_hours": "24/7", "phone": "+1-773-857-7120"}}, {"type": "node", "id": 5834769446, "lat": 41.9476864, "lon": -87.6570759, "tags": {"addr:city": "Chicago", "addr:housenumber": "3626", "addr:postcode": "60613", "addr:state": "IL", "addr:street": "North Clark Street", "amenity": "cafe", "name": "West Town Bakery", "phone": "+1-773-269-5415", "shop": "bakery", "website": "https://www.westtownbakery.com/lakeview"}}, {"type": "node", "id": 5834769447, "lat": 41.9488178, "lon": -87.6568234, "tags": {"addr:city": "Chicago", "addr:housenumber": "1101", "addr:postcode": "60613", "addr:state": "IL", "addr:street": "West Waveland Avenue", "amenity": "bar", "brewery": "yes", "name": "Lucky Dorr", "outdoor_seating": "yes", "phone": "+1-773-388-8249", "website": "https://www.luckydorr.com/"}}, {"type": "node", "id": 5834769449, "lat": 41.9485577, "lon": -87.657448, "tags": {"addr:city": "Chicago", "addr:housenumber": "3647", "addr:postcode": "60613", "addr:state": "IL", "addr:street": "North Clark Street", "amenity": "restaurant", "name": "Brickhouse Tavern"}}, {"type": "node", "id": 5859460641, "lat": 41.9437201, "lon": -87.6539169, "tags": {"addr:city": "Chicago", "addr:housenumber": "3404", "addr:postcode": "60657", "addr:state": "IL", "addr:street": "North Clark Street", "amenity": "restaurant", "cuisine": "caribbean;jamaican", "description": "Jamaican fusion", "name": "Irie Jerk Bar and Grill", "phone": "+1-872-802-4999", "website": "http://iriejerkbargrill.comm/"}}, {"type": "node", "id": 5908462022, "lat": 41.9457315, "lon": -87.6551575, "tags": {"amenity": "restaurant", "cuisine": "american", "name": "Stretch", "website": "https://www.thestretchchicago.com/"}}, {"type": "node", "id": 5914601985, "lat": 41.9433087, "lon": -87.6640752, "tags": {"addr:city": "Chicago", "addr:housenumber": "3358", "addr:postcode": "60657", "addr:state": "IL", "addr:street": "North Southport Avenue", "amenity": "restaurant", "cuisine": "mexican;tacos;taco", "name": "Tuco and Blondie", "opening_hours": "Mo-Th 11:00-22:00; Fr 11:00-00:00; Sa 10:00-00:00; Su 10:00-22:00", "phone": "+1-773-327-8226", "website": "http://www.tucoandblondie.com"}}, {"type": "node", "id": 6221650880, "lat": 41.9475676, "lon": -87.6569746, "tags": {"addr:city": "Chicago", "addr:housenumber": "3600", "addr:postcode": "60613", "addr:state": "IL", "addr:street": "North Clark Street", "amenity": "restaurant", "cuisine": "american", "name": "Dutch & Doc's", "opening_hours": "We-Th 17:00-21:00; Fr 17:00-22:00; Sa 10:00-22:00; Su 10:00-21:00", "phone": "+1-773-360-0207", "website": "https://www.dutchanddocs.com/"}}, {"type": "node", "id": 6256468414, "lat": 41.9507774, "lon": -87.6685899, "tags": {"addr:city": "Chicago", "addr:housenumber": "3801", "addr:postcode": "60613", "addr:state": "IL", "addr:street": "North Ashland Avenue", "amenity": "bar", "name": "A.J. Hudson\u2019s Public House", "phone": "+1-773-348-2767", "website": "http://ajhudsons.com/info.php"}}, {"type": "node", "id": 6267158437, "lat": 41.9400101, "lon": -87.6554869, "tags": {"addr:city": "Chicago", "addr:housenumber": "1034", "addr:postcode": "60657", "addr:state": "IL", "addr:street": "West Belmont Avenue", "amenity": "restaurant", "name": "BIG & little\u2019s Restaurant", "phone": "+1-773-857-6677", "website": "https://www.bigandlittleschicago.com/"}}, {"type": "node", "id": 6267320530, "lat": 41.9428732, "lon": -87.6705192, "tags": {"addr:city": "Chicago", "addr:housenumber": "3345", "addr:postcode": "60657", "addr:state": "IL", "addr:street": "North Lincoln Avenue", "amenity": "bar", "name": "Bitter Pops", "phone": "+1-773-857-7677", "website": "https://www.bitterpops.com/"}}, {"type": "node", "id": 6268283674, "lat": 41.9505757, "lon": -87.6638791, "tags": {"addr:city": "Chicago", "addr:housenumber": "3755", "addr:postcode": "60613", "addr:state": "IL", "addr:street": "North Southport Avenue", "amenity": "restaurant", "name": "Bodega Sur", "phone": "+1-773- 904-8656", "website": "http://www.bodegasurchicago.com/"}}, {"type": "node", "id": 6269167678, "lat": 41.9486948, "lon": -87.6572351, "tags": {"addr:city": "Chicago", "addr:housenumber": "3647", "addr:postcode": "60613", "addr:state": "IL", "addr:street": "North Clark Street", "amenity": "bar", "name": "Budweiser Brickhouse Tavern", "phone": "+1-773-377-4770", "website": "https://www.brickhousetavernchi.com/"}}, {"type": "node", "id": 6269670151, "lat": 41.9435259, "lon": -87.6690303, "tags": {"addr:city": "Chicago", "addr:housenumber": "3400", "addr:postcode": "60657", "addr:state": "IL", "addr:street": "North Ashland Avenue", "amenity": "restaurant", "name": "Cafe El Tapatio", "phone": "+1-773-327-5475", "website": "http://cafetapatio.com/"}}, {"type": "node", "id": 6269896115, "lat": 41.9475422, "lon": -87.664211, "tags": {"addr:city": "Chicago", "addr:housenumber": "3612", "addr:postcode": "60613", "addr:state": "IL", "addr:street": "North Southport Avenue", "amenity": "cafe", "name": "Cafe Tola", "phone": "+1-773-687-8428"}}, {"type": "node", "id": 6280486513, "lat": 41.9445167, "lon": -87.6637447, "tags": {"addr:city": "Chicago", "addr:housenumber": "3425", "addr:postcode": "60657", "addr:state": "IL", "addr:street": "North Southport Avenue", "amenity": "cafe", "name": "Capital One Caf\u00e9", "phone": "+1-312-279-8061", "website": "https://www.capitalone.com/local/chicago-southport"}}, {"type": "node", "id": 6282433414, "lat": 41.9385233, "lon": -87.6675367, "tags": {"addr:city": "Chicago", "addr:housenumber": "3134", "addr:postcode": "60657", "addr:state": "IL", "addr:street": "North Lincoln Avenue", "amenity": "cafe", "cuisine": "coffee_shop", "name": "Chicago Diplomat Cafe", "phone": "+1-773-262-2722", "website": "https://chicago-diplomat-cafe.business.site/"}}, {"type": "node", "id": 6282573940, "lat": 41.9450134, "lon": -87.6551173, "tags": {"addr:city": "Chicago", "addr:housenumber": "3462", "addr:postcode": "60657", "addr:state": "IL", "addr:street": "North Clark Street", "amenity": "bar", "name": "Christmas Club", "phone": "+1-773-975-2010", "website": "http://www.christmasclubchicago.com/"}}, {"type": "node", "id": 6283178216, "lat": 41.938034, "lon": -87.6709073, "tags": {"addr:city": "Chicago", "addr:housenumber": "1658", "addr:postcode": "60657", "addr:state": "IL", "addr:street": "West Barry Avenue", "amenity": "bar", "name": "Cody\u2019s Public House", "phone": "+1-773-528-4050"}}, {"type": "node", "id": 6283476111, "lat": 41.9471523, "lon": -87.6749398, "tags": {"addr:city": "Chicago", "addr:housenumber": "1822", "addr:postcode": "60613", "addr:state": "IL", "addr:street": "West Addison Street", "amenity": "bar", "name": "Cork Lounge", "phone": "+1-773-404-5318", "website": "http://www.corklounge.com/"}}, {"type": "node", "id": 6283974838, "lat": 41.9451152, "lon": -87.6637061, "tags": {"addr:city": "Chicago", "addr:housenumber": "3455", "addr:postcode": "60657", "addr:state": "IL", "addr:street": "North Southport Avenue", "amenity": "restaurant", "cuisine": "american", "name": "Crosby\u2019s Kitchen", "phone": "+1-773-883-2525", "website": "http://crosbyschicago.com/"}}, {"type": "node", "id": 6284192680, "lat": 41.9448556, "lon": -87.6540273, "tags": {"addr:city": "Chicago", "addr:housenumber": "3443", "addr:postcode": "60657", "addr:state": "IL", "addr:street": "North Sheffield Avenue", "amenity": "bar", "name": "Dark Horse Tap & Grille", "phone": "+1-773-248-4400", "website": "http://www.darkhorsechicago.com/"}}, {"type": "node", "id": 6284585245, "lat": 41.9469968, "lon": -87.6554665, "tags": {"addr:city": "Chicago", "addr:housenumber": "1027", "addr:postcode": "60613", "addr:state": "IL", "addr:street": "West Addison Street", "amenity": "cafe", "name": "Do-Rite Donuts & Chicken", "phone": "+1-773-977-7065", "website": "http://doritedonuts.com/"}}, {"type": "node", "id": 6286580076, "lat": 41.9451277, "lon": -87.6634876, "tags": {"addr:city": "Chicago", "addr:housenumber": "1349", "addr:postcode": "60657", "addr:state": "IL", "addr:street": "West Cornelia Avenue", "amenity": "restaurant", "cuisine": "italian;mediterranean", "name": "Ella Elli", "phone": "+1-773-935-3552", "website": "http://www.ellaellichicago.com/"}}, {"type": "node", "id": 6286621640, "lat": 41.9537201, "lon": -87.6547576, "tags": {"addr:city": "Chicago", "addr:housenumber": "3938", "addr:postcode": "60613", "addr:state": "IL", "addr:street": "North Sheridan Road", "amenity": "cafe", "name": "Emerald City Coffee", "phone": "+1-773-857-3041", "website": "https://emeraldcitychicago.com/"}}, {"type": "node", "id": 6289909793, "lat": 41.9398986, "lon": -87.6707542, "tags": {"addr:city": "Chicago", "addr:housenumber": "1652", "addr:postcode": "60657", "addr:state": "IL", "addr:street": "West Belmont Avenue", "amenity": "restaurant", "name": "Fennel & Iris", "phone": "+1-773-687-8442", "website": "http://fennelandiris.com/"}}, {"type": "node", "id": 6289950585, "lat": 41.9402434, "lon": -87.6539754, "tags": {"addr:city": "Chicago", "addr:housenumber": "3207", "addr:postcode": "60657", "addr:state": "IL", "addr:street": "North Sheffield Avenue", "amenity": "bar", "name": "Figo Wine Bar", "phone": "+1-312-819-6111", "website": "https://figowinebar.com/"}}, {"type": "node", "id": 6290025752, "lat": 41.9447486, "lon": -87.672566, "tags": {"addr:city": "Chicago", "addr:housenumber": "3458", "addr:postcode": "60657", "addr:state": "IL", "addr:street": "North Lincoln Avenue", "amenity": "bar", "name": "Finley Dunnes Tavern", "phone": "+1-773-477-7311"}}, {"type": "node", "id": 6291523976, "lat": 41.9431375, "lon": -87.6714232, "tags": {"addr:city": "Chicago", "addr:housenumber": "3358", "addr:postcode": "60657", "addr:state": "IL", "addr:street": "North Paulina Street", "amenity": "restaurant", "cuisine": "pizza;italian", "name": "Frasca Pizzeria and Wine Bar", "phone": "+1-773-248-5222", "website": "http://www.frascapizzeria.com/"}}, {"type": "node", "id": 6292012650, "lat": 41.9515876, "lon": -87.6767514, "tags": {"addr:city": "Chicago", "addr:housenumber": "3839", "addr:postcode": "60613", "addr:state": "IL", "addr:street": "North Lincoln Avenue", "amenity": "bar", "name": "Goldie\u2019s Pub", "phone": "+1-773-404-5322", "website": "http://www.goldiespub.com/"}}, {"type": "node", "id": 6292159426, "lat": 41.9473236, "lon": -87.6617604, "tags": {"addr:city": "Chicago", "addr:housenumber": "1300", "addr:postcode": "60613", "addr:state": "IL", "addr:street": "West Addison Street", "amenity": "bar", "name": "Guthries Tavern", "phone": "+1-773-477-2900", "website": "https://www.guthriestavern.com/"}}, {"type": "node", "id": 6297198431, "lat": 41.9488445, "lon": -87.6545581, "tags": {"addr:city": "Chicago", "addr:housenumber": "1049", "addr:postcode": "60613", "addr:state": "IL", "addr:street": "West Waveland Avenue", "amenity": "restaurant", "name": "Hot Doug\u2019s Wrigley Field"}}, {"type": "node", "id": 6297639056, "lat": 41.9396579, "lon": -87.6633518, "tags": {"addr:city": "Chicago", "addr:housenumber": "3159", "addr:postcode": "60657", "addr:state": "IL", "addr:street": "North Southport Avenue", "amenity": "bar", "name": "Schubas Tavern", "phone": "+1-773-525-2508", "website": "https://www.schubastavern.com/"}}, {"type": "node", "id": 6297807571, "lat": 41.9415907, "lon": -87.6545108, "tags": {"addr:city": "Chicago", "addr:housenumber": "3258", "addr:postcode": "60657", "addr:state": "IL", "addr:street": "North Sheffield Avenue", "amenity": "bar", "name": "Sheffield\u2019s Wine & Beer Garden", "phone": "+1-773-281-4989", "website": "http://www.sheffieldschicago.com/"}}, {"type": "node", "id": 6298884587, "lat": 41.9498354, "lon": -87.6589084, "tags": {"addr:city": "Chicago", "addr:housenumber": "3730", "addr:postcode": "60613", "addr:state": "IL", "addr:street": "North Clark Street", "amenity": "bar", "name": "Smart Bar", "phone": "+1-773-549-4140", "website": "http://smartbarchicago.com/"}}, {"type": "node", "id": 6298966885, "lat": 41.9423222, "lon": -87.6635629, "tags": {"addr:city": "Chicago", "addr:housenumber": "3325", "addr:postcode": "60657", "addr:state": "IL", "addr:street": "North Southport Avenue", "amenity": "bar", "name": "Southport Lanes", "phone": "+1-773-472-6600", "website": "https://southportlanes.com/"}}, {"type": "node", "id": 6300428731, "lat": 41.9544464, "lon": -87.6746234, "tags": {"addr:city": "Chicago", "addr:housenumber": "1812", "addr:postcode": "60613", "addr:state": "IL", "addr:street": "West Irving Park Road", "amenity": "cafe", "name": "Pide Ve Lahmacun", "phone": "+1-773-755-4022", "website": "http://www.sukursplace.com/pidevelahmacun/"}}, {"type": "node", "id": 6300768348, "lat": 41.9465696, "lon": -87.6563348, "tags": {"addr:city": "Chicago", "addr:housenumber": "3540", "addr:postcode": "60657", "addr:state": "IL", "addr:street": "North Clark Street", "amenity": "bar", "name": "Sluggers World Class Sports Bar", "phone": "+1-773-248-0055", "website": "sluggersbar.com"}}, {"type": "node", "id": 6300883485, "lat": 41.9541553, "lon": -87.6667949, "tags": {"addr:city": "Chicago", "addr:housenumber": "1467", "addr:postcode": "60613", "addr:state": "IL", "addr:street": "West Irving Park Road", "amenity": "restaurant", "name": "The Roost Carolina Kitchen", "phone": "+1-312-261-5564", "website": "https://www.theroostcarolinakitchen.com/"}}, {"type": "node", "id": 6300944476, "lat": 41.945363, "lon": -87.6547607, "tags": {"addr:city": "Chicago", "addr:housenumber": "3435", "addr:postcode": "60657", "addr:state": "IL", "addr:street": "North Sheffield Avenue", "amenity": "restaurant", "name": "Rice\u2019N Bread", "phone": "+1-773-281-4452", "website": "http://www.ricenbread.com/"}}, {"type": "node", "id": 6300993851, "lat": 41.9540054, "lon": -87.6752388, "tags": {"addr:city": "Chicago", "addr:housenumber": "1821", "addr:postcode": "60613", "addr:state": "IL", "addr:street": "West Irving Park Road", "amenity": "cafe", "name": "Ritual Coffeehouse"}}, {"type": "node", "id": 6301025352, "lat": 41.9406511, "lon": -87.6543865, "tags": {"addr:city": "Chicago", "addr:housenumber": "3222", "addr:postcode": "60657", "addr:state": "IL", "addr:street": "North Sheffield Avenue", "amenity": "bar", "name": "Room 13", "phone": "+1-773-472-2278", "website": "https://www.oldchicagoinn.com/room13/"}}, {"type": "node", "id": 6301035834, "lat": 41.9486374, "lon": -87.6579243, "tags": {"addr:city": "Chicago", "addr:housenumber": "3658", "addr:postcode": "60613", "addr:state": "IL", "addr:street": "North Clark Street", "amenity": "bar", "name": "Rizzo\u2019s Bar & Inn", "phone": "+1-773-799-8161", "website": "https://rizzosbarandinn.com/"}}, {"type": "node", "id": 6301794398, "lat": 41.9457853, "lon": -87.6550852, "tags": {"addr:city": "Chicago", "addr:housenumber": "3485", "addr:postcode": "60657", "addr:state": "IL", "addr:street": "North Clark Street", "amenity": "bar", "name": "Stretch Bar & Grill", "phone": "+1-773-755-3980"}}, {"type": "node", "id": 6302030514, "lat": 41.9400544, "lon": -87.663414, "tags": {"addr:city": "Chicago", "addr:housenumber": "1358", "addr:postcode": "60657", "addr:state": "IL", "addr:street": "West Belmont Avenue", "amenity": "restaurant", "name": "The Spanish Square", "phone": "+1-773-717-7900", "website": "http://www.thespanishsquare.com/"}}, {"type": "node", "id": 6303094091, "lat": 41.9507638, "lon": -87.663924, "tags": {"addr:city": "Chicago", "addr:housenumber": "3763", "addr:postcode": "60613", "addr:state": "IL", "addr:street": "North Southport Avenue", "amenity": "restaurant", "name": "Tango Sur", "phone": "+1-773-477-5466", "website": "http://tangosurgrill.com/"}}, {"type": "node", "id": 6304025839, "lat": 41.9534215, "lon": -87.6687019, "tags": {"addr:city": "Chicago", "addr:housenumber": "3931", "addr:postcode": "60613", "addr:state": "IL", "addr:street": "North Ashland Avenue", "amenity": "bar", "name": "Ten Cat Tavern", "phone": "+1-773-935-5377"}}, {"type": "node", "id": 6304074588, "lat": 41.9371009, "lon": -87.6681753, "tags": {"addr:city": "Chicago", "addr:housenumber": "3033", "addr:postcode": "60657", "addr:state": "IL", "addr:street": "North Ashland Avenue", "amenity": "restaurant", "name": "The Art of Pizza", "phone": "+1-773-327-5600", "website": "http://www.artofpizzachicago.com/"}}, {"type": "node", "id": 6304560818, "lat": 41.9539139, "lon": -87.6761056, "tags": {"addr:city": "Chicago", "addr:housenumber": "1851", "addr:postcode": "60613", "addr:state": "IL", "addr:street": "West Irving Park Road", "amenity": "bar", "name": "Timber Lanes", "phone": "+1-773-549-9770", "website": "http://www.timberlanesbowl.com/"}}, {"type": "node", "id": 6304575246, "lat": 41.9455007, "lon": -87.6547969, "tags": {"addr:city": "Chicago", "addr:housenumber": "3437", "addr:postcode": "60657", "addr:state": "IL", "addr:street": "North Clark Street", "amenity": "bar", "name": "Tinker to Evers, Wrigleyville", "phone": "+1-224-322-0100", "website": "http://unionpizza.com/tinker-to-evers/"}}, {"type": "node", "id": 6305246040, "lat": 41.9477863, "lon": -87.6572653, "tags": {"addr:city": "Chicago", "addr:housenumber": "3630", "addr:postcode": "60613", "addr:state": "IL", "addr:street": "North Clark Street", "amenity": "bar", "name": "The Bar at Hotel Zachary", "phone": "+1-773-302-2300", "website": "https://www.hotelzachary.com/cuisine-cocktails#the-bar-at-hotel-zachary"}}, {"type": "node", "id": 6305323576, "lat": 41.952445, "lon": -87.6637757, "tags": {"addr:city": "Chicago", "addr:housenumber": "3857", "addr:postcode": "60613", "addr:state": "IL", "addr:street": "North Southport Avenue", "amenity": "bar", "name": "Toons Bar & Grill", "phone": "+1-773-935-1919", "website": "https://www.chicagotoons.com/"}}, {"type": "node", "id": 6306522514, "lat": 41.9468004, "lon": -87.6637586, "tags": {"addr:city": "Chicago", "addr:housenumber": "3553", "addr:postcode": "60657", "addr:state": "IL", "addr:street": "North Southport Avenue", "amenity": "bar", "name": "The Butcher\u2019s Tap", "phone": "+1-773-325-0123", "website": "http://thebutcherstap.com/"}}, {"type": "node", "id": 6307031974, "lat": 41.9433812, "lon": -87.6592419, "tags": {"addr:city": "Chicago", "addr:housenumber": "1201", "addr:postcode": "60657", "addr:state": "IL", "addr:street": "West Roscoe Street", "amenity": "cafe", "cuisine": "coffee_shop", "name": "Two Hearted Queen", "phone": "+1-773-360-8189", "website": "http://twoheartedqueen.com/"}}, {"type": "node", "id": 6315245428, "lat": 41.9423073, "lon": -87.6707332, "tags": {"addr:city": "Chicago", "addr:housenumber": "3328", "addr:postcode": "60657", "addr:state": "IL", "addr:street": "North Lincoln Avenue", "amenity": "bar", "name": "The Green Lady", "phone": "+1-773-525-5571", "website": "http://thegreenlady-chicago.com/"}}, {"type": "node", "id": 6315632339, "lat": 41.9367992, "lon": -87.6649701, "tags": {"addr:city": "Chicago", "addr:housenumber": "3032", "addr:postcode": "60657", "addr:state": "IL", "addr:street": "North Lincoln Avenue", "amenity": "bar", "name": "The Land on Lincoln", "phone": "+1-872-802-0111", "website": "https://www.thelandonlincoln.com/"}}, {"type": "node", "id": 6315711823, "lat": 41.9398934, "lon": -87.6701961, "tags": {"addr:city": "Chicago", "addr:housenumber": "1638", "addr:postcode": "60657", "addr:state": "IL", "addr:street": "West Belmont Avenue", "amenity": "bar", "name": "The Pony Inn", "phone": "+1-312-453-9397", "website": "http://theponychicago.com/"}}, {"type": "node", "id": 6316695865, "lat": 41.9435937, "lon": -87.6709918, "tags": {"addr:city": "Chicago", "addr:housenumber": "3407", "addr:postcode": "60657", "addr:state": "IL", "addr:street": "North Paulina Street", "amenity": "bar", "name": "Waterhouse", "phone": "+1-773-871-1200", "website": "https://waterhousechicago.com/"}}, {"type": "node", "id": 6316960393, "lat": 41.9416503, "lon": -87.670303, "tags": {"addr:city": "Chicago", "addr:housenumber": "3300", "addr:postcode": "60657", "addr:state": "IL", "addr:street": "North Lincoln Avenue", "amenity": "restaurant", "cuisine": "southern", "name": "Wishbone", "phone": "+1-773-549-2663", "website": "http://www.wishbonenorth.com/"}}, {"type": "node", "id": 6319228417, "lat": 41.9530005, "lon": -87.6693021, "tags": {"addr:city": "Chicago", "addr:housenumber": "3916", "addr:postcode": "60613", "addr:state": "IL", "addr:street": "North Ashland Avenue", "amenity": "bar", "name": "Keenan O\u2019Reilly\u2019s", "phone": "+1-773-857-0866", "website": "http://www.interiordesignadeb.com/2018/02/15/wood-router-beginners/"}}, {"type": "node", "id": 6319305964, "lat": 41.9465972, "lon": -87.6759516, "tags": {"addr:city": "Chicago", "addr:housenumber": "1851", "addr:postcode": "60613", "addr:state": "IL", "addr:street": "West Addison Street", "amenity": "bar", "name": "Kite String Cantina", "phone": "+1-773-666-5221", "website": "https://www.kitestringcantina.com/"}}, {"type": "node", "id": 6319831697, "lat": 41.9399793, "lon": -87.6603361, "tags": {"addr:city": "Chicago", "addr:housenumber": "1232", "addr:postcode": "60657", "addr:state": "IL", "addr:street": "West Belmont Avenue", "amenity": "restaurant", "name": "Kubo Chicago", "phone": "+1-773-857-1408", "website": "https://www.kubochicago.com/"}}, {"type": "node", "id": 6320588149, "lat": 41.9439336, "lon": -87.6718975, "tags": {"addr:city": "Chicago", "addr:housenumber": "3422", "addr:postcode": "60657", "addr:state": "IL", "addr:street": "North Lincoln Avenue", "amenity": "cafe", "name": "Loba Pastry + Coffee", "phone": "+1-773-456-9266", "website": "http://www.lobapastry.com/"}}, {"type": "node", "id": 6321313539, "lat": 41.9523232, "lon": -87.6692843, "tags": {"addr:city": "Chicago", "addr:housenumber": "3856", "addr:postcode": "60613", "addr:state": "IL", "addr:street": "North Ashland Avenue", "amenity": "restaurant", "name": "Machu Picchu Restaurant", "phone": "+1-773-472-0471", "website": "http://www.machupicchuchicago.com/"}}, {"type": "node", "id": 6321621048, "lat": 41.9491041, "lon": -87.6733569, "tags": {"addr:city": "Chicago", "addr:housenumber": "3701", "addr:postcode": "60613", "addr:state": "IL", "addr:street": "North Ravenswood Avenue", "amenity": "cafe", "name": "Rare Tea Cellar", "phone": "+1-773-561-3000", "website": "https://rareteacellar.com/"}}, {"type": "node", "id": 6322005915, "lat": 41.9467598, "lon": -87.6642858, "tags": {"addr:city": "Chicago", "addr:housenumber": "3552", "addr:postcode": "60657", "addr:state": "IL", "addr:street": "North Southport Avenue", "amenity": "restaurant", "name": "Southport Grocery & Cafe", "phone": "+1-773-665-0100", "website": "https://southportgrocery.com/"}}, {"type": "node", "id": 6322972542, "lat": 41.9474494, "lon": -87.6539367, "tags": {"addr:city": "Chicago", "addr:housenumber": "950", "addr:postcode": "60613", "addr:state": "IL", "addr:street": "West Addison Street", "amenity": "bar", "name": "The Dugout Bar", "phone": "+1-773-661-6043", "website": "http://thedugoutpressbox.com"}}, {"type": "node", "id": 6323168600, "lat": 41.9457261, "lon": -87.655028, "tags": {"addr:city": "Chicago", "addr:housenumber": "3481", "addr:postcode": "60657", "addr:state": "IL", "addr:street": "North Clark Street", "amenity": "bar", "name": "Nola pub", "phone": "+1-773-661-1873", "website": "http://nolachicago.com/"}}, {"type": "node", "id": 6324383593, "lat": 41.9454037, "lon": -87.6641828, "tags": {"addr:city": "Chicago", "addr:housenumber": "3500", "addr:postcode": "60657", "addr:state": "IL", "addr:street": "North Southport Avenue", "amenity": "bar", "name": "Lange\u2019s Lounge", "phone": "+1-773-472-6030"}}, {"type": "node", "id": 6680245859, "lat": 41.9449518, "lon": -87.6550537, "tags": {"addr:city": "Chicago", "addr:housenumber": "3458", "addr:postcode": "60657", "addr:state": "IL", "addr:street": "North Clark Street", "amenity": "restaurant", "cuisine": "pizza", "name": "Happy Camper - Wrigleyville", "phone": "+1-312-872-5959"}}, {"type": "node", "id": 7237325570, "lat": 41.9435413, "lon": -87.6641016, "tags": {"amenity": "cafe", "brand": "Starbucks", "brand:wikidata": "Q37158", "brand:wikipedia": "en:Starbucks", "cuisine": "coffee_shop", "name": "Starbucks", "official_name": "Starbucks Coffee", "takeaway": "yes"}}, {"type": "node", "id": 7237325571, "lat": 41.9432141, "lon": -87.6689925, "tags": {"amenity": "restaurant", "name": "McGuigan\u2019s"}}, {"type": "node", "id": 7237325573, "lat": 41.9436911, "lon": -87.6544873, "tags": {"amenity": "restaurant", "name": "Penny\u2019s Noodle Shop"}}, {"type": "way", "id": 158622286, "nodes": [1707846189, 1707846196, 1707846198, 1707846206, 1707846207, 1707846203, 1707846189], "tags": {"addr:city": "Chicago", "addr:housenumber": "3664", "addr:postcode": "60613", "addr:state": "IL", "addr:street": "North Clark Street", "addr:street:name": "Clark", "addr:street:prefix": "North", "addr:street:type": "Street", "amenity": "bar", "building": "yes", "building:levels": "2", "chicago:building_id": "858483", "name": "Bernie's Tavern", "phone": "+1-773-525-1898", "website": "https://bernieschicago.com/"}}, {"type": "way", "id": 209885467, "nodes": [2200375720, 2200375703, 2200375475, 2200375272, 2200375176, 2200375147, 2200375315, 2200376304, 2200375720], "tags": {"addr:housenumber": "3008-3012", "addr:street": "North Lincoln Avenue", "addr:street:name": "Lincoln", "addr:street:prefix": "North", "addr:street:type": "Avenue", "amenity": "restaurant", "building": "yes", "building:levels": "2", "chicago:building_id": "882783"}}, {"type": "way", "id": 209895909, "nodes": [2200517049, 2200517417, 2200518044, 2200517588, 2200517060, 2200517049], "tags": {"addr:housenumber": "3244", "addr:street": "North Lincoln Avenue", "addr:street:name": "Lincoln", "addr:street:prefix": "North", "addr:street:type": "Avenue", "amenity": "bar", "building": "yes", "chicago:building_id": "204563", "name": "Northdown Taproom"}}, {"type": "way", "id": 209896758, "nodes": [2200532931, 2200536507, 2200536534, 2200533571, 2200532931], "tags": {"addr:housenumber": "3344-3352", "addr:street": "North Lincoln Avenue", "addr:street:name": "Lincoln", "addr:street:prefix": "North", "addr:street:type": "Avenue", "amenity": "cafe", "brand": "Starbucks", "brand:wikidata": "Q37158", "brand:wikipedia": "en:Starbucks", "building": "yes", "building:levels": "3", "chicago:building_id": "195770", "cuisine": "coffee_shop", "name": "Starbucks", "official_name": "Starbucks Coffee", "takeaway": "yes"}}, {"type": "way", "id": 209896761, "nodes": [2200533849, 2200536565, 2200537423, 2200538922, 2200537391, 2200536114, 2200533849], "tags": {"addr:housenumber": "3345-3349", "addr:street": "North Lincoln Avenue", "addr:street:name": "Lincoln", "addr:street:prefix": "North", "addr:street:type": "Avenue", "amenity": "bar", "building": "yes", "building:levels": "2", "chicago:building_id": "195128"}}, {"type": "way", "id": 210325183, "nodes": [2204095268, 2204095393, 2204095390, 2204095422, 2204095440, 2204095676, 2204095680, 2204095504, 2204095463, 2204095437, 2204095436, 2204095273, 2204095268], "tags": {"addr:city": "Chicago", "addr:housenumber": "1117", "addr:postcode": "60657", "addr:state": "IL", "addr:street": "West Belmont Avenue", "addr:street:name": "Belmont", "addr:street:prefix": "West", "addr:street:type": "Avenue", "alt_name": "Dark Matter Coffee", "amenity": "cafe", "building": "yes", "building:levels": "3", "chicago:building_id": "209518", "cuisine": "coffee_shop", "internet_access": "yes", "name": "Osmium Coffee", "opening_hours": "Mo-Su 06:00-21:00", "phone": "+1-773-360-7553", "website": "https://www.darkmattercoffee.com/"}}, {"type": "way", "id": 210328565, "nodes": [2204141516, 2204141593, 2204141595, 2204141590, 2204141519, 2204141516], "tags": {"addr:housenumber": "1017", "addr:street": "West Irving Park Road", "addr:street:name": "Irving Park", "addr:street:prefix": "West", "addr:street:type": "Road", "amenity": "restaurant", "building": "yes", "building:levels": "1", "chicago:building_id": "151584", "name": "Byron's Hot Dogs"}}, {"type": "way", "id": 210329583, "nodes": [2204119458, 2204119738, 2204119487, 2204119217, 2204119458], "tags": {"addr:housenumber": "3461", "addr:street": "North Clark Street", "addr:street:name": "Clark", "addr:street:prefix": "North", "addr:street:type": "Street", "amenity": "restaurant", "building": "yes", "chicago:building_id": "882929", "cuisine": "middle_eastern", "name": "Zam Zam", "website": "http://www.zamzammiddleeasterngrillil.com/"}}, {"type": "way", "id": 210329586, "nodes": [2204119738, 2204119458, 2204119688, 2204120016, 2204119738], "tags": {"addr:housenumber": "3463", "addr:street": "North Clark Street", "addr:street:name": "Clark", "addr:street:prefix": "North", "addr:street:type": "Street", "amenity": "restaurant", "building": "yes", "chicago:building_id": "882930", "cuisine": "pizza", "name": "Dimo's", "website": "https://dimospizza.com/"}}]}