{"version": 0.6, "generator": "Overpass API 0.7.56.1004 6cd3eaec", "osm3s": {"timestamp_osm_base": "2020-07-22T04:19:02Z", "copyright": "The data included in this document is from www.openstreetmap.org. The data is made available under ODbL."}, "elements": [{"type": "node", "id": 261137171, "lat": 41.789634, "lon": -87.5947984}, {"type": "node", "id": 261139500, "lat": 41.7896618, "lon": -87.5915553}, {"type": "node", "id": 261139501, "lat": 41.7896475, "lon": -87.593169}, {"type": "node", "id": 261192510, "lat": 41.7932495, "lon": -87.5981069}, {"type": "node", "id": 261192511, "lat": 41.7914254, "lon": -87.5980749}, {"type": "node", "id": 261202782, "lat": 41.7914457, "lon": -87.59646, "tags": {"highway": "traffic_signals"}}, {"type": "node", "id": 1569129786, "lat": 41.7923579, "lon": -87.5980945}, {"type": "node", "id": 1587772175, "lat": 41.7886413, "lon": -87.5915309}, {"type": "node", "id": 1674040525, "lat": 41.7896504, "lon": -87.5928392}, {"type": "node", "id": 1685262396, "lat": 41.7904707, "lon": -87.5956245}, {"type": "node", "id": 1685262407, "lat": 41.7896407, "lon": -87.5939861}, {"type": "node", "id": 1685262428, "lat": 41.7896269, "lon": -87.5956037}, {"type": "node", "id": 1685262461, "lat": 41.7914529, "lon": -87.5956491}, {"type": "node", "id": 1685296310, "lat": 41.7914355, "lon": -87.5972717}, {"type": "node", "id": 2380367815, "lat": 41.7877878, "lon": -87.6059295}, {"type": "node", "id": 2380367821, "lat": 41.7912756, "lon": -87.606037}, {"type": "node", "id": 3259301888, "lat": 41.7949312, "lon": -87.5981693}, {"type": "node", "id": 4565736806, "lat": 41.7942958, "lon": -87.6188422, "tags": {"addr:city": "Chicago", "addr:housenumber": "305", "addr:postcode": "60637", "addr:state": "IL", "addr:street": "East Garfield Boulevard", "amenity": "cafe", "cuisine": "coffee_shop", "name": "Peach\u2019s at Currency Exchange Cafe", "opening_hours": "Mo-Sa 08:00-16:00; Su 10:00-16:00", "phone": "+1-312-300-4471", "website": "https://peachs-exchange.com/"}}, {"type": "node", "id": 4584322194, "lat": 41.7837978, "lon": -87.6130835, "tags": {"addr:city": "Chicago", "addr:housenumber": "501", "addr:postcode": "60637", "addr:state": "IL", "addr:street": "East 61st Street", "amenity": "cafe", "name": "Greenline Coffee", "phone": "+1-773-729-2282", "website": "https://www.greenlinecoffee.net/"}}, {"type": "node", "id": 5322743176, "lat": 41.7925886, "lon": -87.6060695}, {"type": "node", "id": 5545781672, "lat": 41.7879529, "lon": -87.5902808}, {"type": "node", "id": 5545781673, "lat": 41.7884906, "lon": -87.5915292}, {"type": "node", "id": 5545781674, "lat": 41.7885077, "lon": -87.5902419}, {"type": "node", "id": 5545781677, "lat": 41.788231, "lon": -87.5902281}, {"type": "node", "id": 5545781678, "lat": 41.7882433, "lon": -87.589449}, {"type": "node", "id": 5546046954, "lat": 41.7884909, "lon": -87.5915063}, {"type": "node", "id": 5546046956, "lat": 41.7879605, "lon": -87.5894438}, {"type": "node", "id": 5546076600, "lat": 41.7905388, "lon": -87.5956262}, {"type": "node", "id": 5622914298, "lat": 41.794856, "lon": -87.6060849}, {"type": "node", "id": 5885767564, "lat": 41.7949763, "lon": -87.5981734}, {"type": "node", "id": 6154685400, "lat": 41.7841734, "lon": -87.6133639, "tags": {"addr:city": "Chicago", "addr:housenumber": "6052", "addr:postcode": "60637", "addr:state": "IL", "addr:street": "South Eberhart Avenue", "amenity": "restaurant", "name": "2 Potz & A Pan Eatery"}}, {"type": "node", "id": 6287044275, "lat": 41.7935527, "lon": -87.6259992, "tags": {"addr:city": "Chicago", "addr:housenumber": "5522", "addr:postcode": "60621", "addr:state": "IL", "addr:street": "South State Street", "amenity": "cafe", "name": "Evelyns Food Love", "phone": "+1-872-818-5557", "website": "http://www.evelynsfoodlove.com/home.html"}}, {"type": "node", "id": 6323815885, "lat": 41.7941908, "lon": -87.6202992, "tags": {"addr:city": "Chicago", "addr:housenumber": "211", "addr:postcode": "60637", "addr:state": "IL", "addr:street": "East Garfield Boulevard", "amenity": "bar", "name": "Odyssey II", "phone": "+1-773-947-0956"}}, {"type": "node", "id": 7244535738, "lat": 41.7889594, "lon": -87.5915385}, {"type": "way", "id": 145510728, "nodes": [5885767564, 5622914298, 5322743176, 2380367821, 2380367815, 5545781672, 5546046956, 5545781678, 5545781677, 5545781674, 5546046954, 5545781673, 1587772175, 7244535738, 261139500, 1674040525, 261139501, 1685262407, 261137171, 1685262428, 1685262396, 5546076600, 1685262461, 261202782, 1685296310, 261192511, 1569129786, 261192510, 3259301888, 5885767564], "tags": {"addr:city": "Chicago", "addr:housenumber": "5801", "addr:postcode": "60637", "addr:state": "IL", "addr:street": "South Ellis Avenue", "amenity": "university", "name": "The University of Chicago", "phone": "+1 773.702.1234", "website": "https://uchicago.edu", "wikidata": "Q131252", "wikipedia": "en:University of Chicago"}}]}