{"version": 0.6, "generator": "Overpass API 0.7.56.3 eb200aeb", "osm3s": {"timestamp_osm_base": "2020-07-04T01:29:03Z", "copyright": "The data included in this document is from www.openstreetmap.org. The data is made available under ODbL."}, "elements": [{"type": "node", "id": 102700741, "lat": 41.9040664, "lon": -87.6370818}, {"type": "node", "id": 102700742, "lat": 41.9049268, "lon": -87.6371354}, {"type": "node", "id": 102700743, "lat": 41.9096537, "lon": -87.6373046}, {"type": "node", "id": 102700744, "lat": 41.9099371, "lon": -87.6373446}, {"type": "node", "id": 102700746, "lat": 41.9101308, "lon": -87.6374573}, {"type": "node", "id": 102700747, "lat": 41.9102745, "lon": -87.6376182}, {"type": "node", "id": 102700749, "lat": 41.9103643, "lon": -87.6378409}, {"type": "node", "id": 102700753, "lat": 41.9103433, "lon": -87.6439898}, {"type": "node", "id": 102700754, "lat": 41.9103327, "lon": -87.6466481}, {"type": "node", "id": 102700755, "lat": 41.9103652, "lon": -87.6469937}, {"type": "node", "id": 102700756, "lat": 41.9104075, "lon": -87.6471363}, {"type": "node", "id": 102700757, "lat": 41.9105504, "lon": -87.6473164}, {"type": "node", "id": 102700758, "lat": 41.9107814, "lon": -87.6474136}, {"type": "node", "id": 102700760, "lat": 41.9110959, "lon": -87.6474316}, {"type": "node", "id": 102700762, "lat": 41.9111719, "lon": -87.6474399}, {"type": "node", "id": 102700763, "lat": 41.9114697, "lon": -87.6477193}, {"type": "node", "id": 102700764, "lat": 41.9115062, "lon": -87.6478423}, {"type": "node", "id": 102700765, "lat": 41.9114966, "lon": -87.6489117}, {"type": "node", "id": 102700766, "lat": 41.9115594, "lon": -87.6493837}, {"type": "node", "id": 102700767, "lat": 41.9116877, "lon": -87.6496882}, {"type": "node", "id": 102700768, "lat": 41.9119533, "lon": -87.6500707}, {"type": "node", "id": 102715638, "lat": 41.8899771, "lon": -87.6350485}, {"type": "node", "id": 102715639, "lat": 41.8901088, "lon": -87.6353397}, {"type": "node", "id": 102715641, "lat": 41.8902777, "lon": -87.6355083}, {"type": "node", "id": 102715642, "lat": 41.8903896, "lon": -87.635553}, {"type": "node", "id": 102715644, "lat": 41.8905054, "lon": -87.6355704}, {"type": "node", "id": 102715646, "lat": 41.8927186, "lon": -87.63562}, {"type": "node", "id": 102715648, "lat": 41.894809, "lon": -87.6356817}, {"type": "node", "id": 102715649, "lat": 41.8962625, "lon": -87.6357112}, {"type": "node", "id": 102715650, "lat": 41.8965048, "lon": -87.6357541}, {"type": "node", "id": 102715652, "lat": 41.8966371, "lon": -87.6358382}, {"type": "node", "id": 102715653, "lat": 41.8967055, "lon": -87.6359094}, {"type": "node", "id": 102715654, "lat": 41.8970901, "lon": -87.6363916}, {"type": "node", "id": 102715655, "lat": 41.8972698, "lon": -87.6365464}, {"type": "node", "id": 102715657, "lat": 41.8974891, "lon": -87.6365918}, {"type": "node", "id": 102715659, "lat": 41.9012211, "lon": -87.636734}, {"type": "node", "id": 102715660, "lat": 41.9014093, "lon": -87.636724}, {"type": "node", "id": 102715661, "lat": 41.901547, "lon": -87.6366902}, {"type": "node", "id": 102715662, "lat": 41.9017706, "lon": -87.6366312}, {"type": "node", "id": 102715663, "lat": 41.9019862, "lon": -87.6365668}, {"type": "node", "id": 102715664, "lat": 41.9021699, "lon": -87.6365024}, {"type": "node", "id": 102715665, "lat": 41.9023675, "lon": -87.6365132}, {"type": "node", "id": 257955767, "lat": 41.8895009, "lon": -87.634069}, {"type": "node", "id": 257955768, "lat": 41.8896909, "lon": -87.6341776}, {"type": "node", "id": 257955769, "lat": 41.8898236, "lon": -87.634359}, {"type": "node", "id": 257955770, "lat": 41.8898777, "lon": -87.6345237}, {"type": "node", "id": 258941527, "lat": 41.8890179, "lon": -87.6340396}, {"type": "node", "id": 258960941, "lat": 41.9025695, "lon": -87.6365836}, {"type": "node", "id": 258960942, "lat": 41.9027931, "lon": -87.6367467}, {"type": "node", "id": 258960943, "lat": 41.9029976, "lon": -87.6369012}, {"type": "node", "id": 258960944, "lat": 41.9031892, "lon": -87.6369956}, {"type": "node", "id": 258960945, "lat": 41.9034256, "lon": -87.6370496}, {"type": "node", "id": 258960946, "lat": 41.9104046, "lon": -87.6381236}, {"type": "node", "id": 258960947, "lat": 41.9115177, "lon": -87.6479852}, {"type": "node", "id": 286369226, "lat": 41.9252157, "lon": -87.6590264}, {"type": "node", "id": 286369232, "lat": 41.9236965, "lon": -87.6511635}, {"type": "node", "id": 286369233, "lat": 41.9236653, "lon": -87.6529154}, {"type": "node", "id": 286369234, "lat": 41.9218369, "lon": -87.6536137}, {"type": "node", "id": 286369235, "lat": 41.9218071, "lon": -87.6545905}, {"type": "node", "id": 286369237, "lat": 41.9235769, "lon": -87.6582718}, {"type": "node", "id": 286369306, "lat": 41.9263468, "lon": -87.6529996}, {"type": "node", "id": 286369307, "lat": 41.9253718, "lon": -87.6529784}, {"type": "node", "id": 286369308, "lat": 41.9250203, "lon": -87.6512022}, {"type": "node", "id": 286369309, "lat": 41.9243434, "lon": -87.6511679}, {"type": "node", "id": 286369311, "lat": 41.9236164, "lon": -87.6546637}, {"type": "node", "id": 307890165, "lat": 41.9253504, "lon": -87.6498796}, {"type": "node", "id": 307890172, "lat": 41.9237168, "lon": -87.6497863}, {"type": "node", "id": 308675507, "lat": 41.9244322, "lon": -87.6511724}, {"type": "node", "id": 370093716, "lat": 41.9253655, "lon": -87.6489723}, {"type": "node", "id": 370093749, "lat": 41.9237371, "lon": -87.64883}, {"type": "node", "id": 370093752, "lat": 41.9253329, "lon": -87.6488812}, {"type": "node", "id": 389151978, "lat": 41.9406317, "lon": -87.6534888}, {"type": "node", "id": 416770215, "lat": 41.9243826, "lon": -87.6582994}, {"type": "node", "id": 416770216, "lat": 41.9243744, "lon": -87.6589981}, {"type": "node", "id": 417255771, "lat": 41.925225, "lon": -87.6583375}, {"type": "node", "id": 417255772, "lat": 41.9258596, "lon": -87.6583677}, {"type": "node", "id": 417255773, "lat": 41.9258724, "lon": -87.6576982}, {"type": "node", "id": 417255774, "lat": 41.9252849, "lon": -87.6576725}, {"type": "node", "id": 417255775, "lat": 41.9258658, "lon": -87.6554215}, {"type": "node", "id": 417255776, "lat": 41.9263308, "lon": -87.6545006}, {"type": "node", "id": 417695075, "lat": 41.9132988, "lon": -87.6542733, "tags": {"addr:city": "Chicago", "addr:housenumber": "1800", "addr:postcode": "60614", "addr:state": "IL", "addr:street": "North Clybourn Avenue", "amenity": "pub", "name": "Goose Island Brewpub"}}, {"type": "node", "id": 452377015, "lat": 41.9241152, "lon": -87.6498508}, {"type": "node", "id": 452377016, "lat": 41.9237193, "lon": -87.6498337}, {"type": "node", "id": 463772252, "lat": 41.9217617, "lon": -87.6594316, "tags": {"amenity": "pub", "name": "Charlie's Bar & Grill"}}, {"type": "node", "id": 463772253, "lat": 41.9217681, "lon": -87.6585218, "tags": {"addr:city": "Chicago", "addr:housenumber": "1200", "addr:postcode": "60614", "addr:state": "IL", "addr:street": "West Webster Avenue", "amenity": "restaurant", "cuisine": "mexican", "name": "Old Pueblo Cantina", "phone": "+1-773-697-3727", "website": "http://oldpueblochicago.com/"}}, {"type": "node", "id": 463772258, "lat": 41.9215701, "lon": -87.6568052, "tags": {"amenity": "restaurant", "name": "La Canasta Grill"}}, {"type": "node", "id": 463772259, "lat": 41.9218128, "lon": -87.6561701, "tags": {"addr:city": "Chicago", "addr:housenumber": "1102", "addr:postcode": "60614", "addr:state": "IL", "addr:street": "West Webster Avenue", "amenity": "pub", "name": "Local Option", "opening_hours:url": "http://localoptionbier.com/info/", "phone": "+1-773\u2013348\u20132008", "smoking": "outside", "website": "http://localoptionbier.com/"}}, {"type": "node", "id": 477087140, "lat": 41.9233904, "lon": -87.6460993, "tags": {"addr:city": "Chicago", "addr:housenumber": "2274", "addr:postcode": "60614", "addr:state": "IL", "addr:street": "North Lincoln Avenue", "amenity": "bar", "name": "Halligan Bar", "phone": "+1-773-472-7940", "website": "https://halliganbarchicago.com/"}}, {"type": "node", "id": 477087268, "lat": 41.9182758, "lon": -87.6529267, "tags": {"addr:city": "Chicago", "addr:country": "US", "addr:housenumber": "950", "addr:postcode": "60614", "addr:state": "IL", "addr:street": "West Armitage Avenue", "amenity": "pub", "building": "residential", "name": "Kincade's", "phone": "+1-773-348-0010", "source": "Bing 2012", "website": "http://www.kincadesbar.com/"}}, {"type": "node", "id": 477087270, "lat": 41.9216452, "lon": -87.6529693, "tags": {"addr:city": "Chicago", "addr:housenumber": "949", "addr:postcode": "60614", "addr:state": "IL", "addr:street": "West Webster Avenue", "amenity": "bar", "name": "Kelly's Pub", "opening_hours": "Su-Fr 11:00-02:00; Sa 11:00-03:00", "phone": "+1-773-281-0656", "website": "http://www.kellyspub.com"}}, {"type": "node", "id": 477087275, "lat": 41.921864, "lon": -87.6529887, "tags": {"amenity": "pub", "name": "McGee's"}}, {"type": "node", "id": 477087276, "lat": 41.9216551, "lon": -87.6525244, "tags": {"addr:city": "Chicago", "addr:housenumber": "935", "addr:postcode": "60614", "addr:state": "IL", "addr:street": "West Webster Avenue", "amenity": "restaurant", "cuisine": "american", "name": "State Restaurant", "opening_hours": "Mo-Th 16:00-00:00; Fr 11:00-02:00; Sa 11:00-03:00; Su 11:00-00:00", "phone": "+1-773-975-8030", "website": "http://www.state-chicago.com"}}, {"type": "node", "id": 477087310, "lat": 41.9216973, "lon": -87.6488467, "tags": {"addr:city": "Chicago", "addr:housenumber": "2158", "addr:postcode": "60614", "addr:state": "IL", "addr:street": "North Halsted Street", "amenity": "bar", "name": "Glasscott's", "phone": "+1-773-281-1205", "website": "http://www.glascotts.com/"}}, {"type": "node", "id": 734513059, "lat": 41.961376, "lon": -87.657008, "tags": {"railway": "switch"}}, {"type": "node", "id": 734513169, "lat": 41.962834, "lon": -87.6573178, "tags": {"railway": "switch"}}, {"type": "node", "id": 734513174, "lat": 41.9619793, "lon": -87.6570845, "tags": {"railway": "switch"}}, {"type": "node", "id": 734513347, "lat": 41.9618278, "lon": -87.6570429}, {"type": "node", "id": 734513348, "lat": 41.9617141, "lon": -87.6570255}, {"type": "node", "id": 734513350, "lat": 41.9615934, "lon": -87.6570174}, {"type": "node", "id": 734513351, "lat": 41.9609282, "lon": -87.6569986}, {"type": "node", "id": 734513352, "lat": 41.9603309, "lon": -87.6569812}, {"type": "node", "id": 734513354, "lat": 41.9598702, "lon": -87.6569705}, {"type": "node", "id": 734562812, "lat": 41.9421673, "lon": -87.6534414, "tags": {"railway": "switch"}}, {"type": "node", "id": 734562821, "lat": 41.9417593, "lon": -87.6534782, "tags": {"railway": "switch"}}, {"type": "node", "id": 734562832, "lat": 41.9415957, "lon": -87.6533415, "tags": {"railway": "switch"}}, {"type": "node", "id": 734562834, "lat": 41.9420765, "lon": -87.6533951, "tags": {"railway": "switch"}}, {"type": "node", "id": 734562847, "lat": 41.9415937, "lon": -87.653387, "tags": {"railway": "switch"}}, {"type": "node", "id": 734562891, "lat": 41.9424765, "lon": -87.6534461, "tags": {"railway": "switch"}}, {"type": "node", "id": 734562951, "lat": 41.9494788, "lon": -87.6536754, "tags": {"railway": "switch"}}, {"type": "node", "id": 734562975, "lat": 41.9411627, "lon": -87.6533804, "tags": {"railway": "switch"}}, {"type": "node", "id": 734562978, "lat": 41.9415258, "lon": -87.6533857, "tags": {"railway": "switch"}}, {"type": "node", "id": 734562998, "lat": 41.9411667, "lon": -87.6534246, "tags": {"railway": "switch"}}, {"type": "node", "id": 734563009, "lat": 41.9415278, "lon": -87.6534311, "tags": {"railway": "switch"}}, {"type": "node", "id": 734563017, "lat": 41.9421643, "lon": -87.6534863, "tags": {"railway": "switch"}}, {"type": "node", "id": 734563039, "lat": 41.9417593, "lon": -87.6534353, "tags": {"railway": "switch"}}, {"type": "node", "id": 734563141, "lat": 41.9422401, "lon": -87.6534882, "tags": {"railway": "switch"}}, {"type": "node", "id": 734563920, "lat": 41.9496893, "lon": -87.6536807, "tags": {"railway": "switch"}}, {"type": "node", "id": 734563942, "lat": 41.9403845, "lon": -87.6532032}, {"type": "node", "id": 734565033, "lat": 41.9586814, "lon": -87.656937}, {"type": "node", "id": 734565043, "lat": 41.9578467, "lon": -87.6569142}, {"type": "node", "id": 734565049, "lat": 41.9569401, "lon": -87.6568887}, {"type": "node", "id": 734565056, "lat": 41.9560595, "lon": -87.6568645}, {"type": "node", "id": 734565061, "lat": 41.9547919, "lon": -87.6568364}, {"type": "node", "id": 734565069, "lat": 41.9546543, "lon": -87.6568283}, {"type": "node", "id": 734565079, "lat": 41.9545475, "lon": -87.6568122}, {"type": "node", "id": 734565084, "lat": 41.9544239, "lon": -87.6567787}, {"type": "node", "id": 734565088, "lat": 41.9543092, "lon": -87.6567344}, {"type": "node", "id": 734565092, "lat": 41.9542035, "lon": -87.6566821}, {"type": "node", "id": 734565097, "lat": 41.9541157, "lon": -87.6566218}, {"type": "node", "id": 734565102, "lat": 41.9540618, "lon": -87.6565641}, {"type": "node", "id": 734565108, "lat": 41.953995, "lon": -87.6564689}, {"type": "node", "id": 734565111, "lat": 41.9539501, "lon": -87.6563777}, {"type": "node", "id": 734565117, "lat": 41.9539103, "lon": -87.6562473}, {"type": "node", "id": 734565126, "lat": 41.9538903, "lon": -87.6561538}, {"type": "node", "id": 734565136, "lat": 41.9538772, "lon": -87.6560589}, {"type": "node", "id": 734565144, "lat": 41.9538666, "lon": -87.6558511}, {"type": "node", "id": 734565150, "lat": 41.9538876, "lon": -87.6546036}, {"type": "node", "id": 734565156, "lat": 41.9538849, "lon": -87.654509}, {"type": "node", "id": 734565163, "lat": 41.9538588, "lon": -87.6542894}, {"type": "node", "id": 734565167, "lat": 41.9537975, "lon": -87.6540595}, {"type": "node", "id": 734565170, "lat": 41.9537606, "lon": -87.6539838}, {"type": "node", "id": 734565173, "lat": 41.9536918, "lon": -87.6538806}, {"type": "node", "id": 734565178, "lat": 41.953624, "lon": -87.6538108}, {"type": "node", "id": 734565206, "lat": 41.9535462, "lon": -87.6537572}, {"type": "node", "id": 734565211, "lat": 41.9534524, "lon": -87.6537129}, {"type": "node", "id": 734565215, "lat": 41.9533358, "lon": -87.6536834}, {"type": "node", "id": 734565219, "lat": 41.953231, "lon": -87.6536767}, {"type": "node", "id": 734565223, "lat": 41.9528042, "lon": -87.6536593}, {"type": "node", "id": 734565228, "lat": 41.9526506, "lon": -87.6536593}, {"type": "node", "id": 734565232, "lat": 41.9525049, "lon": -87.65367}, {"type": "node", "id": 734565236, "lat": 41.9523025, "lon": -87.6537049}, {"type": "node", "id": 734565240, "lat": 41.9521948, "lon": -87.653717}, {"type": "node", "id": 734565243, "lat": 41.9520701, "lon": -87.6537223}, {"type": "node", "id": 734565245, "lat": 41.9513919, "lon": -87.6537022}, {"type": "node", "id": 734565246, "lat": 41.9510887, "lon": -87.6536955}, {"type": "node", "id": 734565247, "lat": 41.950963, "lon": -87.6536955}, {"type": "node", "id": 734565249, "lat": 41.9507176, "lon": -87.6537076}, {"type": "node", "id": 734565252, "lat": 41.950569, "lon": -87.6537062}, {"type": "node", "id": 734565256, "lat": 41.9502947, "lon": -87.6536995}, {"type": "node", "id": 734565261, "lat": 41.9489512, "lon": -87.6536566}, {"type": "node", "id": 734565267, "lat": 41.9487317, "lon": -87.653662}, {"type": "node", "id": 734565272, "lat": 41.9483398, "lon": -87.6536821}, {"type": "node", "id": 734565276, "lat": 41.9481393, "lon": -87.6536928}, {"type": "node", "id": 734565281, "lat": 41.9479837, "lon": -87.6536928}, {"type": "node", "id": 734565285, "lat": 41.947512, "lon": -87.653676, "tags": {"name": "Addison", "network": "CTA", "operator": "Chicago Transit Authority", "public_transport": "stop_position", "railway": "stop", "subway": "yes"}}, {"type": "node", "id": 734565289, "lat": 41.9470848, "lon": -87.6536692}, {"type": "node", "id": 734565294, "lat": 41.9468595, "lon": -87.6536539}, {"type": "node", "id": 734565300, "lat": 41.9464695, "lon": -87.653611}, {"type": "node", "id": 734565304, "lat": 41.9463059, "lon": -87.6535949}, {"type": "node", "id": 734565307, "lat": 41.9461813, "lon": -87.6535869}, {"type": "node", "id": 734565311, "lat": 41.9459907, "lon": -87.6535788}, {"type": "node", "id": 734565316, "lat": 41.9455568, "lon": -87.6535694}, {"type": "node", "id": 734565320, "lat": 41.9447419, "lon": -87.653544}, {"type": "node", "id": 734565333, "lat": 41.9446391, "lon": -87.6535386}, {"type": "node", "id": 734565335, "lat": 41.9445494, "lon": -87.6535265}, {"type": "node", "id": 734565337, "lat": 41.9444476, "lon": -87.6534997}, {"type": "node", "id": 734565339, "lat": 41.944292, "lon": -87.6534568}, {"type": "node", "id": 734565345, "lat": 41.9441932, "lon": -87.6534407}, {"type": "node", "id": 734565350, "lat": 41.9440785, "lon": -87.653434}, {"type": "node", "id": 734565355, "lat": 41.9438052, "lon": -87.65343}, {"type": "node", "id": 734565360, "lat": 41.9432336, "lon": -87.6534125}, {"type": "node", "id": 734565366, "lat": 41.943104, "lon": -87.6534125}, {"type": "node", "id": 734565374, "lat": 41.9429763, "lon": -87.6534219}, {"type": "node", "id": 734565385, "lat": 41.9427359, "lon": -87.6534474}, {"type": "node", "id": 734565393, "lat": 41.9426251, "lon": -87.6534514}, {"type": "node", "id": 734565397, "lat": 41.9403137, "lon": -87.6533674}, {"type": "node", "id": 734573145, "lat": 41.9404701, "lon": -87.653327}, {"type": "node", "id": 739321890, "lat": 41.9264996, "lon": -87.6528602}, {"type": "node", "id": 739321893, "lat": 41.9264727, "lon": -87.652903}, {"type": "node", "id": 739321896, "lat": 41.9267393, "lon": -87.6528661, "tags": {"railway": "switch"}}, {"type": "node", "id": 739321897, "lat": 41.9270995, "lon": -87.6529224, "tags": {"railway": "switch"}}, {"type": "node", "id": 739321898, "lat": 41.9351261, "lon": -87.653196, "tags": {"railway": "switch"}}, {"type": "node", "id": 739321899, "lat": 41.9354493, "lon": -87.6531683, "tags": {"railway": "switch"}}, {"type": "node", "id": 739322024, "lat": 41.917966, "lon": -87.652561, "tags": {"name": "Armitage", "network": "CTA", "operator": "Chicago Transit Authority", "public_transport": "stop_position", "railway": "stop", "subway": "yes"}}, {"type": "node", "id": 739322025, "lat": 41.917963, "lon": -87.652677, "tags": {"name": "Armitage", "network": "CTA", "operator": "Chicago Transit Authority", "public_transport": "stop_position", "railway": "stop", "subway": "yes"}}, {"type": "node", "id": 739322063, "lat": 41.9130849, "lon": -87.6516381}, {"type": "node", "id": 739322134, "lat": 41.9154035, "lon": -87.6525188}, {"type": "node", "id": 739322135, "lat": 41.9154055, "lon": -87.6525563}, {"type": "node", "id": 739322136, "lat": 41.9171958, "lon": -87.6526207}, {"type": "node", "id": 739322141, "lat": 41.919498, "lon": -87.6526234, "tags": {"railway": "switch"}}, {"type": "node", "id": 739322142, "lat": 41.9198573, "lon": -87.652677, "tags": {"railway": "switch"}}, {"type": "node", "id": 739322147, "lat": 41.9230155, "lon": -87.6528245, "tags": {"railway": "switch"}}, {"type": "node", "id": 739322149, "lat": 41.9225465, "lon": -87.6528538, "tags": {"railway": "switch"}}, {"type": "node", "id": 739322154, "lat": 41.9171938, "lon": -87.6525791}, {"type": "node", "id": 739322172, "lat": 41.9210986, "lon": -87.6528066, "tags": {"railway": "switch"}}, {"type": "node", "id": 739322174, "lat": 41.9207244, "lon": -87.6527508, "tags": {"railway": "switch"}}, {"type": "node", "id": 739322178, "lat": 41.9207274, "lon": -87.6527079, "tags": {"railway": "switch"}}, {"type": "node", "id": 739322179, "lat": 41.9210986, "lon": -87.652673, "tags": {"railway": "switch"}}, {"type": "node", "id": 739322183, "lat": 41.9203702, "lon": -87.6527401, "tags": {"railway": "switch"}}, {"type": "node", "id": 739322185, "lat": 41.9200129, "lon": -87.6526837, "tags": {"railway": "switch"}}, {"type": "node", "id": 739322190, "lat": 41.9200139, "lon": -87.652728, "tags": {"railway": "switch"}}, {"type": "node", "id": 739322192, "lat": 41.9203682, "lon": -87.6526958, "tags": {"railway": "switch"}}, {"type": "node", "id": 739322195, "lat": 41.9198573, "lon": -87.652724, "tags": {"railway": "switch"}}, {"type": "node", "id": 739322196, "lat": 41.9195082, "lon": -87.6527474, "tags": {"railway": "switch"}}, {"type": "node", "id": 739322207, "lat": 41.9375454, "lon": -87.6532363, "tags": {"railway": "switch"}}, {"type": "node", "id": 739322209, "lat": 41.9379005, "lon": -87.6532926, "tags": {"railway": "switch"}}, {"type": "node", "id": 739322214, "lat": 41.9272362, "lon": -87.6530016, "tags": {"railway": "switch"}}, {"type": "node", "id": 739322216, "lat": 41.9267653, "lon": -87.6529452, "tags": {"railway": "switch"}}, {"type": "node", "id": 739322222, "lat": 41.9272402, "lon": -87.65296, "tags": {"railway": "switch"}}, {"type": "node", "id": 739322223, "lat": 41.9267663, "lon": -87.6529882, "tags": {"railway": "switch"}}, {"type": "node", "id": 739322226, "lat": 41.9230125, "lon": -87.6528701, "tags": {"railway": "switch"}}, {"type": "node", "id": 739322228, "lat": 41.9225475, "lon": -87.6528085, "tags": {"railway": "switch"}}, {"type": "node", "id": 739322247, "lat": 41.9378986, "lon": -87.6533818, "tags": {"railway": "switch"}}, {"type": "node", "id": 739322248, "lat": 41.9375554, "lon": -87.6533248, "tags": {"railway": "switch"}}, {"type": "node", "id": 739322251, "lat": 41.9379035, "lon": -87.6533355, "tags": {"railway": "switch"}}, {"type": "node", "id": 739322253, "lat": 41.9375594, "lon": -87.6533704, "tags": {"railway": "switch"}}, {"type": "node", "id": 739322257, "lat": 41.9375484, "lon": -87.6532805, "tags": {"railway": "switch"}}, {"type": "node", "id": 739322259, "lat": 41.9379005, "lon": -87.6532538, "tags": {"railway": "switch"}}, {"type": "node", "id": 739322272, "lat": 41.9404621, "lon": -87.6534906}, {"type": "node", "id": 739322277, "lat": 41.9389827, "lon": -87.653446}, {"type": "node", "id": 739322278, "lat": 41.9387546, "lon": -87.6534329}, {"type": "node", "id": 739322279, "lat": 41.9385148, "lon": -87.6534131}, {"type": "node", "id": 739322280, "lat": 41.9382599, "lon": -87.6533864}, {"type": "node", "id": 739322281, "lat": 41.936405, "lon": -87.653318, "tags": {"name": "Wellington", "network": "CTA", "operator": "Chicago Transit Authority", "public_transport": "stop_position", "railway": "stop", "subway": "yes"}}, {"type": "node", "id": 739322282, "lat": 41.9358492, "lon": -87.6532991}, {"type": "node", "id": 739322283, "lat": 41.9350281, "lon": -87.6532786}, {"type": "node", "id": 739322284, "lat": 41.934809, "lon": -87.6532673}, {"type": "node", "id": 739322285, "lat": 41.9346373, "lon": -87.6532537}, {"type": "node", "id": 739322286, "lat": 41.9344667, "lon": -87.6532309}, {"type": "node", "id": 739322287, "lat": 41.934339, "lon": -87.6532229}, {"type": "node", "id": 739322288, "lat": 41.9341604, "lon": -87.6532175}, {"type": "node", "id": 739322289, "lat": 41.9337364, "lon": -87.6532014}, {"type": "node", "id": 739322290, "lat": 41.9334336, "lon": -87.6531935}, {"type": "node", "id": 739322295, "lat": 41.9331868, "lon": -87.6531945}, {"type": "node", "id": 739322296, "lat": 41.9330633, "lon": -87.653189}, {"type": "node", "id": 739322303, "lat": 41.931905, "lon": -87.653165}, {"type": "node", "id": 739322306, "lat": 41.9310187, "lon": -87.6531397}, {"type": "node", "id": 739322308, "lat": 41.9303662, "lon": -87.6531142}, {"type": "node", "id": 739322309, "lat": 41.9299142, "lon": -87.6531035}, {"type": "node", "id": 739322317, "lat": 41.9260207, "lon": -87.6529748}, {"type": "node", "id": 739322319, "lat": 41.9258119, "lon": -87.6529723}, {"type": "node", "id": 739322327, "lat": 41.9241481, "lon": -87.6528959}, {"type": "node", "id": 739322333, "lat": 41.9236112, "lon": -87.6528817}, {"type": "node", "id": 739322335, "lat": 41.9218051, "lon": -87.6528326}, {"type": "node", "id": 739322336, "lat": 41.9202664, "lon": -87.6527803}, {"type": "node", "id": 739322338, "lat": 41.9186419, "lon": -87.6527033}, {"type": "node", "id": 739322340, "lat": 41.9165192, "lon": -87.652633}, {"type": "node", "id": 739322341, "lat": 41.9158556, "lon": -87.6526167}, {"type": "node", "id": 739322343, "lat": 41.9155313, "lon": -87.6526073}, {"type": "node", "id": 739322344, "lat": 41.9154295, "lon": -87.6525979}, {"type": "node", "id": 739322346, "lat": 41.9152159, "lon": -87.6525684}, {"type": "node", "id": 739322347, "lat": 41.9150772, "lon": -87.6525523}, {"type": "node", "id": 739322348, "lat": 41.9149584, "lon": -87.6525389}, {"type": "node", "id": 739322350, "lat": 41.9148517, "lon": -87.6525322}, {"type": "node", "id": 739322351, "lat": 41.9142409, "lon": -87.6525121}, {"type": "node", "id": 739322353, "lat": 41.9140603, "lon": -87.652508}, {"type": "node", "id": 739322357, "lat": 41.9139185, "lon": -87.6524879}, {"type": "node", "id": 739322358, "lat": 41.9138128, "lon": -87.6524531}, {"type": "node", "id": 739322360, "lat": 41.9137209, "lon": -87.6524061}, {"type": "node", "id": 739322362, "lat": 41.9136291, "lon": -87.6523404}, {"type": "node", "id": 739322364, "lat": 41.9135543, "lon": -87.6522774}, {"type": "node", "id": 739322366, "lat": 41.9134844, "lon": -87.6521983}, {"type": "node", "id": 739322368, "lat": 41.9134036, "lon": -87.6520883}, {"type": "node", "id": 739322370, "lat": 41.9133068, "lon": -87.6519542}, {"type": "node", "id": 739322404, "lat": 41.9186411, "lon": -87.6526243}, {"type": "node", "id": 739322406, "lat": 41.9216105, "lon": -87.652736}, {"type": "node", "id": 739322407, "lat": 41.9227251, "lon": -87.6527722}, {"type": "node", "id": 739322411, "lat": 41.924706, "lon": -87.652768}, {"type": "node", "id": 739322415, "lat": 41.9299521, "lon": -87.6530203}, {"type": "node", "id": 739322417, "lat": 41.9313559, "lon": -87.6530713}, {"type": "node", "id": 739322418, "lat": 41.9325711, "lon": -87.6531003}, {"type": "node", "id": 739322420, "lat": 41.9330729, "lon": -87.6531129}, {"type": "node", "id": 739322424, "lat": 41.9332389, "lon": -87.6531082}, {"type": "node", "id": 739322426, "lat": 41.9334162, "lon": -87.6531037}, {"type": "node", "id": 739322427, "lat": 41.9335848, "lon": -87.653109}, {"type": "node", "id": 739322429, "lat": 41.9340995, "lon": -87.6531263}, {"type": "node", "id": 739322431, "lat": 41.934332, "lon": -87.6531343}, {"type": "node", "id": 739322432, "lat": 41.9345086, "lon": -87.6531491}, {"type": "node", "id": 739322434, "lat": 41.934754, "lon": -87.6531786}, {"type": "node", "id": 739322436, "lat": 41.9349056, "lon": -87.6531907}, {"type": "node", "id": 739322437, "lat": 41.9358234, "lon": -87.6532195}, {"type": "node", "id": 739322439, "lat": 41.9368271, "lon": -87.653255}, {"type": "node", "id": 739322441, "lat": 41.9384806, "lon": -87.6532745}, {"type": "node", "id": 739322454, "lat": 41.9382877, "lon": -87.6533274}, {"type": "node", "id": 739322457, "lat": 41.9367483, "lon": -87.6532966}, {"type": "node", "id": 739322458, "lat": 41.9358402, "lon": -87.6532614}, {"type": "node", "id": 739322460, "lat": 41.935197, "lon": -87.653243}, {"type": "node", "id": 739322461, "lat": 41.9348877, "lon": -87.6532336}, {"type": "node", "id": 739322463, "lat": 41.934753, "lon": -87.6532229}, {"type": "node", "id": 739322464, "lat": 41.9344697, "lon": -87.6531907}, {"type": "node", "id": 739322466, "lat": 41.934346, "lon": -87.6531786}, {"type": "node", "id": 739322467, "lat": 41.9336965, "lon": -87.6531585}, {"type": "node", "id": 739322468, "lat": 41.9334223, "lon": -87.6531522}, {"type": "node", "id": 739322470, "lat": 41.9331873, "lon": -87.6531522}, {"type": "node", "id": 739322472, "lat": 41.9325673, "lon": -87.6531413}, {"type": "node", "id": 739322475, "lat": 41.9309229, "lon": -87.6530955}, {"type": "node", "id": 739322476, "lat": 41.9299242, "lon": -87.6530646}, {"type": "node", "id": 739322481, "lat": 41.9257457, "lon": -87.6528492}, {"type": "node", "id": 739322483, "lat": 41.923997, "lon": -87.6527906}, {"type": "node", "id": 739322484, "lat": 41.9218141, "lon": -87.6527843}, {"type": "node", "id": 739322486, "lat": 41.918617, "lon": -87.6526673}, {"type": "node", "id": 739322500, "lat": 41.9133267, "lon": -87.6519206}, {"type": "node", "id": 739322501, "lat": 41.9134714, "lon": -87.6521191}, {"type": "node", "id": 739322503, "lat": 41.9135553, "lon": -87.6522237}, {"type": "node", "id": 739322505, "lat": 41.9136341, "lon": -87.6522975}, {"type": "node", "id": 739322508, "lat": 41.9137299, "lon": -87.6523632}, {"type": "node", "id": 739322509, "lat": 41.9138337, "lon": -87.6524142}, {"type": "node", "id": 739322511, "lat": 41.9139285, "lon": -87.652449}, {"type": "node", "id": 739322513, "lat": 41.9140433, "lon": -87.6524624}, {"type": "node", "id": 739322516, "lat": 41.9142758, "lon": -87.6524705}, {"type": "node", "id": 739322518, "lat": 41.9149175, "lon": -87.652492}, {"type": "node", "id": 739322520, "lat": 41.9150682, "lon": -87.6524973}, {"type": "node", "id": 739322521, "lat": 41.9152089, "lon": -87.6524879}, {"type": "node", "id": 739322523, "lat": 41.9153965, "lon": -87.6524705}, {"type": "node", "id": 739322524, "lat": 41.9155203, "lon": -87.6524705}, {"type": "node", "id": 739322526, "lat": 41.9158267, "lon": -87.6524839}, {"type": "node", "id": 739322527, "lat": 41.9169174, "lon": -87.6525228}, {"type": "node", "id": 739322529, "lat": 41.9186137, "lon": -87.6525864}, {"type": "node", "id": 739322530, "lat": 41.9203183, "lon": -87.6526489}, {"type": "node", "id": 739322532, "lat": 41.9217143, "lon": -87.6526931}, {"type": "node", "id": 739322533, "lat": 41.9227182, "lon": -87.652738}, {"type": "node", "id": 739322534, "lat": 41.923718, "lon": -87.6527339}, {"type": "node", "id": 739322535, "lat": 41.9243185, "lon": -87.652649}, {"type": "node", "id": 739322543, "lat": 41.9258291, "lon": -87.6526992}, {"type": "node", "id": 739322545, "lat": 41.9259676, "lon": -87.652717}, {"type": "node", "id": 739322546, "lat": 41.9260562, "lon": -87.6527448}, {"type": "node", "id": 739322548, "lat": 41.9262958, "lon": -87.6528232}, {"type": "node", "id": 739322550, "lat": 41.9264078, "lon": -87.6528471}, {"type": "node", "id": 739322560, "lat": 41.9303781, "lon": -87.6529935}, {"type": "node", "id": 739322563, "lat": 41.9312641, "lon": -87.653019}, {"type": "node", "id": 739322565, "lat": 41.9320024, "lon": -87.6530472}, {"type": "node", "id": 739322568, "lat": 41.9330877, "lon": -87.6530754}, {"type": "node", "id": 739322570, "lat": 41.9332158, "lon": -87.6530706}, {"type": "node", "id": 739322574, "lat": 41.9333932, "lon": -87.6530659}, {"type": "node", "id": 739322575, "lat": 41.9335468, "lon": -87.6530726}, {"type": "node", "id": 739322577, "lat": 41.9343639, "lon": -87.6530901}, {"type": "node", "id": 739322578, "lat": 41.9345116, "lon": -87.6531048}, {"type": "node", "id": 739322580, "lat": 41.9347959, "lon": -87.653137}, {"type": "node", "id": 739322581, "lat": 41.9349196, "lon": -87.6531437}, {"type": "node", "id": 739322583, "lat": 41.936408, "lon": -87.653201, "tags": {"name": "Wellington", "network": "CTA", "operator": "Chicago Transit Authority", "public_transport": "stop_position", "railway": "stop", "subway": "yes"}}, {"type": "node", "id": 739322585, "lat": 41.938828, "lon": -87.6531553}, {"type": "node", "id": 739322586, "lat": 41.9389921, "lon": -87.6531459}, {"type": "node", "id": 924674711, "lat": 41.9119543, "lon": -87.6500091}, {"type": "node", "id": 924674756, "lat": 41.9110958, "lon": -87.6473874}, {"type": "node", "id": 924674757, "lat": 41.9112283, "lon": -87.6474193}, {"type": "node", "id": 924674758, "lat": 41.911286, "lon": -87.6474553}, {"type": "node", "id": 924674759, "lat": 41.91138, "lon": -87.6475286}, {"type": "node", "id": 924674760, "lat": 41.9114356, "lon": -87.6475895}, {"type": "node", "id": 924674761, "lat": 41.9115173, "lon": -87.6477592}, {"type": "node", "id": 924674762, "lat": 41.911548, "lon": -87.6478938}, {"type": "node", "id": 924674763, "lat": 41.91155, "lon": -87.6480762}, {"type": "node", "id": 924674764, "lat": 41.9115239, "lon": -87.6489173}, {"type": "node", "id": 924674765, "lat": 41.9115763, "lon": -87.6492955}, {"type": "node", "id": 924674766, "lat": 41.9116282, "lon": -87.649487}, {"type": "node", "id": 924674767, "lat": 41.9117309, "lon": -87.6496968}, {"type": "node", "id": 924675092, "lat": 41.9103627, "lon": -87.6467216}, {"type": "node", "id": 924675093, "lat": 41.9103873, "lon": -87.6469349}, {"type": "node", "id": 924675094, "lat": 41.9104107, "lon": -87.6470524}, {"type": "node", "id": 924675095, "lat": 41.9104587, "lon": -87.6471682}, {"type": "node", "id": 924675096, "lat": 41.9106906, "lon": -87.6473455}, {"type": "node", "id": 924675097, "lat": 41.9107635, "lon": -87.6473681}, {"type": "node", "id": 924675118, "lat": 41.9103683, "lon": -87.6456166}, {"type": "node", "id": 924675149, "lat": 41.9103902, "lon": -87.6432643}, {"type": "node", "id": 924675152, "lat": 41.9104262, "lon": -87.6408664}, {"type": "node", "id": 924675174, "lat": 41.9103804, "lon": -87.6394358}, {"type": "node", "id": 924675175, "lat": 41.9103941, "lon": -87.6397854}, {"type": "node", "id": 924675176, "lat": 41.9103998, "lon": -87.6400186}, {"type": "node", "id": 924675178, "lat": 41.9104069, "lon": -87.6392616}, {"type": "node", "id": 924675179, "lat": 41.9104093, "lon": -87.6394285}, {"type": "node", "id": 924675180, "lat": 41.9104212, "lon": -87.6396886}, {"type": "node", "id": 924675181, "lat": 41.9104291, "lon": -87.6398421}, {"type": "node", "id": 924675186, "lat": 41.9097275, "lon": -87.6372695}, {"type": "node", "id": 924675187, "lat": 41.9098453, "lon": -87.6372828}, {"type": "node", "id": 924675188, "lat": 41.9099492, "lon": -87.6373066}, {"type": "node", "id": 924675189, "lat": 41.910146, "lon": -87.6374121}, {"type": "node", "id": 924675190, "lat": 41.9102987, "lon": -87.6375957}, {"type": "node", "id": 924675191, "lat": 41.9103443, "lon": -87.6376906}, {"type": "node", "id": 924675192, "lat": 41.9104123, "lon": -87.6379359}, {"type": "node", "id": 924675193, "lat": 41.9104273, "lon": -87.6380944}, {"type": "node", "id": 924675223, "lat": 41.908476, "lon": -87.6372186}, {"type": "node", "id": 924675224, "lat": 41.908478, "lon": -87.6372669}, {"type": "node", "id": 924675228, "lat": 41.9071745, "lon": -87.6372078}, {"type": "node", "id": 924675233, "lat": 41.9071705, "lon": -87.6371569}, {"type": "node", "id": 924675310, "lat": 41.905879, "lon": -87.6371569}, {"type": "node", "id": 924675431, "lat": 41.9058989, "lon": -87.6371167}, {"type": "node", "id": 924675523, "lat": 41.9048948, "lon": -87.6370952}, {"type": "node", "id": 924675524, "lat": 41.903705, "lon": -87.6370147}, {"type": "node", "id": 924675572, "lat": 41.9025312, "lon": -87.6365185}, {"type": "node", "id": 924675573, "lat": 41.902651, "lon": -87.636599}, {"type": "node", "id": 924675574, "lat": 41.9029305, "lon": -87.6368082}, {"type": "node", "id": 924675575, "lat": 41.9031401, "lon": -87.6369369}, {"type": "node", "id": 924675576, "lat": 41.9033996, "lon": -87.6370067}, {"type": "node", "id": 924675644, "lat": 41.9016488, "lon": -87.6366204}, {"type": "node", "id": 924675645, "lat": 41.90211, "lon": -87.6364702}, {"type": "node", "id": 924675646, "lat": 41.9022457, "lon": -87.6364541}, {"type": "node", "id": 924675647, "lat": 41.9024035, "lon": -87.6364756}, {"type": "node", "id": 924676026, "lat": 41.9012356, "lon": -87.6366955}, {"type": "node", "id": 924676027, "lat": 41.9013899, "lon": -87.6366849}, {"type": "node", "id": 924677086, "lat": 41.8978637, "lon": -87.6365614}, {"type": "node", "id": 924677837, "lat": 41.8971021, "lon": -87.63635}, {"type": "node", "id": 924677838, "lat": 41.8971844, "lon": -87.6364348}, {"type": "node", "id": 924677841, "lat": 41.8973662, "lon": -87.6365359}, {"type": "node", "id": 924677844, "lat": 41.8974457, "lon": -87.6365511}, {"type": "node", "id": 924677939, "lat": 41.8978377, "lon": -87.6365604, "tags": {"railway": "switch"}}, {"type": "node", "id": 924678447, "lat": 41.8959778, "lon": -87.6356699, "tags": {"name": "Chicago", "network": "CTA", "operator": "Chicago Transit Authority", "public_transport": "stop_position", "railway": "stop", "subway": "yes"}}, {"type": "node", "id": 924678448, "lat": 41.8963703, "lon": -87.6356806}, {"type": "node", "id": 924678449, "lat": 41.8965409, "lon": -87.6357273}, {"type": "node", "id": 924678450, "lat": 41.8966684, "lon": -87.6358135}, {"type": "node", "id": 924678452, "lat": 41.8945155, "lon": -87.6356307}, {"type": "node", "id": 924678502, "lat": 41.8934074, "lon": -87.6356414}, {"type": "node", "id": 924678511, "lat": 41.8933934, "lon": -87.6355878}, {"type": "node", "id": 924678512, "lat": 41.8909994, "lon": -87.6355288}, {"type": "node", "id": 924678513, "lat": 41.8922154, "lon": -87.6355556}, {"type": "node", "id": 924678601, "lat": 41.8902215, "lon": -87.6354055}, {"type": "node", "id": 924678602, "lat": 41.8902904, "lon": -87.6354639}, {"type": "node", "id": 924678603, "lat": 41.8903889, "lon": -87.6355084}, {"type": "node", "id": 924678604, "lat": 41.8895462, "lon": -87.6340374}, {"type": "node", "id": 924678605, "lat": 41.8897271, "lon": -87.6341587}, {"type": "node", "id": 924678606, "lat": 41.8898163, "lon": -87.6342713}, {"type": "node", "id": 924678607, "lat": 41.8898748, "lon": -87.6343977}, {"type": "node", "id": 924678608, "lat": 41.8899166, "lon": -87.6345559}, {"type": "node", "id": 924678609, "lat": 41.8900091, "lon": -87.6350492}, {"type": "node", "id": 924678610, "lat": 41.8900931, "lon": -87.6352493}, {"type": "node", "id": 924678652, "lat": 41.889399, "lon": -87.6339983}, {"type": "node", "id": 924678871, "lat": 41.8870832, "lon": -87.6339425}, {"type": "node", "id": 924678873, "lat": 41.8865387, "lon": -87.6339912}, {"type": "node", "id": 924678886, "lat": 41.8865661, "lon": -87.6339468}, {"type": "node", "id": 1432910138, "lat": 41.9114133, "lon": -87.6476155}, {"type": "node", "id": 1432910140, "lat": 41.9116175, "lon": -87.6495501}, {"type": "node", "id": 1432910142, "lat": 41.9113361, "lon": -87.6475269}, {"type": "node", "id": 1432910143, "lat": 41.9115102, "lon": -87.6491371}, {"type": "node", "id": 1432910146, "lat": 41.9115344, "lon": -87.6490955}, {"type": "node", "id": 1432910152, "lat": 41.9112625, "lon": -87.6474765}, {"type": "node", "id": 1432910156, "lat": 41.9106708, "lon": -87.6473868}, {"type": "node", "id": 1432910163, "lat": 41.9104732, "lon": -87.6472424}, {"type": "node", "id": 1432910164, "lat": 41.9111655, "lon": -87.6473943}, {"type": "node", "id": 1432910166, "lat": 41.9114866, "lon": -87.6476829}, {"type": "node", "id": 1432910167, "lat": 41.9105328, "lon": -87.6472601}, {"type": "node", "id": 1432910168, "lat": 41.9103405, "lon": -87.6468276}, {"type": "node", "id": 1432910169, "lat": 41.910619, "lon": -87.6473192}, {"type": "node", "id": 1634477276, "lat": 41.9373049, "lon": -87.653226}, {"type": "node", "id": 1710876944, "lat": 41.9235015, "lon": -87.6527975}, {"type": "node", "id": 1710876945, "lat": 41.92356, "lon": -87.6527558}, {"type": "node", "id": 1710876946, "lat": 41.9242103, "lon": -87.6526557}, {"type": "node", "id": 1710876988, "lat": 41.9381848, "lon": -87.6532528}, {"type": "node", "id": 1710876989, "lat": 41.9386504, "lon": -87.6533124}, {"type": "node", "id": 1710876990, "lat": 41.9386784, "lon": -87.6532706}, {"type": "node", "id": 1710876991, "lat": 41.9405496, "lon": -87.653234}, {"type": "node", "id": 1710876992, "lat": 41.9409346, "lon": -87.6533302}, {"type": "node", "id": 1710876993, "lat": 41.9411083, "lon": -87.6533463}, {"type": "node", "id": 1722519104, "lat": 41.9037994, "lon": -87.6389283}, {"type": "node", "id": 1722519105, "lat": 41.9037997, "lon": -87.6392287}, {"type": "node", "id": 1722519107, "lat": 41.9038337, "lon": -87.6369522}, {"type": "node", "id": 1722519108, "lat": 41.9038426, "lon": -87.6394772}, {"type": "node", "id": 1722519109, "lat": 41.9038772, "lon": -87.6344418}, {"type": "node", "id": 1722519112, "lat": 41.9039265, "lon": -87.6396838}, {"type": "node", "id": 1722519113, "lat": 41.9039242, "lon": -87.6315435, "tags": {"name": "Clark/Division", "network": "CTA", "operator": "Chicago Transit Authority", "public_transport": "stop_position", "railway": "stop", "subway": "yes"}}, {"type": "node", "id": 1722519116, "lat": 41.9040626, "lon": -87.6399047}, {"type": "node", "id": 1722519118, "lat": 41.9080759, "lon": -87.645517}, {"type": "node", "id": 1722519124, "lat": 41.9129195, "lon": -87.6522299}, {"type": "node", "id": 1722519125, "lat": 41.9129854, "lon": -87.6523369}, {"type": "node", "id": 1722519126, "lat": 41.9131398, "lon": -87.652483}, {"type": "node", "id": 1722519127, "lat": 41.9132682, "lon": -87.6524938}, {"type": "node", "id": 1722519128, "lat": 41.9140595, "lon": -87.6525004}, {"type": "node", "id": 1722519129, "lat": 41.9147537, "lon": -87.6525099}, {"type": "node", "id": 1983526823, "lat": 41.9237263, "lon": -87.6527766}, {"type": "node", "id": 1983526826, "lat": 41.9258827, "lon": -87.6528194}, {"type": "node", "id": 1983526835, "lat": 41.9262642, "lon": -87.65288}, {"type": "node", "id": 1983543632, "lat": 41.924302, "lon": -87.649851}, {"type": "node", "id": 1983549241, "lat": 41.9222116, "lon": -87.6528996}, {"type": "node", "id": 1983549242, "lat": 41.9222019, "lon": -87.6536129}, {"type": "node", "id": 1983580989, "lat": 41.9408874, "lon": -87.6534619}, {"type": "node", "id": 1983580999, "lat": 41.9406879, "lon": -87.6533466}, {"type": "node", "id": 1983581003, "lat": 41.9382645, "lon": -87.6532869}, {"type": "node", "id": 1983581012, "lat": 41.9410447, "lon": -87.6534591}, {"type": "node", "id": 1984415177, "lat": 41.9262522, "lon": -87.6529138}, {"type": "node", "id": 1984415178, "lat": 41.9263447, "lon": -87.6528895}, {"type": "node", "id": 1984415179, "lat": 41.9234727, "lon": -87.6528376}, {"type": "node", "id": 1984415181, "lat": 41.9233606, "lon": -87.6528025}, {"type": "node", "id": 1984415185, "lat": 41.926342, "lon": -87.6529309}, {"type": "node", "id": 1984415190, "lat": 41.925977, "lon": -87.6528315}, {"type": "node", "id": 1984415192, "lat": 41.9259772, "lon": -87.6528669}, {"type": "node", "id": 1984415195, "lat": 41.9233562, "lon": -87.6527695}, {"type": "node", "id": 1984415196, "lat": 41.9239869, "lon": -87.6527584}, {"type": "node", "id": 1984415198, "lat": 41.923905, "lon": -87.6527949}, {"type": "node", "id": 1984415200, "lat": 41.9233457, "lon": -87.6528397}, {"type": "node", "id": 1984415204, "lat": 41.9236071, "lon": -87.6528265}, {"type": "node", "id": 1984416056, "lat": 41.9264864, "lon": -87.652941}, {"type": "node", "id": 1984429360, "lat": 41.9381164, "lon": -87.6532975}, {"type": "node", "id": 1984429361, "lat": 41.9404827, "lon": -87.6533724}, {"type": "node", "id": 1984429364, "lat": 41.9381233, "lon": -87.6533355}, {"type": "node", "id": 1984429367, "lat": 41.9384691, "lon": -87.6533147}, {"type": "node", "id": 1984429368, "lat": 41.9383569, "lon": -87.6532356}, {"type": "node", "id": 1984429372, "lat": 41.940788, "lon": -87.6532983}, {"type": "node", "id": 2003592886, "lat": 41.8966117, "lon": -87.6357711}, {"type": "node", "id": 2004713101, "lat": 41.932565, "lon": -87.653062, "tags": {"name": "Diversey", "network": "CTA", "operator": "Chicago Transit Authority", "public_transport": "stop_position", "railway": "stop", "subway": "yes"}}, {"type": "node", "id": 2004713106, "lat": 41.932565, "lon": -87.653179, "tags": {"name": "Diversey", "network": "CTA", "operator": "Chicago Transit Authority", "public_transport": "stop_position", "railway": "stop", "subway": "yes"}}, {"type": "node", "id": 2012532417, "lat": 41.935855, "lon": -87.6531834}, {"type": "node", "id": 2012549082, "lat": 41.925154, "lon": -87.65295, "tags": {"name": "Fullerton", "network": "CTA", "operator": "Chicago Transit Authority", "public_transport": "stop_position", "railway": "stop", "subway": "yes", "wheelchair": "yes"}}, {"type": "node", "id": 2012549083, "lat": 41.925162, "lon": -87.652677, "tags": {"name": "Fullerton", "network": "CTA", "operator": "Chicago Transit Authority", "public_transport": "stop_position", "railway": "stop", "subway": "yes", "wheelchair": "yes"}}, {"type": "node", "id": 2012769523, "lat": 41.915541, "lon": -87.6526481, "tags": {"railway": "buffer_stop"}}, {"type": "node", "id": 2012769524, "lat": 41.9172534, "lon": -87.6526536, "tags": {"railway": "switch"}}, {"type": "node", "id": 2012769525, "lat": 41.9170137, "lon": -87.6526988, "tags": {"railway": "switch"}}, {"type": "node", "id": 2012769526, "lat": 41.9173487, "lon": -87.6527103, "tags": {"railway": "buffer_stop"}}, {"type": "node", "id": 2012780393, "lat": 41.9098173, "lon": -87.6373184}, {"type": "node", "id": 2012780397, "lat": 41.9102184, "lon": -87.6374819}, {"type": "node", "id": 2012780401, "lat": 41.9103808, "lon": -87.637796}, {"type": "node", "id": 2012780408, "lat": 41.9104137, "lon": -87.6388572, "tags": {"name": "Sedgwick", "network": "CTA", "operator": "Chicago Transit Authority", "public_transport": "stop_position", "railway": "stop", "subway": "yes"}}, {"type": "node", "id": 2012780433, "lat": 41.9103861, "lon": -87.6388509, "tags": {"name": "Sedgwick", "network": "CTA", "operator": "Chicago Transit Authority", "public_transport": "stop_position", "railway": "stop", "subway": "yes"}}, {"type": "node", "id": 2012780443, "lat": 41.9100398, "lon": -87.6373382}, {"type": "node", "id": 2012780445, "lat": 41.9103264, "lon": -87.6377281}, {"type": "node", "id": 2012780451, "lat": 41.9103963, "lon": -87.6379852}, {"type": "node", "id": 2012780453, "lat": 41.9103776, "lon": -87.6392736}, {"type": "node", "id": 2012780459, "lat": 41.9103871, "lon": -87.6396321}, {"type": "node", "id": 2012780462, "lat": 41.9101998, "lon": -87.6375175}, {"type": "node", "id": 2012780466, "lat": 41.9100489, "lon": -87.6373923}, {"type": "node", "id": 2012967713, "lat": 41.8964484, "lon": -87.6357314}, {"type": "node", "id": 2012967718, "lat": 41.897294, "lon": -87.6365125}, {"type": "node", "id": 2012967723, "lat": 41.8964498, "lon": -87.6356916}, {"type": "node", "id": 2012967741, "lat": 41.8973508, "lon": -87.6365752}, {"type": "node", "id": 2012967743, "lat": 41.8963926, "lon": -87.6357179}, {"type": "node", "id": 2012967745, "lat": 41.8972314, "lon": -87.6364722}, {"type": "node", "id": 2012967748, "lat": 41.8965665, "lon": -87.6357879}, {"type": "node", "id": 2012967749, "lat": 41.8971698, "lon": -87.6364757}, {"type": "node", "id": 2012967763, "lat": 41.8959762, "lon": -87.6357061, "tags": {"name": "Chicago", "network": "CTA", "operator": "Chicago Transit Authority", "public_transport": "stop_position", "railway": "stop", "subway": "yes"}}, {"type": "node", "id": 2012967764, "lat": 41.8967294, "lon": -87.6358802}, {"type": "node", "id": 2012979483, "lat": 41.8884859, "lon": -87.6340356, "tags": {"name": "Merchandise Mart", "network": "CTA", "operator": "Chicago Transit Authority", "public_transport": "stop_position", "railway": "stop", "subway": "yes"}}, {"type": "node", "id": 2012979484, "lat": 41.8895832, "lon": -87.6341006}, {"type": "node", "id": 2012979485, "lat": 41.8900444, "lon": -87.6351583}, {"type": "node", "id": 2012979487, "lat": 41.8901588, "lon": -87.6353385}, {"type": "node", "id": 2012979491, "lat": 41.8900281, "lon": -87.6352019}, {"type": "node", "id": 2012979492, "lat": 41.8897576, "lon": -87.6342525}, {"type": "node", "id": 2012979493, "lat": 41.890499, "lon": -87.6355289}, {"type": "node", "id": 2012979495, "lat": 41.8892312, "lon": -87.6339933, "tags": {"name": "Merchandise Mart", "network": "CTA", "operator": "Chicago Transit Authority", "public_transport": "stop_position", "railway": "stop", "subway": "yes"}}, {"type": "node", "id": 2012979496, "lat": 41.8893506, "lon": -87.6339976}, {"type": "node", "id": 2012979499, "lat": 41.8896287, "lon": -87.6340839}, {"type": "node", "id": 2012979501, "lat": 41.8894001, "lon": -87.6340482}, {"type": "node", "id": 2012979502, "lat": 41.8901926, "lon": -87.6354392}, {"type": "node", "id": 2014100269, "lat": 41.939846, "lon": -87.653472, "tags": {"name": "Belmont", "network": "CTA", "operator": "Chicago Transit Authority", "public_transport": "stop_position", "railway": "stop", "subway": "yes"}}, {"type": "node", "id": 2014100270, "lat": 41.939848, "lon": -87.653181, "tags": {"name": "Belmont", "network": "CTA", "operator": "Chicago Transit Authority", "public_transport": "stop_position", "railway": "stop", "subway": "yes"}}, {"type": "node", "id": 2022110661, "lat": 41.953878, "lon": -87.655242, "tags": {"name": "Sheridan", "network": "CTA", "operator": "Chicago Transit Authority", "public_transport": "stop_position", "railway": "stop", "subway": "yes"}}, {"type": "node", "id": 2022110673, "lat": 41.9538769, "lon": -87.6544088}, {"type": "node", "id": 2022110677, "lat": 41.9538335, "lon": -87.6541693}, {"type": "node", "id": 2022110679, "lat": 41.9538682, "lon": -87.6559505}, {"type": "node", "id": 2023910816, "lat": 41.939857, "lon": -87.6533523, "tags": {"name": "Belmont", "network": "CTA", "operator": "Chicago Transit Authority", "public_transport": "stop_position", "railway": "stop", "subway": "yes"}}, {"type": "node", "id": 2023910817, "lat": 41.939853, "lon": -87.653308, "tags": {"name": "Belmont", "network": "CTA", "operator": "Chicago Transit Authority", "public_transport": "stop_position", "railway": "stop", "subway": "yes"}}, {"type": "node", "id": 2023910818, "lat": 41.925165, "lon": -87.6528297, "tags": {"name": "Fullerton", "network": "CTA", "operator": "Chicago Transit Authority", "public_transport": "stop_position", "railway": "stop", "subway": "yes", "wheelchair": "yes"}}, {"type": "node", "id": 2023910819, "lat": 41.925163, "lon": -87.652788, "tags": {"name": "Fullerton", "network": "CTA", "operator": "Chicago Transit Authority", "public_transport": "stop_position", "railway": "stop", "subway": "yes", "wheelchair": "yes"}}, {"type": "node", "id": 2039094535, "lat": 41.910846, "lon": -87.6493412, "tags": {"name": "North/Clybourn", "network": "CTA", "operator": "Chicago Transit Authority", "public_transport": "stop_position", "railway": "stop", "subway": "yes"}}, {"type": "node", "id": 2203998611, "lat": 41.9101419, "lon": -87.6491644}, {"type": "node", "id": 2203998642, "lat": 41.9101919, "lon": -87.6492343}, {"type": "node", "id": 2203998691, "lat": 41.9103457, "lon": -87.6489012}, {"type": "node", "id": 2203998709, "lat": 41.91038, "lon": -87.6506163}, {"type": "node", "id": 2203998712, "lat": 41.9103813, "lon": -87.6503404}, {"type": "node", "id": 2203998713, "lat": 41.910386, "lon": -87.6609658}, {"type": "node", "id": 2203998714, "lat": 41.9103847, "lon": -87.6610456}, {"type": "node", "id": 2203998719, "lat": 41.9103958, "lon": -87.648971}, {"type": "node", "id": 2203998741, "lat": 41.9104459, "lon": -87.6436874}, {"type": "node", "id": 2203998747, "lat": 41.9104492, "lon": -87.6435478}, {"type": "node", "id": 2203998749, "lat": 41.9104542, "lon": -87.6436892}, {"type": "node", "id": 2203998788, "lat": 41.9105184, "lon": -87.6436407}, {"type": "node", "id": 2203998793, "lat": 41.9105206, "lon": -87.6435507}, {"type": "node", "id": 2203998810, "lat": 41.9105404, "lon": -87.6506176}, {"type": "node", "id": 2203998811, "lat": 41.9105433, "lon": -87.6503417}, {"type": "node", "id": 2203998812, "lat": 41.9105435, "lon": -87.6502776}, {"type": "node", "id": 2203998859, "lat": 41.9106295, "lon": -87.6610529}, {"type": "node", "id": 2203998860, "lat": 41.9106308, "lon": -87.6609731}, {"type": "node", "id": 2203998908, "lat": 41.9106836, "lon": -87.6503386}, {"type": "node", "id": 2203998910, "lat": 41.9106838, "lon": -87.6502787}, {"type": "node", "id": 2203998933, "lat": 41.910726, "lon": -87.6502951}, {"type": "node", "id": 2203998935, "lat": 41.9107259, "lon": -87.650339}, {"type": "node", "id": 2203998973, "lat": 41.9107911, "lon": -87.6502956}, {"type": "node", "id": 2204016078, "lat": 41.9178169, "lon": -87.6542708}, {"type": "node", "id": 2204016082, "lat": 41.9178192, "lon": -87.6541936}, {"type": "node", "id": 2204016642, "lat": 41.9180035, "lon": -87.6542761}, {"type": "node", "id": 2204016644, "lat": 41.9180045, "lon": -87.6542008}, {"type": "node", "id": 2204016973, "lat": 41.9181518, "lon": -87.6559206}, {"type": "node", "id": 2204016974, "lat": 41.9181519, "lon": -87.6559335}, {"type": "node", "id": 2204017003, "lat": 41.91816, "lon": -87.6559095}, {"type": "node", "id": 2204017008, "lat": 41.9181602, "lon": -87.6559481}, {"type": "node", "id": 2204017011, "lat": 41.9181606, "lon": -87.6560087}, {"type": "node", "id": 2204017058, "lat": 41.9181737, "lon": -87.6559112}, {"type": "node", "id": 2204017086, "lat": 41.9181806, "lon": -87.6559185}, {"type": "node", "id": 2204017354, "lat": 41.9183154, "lon": -87.6560137}, {"type": "node", "id": 2204017355, "lat": 41.9183165, "lon": -87.6559262}, {"type": "node", "id": 2204017997, "lat": 41.918528, "lon": -87.6490047}, {"type": "node", "id": 2204018017, "lat": 41.9185342, "lon": -87.6486592}, {"type": "node", "id": 2204018019, "lat": 41.9185354, "lon": -87.648647}, {"type": "node", "id": 2204018237, "lat": 41.9185966, "lon": -87.6490156}, {"type": "node", "id": 2204018278, "lat": 41.9186054, "lon": -87.6486499}, {"type": "node", "id": 2204024213, "lat": 41.9200758, "lon": -87.6491571}, {"type": "node", "id": 2204024246, "lat": 41.9200822, "lon": -87.6487242}, {"type": "node", "id": 2204024332, "lat": 41.9201013, "lon": -87.6486982}, {"type": "node", "id": 2204024436, "lat": 41.9201452, "lon": -87.6491589}, {"type": "node", "id": 2204024451, "lat": 41.9201521, "lon": -87.6486996}, {"type": "node", "id": 2204034369, "lat": 41.9230418, "lon": -87.6452252}, {"type": "node", "id": 2204034445, "lat": 41.9230531, "lon": -87.6459254}, {"type": "node", "id": 2204034519, "lat": 41.9230715, "lon": -87.6459558}, {"type": "node", "id": 2204034575, "lat": 41.9230861, "lon": -87.6459754}, {"type": "node", "id": 2204034779, "lat": 41.9231343, "lon": -87.6458217}, {"type": "node", "id": 2204034784, "lat": 41.9231356, "lon": -87.6458033}, {"type": "node", "id": 2204034790, "lat": 41.9231381, "lon": -87.6453576}, {"type": "node", "id": 2204035015, "lat": 41.9232155, "lon": -87.6458109}, {"type": "node", "id": 2204035138, "lat": 41.923242, "lon": -87.6449702}, {"type": "node", "id": 2204035410, "lat": 41.9233282, "lon": -87.6456194}, {"type": "node", "id": 2204035430, "lat": 41.923333, "lon": -87.6450957}, {"type": "node", "id": 2204035452, "lat": 41.9233377, "lon": -87.6451019}, {"type": "node", "id": 2204035573, "lat": 41.9233681, "lon": -87.645674}, {"type": "node", "id": 2204035943, "lat": 41.9234782, "lon": -87.6455002}, {"type": "node", "id": 2204036024, "lat": 41.9234865, "lon": -87.6455203}, {"type": "node", "id": 2204036056, "lat": 41.9234904, "lon": -87.6454853}, {"type": "node", "id": 2204036147, "lat": 41.9235015, "lon": -87.6454999}, {"type": "node", "id": 2204036210, "lat": 41.9235131, "lon": -87.6453767}, {"type": "node", "id": 2204036347, "lat": 41.9235532, "lon": -87.6454314}, {"type": "node", "id": 2280301588, "lat": 41.9102437, "lon": -87.6488384, "tags": {"addr:city": "Chicago", "addr:housenumber": "1578", "addr:postcode": "60642", "addr:state": "IL", "addr:street": "North Clybourn Avenue", "amenity": "restaurant", "cuisine": "burger", "name": "Burger Bar Chicago - Lincoln Park", "opening_hours": "Mo-Th 11:30-22:00; Fr-Sa 11:00-23:00; Su 11:00-21:00", "phone": "+1-312-255-0055", "website": "http://burgerbarchicago.com/"}}, {"type": "node", "id": 2348349944, "lat": 41.9237168, "lon": -87.6496983, "tags": {"barrier": "gate"}}, {"type": "node", "id": 2368694110, "lat": 41.9129081, "lon": -87.6523867}, {"type": "node", "id": 2368694111, "lat": 41.9130748, "lon": -87.6525435}, {"type": "node", "id": 2368694112, "lat": 41.9038322, "lon": -87.634469}, {"type": "node", "id": 2368694113, "lat": 41.9038871, "lon": -87.6397384}, {"type": "node", "id": 2368694114, "lat": 41.9037547, "lon": -87.6392626}, {"type": "node", "id": 2368694115, "lat": 41.9037887, "lon": -87.6369794}, {"type": "node", "id": 2368694116, "lat": 41.9106286, "lon": -87.649211}, {"type": "node", "id": 2368694117, "lat": 41.9045545, "lon": -87.6407198}, {"type": "node", "id": 2368694118, "lat": 41.9040132, "lon": -87.6399655}, {"type": "node", "id": 2368694119, "lat": 41.9122298, "lon": -87.6514405}, {"type": "node", "id": 2368694120, "lat": 41.9140593, "lon": -87.6525486}, {"type": "node", "id": 2368694122, "lat": 41.9131621, "lon": -87.6525481}, {"type": "node", "id": 2368694123, "lat": 41.9038832, "lon": -87.6313692, "tags": {"name": "Clark/Division", "network": "CTA", "operator": "Chicago Transit Authority", "public_transport": "stop_position", "railway": "stop", "subway": "yes"}}, {"type": "node", "id": 2368694127, "lat": 41.9080409, "lon": -87.6455789}, {"type": "node", "id": 2368694128, "lat": 41.9132677, "lon": -87.652542}, {"type": "node", "id": 2368694131, "lat": 41.9096816, "lon": -87.647888}, {"type": "node", "id": 2368694132, "lat": 41.9037996, "lon": -87.6395229}, {"type": "node", "id": 2368694133, "lat": 41.9129665, "lon": -87.6524643}, {"type": "node", "id": 2368694137, "lat": 41.9037544, "lon": -87.6389561}, {"type": "node", "id": 2368694141, "lat": 41.9107797, "lon": -87.6494211, "tags": {"name": "North/Clybourn", "network": "CTA", "operator": "Chicago Transit Authority", "public_transport": "stop_position", "railway": "stop", "subway": "yes"}}, {"type": "node", "id": 2368695267, "lat": 41.914753, "lon": -87.6525526}, {"type": "node", "id": 2400890638, "lat": 41.9056981, "lon": -87.6421541}, {"type": "node", "id": 2400890639, "lat": 41.9046129, "lon": -87.6406644}, {"type": "node", "id": 2458410440, "lat": 41.9251354, "lon": -87.6590281}, {"type": "node", "id": 2485876240, "lat": 41.9105426, "lon": -87.653618, "tags": {"amenity": "cafe", "brand": "Starbucks", "brand:wikidata": "Q37158", "brand:wikipedia": "en:Starbucks", "cuisine": "coffee_shop", "name": "Starbucks", "official_name": "Starbucks Coffee", "takeaway": "yes"}}, {"type": "node", "id": 2577813545, "lat": 41.910787, "lon": -87.6490879, "tags": {"addr:city": "Chicago", "addr:country": "US", "addr:housenumber": "1599", "addr:postcode": "60642", "addr:state": "IL", "addr:street": "North Clybourn Avenue", "amenity": "cafe", "brand": "Starbucks", "brand:wikidata": "Q37158", "brand:wikipedia": "en:Starbucks", "cuisine": "coffee_shop", "name": "Starbucks", "official_name": "Starbucks Coffee", "takeaway": "yes"}}, {"type": "node", "id": 2607221649, "lat": 41.9229445, "lon": -87.6449862, "tags": {"addr:city": "Chicago", "addr:country": "US", "addr:housenumber": "2245", "addr:street": "North Lincoln Avenue", "amenity": "restaurant", "cuisine": "pizza", "name": "Lincoln Park Pizza"}}, {"type": "node", "id": 2607221651, "lat": 41.9235545, "lon": -87.6458622, "tags": {"amenity": "cafe", "brand": "Starbucks", "brand:wikidata": "Q37158", "brand:wikipedia": "en:Starbucks", "cuisine": "coffee_shop", "name": "Starbucks", "official_name": "Starbucks Coffee", "takeaway": "yes"}}, {"type": "node", "id": 2607221652, "lat": 41.9232808, "lon": -87.6459883, "tags": {"addr:city": "Chicago", "addr:country": "US", "addr:housenumber": "2270", "addr:postcode": "60614", "addr:street": "North Lincoln Avenue", "amenity": "pub", "name": "Wise Fools Pub"}}, {"type": "node", "id": 2607221928, "lat": 41.923172, "lon": -87.6457498}, {"type": "node", "id": 2623046304, "lat": 41.9174354, "lon": -87.6486475, "tags": {"addr:city": "Chicago", "addr:housenumber": "1948", "addr:postcode": "60614", "addr:street": "North Halsted Street", "amenity": "bar", "name": "Manhandler Saloon"}}, {"type": "node", "id": 2623896621, "lat": 41.9179369, "lon": -87.6483425, "tags": {"addr:city": "Chicago", "addr:housenumber": "1969", "addr:postcode": "60614", "addr:street": "North Halsted Street", "amenity": "restaurant", "cuisine": "Taqueria/Cantina", "name": "Taco Joint", "phone": "+1-312-951-2457", "website": "https://www.tacojoint.com/"}}, {"type": "node", "id": 2623896633, "lat": 41.917875, "lon": -87.648321, "tags": {"addr:city": "Chicago", "addr:housenumber": "1967", "addr:postcode": "60614", "addr:street": "North Halsted Street", "amenity": "restaurant", "name": "Rustic House"}}, {"type": "node", "id": 2623896642, "lat": 41.9179319, "lon": -87.6486675, "tags": {"addr:city": "Chicago", "addr:housenumber": "1966", "addr:postcode": "60614", "addr:state": "IL", "addr:street": "North Halsted Street", "amenity": "restaurant", "name": "Pasta Palazzo", "phone": "+1-773-248-1400", "takeaway": "yes", "website": "http://pastapalazzo.com/"}}, {"type": "node", "id": 2624050319, "lat": 41.9180677, "lon": -87.6483402, "tags": {"addr:city": "Chicago", "addr:housenumber": "1973", "addr:postcode": "60614", "addr:state": "IL", "addr:street": "North Halsted Street", "amenity": "bar", "name": "Marquee Lounge"}}, {"type": "node", "id": 2624050324, "lat": 41.9177852, "lon": -87.6486715, "tags": {"addr:city": "Chicago", "addr:housenumber": "1962", "addr:postcode": "60614", "addr:street": "North Halsted Street", "amenity": "restaurant", "name": "Coppervine"}}, {"type": "node", "id": 2624050329, "lat": 41.9180886, "lon": -87.6471654, "tags": {"addr:city": "Chicago", "addr:housenumber": "732", "addr:postcode": "60614", "addr:street": "West Armitage Avenue", "amenity": "restaurant", "cuisine": "fast_food", "name": "Brothers Beef"}}, {"type": "node", "id": 2968844771, "lat": 41.9189763, "lon": -87.6487203, "tags": {"addr:city": "Chicago", "addr:housenumber": "2024", "addr:postcode": "60614", "addr:state": "IL", "addr:street": "North Halsted Street", "amenity": "restaurant", "name": "Cafe Ba-Ba-Reeba!", "phone": "+1-773-935-5000", "website": "http://cafebabareeba.com/"}}, {"type": "node", "id": 2986607620, "lat": 41.9107897, "lon": -87.6506196}, {"type": "node", "id": 3269064603, "lat": 41.9181092, "lon": -87.6465719, "tags": {"amenity": "restaurant", "cuisine": "pizza", "name": "Armitage Pizza", "takeaway": "yes"}}, {"type": "node", "id": 3502294519, "lat": 41.9137104, "lon": -87.6481992, "tags": {"addr:city": "Chicago", "addr:housenumber": "1733", "addr:postcode": "60614", "addr:state": "IL", "addr:street": "North Halsted Street", "amenity": "restaurant", "cuisine": "deep_dish_pizza_and_general_Italian", "delivery": "yes", "name": "Pizza Capri", "takeaway": "yes"}}, {"type": "node", "id": 3502294527, "lat": 41.9136386, "lon": -87.6482025, "tags": {"addr:city": "Chicago", "addr:housenumber": "1729", "addr:postcode": "60614", "addr:state": "IL", "addr:street": "North Halsted Street", "amenity": "restaurant", "name": "Boka", "opening_hours": "Mo-Th 17:00-22:00; Fr-Sa 17:00-23:00; Su 17:00-22:00", "phone": "+1-312-337-6070", "website": "http://www.bokachicago.com/", "wikidata": "Q16255079"}}, {"type": "node", "id": 3502294528, "lat": 41.9136875, "lon": -87.6485512, "tags": {"addr:housenumber": "1732", "addr:street": "North Halsted Street", "amenity": "restaurant", "cuisine": "italian", "name": "Vinci"}}, {"type": "node", "id": 3502294529, "lat": 41.9134372, "lon": -87.648199, "tags": {"addr:city": "Chicago", "addr:housenumber": "1723", "addr:postcode": "60614", "addr:state": "IL", "addr:street": "North Halsted Street", "amenity": "restaurant", "cuisine": "fine_dining", "name": "Alinea", "phone": "+1-312-867-0110", "website": "https://www.alinearestaurant.com/", "wikidata": "Q4726773"}}, {"type": "node", "id": 3502294530, "lat": 41.911655, "lon": -87.6480886, "tags": {"amenity": "restaurant", "name": "Circle Sushi & Grill", "takeaway": "yes"}}, {"type": "node", "id": 3502294531, "lat": 41.9117202, "lon": -87.6480993, "tags": {"addr:city": "Chicago", "addr:housenumber": "1625", "addr:postcode": "60614", "addr:state": "IL", "addr:street": "North Halsted Street", "amenity": "restaurant", "cuisine": "mediterranean", "name": "Dawali Mediterranean Kitchen", "phone": "+1-312-944-5800", "takeaway": "yes", "website": "http://dawalikitchen.com/"}}, {"type": "node", "id": 3502294537, "lat": 41.9119981, "lon": -87.6481205, "tags": {"amenity": "restaurant", "cuisine": "italian", "name": "Balena"}}, {"type": "node", "id": 3502328666, "lat": 41.913639, "lon": -87.6530805, "tags": {"addr:housenumber": "953", "addr:street": "West Willow Street", "amenity": "restaurant", "cuisine": "pizza", "name": "Amato's Pizza", "takeaway": "yes"}}, {"type": "node", "id": 3502328667, "lat": 41.9135185, "lon": -87.6529319, "tags": {"addr:housenumber": "1781", "addr:street": "North Clybourn Avenue", "amenity": "restaurant", "cuisine": "mexican", "name": "Jaimito's Burritos", "takeaway": "yes"}}, {"type": "node", "id": 3841977063, "lat": 41.9218198, "lon": -87.6541736}, {"type": "node", "id": 4045036123, "lat": 41.9233231, "lon": -87.6455687, "tags": {"addr:city": "Chicago", "addr:housenumber": "2265", "addr:postcode": "60614", "addr:state": "IL", "addr:street": "North Lincoln Avenue", "amenity": "bar", "name": "Kelsey's", "phone": "+1-773-348-1666", "website": "http://kelseysbar.com/"}}, {"type": "node", "id": 4045036124, "lat": 41.9232814, "lon": -87.6454858, "tags": {"addr:city": "Chicago", "addr:housenumber": "2263", "addr:postcode": "60614", "addr:state": "IL", "addr:street": "North Lincoln Avenue", "amenity": "bar", "name": "Lincoln Avenue Social", "phone": "+1-773-348-7200", "website": "https://lincolnavenuesocial.com/"}}, {"type": "node", "id": 4045036125, "lat": 41.9231514, "lon": -87.645214, "tags": {"amenity": "bar", "name": "The Apartment"}}, {"type": "node", "id": 4191676738, "lat": 41.9100421, "lon": -87.6493042, "tags": {"addr:city": "Chicago", "addr:housenumber": "1555", "addr:postcode": "60642", "addr:state": "IL", "addr:street": "North Dayton Street", "amenity": "bar", "name": "Weeds Tavern", "phone": "+1-312-943-7815", "website": "http://weedstavern.com/"}}, {"type": "node", "id": 4196262789, "lat": 41.9216939, "lon": -87.649093, "tags": {"addr:city": "Chicago", "addr:housenumber": "807", "addr:state": "IL", "addr:street": "West Webster Avenue", "amenity": "restaurant", "name": "Athenian Room", "phone": "+1-773-348-5155"}}, {"type": "node", "id": 4196262795, "lat": 41.9219393, "lon": -87.6488352, "tags": {"amenity": "cafe", "brand": "Starbucks", "brand:wikidata": "Q37158", "brand:wikipedia": "en:Starbucks", "cuisine": "coffee_shop", "name": "Starbucks", "official_name": "Starbucks Coffee", "takeaway": "yes"}}, {"type": "node", "id": 4196262798, "lat": 41.9219534, "lon": -87.648107, "tags": {"addr:city": "Chicago", "addr:housenumber": "746", "addr:postcode": "60614", "addr:state": "IL", "addr:street": "West Webster Avenue", "amenity": "restaurant", "name": "Toast", "phone": "+1-773-935-5600", "website": "http://chicago-toast.com/"}}, {"type": "node", "id": 4460783569, "lat": 41.921899, "lon": -87.6524732, "tags": {"addr:city": "Chicago", "addr:country": "US", "addr:housenumber": "938", "addr:postcode": "60614", "addr:state": "IL", "addr:street": "West Webster Avenue", "amenity": "restaurant", "cuisine": "pizza", "name": "Homeslice", "opening_hours": "Mo-We 11:30-22:30; Th 11:30-23:00; Fr 11:30-00:00; Sa 10:30-00:00; Su 10:30-22:30", "phone": "+1-312-789-4600", "website": "http://www.getsomehomie.com"}}, {"type": "node", "id": 4499383937, "lat": 41.923718, "lon": -87.649649, "tags": {"barrier": "gate"}}, {"type": "node", "id": 4499383938, "lat": 41.9237203, "lon": -87.6495479}, {"type": "node", "id": 5184313955, "lat": 41.9631325, "lon": -87.6573781}, {"type": "node", "id": 5315542898, "lat": 41.9243247, "lon": -87.6529231}, {"type": "node", "id": 5315542899, "lat": 41.9238452, "lon": -87.652884}, {"type": "node", "id": 6152474394, "lat": 41.9253198, "lon": -87.6554087}, {"type": "node", "id": 6152474396, "lat": 41.9258876, "lon": -87.6544944}, {"type": "node", "id": 6152474397, "lat": 41.9253782, "lon": -87.6523958}, {"type": "node", "id": 6152474398, "lat": 41.9249999, "lon": -87.6523833}, {"type": "node", "id": 6198363142, "lat": 41.9204702, "lon": -87.6487784, "tags": {"addr:city": "Chicago", "addr:housenumber": "2114", "addr:postcode": "60614", "addr:state": "IL", "addr:street": "North Halsted Street", "amenity": "restaurant", "cuisine": "breakfast, american", "name": "Nookies, too", "opening_hours": "Su-Sa 07:00-15:30", "phone": "+1-773-327-1400", "website": "http://www.nookieschicago.com/too_menu.php"}}, {"type": "node", "id": 6256206803, "lat": 41.9225682, "lon": -87.6443899, "tags": {"addr:city": "Chicago", "addr:housenumber": "2221", "addr:postcode": "60614", "addr:state": "IL", "addr:street": "North Lincoln Avenue", "amenity": "restaurant", "name": "7 Plates Cafe", "phone": "+1-773-687-8817", "website": "https://www.sevenplatescafe.com/"}}, {"type": "node", "id": 6261170704, "lat": 41.9177188, "lon": -87.6531808, "tags": {"addr:city": "Chicago", "addr:housenumber": "1963", "addr:postcode": "60614", "addr:state": "IL", "addr:street": "North Sheffield Avenue", "amenity": "cafe", "cuisine": "coffee_shop", "name": "Ambrosia Caf\u00e9", "phone": "+1-773-404-4450"}}, {"type": "node", "id": 6267385985, "lat": 41.9185677, "lon": -87.6488313, "tags": {"addr:city": "Chicago", "addr:housenumber": "2010", "addr:postcode": "60614", "addr:state": "IL", "addr:street": "North Halsted Street", "amenity": "restaurant", "name": "Blue Door Farm Stand", "phone": "+1-312- 265-0259", "website": "https://bluedoorfarmstand.com/"}}, {"type": "node", "id": 6269382429, "lat": 41.9179047, "lon": -87.6542335, "tags": {"addr:city": "Chicago", "addr:housenumber": "1021", "addr:postcode": "60614", "addr:state": "IL", "addr:street": "West Armitage Avenue", "amenity": "restaurant", "name": "Butcher & The Burger", "phone": "+1-773-697-3735", "website": "http://www.butcherandtheburger.com/"}}, {"type": "node", "id": 6280031591, "lat": 41.9219259, "lon": -87.6533381, "tags": {"addr:city": "Chicago", "addr:housenumber": "958", "addr:postcode": "60614", "addr:state": "IL", "addr:street": "West Webster Avenue", "amenity": "restaurant", "cuisine": "breakfast;brunch;american", "name": "Jam 'n Honey", "opening_hours": "Mo-Fr 08:00-21:00; Sa-Su 08:00-15:00", "phone": "+1- 773-327-5266", "website": "https://www.jamnhoney.com"}}, {"type": "node", "id": 6280044828, "lat": 41.9213591, "lon": -87.6533166, "tags": {"addr:city": "Chicago", "addr:housenumber": "2147", "addr:postcode": "60614", "addr:state": "IL", "addr:street": "North Sheffield Avenue", "amenity": "restaurant", "cuisine": "american", "name": "Devil Dawgs on Sheffield", "opening_hours": "Mo-Su 10:30-03:00", "phone": "+1-773-281-4300", "website": "https://devildawgs.com"}}, {"type": "node", "id": 6280046367, "lat": 41.9215816, "lon": -87.6530605, "tags": {"addr:city": "Chicago", "addr:housenumber": "953", "addr:postcode": "60614", "addr:state": "IL", "addr:street": "West Webster Avenue", "amenity": "restaurant", "cuisine": "mexican", "name": "Holy Taco", "opening_hours": "Mo-Th 11:00-23:00; Fr 11:00-02:00; Sa 10:00-02:00; Su 10:00-22:00", "phone": "+1-773-857-0844", "website": "https://www.holytacochicago.com"}}, {"type": "node", "id": 6280558497, "lat": 41.9180485, "lon": -87.6456973, "tags": {"addr:city": "Chicago", "addr:housenumber": "655", "addr:postcode": "60614", "addr:state": "IL", "addr:street": "West Armitage Avenue", "amenity": "restaurant", "name": "Cedar Palace", "phone": "+1-312-643-0933", "website": "https://www.cedarpalacechicago.com/"}}, {"type": "node", "id": 6280801554, "lat": 41.9179286, "lon": -87.6530197, "tags": {"addr:city": "Chicago", "addr:housenumber": "953", "addr:postcode": "60614", "addr:state": "IL", "addr:street": "West Armitage Avenue", "amenity": "restaurant", "name": "Chicago Bagel Authority", "phone": "+1-773-248-9606", "website": "https://eatcba.com/"}}, {"type": "node", "id": 6283943982, "lat": 41.9177735, "lon": -87.6487892, "tags": {"addr:city": "Chicago", "addr:housenumber": "1962", "addr:postcode": "60614", "addr:state": "IL", "addr:street": "North Halsted Street", "amenity": "restaurant", "cuisine": "seafood", "name": "Crab Cellar", "phone": "+1-773-248-1737", "website": "https://www.crabcellar.com/"}}, {"type": "node", "id": 6284902474, "lat": 41.9092439, "lon": -87.6475313, "tags": {"addr:city": "Chicago", "addr:housenumber": "1538", "addr:postcode": "60642", "addr:state": "IL", "addr:street": "North Clybourn Avenue", "amenity": "restaurant", "cuisine": "american", "name": "Earls Kitchen + Bar", "phone": "+1-312-929-3952", "website": "https://earls.ca/locations/lincoln-park"}}, {"type": "node", "id": 6290965033, "lat": 41.9218926, "lon": -87.659204, "tags": {"addr:city": "Chicago", "addr:housenumber": "1220", "addr:postcode": "60614", "addr:state": "IL", "addr:street": "West Webster Avenue", "amenity": "restaurant", "name": "Floriole Cafe & Bakery", "phone": "+1-773-883-1313", "website": "http://www.floriole.com/"}}, {"type": "node", "id": 6291621644, "lat": 41.9128766, "lon": -87.6485296, "tags": {"addr:city": "Chicago", "addr:housenumber": "1700", "addr:postcode": "60614", "addr:state": "IL", "addr:street": "North Halsted Street", "amenity": "bar", "name": "Front Bar", "phone": "+1-312-649-6880", "website": "http://www.front-bar.com/"}}, {"type": "node", "id": 6294616307, "lat": 41.9233475, "lon": -87.6460503, "tags": {"addr:city": "Chicago", "addr:housenumber": "2270", "addr:postcode": "60614", "addr:state": "IL", "addr:street": "North Lincoln Avenue", "amenity": "bar", "name": "Hook and Ladder", "phone": "+1-773-857-0546", "website": "http://www.hookandladderchicago.com/"}}, {"type": "node", "id": 6301720990, "lat": 41.9176217, "lon": -87.6487786, "tags": {"addr:city": "Chicago", "addr:housenumber": "1954", "addr:postcode": "60614", "addr:state": "IL", "addr:street": "North Halsted Street", "amenity": "restaurant", "name": "Stella Barra Pizzeria", "phone": "+1-773-634-4101", "website": "http://stellabarra.com/"}}, {"type": "node", "id": 6302665610, "lat": 41.9183755, "lon": -87.6487346, "tags": {"addr:city": "Chicago", "addr:housenumber": "2002", "addr:postcode": "60614", "addr:state": "IL", "addr:street": "North Halsted Street", "amenity": "bar", "name": "The Store", "phone": "+1-773-327-7766", "website": "http://www.thestoretil4.com/"}}, {"type": "node", "id": 6305147152, "lat": 41.9230946, "lon": -87.6451223, "tags": {"addr:city": "Chicago", "addr:housenumber": "2249", "addr:postcode": "60614", "addr:state": "IL", "addr:street": "North Lincoln Avenue", "amenity": "bar", "name": "Tobacco Road Tap Room", "phone": "+1-773-661-6416", "website": "https://www.tobaccoroadchi.com/"}}, {"type": "node", "id": 6305256043, "lat": 41.9187992, "lon": -87.648845, "tags": {"addr:city": "Chicago", "addr:housenumber": "2020", "addr:postcode": "60614", "addr:state": "IL", "addr:street": "North Halsted Street", "amenity": "bar", "name": "The Beaumont", "phone": "+1-773-281-0177"}}, {"type": "node", "id": 6306510591, "lat": 41.9182866, "lon": -87.653811, "tags": {"addr:city": "Chicago", "addr:housenumber": "1008", "addr:postcode": "60614", "addr:state": "IL", "addr:street": "West Armitage Avenue", "amenity": "restaurant", "name": "The Budlong Hot Chicken", "phone": "+1-773-270-9005", "website": "https://www.thebudlong.com/"}}, {"type": "node", "id": 6306665116, "lat": 41.9178322, "lon": -87.6572715, "tags": {"addr:city": "Chicago", "addr:housenumber": "1147", "addr:postcode": "60614", "addr:state": "IL", "addr:street": "West Armitage Avenue", "amenity": "bar", "name": "Tripoli Ta", "phone": "+1-773-477-4400", "website": "http://www.tripolitap.com/"}}, {"type": "node", "id": 6314860238, "lat": 41.9177296, "lon": -87.6483011, "tags": {"addr:city": "Chicago", "addr:housenumber": "1961", "addr:postcode": "60614", "addr:state": "IL", "addr:street": "North Halsted Street", "amenity": "bar", "name": "J9 Wine Bar", "phone": "+1-312-982-2488", "website": "http://www.j9winebar.com/"}}, {"type": "node", "id": 6316924033, "lat": 41.9139765, "lon": -87.6486439, "tags": {"addr:city": "Chicago", "addr:housenumber": "1800", "addr:postcode": "60614", "addr:state": "IL", "addr:street": "North Halsted Street", "amenity": "restaurant", "name": "Willow Room", "phone": "+1-312-982-2151", "website": "http://www.willowroomchicago.com/"}}, {"type": "node", "id": 6318184961, "lat": 41.9183399, "lon": -87.6535929, "tags": {"addr:city": "Chicago", "addr:housenumber": "1000", "addr:postcode": "60614", "addr:state": "IL", "addr:street": "West Armitage Avenue", "amenity": "cafe", "brand": "Le Pain Quotidien", "brand:wikidata": "Q2046903", "brand:wikipedia": "en:Le Pain Quotidien", "cuisine": "coffee_shop", "name": "Le Pain Quotidien", "phone": "+1-773-770-4341", "takeaway": "yes", "website": "https://www1.lepainquotidien.com/us/en/locations/602/1000-west-armitage-ave"}}, {"type": "node", "id": 6318193521, "lat": 41.918212, "lon": -87.6538155, "tags": {"addr:city": "Chicago", "addr:housenumber": "2000", "addr:postcode": "60614", "addr:state": "IL", "addr:street": "North Sheffield Avenue", "amenity": "cafe", "name": "Le Pain Quotedien", "phone": "+1-212-359-9000", "website": "https://www1.lepainquotidien.com/us/en/"}}, {"type": "node", "id": 6318996267, "lat": 41.9101115, "lon": -87.6521126, "tags": {"addr:city": "Chicago", "addr:housenumber": "940", "addr:postcode": "60642", "addr:state": "IL", "addr:street": "West Weed Street", "amenity": "bar", "name": "Joe\u2019s On Weed St", "phone": "+1-312-337-3486", "website": "http://joesbar.com/"}}, {"type": "node", "id": 6319303665, "lat": 41.9143668, "lon": -87.648564, "tags": {"addr:city": "Chicago", "addr:housenumber": "1816", "addr:postcode": "60614", "addr:state": "IL", "addr:street": "North Halsted Street", "amenity": "restaurant", "name": "King Crab House", "phone": "+1-312-280-8990", "website": "http://kingcrabchicago.com/"}}, {"type": "node", "id": 6319691545, "lat": 41.9094212, "lon": -87.6478311, "tags": {"addr:city": "Chicago", "addr:housenumber": "1538", "addr:postcode": "60610", "addr:state": "IL", "addr:street": "North Clybourn Avenue", "amenity": "restaurant", "name": "Kizuki Ramen & Izakaya", "phone": "+1-312-631-3165", "website": "https://www.kizuki.com/"}}, {"type": "node", "id": 6320003532, "lat": 41.9183019, "lon": -87.6507923, "tags": {"addr:city": "Chicago", "addr:housenumber": "858", "addr:postcode": "60614", "addr:state": "IL", "addr:street": "West Armitage Avenue", "amenity": "cafe", "name": "La Colombe Coffee", "phone": "+1-773-572-9685", "website": "https://www.lacolombe.com/"}}, {"type": "node", "id": 6323140931, "lat": 41.9235791, "lon": -87.6457972, "tags": {"addr:city": "Chicago", "addr:housenumber": "2273", "addr:postcode": "60614", "addr:state": "IL", "addr:street": "North Lincoln Avenue", "amenity": "cafe", "name": "Nighthawk AM", "phone": "+1-773-697-8899", "website": "https://www.nighthawkam.com/"}}, {"type": "node", "id": 6323975670, "lat": 41.9105421, "lon": -87.6536447, "tags": {"addr:city": "Chicago", "addr:housenumber": "1001", "addr:postcode": "60642", "addr:state": "IL", "addr:street": "West North Avenue", "amenity": "restaurant", "name": "Olive Mediterranean Grill", "phone": "+1-312-274-5525", "website": "http://eatomg.com/"}}, {"type": "node", "id": 6324195508, "lat": 41.9177881, "lon": -87.6489419, "tags": {"addr:city": "Chicago", "addr:housenumber": "1962", "addr:postcode": "60614", "addr:state": "IL", "addr:street": "North Halsted Street", "addr:unit": "1", "amenity": "restaurant", "cuisine": "seafood", "name": "Oyster Bah", "phone": "+1-773-248-3000", "website": "http://oysterbah.com/"}}, {"type": "node", "id": 6324601603, "lat": 41.9241811, "lon": -87.6498509}, {"type": "node", "id": 6325236767, "lat": 41.9179312, "lon": -87.6524638, "tags": {"addr:city": "Chicago", "addr:housenumber": "939", "addr:postcode": "60614", "addr:state": "IL", "addr:street": "West Armitage Avenue", "amenity": "restaurant", "name": "Tovala", "phone": "+1-773-666-5868", "website": "https://www.tovala.com/"}}, {"type": "node", "id": 6326517473, "lat": 41.9184105, "lon": -87.6532906, "tags": {"addr:city": "Chicago", "addr:housenumber": "958", "addr:postcode": "60614", "addr:state": "IL", "addr:street": "West Armitage Avenue", "amenity": "cafe", "name": "Le Macaron French Pastries", "phone": "+1-773-904-7097", "website": "https://lemacaron-us.com/"}}, {"type": "node", "id": 6341811104, "lat": 41.9110998, "lon": -87.6537471, "tags": {"addr:housenumber": "1000", "addr:street": "West North Avenue", "amenity": "cafe", "brand": "Peet's Coffee", "brand:wikidata": "Q1094101", "brand:wikipedia": "en:Peet's Coffee", "cuisine": "coffee_shop", "name": "Peet's Coffee", "opening_hours": "Mo-Fr 05:30-19:30; Sa, Su 06:00-19:30", "phone": "3124759782", "takeaway": "yes"}}, {"type": "node", "id": 6341813651, "lat": 41.9118309, "lon": -87.6543287, "tags": {"addr:housenumber": "1000", "addr:street": "W. North Avenue", "amenity": "restaurant", "name": "Epic Burger", "opening_hours": "Mo-Th 10:30-22:00; Fr,Sa 10:30-23:00; Su 10:30-21:00"}}, {"type": "node", "id": 6407456510, "lat": 41.9175688, "lon": -87.6486847, "tags": {"addr:city": "Chicago", "addr:housenumber": "1954", "addr:postcode": "60614", "addr:state": "IL", "addr:street": "North Halsted Street", "amenity": "restaurant", "cuisine": "american;californian", "name": "Summer House Santa Monica", "opening_hours": "Mo-Th 11:00-22:00; Fr 11:00-23:00; Sa 08:00-23:00; Su 08:00-22:00", "phone": "+1-773-634-4100", "website": "http://summerhousesm.com"}}, {"type": "node", "id": 6426543140, "lat": 41.9169513, "lon": -87.6572958, "tags": {"addr:city": "Chicago", "addr:housenumber": "1953", "addr:postcode": "60614", "addr:state": "IL", "addr:street": "North Clybourn Avenue", "amenity": "restaurant", "cuisine": "salad", "diet:vegetarian": "yes", "name": "Protein Bar & Kitchen", "opening_hours": "Mo-Th 07:30-21:00; Fr 07:30-20:00; Sa 08:00-20:00; Su 09:00-18:00", "outdoor_seating": "no", "phone": "(773) 472-1500", "website": "theproteinbar.com"}}, {"type": "node", "id": 6509327748, "lat": 41.910625, "lon": -87.6490293}, {"type": "node", "id": 6720215383, "lat": 41.9144195, "lon": -87.6547636, "tags": {"addr:city": "Chicago", "addr:housenumber": "1832", "addr:postcode": "60614", "addr:state": "IL", "addr:street": "North Clybourn Avenue", "amenity": "restaurant", "brand": "Buffalo Wild Wings", "brand:wikidata": "Q509255", "brand:wikipedia": "en:Buffalo Wild Wings", "cuisine": "wings", "name": "Buffalo Wild Wings"}}, {"type": "node", "id": 6991264600, "lat": 41.8879891, "lon": -87.6340408}, {"type": "node", "id": 6991264601, "lat": 41.8879908, "lon": -87.6339507}, {"type": "node", "id": 6991264602, "lat": 41.8883853, "lon": -87.6340398}, {"type": "node", "id": 6991264603, "lat": 41.8882864, "lon": -87.6339642}, {"type": "node", "id": 6991264606, "lat": 41.8882813, "lon": -87.6340432, "tags": {"railway": "switch"}}, {"type": "node", "id": 6991264607, "lat": 41.8870826, "lon": -87.6340276}, {"type": "node", "id": 6991264608, "lat": 41.88676, "lon": -87.6340003}, {"type": "node", "id": 6991264612, "lat": 41.8887088, "lon": -87.6340305}, {"type": "node", "id": 6991264641, "lat": 41.8884627, "lon": -87.6339674}, {"type": "node", "id": 6991264647, "lat": 41.8867708, "lon": -87.6339505}, {"type": "node", "id": 6991264648, "lat": 41.8869837, "lon": -87.6339419}, {"type": "node", "id": 7330251178, "lat": 41.9219485, "lon": -87.6484614, "tags": {"addr:city": "Chicago", "addr:housenumber": "756", "addr:postcode": "60614", "addr:state": "IL", "addr:street": "West Webster Avenue", "amenity": "restaurant", "cuisine": "asian;sushi;thai", "name": "Shine and Rise", "phone": "+1-773-296-0101", "website": "https://www.shinerestaurant.com/"}}, {"type": "node", "id": 7675707618, "lat": 41.9227796, "lon": -87.6528392, "tags": {"railway": "railway_crossing"}}, {"type": "node", "id": 7675707619, "lat": 41.9201914, "lon": -87.6527119, "tags": {"railway": "railway_crossing"}}, {"type": "node", "id": 7675707620, "lat": 41.9104156, "lon": -87.6415743}, {"type": "node", "id": 7675707621, "lat": 41.9103827, "lon": -87.6412202}, {"type": "node", "id": 7675707646, "lat": 41.8941221, "lon": -87.6356157, "tags": {"railway": "switch"}}, {"type": "node", "id": 7675707647, "lat": 41.8944651, "lon": -87.6356718, "tags": {"railway": "switch"}}, {"type": "node", "id": 7675707649, "lat": 41.8909163, "lon": -87.6355288, "tags": {"railway": "switch"}}, {"type": "node", "id": 7675707650, "lat": 41.8907137, "lon": -87.6355751, "tags": {"railway": "switch"}}, {"type": "node", "id": 7675817129, "lat": 41.9098034, "lon": -87.6480581, "tags": {"railway": "switch"}}, {"type": "node", "id": 7675817130, "lat": 41.9096255, "lon": -87.6476521, "tags": {"railway": "switch"}}, {"type": "node", "id": 7675817131, "lat": 41.9098427, "lon": -87.6479514, "tags": {"railway": "switch"}}, {"type": "node", "id": 7675817132, "lat": 41.9096016, "lon": -87.6477754, "tags": {"railway": "switch"}}, {"type": "node", "id": 7675817133, "lat": 41.9097161, "lon": -87.647859, "tags": {"railway": "railway_crossing"}}, {"type": "way", "id": 26150036, "nodes": [286369237, 416770215, 416770216, 2458410440, 286369226, 417255771, 417255772, 417255773, 417255774, 6152474394, 417255775, 6152474396, 417255776, 286369306, 286369307, 6152474397, 6152474398, 286369308, 308675507, 286369309, 286369232, 286369233, 1983549241, 1983549242, 286369234, 3841977063, 286369235, 286369311, 286369237], "tags": {"amenity": "university", "name": "DePaul University", "operator": "Depaul University", "operator:type": "university", "wheelchair": "yes", "wikipedia": "en:DePaul University"}}, {"type": "way", "id": 32853826, "nodes": [370093716, 307890165, 1983543632, 6324601603, 452377015, 452377016, 307890172, 2348349944, 4499383937, 4499383938, 370093749, 370093752, 370093716], "tags": {"amenity": "university", "name": "DePaul University", "operator": "DePaul University", "operator:type": "university"}}, {"type": "way", "id": 33704092, "nodes": [739322063, 102700768, 102700767, 1432910140, 102700766, 1432910143, 102700765, 258960947, 102700764, 102700763, 1432910138, 1432910142, 1432910152, 102700762, 102700760, 102700758, 1432910156, 102700757, 1432910163, 102700756, 102700755, 1432910168, 102700754, 102700753, 7675707621, 924675176, 924675175, 2012780459, 924675174, 2012780453, 2012780433, 258960946, 2012780451, 102700749, 2012780445, 102700747, 2012780462, 102700746, 2012780466, 102700744, 2012780393, 102700743, 924675224, 924675228, 924675310, 102700742, 102700741, 258960945, 258960944, 258960943, 258960942, 258960941, 102715665, 102715664, 102715663, 102715662, 102715661, 102715660, 102715659, 102715657, 2012967741, 102715655, 2012967749, 102715654, 102715653, 102715652, 2012967748, 102715650, 2012967713, 2012967743, 102715649, 2012967763, 102715648, 7675707647, 924678502, 102715646, 7675707650, 102715644, 102715642, 102715641, 2012979502, 102715639, 2012979491, 102715638, 257955770, 257955769, 2012979492, 257955768, 2012979484, 257955767, 2012979501, 258941527, 6991264612, 2012979483, 6991264602, 6991264606, 6991264600, 6991264607, 6991264608, 924678873], "tags": {"bridge": "yes", "layer": "1", "level": "1", "old_name": "North Side Division", "oneway": "yes", "operator": "Chicago Transit Authority", "railway": "subway"}}, {"type": "way", "id": 33972352, "nodes": [739322134, 739322154], "tags": {"electrified": "rail", "gauge": "1435", "name": "North Side Main Line", "oneway": "yes", "operator": "Chicago Transit Authority", "railway": "subway", "voltage": "600"}}, {"type": "way", "id": 59221022, "nodes": [739322154, 739322404, 739322142, 739322185, 739322192, 739322178, 739322406, 739322407, 1984415181, 1710876944, 1983526823, 1984415196, 739322411, 2023910819, 1983526826, 1984415190, 1983526835, 1984415178, 739321893, 739321897, 739322415, 739322417, 739322418, 739322420, 739322424, 739322426, 739322427, 739322429, 739322431, 739322432, 739322434, 739322436, 739321898, 739322437, 739322439, 739322257, 739322209, 1984429360, 1983581003, 739322441, 1710876990, 2023910817, 734573145, 1983580999, 734562975, 734562978, 734562847, 734562834], "tags": {"bridge": "yes", "electrified": "rail", "gauge": "1435", "layer": "1", "name": "North Side Main Line", "oneway": "yes", "operator": "Chicago Transit Authority", "railway": "subway", "voltage": "600"}}, {"type": "way", "id": 59221032, "nodes": [734563141, 734563017, 734562821, 1983581012, 1983580989, 389151978, 739322272, 2014100269, 739322277, 739322278, 739322279, 739322280, 739322247, 739322253, 739322281, 739322282, 739322283, 739322284, 739322285, 739322286, 739322287, 739322288, 739322289, 739322290, 739322295, 739322296, 2004713106, 739322303, 739322306, 739322308, 739322309, 739322214, 739322223, 739322317, 739322319, 2012549082, 5315542898, 739322327, 5315542899, 739322333, 739322226, 739322149, 739322335, 739322172, 739322336, 739322196, 739322338, 739322025, 2012769524, 739322340, 739322341, 739322343, 739322344, 739322346, 739322347, 739322348, 739322350, 739322351, 739322353, 739322357, 739322358, 739322360, 739322362, 739322364, 739322366, 739322368, 739322370, 739322063], "tags": {"bridge": "yes", "electrified": "rail", "frequency": "0", "gauge": "1435", "layer": "1", "name": "North Side Main Line", "oneway": "yes", "operator": "Chicago Transit Authority", "railway": "subway", "voltage": "600"}}, {"type": "way", "id": 59221035, "nodes": [924678886, 6991264647, 6991264648, 924678871, 6991264601, 6991264603, 6991264641, 2012979495, 2012979496, 924678652, 924678604, 2012979499, 924678605, 924678606, 924678607, 924678608, 924678609, 2012979485, 924678610, 2012979487, 924678601, 924678602, 924678603, 2012979493, 7675707649, 924678512, 924678513, 924678511, 7675707646, 924678452, 924678447, 924678448, 2012967723, 924678449, 2003592886, 924678450, 2012967764, 924677837, 924677838, 2012967745, 2012967718, 924677841, 924677844, 924677939, 924677086, 924676026, 924676027, 924675644, 924675645, 924675646, 924675647, 924675572, 924675573, 924675574, 924675575, 924675576, 924675524, 924675523, 924675431, 924675233, 924675223, 924675186, 924675187, 924675188, 2012780443, 924675189, 2012780397, 924675190, 924675191, 2012780401, 924675192, 924675193, 2012780408, 924675178, 924675179, 924675180, 924675181, 924675152, 7675707620, 924675149, 924675118, 924675092, 924675093, 924675094, 924675095, 1432910167, 1432910169, 924675096, 924675097, 924674756, 1432910164, 924674757, 924674758, 924674759, 924674760, 1432910166, 924674761, 924674762, 924674763, 924674764, 1432910146, 924674765, 924674766, 924674767, 924674711, 739322500, 739322501, 739322503, 739322505, 739322508, 739322509, 739322511, 739322513, 739322516, 739322518, 739322520, 739322521, 739322523, 739322524, 739322526, 739322527, 739322024, 739322529, 739322141, 739322530, 739322179, 739322532, 739322533, 1984415195, 1710876945, 739322534, 1710876946, 739322535, 2012549083, 739322543, 739322545, 739322546, 739322548, 739322550, 739321890, 739321896, 739322560, 739322563, 739322565, 2004713101, 739322568, 739322570, 739322574, 739322575, 739322577, 739322578, 739322580, 739322581, 739321899, 2012532417, 739322583, 1634477276, 739322207, 739322259, 1710876988, 1984429368, 739322585, 739322586, 2014100270, 734563942, 1710876991, 1984429372, 1710876992, 1710876993, 734562832], "tags": {"bridge": "yes", "electrified": "rail", "frequency": "0", "gauge": "1435", "layer": "1", "level": "1", "name": "North Side Main Line", "oneway": "yes", "operator": "Chicago Transit Authority", "railway": "subway", "voltage": "600"}}, {"type": "way", "id": 59594752, "nodes": [1722519128, 1722519129, 739322134], "tags": {"cta:objectid": "30", "cta:segmentid": "30", "electrified": "rail", "frequency": "0", "gauge": "1435", "layer": "-2", "level": "-1", "name": "State Street Subway", "oneway": "yes", "operator": "Chicago Transit Authority", "railway": "subway", "tunnel": "yes", "voltage": "600"}}, {"type": "way", "id": 59594754, "nodes": [739322136, 739322135], "tags": {"electrified": "rail", "gauge": "1435", "name": "North Side Main Line", "oneway": "yes", "operator": "Chicago Transit Authority", "railway": "subway", "voltage": "600"}}, {"type": "way", "id": 59594755, "nodes": [739322141, 739322142], "tags": {"bridge": "yes", "electrified": "rail", "gauge": "1435", "layer": "1", "oneway": "yes", "operator": "Chicago Transit Authority", "railway": "subway", "voltage": "600"}}, {"type": "way", "id": 59594756, "nodes": [739322147, 7675707618, 739322149], "tags": {"bridge": "yes", "electrified": "rail", "gauge": "1435", "layer": "1", "oneway": "yes", "operator": "Chicago Transit Authority", "railway": "subway", "voltage": "600"}}, {"type": "way", "id": 59594759, "nodes": [739322172, 739322174], "tags": {"bridge": "yes", "electrified": "rail", "gauge": "1435", "layer": "1", "oneway": "yes", "operator": "Chicago Transit Authority", "railway": "subway", "voltage": "600"}}, {"type": "way", "id": 59594760, "nodes": [739322178, 739322179], "tags": {"bridge": "yes", "electrified": "rail", "gauge": "1435", "layer": "1", "oneway": "yes", "operator": "Chicago Transit Authority", "railway": "subway", "voltage": "600"}}, {"type": "way", "id": 59594761, "nodes": [739322183, 7675707619, 739322185], "tags": {"bridge": "yes", "electrified": "rail", "gauge": "1435", "layer": "1", "operator": "Chicago Transit Authority", "railway": "subway", "voltage": "600"}}, {"type": "way", "id": 59594762, "nodes": [739322190, 7675707619, 739322192], "tags": {"bridge": "yes", "electrified": "rail", "gauge": "1435", "layer": "1", "operator": "Chicago Transit Authority", "railway": "subway", "voltage": "600"}}, {"type": "way", "id": 59594763, "nodes": [739322195, 739322196], "tags": {"bridge": "yes", "electrified": "rail", "gauge": "1435", "layer": "1", "oneway": "yes", "operator": "Chicago Transit Authority", "railway": "subway", "voltage": "600"}}, {"type": "way", "id": 59594767, "nodes": [739322226, 7675707618, 739322228], "tags": {"bridge": "yes", "electrified": "rail", "gauge": "1435", "layer": "1", "oneway": "yes", "operator": "Chicago Transit Authority", "railway": "subway", "voltage": "600"}}, {"type": "way", "id": 160184525, "nodes": [1722519113, 1722519109, 1722519107, 1722519104, 1722519105, 1722519108, 1722519112, 1722519116, 2400890639, 2400890638, 1722519118, 7675817130, 7675817131, 6509327748], "tags": {"cta:objectid": "29", "cta:segmentid": "29", "electrified": "rail", "frequency": "0", "gauge": "1435", "layer": "-2", "level": "-1", "name": "State Street Subway", "oneway": "yes", "operator": "Chicago Transit Authority", "railway": "subway", "tunnel": "yes", "voltage": "600"}}, {"type": "way", "id": 160184535, "nodes": [6509327748, 2039094535, 1722519124, 1722519125, 1722519126, 1722519127, 1722519128], "tags": {"cta:objectid": "36", "cta:segmentid": "36", "electrified": "rail", "frequency": "0", "gauge": "1435", "layer": "-2", "level": "-1", "name": "State Street Subway", "oneway": "yes", "operator": "Chicago Transit Authority", "railway": "subway", "tunnel": "yes", "voltage": "600"}}, {"type": "way", "id": 190639186, "nodes": [2012769526, 2012769525, 2012769523], "tags": {"bridge": "yes", "electrified": "rail", "frequency": "0", "gauge": "1435", "layer": "1", "operator": "Chicago Transit Authority", "railway": "subway", "service": "siding", "voltage": "600"}}, {"type": "way", "id": 190639187, "nodes": [2012769524, 2012769525], "tags": {"bridge": "yes", "electrified": "rail", "frequency": "0", "gauge": "1435", "layer": "1", "operator": "Chicago Transit Authority", "railway": "subway", "service": "siding", "voltage": "600"}}, {"type": "way", "id": 210314921, "nodes": [2204016078, 2204016642, 2204016644, 2204016082, 2204016078], "tags": {"addr:city": "Chicago", "addr:housenumber": "1021", "addr:postcode": "60614", "addr:state": "IL", "addr:street": "West Armitage Avenue", "addr:street:name": "Armitage", "addr:street:prefix": "West", "addr:street:type": "Avenue", "amenity": "restaurant", "building": "yes", "building:levels": "3", "chicago:building_id": "284755", "cuisine": "burger", "name": "The Butcher & the Burger", "phone": "+1-773-697-3735", "website": "http://butcherandtheburger.com"}}, {"type": "way", "id": 210314958, "nodes": [2204017354, 2204017355, 2204017086, 2204017058, 2204017003, 2204016973, 2204016974, 2204017008, 2204017011, 2204017354], "tags": {"addr:housenumber": "1112", "addr:street": "West Armitage Avenue", "addr:street:name": "Armitage", "addr:street:prefix": "West", "addr:street:type": "Avenue", "amenity": "restaurant", "building": "yes", "chicago:building_id": "864305", "name": "Tarantino's"}}, {"type": "way", "id": 210315048, "nodes": [2203998714, 2203998859, 2203998860, 2203998713, 2203998714], "tags": {"addr:city": "Chicago", "addr:housenumber": "1315", "addr:postcode": "60642", "addr:state": "IL", "addr:street": "West North Avenue", "addr:street:name": "North", "addr:street:prefix": "West", "addr:street:type": "Avenue", "amenity": "bar", "building": "yes", "building:levels": "2", "chicago:building_id": "878182", "name": "Exit Chicago", "phone": "+1-312-788-7040", "website": "https://www.exit-chicago.com/"}}, {"type": "way", "id": 210315354, "nodes": [2203998741, 2203998749, 2203998788, 2203998793, 2203998747, 2203998741], "tags": {"addr:housenumber": "1548", "addr:street": "North Larrabee Street", "addr:street:name": "Larrabee", "addr:street:prefix": "North", "addr:street:type": "Street", "amenity": "restaurant", "building": "yes", "building:levels": "1", "chicago:building_id": "305179", "cuisine": "burger"}}, {"type": "way", "id": 210316907, "nodes": [2204018237, 2204018278, 2204018019, 2204018017, 2204017997, 2204018237], "tags": {"addr:housenumber": "2010", "addr:street": "North Halsted Street", "addr:street:name": "Halsted", "addr:street:prefix": "North", "addr:street:type": "Street", "amenity": "restaurant", "building": "yes", "building:levels": "2", "chicago:building_id": "822495"}}, {"type": "way", "id": 210317387, "nodes": [2204024213, 2204024436, 2204024451, 2204024332, 2204024246, 2204024213], "tags": {"addr:city": "Chicago", "addr:housenumber": "2100", "addr:postcode": "60614", "addr:state": "IL", "addr:street": "North Halsted Street", "addr:street:name": "Halsted", "addr:street:prefix": "North", "addr:street:type": "Street", "amenity": "restaurant", "building": "yes", "chicago:building_id": "277405", "name": "Chez Moi", "phone": "+1-773-871-2100", "website": "https://www.chezmoichicago.com/"}}, {"type": "way", "id": 210318198, "nodes": [2204034790, 2204035452, 2204035430, 2204035138, 2204034369, 2204034790], "tags": {"addr:housenumber": "2251", "addr:street": "North Lincoln Avenue", "addr:street:name": "Lincoln", "addr:street:prefix": "North", "addr:street:type": "Avenue", "amenity": "pub", "building": "yes", "chicago:building_id": "851042", "name": "Lion Head Pub", "website": "http://www.lionheadpub.net/"}}, {"type": "way", "id": 210318212, "nodes": [2204034784, 2204034779, 2204034445, 2204034519, 2204034575, 2204035015, 2607221928, 2204034784], "tags": {"addr:housenumber": "2254-2264", "addr:street": "North Lincoln Avenue", "addr:street:name": "Lincoln", "addr:street:prefix": "North", "addr:street:type": "Avenue", "amenity": "cafe", "building": "yes", "chicago:building_id": "851014", "name": "Countryside Cafe"}}, {"type": "way", "id": 210318223, "nodes": [2204035573, 2204036024, 2204035943, 2204036056, 2204036147, 2204036347, 2204036210, 2204035410, 2204035573], "tags": {"addr:city": "Chicago", "addr:country": "US", "addr:housenumber": "2269", "addr:postcode": "60614", "addr:street": "North Lincoln Avenue", "addr:street:name": "Lincoln", "addr:street:prefix": "North", "addr:street:type": "Avenue", "amenity": "restaurant", "building": "yes", "chicago:building_id": "851040", "cuisine": "vietnamese", "name": "Simply it", "smoking": "no", "website": "http://www.chicagosimplyit.com/"}}, {"type": "way", "id": 210318550, "nodes": [2986607620, 2203998973, 2203998933, 2203998935, 2203998908, 2203998910, 2203998812, 2203998811, 2203998712, 2203998709, 2203998810, 2986607620], "tags": {"addr:city": "Chicago", "addr:housenumber": "855", "addr:postcode": "60642", "addr:state": "IL", "addr:street": "West North Avenue", "addr:street:name": "North", "addr:street:prefix": "West", "addr:street:type": "Avenue", "amenity": "restaurant", "building": "yes", "chicago:building_id": "304440", "cuisine": "mexican", "name": "Uncle Julio's"}}, {"type": "way", "id": 210318903, "nodes": [2203998691, 2203998611, 2203998642, 2203998719, 2203998691], "tags": {"addr:city": "Chicago", "addr:housenumber": "1582", "addr:postcode": "60642", "addr:state": "IL", "addr:street": "North Clybourn Avenue", "amenity": "restaurant", "building": "yes", "chicago:building_id": "878191", "name": "Sono Wood Fired"}}, {"type": "way", "id": 228237826, "nodes": [2368694116, 7675817129, 2368694131, 7675817132, 2368694127, 2368694117, 2368694118, 2368694113, 2368694132, 2368694114, 2368694137, 2368694115, 2368694112, 2368694123], "tags": {"electrified": "rail", "frequency": "0", "gauge": "1435", "layer": "-2", "level": "-1", "name": "State Street Subway", "oneway": "yes", "operator": "Chicago Transit Authority", "railway": "subway", "tunnel": "yes", "voltage": "600"}}, {"type": "way", "id": 228237829, "nodes": [2368694120, 2368694128, 2368694122, 2368694111, 2368694133, 2368694110, 2368694119, 2368694141, 2368694116], "tags": {"electrified": "rail", "frequency": "0", "gauge": "1435", "layer": "-2", "level": "-1", "name": "State Street Subway", "oneway": "yes", "operator": "Chicago Transit Authority", "railway": "subway", "tunnel": "yes", "voltage": "600"}}, {"type": "way", "id": 228237951, "nodes": [739322135, 2368695267, 2368694120], "tags": {"electrified": "rail", "frequency": "0", "gauge": "1435", "layer": "-2", "level": "-1", "name": "State Street Subway", "oneway": "yes", "operator": "Chicago Transit Authority", "railway": "subway", "tunnel": "yes", "voltage": "600"}}, {"type": "way", "id": 534617797, "nodes": [5184313955, 734513169, 734513174, 734513347, 734513348, 734513350, 734513059, 734513351, 734513352, 734513354, 734565033, 734565043, 734565049, 734565056, 734565061, 734565069, 734565079, 734565084, 734565088, 734565092, 734565097, 734565102, 734565108, 734565111, 734565117, 734565126, 734565136, 2022110679, 734565144, 2022110661, 734565150, 734565156, 2022110673, 734565163, 2022110677, 734565167, 734565170, 734565173, 734565178, 734565206, 734565211, 734565215, 734565219, 734565223, 734565228, 734565232, 734565236, 734565240, 734565243, 734565245, 734565246, 734565247, 734565249, 734565252, 734565256, 734563920, 734562951, 734565261, 734565267, 734565272, 734565276, 734565281, 734565285, 734565289, 734565294, 734565300, 734565304, 734565307, 734565311, 734565316, 734565320, 734565333, 734565335, 734565337, 734565339, 734565345, 734565350, 734565355, 734565360, 734565366, 734565374, 734565385, 734565393, 734562891, 734562812, 734563039, 734563009, 734562998, 1984429361, 734565397, 2023910816, 1710876989, 1984429367, 739322454, 1984429364, 739322251, 739322248, 739322457, 739322458, 739322460, 739322461, 739322463, 739322464, 739322466, 739322467, 739322468, 739322470, 739322472, 739322475, 739322476, 739322222, 739322216, 1984416056, 1984415185, 1984415177, 1984415192, 739322481, 2023910818, 739322483, 1984415198, 1984415204, 1984415179, 1984415200, 739322147, 739322228, 739322484, 739322174, 739322183, 739322190, 739322195, 739322486, 739322136], "tags": {"bridge": "yes", "electrified": "rail", "gauge": "1435", "layer": "1", "name": "North Side Main Line", "oneway": "yes", "operator": "Chicago Transit Authority", "railway": "subway", "voltage": "600"}}, {"type": "way", "id": 822079895, "nodes": [7675817129, 7675817133, 7675817130], "tags": {"electrified": "rail", "frequency": "0", "gauge": "1435", "layer": "-2", "railway": "subway", "service": "crossover", "tunnel": "yes", "voltage": "600"}}, {"type": "way", "id": 822079896, "nodes": [7675817131, 7675817133, 7675817132], "tags": {"electrified": "rail", "frequency": "0", "gauge": "1435", "layer": "-2", "railway": "subway", "service": "crossover", "tunnel": "yes", "voltage": "600"}}, {"type": "relation", "id": 2527861, "members": [{"type": "way", "ref": 26150036, "role": "outer"}, {"type": "way", "ref": 32853826, "role": "outer"}], "tags": {"amenity": "university", "name": "DePaul University", "type": "multipolygon"}}]}