{"version": 0.6, "generator": "Overpass API 0.7.56.1004 6cd3eaec", "osm3s": {"timestamp_osm_base": "2020-07-22T00:44:02Z", "copyright": "The data included in this document is from www.openstreetmap.org. The data is made available under ODbL."}, "elements": [{"type": "node", "id": 1749350451, "lat": 41.9677627, "lon": -87.7760197}, {"type": "node", "id": 1749350456, "lat": 41.9677637, "lon": -87.7759351}, {"type": "node", "id": 1749350604, "lat": 41.9678553, "lon": -87.7772912}, {"type": "node", "id": 1749350643, "lat": 41.9678674, "lon": -87.7772488}, {"type": "node", "id": 1749350735, "lat": 41.9678944, "lon": -87.7760094}, {"type": "node", "id": 1749350736, "lat": 41.9678944, "lon": -87.7760222}, {"type": "node", "id": 1749350837, "lat": 41.9679505, "lon": -87.7773915}, {"type": "node", "id": 1749350877, "lat": 41.9679575, "lon": -87.7760106}, {"type": "node", "id": 1749350926, "lat": 41.9679658, "lon": -87.7760216}, {"type": "node", "id": 1749351217, "lat": 41.9680211, "lon": -87.7772456}, {"type": "node", "id": 1749351309, "lat": 41.9680399, "lon": -87.7760228}, {"type": "node", "id": 1749351319, "lat": 41.9680408, "lon": -87.7759419}, {"type": "node", "id": 1749353274, "lat": 41.9686262, "lon": -87.7784568}, {"type": "node", "id": 1749353275, "lat": 41.9686265, "lon": -87.7785138}, {"type": "node", "id": 1749353285, "lat": 41.968645, "lon": -87.7786497}, {"type": "node", "id": 1749353287, "lat": 41.9686457, "lon": -87.7785154}, {"type": "node", "id": 1749353623, "lat": 41.9687568, "lon": -87.7781548}, {"type": "node", "id": 1749353634, "lat": 41.9687597, "lon": -87.7778974}, {"type": "node", "id": 1749353804, "lat": 41.9688316, "lon": -87.7786517}, {"type": "node", "id": 1749353813, "lat": 41.9688356, "lon": -87.778637}, {"type": "node", "id": 1749353818, "lat": 41.9688375, "lon": -87.7784605}, {"type": "node", "id": 1749353843, "lat": 41.9688433, "lon": -87.7781559}, {"type": "node", "id": 1749353851, "lat": 41.9688462, "lon": -87.7779003}, {"type": "node", "id": 1749665929, "lat": 41.976337, "lon": -87.7868416}, {"type": "node", "id": 1749666090, "lat": 41.976401, "lon": -87.7870341}, {"type": "node", "id": 1749666254, "lat": 41.9764533, "lon": -87.7867725}, {"type": "node", "id": 1749666433, "lat": 41.9765173, "lon": -87.7869651}, {"type": "node", "id": 1749683401, "lat": 41.981434, "lon": -87.7736937}, {"type": "node", "id": 1749683923, "lat": 41.9815815, "lon": -87.7738267}, {"type": "node", "id": 1749683957, "lat": 41.9815916, "lon": -87.7733853}, {"type": "node", "id": 1749684005, "lat": 41.9816027, "lon": -87.7736812}, {"type": "node", "id": 1749684150, "lat": 41.9816385, "lon": -87.773714}, {"type": "node", "id": 1749684267, "lat": 41.9816788, "lon": -87.7735334}, {"type": "node", "id": 1749684386, "lat": 41.9817006, "lon": -87.7734983}, {"type": "node", "id": 1749684422, "lat": 41.9817047, "lon": -87.7734909}, {"type": "node", "id": 1749684452, "lat": 41.981716, "lon": -87.7735681}, {"type": "node", "id": 1749684504, "lat": 41.981735, "lon": -87.7735293}, {"type": "node", "id": 4134476928, "lat": 41.9679551, "lon": -87.7755004, "tags": {"addr:city": "Chicago", "addr:housenumber": "5914", "addr:postcode": "60630", "addr:state": "IL", "addr:street": "West Lawrence Avenue", "amenity": "restaurant", "cuisine": "vietnamese", "name": "Pho Number One"}}, {"type": "node", "id": 4142069187, "lat": 41.9686027, "lon": -87.7817888, "tags": {"addr:city": "Chicago", "addr:housenumber": "6124", "addr:postcode": "60630", "addr:state": "IL", "addr:street": "West Gunnison Street", "amenity": "bar", "name": "Friendly Tavern", "phone": "+1-773-763-9796"}}, {"type": "node", "id": 4186624668, "lat": 41.9687569, "lon": -87.7781439}, {"type": "node", "id": 4186624671, "lat": 41.9687595, "lon": -87.7779182}, {"type": "node", "id": 4265453763, "lat": 41.9824872, "lon": -87.7745756, "tags": {"addr:city": "Chicago", "addr:housenumber": "5540", "addr:postcode": "60630", "addr:state": "IL", "addr:street": "North Milwaukee Avenue", "amenity": "restaurant", "cuisine": "mexican", "name": "Tuxpan Mexican Grill"}}, {"type": "node", "id": 6325936220, "lat": 41.9805375, "lon": -87.7776143, "tags": {"addr:city": "Chicago", "addr:housenumber": "5485", "addr:postcode": "60630", "addr:state": "IL", "addr:street": "North Northwest Highway", "amenity": "bar", "name": "Vaughan\u2019s Pub - NW Side", "phone": "+1-773-631-9206", "website": "https://vaughanhospitality.com/"}}, {"type": "way", "id": 163177517, "nodes": [1749350604, 1749350837, 1749351217, 1749350643, 1749350604], "tags": {"addr:city": "Chicago", "addr:housenumber": "4801", "addr:postcode": "60630", "addr:state": "IL", "addr:street": "North Austin Avenue", "addr:street:name": "Austin", "addr:street:prefix": "North", "addr:street:type": "Avenue", "amenity": "restaurant", "building": "yes", "chicago:building_id": "107513", "cuisine": "mexican", "delivery": "yes", "name": "Los Encinos Restaurant", "opening_hours": "Su-Th 06:00-22:00; Fr-Sa 06:00-00:00", "outdoor_seating": "no"}}, {"type": "way", "id": 163177651, "nodes": [1749353623, 1749353843, 1749353851, 1749353634, 4186624671, 4186624668, 1749353623], "tags": {"addr:city": "Chicago", "addr:housenumber": "4835", "addr:postcode": "60630", "addr:state": "IL", "addr:street": "North Austin Avenue", "addr:street:name": "Austin", "addr:street:prefix": "North", "addr:street:type": "Avenue", "amenity": "restaurant", "building": "yes", "building:levels": "1", "chicago:building_id": "105366", "cuisine": "barbecue", "name": "Earl's BBQ"}}, {"type": "way", "id": 163180198, "nodes": [1749350451, 1749350736, 1749350735, 1749350877, 1749350926, 1749351309, 1749351319, 1749350456, 1749350451], "tags": {"addr:city": "Chicago", "addr:housenumber": "5930", "addr:postcode": "60630", "addr:state": "IL", "addr:street": "West Lawrence Avenue", "addr:street:name": "Lawrence", "addr:street:prefix": "West", "addr:street:type": "Avenue", "amenity": "restaurant", "building": "yes", "building:levels": "2", "chicago:building_id": "107454", "cuisine": "chicken", "delivery": "yes", "name": "Broasted Chicken Royale", "opening_hours": "Tu-Th 15:00-21:00; Fr-Sa 12:00-21:00; Su 12:00-20:00", "outdoor_seating": "no"}}, {"type": "way", "id": 163180298, "nodes": [1749353274, 1749353275, 1749353287, 1749353285, 1749353804, 1749353813, 1749353818, 1749353274], "tags": {"addr:housenumber": "6000", "addr:street": "West Gunnison Street", "addr:street:name": "Gunnison", "addr:street:prefix": "West", "addr:street:type": "Street", "amenity": "bar", "building": "yes", "chicago:building_id": "105421", "name": "Charlotte's Bar & Grill"}}, {"type": "way", "id": 163222095, "nodes": [1749683401, 1749683923, 1749684150, 1749684005, 1749684267, 1749684452, 1749684504, 1749684386, 1749684422, 1749683957, 1749683401], "tags": {"addr:city": "Chicago", "addr:housenumber": "5504", "addr:postcode": "60630", "addr:state": "IL", "addr:street": "North Milwaukee Avenue", "addr:street:name": "Milwaukee", "addr:street:prefix": "North", "addr:street:type": "Avenue", "amenity": "restaurant", "building": "yes", "building:levels": "1", "chicago:building_id": "61971", "cuisine": "american", "name": "Lido Banquets"}}, {"type": "way", "id": 163226336, "nodes": [1749665929, 1749666090, 1749666433, 1749666254, 1749665929], "tags": {"addr:housenumber": "6348", "addr:street": "West Higgins Avenue", "addr:street:name": "Higgins", "addr:street:prefix": "West", "addr:street:type": "Avenue", "amenity": "restaurant", "building": "yes", "chicago:building_id": "77684", "cuisine": "coffee_shop", "name": "The Big Top Restaurant"}}]}