{"version": 0.6, "generator": "Overpass API 0.7.56.3 eb200aeb", "osm3s": {"timestamp_osm_base": "2020-07-20T21:52:03Z", "copyright": "The data included in this document is from www.openstreetmap.org. The data is made available under ODbL."}, "elements": [{"type": "node", "id": 1699188826, "lat": 41.8346504, "lon": -87.6330179, "tags": {"amenity": "restaurant", "name": "Fraternelli's Pizza"}}, {"type": "node", "id": 1699188829, "lat": 41.8352407, "lon": -87.6257357, "tags": {"amenity": "cafe", "name": "Global Grounds"}}, {"type": "node", "id": 1699188851, "lat": 41.8360904, "lon": -87.6261812, "tags": {"amenity": "restaurant", "name": "Pritzker Club"}}, {"type": "node", "id": 1699188921, "lat": 41.8309502, "lon": -87.6295558}, {"type": "node", "id": 1699188923, "lat": 41.8309886, "lon": -87.6278263}, {"type": "node", "id": 1699188929, "lat": 41.8310472, "lon": -87.6250887}, {"type": "node", "id": 1699189060, "lat": 41.8328632, "lon": -87.6250233}, {"type": "node", "id": 1699189065, "lat": 41.8328613, "lon": -87.6251059}, {"type": "node", "id": 1699189070, "lat": 41.8328856, "lon": -87.6233946}, {"type": "node", "id": 1699189680, "lat": 41.8357718, "lon": -87.6256929}, {"type": "node", "id": 1699189684, "lat": 41.8357728, "lon": -87.6253266}, {"type": "node", "id": 1699189689, "lat": 41.8357728, "lon": -87.625481}, {"type": "node", "id": 1699189710, "lat": 41.8360248, "lon": -87.6256923}, {"type": "node", "id": 1699189728, "lat": 41.8362392, "lon": -87.6256937}, {"type": "node", "id": 1699189730, "lat": 41.8362401, "lon": -87.6253266}, {"type": "node", "id": 1699189880, "lat": 41.839507, "lon": -87.6297554}, {"type": "node", "id": 1699189883, "lat": 41.8395606, "lon": -87.6234863}, {"type": "node", "id": 1699190038, "lat": 41.8354336, "lon": -87.6282795, "tags": {"amenity": "bar", "name": "The BOG", "operator": "Sodexo"}}, {"type": "node", "id": 2058878703, "lat": 41.8328775, "lon": -87.6244051}, {"type": "node", "id": 2206208308, "lat": 41.8515755, "lon": -87.6324261}, {"type": "node", "id": 2206208310, "lat": 41.8515763, "lon": -87.6323325}, {"type": "node", "id": 2206208314, "lat": 41.8515795, "lon": -87.6320997}, {"type": "node", "id": 2206208372, "lat": 41.8516427, "lon": -87.632429}, {"type": "node", "id": 2206208373, "lat": 41.8516436, "lon": -87.6323446}, {"type": "node", "id": 2206208377, "lat": 41.8516476, "lon": -87.6321016}, {"type": "node", "id": 5792384427, "lat": 41.8499832, "lon": -87.6233063, "tags": {"addr:city": "Chicago", "addr:housenumber": "2337", "addr:postcode": "60616", "addr:state": "IL", "addr:street": "South Michigan Avenue", "amenity": "bar", "name": "Motor Row Brewing", "phone": "+1-312-624-8149", "website": "https://www.motorrowbrewing.com/"}}, {"type": "node", "id": 5999507785, "lat": 41.8415825, "lon": -87.6321476, "tags": {"addr:housenumber": "2828", "addr:postcode": "60616", "amenity": "restaurant", "cuisine": "asian", "email": "edlau6888@yahoo.com", "name": "Furama Restaurant", "operator": "Eddie Lau & Nancy Lau", "phone": "3122256888"}}, {"type": "node", "id": 6050592285, "lat": 41.8515642, "lon": -87.6239586, "tags": {"addr:city": "Chicago", "addr:housenumber": "2244", "addr:postcode": "60616", "addr:state": "IL", "addr:street": "South Michigan Avenue", "amenity": "bar", "name": "Bar 22"}}, {"type": "node", "id": 6282561364, "lat": 41.8513723, "lon": -87.6318549, "tags": {"addr:city": "Chicago", "addr:country": "US", "addr:housenumber": "2253", "addr:postcode": "60616", "addr:state": "IL", "addr:street": "South Wentworth Avenue", "amenity": "restaurant", "name": "Chiu Quon Bakery and Dim Sum", "phone": "+1-312-808-1818", "website": "http://www.cqbakery.com/"}}, {"type": "node", "id": 6289514671, "lat": 41.8384445, "lon": -87.6331359, "tags": {"addr:city": "Chicago", "addr:housenumber": "234", "addr:postcode": "60616", "addr:state": "IL", "addr:street": "West 31st Street", "amenity": "restaurant", "name": "Fat Fish Bar and Grill", "phone": "+1-312-842-9200", "website": "http://orderfatfishbarngrill.com/"}}, {"type": "node", "id": 6291884636, "lat": 41.8356602, "lon": -87.6257569, "tags": {"addr:city": "Chicago", "addr:housenumber": "3201", "addr:postcode": "60616", "addr:state": "IL", "addr:street": "South State Street", "amenity": "cafe", "name": "Global Grounds Cafe", "phone": "+1-312-567-3711"}}, {"type": "node", "id": 6291886315, "lat": 41.8510926, "lon": -87.6325921, "tags": {"addr:city": "Chicago", "addr:housenumber": "212", "addr:postcode": "60616", "addr:state": "IL", "addr:street": "West 23rd Street", "amenity": "restaurant", "name": "Go 4 Food", "phone": "+1-312-842-8688", "website": "https://www.go4foodusa.com/"}}, {"type": "node", "id": 6300622785, "lat": 41.8347423, "lon": -87.6325388, "tags": {"addr:city": "Chicago", "addr:housenumber": "218", "addr:postcode": "60616", "addr:state": "IL", "addr:street": "West 33rd Street", "amenity": "cafe", "name": "Red Line Cafe", "phone": "+1-312-265-0219", "website": "https://srg33.com/the-red-line/"}}, {"type": "node", "id": 6301765417, "lat": 41.8347452, "lon": -87.6325776, "tags": {"addr:city": "Chicago", "addr:housenumber": "220", "addr:postcode": "60616", "addr:state": "IL", "addr:street": "West 33rd Street", "amenity": "restaurant", "name": "Stix n Brix Wood Fired Pizza", "phone": "+1-312-265-0219", "website": "https://srg33.com/stix-n-brix/"}}, {"type": "node", "id": 6306861424, "lat": 41.8346866, "lon": -87.6330617, "tags": {"addr:city": "Chicago", "addr:housenumber": "238", "addr:postcode": "60616", "addr:state": "IL", "addr:street": "West 33rd Street", "amenity": "bar", "name": "Turtles Bar and Grill", "phone": "+1-312-225-7333"}}, {"type": "node", "id": 6317098450, "lat": 41.8499471, "lon": -87.6320981, "tags": {"addr:city": "Chicago", "addr:country": "US", "addr:housenumber": "2334", "addr:postcode": "60616", "addr:state": "IL", "addr:street": "South Wentworth Avenue", "addr:unit": "105", "amenity": "restaurant", "name": "Yummy Yummy Noodles", "phone": "+1-312-842-9880", "website": "https://www.yummyyummynoodles.com/"}}, {"type": "node", "id": 6320547862, "lat": 41.8497034, "lon": -87.6320939, "tags": {"addr:city": "Chicago", "addr:country": "US", "addr:housenumber": "2342", "addr:postcode": "60616", "addr:state": "IL", "addr:street": "South Wentworth Avenue", "amenity": "restaurant", "name": "Little Sheep Mongolian Hot Pot", "phone": "+1-312-929-3224"}}, {"type": "node", "id": 6322005743, "lat": 41.8500114, "lon": -87.6258732, "tags": {"addr:city": "Chicago", "addr:housenumber": "2336", "addr:postcode": "60616", "addr:state": "IL", "addr:street": "South Wabash Avenue", "amenity": "cafe", "name": "South Loop Cafe", "phone": "+1-312-326-4618"}}, {"type": "node", "id": 6723254310, "lat": 41.8505912, "lon": -87.6321124, "tags": {"addr:city": "Chicago", "addr:country": "US", "addr:housenumber": "2312", "addr:postcode": "60616", "addr:state": "IL", "addr:street": "South Wentworth Avenue", "amenity": "restaurant", "name": "Seven Treasures Restaurant"}}, {"type": "node", "id": 6726359268, "lat": 41.8488899, "lon": -87.6317731, "tags": {"addr:city": "Chicago", "addr:country": "US", "addr:housenumber": "2407", "addr:postcode": "60616", "addr:state": "IL", "addr:street": "South Wentworth Avenue", "amenity": "restaurant", "cuisine": "chinese", "name": "Famous Sichuan Snacks & Hot Pot", "old_name": "House of Fortune"}}, {"type": "node", "id": 6726359269, "lat": 41.8487356, "lon": -87.631759, "tags": {"addr:city": "Chicago", "addr:country": "US", "addr:housenumber": "2411", "addr:postcode": "60616", "addr:state": "IL", "addr:street": "South Wentworth Avenue", "amenity": "restaurant", "cuisine": "chinese", "name": "Evergreen Restaurant"}}, {"type": "node", "id": 6726359270, "lat": 41.8486556, "lon": -87.6320627, "tags": {"addr:city": "Chicago", "addr:country": "US", "addr:housenumber": "2414", "addr:postcode": "60616", "addr:state": "IL", "addr:street": "South Wentworth Avenue", "amenity": "restaurant", "cuisine": "chinese", "name": "Sze Chuan Cuisine", "phone": "+1-312-791-1882", "website": "https://www.szechuancuisinetogo.com/"}}, {"type": "node", "id": 6726359272, "lat": 41.8483799, "lon": -87.632058, "tags": {"addr:city": "Chicago", "addr:country": "US", "addr:housenumber": "2422", "addr:postcode": "60616", "addr:state": "IL", "addr:street": "South Wentworth Avenue", "amenity": "restaurant", "cuisine": "chinese", "name": "Tai Ho Yee Food Company", "phone": "+1-312-225-9828"}}, {"type": "way", "id": 157657353, "nodes": [1699189730, 1699189684, 1699189689, 1699189680, 1699189710, 1699189728, 1699189730], "tags": {"amenity": "restaurant", "building": "university", "name": "Commons Cafeteria", "operator": "Sodexo"}}, {"type": "way", "id": 157657413, "nodes": [1699189880, 1699189883, 1699189070, 2058878703, 1699189060, 1699189065, 1699188929, 1699188923, 1699188921, 1699189880], "tags": {"amenity": "university", "name": "Illinois Institute of Technology", "wikidata": "Q659706", "wikipedia": "en:Illinois Institute of Technology"}}, {"type": "way", "id": 210538091, "nodes": [2206208373, 2206208377, 2206208314, 2206208310, 2206208308, 2206208372, 2206208373], "tags": {"addr:city": "Chicago", "addr:housenumber": "2242", "addr:postcode": "60616", "addr:state": "IL", "addr:street": "South Wentworth Avenue", "addr:street:name": "Wentworth", "addr:street:prefix": "South", "addr:street:type": "Avenue", "amenity": "restaurant", "building": "yes", "building:levels": "1", "chicago:building_id": "870623", "name": "Legend Tasty House", "phone": "+1-312-225-8869", "website": "http://www.legendtastyhouse.com/"}}]}