{"version": 0.6, "generator": "Overpass API 0.7.56.1004 6cd3eaec", "osm3s": {"timestamp_osm_base": "2020-07-21T23:17:03Z", "copyright": "The data included in this document is from www.openstreetmap.org. The data is made available under ODbL."}, "elements": [{"type": "node", "id": 346234680, "lat": 41.9616382, "lon": -87.6761596, "tags": {"amenity": "cafe", "brand": "Starbucks", "brand:wikidata": "Q37158", "brand:wikipedia": "en:Starbucks", "cuisine": "coffee_shop", "name": "Starbucks", "official_name": "Starbucks Coffee", "takeaway": "yes"}}, {"type": "node", "id": 346235240, "lat": 41.9616342, "lon": -87.6766491, "tags": {"amenity": "restaurant", "cuisine": "mexican", "name": "La Amistad"}}, {"type": "node", "id": 347301872, "lat": 41.9547023, "lon": -87.6789343, "tags": {"amenity": "cafe", "brand": "Starbucks", "brand:wikidata": "Q37158", "brand:wikipedia": "en:Starbucks", "cuisine": "coffee_shop", "name": "Starbucks", "official_name": "Starbucks Coffee", "takeaway": "yes"}}, {"type": "node", "id": 1315577349, "lat": 41.9616363, "lon": -87.6753928, "tags": {"addr:city": "Chicago", "addr:housenumber": "1820", "addr:postcode": "60613", "addr:state": "IL", "addr:street": "West Montrose Avenue", "amenity": "restaurant", "cuisine": "fish", "name": "Glenn's Diner", "phone": "+1-773-506-1720", "website": "http://www.glennsdiner.com/"}}, {"type": "node", "id": 1315577350, "lat": 41.9616307, "lon": -87.6758097, "tags": {"amenity": "bar"}}, {"type": "node", "id": 1317827212, "lat": 41.9616108, "lon": -87.6796436, "tags": {"amenity": "restaurant", "brand": "Giordano's Pizzeria", "brand:wikidata": "Q5563393", "brand:wikipedia": "en:Giordano's Pizzeria", "cuisine": "pizza", "name": "Giordano's Pizzeria"}}, {"type": "node", "id": 1317827223, "lat": 41.9613609, "lon": -87.6754823, "tags": {"amenity": "restaurant", "cuisine": "mexican", "name": "El Torito"}}, {"type": "node", "id": 1317862200, "lat": 41.9613426, "lon": -87.67683, "tags": {"amenity": "restaurant", "cuisine": "pizza", "name": "Chicago's Pizza"}}, {"type": "node", "id": 1370035488, "lat": 41.9692506, "lon": -87.6600193, "tags": {"addr:city": "Chicago", "addr:housenumber": "4802", "addr:postcode": "60640", "addr:state": "IL", "addr:street": "North Broadway", "amenity": "bar", "name": "Green Mill Cocktail Lounge", "phone": "+1-773-878-5552", "website": "http://www.greenmilljazz.com/"}}, {"type": "node", "id": 1432788849, "lat": 41.9613167, "lon": -87.6787734, "tags": {"amenity": "restaurant", "name": "Marmalade"}}, {"type": "node", "id": 1432789477, "lat": 41.9616298, "lon": -87.6756205, "tags": {"amenity": "restaurant", "cuisine": "thai", "name": "Roong Petch"}}, {"type": "node", "id": 1627008081, "lat": 41.9616577, "lon": -87.6750199, "tags": {"addr:city": "Chicago", "addr:housenumber": "1810", "addr:postcode": "60613", "addr:state": "IL", "addr:street": "West Montrose Avenue", "amenity": "restaurant", "cuisine": "coffee_shop", "name": "Bayan Ko", "phone": "+1-773-698-6373"}}, {"type": "node", "id": 1627026644, "lat": 41.9670666, "lon": -87.679341, "tags": {"addr:city": "Chicago", "addr:housenumber": "4700", "addr:postcode": "60625", "addr:state": "IL", "addr:street": "North Damen Avenue", "amenity": "cafe", "name": "The Perfect Cup", "phone": "+1-773-989-4177", "website": "http://perfectcupchicago.com/"}}, {"type": "node", "id": 1719743443, "lat": 41.9614679, "lon": -87.6694841, "tags": {"amenity": "restaurant", "cuisine": "mexican", "name": "Mixteco Grill"}}, {"type": "node", "id": 1719743446, "lat": 41.9669515, "lon": -87.6672606, "tags": {"amenity": "cafe", "cuisine": "coffee_shop", "name": "Ch'ava... a cafe"}}, {"type": "node", "id": 1719743459, "lat": 41.965015, "lon": -87.6756907, "tags": {"amenity": "restaurant", "cuisine": "italian", "name": "Caro Mio"}}, {"type": "node", "id": 1719743519, "lat": 41.9653337, "lon": -87.6727215, "tags": {"amenity": "restaurant", "cuisine": "sushi", "name": "Fin"}}, {"type": "node", "id": 2200725964, "lat": 41.9533183, "lon": -87.6780307}, {"type": "node", "id": 2200725966, "lat": 41.9533184, "lon": -87.6780399}, {"type": "node", "id": 2200726016, "lat": 41.9533237, "lon": -87.6777678}, {"type": "node", "id": 2200726082, "lat": 41.9533374, "lon": -87.6777677}, {"type": "node", "id": 2200726089, "lat": 41.9533385, "lon": -87.6777162}, {"type": "node", "id": 2200726345, "lat": 41.9533776, "lon": -87.6780798}, {"type": "node", "id": 2200726468, "lat": 41.9533897, "lon": -87.67803}, {"type": "node", "id": 2200726469, "lat": 41.9533898, "lon": -87.6780484}, {"type": "node", "id": 2200726510, "lat": 41.9533942, "lon": -87.6778572}, {"type": "node", "id": 2200726534, "lat": 41.9533964, "lon": -87.6777671}, {"type": "node", "id": 2200726538, "lat": 41.9533975, "lon": -87.6777174}, {"type": "node", "id": 2200726901, "lat": 41.9534546, "lon": -87.6778602}, {"type": "node", "id": 2200726915, "lat": 41.9534568, "lon": -87.6777701}, {"type": "node", "id": 2200731343, "lat": 41.9543052, "lon": -87.6780942}, {"type": "node", "id": 2200731346, "lat": 41.9543061, "lon": -87.6780041}, {"type": "node", "id": 2200731347, "lat": 41.9543062, "lon": -87.6780206}, {"type": "node", "id": 2200731469, "lat": 41.9543733, "lon": -87.6780052}, {"type": "node", "id": 2200731489, "lat": 41.9543817, "lon": -87.6780198}, {"type": "node", "id": 2200731493, "lat": 41.954383, "lon": -87.6780235}, {"type": "node", "id": 2200731506, "lat": 41.9543875, "lon": -87.6780804}, {"type": "node", "id": 2200731507, "lat": 41.9543876, "lon": -87.6780951}, {"type": "node", "id": 2200731570, "lat": 41.9544132, "lon": -87.678025}, {"type": "node", "id": 2200731577, "lat": 41.9544187, "lon": -87.6780195}, {"type": "node", "id": 2200731594, "lat": 41.9544218, "lon": -87.6780801}, {"type": "node", "id": 2200731596, "lat": 41.9544219, "lon": -87.6780966}, {"type": "node", "id": 2200731601, "lat": 41.9544241, "lon": -87.6780121}, {"type": "node", "id": 2200732005, "lat": 41.9545495, "lon": -87.6781008}, {"type": "node", "id": 2200732012, "lat": 41.9545504, "lon": -87.6780163}, {"type": "node", "id": 2200732013, "lat": 41.9545504, "lon": -87.6780181}, {"type": "node", "id": 2200916994, "lat": 41.9685628, "lon": -87.6740172}, {"type": "node", "id": 2200917010, "lat": 41.9685654, "lon": -87.6737613}, {"type": "node", "id": 2200917080, "lat": 41.9686022, "lon": -87.6713361}, {"type": "node", "id": 2200917091, "lat": 41.9686053, "lon": -87.6711669}, {"type": "node", "id": 2200917193, "lat": 41.9686489, "lon": -87.6713375}, {"type": "node", "id": 2200917194, "lat": 41.9686491, "lon": -87.6713706}, {"type": "node", "id": 2200917307, "lat": 41.9687151, "lon": -87.6740211}, {"type": "node", "id": 2200917324, "lat": 41.9687191, "lon": -87.6737646}, {"type": "node", "id": 2200917340, "lat": 41.9687287, "lon": -87.6713734}, {"type": "node", "id": 2200917344, "lat": 41.9687298, "lon": -87.6713385}, {"type": "node", "id": 2200917381, "lat": 41.9687463, "lon": -87.6713401}, {"type": "node", "id": 2200917392, "lat": 41.9687494, "lon": -87.6711709}, {"type": "node", "id": 2204584122, "lat": 41.9683778, "lon": -87.6602536}, {"type": "node", "id": 2204584132, "lat": 41.9683841, "lon": -87.6597836}, {"type": "node", "id": 2204584187, "lat": 41.9684294, "lon": -87.6602531}, {"type": "node", "id": 2204584189, "lat": 41.9684313, "lon": -87.6601133}, {"type": "node", "id": 2204584285, "lat": 41.9684918, "lon": -87.6601421}, {"type": "node", "id": 2204584287, "lat": 41.968493, "lon": -87.6601127}, {"type": "node", "id": 2204584306, "lat": 41.9685179, "lon": -87.6601444}, {"type": "node", "id": 2204584311, "lat": 41.9685199, "lon": -87.659787}, {"type": "node", "id": 2274368662, "lat": 41.9651576, "lon": -87.6620866, "tags": {"addr:city": "Chicago", "addr:housenumber": "1265", "addr:street": "West Wilson Avenue", "amenity": "restaurant", "brand": "Godfather's Pizza", "brand:wikidata": "Q5576353", "brand:wikipedia": "en:Godfather's Pizza", "cuisine": "pizza", "name": "Godfather's Pizza", "phone": "773-878-8600", "website": "http://www.thegodfatherspizza.com/"}}, {"type": "node", "id": 2276406961, "lat": 41.9616119, "lon": -87.6787867, "tags": {"addr:city": "Chicago", "addr:housenumber": "1970", "addr:postcode": "60618", "addr:state": "IL", "addr:street": "West Montrose Avenue", "amenity": "restaurant", "cuisine": "New_American", "name": "Fountainhead", "phone": "+1-773-697-8204", "website": "http://fountainheadchicago.com/"}}, {"type": "node", "id": 2276407295, "lat": 41.9667045, "lon": -87.6793194, "tags": {"amenity": "restaurant", "name": "Aroy Thai"}}, {"type": "node", "id": 2293823034, "lat": 41.965037, "lon": -87.6738629, "tags": {"addr:city": "Chicago", "addr:housenumber": "4557", "addr:postcode": "60640", "addr:state": "IL", "addr:street": "North Ravenswood Avenue", "amenity": "bar", "cuisine": "irish", "name": "O'Shaughnessy's", "opening_hours": "Mo-Su 11:00-02:00", "phone": "+1-773-944-9896", "website": "http://www.oshaughnessyschicago.com/"}}, {"type": "node", "id": 2458242043, "lat": 41.9700956, "lon": -87.6599579, "tags": {"addr:city": "Chicago", "addr:housenumber": "4840", "addr:postcode": "60640", "addr:state": "IL", "addr:street": "North Broadway", "amenity": "bar", "name": "Fat Cat", "phone": "+1-773-506-3100", "website": "https://www.fatcatbar.com"}}, {"type": "node", "id": 3021698643, "lat": 41.9691952, "lon": -87.6591845, "tags": {"addr:city": "Chicago", "addr:housenumber": "1136", "addr:postcode": "60640", "addr:state": "IL", "addr:street": "West Lawrence Avenue", "amenity": "bar", "name": "Uptown Lounge", "phone": "+1-773-878-1136", "website": "https://uptownlounge.net/"}}, {"type": "node", "id": 3778783072, "lat": 41.966979, "lon": -87.6665877, "tags": {"addr:city": "Chicago", "addr:housenumber": "1463", "addr:postcode": "60640", "addr:state": "IL", "addr:street": "West Leland Avenue", "amenity": "restaurant", "capacity": "55", "cuisine": "Traditional_Catering", "name": "Brix Catering", "website": "http://www.brixcatering.com/"}}, {"type": "node", "id": 3784144930, "lat": 41.968987, "lon": -87.6733021, "tags": {"amenity": "restaurant", "cuisine": "mexican", "name": "Garcia's Restaurant", "takeaway": "yes"}}, {"type": "node", "id": 3952957928, "lat": 41.9545863, "lon": -87.6786069, "tags": {"addr:city": "Chicago", "addr:housenumber": "4011", "addr:postcode": "60618", "addr:state": "IL", "addr:street": "North Damen Avenue", "amenity": "bar", "name": "The Victor Bar", "phone": "+1-773-360-7049", "website": "http://www.thevictorbarchicago.com/"}}, {"type": "node", "id": 3952962087, "lat": 41.9552793, "lon": -87.6743796, "tags": {"amenity": "bar", "brewery": "Begyle Brewing Co", "craft": "brewery", "microbrewery": "yes", "name": "Begyle Brewing Co", "outdoor_seating": "no"}}, {"type": "node", "id": 4069272054, "lat": 41.9669571, "lon": -87.6669218, "tags": {"addr:city": "Chicago", "addr:housenumber": "4659", "addr:postcode": "60640", "addr:state": "IL", "addr:street": "North Clark Street", "amenity": "bar", "name": "Carol's Pub", "phone": "+1-773-754-8000", "source": "http://www.yelp.com/biz/carols-pub-chicago", "website": "https://carolschicago.com/"}}, {"type": "node", "id": 4560958768, "lat": 41.9561589, "lon": -87.6743858, "tags": {"addr:city": "Chicago", "addr:housenumber": "1800", "addr:postcode": "60613", "addr:state": "IL", "addr:street": "West Belle Plaine Avenue", "amenity": "bar", "name": "Dovetail Brewery", "opening_hours": "Tu 14:00-22:00; We 14:00-22:00; Th 14:00-22:00; Fr 12:00-23:00; Sa 11:00-23:00; Su 10:00-20:00", "phone": "+1-773-683-1414", "website": "http://dovetailbrewery.com/"}}, {"type": "node", "id": 4726171693, "lat": 41.9676883, "lon": -87.6578892, "tags": {"addr:street": "North Broadway", "amenity": "restaurant", "cuisine": "japanese;sushi", "name": "Agami", "name:en": "Agami", "opening_hours": "Mo-Su 16:00-23:00"}}, {"type": "node", "id": 4729742490, "lat": 41.9651973, "lon": -87.6633434, "tags": {"addr:city": "Chicago", "addr:housenumber": "1325", "addr:postcode": "60640", "addr:state": "IL", "addr:street": "West Wilson Avenue", "amenity": "cafe", "name": "Heritage Outpost", "opening_hours": "Su-Th 07:00-19:00; Fr-Sa 07:00-21:00", "phone": "+1-872-806-0639", "website": "https://www.heritagebicycles.com/pages/heritage-outpost"}}, {"type": "node", "id": 4729744589, "lat": 41.9691981, "lon": -87.6559084, "tags": {"addr:city": "Chicago", "addr:housenumber": "1020", "addr:postcode": "60640", "addr:state": "IL", "addr:street": "West Lawrence Avenue", "amenity": "cafe", "name": "Heritage Outpost", "opening_hours": "Mo-Su 07:00-19:00", "phone": "+1-773-961-7583", "website": "https://www.heritagebicycles.com/"}}, {"type": "node", "id": 5215407357, "lat": 41.954406, "lon": -87.6757926, "tags": {"addr:city": "Chicago", "addr:housenumber": "1840", "addr:postcode": "60613", "addr:state": "IL", "addr:street": "West Irving Park Road", "amenity": "cafe", "name": "Steingold's", "opening_hours": "Mo-Th 08:00-15:00; Fr 08:00-20:00; Sa-Su 09:00-15:00", "phone": "+1-773-661-2469", "website": "https://www.steingoldsdeli.com/"}}, {"type": "node", "id": 5347947503, "lat": 41.9691683, "lon": -87.659429, "tags": {"addr:city": "Chicago", "addr:housenumber": "4801", "addr:postcode": "60640", "addr:state": "IL", "addr:street": "North Broadway", "amenity": "restaurant", "name": "Demera Ethiopian Restaurant", "phone": "+1-773-334-8787", "website": "http://demerachicago.com/"}}, {"type": "node", "id": 5460774511, "lat": 41.9544928, "lon": -87.6643843, "tags": {"addr:city": "Chicago", "addr:housenumber": "4000", "addr:postcode": "60613", "addr:state": "IL", "addr:street": "North Southport Avenue", "amenity": "restaurant", "name": "Southport & Irving SIP", "phone": "+1-773-857-2890", "website": "http://www.southportandirving.com/"}}, {"type": "node", "id": 5460917346, "lat": 41.9544424, "lon": -87.6777722, "tags": {"addr:city": "Chicago", "addr:housenumber": "1934", "addr:postcode": "60613", "addr:state": "IL", "addr:street": "West Irving Park Road", "amenity": "bar", "cuisine": "pub;american", "name": "The Globe Pub", "opening_hours": "Mo-Fr 11:00-02:00; Sa 06:00-03:00; Su 07:00-02:00", "phone": "+1-773-871-3757", "website": "http://www.theglobepub.com/"}}, {"type": "node", "id": 5559919114, "lat": 41.9655203, "lon": -87.6586425, "tags": {"addr:city": "Chicago", "addr:housenumber": "1122", "addr:postcode": "60640", "addr:state": "IL", "addr:street": "West Wilson Avenue", "amenity": "cafe", "cuisine": "donut", "name": "Uptown Donuts"}}, {"type": "node", "id": 5791106932, "lat": 41.9675954, "lon": -87.6750827, "tags": {"addr:city": "Chicago", "addr:housenumber": "4710", "addr:postcode": "60640", "addr:state": "IL", "addr:street": "North Ravenswood Avenue", "amenity": "restaurant", "cuisine": "american;new_american;american_new", "name": "Band of Bohemia", "phone": "+1-773-271-4710", "website": "http://www.bandofbohemia.com"}}, {"type": "node", "id": 5975176873, "lat": 41.9693272, "lon": -87.6598903, "tags": {"addr:city": "Chicago", "addr:housenumber": "4806", "addr:postcode": "60640", "addr:state": "IL", "addr:street": "North Broadway", "amenity": "restaurant", "name": "Fiesta Mexicana Restaurant", "opening_hours": "Mo-Th,Su 10:00-00:00; Fr-Sa 10:00-02:00", "phone": "773-769-4244", "website": "https://www.fiestamexicanachicago.com/"}}, {"type": "node", "id": 6265692545, "lat": 41.9553987, "lon": -87.6745486, "tags": {"addr:city": "Chicago", "addr:housenumber": "1800", "addr:postcode": "60613", "addr:state": "IL", "addr:street": "West Cuyler Avenue", "amenity": "bar", "name": "Begyle Brewing", "phone": "+1-773-661-6963", "website": "http://begylebrewing.com/Begyle/21.html"}}, {"type": "node", "id": 6267141732, "lat": 41.9614109, "lon": -87.6705867, "tags": {"addr:city": "Chicago", "addr:housenumber": "1637", "addr:postcode": "60613", "addr:state": "IL", "addr:street": "West Montrose Avenue", "amenity": "restaurant", "name": "Bienmesabe", "phone": "+1-773-549-5538", "website": "https://bienmesabechicago.com/"}}, {"type": "node", "id": 6269046562, "lat": 41.9668838, "lon": -87.6587377, "tags": {"addr:city": "Chicago", "addr:housenumber": "4663", "addr:postcode": "60640", "addr:state": "IL", "addr:street": "North Broadway", "amenity": "restaurant", "name": "Brass Heart", "phone": "+1-773-564-9680", "website": "https://brassheartrestaurant.com/"}}, {"type": "node", "id": 6269135159, "lat": 41.9533646, "lon": -87.6778752, "tags": {"addr:city": "Chicago", "addr:housenumber": "3937", "addr:postcode": "60613", "addr:state": "IL", "addr:street": "North Lincoln Avenue", "amenity": "bar", "name": "Brownstone Tavern & Grill", "phone": "+1-773-528-3700"}}, {"type": "node", "id": 6282458559, "lat": 41.9670373, "lon": -87.6664264, "tags": {"addr:city": "Chicago", "addr:housenumber": "1465", "addr:postcode": "60640", "addr:state": "IL", "addr:street": "West Leland Avenue", "amenity": "restaurant", "name": "Chicago Grilled Cheese & Mac Factory", "phone": "+1-773-253-5322"}}, {"type": "node", "id": 6285864716, "lat": 41.9535455, "lon": -87.6779861, "tags": {"addr:city": "Chicago", "addr:housenumber": "3941", "addr:postcode": "60613", "addr:state": "IL", "addr:street": "North Lincoln Avenue", "amenity": "restaurant", "name": "El Llano Restaurant - Northcenter", "phone": "+1-773-868-1899", "website": "https://www.llanochicago.com/"}}, {"type": "node", "id": 6286620875, "lat": 41.9655242, "lon": -87.6605853, "tags": {"addr:city": "Chicago", "addr:housenumber": "1224", "addr:postcode": "60640", "addr:state": "IL", "addr:street": "West Wilson Avenue", "amenity": "cafe", "name": "Emerald City Coffee", "phone": "+1-773-944-0227", "website": "https://emeraldcitychicago.com/"}}, {"type": "node", "id": 6290117327, "lat": 41.9617643, "lon": -87.6734467, "tags": {"addr:city": "Chicago", "addr:housenumber": "4401", "addr:postcode": "60640", "addr:state": "IL", "addr:street": "North Ravenswood Avenue", "amenity": "cafe", "name": "First Slice", "phone": "+1-773-506-7380", "website": "http://firstslice.org/"}}, {"type": "node", "id": 6291660216, "lat": 41.9660702, "lon": -87.6576166, "tags": {"addr:city": "Chicago", "addr:housenumber": "4621", "addr:postcode": "60640", "addr:state": "IL", "addr:street": "North Broadway", "amenity": "restaurant", "name": "Futatsuki Ramen", "phone": "+1-773-561-9999"}}, {"type": "node", "id": 6297627326, "lat": 41.9563958, "lon": -87.6799303, "tags": {"addr:city": "Chicago", "addr:housenumber": "4111", "addr:postcode": "60618", "addr:state": "IL", "addr:street": "North Lincoln Avenue", "amenity": "cafe", "name": "Savanna Restaurant", "phone": "+1-872-817-7340"}}, {"type": "node", "id": 6300182145, "lat": 41.9613575, "lon": -87.6755899, "tags": {"addr:city": "Chicago", "addr:housenumber": "1829", "addr:postcode": "60613", "addr:state": "IL", "addr:street": "West Montrose Avenue", "amenity": "bar", "name": "The Ravenswood Tavern", "phone": "+1-773-528-3253", "website": "https://www.theravenswoodtavern.com/"}}, {"type": "node", "id": 6300281117, "lat": 41.9632016, "lon": -87.6737278, "tags": {"addr:city": "Chicago", "addr:housenumber": "1769", "addr:postcode": "60640", "addr:state": "IL", "addr:street": "West Sunnyside Avenue", "amenity": "restaurant", "name": "Spacca Napoli", "phone": "+1-773-878-2420", "website": "https://www.spaccanapolipizzeria.com/"}}, {"type": "node", "id": 6300322752, "lat": 41.9616845, "lon": -87.6750333, "tags": {"addr:city": "Chicago", "addr:housenumber": "1812", "addr:postcode": "60613", "addr:state": "IL", "addr:street": "West Montrose Avenue", "amenity": "cafe", "name": "Spoken Cafe", "phone": "+1-773-769-2000", "website": "http://spokenchicago.com/spoken/"}}, {"type": "node", "id": 6300428731, "lat": 41.9544464, "lon": -87.6746234, "tags": {"addr:city": "Chicago", "addr:housenumber": "1812", "addr:postcode": "60613", "addr:state": "IL", "addr:street": "West Irving Park Road", "amenity": "cafe", "name": "Pide Ve Lahmacun", "phone": "+1-773-755-4022", "website": "http://www.sukursplace.com/pidevelahmacun/"}}, {"type": "node", "id": 6300865723, "lat": 41.9653736, "lon": -87.6755998, "tags": {"addr:city": "Chicago", "addr:housenumber": "1820", "addr:postcode": "60640", "addr:state": "IL", "addr:street": "West Wilson Avenue", "amenity": "restaurant", "name": "The River Valley Farmer\u2019s Table", "phone": "+1-872-208-3267", "website": "https://rvrvalley.com/rvr-farmers-table"}}, {"type": "node", "id": 6300883485, "lat": 41.9541553, "lon": -87.6667949, "tags": {"addr:city": "Chicago", "addr:housenumber": "1467", "addr:postcode": "60613", "addr:state": "IL", "addr:street": "West Irving Park Road", "amenity": "restaurant", "name": "The Roost Carolina Kitchen", "phone": "+1-312-261-5564", "website": "https://www.theroostcarolinakitchen.com/"}}, {"type": "node", "id": 6300986791, "lat": 41.9687678, "lon": -87.6677665, "tags": {"addr:city": "Chicago", "addr:housenumber": "4758", "addr:postcode": "60640", "addr:state": "IL", "addr:street": "North Clark Street", "amenity": "cafe", "name": "Ridman\u2019s Coffee", "phone": "+1-773-293-6033", "website": "https://www.ridmanscoffee.com/"}}, {"type": "node", "id": 6300993851, "lat": 41.9540054, "lon": -87.6752388, "tags": {"addr:city": "Chicago", "addr:housenumber": "1821", "addr:postcode": "60613", "addr:state": "IL", "addr:street": "West Irving Park Road", "amenity": "cafe", "name": "Ritual Coffeehouse"}}, {"type": "node", "id": 6304025839, "lat": 41.9534215, "lon": -87.6687019, "tags": {"addr:city": "Chicago", "addr:housenumber": "3931", "addr:postcode": "60613", "addr:state": "IL", "addr:street": "North Ashland Avenue", "amenity": "bar", "name": "Ten Cat Tavern", "phone": "+1-773-935-5377"}}, {"type": "node", "id": 6304560818, "lat": 41.9539139, "lon": -87.6761056, "tags": {"addr:city": "Chicago", "addr:housenumber": "1851", "addr:postcode": "60613", "addr:state": "IL", "addr:street": "West Irving Park Road", "amenity": "bar", "name": "Timber Lanes", "phone": "+1-773-549-9770", "website": "http://www.timberlanesbowl.com/"}}, {"type": "node", "id": 6304582828, "lat": 41.9662225, "lon": -87.6666746, "tags": {"addr:city": "Chicago", "addr:housenumber": "4631", "addr:postcode": "60640", "addr:state": "IL", "addr:street": "North Clark Street", "amenity": "restaurant", "name": "Tiztal Cafe", "phone": "+1-773-271-4631"}}, {"type": "node", "id": 6315657963, "lat": 41.9700598, "lon": -87.6601561, "tags": {"addr:city": "Chicago", "addr:housenumber": "4830", "addr:postcode": "60640", "addr:state": "IL", "addr:street": "North Broadway", "amenity": "bar", "name": "Uptown Arcade", "phone": "+1-312-219-2699", "website": "http://www.uptownarcadechicago.com/"}}, {"type": "node", "id": 6315659223, "lat": 41.9545162, "lon": -87.6697345, "tags": {"addr:city": "Chicago", "addr:housenumber": "1612", "addr:postcode": "60613", "addr:state": "IL", "addr:street": "West Irving Park Road", "amenity": "bar", "name": "The Long Room", "phone": "+1-773-665-4500", "website": "http://www.longroomchicago.com/"}}, {"type": "node", "id": 6316968107, "lat": 41.9617006, "lon": -87.6758274, "tags": {"addr:city": "Chicago", "addr:housenumber": "1834", "addr:postcode": "60613", "addr:state": "IL", "addr:street": "West Montrose Avenue", "amenity": "bar", "name": "Wolcott Tap", "phone": "+1-773-360-7579", "website": "https://www.wolcotttap.com/"}}, {"type": "node", "id": 6319035181, "lat": 41.9564955, "lon": -87.6735524, "tags": {"addr:city": "Chicago", "addr:housenumber": "4115", "addr:postcode": "60613", "addr:state": "IL", "addr:street": "North Ravenswood Avenue", "amenity": "cafe", "name": "Julius Meinl Coffee Bar & Patisserie", "phone": "+1-773-883-1864", "website": "http://www.meinlus.com/ravenswood-cb"}}, {"type": "node", "id": 6319888736, "lat": 41.9648422, "lon": -87.678518, "tags": {"addr:city": "Chicago", "addr:housenumber": "1945", "addr:postcode": "60640", "addr:state": "IL", "addr:street": "West Wilson Avenue", "amenity": "cafe", "name": "La Boulangerie", "phone": "+1-872-208-3479", "website": "http://www.laboulangeriechicago.com/"}}, {"type": "node", "id": 6321334140, "lat": 41.9545235, "lon": -87.6745832, "tags": {"addr:city": "Chicago", "addr:housenumber": "1800", "addr:postcode": "60613", "addr:state": "IL", "addr:street": "West Irving Park Road", "amenity": "bar", "name": "Maderos Latin Grill & Bar", "phone": "+1-773-799-8704"}}, {"type": "node", "id": 6321606369, "lat": 41.9659551, "lon": -87.6666497, "tags": {"addr:city": "Chicago", "addr:housenumber": "4621", "addr:postcode": "60640", "addr:state": "IL", "addr:street": "North Clark Street", "amenity": "bar", "name": "Max\u2019s Place", "phone": "+1-773-784-3864"}}, {"type": "node", "id": 6323017067, "lat": 41.9622252, "lon": -87.6663711, "tags": {"addr:city": "Chicago", "addr:housenumber": "4416", "addr:postcode": "60640", "addr:state": "IL", "addr:street": "North Clark Street", "amenity": "bar", "name": "My Buddy\u2019s", "phone": "+1-773-728-3397", "website": "https://www.mybuddyschicago.com/"}}, {"type": "node", "id": 6323134767, "lat": 41.9655042, "lon": -87.6592494, "tags": {"addr:city": "Chicago", "addr:housenumber": "1140", "addr:postcode": "60640", "addr:state": "IL", "addr:street": "West Wilson Avenue", "amenity": "bar", "name": "Nick\u2019s on Wilson", "phone": "+1-773-681-0705"}}, {"type": "node", "id": 6323788017, "lat": 41.9612918, "lon": -87.678559, "tags": {"addr:city": "Chicago", "addr:housenumber": "1959", "addr:postcode": "60613", "addr:state": "IL", "addr:street": "West Montrose Avenue", "amenity": "bar", "name": "Oakwood 83", "phone": "+1-773-327-2785"}}, {"type": "node", "id": 6326148074, "lat": 41.9689558, "lon": -87.6759509, "tags": {"addr:city": "Chicago", "addr:housenumber": "1840", "addr:postcode": "60640", "addr:state": "IL", "addr:street": "West Lawrence Avenue", "amenity": "bar", "name": "Nob\u2019s Wine Bar"}}, {"type": "node", "id": 6401443304, "lat": 41.965196, "lon": -87.6627771, "tags": {"addr:housenumber": "1309", "addr:street": "West Wilson Avenue", "amenity": "restaurant", "name": "Longacre Pizza Squared", "phone": "7732937413"}}, {"type": "node", "id": 7317268752, "lat": 41.9688999, "lon": -87.6593933, "tags": {"addr:city": "Chicago", "addr:housenumber": "4753", "addr:postcode": "60640", "addr:state": "IL", "addr:street": "North Broadway", "amenity": "cafe", "brand": "Starbucks", "brand:wikidata": "Q37158", "brand:wikipedia": "en:Starbucks", "cuisine": "coffee_shop", "name": "Starbucks", "official_name": "Starbucks Coffee", "takeaway": "yes"}}, {"type": "node", "id": 7387891262, "lat": 41.9648383, "lon": -87.6568564, "tags": {"addr:city": "Chicago", "addr:housenumber": "4543", "addr:postcode": "60640", "addr:state": "IL", "addr:street": "North Broadway", "amenity": "restaurant", "cuisine": "ethiopian", "name": "Selam Ethiopian Kitchen", "website": "https://www.selamkitchen.com/"}}, {"type": "way", "id": 209919006, "nodes": [2200731343, 2200731507, 2200731506, 2200731594, 2200731596, 2200732005, 2200732013, 2200732012, 2200731601, 2200731577, 2200731570, 2200731493, 2200731489, 2200731469, 2200731346, 2200731347, 2200731343], "tags": {"addr:housenumber": "1942", "addr:street": "West Irving Park Road", "addr:street:name": "Irving Park", "addr:street:prefix": "West", "addr:street:type": "Road", "amenity": "restaurant", "building": "yes", "chicago:building_id": "151392", "cuisine": "chinese", "name": "Orange Garden"}}, {"type": "way", "id": 209919476, "nodes": [2200725964, 2200725966, 2200726345, 2200726469, 2200726468, 2200726510, 2200726901, 2200726915, 2200726534, 2200726538, 2200726089, 2200726082, 2200726016, 2200725964], "tags": {"addr:housenumber": "3937", "addr:street": "North Lincoln Avenue", "addr:street:name": "Lincoln", "addr:street:prefix": "North", "addr:street:type": "Avenue", "amenity": "bar", "building": "yes", "chicago:building_id": "154324"}}, {"type": "way", "id": 209938702, "nodes": [2200917080, 2200917193, 2200917194, 2200917340, 2200917344, 2200917381, 2200917392, 2200917091, 2200917080], "tags": {"addr:housenumber": "1701", "addr:street": "West Lawrence Avenue", "addr:street:name": "Lawrence", "addr:street:prefix": "West", "addr:street:type": "Avenue", "amenity": "restaurant", "building": "yes", "building:levels": "1", "chicago:building_id": "103739", "cuisine": "burger", "name": "Byron's Hotdogs"}}, {"type": "way", "id": 209938737, "nodes": [2200916994, 2200917307, 2200917324, 2200917010, 2200916994], "tags": {"addr:city": "Chicago", "addr:housenumber": "1765", "addr:postcode": "60640", "addr:street": "West Lawrence Avenue", "addr:street:name": "Lawrence", "addr:street:prefix": "West", "addr:street:type": "Avenue", "amenity": "restaurant", "building": "yes", "building:levels": "1", "chicago:building_id": "103912", "cuisine": "american", "name": "Golden Nugget Pancake House", "website": "https://goldennuggetpancake.com/"}}, {"type": "way", "id": 210382262, "nodes": [2204584306, 2204584311, 2204584132, 2204584122, 2204584187, 2204584189, 2204584287, 2204584285, 2204584306], "tags": {"addr:housenumber": "4744", "addr:street": "North Racine Avenue", "addr:street:name": "Racine", "addr:street:prefix": "North", "addr:street:type": "Avenue", "amenity": "restaurant", "building": "yes", "chicago:building_id": "839422", "cuisine": "diner", "name": "Golden House Restaurant"}}]}