{"version": 0.6, "generator": "Overpass API 0.7.56.1004 6cd3eaec", "osm3s": {"timestamp_osm_base": "2020-07-22T00:24:03Z", "copyright": "The data included in this document is from www.openstreetmap.org. The data is made available under ODbL."}, "elements": [{"type": "node", "id": 1370035488, "lat": 41.9692506, "lon": -87.6600193, "tags": {"addr:city": "Chicago", "addr:housenumber": "4802", "addr:postcode": "60640", "addr:state": "IL", "addr:street": "North Broadway", "amenity": "bar", "name": "Green Mill Cocktail Lounge", "phone": "+1-773-878-5552", "website": "http://www.greenmilljazz.com/"}}, {"type": "node", "id": 1700860713, "lat": 41.958567, "lon": -87.6534433, "tags": {"amenity": "bar", "name": "Bar On Buena"}}, {"type": "node", "id": 1719743443, "lat": 41.9614679, "lon": -87.6694841, "tags": {"amenity": "restaurant", "cuisine": "mexican", "name": "Mixteco Grill"}}, {"type": "node", "id": 1719743446, "lat": 41.9669515, "lon": -87.6672606, "tags": {"amenity": "cafe", "cuisine": "coffee_shop", "name": "Ch'ava... a cafe"}}, {"type": "node", "id": 1719743519, "lat": 41.9653337, "lon": -87.6727215, "tags": {"amenity": "restaurant", "cuisine": "sushi", "name": "Fin"}}, {"type": "node", "id": 2200916994, "lat": 41.9685628, "lon": -87.6740172}, {"type": "node", "id": 2200917010, "lat": 41.9685654, "lon": -87.6737613}, {"type": "node", "id": 2200917080, "lat": 41.9686022, "lon": -87.6713361}, {"type": "node", "id": 2200917091, "lat": 41.9686053, "lon": -87.6711669}, {"type": "node", "id": 2200917193, "lat": 41.9686489, "lon": -87.6713375}, {"type": "node", "id": 2200917194, "lat": 41.9686491, "lon": -87.6713706}, {"type": "node", "id": 2200917307, "lat": 41.9687151, "lon": -87.6740211}, {"type": "node", "id": 2200917324, "lat": 41.9687191, "lon": -87.6737646}, {"type": "node", "id": 2200917340, "lat": 41.9687287, "lon": -87.6713734}, {"type": "node", "id": 2200917344, "lat": 41.9687298, "lon": -87.6713385}, {"type": "node", "id": 2200917381, "lat": 41.9687463, "lon": -87.6713401}, {"type": "node", "id": 2200917392, "lat": 41.9687494, "lon": -87.6711709}, {"type": "node", "id": 2204571338, "lat": 41.9585321, "lon": -87.6536806}, {"type": "node", "id": 2204571339, "lat": 41.9585321, "lon": -87.6536898}, {"type": "node", "id": 2204571340, "lat": 41.9585337, "lon": -87.6532633}, {"type": "node", "id": 2204571342, "lat": 41.958535, "lon": -87.6532504}, {"type": "node", "id": 2204571344, "lat": 41.9585351, "lon": -87.6532688}, {"type": "node", "id": 2204571348, "lat": 41.9585377, "lon": -87.6536971}, {"type": "node", "id": 2204571349, "lat": 41.9585391, "lon": -87.6532393}, {"type": "node", "id": 2204571351, "lat": 41.9585432, "lon": -87.6536988}, {"type": "node", "id": 2204571352, "lat": 41.9585459, "lon": -87.6536988}, {"type": "node", "id": 2204571353, "lat": 41.9585473, "lon": -87.6532319}, {"type": "node", "id": 2204571359, "lat": 41.9585569, "lon": -87.6532281}, {"type": "node", "id": 2204571363, "lat": 41.9585665, "lon": -87.6532317}, {"type": "node", "id": 2204571534, "lat": 41.9586557, "lon": -87.6536995}, {"type": "node", "id": 2204571535, "lat": 41.958656, "lon": -87.6535193}, {"type": "node", "id": 2204571929, "lat": 41.9589411, "lon": -87.6536983}, {"type": "node", "id": 2204571938, "lat": 41.9589467, "lon": -87.6534813}, {"type": "node", "id": 2204584122, "lat": 41.9683778, "lon": -87.6602536}, {"type": "node", "id": 2204584132, "lat": 41.9683841, "lon": -87.6597836}, {"type": "node", "id": 2204584187, "lat": 41.9684294, "lon": -87.6602531}, {"type": "node", "id": 2204584189, "lat": 41.9684313, "lon": -87.6601133}, {"type": "node", "id": 2204584285, "lat": 41.9684918, "lon": -87.6601421}, {"type": "node", "id": 2204584287, "lat": 41.968493, "lon": -87.6601127}, {"type": "node", "id": 2204584306, "lat": 41.9685179, "lon": -87.6601444}, {"type": "node", "id": 2204584311, "lat": 41.9685199, "lon": -87.659787}, {"type": "node", "id": 2274368662, "lat": 41.9651576, "lon": -87.6620866, "tags": {"addr:city": "Chicago", "addr:housenumber": "1265", "addr:street": "West Wilson Avenue", "amenity": "restaurant", "brand": "Godfather's Pizza", "brand:wikidata": "Q5576353", "brand:wikipedia": "en:Godfather's Pizza", "cuisine": "pizza", "name": "Godfather's Pizza", "phone": "773-878-8600", "website": "http://www.thegodfatherspizza.com/"}}, {"type": "node", "id": 2293823034, "lat": 41.965037, "lon": -87.6738629, "tags": {"addr:city": "Chicago", "addr:housenumber": "4557", "addr:postcode": "60640", "addr:state": "IL", "addr:street": "North Ravenswood Avenue", "amenity": "bar", "cuisine": "irish", "name": "O'Shaughnessy's", "opening_hours": "Mo-Su 11:00-02:00", "phone": "+1-773-944-9896", "website": "http://www.oshaughnessyschicago.com/"}}, {"type": "node", "id": 2458242043, "lat": 41.9700956, "lon": -87.6599579, "tags": {"addr:city": "Chicago", "addr:housenumber": "4840", "addr:postcode": "60640", "addr:state": "IL", "addr:street": "North Broadway", "amenity": "bar", "name": "Fat Cat", "phone": "+1-773-506-3100", "website": "https://www.fatcatbar.com"}}, {"type": "node", "id": 2641611905, "lat": 41.9727857, "lon": -87.6595045, "tags": {"amenity": "restaurant", "cuisine": "vietnamese;noodle", "name": "Ph\u1edf Vi\u1ec7t", "name:vi": "Ph\u1edf Vi\u1ec7t"}}, {"type": "node", "id": 2843123447, "lat": 41.9747719, "lon": -87.660074, "tags": {"amenity": "restaurant", "name": "Pho Lily", "source": "local_knowledge"}}, {"type": "node", "id": 3021698643, "lat": 41.9691952, "lon": -87.6591845, "tags": {"addr:city": "Chicago", "addr:housenumber": "1136", "addr:postcode": "60640", "addr:state": "IL", "addr:street": "West Lawrence Avenue", "amenity": "bar", "name": "Uptown Lounge", "phone": "+1-773-878-1136", "website": "https://uptownlounge.net/"}}, {"type": "node", "id": 3076192233, "lat": 41.973984, "lon": -87.6552843, "tags": {"addr:city": "Chicago", "addr:housenumber": "5020", "addr:postcode": "60640", "addr:state": "IL", "addr:street": "North Sheridan Road", "amenity": "restaurant", "name": "Tweet", "payment:cash": "yes", "phone": "+1-773-728-5576", "website": "http://tweet.biz/"}}, {"type": "node", "id": 3778783072, "lat": 41.966979, "lon": -87.6665877, "tags": {"addr:city": "Chicago", "addr:housenumber": "1463", "addr:postcode": "60640", "addr:state": "IL", "addr:street": "West Leland Avenue", "amenity": "restaurant", "capacity": "55", "cuisine": "Traditional_Catering", "name": "Brix Catering", "website": "http://www.brixcatering.com/"}}, {"type": "node", "id": 3784144930, "lat": 41.968987, "lon": -87.6733021, "tags": {"amenity": "restaurant", "cuisine": "mexican", "name": "Garcia's Restaurant", "takeaway": "yes"}}, {"type": "node", "id": 4069272054, "lat": 41.9669571, "lon": -87.6669218, "tags": {"addr:city": "Chicago", "addr:housenumber": "4659", "addr:postcode": "60640", "addr:state": "IL", "addr:street": "North Clark Street", "amenity": "bar", "name": "Carol's Pub", "phone": "+1-773-754-8000", "source": "http://www.yelp.com/biz/carols-pub-chicago", "website": "https://carolschicago.com/"}}, {"type": "node", "id": 4726171693, "lat": 41.9676883, "lon": -87.6578892, "tags": {"addr:street": "North Broadway", "amenity": "restaurant", "cuisine": "japanese;sushi", "name": "Agami", "name:en": "Agami", "opening_hours": "Mo-Su 16:00-23:00"}}, {"type": "node", "id": 4729742490, "lat": 41.9651973, "lon": -87.6633434, "tags": {"addr:city": "Chicago", "addr:housenumber": "1325", "addr:postcode": "60640", "addr:state": "IL", "addr:street": "West Wilson Avenue", "amenity": "cafe", "name": "Heritage Outpost", "opening_hours": "Su-Th 07:00-19:00; Fr-Sa 07:00-21:00", "phone": "+1-872-806-0639", "website": "https://www.heritagebicycles.com/pages/heritage-outpost"}}, {"type": "node", "id": 4729744589, "lat": 41.9691981, "lon": -87.6559084, "tags": {"addr:city": "Chicago", "addr:housenumber": "1020", "addr:postcode": "60640", "addr:state": "IL", "addr:street": "West Lawrence Avenue", "amenity": "cafe", "name": "Heritage Outpost", "opening_hours": "Mo-Su 07:00-19:00", "phone": "+1-773-961-7583", "website": "https://www.heritagebicycles.com/"}}, {"type": "node", "id": 4932746033, "lat": 41.9739542, "lon": -87.659058, "tags": {"addr:city": "Chicago", "addr:housenumber": "5041", "addr:postcode": "60640", "addr:state": "IL", "addr:street": "North Broadway", "amenity": "restaurant", "cuisine": "chinese;bbq;barbecue;barbeque", "name": "Sun Wah Bar-B-Que", "opening_hours": "Su-We 09:00-21:00; Fr-Sa 09:00-22:00", "phone": "+1-773-769-1254", "website": "http://sunwahbbq.com/"}}, {"type": "node", "id": 5330560153, "lat": 41.9692952, "lon": -87.6557443, "tags": {"addr:city": "Chicago", "addr:housenumber": "1020", "addr:postcode": "60640", "addr:state": "IL", "addr:street": "West Lawrence Avenue", "amenity": "bar", "name": "Larry's", "phone": "+1-312-841-7149", "website": "https://www.larryschicago.com/"}}, {"type": "node", "id": 5347947503, "lat": 41.9691683, "lon": -87.659429, "tags": {"addr:city": "Chicago", "addr:housenumber": "4801", "addr:postcode": "60640", "addr:state": "IL", "addr:street": "North Broadway", "amenity": "restaurant", "name": "Demera Ethiopian Restaurant", "phone": "+1-773-334-8787", "website": "http://demerachicago.com/"}}, {"type": "node", "id": 5358482234, "lat": 41.958331, "lon": -87.6527624, "tags": {"addr:city": "Chicago", "addr:housenumber": "4155", "addr:postcode": "60613", "addr:state": "IL", "addr:street": "North Broadway", "amenity": "cafe", "name": "Klein's Bakery & Cafe", "phone": "+1-773-857-0525", "website": "https://www.kleinsbakerycafe.com/"}}, {"type": "node", "id": 5559919114, "lat": 41.9655203, "lon": -87.6586425, "tags": {"addr:city": "Chicago", "addr:housenumber": "1122", "addr:postcode": "60640", "addr:state": "IL", "addr:street": "West Wilson Avenue", "amenity": "cafe", "cuisine": "donut", "name": "Uptown Donuts"}}, {"type": "node", "id": 5916831322, "lat": 41.9650574, "lon": -87.6538162, "tags": {"addr:city": "Chicago", "addr:housenumber": "93", "addr:postcode": "60640", "addr:state": "IL", "addr:street": "West Wilson Avenue", "amenity": "cafe", "name": "Everybody's Coffee", "phone": "+1-773-303-6220", "website": "https://everybodyscoffee.com/"}}, {"type": "node", "id": 5975176873, "lat": 41.9693272, "lon": -87.6598903, "tags": {"addr:city": "Chicago", "addr:housenumber": "4806", "addr:postcode": "60640", "addr:state": "IL", "addr:street": "North Broadway", "amenity": "restaurant", "name": "Fiesta Mexicana Restaurant", "opening_hours": "Mo-Th,Su 10:00-00:00; Fr-Sa 10:00-02:00", "phone": "773-769-4244", "website": "https://www.fiestamexicanachicago.com/"}}, {"type": "node", "id": 6177109638, "lat": 41.9740482, "lon": -87.6551479, "tags": {"addr:city": "Chicago", "addr:housenumber": "5024", "addr:postcode": "60640", "addr:state": "IL", "addr:street": "North Sheridan Road", "amenity": "bar", "brewery": "yes", "name": "Big Chicks", "outdoor_seating": "yes", "phone": "+1-773-728-5511", "smoking": "no", "website": "http://www.bigchicks.com/"}}, {"type": "node", "id": 6265061933, "lat": 41.9730443, "lon": -87.6600792, "tags": {"addr:city": "Chicago", "addr:housenumber": "5010", "addr:postcode": "60640", "addr:state": "IL", "addr:street": "North Broadway", "alt_name": "Bamb\u016b", "amenity": "cafe", "brand": "Bambu", "brand:wikidata": "Q83437245", "cuisine": "vietnamese;bubble_tea", "disused:office": "estate_agent", "name": "Bambu", "old_name": "Pacific Realty, Incorporated", "phone": "+1-773-293-7234"}}, {"type": "node", "id": 6265199894, "lat": 41.9745124, "lon": -87.6680529, "tags": {"addr:city": "Chicago", "addr:housenumber": "5101", "addr:postcode": "60640", "addr:state": "IL", "addr:street": "North Clark Street", "amenity": "bar", "name": "Bar Roma", "phone": "+1-773-942-7572", "website": "https://www.barromachicago.com/"}}, {"type": "node", "id": 6267141732, "lat": 41.9614109, "lon": -87.6705867, "tags": {"addr:city": "Chicago", "addr:housenumber": "1637", "addr:postcode": "60613", "addr:state": "IL", "addr:street": "West Montrose Avenue", "amenity": "restaurant", "name": "Bienmesabe", "phone": "+1-773-549-5538", "website": "https://bienmesabechicago.com/"}}, {"type": "node", "id": 6269046562, "lat": 41.9668838, "lon": -87.6587377, "tags": {"addr:city": "Chicago", "addr:housenumber": "4663", "addr:postcode": "60640", "addr:state": "IL", "addr:street": "North Broadway", "amenity": "restaurant", "name": "Brass Heart", "phone": "+1-773-564-9680", "website": "https://brassheartrestaurant.com/"}}, {"type": "node", "id": 6282458559, "lat": 41.9670373, "lon": -87.6664264, "tags": {"addr:city": "Chicago", "addr:housenumber": "1465", "addr:postcode": "60640", "addr:state": "IL", "addr:street": "West Leland Avenue", "amenity": "restaurant", "name": "Chicago Grilled Cheese & Mac Factory", "phone": "+1-773-253-5322"}}, {"type": "node", "id": 6284798616, "lat": 41.961622, "lon": -87.6557775, "tags": {"addr:city": "Chicago", "addr:housenumber": "1021", "addr:postcode": "60613", "addr:state": "IL", "addr:street": "West Montrose Avenue", "amenity": "bar", "name": "Driftwood", "phone": "+1-847-962-8906"}}, {"type": "node", "id": 6284801425, "lat": 41.963009, "lon": -87.6555863, "tags": {"addr:city": "Chicago", "addr:housenumber": "4443", "addr:postcode": "60640", "addr:state": "IL", "addr:street": "North Broadway", "amenity": "bar", "name": "Drink and Ink", "phone": "+1-773-944-5000"}}, {"type": "node", "id": 6286620875, "lat": 41.9655242, "lon": -87.6605853, "tags": {"addr:city": "Chicago", "addr:housenumber": "1224", "addr:postcode": "60640", "addr:state": "IL", "addr:street": "West Wilson Avenue", "amenity": "cafe", "name": "Emerald City Coffee", "phone": "+1-773-944-0227", "website": "https://emeraldcitychicago.com/"}}, {"type": "node", "id": 6289073098, "lat": 41.9734577, "lon": -87.6552722, "tags": {"addr:city": "Chicago", "addr:housenumber": "1002", "addr:postcode": "60640", "addr:state": "IL", "addr:street": "West Argyle Street", "amenity": "restaurant", "cuisine": "fine_dining;european", "name": "Rhapsody on Argyle", "old_name": "Masala", "opening_hours": "Tu-Th 17:00-21:00; Fr-Sa 17:00-22:00; Su 10:00-14:00; 17:00-21:00", "phone": "+1-773-769-5555", "website": "https://www.rhapsodyonargyle.com/"}}, {"type": "node", "id": 6290101163, "lat": 41.9731287, "lon": -87.65722, "tags": {"addr:city": "Chicago", "addr:housenumber": "1057", "addr:postcode": "60640", "addr:state": "IL", "addr:street": "West Argyle Street", "amenity": "cafe", "name": "First Sip Cafe", "website": "https://www.firstsip.cafe/"}}, {"type": "node", "id": 6290117327, "lat": 41.9617643, "lon": -87.6734467, "tags": {"addr:city": "Chicago", "addr:housenumber": "4401", "addr:postcode": "60640", "addr:state": "IL", "addr:street": "North Ravenswood Avenue", "amenity": "cafe", "name": "First Slice", "phone": "+1-773-506-7380", "website": "http://firstslice.org/"}}, {"type": "node", "id": 6291660216, "lat": 41.9660702, "lon": -87.6576166, "tags": {"addr:city": "Chicago", "addr:housenumber": "4621", "addr:postcode": "60640", "addr:state": "IL", "addr:street": "North Broadway", "amenity": "restaurant", "name": "Futatsuki Ramen", "phone": "+1-773-561-9999"}}, {"type": "node", "id": 6297203326, "lat": 41.9728441, "lon": -87.6677597, "tags": {"addr:city": "Chicago", "addr:housenumber": "5009", "addr:postcode": "60640", "addr:state": "IL", "addr:street": "North Clark Street", "amenity": "restaurant", "name": "Hot\u201dG\u201dDog", "phone": "+1-773-209-3360", "website": "http://www.hotgdog.com/"}}, {"type": "node", "id": 6300281117, "lat": 41.9632016, "lon": -87.6737278, "tags": {"addr:city": "Chicago", "addr:housenumber": "1769", "addr:postcode": "60640", "addr:state": "IL", "addr:street": "West Sunnyside Avenue", "amenity": "restaurant", "name": "Spacca Napoli", "phone": "+1-773-878-2420", "website": "https://www.spaccanapolipizzeria.com/"}}, {"type": "node", "id": 6300823284, "lat": 41.9620227, "lon": -87.6518351, "tags": {"addr:city": "Chicago", "addr:housenumber": "844", "addr:postcode": "60613", "addr:state": "IL", "addr:street": "West Montrose Avenue", "amenity": "bar", "name": "The Reservoir", "phone": "+1-773-275-4000", "website": "http://reservoirchicago.com/"}}, {"type": "node", "id": 6300986791, "lat": 41.9687678, "lon": -87.6677665, "tags": {"addr:city": "Chicago", "addr:housenumber": "4758", "addr:postcode": "60640", "addr:state": "IL", "addr:street": "North Clark Street", "amenity": "cafe", "name": "Ridman\u2019s Coffee", "phone": "+1-773-293-6033", "website": "https://www.ridmanscoffee.com/"}}, {"type": "node", "id": 6303095843, "lat": 41.9731106, "lon": -87.6595055, "tags": {"addr:city": "Chicago", "addr:housenumber": "4953", "addr:postcode": "60640", "addr:state": "IL", "addr:street": "North Broadway", "amenity": "restaurant", "cuisine": "vietnamese;noodle", "name": "Ph\u1edf Xe T\u0103ng;Tank Noodle", "name:en": "Tank Noodle", "name:vi": "Ph\u1edf Xe T\u0103ng", "phone": "+1-773-878-2253", "website": "https://www.tank-noodle.com/"}}, {"type": "node", "id": 6304582828, "lat": 41.9662225, "lon": -87.6666746, "tags": {"addr:city": "Chicago", "addr:housenumber": "4631", "addr:postcode": "60640", "addr:state": "IL", "addr:street": "North Clark Street", "amenity": "restaurant", "name": "Tiztal Cafe", "phone": "+1-773-271-4631"}}, {"type": "node", "id": 6305280634, "lat": 41.9731844, "lon": -87.668386, "tags": {"addr:city": "Chicago", "addr:housenumber": "5022", "addr:postcode": "60640", "addr:state": "IL", "addr:street": "North Clark Street", "amenity": "restaurant", "name": "The Bongo Room", "phone": "+1-773-728-7900", "website": "http://thebongoroom.com/"}}, {"type": "node", "id": 6315657963, "lat": 41.9700598, "lon": -87.6601561, "tags": {"addr:city": "Chicago", "addr:housenumber": "4830", "addr:postcode": "60640", "addr:state": "IL", "addr:street": "North Broadway", "amenity": "bar", "name": "Uptown Arcade", "phone": "+1-312-219-2699", "website": "http://www.uptownarcadechicago.com/"}}, {"type": "node", "id": 6315669443, "lat": 41.973745, "lon": -87.6551533, "tags": {"addr:city": "Chicago", "addr:housenumber": "5019", "addr:postcode": "60640", "addr:state": "IL", "addr:street": "North Sheridan Road", "amenity": "cafe", "name": "Uptown Cafe & Gallery", "phone": "+1-773-828-9829", "website": "http://uptowncafechicago.com/"}}, {"type": "node", "id": 6315730325, "lat": 41.9734441, "lon": -87.6555499, "tags": {"addr:city": "Chicago", "addr:housenumber": "1010", "addr:postcode": "60640", "addr:state": "IL", "addr:street": "West Argyle Street", "amenity": "restaurant", "cuisine": "vietnamese;noodle", "name": "Uptown Ph\u1edf", "old_name": "Ph\u1edf T\u00e0u Bay", "old_name:vi": "Ph\u1edf T\u00e0u Bay", "phone": "+1-773-878-8820"}}, {"type": "node", "id": 6320654592, "lat": 41.9620687, "lon": -87.6517048, "tags": {"addr:city": "Chicago", "addr:housenumber": "838", "addr:postcode": "60613", "addr:state": "IL", "addr:street": "West Montrose Avenue", "amenity": "restaurant", "name": "Loving Heart", "phone": "+1-773-561-5399", "website": "http://www.lovingheartvegan.com/"}}, {"type": "node", "id": 6321606369, "lat": 41.9659551, "lon": -87.6666497, "tags": {"addr:city": "Chicago", "addr:housenumber": "4621", "addr:postcode": "60640", "addr:state": "IL", "addr:street": "North Clark Street", "amenity": "bar", "name": "Max\u2019s Place", "phone": "+1-773-784-3864"}}, {"type": "node", "id": 6322575080, "lat": 41.9732346, "lon": -87.6678071, "tags": {"addr:city": "Chicago", "addr:housenumber": "5025", "addr:postcode": "60640", "addr:state": "IL", "addr:street": "North Clark Street", "amenity": "bar", "name": "Meeting House Tavern", "phone": "+1-773-696-4211", "website": "http://www.meetinghousetavern.com/"}}, {"type": "node", "id": 6323017067, "lat": 41.9622252, "lon": -87.6663711, "tags": {"addr:city": "Chicago", "addr:housenumber": "4416", "addr:postcode": "60640", "addr:state": "IL", "addr:street": "North Clark Street", "amenity": "bar", "name": "My Buddy\u2019s", "phone": "+1-773-728-3397", "website": "https://www.mybuddyschicago.com/"}}, {"type": "node", "id": 6323105767, "lat": 41.9734458, "lon": -87.6561749, "tags": {"addr:city": "Chicago", "addr:housenumber": "1032", "addr:postcode": "60640", "addr:state": "IL", "addr:street": "West Argyle Street", "amenity": "restaurant", "cuisine": "vietnamese", "name": "Nh\u00e0 H\u00e0ng Vi\u1ec7t Nam", "name:vi": "Nh\u00e0 H\u00e0ng Vi\u1ec7t Nam", "phone": "+1-773-878-8895"}}, {"type": "node", "id": 6323134767, "lat": 41.9655042, "lon": -87.6592494, "tags": {"addr:city": "Chicago", "addr:housenumber": "1140", "addr:postcode": "60640", "addr:state": "IL", "addr:street": "West Wilson Avenue", "amenity": "bar", "name": "Nick\u2019s on Wilson", "phone": "+1-773-681-0705"}}, {"type": "node", "id": 6400751278, "lat": 41.9692177, "lon": -87.6556814, "tags": {"amenity": "restaurant", "name": "Three Squares Diner"}}, {"type": "node", "id": 6401443304, "lat": 41.965196, "lon": -87.6627771, "tags": {"addr:housenumber": "1309", "addr:street": "West Wilson Avenue", "amenity": "restaurant", "name": "Longacre Pizza Squared", "phone": "7732937413"}}, {"type": "node", "id": 7152419159, "lat": 41.9734505, "lon": -87.6572817, "tags": {"amenity": "restaurant", "cuisine": "chinese", "name": "Hon Kee Restaurant"}}, {"type": "node", "id": 7152419169, "lat": 41.9734853, "lon": -87.658375, "tags": {"amenity": "restaurant", "cuisine": "vietnamese;noodle", "name": "Ph\u1edf Loan"}}, {"type": "node", "id": 7152419170, "lat": 41.9731084, "lon": -87.6583026, "tags": {"amenity": "restaurant", "cuisine": "vietnamese", "disused:cuisine": "barbecue;chinese", "name": "H\u1ed3ng Ng\u1ef1", "old_name": "Vinh Phat Express"}}, {"type": "node", "id": 7152419173, "lat": 41.9731205, "lon": -87.6574145, "tags": {"amenity": "restaurant", "cuisine": "vietnamese;noodle", "name": "Ph\u1edf 777", "name:vi": "Ph\u1edf 777", "strapline": "The House of Noodle"}}, {"type": "node", "id": 7152419174, "lat": 41.9731255, "lon": -87.6573399, "tags": {"amenity": "restaurant", "cuisine": "chinese", "name": "Double Happiness"}}, {"type": "node", "id": 7152419178, "lat": 41.9734545, "lon": -87.6568042, "tags": {"amenity": "restaurant", "cuisine": "chinese", "name": "Chinese Lanterns"}}, {"type": "node", "id": 7152419181, "lat": 41.9734795, "lon": -87.6560137, "tags": {"amenity": "restaurant", "cuisine": "vietnamese;thai", "disused:amenity": "fast_food", "name": "Cafe Hoang", "old_name": "VN Tofu & Fast Food", "website": "https://www.cafehoang.com/"}}, {"type": "node", "id": 7152419184, "lat": 41.9731624, "lon": -87.655488, "tags": {"amenity": "restaurant", "cuisine": "chinese", "name": "Garden"}}, {"type": "node", "id": 7152419386, "lat": 41.9731565, "lon": -87.6558058, "tags": {"amenity": "restaurant", "cuisine": "chinese;coffee_shop", "name": "New Chinatown Restaurant & Coffee Shop"}}, {"type": "node", "id": 7152419387, "lat": 41.9731624, "lon": -87.6558768, "tags": {"amenity": "restaurant", "cuisine": "vietnamese;noodle", "name": "Ph\u1edf Xe L\u1eeda", "name:vi": "Ph\u1edf Xe L\u1eeda"}}, {"type": "node", "id": 7152419393, "lat": 41.9731016, "lon": -87.6589634, "tags": {"amenity": "restaurant", "cuisine": "vietnamese", "disused:cuisine": "thai;noodle", "name": "Miss Saigon", "old_name": "King of Thai Noodles & Bar"}}, {"type": "node", "id": 7152419396, "lat": 41.9731085, "lon": -87.6592439, "tags": {"amenity": "restaurant", "cuisine": "vietnamese;noodle", "name": "Ph\u1edf 888"}}, {"type": "node", "id": 7152419398, "lat": 41.9734255, "lon": -87.6591527, "tags": {"amenity": "restaurant", "name": "Qideas"}}, {"type": "node", "id": 7152419401, "lat": 41.9736487, "lon": -87.6575408, "tags": {"amenity": "restaurant", "cuisine": "chinese;barbecue", "name": "Hon Kee Restaurant"}}, {"type": "node", "id": 7152419402, "lat": 41.9731315, "lon": -87.6571222, "tags": {"amenity": "restaurant", "cuisine": "vietnamese;chinese", "name": "H\u1ea3i Y\u1ebfn", "name:vi": "H\u1ea3i Y\u1ebfn"}}, {"type": "node", "id": 7152419417, "lat": 41.973034, "lon": -87.6594993, "tags": {"amenity": "restaurant", "cuisine": "thai", "name": "Thai Avenue"}}, {"type": "node", "id": 7152419422, "lat": 41.9722461, "lon": -87.6594706, "tags": {"addr:housenumber": "4925", "addr:street": "North Broadway", "addr:street:name": "Broadway", "addr:street:prefix": "North", "amenity": "restaurant", "chicago:building_id": "853681", "cuisine": "thai", "name": "Thai Pastry Restaurant", "phone": "+1-773-784-5399", "website": "https://www.thaipastry.com/"}}, {"type": "node", "id": 7152419424, "lat": 41.9723827, "lon": -87.6594867, "tags": {"amenity": "restaurant", "cuisine": "vietnamese;noodle", "name": "L\u00ea\u2019s Ph\u1edf"}}, {"type": "node", "id": 7317268752, "lat": 41.9688999, "lon": -87.6593933, "tags": {"addr:city": "Chicago", "addr:housenumber": "4753", "addr:postcode": "60640", "addr:state": "IL", "addr:street": "North Broadway", "amenity": "cafe", "brand": "Starbucks", "brand:wikidata": "Q37158", "brand:wikipedia": "en:Starbucks", "cuisine": "coffee_shop", "name": "Starbucks", "official_name": "Starbucks Coffee", "takeaway": "yes"}}, {"type": "node", "id": 7387891262, "lat": 41.9648383, "lon": -87.6568564, "tags": {"addr:city": "Chicago", "addr:housenumber": "4543", "addr:postcode": "60640", "addr:state": "IL", "addr:street": "North Broadway", "amenity": "restaurant", "cuisine": "ethiopian", "name": "Selam Ethiopian Kitchen", "website": "https://www.selamkitchen.com/"}}, {"type": "way", "id": 209938702, "nodes": [2200917080, 2200917193, 2200917194, 2200917340, 2200917344, 2200917381, 2200917392, 2200917091, 2200917080], "tags": {"addr:housenumber": "1701", "addr:street": "West Lawrence Avenue", "addr:street:name": "Lawrence", "addr:street:prefix": "West", "addr:street:type": "Avenue", "amenity": "restaurant", "building": "yes", "building:levels": "1", "chicago:building_id": "103739", "cuisine": "burger", "name": "Byron's Hotdogs"}}, {"type": "way", "id": 209938737, "nodes": [2200916994, 2200917307, 2200917324, 2200917010, 2200916994], "tags": {"addr:city": "Chicago", "addr:housenumber": "1765", "addr:postcode": "60640", "addr:street": "West Lawrence Avenue", "addr:street:name": "Lawrence", "addr:street:prefix": "West", "addr:street:type": "Avenue", "amenity": "restaurant", "building": "yes", "building:levels": "1", "chicago:building_id": "103912", "cuisine": "american", "name": "Golden Nugget Pancake House", "website": "https://goldennuggetpancake.com/"}}, {"type": "way", "id": 210381773, "nodes": [2204571338, 2204571339, 2204571348, 2204571351, 2204571352, 2204571534, 2204571535, 2204571929, 2204571938, 2204571363, 2204571359, 2204571353, 2204571349, 2204571342, 2204571340, 2204571344, 2204571338], "tags": {"addr:city": "Chicago", "addr:housenumber": "910", "addr:postcode": "60613", "addr:state": "IL", "addr:street": "West Buena Avenue", "addr:street:name": "Broadway", "addr:street:prefix": "North", "amenity": "bar", "building": "yes", "chicago:building_id": "136234", "name": "Bar on Buena", "phone": "+1-773-525-8665", "website": "https://www.baronbuena.com/"}}, {"type": "way", "id": 210382262, "nodes": [2204584306, 2204584311, 2204584132, 2204584122, 2204584187, 2204584189, 2204584287, 2204584285, 2204584306], "tags": {"addr:housenumber": "4744", "addr:street": "North Racine Avenue", "addr:street:name": "Racine", "addr:street:prefix": "North", "addr:street:type": "Avenue", "amenity": "restaurant", "building": "yes", "chicago:building_id": "839422", "cuisine": "diner", "name": "Golden House Restaurant"}}]}