{"version": 0.6, "generator": "Overpass API 0.7.56.1004 6cd3eaec", "osm3s": {"timestamp_osm_base": "2020-07-22T00:46:02Z", "copyright": "The data included in this document is from www.openstreetmap.org. The data is made available under ODbL."}, "elements": [{"type": "node", "id": 354128581, "lat": 41.8761445, "lon": -87.6251612, "tags": {"addr:city": "Chicago", "addr:housenumber": "430", "addr:postcode": "60605", "addr:state": "IL", "addr:street": "South Michigan Avenue", "amenity": "university", "ele": "180", "gnis:county_id": "031", "gnis:created": "01/15/1980", "gnis:feature_id": "416929", "gnis:state_id": "17", "name": "Roosevelt University", "website": "https://www.roosevelt.edu/", "wikidata": "Q2124886", "wikipedia": "en:Roosevelt University"}}, {"type": "node", "id": 357046400, "lat": 41.8687459, "lon": -87.62632, "tags": {"amenity": "restaurant", "name": "Eleven City Diner", "url": "http://www.elevencitydiner.com/"}}, {"type": "node", "id": 566504090, "lat": 41.8725708, "lon": -87.6289165, "tags": {"amenity": "restaurant", "cuisine": "western", "name": "Hackney's", "phone": "(312)-1116", "source:name": "local_knowledge", "website": "http://www.hackneysprintersrow.net/"}}, {"type": "node", "id": 878223676, "lat": 41.8758557, "lon": -87.6335148}, {"type": "node", "id": 878223677, "lat": 41.8758597, "lon": -87.633146}, {"type": "node", "id": 878226185, "lat": 41.8757715, "lon": -87.633146}, {"type": "node", "id": 878226189, "lat": 41.8757888, "lon": -87.6335135}, {"type": "node", "id": 878233833, "lat": 41.8757898, "lon": -87.6334813}, {"type": "node", "id": 878233845, "lat": 41.8757739, "lon": -87.6334813}, {"type": "node", "id": 878233847, "lat": 41.8757739, "lon": -87.6334625}, {"type": "node", "id": 878233852, "lat": 41.8757669, "lon": -87.6334625}, {"type": "node", "id": 1233948945, "lat": 41.8720597, "lon": -87.6288064, "tags": {"amenity": "restaurant", "name": "Bar Louie"}}, {"type": "node", "id": 1233963027, "lat": 41.8729565, "lon": -87.6271894, "tags": {"amenity": "restaurant", "name": "South Loop Club"}}, {"type": "node", "id": 1623625816, "lat": 41.8728973, "lon": -87.6261378}, {"type": "node", "id": 1623626008, "lat": 41.8730251, "lon": -87.6261415}, {"type": "node", "id": 1623626170, "lat": 41.8728877, "lon": -87.6267382}, {"type": "node", "id": 1623626541, "lat": 41.8730156, "lon": -87.6267419}, {"type": "node", "id": 1699207181, "lat": 41.8731754, "lon": -87.6289521, "tags": {"addr:city": "Chicago", "addr:housenumber": "701", "addr:postcode": "60605", "addr:state": "IL", "addr:street": "South Dearborn Street", "amenity": "bar", "name": "Kasey's Tavern", "phone": "+1-312-427-7992", "website": "http://kaseystavern.com/"}}, {"type": "node", "id": 2206240972, "lat": 41.867171, "lon": -87.6261731}, {"type": "node", "id": 2206240974, "lat": 41.867172, "lon": -87.6260095}, {"type": "node", "id": 2206240981, "lat": 41.8672087, "lon": -87.6261735}, {"type": "node", "id": 2206240982, "lat": 41.8672081, "lon": -87.6262677}, {"type": "node", "id": 2206240987, "lat": 41.867267, "lon": -87.6262684}, {"type": "node", "id": 2206240988, "lat": 41.8672686, "lon": -87.6260106}, {"type": "node", "id": 2353611001, "lat": 41.8678267, "lon": -87.6264154}, {"type": "node", "id": 2353611003, "lat": 41.8675921, "lon": -87.6264795}, {"type": "node", "id": 2353611004, "lat": 41.867594, "lon": -87.6264441, "tags": {"entrance": "main"}}, {"type": "node", "id": 2353611005, "lat": 41.8678254, "lon": -87.6264851}, {"type": "node", "id": 2353611006, "lat": 41.8675927, "lon": -87.6264087}, {"type": "node", "id": 2353615733, "lat": 41.8677461, "lon": -87.626052, "tags": {"addr:housenumber": "1150", "addr:postcode": "60605", "addr:street": "South Wabash Avenue", "amenity": "restaurant", "cuisine": "sandwich", "name": "Artists cafe", "website": "http://www.artists-cafe.com"}}, {"type": "node", "id": 2354408925, "lat": 41.8665552, "lon": -87.6255855, "tags": {"addr:city": "Chicago", "addr:housenumber": "1233", "addr:postcode": "60605", "addr:state": "IL", "addr:street": "South Wabash Avenue", "amenity": "bar", "name": "Wabash Tap", "phone": "+1-312-360-9488", "website": "https://www.wabashtap.com/"}}, {"type": "node", "id": 2354819233, "lat": 41.8715417, "lon": -87.6271677, "tags": {"addr:city": "Chicago", "addr:housenumber": "805", "addr:postcode": "60605", "addr:state": "IL", "addr:street": "South State Street", "amenity": "restaurant", "name": "Lou Malnati's Pizzeria", "phone": "+1-312-786-1000", "website": "https://www.loumalnatis.com/"}}, {"type": "node", "id": 2356511944, "lat": 41.8676519, "lon": -87.6260638, "tags": {"addr:city": "Chicago", "addr:housenumber": "1152", "addr:postcode": "60605", "addr:state": "IL", "addr:street": "South Wabash Avenue", "amenity": "restaurant", "name": "The Bongo Room", "phone": "+1-312-291-0100", "website": "http://thebongoroom.com"}}, {"type": "node", "id": 2356511947, "lat": 41.8676105, "lon": -87.6263471, "tags": {"addr:housenumber": "28", "addr:postcode": "60605", "addr:street": "East Roosevelt Road", "amenity": "restaurant", "cuisine": "chinese", "name": "Yang", "website": "http://www.yangrestaurant.com"}}, {"type": "node", "id": 2356511949, "lat": 41.8688239, "lon": -87.6246198, "tags": {"addr:city": "Chicago", "addr:housenumber": "1120", "addr:postcode": "60605", "addr:state": "IL", "addr:street": "South Michigan Avenue", "amenity": "restaurant", "cuisine": "breakfast", "name": "Yolk - South Loop", "phone": "+1-312-789-9655", "website": "https://eatyolk.com/"}}, {"type": "node", "id": 2356514770, "lat": 41.8695069, "lon": -87.627184, "tags": {"addr:city": "Chicago", "addr:housenumber": "1023", "addr:postcode": "60605", "addr:state": "IL", "addr:street": "South State Street", "amenity": "bar", "name": "Tantrum", "phone": "+1-312-939-9160", "website": "http://www.tantrumsouthloop.com"}}, {"type": "node", "id": 2356515318, "lat": 41.8733556, "lon": -87.6245716, "tags": {"amenity": "restaurant", "name": "Mercat a La Plaxa"}}, {"type": "node", "id": 2356821098, "lat": 41.8677039, "lon": -87.6265356, "tags": {"addr:city": "Chicago", "addr:housenumber": "22", "addr:postcode": "60605", "addr:state": "IL", "addr:street": "East Roosevelt Road", "amenity": "cafe", "cuisine": "sandwich", "name": "Butterfield Kitchen", "website": "http://butterfield-kitchen.com"}}, {"type": "node", "id": 2633069904, "lat": 41.8670718, "lon": -87.6243199, "tags": {"addr:housenumber": "1250", "addr:street": "South Michigan Avenue", "amenity": "restaurant", "cuisine": "Comfort_Food", "name": "Crave Cafe and Lounge"}}, {"type": "node", "id": 2819630141, "lat": 41.8707557, "lon": -87.6283739, "tags": {"amenity": "restaurant", "cuisine": "indian", "name": "Chicago Curry House"}}, {"type": "node", "id": 2950067046, "lat": 41.8726204, "lon": -87.627332, "tags": {"addr:housenumber": "719", "addr:street": "South State Street", "amenity": "restaurant", "cuisine": "pizza", "name": "Pauly's Pizza-Ria", "phone": "+1-312-957-1111"}}, {"type": "node", "id": 2950067047, "lat": 41.8711564, "lon": -87.6272616, "tags": {"addr:city": "Chicago", "addr:housenumber": "825", "addr:postcode": "60605", "addr:state": "IL", "addr:street": "South State Street", "amenity": "restaurant", "cuisine": "italian", "name": "Pazzo's"}}, {"type": "node", "id": 3131681676, "lat": 41.8716589, "lon": -87.6262014, "tags": {"addr:city": "Chicago", "addr:housenumber": "41", "addr:postcode": "60605", "addr:state": "IL", "addr:street": "East 8th Street", "amenity": "cafe", "brand": "Peet's Coffee", "brand:wikidata": "Q1094101", "brand:wikipedia": "en:Peet's Coffee", "cuisine": "coffee_shop", "name": "Peet's Coffee", "phone": "+1-312-489-5097", "takeaway": "yes", "website": "https://www.peets.com/"}}, {"type": "node", "id": 3131705137, "lat": 41.8734221, "lon": -87.6304581, "tags": {"addr:city": "Chicago", "addr:housenumber": "643", "addr:postcode": "60605", "addr:state": "IL", "addr:street": "South Clark Street", "amenity": "bar", "name": "First Draft", "phone": "+1-312-461-1062", "website": "http://www.firstdraftchicago.com/"}}, {"type": "node", "id": 3217035460, "lat": 41.8762035, "lon": -87.6272172, "tags": {"amenity": "university", "building": "school", "name": "Robert Morris University", "source": "http://www.robertmorris.edu/", "website": "https://robertmorris.edu/", "wikidata": "Q7347822"}}, {"type": "node", "id": 3263537492, "lat": 41.8739784, "lon": -87.6294588, "tags": {"amenity": "restaurant", "name": "Sofi Restaurant", "website": "http://sofirestaurantandbar.com"}}, {"type": "node", "id": 3919160343, "lat": 41.8678198, "lon": -87.6245541, "tags": {"addr:city": "Chicago", "addr:country": "US", "addr:housenumber": "1150", "addr:postcode": "60605", "addr:state": "IL", "addr:street": "South Michigan Avenue", "amenity": "restaurant", "cuisine": "burger", "name": "Burger Bar Chicago - South Loop", "phone": "+1-312-988-0162", "website": "http://burgerbarchicago.com/"}}, {"type": "node", "id": 4035489532, "lat": 41.8693019, "lon": -87.6327753}, {"type": "node", "id": 4035489533, "lat": 41.8692285, "lon": -87.6327738}, {"type": "node", "id": 4035489534, "lat": 41.8691608, "lon": -87.6327707}, {"type": "node", "id": 4035489535, "lat": 41.8691688, "lon": -87.6326444}, {"type": "node", "id": 4035489536, "lat": 41.8693111, "lon": -87.6326706}, {"type": "node", "id": 4035489537, "lat": 41.8693042, "lon": -87.6326937}, {"type": "node", "id": 4035489538, "lat": 41.8693019, "lon": -87.6327245}, {"type": "node", "id": 4035489539, "lat": 41.8693076, "lon": -87.6327461}, {"type": "node", "id": 4298039815, "lat": 41.8682328, "lon": -87.626329, "tags": {"amenity": "restaurant", "name": "Belly Up Smokehouse & Saloon"}}, {"type": "node", "id": 4298062192, "lat": 41.8656166, "lon": -87.6254938, "tags": {"amenity": "bar", "name": "The Scout"}}, {"type": "node", "id": 4431002885, "lat": 41.8666021, "lon": -87.6148089}, {"type": "node", "id": 4431002886, "lat": 41.8666407, "lon": -87.6147404}, {"type": "node", "id": 4431002887, "lat": 41.8664067, "lon": -87.61451}, {"type": "node", "id": 4431002888, "lat": 41.8663696, "lon": -87.6145723}, {"type": "node", "id": 4463574018, "lat": 41.8758177, "lon": -87.6263248, "tags": {"addr:city": "Chicago", "addr:housenumber": "26", "addr:postcode": "60605", "addr:state": "IL", "addr:street": "East Congress Plaza Drive", "amenity": "restaurant", "name": "Cafecito", "phone": "+1-312-922-2233", "website": "http://www.cafecitochicago.com/"}}, {"type": "node", "id": 5003149848, "lat": 41.8759361, "lon": -87.6322103, "tags": {"addr:city": "Chicago", "addr:housenumber": "440", "addr:postcode": "60605", "addr:state": "IL", "addr:street": "South LaSalle Street", "amenity": "restaurant", "cuisine": "french", "name": "Everest", "opening_hours": "Tu-Th 17:30-21:00; Fr 17:30-21:30; Sa 17:00-22:00", "phone": "+1-312-663-8920", "website": "http://www.everestrestaurant.com"}}, {"type": "node", "id": 5123254321, "lat": 41.8625159, "lon": -87.624269, "tags": {"addr:city": "Chicago", "addr:housenumber": "1454", "addr:postcode": "60605", "addr:state": "IL", "addr:street": "South Michigan Avenue", "amenity": "bar", "name": "Vice District Taproom", "phone": "+1-312-291-9022", "website": "http://www.vicedistrictbrewing.com/"}}, {"type": "node", "id": 5348219721, "lat": 41.8754048, "lon": -87.6294315, "tags": {"amenity": "restaurant", "cuisine": "american;italian", "name": "Meli", "opening_hours": "Mo-Th 07:00-22:00; Fr-Sa 07:00-00:00; Su 07:00-22:00", "website": "https://www.melicafe.com/"}}, {"type": "node", "id": 5359347426, "lat": 41.872428, "lon": -87.6304237, "tags": {"addr:city": "Chicago", "addr:housenumber": "755", "addr:postcode": "60605", "addr:state": "IL", "addr:street": "South Clark Street", "amenity": "restaurant", "name": "Half Sour", "phone": "+1-312-224-1772", "website": "https://halfsourchicago.com/"}}, {"type": "node", "id": 5376364522, "lat": 41.864555, "lon": -87.623821, "tags": {"addr:housenumber": "1355", "addr:street": "South Michigan Avenue", "amenity": "restaurant", "name": "Kurah Mediterranean"}}, {"type": "node", "id": 5571123422, "lat": 41.8713931, "lon": -87.6272765, "tags": {"addr:housenumber": "823", "addr:street": "South State Street", "amenity": "restaurant", "name": "Taco Madre", "opening_hours": "Su-Th 11:00-23:00; Fr-Sa 11:00-01:00"}}, {"type": "node", "id": 6077923585, "lat": 41.874317, "lon": -87.6254568, "tags": {"addr:city": "Chicago", "addr:housenumber": "63", "addr:postcode": "60605", "addr:state": "IL", "addr:street": "East Harrison Street", "amenity": "cafe", "name": "LaSalle Cafe Luna", "phone": "+1-312-376-1487"}}, {"type": "node", "id": 6256247554, "lat": 41.8725283, "lon": -87.6245969, "tags": {"addr:city": "Chicago", "addr:housenumber": "720", "addr:postcode": "60605", "addr:state": "IL", "addr:street": "South Michigan Avenue", "amenity": "bar", "name": "720 South Bar & Grill", "phone": "+1-312-922-4400", "website": "https://www.hiltonchicagomeetings.com/hotel-information/hotel-amenities/restaurants-bars/720-south-bar-grill/"}}, {"type": "node", "id": 6256604400, "lat": 41.859079, "lon": -87.6252706, "tags": {"addr:city": "Chicago", "addr:housenumber": "1639", "addr:postcode": "60616", "addr:state": "IL", "addr:street": "South Wabash Avenue", "amenity": "restaurant", "cuisine": "american", "name": "Acadia", "phone": "+1-312-360-9500", "website": "https://acadiachicago.com"}}, {"type": "node", "id": 6265180601, "lat": 41.8717813, "lon": -87.6290239, "tags": {"addr:city": "Chicago", "addr:housenumber": "47", "addr:postcode": "60605", "addr:state": "IL", "addr:street": "West Polk Street", "amenity": "bar", "name": "Bar Louie", "phone": "+1-312-347-0000", "website": "https://www.barlouie.com/locations/states/illinois/dearborn-station"}}, {"type": "node", "id": 6269164386, "lat": 41.8729704, "lon": -87.6263084, "tags": {"addr:city": "Chicago", "addr:housenumber": "700", "addr:postcode": "60605", "addr:state": "IL", "addr:street": "South Wabash Avenue", "amenity": "restaurant", "name": "Buddy Guy\u2019s Legends", "phone": "+1-312-427-1190", "website": "http://buddyguy.com/"}}, {"type": "node", "id": 6284683038, "lat": 41.8719638, "lon": -87.6333095, "tags": {"addr:city": "Chicago", "addr:housenumber": "801", "addr:postcode": "60607", "addr:state": "IL", "addr:street": "South Financial Place", "amenity": "cafe", "name": "Dollop Coffee Company", "phone": "+1-312-291-8357", "website": "https://dollop.coffee/"}}, {"type": "node", "id": 6284891836, "lat": 41.8763717, "lon": -87.6272188, "tags": {"addr:city": "Chicago", "addr:housenumber": "401", "addr:postcode": "60605", "addr:state": "IL", "addr:street": "South State Street", "amenity": "cafe", "name": "Eagles\u2019 Landing Cafe", "phone": "+1-312-935-2016"}}, {"type": "node", "id": 6290963934, "lat": 41.865387, "lon": -87.6263756, "tags": {"addr:city": "Chicago", "addr:housenumber": "1310", "addr:postcode": "60605", "addr:state": "IL", "addr:street": "South Wabash Avenue", "amenity": "bar", "name": "Flo & Santos", "phone": "+1-312-566-9817", "website": "http://www.floandsantos.com/"}}, {"type": "node", "id": 6292047481, "lat": 41.8725775, "lon": -87.6288468, "tags": {"addr:city": "Chicago", "addr:housenumber": "729", "addr:postcode": "60605", "addr:state": "IL", "addr:street": "South Dearborn Street", "amenity": "cafe", "name": "Gordo\u2019s", "phone": "+1-312-461-1116", "website": "http://gordosicecream.com/"}}, {"type": "node", "id": 6294287447, "lat": 41.8725045, "lon": -87.6246394, "tags": {"addr:city": "Chicago", "addr:housenumber": "720", "addr:postcode": "60605", "addr:state": "IL", "addr:street": "South Michigan Avenue", "amenity": "cafe", "name": "Herb N\u2019 Kitchen"}}, {"type": "node", "id": 6294385835, "lat": 41.8759712, "lon": -87.6289904, "tags": {"addr:city": "Chicago", "addr:housenumber": "439", "addr:postcode": "60605", "addr:state": "IL", "addr:street": "South Dearborn Street", "amenity": "cafe", "name": "HERO Coffee Bar", "phone": "+1-312-631-3269", "website": "https://www.herocoffeebars.com/"}}, {"type": "node", "id": 6294469390, "lat": 41.8741022, "lon": -87.6262438, "tags": {"addr:city": "Chicago", "addr:housenumber": "606", "addr:postcode": "60605", "addr:state": "IL", "addr:street": "South Wabash Avenue", "amenity": "restaurant", "name": "Himalayan Restaurant", "phone": "+1-312-877-5999"}}, {"type": "node", "id": 6298900774, "lat": 41.8718652, "lon": -87.6309176, "tags": {"addr:city": "Chicago", "addr:housenumber": "800", "addr:postcode": "60605", "addr:state": "IL", "addr:street": "South Clark Street", "amenity": "restaurant", "name": "Sociale Chicago", "phone": "+1-312-588-1100", "website": "http://www.socialechicago.com/"}}, {"type": "node", "id": 6300352856, "lat": 41.8676726, "lon": -87.6264521, "tags": {"addr:city": "Chicago", "addr:housenumber": "26", "addr:postcode": "60605", "addr:state": "IL", "addr:street": "East Roosevelt Road", "amenity": "cafe", "name": "Stan\u2019s Donuts & Coffee", "phone": "+1-312-834-0700"}}, {"type": "node", "id": 6300753400, "lat": 41.8738709, "lon": -87.6294661, "tags": {"addr:city": "Chicago", "addr:housenumber": "616", "addr:postcode": "60605", "addr:state": "IL", "addr:street": "South Dearborn Street", "amenity": "restaurant", "name": "Sofi Restaurant", "phone": "+1-312-753-5504", "website": "https://www.sofichicago.com/"}}, {"type": "node", "id": 6301970384, "lat": 41.8656516, "lon": -87.6254846, "tags": {"addr:city": "Chicago", "addr:housenumber": "1301", "addr:postcode": "60605", "addr:state": "IL", "addr:street": "South Wabash Avenue", "amenity": "bar", "name": "The Scout Waterhouse + Kitchen", "phone": "1-312-705-0595", "website": "thescoutchicago.com"}}, {"type": "node", "id": 6303115375, "lat": 41.8610689, "lon": -87.6279127, "tags": {"addr:city": "Chicago", "addr:housenumber": "1530", "addr:postcode": "60605", "addr:state": "IL", "addr:street": "South State Street", "amenity": "restaurant", "name": "Tapas Valencia", "phone": "+1-312-842-4444", "website": "http://www.tapasvalencia.com/"}}, {"type": "node", "id": 6306514980, "lat": 41.8599865, "lon": -87.6243607, "tags": {"addr:city": "Chicago", "addr:housenumber": "75", "addr:postcode": "60616", "addr:state": "IL", "addr:street": "East 16th Street", "amenity": "bar", "name": "The Bureau Bar", "phone": "+1-312-888-3156"}}, {"type": "node", "id": 6306554132, "lat": 41.8639536, "lon": -87.6237618, "tags": {"addr:city": "Chicago", "addr:housenumber": "1401", "addr:postcode": "60605", "addr:state": "IL", "addr:street": "South Michigan Avenue", "amenity": "restaurant", "name": "The Chicago Firehouse Restaurant", "phone": "+1-312-786-1401", "website": "http://www.chicagofirehouse.com/"}}, {"type": "node", "id": 6307076632, "lat": 41.8727705, "lon": -87.6308599, "tags": {"addr:city": "Chicago", "addr:housenumber": "730", "addr:postcode": "60605", "addr:state": "IL", "addr:street": "South Clark Street", "amenity": "restaurant", "name": "Umai", "phone": "+1-312-986-8888", "website": "https://www.umaichicago.com/"}}, {"type": "node", "id": 6316574821, "lat": 41.8635201, "lon": -87.6245316, "tags": {"addr:city": "Chicago", "addr:housenumber": "1416", "addr:postcode": "60605", "addr:state": "IL", "addr:street": "South Michigan Avenue", "amenity": "bar", "name": "Victory Tap Chicago", "phone": "+1-312-566-9300", "website": "http://armandspizzeria.com/"}}, {"type": "node", "id": 6316767066, "lat": 41.8619185, "lon": -87.6235586, "tags": {"addr:city": "Chicago", "addr:housenumber": "1503", "addr:postcode": "60605", "addr:state": "IL", "addr:street": "South Michigan Avenue", "amenity": "bar", "name": "Weather Mark Tavern", "phone": "+1-312-588-0230", "website": "https://weathermarktavern.com/"}}, {"type": "node", "id": 6318454174, "lat": 41.8661313, "lon": -87.6213901, "tags": {"addr:city": "Chicago", "addr:housenumber": "1251", "addr:postcode": "60605", "addr:state": "IL", "addr:street": "South Prairie Avenue", "amenity": "cafe", "name": "Little Branch Cafe", "phone": "+1-312-360-0101", "website": "https://www.littlebranchcafe.com/"}}, {"type": "node", "id": 6319137801, "lat": 41.8661492, "lon": -87.6268823, "tags": {"addr:city": "Chicago", "addr:housenumber": "1255", "addr:postcode": "60605", "addr:state": "IL", "addr:street": "South State Street", "amenity": "restaurant", "name": "Kai Sushi", "name:en": "Kai Sushi", "opening_hours": "Mo-Su 11:30-21:00", "phone": "+1-312-583-0567", "website": "http://orderkaisushi.com/"}}, {"type": "node", "id": 6319681793, "lat": 41.8725038, "lon": -87.6245667, "tags": {"addr:city": "Chicago", "addr:housenumber": "720", "addr:postcode": "60605", "addr:state": "IL", "addr:street": "South Michigan Avenue", "amenity": "bar", "name": "Kitty O\u2019Shea\u2019s", "phone": "+1-312-294-6860", "website": "http://hilton.com"}}, {"type": "node", "id": 6320662138, "lat": 41.8682519, "lon": -87.6261541, "tags": {"addr:city": "Chicago", "addr:housenumber": "1132", "addr:postcode": "60605", "addr:state": "IL", "addr:street": "South Wabash Avenue", "amenity": "restaurant", "name": "Lowcountry South Loop", "phone": "+1-888-883-8375", "website": "https://www.lowcountrychicago.com/"}}, {"type": "node", "id": 6321298174, "lat": 41.8613629, "lon": -87.6259758, "tags": {"addr:city": "chicago", "addr:housenumber": "1520", "addr:postcode": "60605", "addr:state": "IL", "addr:street": "South Wabash Avenue", "amenity": "bar", "name": "M Lounge", "phone": "+1-312-447-0201", "website": "https://www.mloungechicago.com/"}}, {"type": "node", "id": 6321527779, "lat": 41.8733337, "lon": -87.6247013, "tags": {"addr:city": "Chicago", "addr:housenumber": "636", "addr:postcode": "60605", "addr:state": "IL", "addr:street": "South Michigan Avenue", "amenity": "cafe", "name": "Market By The Blackstone", "phone": "+1-312-447-0955"}}, {"type": "node", "id": 6322583240, "lat": 41.8732664, "lon": -87.6246842, "tags": {"addr:city": "Chicago", "addr:housenumber": "638", "addr:postcode": "60605", "addr:state": "IL", "addr:street": "South Michigan Avenue", "amenity": "restaurant", "name": "Mercat a la Planxa", "phone": "+1-312-765-0524", "website": "https://mercatchicago.com/"}}, {"type": "node", "id": 6323177663, "lat": 41.8707401, "lon": -87.6245518, "tags": {"addr:city": "Chicago", "addr:housenumber": "888", "addr:postcode": "60605", "addr:state": "IL", "addr:street": "South Michigan Avenue", "amenity": "restaurant", "name": "Niu B", "phone": "+1-312-922-1127", "website": "https://www.niubchicago.com/"}}, {"type": "node", "id": 6324182179, "lat": 41.8604348, "lon": -87.6281304, "tags": {"addr:city": "Chicago", "addr:housenumber": "1550", "addr:postcode": "60605", "addr:state": "IL", "addr:street": "South State Street", "amenity": "cafe", "name": "Overflow Coffee Bar", "phone": "+1-312-772-2356", "website": "http://www.overflowcoffeebar.org/"}}, {"type": "node", "id": 6920818833, "lat": 41.8683843, "lon": -87.6310303, "tags": {"addr:city": "Chicago", "addr:housenumber": "1154", "addr:postcode": "60605", "addr:state": "IL", "addr:street": "South Clark Street", "amenity": "cafe", "brand": "Starbucks", "brand:wikidata": "Q37158", "brand:wikipedia": "en:Starbucks", "cuisine": "coffee_shop", "name": "Starbucks", "official_name": "Starbucks Coffee", "takeaway": "yes"}}, {"type": "node", "id": 6966999056, "lat": 41.8747058, "lon": -87.6289464, "tags": {"addr:city": "Chicago", "addr:housenumber": "555", "addr:postcode": "60605", "addr:state": "IL", "addr:street": "South Dearborn Street", "amenity": "cafe", "brand": "Starbucks", "brand:wikidata": "Q37158", "brand:wikipedia": "en:Starbucks", "cuisine": "coffee_shop", "internet_access": "wlan", "internet_access:fee": "no", "name": "Starbucks", "official_name": "Starbucks Coffee", "outdoor_seating": "yes", "takeaway": "yes"}}, {"type": "node", "id": 7157672325, "lat": 41.8664929, "lon": -87.6145948}, {"type": "node", "id": 7157672326, "lat": 41.8665561, "lon": -87.6146571}, {"type": "node", "id": 7157672327, "lat": 41.8665639, "lon": -87.6146406}, {"type": "node", "id": 7157672328, "lat": 41.8665001, "lon": -87.6145783}, {"type": "way", "id": 74269722, "nodes": [878226185, 878223677, 878223676, 878226189, 878233833, 878233845, 878233847, 878233852, 878226185], "tags": {"addr:city": "Chicago", "addr:housenumber": "501", "addr:postcode": "60607", "addr:state": "IL", "addr:street": "South Wells Street", "amenity": "restaurant", "building": "yes", "cuisine": "italian", "name": "Tutto Italiano"}}, {"type": "way", "id": 149372353, "nodes": [1623626541, 1623626008, 1623625816, 1623626170, 1623626541], "tags": {"addr:housenumber": "700", "addr:postcode": "60605", "addr:street": "South Wabash Avenue", "addr:street:name": "Wabash", "addr:street:prefix": "South", "addr:street:type": "Avenue", "amenity": "bar", "building": "yes", "building:levels": "1", "chicago:building_id": "365890", "name": "Buddy Guy's Legends"}}, {"type": "way", "id": 226825895, "nodes": [2353611003, 2353611005, 2353611001, 2353611006, 2353611004, 2353611003], "tags": {"addr:housenumber": "26", "addr:postcode": "60605", "addr:street": "East Roosevelt Road", "amenity": "restaurant", "building": "yes", "cuisine": "donut", "name": "Stan's Donuts"}}, {"type": "way", "id": 226885912, "nodes": [2206240988, 2206240974, 2206240972, 2206240981, 2206240982, 2206240987, 2206240988], "tags": {"addr:housenumber": "31", "addr:postcode": "60605", "addr:street": "East Roosevelt Road", "amenity": "cafe", "brand": "Starbucks", "brand:wikidata": "Q37158", "brand:wikipedia": "en:Starbucks", "building": "yes", "building:levels": "1", "chicago:building_id": "843355", "cuisine": "coffee_shop", "name": "Starbucks", "takeaway": "yes", "website": "https://www.starbucks.com/"}}, {"type": "way", "id": 401086007, "nodes": [4035489532, 4035489533, 4035489534, 4035489535, 4035489536, 4035489537, 4035489538, 4035489539, 4035489532], "tags": {"amenity": "cafe", "building": "yes", "name": "Bridgeport Coffee"}}, {"type": "way", "id": 445721198, "nodes": [4431002885, 4431002886, 7157672326, 7157672327, 7157672328, 7157672325, 4431002887, 4431002888, 4431002885], "tags": {"amenity": "restaurant", "building": "yes", "cuisine": "sandwich", "name": "Museum Campus Cafe"}}]}