{"version": 0.6, "generator": "Overpass API 0.7.56.3 eb200aeb", "osm3s": {"timestamp_osm_base": "2020-07-04T01:46:02Z", "copyright": "The data included in this document is from www.openstreetmap.org. The data is made available under ODbL."}, "elements": [{"type": "node", "id": 34877687, "lat": 41.9546467, "lon": -87.7322144}, {"type": "node", "id": 252683151, "lat": 41.9661126, "lon": -87.7035103, "tags": {"railway": "level_crossing"}}, {"type": "node", "id": 252683153, "lat": 41.9660515, "lon": -87.7108476, "tags": {"railway": "level_crossing"}}, {"type": "node", "id": 252683154, "lat": 41.966037, "lon": -87.7125854}, {"type": "node", "id": 252683155, "lat": 41.9660753, "lon": -87.7128562}, {"type": "node", "id": 252683157, "lat": 41.9680905, "lon": -87.7131924, "tags": {"name": "Kimball", "network": "CTA", "operator": "Chicago Transit Authority", "public_transport": "stop_position", "railway": "stop", "subway": "yes"}}, {"type": "node", "id": 258940920, "lat": 41.9661515, "lon": -87.6990455}, {"type": "node", "id": 260229867, "lat": 41.9661366, "lon": -87.7010228, "tags": {"railway": "level_crossing"}}, {"type": "node", "id": 260229869, "lat": 41.9660874, "lon": -87.7059476, "tags": {"railway": "level_crossing"}}, {"type": "node", "id": 260229870, "lat": 41.9660697, "lon": -87.7084029, "tags": {"railway": "level_crossing"}}, {"type": "node", "id": 260229872, "lat": 41.9661219, "lon": -87.712975}, {"type": "node", "id": 260229873, "lat": 41.9662812, "lon": -87.7131236}, {"type": "node", "id": 306084355, "lat": 41.9538848, "lon": -87.7308992}, {"type": "node", "id": 306084356, "lat": 41.9526025, "lon": -87.7286656, "tags": {"name": "Irving Park", "network": "CTA", "operator": "Chicago Transit Authority", "public_transport": "stop_position", "railway": "stop", "subway": "yes"}}, {"type": "node", "id": 310319075, "lat": 41.9549797, "lon": -87.7328025}, {"type": "node", "id": 1280962819, "lat": 41.9661834, "lon": -87.6994319}, {"type": "node", "id": 1280962822, "lat": 41.9680907, "lon": -87.7131309, "tags": {"name": "Kimball", "network": "CTA", "operator": "Chicago Transit Authority", "public_transport": "stop_position", "railway": "stop", "subway": "yes"}}, {"type": "node", "id": 1280962837, "lat": 41.9664188, "lon": -87.7130789}, {"type": "node", "id": 1280962838, "lat": 41.9661037, "lon": -87.7126391, "tags": {"railway": "switch"}}, {"type": "node", "id": 1280962851, "lat": 41.9660758, "lon": -87.7127195}, {"type": "node", "id": 1280962853, "lat": 41.9662273, "lon": -87.7130119}, {"type": "node", "id": 1280962854, "lat": 41.9661082, "lon": -87.712285, "tags": {"railway": "switch"}}, {"type": "node", "id": 1280962855, "lat": 41.9661874, "lon": -87.6999817}, {"type": "node", "id": 1280962880, "lat": 41.9664028, "lon": -87.713028}, {"type": "node", "id": 1280962883, "lat": 41.9661715, "lon": -87.7129609}, {"type": "node", "id": 1280962894, "lat": 41.9662114, "lon": -87.7129234}, {"type": "node", "id": 1280962908, "lat": 41.9661418, "lon": -87.7084052, "tags": {"railway": "level_crossing"}}, {"type": "node", "id": 1280962910, "lat": 41.9661911, "lon": -87.7010495, "tags": {"railway": "level_crossing"}}, {"type": "node", "id": 1280962911, "lat": 41.9662991, "lon": -87.7129958}, {"type": "node", "id": 1280962914, "lat": 41.9661575, "lon": -87.7128483}, {"type": "node", "id": 1280962921, "lat": 41.9661568, "lon": -87.7059497, "tags": {"railway": "level_crossing"}}, {"type": "node", "id": 1280962936, "lat": 41.9661156, "lon": -87.7111504}, {"type": "node", "id": 1280962944, "lat": 41.9663651, "lon": -87.7131497}, {"type": "node", "id": 1280962960, "lat": 41.9661906, "lon": -87.7130567}, {"type": "node", "id": 1280962962, "lat": 41.9661087, "lon": -87.7121183}, {"type": "node", "id": 1280962986, "lat": 41.9661216, "lon": -87.7127437}, {"type": "node", "id": 1280962995, "lat": 41.9663211, "lon": -87.7130629}, {"type": "node", "id": 1280963001, "lat": 41.9669293, "lon": -87.7130897}, {"type": "node", "id": 1280963006, "lat": 41.9661854, "lon": -87.6990295}, {"type": "node", "id": 1280963010, "lat": 41.9661067, "lon": -87.7124173, "tags": {"railway": "switch"}}, {"type": "node", "id": 1280963040, "lat": 41.9661117, "lon": -87.7117432}, {"type": "node", "id": 1280963051, "lat": 41.9661781, "lon": -87.7035141, "tags": {"railway": "level_crossing"}}, {"type": "node", "id": 1280963069, "lat": 41.9660658, "lon": -87.7125452}, {"type": "node", "id": 1280963073, "lat": 41.9660483, "lon": -87.7127451}, {"type": "node", "id": 1280963088, "lat": 41.9661157, "lon": -87.7111408, "tags": {"railway": "switch"}}, {"type": "node", "id": 1280963097, "lat": 41.9660778, "lon": -87.711597}, {"type": "node", "id": 1280963099, "lat": 41.9661136, "lon": -87.7128483}, {"type": "node", "id": 1282296212, "lat": 41.9527782, "lon": -87.7288074}, {"type": "node", "id": 1282296222, "lat": 41.9550187, "lon": -87.7328007}, {"type": "node", "id": 1282296245, "lat": 41.9541067, "lon": -87.7311571}, {"type": "node", "id": 1282296289, "lat": 41.9543062, "lon": -87.7315299}, {"type": "node", "id": 1282296306, "lat": 41.9522378, "lon": -87.7278512}, {"type": "node", "id": 1282296319, "lat": 41.9538864, "lon": -87.7307707}, {"type": "node", "id": 1282296365, "lat": 41.9546837, "lon": -87.732215}, {"type": "node", "id": 1282296430, "lat": 41.9544837, "lon": -87.7318518}, {"type": "node", "id": 1432726745, "lat": 41.9661182, "lon": -87.7108499, "tags": {"railway": "level_crossing"}}, {"type": "node", "id": 1432726747, "lat": 41.9661285, "lon": -87.7095589, "tags": {"name": "Kedzie", "network": "CTA", "operator": "Chicago Transit Authority", "public_transport": "stop_position", "railway": "stop", "subway": "yes"}}, {"type": "node", "id": 1432726753, "lat": 41.9660603, "lon": -87.7095588, "tags": {"name": "Kedzie", "network": "CTA", "operator": "Chicago Transit Authority", "public_transport": "stop_position", "railway": "stop", "subway": "yes"}}, {"type": "node", "id": 1432732157, "lat": 41.9661187, "lon": -87.7022132, "tags": {"name": "Francisco", "network": "CTA", "operator": "Chicago Transit Authority", "public_transport": "stop_position", "railway": "stop", "subway": "yes"}}, {"type": "node", "id": 1432732160, "lat": 41.9661881, "lon": -87.7022105, "tags": {"name": "Francisco", "network": "CTA", "operator": "Chicago Transit Authority", "public_transport": "stop_position", "railway": "stop", "subway": "yes"}}, {"type": "node", "id": 1756009344, "lat": 41.9611871, "lon": -87.7173869}, {"type": "node", "id": 1756009348, "lat": 41.9611888, "lon": -87.7169365}, {"type": "node", "id": 1756009690, "lat": 41.96129, "lon": -87.7173877}, {"type": "node", "id": 1756009692, "lat": 41.9612917, "lon": -87.7169373}, {"type": "node", "id": 1992510504, "lat": 41.9665684, "lon": -87.7131446}, {"type": "node", "id": 1992510507, "lat": 41.9681088, "lon": -87.7130785, "tags": {"railway": "buffer_stop"}}, {"type": "node", "id": 1992510509, "lat": 41.9660748, "lon": -87.7118371, "tags": {"railway": "switch"}}, {"type": "node", "id": 1992510511, "lat": 41.9665248, "lon": -87.7130821, "tags": {"railway": "railway_crossing"}}, {"type": "node", "id": 1992510513, "lat": 41.9664398, "lon": -87.7130548}, {"type": "node", "id": 1992510515, "lat": 41.9664862, "lon": -87.7131606, "tags": {"railway": "switch"}}, {"type": "node", "id": 1992510517, "lat": 41.9669244, "lon": -87.7130441}, {"type": "node", "id": 1992510519, "lat": 41.9660452, "lon": -87.7115371, "tags": {"railway": "switch"}}, {"type": "node", "id": 1992510521, "lat": 41.9667529, "lon": -87.713086, "tags": {"railway": "railway_crossing"}}, {"type": "node", "id": 1992510522, "lat": 41.9669105, "lon": -87.7130436, "tags": {"railway": "switch"}}, {"type": "node", "id": 1992510523, "lat": 41.9667678, "lon": -87.713166, "tags": {"railway": "switch"}}, {"type": "node", "id": 1992510524, "lat": 41.966425, "lon": -87.7131589}, {"type": "node", "id": 1992510525, "lat": 41.9666404, "lon": -87.7131217, "tags": {"railway": "railway_crossing"}}, {"type": "node", "id": 1992510526, "lat": 41.9663802, "lon": -87.713021, "tags": {"railway": "switch"}}, {"type": "node", "id": 1992606875, "lat": 41.9661, "lon": -87.7046257, "tags": {"railway": "switch"}}, {"type": "node", "id": 1992606907, "lat": 41.9661641, "lon": -87.7053036, "tags": {"railway": "switch"}}, {"type": "node", "id": 1992606919, "lat": 41.9660948, "lon": -87.7052875, "tags": {"railway": "switch"}}, {"type": "node", "id": 1992606921, "lat": 41.9661694, "lon": -87.7046278, "tags": {"railway": "switch"}}, {"type": "node", "id": 4427781395, "lat": 41.9661344, "lon": -87.701171, "tags": {"railway": "crossing"}}, {"type": "node", "id": 4427781396, "lat": 41.9661379, "lon": -87.7008666, "tags": {"railway": "crossing"}}, {"type": "node", "id": 4427781398, "lat": 41.9661907, "lon": -87.7009296, "tags": {"railway": "crossing"}}, {"type": "node", "id": 4427781399, "lat": 41.9661908, "lon": -87.7011737, "tags": {"railway": "crossing"}}, {"type": "node", "id": 5967983388, "lat": 41.9533558, "lon": -87.7321275, "tags": {"addr:city": "Chicago", "addr:housenumber": "3982", "addr:postcode": "60641", "addr:state": "IL", "addr:street": "North Avondale Avenue", "amenity": "cafe", "cuisine": "coffee_shop", "diet:vegan": "yes", "diet:vegetarian": "yes", "name": "Backlot Coffee", "opening_hours": "Mo-Fr 06:00-18:00; Sa,Su 07:00-18:00", "phone": "+1-773-657-3797", "website": "http://backlotcoffee.com/"}}, {"type": "node", "id": 6282545846, "lat": 41.9539441, "lon": -87.7198151, "tags": {"addr:city": "Chicago", "addr:housenumber": "3658", "addr:postcode": "60618", "addr:state": "IL", "addr:street": "West Irving Park Road", "amenity": "restaurant", "name": "Chicken Works & Salad Company", "phone": "+1-773-588-5488", "website": "http://www.chickenworkschicago.com/"}}, {"type": "node", "id": 6294255482, "lat": 41.9541051, "lon": -87.718301, "tags": {"addr:city": "Chicago", "addr:housenumber": "3608", "addr:postcode": "60618", "addr:state": "IL", "addr:street": "West Irving Park Road", "amenity": "bar", "name": "Hearth And Crust", "phone": "+1-773-516-4800", "website": "https://hearthandcrust.com/"}}, {"type": "node", "id": 6298041172, "lat": 41.9539018, "lon": -87.7265701, "tags": {"addr:city": "Chicago", "addr:housenumber": "3932", "addr:postcode": "60641", "addr:state": "IL", "addr:street": "West Irving Park Road", "amenity": "bar", "name": "Independence Tap", "phone": "+1-773-588-2385"}}, {"type": "node", "id": 6301096133, "lat": 41.9612494, "lon": -87.7221138, "tags": {"addr:city": "Chicago", "addr:housenumber": "3740", "addr:postcode": "60618", "addr:state": "IL", "addr:street": "West Montrose Avenue", "amenity": "restaurant", "name": "Ruby\u2019s Fast Food", "phone": "+1-773-539-2669"}}, {"type": "node", "id": 6303044522, "lat": 41.9573408, "lon": -87.7157832, "tags": {"addr:city": "Chicago", "addr:housenumber": "4156", "addr:postcode": "60618", "addr:state": "IL", "addr:street": "North Saint Louis Avenue", "amenity": "bar", "name": "T & A Too", "phone": "+1-312-555-1212"}}, {"type": "node", "id": 6306526919, "lat": 41.9557745, "lon": -87.7278715, "tags": {"addr:city": "Chicago", "addr:housenumber": "4104", "addr:postcode": "60641", "addr:state": "IL", "addr:street": "North Pulaski Road", "amenity": "bar", "name": "The Cabin At Old Irving", "phone": "+1-773-481-4183", "website": "https://www.thecabinatoldirving.com/"}}, {"type": "node", "id": 6314810327, "lat": 41.9613392, "lon": -87.7134362, "tags": {"addr:city": "Chicago", "addr:housenumber": "3402", "addr:postcode": "60618", "addr:state": "IL", "addr:street": "West Montrose Avenue", "amenity": "restaurant", "name": "Ixcateco Grill", "phone": "+1-773-539-5887", "website": "http://www.ixcatecogrill.com/"}}, {"type": "node", "id": 6320668646, "lat": 41.9539316, "lon": -87.7179009, "tags": {"addr:city": "Chicago", "addr:housenumber": "3600", "addr:postcode": "60618", "addr:state": "IL", "addr:street": "West Irving Park Road", "amenity": "cafe", "name": "Lucky Charm Cafe", "phone": "+1-773-293-7207", "website": "http://luckycharmcafe.com/"}}, {"type": "node", "id": 6322020528, "lat": 41.9670433, "lon": -87.7138068, "tags": {"addr:city": "Chicago", "addr:housenumber": "4712", "addr:postcode": "60625", "addr:state": "IL", "addr:street": "North Kimball Avenue", "amenity": "restaurant", "name": "SUBO Filipino Kitchen", "phone": "+1-773-478-2599", "website": "http://www.3rcafe.com/"}}, {"type": "node", "id": 6323628623, "lat": 41.9624699, "lon": -87.732191, "tags": {"addr:city": "Chicago", "addr:housenumber": "4500", "addr:postcode": "60630", "addr:state": "IL", "addr:street": "North Elston Avenue", "amenity": "bar", "name": "O\u2019Donnell\u2019s", "phone": "+1-773-282-0813"}}, {"type": "node", "id": 6324258698, "lat": 41.9571862, "lon": -87.7274109, "tags": {"addr:city": "Chicago", "addr:housenumber": "4157", "addr:postcode": "60641", "addr:state": "IL", "addr:street": "North Pulaski Road", "amenity": "bar", "name": "Paddy Mac\u2019s", "phone": "+1-773-279-9300", "website": "http://www.paddymacschicago.com/"}}, {"type": "node", "id": 6369524363, "lat": 41.9533598, "lon": -87.729999}, {"type": "node", "id": 6369524364, "lat": 41.9533615, "lon": -87.7298332}, {"type": "node", "id": 6369524369, "lat": 41.9526864, "lon": -87.7288114}, {"type": "node", "id": 6369524370, "lat": 41.953291, "lon": -87.7297092, "tags": {"name": "Irving Park", "network": "CTA", "operator": "Chicago Transit Authority", "public_transport": "stop_position", "railway": "stop", "subway": "yes"}}, {"type": "node", "id": 6369524372, "lat": 41.953317, "lon": -87.7299235}, {"type": "node", "id": 6968019524, "lat": 41.9611269, "lon": -87.7263816, "tags": {"addr:city": "Chicago", "addr:housenumber": "3930", "addr:state": "IL", "addr:street": "West Montrose Avenue", "amenity": "restaurant", "cuisine": "mexican", "name": "Taqueria La Fogata"}}, {"type": "node", "id": 7173964885, "lat": 41.9534803, "lon": -87.7288221, "tags": {"amenity": "restaurant", "cuisine": "moroccan", "name": "Shokran", "opening_hours": "We-Su 16:00-22:00"}}, {"type": "node", "id": 7607851378, "lat": 41.9681089, "lon": -87.7131314, "tags": {"railway": "buffer_stop"}}, {"type": "node", "id": 7607851379, "lat": 41.9681084, "lon": -87.7131931, "tags": {"railway": "buffer_stop"}}, {"type": "way", "id": 23889843, "nodes": [1992510515, 1992510524, 1280962944, 260229873, 1280962960, 260229872, 252683155, 1280963073, 252683154, 1992510519, 252683153, 1432726753, 260229870, 260229869, 1992606919, 1992606875, 252683151, 1432732157, 4427781395, 260229867, 4427781396, 258940920], "tags": {"electrified": "yes", "gauge": "1435", "history": "Retrieved from v13", "name": "Ravenswood Branch", "oneway": "yes", "operator": "Chicago Transit Authority", "railway": "subway", "voltage": "600"}}, {"type": "way", "id": 28044323, "nodes": [306084355, 6369524363], "tags": {"bridge": "yes", "electrified": "rail", "frequency": "0", "gauge": "1435", "layer": "1", "name": "O'Hare Branch", "operator": "Chicago Transit Authority", "railway": "subway", "voltage": "600"}}, {"type": "way", "id": 28256515, "nodes": [310319075, 34877687], "tags": {"bridge": "yes", "electrified": "rail", "frequency": "0", "gauge": "1435", "layer": "1", "name": "O'Hare Branch", "operator": "Chicago Transit Authority", "railway": "subway", "voltage": "600"}}, {"type": "way", "id": 28256516, "nodes": [34877687, 306084355], "tags": {"electrified": "rail", "frequency": "0", "gauge": "1435", "name": "O'Hare Branch", "oneway": "yes", "operator": "Chicago Transit Authority", "railway": "subway", "voltage": "600"}}, {"type": "way", "id": 112757014, "nodes": [7607851378, 1280962822, 1280963001, 1992510521, 1992510511], "tags": {"electrified": "yes", "gauge": "1435", "history": "Retrieved from v13", "name": "Ravenswood Branch", "operator": "Chicago Transit Authority", "railway": "subway", "voltage": "600"}}, {"type": "way", "id": 112757016, "nodes": [1992510507, 1992510517, 1992510522, 1280962880, 1992510526, 1280962911, 1280962894, 1280962914, 1280962986, 1280962838, 1280963010, 1280962854, 1280962962, 1280963040, 1280963088], "tags": {"electrified": "rail", "gauge": "1435", "operator": "Chicago Transit Authority", "railway": "subway", "service": "yard", "voltage": "600"}}, {"type": "way", "id": 112926175, "nodes": [1282296365, 1282296222], "tags": {"bridge": "yes", "electrified": "rail", "frequency": "0", "gauge": "1435", "name": "O'Hare Branch", "oneway": "yes", "operator": "Chicago Transit Authority", "railway": "subway", "voltage": "600"}}, {"type": "way", "id": 112926177, "nodes": [1282296306, 1282296212, 6369524370, 6369524364], "tags": {"electrified": "rail", "frequency": "0", "gauge": "1435", "name": "O'Hare Branch", "oneway": "yes", "operator": "Chicago Transit Authority", "railway": "subway", "voltage": "600"}}, {"type": "way", "id": 112926182, "nodes": [1282296319, 1282296245, 1282296289, 1282296430, 1282296365], "tags": {"electrified": "rail", "frequency": "0", "gauge": "1435", "name": "O'Hare Branch", "oneway": "yes", "operator": "Chicago Transit Authority", "railway": "subway", "voltage": "600"}}, {"type": "way", "id": 163945047, "nodes": [1756009344, 1756009690, 1756009692, 1756009348, 1756009344], "tags": {"addr:city": "Chicago", "addr:housenumber": "3532", "addr:postcode": "60618", "addr:state": "IL", "addr:street": "West Montrose Avenue", "addr:street:name": "Montrose", "addr:street:prefix": "West", "addr:street:type": "Avenue", "amenity": "restaurant", "building": "yes", "building:levels": "3", "name": "Restaurant Los Molcajetes", "phone": "+1-773-267-1834"}}, {"type": "way", "id": 188631481, "nodes": [1992510515, 1992510523, 252683157, 7607851379], "tags": {"electrified": "yes", "gauge": "1435", "history": "Retrieved from v13", "name": "Ravenswood Branch", "operator": "Chicago Transit Authority", "railway": "subway", "voltage": "600"}}, {"type": "way", "id": 188631484, "nodes": [1992510515, 1992510504, 1992510525, 1992510521, 1992510522], "tags": {"electrified": "yes", "gauge": "1435", "operator": "Chicago Transit Authority", "railway": "subway", "service": "crossover", "voltage": "600"}}, {"type": "way", "id": 188631487, "nodes": [1992510526, 1992510513, 1992510511, 1992510525, 1992510523], "tags": {"electrified": "yes", "gauge": "1435", "operator": "Chicago Transit Authority", "railway": "subway", "service": "crossover", "voltage": "600"}}, {"type": "way", "id": 188631491, "nodes": [1280963006, 1280962819, 1280962855, 4427781398, 1280962910, 4427781399, 1432732160, 1280963051, 1992606921, 1992606907, 1280962921, 1280962908, 1432726747, 1432726745, 1280963088, 1280962936, 1280963097, 1992510509, 1280963069, 1280962851, 1280963099, 1280962883, 1280962853, 1280962995, 1280962837, 1992510511], "tags": {"electrified": "yes", "gauge": "1435", "history": "Retrieved from v13", "name": "Ravenswood Branch", "oneway": "yes", "operator": "Chicago Transit Authority", "railway": "subway", "voltage": "600"}}, {"type": "way", "id": 680264664, "nodes": [6369524363, 6369524372, 6369524369, 306084356], "tags": {"electrified": "rail", "frequency": "0", "gauge": "1435", "name": "O'Hare Branch", "operator": "Chicago Transit Authority", "railway": "subway", "voltage": "600"}}, {"type": "way", "id": 680264665, "nodes": [6369524364, 1282296319], "tags": {"bridge": "yes", "electrified": "rail", "frequency": "0", "gauge": "1435", "layer": "1", "name": "O'Hare Branch", "oneway": "yes", "operator": "Chicago Transit Authority", "railway": "subway", "voltage": "600"}}]}