{"version": 0.6, "generator": "Overpass API 0.7.56.1004 6cd3eaec", "osm3s": {"timestamp_osm_base": "2020-07-21T22:40:03Z", "copyright": "The data included in this document is from www.openstreetmap.org. The data is made available under ODbL."}, "elements": [{"type": "node", "id": 305897977, "lat": 41.975679, "lon": -87.706145}, {"type": "node", "id": 305898423, "lat": 41.9740033, "lon": -87.7128629}, {"type": "node", "id": 305898424, "lat": 41.9752415, "lon": -87.7127284}, {"type": "node", "id": 388865689, "lat": 41.9745113, "lon": -87.7045002}, {"type": "node", "id": 388865698, "lat": 41.9756314, "lon": -87.704854}, {"type": "node", "id": 757893133, "lat": 41.975882, "lon": -87.7100736, "tags": {"amenity": "cafe", "brand": "Starbucks", "brand:wikidata": "Q37158", "brand:wikipedia": "en:Starbucks", "cuisine": "coffee_shop", "name": "Starbucks", "official_name": "Starbucks Coffee", "takeaway": "yes"}}, {"type": "node", "id": 1385119524, "lat": 41.9650343, "lon": -87.6864001, "tags": {"addr:city": "Chicago", "addr:housenumber": "4600", "addr:postcode": "60625", "addr:state": "IL", "addr:street": "North Lincoln Avenue", "amenity": "restaurant", "cuisine": "american", "name": "Fork", "phone": "+1-773-751-1500", "website": "http://forkchicago.net/"}}, {"type": "node", "id": 1526962143, "lat": 41.9665273, "lon": -87.6938614, "tags": {"amenity": "restaurant", "name": "Pizza Art Cafe"}}, {"type": "node", "id": 1526962145, "lat": 41.966629, "lon": -87.6938828, "tags": {"amenity": "cafe", "name": "Beans and Bagels"}}, {"type": "node", "id": 1557244573, "lat": 41.9648032, "lon": -87.6862189, "tags": {"amenity": "restaurant", "name": "Daily Bar and Grill"}}, {"type": "node", "id": 1557244574, "lat": 41.9650425, "lon": -87.6860231, "tags": {"amenity": "restaurant", "cuisine": "indian", "name": "Essence of India"}}, {"type": "node", "id": 1557244584, "lat": 41.9674616, "lon": -87.687611, "tags": {"addr:city": "Chicago", "addr:housenumber": "4729", "addr:postcode": "60625", "addr:state": "IL", "addr:street": "North Lincoln Avenue", "amenity": "restaurant", "cuisine": "american", "name": "Cafe Selmarie", "phone": "+1-773-989-5595", "website": "http://cafeselmarie.com/"}}, {"type": "node", "id": 1860724910, "lat": 41.9759646, "lon": -87.6991354, "tags": {"amenity": "restaurant", "cuisine": "american", "name": "Hilltop"}}, {"type": "node", "id": 1975835341, "lat": 41.9662621, "lon": -87.7013037, "tags": {"addr:city": "Chicago", "addr:housenumber": "4664", "addr:postcode": "60625", "addr:state": "IL", "addr:street": "North Manor Avenue", "amenity": "cafe", "cuisine": "coffee_shop", "internet_access": "yes", "name": "First Slice", "phone": "+1-773-267-0169", "source": "local knowledge", "website": "http://firstslice.org/", "wifi": "free"}}, {"type": "node", "id": 2058814253, "lat": 41.9756382, "lon": -87.7127367}, {"type": "node", "id": 2078115641, "lat": 41.9726887, "lon": -87.7119442}, {"type": "node", "id": 2078115656, "lat": 41.972563, "lon": -87.7120649}, {"type": "node", "id": 2078115674, "lat": 41.9723517, "lon": -87.712376}, {"type": "node", "id": 2078115676, "lat": 41.9732091, "lon": -87.7115016}, {"type": "node", "id": 2078115684, "lat": 41.9729599, "lon": -87.7116814}, {"type": "node", "id": 2078115721, "lat": 41.9721621, "lon": -87.7127934}, {"type": "node", "id": 2078115727, "lat": 41.9724015, "lon": -87.7122902}, {"type": "node", "id": 2078115735, "lat": 41.9720616, "lon": -87.7130657}, {"type": "node", "id": 2078115739, "lat": 41.9721126, "lon": -87.7129035}, {"type": "node", "id": 2078115759, "lat": 41.9736261, "lon": -87.711272}, {"type": "node", "id": 2078115772, "lat": 41.9731034, "lon": -87.711566}, {"type": "node", "id": 2078115809, "lat": 41.9724932, "lon": -87.7121615}, {"type": "node", "id": 2078115930, "lat": 41.9746115, "lon": -87.7079897}, {"type": "node", "id": 2078115936, "lat": 41.9745972, "lon": -87.7078458}, {"type": "node", "id": 2078187502, "lat": 41.9740566, "lon": -87.7046729}, {"type": "node", "id": 2078187556, "lat": 41.9738042, "lon": -87.7112754}, {"type": "node", "id": 2078187580, "lat": 41.9743018, "lon": -87.7059524}, {"type": "node", "id": 2078187630, "lat": 41.9756833, "lon": -87.7048708}, {"type": "node", "id": 2078187668, "lat": 41.974262, "lon": -87.7057672}, {"type": "node", "id": 2078187758, "lat": 41.9741622, "lon": -87.7053355}, {"type": "node", "id": 2078187913, "lat": 41.9741004, "lon": -87.705019}, {"type": "node", "id": 2078187920, "lat": 41.9741901, "lon": -87.7054401}, {"type": "node", "id": 2078188014, "lat": 41.974232, "lon": -87.7055608}, {"type": "node", "id": 2078188022, "lat": 41.9742579, "lon": -87.7056788}, {"type": "node", "id": 2078188097, "lat": 41.9740426, "lon": -87.7047535}, {"type": "node", "id": 2078188158, "lat": 41.9741284, "lon": -87.7050779}, {"type": "node", "id": 2078188259, "lat": 41.9740586, "lon": -87.7048419}, {"type": "node", "id": 2078188285, "lat": 41.9743418, "lon": -87.7060623}, {"type": "node", "id": 2078188364, "lat": 41.9740765, "lon": -87.7049332}, {"type": "node", "id": 2078188504, "lat": 41.9741304, "lon": -87.7051825}, {"type": "node", "id": 2142141575, "lat": 41.9748202, "lon": -87.7080322}, {"type": "node", "id": 2142141583, "lat": 41.9721116, "lon": -87.7110642}, {"type": "node", "id": 2142141633, "lat": 41.9751871, "lon": -87.7134382}, {"type": "node", "id": 2142141702, "lat": 41.9739634, "lon": -87.7092615}, {"type": "node", "id": 2142141703, "lat": 41.9756664, "lon": -87.7080641}, {"type": "node", "id": 2142141754, "lat": 41.9744877, "lon": -87.706105}, {"type": "node", "id": 2142141775, "lat": 41.9752936, "lon": -87.7080565}, {"type": "node", "id": 2142142085, "lat": 41.9739664, "lon": -87.7080319}, {"type": "node", "id": 2149694269, "lat": 41.965757, "lon": -87.708734, "tags": {"addr:city": "Chicago", "addr:housenumber": "4636", "addr:postcode": "60625", "addr:street": "North Kedzie Avenue", "amenity": "restaurant", "cuisine": "arab", "name": "Salam", "outdoor_seating": "no", "smoking": "no", "takeaway": "yes"}}, {"type": "node", "id": 2178993500, "lat": 41.9722597, "lon": -87.712564}, {"type": "node", "id": 2178993609, "lat": 41.972095, "lon": -87.7110711}, {"type": "node", "id": 2178993658, "lat": 41.9720821, "lon": -87.7110877}, {"type": "node", "id": 2178993756, "lat": 41.9720762, "lon": -87.7111133}, {"type": "node", "id": 2196853939, "lat": 41.9614408, "lon": -87.6909119, "tags": {"amenity": "restaurant", "name": "Cafe Lutz"}}, {"type": "node", "id": 2196877059, "lat": 41.9674433, "lon": -87.6882328}, {"type": "node", "id": 2196877474, "lat": 41.9675074, "lon": -87.6882714}, {"type": "node", "id": 2196877628, "lat": 41.9675108, "lon": -87.688259}, {"type": "node", "id": 2196877665, "lat": 41.9675389, "lon": -87.6879648}, {"type": "node", "id": 2196877836, "lat": 41.9675721, "lon": -87.6882999}, {"type": "node", "id": 2196878328, "lat": 41.9676606, "lon": -87.6880444}, {"type": "node", "id": 2196932933, "lat": 41.975692, "lon": -87.6870174}, {"type": "node", "id": 2196932936, "lat": 41.9756933, "lon": -87.6869954}, {"type": "node", "id": 2196932948, "lat": 41.9756979, "lon": -87.6868445}, {"type": "node", "id": 2196933199, "lat": 41.9758293, "lon": -87.6870252}, {"type": "node", "id": 2196933200, "lat": 41.9758305, "lon": -87.686994}, {"type": "node", "id": 2196933201, "lat": 41.9758352, "lon": -87.6868523}, {"type": "node", "id": 2199352949, "lat": 41.9740126, "lon": -87.7045952}, {"type": "node", "id": 2199353007, "lat": 41.9747494, "lon": -87.704569}, {"type": "node", "id": 2199353084, "lat": 41.9741365, "lon": -87.7044161}, {"type": "node", "id": 2274028613, "lat": 41.9682002, "lon": -87.6936095, "tags": {"addr:city": "Chicago", "addr:housenumber": "4749", "addr:postcode": "60625", "addr:state": "IL", "addr:street": "North Rockwell Street", "amenity": "bar", "name": "The Red Lion Lincoln Square", "phone": "+1-773-654-1341", "website": "https://www.theredlionlincolnsquare.com/"}}, {"type": "node", "id": 2274265367, "lat": 41.9645511, "lon": -87.7088137, "tags": {"addr:city": "Chicago", "addr:housenumber": "4558", "addr:street": "North Kedzie Avenue", "amenity": "cafe", "brand": "Starbucks", "brand:wikidata": "Q37158", "brand:wikipedia": "en:Starbucks", "cuisine": "coffee_shop", "internet_access": "yes", "name": "Starbucks", "phone": "(773) 267-1579"}}, {"type": "node", "id": 2380796805, "lat": 41.9757473, "lon": -87.6921891, "tags": {"addr:city": "Chicago", "addr:housenumber": "5159", "addr:postcode": "60625", "addr:state": "IL", "addr:street": "North Lincoln Avenue", "amenity": "cafe", "name": "Jimmys Pizza Cafe", "note": "Cash ONLY", "outdoor_seating": "no", "phone": "+1-773-293-6992", "smoking": "no", "source": "local_knowledge", "takeaway": "yes"}}, {"type": "node", "id": 2404297747, "lat": 41.9747419, "lon": -87.7080316}, {"type": "node", "id": 2404297749, "lat": 41.9752333, "lon": -87.7134352}, {"type": "node", "id": 2404297750, "lat": 41.9735858, "lon": -87.7080185}, {"type": "node", "id": 2404297751, "lat": 41.9739673, "lon": -87.7078321}, {"type": "node", "id": 2404297754, "lat": 41.9727604, "lon": -87.7087065}, {"type": "node", "id": 2404297758, "lat": 41.9727542, "lon": -87.7092343}, {"type": "node", "id": 2404297764, "lat": 41.9733147, "lon": -87.7104638}, {"type": "node", "id": 2404297771, "lat": 41.9735789, "lon": -87.7087352}, {"type": "node", "id": 2404297775, "lat": 41.9739487, "lon": -87.7104958}, {"type": "node", "id": 2404297777, "lat": 41.9746047, "lon": -87.7134209}, {"type": "node", "id": 2404297781, "lat": 41.9739688, "lon": -87.7117593}, {"type": "node", "id": 2404297795, "lat": 41.9739846, "lon": -87.7117833}, {"type": "node", "id": 2404297798, "lat": 41.9746687, "lon": -87.7080289}, {"type": "node", "id": 2404297805, "lat": 41.9746127, "lon": -87.7128894}, {"type": "node", "id": 2404297812, "lat": 41.9739987, "lon": -87.7118397}, {"type": "node", "id": 2404297814, "lat": 41.9733106, "lon": -87.7111089}, {"type": "node", "id": 2404297818, "lat": 41.9746121, "lon": -87.7080283}, {"type": "node", "id": 2404297819, "lat": 41.9740105, "lon": -87.7119013}, {"type": "node", "id": 2404297828, "lat": 41.9739693, "lon": -87.711281}, {"type": "node", "id": 2406124091, "lat": 41.975703, "lon": -87.6921867, "tags": {"addr:city": "Chicago", "addr:housenumber": "5157", "addr:postcode": "60625", "addr:street": "North Lincoln Avenue", "amenity": "restaurant", "cuisine": "mexican", "name": "La Cabana De Don Luis", "outdoor_seating": "no", "phone": "1 (773)-271-5176", "smoking": "no", "takeaway": "yes"}}, {"type": "node", "id": 2651360574, "lat": 41.9740186, "lon": -87.704494}, {"type": "node", "id": 2651360576, "lat": 41.9740651, "lon": -87.7044471}, {"type": "node", "id": 2673354533, "lat": 41.9684173, "lon": -87.6882204, "tags": {"amenity": "restaurant", "cuisine": "italian", "name": "Trattoria Trullo"}}, {"type": "node", "id": 2673354534, "lat": 41.9682471, "lon": -87.6881332, "tags": {"amenity": "restaurant", "cuisine": "greek", "name": "Barba Yianni"}}, {"type": "node", "id": 2969264559, "lat": 41.9680798, "lon": -87.6884053, "tags": {"addr:city": "Chicago", "addr:housenumber": "4752", "addr:postcode": "60625", "addr:street": "North Lincoln Avenue", "amenity": "restaurant", "cuisine": "mexican", "name": "Garcia's", "toilets:wheelchair": "yes", "wheelchair": "yes"}}, {"type": "node", "id": 3566572791, "lat": 41.9740351, "lon": -87.7046322}, {"type": "node", "id": 3566573993, "lat": 41.9743481, "lon": -87.7061013}, {"type": "node", "id": 3809208225, "lat": 41.9682723, "lon": -87.688678, "tags": {"amenity": "restaurant", "cuisine": "Breakfast_and_lunch", "name": "Pannekoken"}}, {"type": "node", "id": 5168250756, "lat": 41.9652111, "lon": -87.6861157, "tags": {"addr:city": "Chicago", "addr:housenumber": "4609", "addr:postcode": "60625", "addr:state": "IL", "addr:street": "North Lincoln Avenue", "amenity": "restaurant", "cuisine": "southern", "description": "Bib Gourmand recommendation", "name": "Luella's Southern Kitchen", "phone": "+1-773-961-8196", "website": "http://luellassouthernkitchen.com/"}}, {"type": "node", "id": 5711720121, "lat": 41.9613028, "lon": -87.7067528, "tags": {"addr:housenumber": "3120", "addr:postcode": "60618", "amenity": "restaurant", "cuisine": "spanish", "name": "Brasa Roja", "name:en": "Brasa Roja Columbian Cuisine", "name:es": "Brasa Roja Columbian Cuisine", "opening_hours": "Mo-Su 09:00-22:00", "phone": "7738662252", "website": "http://brasarojarestaurant.com"}}, {"type": "node", "id": 6131450052, "lat": 41.9609383, "lon": -87.7099105, "tags": {"addr:city": "Chicago", "addr:housenumber": "3241", "addr:postcode": "60618", "addr:state": "IL", "addr:street": "West Montrose Avenue", "amenity": "bar", "brewery": "yes", "name": "Surge Coffee Bar & Billiards", "phone": "+1-773-961-8096", "website": "https://surgebilliards.com"}}, {"type": "node", "id": 6260995467, "lat": 41.9684136, "lon": -87.6947404, "tags": {"addr:city": "Chicago", "addr:housenumber": "2621", "addr:postcode": "60625", "addr:state": "IL", "addr:street": "West Lawrence Avenue", "amenity": "cafe", "cuisine": "coffee_shop;turkish", "name": "Albert\u2019s Place Turkish Cafe", "phone": "+1-773-681-0275"}}, {"type": "node", "id": 6261234292, "lat": 41.9613634, "lon": -87.7043718, "tags": {"addr:city": "Chicago", "addr:housenumber": "3026", "addr:postcode": "60618", "addr:state": "IL", "addr:street": "West Montrose Avenue", "amenity": "bar", "name": "Angelo\u2019s Wine Bar", "outdoor_seating": "no", "phone": "+1-773-539-0111"}}, {"type": "node", "id": 6263275388, "lat": 41.9734206, "lon": -87.6918767, "tags": {"addr:city": "Chicago", "addr:housenumber": "5062", "addr:postcode": "60625", "addr:state": "IL", "addr:street": "North Lincoln Avenue", "amenity": "bar", "name": "Atlantic Bar & Grill", "phone": "+1-773-506-7090", "website": "http://www.theatlanticbar.com/"}}, {"type": "node", "id": 6282835886, "lat": 41.9761285, "lon": -87.6871299, "tags": {"addr:city": "Chicago", "addr:housenumber": "2306", "addr:postcode": "60625", "addr:state": "IL", "addr:street": "West Foster Avenue", "amenity": "bar", "name": "Claddagh Ring", "phone": "+1-773-271-4794"}}, {"type": "node", "id": 6283230832, "lat": 41.9682487, "lon": -87.6917466, "tags": {"addr:city": "Chicago", "addr:housenumber": "2501", "addr:postcode": "60625", "addr:state": "IL", "addr:street": "West Lawrence Avenue", "amenity": "cafe", "name": "Coffee Slasticarna Drina", "phone": "+1-773-275-5568"}}, {"type": "node", "id": 6284731178, "lat": 41.9716883, "lon": -87.6901182, "tags": {"addr:city": "Chicago", "addr:housenumber": "4925", "addr:postcode": "60625", "addr:state": "IL", "addr:street": "North Lincoln Avenue", "amenity": "cafe", "name": "Dorothy\u2019s Can Do Cafe", "phone": "+1-773-784-3200"}}, {"type": "node", "id": 6286561753, "lat": 41.9695753, "lon": -87.6886037, "tags": {"addr:city": "Chicago", "addr:housenumber": "4835", "addr:postcode": "60625", "addr:state": "IL", "addr:street": "North Western Avenue", "amenity": "restaurant", "cuisine": "fine_dining;american", "name": "Elizabeth Restaurant", "phone": "+1-773-681-0651", "website": "https://www.elizabeth-restaurant.com/"}}, {"type": "node", "id": 6291787688, "lat": 41.9678492, "lon": -87.6877745, "tags": {"addr:city": "Chicago", "addr:housenumber": "4743", "addr:postcode": "60625", "addr:state": "IL", "addr:street": "North Lincoln Avenue", "amenity": "cafe", "name": "Geraldine\u2019s", "phone": "+1-", "toilets:wheelchair": "yes", "wheelchair": "yes"}}, {"type": "node", "id": 6292035122, "lat": 41.9687174, "lon": -87.6959965, "tags": {"addr:city": "Chicago", "addr:housenumber": "2656", "addr:postcode": "60625", "addr:state": "IL", "addr:street": "West Lawrence Avenue", "amenity": "restaurant", "cuisine": "fine_dining", "name": "goosefoot", "phone": "+1-773-942-7547", "website": "http://www.goosefoot.net/"}}, {"type": "node", "id": 6292161039, "lat": 41.97212, "lon": -87.6911666, "tags": {"addr:city": "Chicago", "addr:housenumber": "5008", "addr:postcode": "60625", "addr:state": "IL", "addr:street": "North Lincoln Avenue", "amenity": "cafe", "name": "Groundswell Coffee Roasters", "phone": "+1-763-293-7129", "website": "https://groundswellcoffeeroasters.com/"}}, {"type": "node", "id": 6297501127, "lat": 41.9672827, "lon": -87.6874715, "tags": {"addr:city": "Chicago", "addr:housenumber": "4721", "addr:postcode": "60625", "addr:state": "IL", "addr:street": "North Lincoln Avenue", "amenity": "bar", "name": "H\u00fcettenbar", "phone": "+1-773-561-2507", "website": "http://www.huettenbar.com/"}}, {"type": "node", "id": 6299470725, "lat": 41.9613885, "lon": -87.7056383, "tags": {"addr:city": "Chicago", "addr:housenumber": "3056", "addr:postcode": "60618", "addr:state": "IL", "addr:street": "West Montrose Avenue", "amenity": "bar", "name": "Peacock Liquors", "phone": "+1-773-588-5148"}}, {"type": "node", "id": 6300336899, "lat": 41.9656329, "lon": -87.6885158, "tags": {"addr:city": "Chicago", "addr:housenumber": "4623", "addr:postcode": "60625", "addr:state": "IL", "addr:street": "North Western Avenue", "amenity": "bar", "name": "Spyners Pub", "phone": "+1-773-784-8719", "website": "spyners.com"}}, {"type": "node", "id": 6301079972, "lat": 41.9737441, "lon": -87.6920884, "tags": {"addr:city": "Chicago", "addr:housenumber": "5074", "addr:postcode": "60625", "addr:state": "IL", "addr:street": "North Lincoln Avenue", "amenity": "cafe", "name": "Royal Cafe"}}, {"type": "node", "id": 6303022935, "lat": 41.9688043, "lon": -87.6941954, "tags": {"addr:city": "Chicago", "addr:housenumber": "2604", "addr:postcode": "60625", "addr:state": "IL", "addr:street": "West Lawrence Avenue", "amenity": "restaurant", "name": "Sweet Pepper Venezuelan Food Bar", "phone": "+1-872-208-5665", "website": "https://www.sweetpepperchgo.com/"}}, {"type": "node", "id": 6307008790, "lat": 41.9609809, "lon": -87.7018042, "tags": {"addr:city": "Chicago", "addr:housenumber": "2925", "addr:postcode": "60618", "addr:state": "Il", "addr:street": "West Montrose Avenue", "amenity": "bar", "name": "Twisted Hippo", "phone": "+1-708-844-7768", "website": "http://www.twistedhippo.com/"}}, {"type": "node", "id": 6314808938, "lat": 41.9682955, "lon": -87.6916405, "tags": {"addr:city": "Chicago", "addr:housenumber": "2501", "addr:postcode": "60625", "addr:state": "IL", "addr:street": "West Lawrence Avenue", "amenity": "restaurant", "name": "Isla Pilipina", "phone": "+1-773-271-2988", "website": "https://www.islapilipina.com/"}}, {"type": "node", "id": 6315247400, "lat": 41.9653911, "lon": -87.686206, "tags": {"addr:city": "Chicago", "addr:housenumber": "4613", "addr:postcode": "60625", "addr:state": "IL", "addr:street": "North Lincoln Avenue", "amenity": "cafe", "name": "The Grind"}}, {"type": "node", "id": 6315715649, "lat": 41.9750479, "lon": -87.6895168, "tags": {"addr:city": "Chicago", "addr:housenumber": "5130", "addr:postcode": "60625", "addr:state": "IL", "addr:street": "North Western Avenue", "amenity": "cafe", "name": "The Priory Bar & Kitchen", "phone": "+1-773-942-7200", "website": "https://www.priorychicago.com/"}}, {"type": "node", "id": 6315734235, "lat": 41.9686081, "lon": -87.7094578, "tags": {"addr:city": "Chicago", "addr:housenumber": "3222", "addr:postcode": "60625", "addr:state": "IL", "addr:street": "West Lawrence Avenue", "amenity": "cafe", "name": "Ur Cafe", "phone": "+1-773-478-3222"}}, {"type": "node", "id": 6319069400, "lat": 41.9680943, "lon": -87.7086626, "tags": {"addr:city": "Chicago", "addr:housenumber": "4748", "addr:postcode": "60625", "addr:state": "IL", "addr:street": "North Kedzie Avenue", "amenity": "restaurant", "name": "Kabobi Grill", "phone": "+1-773-583-1400", "website": "http://www.kabobigrill.com/"}}, {"type": "node", "id": 6319918450, "lat": 41.9644999, "lon": -87.689108, "tags": {"addr:city": "Chicago", "addr:housenumber": "4544", "addr:postcode": "60625", "addr:state": "IL", "addr:street": "North Western Avenue", "amenity": "cafe", "name": "La Catedral Cafe & Restaurant", "phone": "+1-773-654-1068"}}, {"type": "node", "id": 6320585974, "lat": 41.9687446, "lon": -87.6939674, "tags": {"addr:city": "Chicago", "addr:housenumber": "2600", "addr:postcode": "60625", "addr:state": "IL", "addr:street": "West Lawrence Avenue", "amenity": "bar", "name": "Loafers", "phone": "+1-773-275-6020"}}, {"type": "node", "id": 6322083380, "lat": 41.9753237, "lon": -87.6994461, "tags": {"addr:city": "Chicago", "addr:housenumber": "5145", "addr:postcode": "60625", "addr:state": "IL", "addr:street": "North California Avenue", "amenity": "cafe", "name": "Swedish Covenant Cafeteria"}}, {"type": "node", "id": 6322814494, "lat": 41.9682798, "lon": -87.6948315, "tags": {"addr:city": "Chicago", "addr:housenumber": "4757", "addr:postcode": "60625", "addr:state": "IL", "addr:street": "North Talman Avenue", "amenity": "restaurant", "name": "Monti\u2019s", "phone": "+1-773-942-6012", "website": "http://www.ilovemontis.com/"}}, {"type": "node", "id": 6322817723, "lat": 41.9610702, "lon": -87.7023111, "tags": {"addr:city": "Chicago", "addr:housenumber": "2933", "addr:postcode": "60618", "addr:state": "Il", "addr:street": "West Montrose Avenue", "amenity": "bar", "name": "Montrose Saloon", "phone": "+1-773-463-7663", "website": "https://www.montrosesaloon.com/"}}, {"type": "node", "id": 6323196242, "lat": 41.9669895, "lon": -87.7081576, "tags": {"addr:city": "Chicago", "addr:housenumber": "4701", "addr:postcode": "60625", "addr:state": "IL", "addr:street": "North Kedzie Avenue", "amenity": "restaurant", "name": "Noon O Kabab", "phone": "+1-773-279-8899", "website": "https://www.noonokabab.com/"}}, {"type": "node", "id": 6323811996, "lat": 41.96825, "lon": -87.7058769, "tags": {"addr:city": "Chicago", "addr:housenumber": "3057", "addr:postcode": "60625", "addr:state": "IL", "addr:street": "West Lawrence Avenue", "amenity": "bar", "name": "Oaza Restaurant", "phone": "+1-872-888-8983"}}, {"type": "node", "id": 6324000046, "lat": 41.9683705, "lon": -87.6944679, "tags": {"addr:city": "Chicago", "addr:housenumber": "2615", "addr:postcode": "60625", "addr:state": "IL", "addr:street": "West Lawrence Avenue", "amenity": "cafe", "name": "Olympic Club", "phone": "+1-773-293-1450"}}, {"type": "node", "id": 6324150054, "lat": 41.9668775, "lon": -87.6871357, "tags": {"addr:city": "Chicago", "addr:housenumber": "4703", "addr:postcode": "60625", "addr:state": "IL", "addr:street": "North Lincoln Avenue", "amenity": "cafe", "name": "Oromo Cafe", "phone": "+1-773-799-1931", "website": "http://www.oromocafechicago.com/"}}, {"type": "node", "id": 6324325182, "lat": 41.9682926, "lon": -87.6885894, "tags": {"addr:city": "Chicago", "addr:housenumber": "4757", "addr:postcode": "60625", "addr:state": "IL", "addr:street": "North Western Avenue", "amenity": "restaurant", "name": "Pannenkoeken Cafe", "phone": "+1-773-769-8800", "website": "http://www.pannenkoekencafe.com/"}}, {"type": "node", "id": 6403035842, "lat": 41.9745374, "lon": -87.6924826, "tags": {"addr:city": "Chicago", "addr:housenumber": "5114", "addr:postcode": "60625", "addr:state": "IL", "addr:street": "North Lincoln Avenue", "amenity": "restaurant", "cuisine": "korean", "name": "Dancen", "opening_hours": "Mo-Su 18:00-01:00", "phone": "+1-773-878-2400"}}, {"type": "node", "id": 7016096314, "lat": 41.9731321, "lon": -87.6912821, "tags": {"addr:housenumber": "5047", "addr:street": "North Lincoln Avenue", "amenity": "restaurant", "description": "Central Asian cuisine", "name": "Jibek Jolu", "opening_hours": "Mo, Tu, Th, Su 11:00-22:00; Fr, Sa 11:00-23:00", "phone": "7738788394", "website": "https://jibekjolu.us/"}}, {"type": "node", "id": 7555037120, "lat": 41.9739629, "lon": -87.7093058}, {"type": "way", "id": 209478172, "nodes": [2196877836, 2196878328, 2196877665, 2196877059, 2196877474, 2196877628, 2196877836], "tags": {"addr:city": "Chicago", "addr:housenumber": "4736-4738", "addr:postcode": "60625", "addr:state": "IL", "addr:street": "North Lincoln Avenue", "addr:street:name": "Lincoln", "addr:street:prefix": "North", "addr:street:type": "Avenue", "amenity": "cafe", "building": "yes", "chicago:building_id": "857720", "cuisine": "coffee_shop", "internet_access": "wlan", "name": "The Book Cellar", "phone": "+1-773-293-2665", "shop": "books", "website": "https://www.bookcellarinc.com/", "wheelchair": "yes"}}, {"type": "way", "id": 209484318, "nodes": [2196932933, 2196933199, 2196933200, 2196933201, 2196932948, 2196932936, 2196932933], "tags": {"addr:city": "Chicago", "addr:housenumber": "2301", "addr:postcode": "60625", "addr:state": "IL", "addr:street": "West Foster Avenue", "addr:street:name": "Foster", "addr:street:prefix": "West", "addr:street:type": "Avenue", "amenity": "restaurant", "building": "yes", "building:levels": "1", "chicago:building_id": "78108", "name": "Baobab Bbq", "phone": "+1-872-888-8922", "website": "https://www.baobabbbq.com/"}}, {"type": "way", "id": 232085492, "nodes": [2404297805, 2404297777, 2142141633, 2404297749, 305898424, 2058814253, 2142141703, 2142141775, 2142141575, 2404297747, 2404297798, 2404297818, 2078115930, 2078115936, 2404297751, 2142142085, 2404297750, 2404297771, 2404297754, 2404297758, 2142141702, 7555037120, 2404297775, 2404297764, 2404297814, 2142141583, 2178993609, 2178993658, 2178993756, 2078115735, 2078115739, 2078115721, 2178993500, 2078115674, 2078115727, 2078115809, 2078115656, 2078115641, 2078115684, 2078115772, 2078115676, 2078115759, 2078187556, 2404297828, 2404297781, 2404297795, 2404297812, 2404297819, 305898423, 2404297805]}, {"type": "way", "id": 350943772, "nodes": [3566573993, 2078188285, 2078187580, 2078187668, 2078188022, 2078188014, 2078187920, 2078187758, 2078188504, 2078188158, 2078187913, 2078188364, 2078188259, 2078188097, 2078187502, 3566572791, 2199352949, 2651360574, 2651360576, 2199353084, 388865689, 2199353007, 388865698, 2078187630, 305897977, 2142141754, 3566573993]}, {"type": "relation", "id": 5233840, "members": [{"type": "way", "ref": 232085492, "role": "outer"}, {"type": "way", "ref": 350943772, "role": "outer"}], "tags": {"amenity": "university", "ele": "178", "gnis:county_id": "031", "gnis:created": "09/30/1999", "gnis:feature_id": "414637", "gnis:state_id": "17", "name": "North Park University", "type": "multipolygon", "website": "https://www.northpark.edu/", "wikidata": "Q3551466"}}]}