{"version": 0.6, "generator": "Overpass API 0.7.56.1004 6cd3eaec", "osm3s": {"timestamp_osm_base": "2020-07-21T23:13:03Z", "copyright": "The data included in this document is from www.openstreetmap.org. The data is made available under ODbL."}, "elements": [{"type": "node", "id": 3581436121, "lat": 41.857775, "lon": -87.6220889, "tags": {"addr:housenumber": "205", "addr:postcode": "60616", "addr:state": "IL", "addr:street": "East 18th Street", "amenity": "cafe", "name": "The Spoke & Bird", "outdoor_seating": "yes", "phone": "1-929-263-2473", "website": "http://www.spokeandbird.com/"}}, {"type": "node", "id": 5123254321, "lat": 41.8625159, "lon": -87.624269, "tags": {"addr:city": "Chicago", "addr:housenumber": "1454", "addr:postcode": "60605", "addr:state": "IL", "addr:street": "South Michigan Avenue", "amenity": "bar", "name": "Vice District Taproom", "phone": "+1-312-291-9022", "website": "http://www.vicedistrictbrewing.com/"}}, {"type": "node", "id": 5792384427, "lat": 41.8499832, "lon": -87.6233063, "tags": {"addr:city": "Chicago", "addr:housenumber": "2337", "addr:postcode": "60616", "addr:state": "IL", "addr:street": "South Michigan Avenue", "amenity": "bar", "name": "Motor Row Brewing", "phone": "+1-312-624-8149", "website": "https://www.motorrowbrewing.com/"}}, {"type": "node", "id": 6050592285, "lat": 41.8515642, "lon": -87.6239586, "tags": {"addr:city": "Chicago", "addr:housenumber": "2244", "addr:postcode": "60616", "addr:state": "IL", "addr:street": "South Michigan Avenue", "amenity": "bar", "name": "Bar 22"}}, {"type": "node", "id": 6105248085, "lat": 41.8526635, "lon": -87.6226785, "tags": {"addr:city": "Chicago", "addr:housenumber": "2206", "addr:postcode": "60616", "addr:state": "IL", "addr:street": "South Indiana Avenue", "amenity": "restaurant", "name": "Fatpour Tap Works", "name:en": "Fatpour (McCormick)", "phone": "+1-312-878-9292", "website": "https://www.fatpourmccormick.com/"}}, {"type": "node", "id": 6238937332, "lat": 41.8526537, "lon": -87.6231835, "tags": {"addr:city": "Chicago", "addr:housenumber": "111", "addr:postcode": "60616", "addr:state": "IL", "addr:street": "East Cermak Road", "amenity": "cafe", "brand": "Starbucks", "brand:wikidata": "Q37158", "brand:wikipedia": "en:Starbucks", "cuisine": "coffee_shop", "name": "Starbucks"}}, {"type": "node", "id": 6256604400, "lat": 41.859079, "lon": -87.6252706, "tags": {"addr:city": "Chicago", "addr:housenumber": "1639", "addr:postcode": "60616", "addr:state": "IL", "addr:street": "South Wabash Avenue", "amenity": "restaurant", "cuisine": "american", "name": "Acadia", "phone": "+1-312-360-9500", "website": "https://acadiachicago.com"}}, {"type": "node", "id": 6258149818, "lat": 41.8562971, "lon": -87.6268417, "tags": {"addr:city": "Chicago", "addr:housenumber": "1845", "addr:postcode": "60616", "addr:state": "IL", "addr:street": "South State Street", "amenity": "cafe", "name": "Akhirah\u2019s Praline Candy", "phone": "+1-312-985-1101"}}, {"type": "node", "id": 6300644757, "lat": 41.8539071, "lon": -87.6268152, "tags": {"addr:city": "Chicago", "addr:housenumber": "2109", "addr:postcode": "60616", "addr:state": "IL", "addr:street": "South State Street", "amenity": "bar", "name": "Reggie\u2019s Trainwreck Rooftop Deck", "phone": "+1-312-949-0120"}}, {"type": "node", "id": 6301056429, "lat": 41.8539929, "lon": -87.6267847, "tags": {"addr:city": "Chicago", "addr:housenumber": "2105", "addr:postcode": "60616", "addr:state": "IL", "addr:street": "South State Street", "amenity": "bar", "name": "Reggies Music Joint", "phone": "+1-312-949-0120", "website": "https://www.reggieslive.com/"}}, {"type": "node", "id": 6303115375, "lat": 41.8610689, "lon": -87.6279127, "tags": {"addr:city": "Chicago", "addr:housenumber": "1530", "addr:postcode": "60605", "addr:state": "IL", "addr:street": "South State Street", "amenity": "restaurant", "name": "Tapas Valencia", "phone": "+1-312-842-4444", "website": "http://www.tapasvalencia.com/"}}, {"type": "node", "id": 6303907654, "lat": 41.8577197, "lon": -87.6258227, "tags": {"addr:city": "Chicago", "addr:housenumber": "1802", "addr:postcode": "60616", "addr:state": "IL", "addr:street": "South Wabash Avenue", "amenity": "cafe", "name": "Tea Pot Brew Bakery", "phone": "+1-312-966-6001"}}, {"type": "node", "id": 6304139897, "lat": 41.8526562, "lon": -87.6244084, "tags": {"addr:city": "Chicago", "addr:housenumber": "67", "addr:postcode": "60616", "addr:state": "IL", "addr:street": "East Cermak Road", "amenity": "bar", "name": "The Velvet Lounge", "phone": "+1-312-631-3398"}}, {"type": "node", "id": 6306514980, "lat": 41.8599865, "lon": -87.6243607, "tags": {"addr:city": "Chicago", "addr:housenumber": "75", "addr:postcode": "60616", "addr:state": "IL", "addr:street": "East 16th Street", "amenity": "bar", "name": "The Bureau Bar", "phone": "+1-312-888-3156"}}, {"type": "node", "id": 6306554132, "lat": 41.8639536, "lon": -87.6237618, "tags": {"addr:city": "Chicago", "addr:housenumber": "1401", "addr:postcode": "60605", "addr:state": "IL", "addr:street": "South Michigan Avenue", "amenity": "restaurant", "name": "The Chicago Firehouse Restaurant", "phone": "+1-312-786-1401", "website": "http://www.chicagofirehouse.com/"}}, {"type": "node", "id": 6316574821, "lat": 41.8635201, "lon": -87.6245316, "tags": {"addr:city": "Chicago", "addr:housenumber": "1416", "addr:postcode": "60605", "addr:state": "IL", "addr:street": "South Michigan Avenue", "amenity": "bar", "name": "Victory Tap Chicago", "phone": "+1-312-566-9300", "website": "http://armandspizzeria.com/"}}, {"type": "node", "id": 6316636401, "lat": 41.8527335, "lon": -87.6227817, "tags": {"addr:city": "Chicago", "addr:housenumber": "133", "addr:postcode": "60616", "addr:state": "IL", "addr:street": "East Cermak Road", "addr:unit": "22", "amenity": "bar", "name": "VU Rooftop Bar", "phone": "+1-312-528-0191", "website": "https://www.vurooftop.com/"}}, {"type": "node", "id": 6316767066, "lat": 41.8619185, "lon": -87.6235586, "tags": {"addr:city": "Chicago", "addr:housenumber": "1503", "addr:postcode": "60605", "addr:state": "IL", "addr:street": "South Michigan Avenue", "amenity": "bar", "name": "Weather Mark Tavern", "phone": "+1-312-588-0230", "website": "https://weathermarktavern.com/"}}, {"type": "node", "id": 6317036888, "lat": 41.8537603, "lon": -87.6196811, "tags": {"addr:city": "Chicago", "addr:housenumber": "2121", "addr:postcode": "60616", "addr:state": "il", "addr:street": "South Calumet Avenue", "amenity": "bar", "name": "Woven + Bound Restaurant", "phone": "+1-312-824-0500", "website": "https://www.marriott.com/hotel-restaurants/chimq-marriott-marquis-chicago/woven-and-bound-restaurant/5718135/home-page.mi"}}, {"type": "node", "id": 6319826943, "lat": 41.8580669, "lon": -87.6243788, "tags": {"addr:city": "Chicago", "addr:housenumber": "1736", "addr:postcode": "60616", "addr:state": "IL", "addr:street": "South Michigan Avenue", "amenity": "bar", "name": "Krolls South Loop", "phone": "+1-312-235-1400", "website": "http://www.krolls-chicago.com/"}}, {"type": "node", "id": 6321298174, "lat": 41.8613629, "lon": -87.6259758, "tags": {"addr:city": "chicago", "addr:housenumber": "1520", "addr:postcode": "60605", "addr:state": "IL", "addr:street": "South Wabash Avenue", "amenity": "bar", "name": "M Lounge", "phone": "+1-312-447-0201", "website": "https://www.mloungechicago.com/"}}, {"type": "node", "id": 6321945044, "lat": 41.8539444, "lon": -87.6203557, "tags": {"addr:city": "Chicago", "addr:housenumber": "2121", "addr:postcode": "60616", "addr:state": "IL", "addr:street": "South Prairie Avenue", "amenity": "restaurant", "name": "Showroom Food Hall", "phone": "+1-312-824-0500", "website": "https://www.marriott.com/hotels/hotel-information/restaurant/chimq-marriott-marquis-chicago/"}}, {"type": "node", "id": 6322005743, "lat": 41.8500114, "lon": -87.6258732, "tags": {"addr:city": "Chicago", "addr:housenumber": "2336", "addr:postcode": "60616", "addr:state": "IL", "addr:street": "South Wabash Avenue", "amenity": "cafe", "name": "South Loop Cafe", "phone": "+1-312-326-4618"}}, {"type": "node", "id": 6324182179, "lat": 41.8604348, "lon": -87.6281304, "tags": {"addr:city": "Chicago", "addr:housenumber": "1550", "addr:postcode": "60605", "addr:state": "IL", "addr:street": "South State Street", "amenity": "cafe", "name": "Overflow Coffee Bar", "phone": "+1-312-772-2356", "website": "http://www.overflowcoffeebar.org/"}}, {"type": "node", "id": 6326004181, "lat": 41.8539177, "lon": -87.6204197, "tags": {"addr:city": "Chicago", "addr:housenumber": "2121", "addr:postcode": "60616", "addr:state": "IL", "addr:street": "South Prairie Avenue", "amenity": "bar", "name": "Woven + Bound Restaurant", "phone": "+1-312-824-0500", "website": "https://www.marriott.com/hotel-restaurants/chimq-marriott-marquis-chicago/woven-and-bound-restaurant/5718135/home-page.mi"}}, {"type": "node", "id": 6394851285, "lat": 41.853067, "lon": -87.6240632, "tags": {"amenity": "restaurant", "name": "Papa John's"}}, {"type": "node", "id": 6646187181, "lat": 41.8560708, "lon": -87.6274177, "tags": {"addr:city": "Chicago", "addr:housenumber": "1906", "addr:postcode": "60616", "addr:state": "IL", "addr:street": "South State Street", "amenity": "restaurant", "cuisine": "thai", "name": "Opart Thai House Restaurant", "opening_hours": "Su-Th 11:00-22:00; Fr-Sa 11:00-22:30", "phone": "+1 312-567-9898", "website": "https://www.opartthai.com"}}, {"type": "node", "id": 7185123303, "lat": 41.8520753, "lon": -87.6149913, "tags": {"amenity": "cafe", "name": "22nd Street Cafe"}}]}