{"version": 0.6, "generator": "Overpass API 0.7.56.1004 6cd3eaec", "osm3s": {"timestamp_osm_base": "2020-07-22T01:07:02Z", "copyright": "The data included in this document is from www.openstreetmap.org. The data is made available under ODbL."}, "elements": [{"type": "node", "id": 1700855335, "lat": 41.9355781, "lon": -87.7053238, "tags": {"addr:city": "Chicago", "addr:housenumber": "2956", "addr:postcode": "60618", "addr:state": "IL", "addr:street": "North Albany Avenue", "amenity": "bar", "name": "Small Bar", "phone": "+1-773-509-9888", "website": "http://www.theoriginalsmallbar.com/"}}, {"type": "node", "id": 1755640402, "lat": 41.9326003, "lon": -87.7130001}, {"type": "node", "id": 1755640571, "lat": 41.9326391, "lon": -87.7130659}, {"type": "node", "id": 1755641653, "lat": 41.9328554, "lon": -87.7127349}, {"type": "node", "id": 1755641768, "lat": 41.9328928, "lon": -87.7128007}, {"type": "node", "id": 1755728238, "lat": 41.946427, "lon": -87.7071721}, {"type": "node", "id": 1755728239, "lat": 41.9464279, "lon": -87.7070949}, {"type": "node", "id": 1755728377, "lat": 41.9465445, "lon": -87.7070956}, {"type": "node", "id": 1755728378, "lat": 41.946545, "lon": -87.7071747}, {"type": "node", "id": 1755728543, "lat": 41.9466784, "lon": -87.7107702}, {"type": "node", "id": 1755728544, "lat": 41.9466791, "lon": -87.7106416}, {"type": "node", "id": 1755728590, "lat": 41.946704, "lon": -87.7096782}, {"type": "node", "id": 1755728595, "lat": 41.9467083, "lon": -87.7094466}, {"type": "node", "id": 1755728677, "lat": 41.9467411, "lon": -87.7094279}, {"type": "node", "id": 1755728678, "lat": 41.9467412, "lon": -87.7094463}, {"type": "node", "id": 1755728868, "lat": 41.9467923, "lon": -87.710771}, {"type": "node", "id": 1755728869, "lat": 41.9467924, "lon": -87.710793}, {"type": "node", "id": 1755728890, "lat": 41.9467985, "lon": -87.7106423}, {"type": "node", "id": 1755728892, "lat": 41.9467986, "lon": -87.7106753}, {"type": "node", "id": 1755729136, "lat": 41.9468542, "lon": -87.7107943}, {"type": "node", "id": 1755729139, "lat": 41.9468554, "lon": -87.7107722}, {"type": "node", "id": 1755729226, "lat": 41.946892, "lon": -87.7106763}, {"type": "node", "id": 1755729228, "lat": 41.9468925, "lon": -87.7107718}, {"type": "node", "id": 1755729260, "lat": 41.9469017, "lon": -87.7096837}, {"type": "node", "id": 1755729266, "lat": 41.9469027, "lon": -87.7096212}, {"type": "node", "id": 1755729277, "lat": 41.9469034, "lon": -87.7094999}, {"type": "node", "id": 1755729285, "lat": 41.9469044, "lon": -87.7094337}, {"type": "node", "id": 1755729408, "lat": 41.9469233, "lon": -87.7096228}, {"type": "node", "id": 1755729420, "lat": 41.9469254, "lon": -87.7094996}, {"type": "node", "id": 1755732878, "lat": 41.947847, "lon": -87.7104372}, {"type": "node", "id": 1755732880, "lat": 41.9478471, "lon": -87.7104464}, {"type": "node", "id": 1755732891, "lat": 41.9478499, "lon": -87.7104556}, {"type": "node", "id": 1755732906, "lat": 41.9478525, "lon": -87.710428}, {"type": "node", "id": 1755732908, "lat": 41.9478526, "lon": -87.7104592}, {"type": "node", "id": 1755732928, "lat": 41.9478593, "lon": -87.7104261}, {"type": "node", "id": 1755733277, "lat": 41.9479776, "lon": -87.7106385}, {"type": "node", "id": 1755733552, "lat": 41.9480627, "lon": -87.7104921}, {"type": "node", "id": 1755733562, "lat": 41.9480652, "lon": -87.7104314}, {"type": "node", "id": 1755733598, "lat": 41.9480779, "lon": -87.710514}, {"type": "node", "id": 2162237021, "lat": 41.9356172, "lon": -87.6975623, "tags": {"amenity": "restaurant", "name": "Orbit Room"}}, {"type": "node", "id": 2196733822, "lat": 41.9318866, "lon": -87.7023824}, {"type": "node", "id": 2196733857, "lat": 41.9318937, "lon": -87.7019377}, {"type": "node", "id": 2196733985, "lat": 41.9319497, "lon": -87.7023855}, {"type": "node", "id": 2196734001, "lat": 41.931962, "lon": -87.7023854}, {"type": "node", "id": 2196734010, "lat": 41.9319648, "lon": -87.7023872}, {"type": "node", "id": 2196734021, "lat": 41.9319703, "lon": -87.7023871}, {"type": "node", "id": 2196734025, "lat": 41.9319729, "lon": -87.7023595}, {"type": "node", "id": 2196734036, "lat": 41.9319758, "lon": -87.7023871}, {"type": "node", "id": 2196734040, "lat": 41.9319784, "lon": -87.702365}, {"type": "node", "id": 2196734041, "lat": 41.9319785, "lon": -87.7023815}, {"type": "node", "id": 2196734045, "lat": 41.9319798, "lon": -87.7023687}, {"type": "node", "id": 2196734046, "lat": 41.9319798, "lon": -87.702376}, {"type": "node", "id": 2196734049, "lat": 41.9319802, "lon": -87.7019405}, {"type": "node", "id": 2196734852, "lat": 41.9321972, "lon": -87.6982412}, {"type": "node", "id": 2196734859, "lat": 41.932198, "lon": -87.6981512}, {"type": "node", "id": 2196735073, "lat": 41.9322589, "lon": -87.6982425}, {"type": "node", "id": 2196735074, "lat": 41.932259, "lon": -87.6982572}, {"type": "node", "id": 2196735348, "lat": 41.9323701, "lon": -87.6982432}, {"type": "node", "id": 2196735349, "lat": 41.9323701, "lon": -87.6982597}, {"type": "node", "id": 2196735588, "lat": 41.9324743, "lon": -87.6982458}, {"type": "node", "id": 2196735590, "lat": 41.9324752, "lon": -87.6981558}, {"type": "node", "id": 2196790368, "lat": 41.942518, "lon": -87.7026838}, {"type": "node", "id": 2196790640, "lat": 41.9426438, "lon": -87.7028645}, {"type": "node", "id": 2196790727, "lat": 41.9426699, "lon": -87.7028661}, {"type": "node", "id": 2196790730, "lat": 41.9426714, "lon": -87.7026327}, {"type": "node", "id": 2285167402, "lat": 41.9339805, "lon": -87.7072158, "tags": {"addr:housenumber": "2901", "addr:street": "North Kedzie Avenue", "amenity": "restaurant", "cuisine": "mexican", "name": "La Cocina"}}, {"type": "node", "id": 2393667680, "lat": 41.9428218, "lon": -87.6908115}, {"type": "node", "id": 2393667751, "lat": 41.9438427, "lon": -87.6908432}, {"type": "node", "id": 2393685997, "lat": 41.9433922, "lon": -87.6922414}, {"type": "node", "id": 2393686008, "lat": 41.9435709, "lon": -87.6922429}, {"type": "node", "id": 2404188173, "lat": 41.9438372, "lon": -87.6914896}, {"type": "node", "id": 2422436953, "lat": 41.9389697, "lon": -87.6979732, "tags": {"addr:city": "Chicago", "addr:housenumber": "3144", "addr:postcode": "60618", "addr:street": "North California Avenue", "amenity": "restaurant", "cuisine": "mexican", "name": "Taqueria Traspasada", "wheelchair": "yes"}}, {"type": "node", "id": 2495670456, "lat": 41.931995, "lon": -87.698314, "tags": {"addr:city": "Chicago", "addr:housenumber": "2815", "addr:postcode": "60618", "addr:street": "West Diversey Parkway", "amenity": "restaurant", "cuisine": "mexican", "name": "L'Patron", "outdoor_seating": "no", "takeaway": "yes"}}, {"type": "node", "id": 2516917179, "lat": 41.937096, "lon": -87.69797, "tags": {"addr:city": "Chicago", "addr:housenumber": "3046", "addr:postcode": "60618", "addr:street": "North California Avenue", "amenity": "bar", "name": "Clyde's"}}, {"type": "node", "id": 2601552510, "lat": 41.9407935, "lon": -87.6924228}, {"type": "node", "id": 2601552511, "lat": 41.9407937, "lon": -87.6925988}, {"type": "node", "id": 2601552512, "lat": 41.9407993, "lon": -87.6907578}, {"type": "node", "id": 2601552513, "lat": 41.9408234, "lon": -87.6927284}, {"type": "node", "id": 2601552514, "lat": 41.9409246, "lon": -87.6928977}, {"type": "node", "id": 2601552515, "lat": 41.9409972, "lon": -87.6929537}, {"type": "node", "id": 2601552516, "lat": 41.9414811, "lon": -87.6929985}, {"type": "node", "id": 2601552517, "lat": 41.9419666, "lon": -87.6907935}, {"type": "node", "id": 2601627512, "lat": 41.9421788, "lon": -87.7082946, "tags": {"addr:city": "Chicago", "addr:housenumber": "3340", "addr:postcode": "60618", "addr:state": "IL", "addr:street": "North Kedzie Avenue", "amenity": "bar", "name": "Revolution Brewing - Kedzie Brewery", "phone": "+1-773-588-2267", "website": "https://revbrew.com/visit/brewery"}}, {"type": "node", "id": 2612365316, "lat": 41.9319208, "lon": -87.7002647, "tags": {"addr:city": "Chicago", "addr:housenumber": "2901", "addr:postcode": "60618", "addr:state": "IL", "addr:street": "West Diversey Parkway", "amenity": "restaurant", "cuisine": "Tequila_Bar", "name": "Masa Azul", "phone": "(773) 687-0300", "website": "http://www.masaazul.com/"}}, {"type": "node", "id": 2612373491, "lat": 41.9335938, "lon": -87.7073464, "tags": {"addr:city": "Chicago", "addr:housenumber": "2853", "addr:street": "North Kedzie Avenue", "amenity": "restaurant", "cuisine": "Yakitori", "name": "Yusho", "phone": "(773) 904-8558", "website": "https://yusho-chicago.com/"}}, {"type": "node", "id": 2712290135, "lat": 41.944524, "lon": -87.7055174, "tags": {"addr:city": "Chicago", "addr:housenumber": "3471", "addr:postcode": "60618", "addr:state": "IL", "addr:street": "North Elston Avenue", "amenity": "bar", "name": "Chief O\u2019Neill\u2019s Pub & Restaurant", "opening_hours": "Mo-Th 16:00-02:00; Fr 11:00-02:00; Sa 11:00-03:00; Su 10:00-02:00", "phone": "+1-773-583-3066", "website": "https://www.chiefoneillspub.com/"}}, {"type": "node", "id": 3015352445, "lat": 41.9465012, "lon": -87.7008527, "tags": {"amenity": "restaurant", "name": "Dapper's East Family Restaurant"}}, {"type": "node", "id": 3268302073, "lat": 41.9307708, "lon": -87.7104473, "tags": {"addr:city": "Chicago", "addr:country": "US", "addr:housenumber": "2732", "addr:place": "Logan Square", "addr:postcode": "60647", "addr:state": "IL", "addr:street": "North Milwaukee Avenue", "amenity": "bar", "cuisine": "burger", "name": "The Harding Tavern", "phone": "+1-773-697-9340", "website": "https://www.thehardingtavern.com/"}}, {"type": "node", "id": 3551766819, "lat": 41.9321449, "lon": -87.7071859, "tags": {"addr:city": "Chicago", "addr:housenumber": "3154", "addr:postcode": "60647", "addr:state": "IL", "addr:street": "West Diversey Avenue", "amenity": "bar", "name": "Lost Lake", "phone": "+1-773-293-6048", "website": "http://www.lostlaketiki.com/"}}, {"type": "node", "id": 3551769093, "lat": 41.93214, "lon": -87.7071042, "tags": {"amenity": "restaurant", "cuisine": "chinese", "name": "Thank You.", "takeaway": "only"}}, {"type": "node", "id": 3551904715, "lat": 41.9333478, "lon": -87.713791, "tags": {"amenity": "restaurant", "brand": "Giordano's Pizzeria", "brand:wikidata": "Q5563393", "brand:wikipedia": "en:Giordano's Pizzeria", "cuisine": "pizza", "name": "Giordano's Pizzeria"}}, {"type": "node", "id": 3555057608, "lat": 41.9426005, "lon": -87.6908138}, {"type": "node", "id": 3555057609, "lat": 41.9419597, "lon": -87.6930147}, {"type": "node", "id": 3555057610, "lat": 41.9421048, "lon": -87.6930373}, {"type": "node", "id": 3555057611, "lat": 41.942257, "lon": -87.6930804}, {"type": "node", "id": 3555057612, "lat": 41.9423871, "lon": -87.6931299}, {"type": "node", "id": 3555057613, "lat": 41.9425541, "lon": -87.6932184}, {"type": "node", "id": 3555057614, "lat": 41.9429017, "lon": -87.6934627}, {"type": "node", "id": 3555057622, "lat": 41.9433671, "lon": -87.6937835}, {"type": "node", "id": 3555057623, "lat": 41.9429584, "lon": -87.6935016}, {"type": "node", "id": 3567139344, "lat": 41.9433764, "lon": -87.6932131}, {"type": "node", "id": 3574954894, "lat": 41.9322163, "lon": -87.7014748, "tags": {"addr:city": "Chicago", "addr:housenumber": "2934", "addr:postcode": "60647", "addr:state": "IL", "addr:street": "West Diversey Avenue", "amenity": "restaurant", "name": "Son of a Butcher by Whisk", "phone": "+1-773-687-9709", "website": "https://sobutcher.com/"}}, {"type": "node", "id": 3575010907, "lat": 41.9325834, "lon": -87.7134313, "tags": {"amenity": "restaurant", "cuisine": "chinese", "name": "Friendship Chinese"}}, {"type": "node", "id": 3649631221, "lat": 41.9316589, "lon": -87.7124643, "tags": {"amenity": "restaurant", "cuisine": "chinese", "name": "Van Phat"}}, {"type": "node", "id": 3649643207, "lat": 41.9325547, "lon": -87.7128675, "tags": {"amenity": "restaurant", "cuisine": "pizza", "name": "Dante's Pizzeria"}}, {"type": "node", "id": 3649650842, "lat": 41.9390585, "lon": -87.711587, "tags": {"amenity": "restaurant", "cuisine": "chinese", "name": "Eat First"}}, {"type": "node", "id": 3649684145, "lat": 41.9394821, "lon": -87.7038124, "tags": {"amenity": "restaurant", "cuisine": "chicken", "name": "Mr. Pollo"}}, {"type": "node", "id": 3649687382, "lat": 41.9392432, "lon": -87.7034485, "tags": {"addr:city": "Chicago", "addr:housenumber": "3017", "addr:postcode": "60618", "addr:state": "IL", "addr:street": "West Belmont Avenue", "amenity": "bar", "name": "Reed's Local", "phone": "+1-872-806-0520"}}, {"type": "node", "id": 3649687383, "lat": 41.9392689, "lon": -87.6976471, "tags": {"amenity": "restaurant", "name": "Jaiyen Sushi & Noodle"}}, {"type": "node", "id": 3649689183, "lat": 41.9405258, "lon": -87.7001999, "tags": {"amenity": "restaurant", "cuisine": "romanian", "name": "Nelly's Saloon"}}, {"type": "node", "id": 3652967808, "lat": 41.9447791, "lon": -87.7064642, "tags": {"addr:city": "Chicago", "addr:housenumber": "3500", "addr:postcode": "60618", "addr:state": "IL", "addr:street": "North Elston Avenue", "amenity": "restaurant", "cuisine": "korean;asian", "name": "Parachute", "phone": "+1-773-654-1460", "website": "http://www.parachuterestaurant.com"}}, {"type": "node", "id": 3660417021, "lat": 41.931227, "lon": -87.7103111, "tags": {"amenity": "restaurant", "name": "D'Noche"}}, {"type": "node", "id": 3814460048, "lat": 41.9319324, "lon": -87.7035762, "tags": {"amenity": "cafe", "name": "Cellar Door Provisions"}}, {"type": "node", "id": 3819127811, "lat": 41.9319651, "lon": -87.7003362, "tags": {"amenity": "restaurant", "cuisine": "mexican", "name": "Las Islas Marias"}}, {"type": "node", "id": 3819140676, "lat": 41.9319622, "lon": -87.701037, "tags": {"amenity": "restaurant", "cuisine": "ecuadorean", "name": "Restaurant Ecuador"}}, {"type": "node", "id": 3863354241, "lat": 41.9322534, "lon": -87.6925875, "tags": {"amenity": "restaurant", "name": "Ceviche Peruvian Restaurant"}}, {"type": "node", "id": 4303032344, "lat": 41.9319581, "lon": -87.70231, "tags": {"addr:city": "Chicago", "addr:housenumber": "2957", "addr:postcode": "60647", "addr:state": "IL", "addr:street": "West Diversey Avenue", "amenity": "bar", "name": "The Ladies Room", "phone": "+1-773-661-9170", "website": "http://www.eatfatrice.com/"}}, {"type": "node", "id": 5759671055, "lat": 41.9309154, "lon": -87.7101777, "tags": {"addr:city": "Chicago", "addr:housenumber": "2727", "addr:postcode": "60647", "addr:state": "IL", "addr:street": "North Milwaukee Avenue", "amenity": "bar", "brewery": "yes", "name": "The Walk In Chicago", "opening_hours": "Mo-Fr 17:00-02:00; Sa 12:00-03:00; Su 12:00-02:00", "outdoor_seating": "yes", "phone": "+1-773-227-7033", "smoking": "no", "website": "https://www.thewalkinchicago.com"}}, {"type": "node", "id": 5916842248, "lat": 41.9322708, "lon": -87.7035248, "tags": {"addr:city": "Chicago", "addr:housenumber": "3022", "addr:postcode": "60647", "addr:state": "IL", "addr:street": "West Diversey Avenue", "amenity": "cafe", "name": "Four Letter Word", "phone": "+1-773-360-8932", "website": "http://www.4lwcoffee.com/"}}, {"type": "node", "id": 6261239405, "lat": 41.948584, "lon": -87.7081814, "tags": {"addr:city": "Chicago", "addr:housenumber": "3700", "addr:postcode": "60618", "addr:state": "IL", "addr:street": "North Kedzie Avenue", "amenity": "bar", "name": "Angie\u2019s Bar & Grill", "phone": "+1-773-509-9372"}}, {"type": "node", "id": 6262050399, "lat": 41.9315661, "lon": -87.6921939, "tags": {"addr:city": "Chicago", "addr:housenumber": "2545", "addr:postcode": "60647", "addr:state": "IL", "addr:street": "West Diversey Avenue", "amenity": "restaurant", "cuisine": "american", "name": "Arbor", "phone": "+1-312-866-0795", "website": "http://www.arborprojects.com/"}}, {"type": "node", "id": 6263855094, "lat": 41.9390654, "lon": -87.6982113, "tags": {"addr:city": "Chicago", "addr:housenumber": "3188", "addr:postcode": "60618", "addr:state": "IL", "addr:street": "North Elston Avenue", "amenity": "restaurant", "name": "B\u2019el Bar + Kitchen", "phone": "+1-872-241-9032", "website": "https://www.belchicago.com/"}}, {"type": "node", "id": 6280584751, "lat": 41.9319324, "lon": -87.7035762, "tags": {"addr:city": "Chicago", "addr:housenumber": "3025", "addr:postcode": "60647", "addr:state": "IL", "addr:street": "West Diversey Avenue", "amenity": "restaurant", "name": "Cellar Door Provisions", "phone": "+1-773-697-8337", "website": "https://www.cellardoorprovisions.com/"}}, {"type": "node", "id": 6282566260, "lat": 41.931393, "lon": -87.7115622, "tags": {"addr:city": "Chicago", "addr:housenumber": "2770", "addr:postcode": "60647", "addr:state": "IL", "addr:street": "North Milwaukee Avenue", "amenity": "restaurant", "name": "Chiya Chai Cafe", "phone": "+1-773-360-7541", "website": "https://www.chiyachai.com/"}}, {"type": "node", "id": 6284507622, "lat": 41.9391728, "lon": -87.6997382, "tags": {"addr:city": "Chicago", "addr:housenumber": "2849", "addr:postcode": "60618", "addr:state": "IL", "addr:street": "West Belmont Avenue", "amenity": "bar", "name": "DMen Tap", "phone": "+1-773-961-8757", "website": "http://www.dmentap.com/"}}, {"type": "node", "id": 6294280332, "lat": 41.9476722, "lon": -87.6956965, "tags": {"addr:city": "Chicago", "addr:housenumber": "3626", "addr:postcode": "60618", "addr:state": "IL", "addr:street": "North Talman Avenue", "amenity": "bar", "name": "Heineken Pub97", "phone": "+1-773-944-1203", "website": "https://www.heinekenpub97.com/"}}, {"type": "node", "id": 6294625891, "lat": 41.9312206, "lon": -87.7113891, "tags": {"addr:city": "Chicago", "addr:housenumber": "2760", "addr:postcode": "60647", "addr:state": "IL", "addr:street": "North Milwaukee Avenue", "amenity": "bar", "name": "Hopewell Brewing Company", "phone": "+1-773-698-6178", "website": "http://www.hopewellbrewing.com/"}}, {"type": "node", "id": 6300449137, "lat": 41.9392348, "lon": -87.6974398, "tags": {"addr:city": "Chicago", "addr:housenumber": "2755", "addr:postcode": "60618", "addr:state": "IL", "addr:street": "West Belmont Avenue", "amenity": "restaurant", "name": "Pisolino", "phone": "+1-773-293-6025", "website": "http://pisolinochicago.com/"}}, {"type": "node", "id": 6301180417, "lat": 41.9313998, "lon": -87.7114512, "tags": {"addr:city": "Chicago", "addr:housenumber": "2766", "addr:postcode": "60647", "addr:state": "IL", "addr:street": "North Milwaukee Avenue", "amenity": "restaurant", "name": "RYUU Asian BBQ & Sushi", "phone": "+1-773-661-1919", "website": "https://www.ryuubbq.com/"}}, {"type": "node", "id": 6304083691, "lat": 41.9391867, "lon": -87.6975419, "tags": {"addr:city": "Chicago", "addr:housenumber": "3185", "addr:postcode": "60618", "addr:state": "IL", "addr:street": "North Elston Avenue", "amenity": "cafe", "name": "The Avondale Coffee Club", "phone": "+1-773-754-8140", "website": "https://www.avondalecoffeeclub.com/"}}, {"type": "node", "id": 6305257154, "lat": 41.9388637, "lon": -87.6972279, "tags": {"addr:city": "Chicago", "addr:housenumber": "3173", "addr:postcode": "60618", "addr:state": "IL", "addr:street": "North Elston Avenue", "amenity": "bar", "name": "The Beer Temple", "phone": "+1-773-754-0907", "website": "http://craftbeertemple.com/blog/"}}, {"type": "node", "id": 6314882497, "lat": 41.9336022, "lon": -87.707152, "tags": {"addr:city": "Chicago", "addr:housenumber": "2853", "addr:postcode": "60647", "addr:state": "IL", "addr:street": "North Kedzie Avenue", "amenity": "restaurant", "name": "JAM", "phone": "+1-773-292-6011", "website": "https://www.jamrestaurant.com/"}}, {"type": "node", "id": 6320506737, "lat": 41.9479734, "lon": -87.7105082, "tags": {"addr:city": "Chicago", "addr:housenumber": "3661", "addr:postcode": "60618", "addr:state": "IL", "addr:street": "North Elston Avenue", "amenity": "restaurant", "name": "Little Bucharest Bistro", "phone": "+1-773-604-8500", "website": "https://littlebucharestbistro.com/"}}, {"type": "node", "id": 6320677445, "lat": 41.935612, "lon": -87.69751, "tags": {"addr:city": "Chicago", "addr:housenumber": "2959", "addr:postcode": "60618", "addr:state": "IL", "addr:street": "North California Avenue", "amenity": "bar", "name": "Ludlow Liquors", "phone": "+1-773-754-7492", "website": "https://www.ludlow-liquors.com/"}}, {"type": "node", "id": 6321460385, "lat": 41.9308446, "lon": -87.6911398, "tags": {"addr:city": "Chicago", "addr:housenumber": "2717", "addr:postcode": "60647", "addr:state": "IL", "addr:street": "North Maplewood Avenue", "amenity": "bar", "name": "Maplewood Brewery & Distillery", "phone": "+1-773-270-1061", "website": "http://www.maplewoodbrew.com/"}}, {"type": "node", "id": 6322596969, "lat": 41.9375004, "lon": -87.6925691, "tags": {"addr:city": "Chicago", "addr:housenumber": "3057", "addr:postcode": "60618", "addr:state": "IL", "addr:street": "North Rockwell Street", "amenity": "bar", "name": "Metropolitan Brewing Taproom", "phone": "+1-773-754-0494", "website": "http://metrobrewing.com/"}}, {"type": "node", "id": 6323011945, "lat": 41.9356744, "lon": -87.692579, "tags": {"addr:city": "Chicago", "addr:housenumber": "2977", "addr:postcode": "60618", "addr:state": "IL", "addr:street": "North Elston Avenue", "amenity": "bar", "name": "\u00d1", "phone": "+1-773-866-9898", "website": "http://www.barranchicago.com/"}}, {"type": "node", "id": 6323066697, "lat": 41.9405281, "lon": -87.7002989, "tags": {"addr:city": "Chicago", "addr:housenumber": "3256", "addr:postcode": "60618", "addr:state": "IL", "addr:street": "North Elston Avenue", "amenity": "bar", "name": "Nelly\u2019s Saloon", "phone": "+1-773-588-4494"}}, {"type": "node", "id": 6610493967, "lat": 41.9319096, "lon": -87.7048257, "tags": {"addr:city": "Chicago", "addr:housenumber": "3059", "addr:postcode": "60647", "addr:state": "IL", "addr:street": "West Diversey Avenue", "amenity": "restaurant", "cuisine": "indian", "name": "Superkhana International", "phone": "+1-773-661-9028", "website": "https://superkhanachicago.com"}}, {"type": "node", "id": 6757772787, "lat": 41.9442156, "lon": -87.705642, "tags": {"addr:city": "Chicago", "addr:housenumber": "3472", "addr:postcode": "60618", "addr:state": "IL", "addr:street": "North Elston Avenue", "amenity": "restaurant", "cuisine": "american", "name": "Wherewithall", "phone": "+1-773-692-2192", "website": "https://www.wherewithallchi.com"}}, {"type": "node", "id": 6955522307, "lat": 41.9427233, "lon": -87.6933402}, {"type": "node", "id": 6955522338, "lat": 41.944547, "lon": -87.6914964}, {"type": "node", "id": 6955522339, "lat": 41.9445432, "lon": -87.6921235}, {"type": "node", "id": 6955522345, "lat": 41.9436637, "lon": -87.6921836}, {"type": "node", "id": 6955522346, "lat": 41.9438043, "lon": -87.6920938}, {"type": "node", "id": 6955522589, "lat": 41.9433808, "lon": -87.6929422}, {"type": "node", "id": 6970050101, "lat": 41.9426566, "lon": -87.6932905}, {"type": "node", "id": 6970050102, "lat": 41.9417606, "lon": -87.6930081}, {"type": "node", "id": 6970050103, "lat": 41.9417148, "lon": -87.6930102}, {"type": "node", "id": 6970050104, "lat": 41.9416698, "lon": -87.6930058}, {"type": "node", "id": 6970050106, "lat": 41.9407922, "lon": -87.6922262}, {"type": "node", "id": 6970050107, "lat": 41.9408668, "lon": -87.6928247}, {"type": "node", "id": 6970050108, "lat": 41.9410748, "lon": -87.6929849}, {"type": "node", "id": 6970050109, "lat": 41.9426895, "lon": -87.693315}, {"type": "node", "id": 6970050125, "lat": 41.9425108, "lon": -87.6908109}, {"type": "node", "id": 6970050126, "lat": 41.9407985, "lon": -87.6909445}, {"type": "node", "id": 6970050143, "lat": 41.9407926, "lon": -87.6921474}, {"type": "node", "id": 6970050165, "lat": 41.9420199, "lon": -87.6930241}, {"type": "node", "id": 6970050176, "lat": 41.9425245, "lon": -87.6932027}, {"type": "node", "id": 6970050178, "lat": 41.9426245, "lon": -87.6932679}, {"type": "way", "id": 163893589, "nodes": [1755640402, 1755640571, 1755641768, 1755641653, 1755640402], "tags": {"addr:housenumber": "2829", "addr:street": "North Milwaukee Avenue", "addr:street:name": "Milwaukee", "addr:street:prefix": "North", "addr:street:type": "Avenue", "amenity": "restaurant", "building": "yes", "building:levels": "1", "chicago:building_id": "239526", "cuisine": "mexican", "name": "Taqueria El Ranchito"}}, {"type": "way", "id": 163905395, "nodes": [1755728238, 1755728378, 1755728377, 1755728239, 1755728238], "tags": {"addr:housenumber": "3145", "addr:street": "West Addison Street", "addr:street:name": "Addison", "addr:street:prefix": "West", "addr:street:type": "Street", "amenity": "restaurant", "building": "yes", "building:levels": "1", "cuisine": "mexican", "name": "Burrito House"}}, {"type": "way", "id": 163905623, "nodes": [1755728543, 1755728868, 1755728869, 1755729136, 1755729139, 1755729228, 1755729226, 1755728892, 1755728890, 1755728544, 1755728543], "tags": {"addr:housenumber": "3310", "addr:street": "West Addison Street", "addr:street:name": "Addison", "addr:street:prefix": "West", "addr:street:type": "Street", "amenity": "cafe", "building": "yes", "building:levels": "1", "cuisine": "donut", "name": "Dunkin' Donuts"}}, {"type": "way", "id": 163907621, "nodes": [1755733277, 1755733598, 1755733552, 1755733562, 1755732928, 1755732906, 1755732878, 1755732880, 1755732891, 1755732908, 1755733277], "tags": {"addr:housenumber": "3661-3663", "addr:street": "North Elston Avenue", "addr:street:name": "Elston", "addr:street:prefix": "North", "addr:street:type": "Avenue", "amenity": "restaurant", "building": "yes", "building:levels": "3", "name": "Little Bucharest Bistro"}}, {"type": "way", "id": 163911241, "nodes": [1755728590, 1755729260, 1755729266, 1755729408, 1755729420, 1755729277, 1755729285, 1755728677, 1755728678, 1755728595, 1755728590], "tags": {"addr:housenumber": "3246", "addr:street": "West Addison Street", "addr:street:name": "Addison", "addr:street:prefix": "West", "addr:street:type": "Street", "amenity": "restaurant", "building": "yes", "building:levels": "1", "name": "New China Buffet"}}, {"type": "way", "id": 209455839, "nodes": [2196733822, 2196733985, 2196734001, 2196734010, 2196734021, 2196734036, 2196734041, 2196734046, 2196734045, 2196734040, 2196734025, 2196734049, 2196733857, 2196733822], "tags": {"addr:city": "Chicago", "addr:housenumber": "2957", "addr:postcode": "60647", "addr:state": "IL", "addr:street": "West Diversey Avenue", "addr:street:name": "Sacramento", "addr:street:prefix": "North", "addr:street:type": "Avenue", "amenity": "restaurant", "building": "yes", "chicago:building_id": "242498", "cuisine": "asian", "name": "Fat Rice", "phone": "+1-773-661-9170", "website": "http://www.eatfatrice.com"}}, {"type": "way", "id": 209455931, "nodes": [2196734852, 2196735073, 2196735074, 2196735349, 2196735348, 2196735588, 2196735590, 2196734859, 2196734852], "tags": {"addr:city": "Chicago", "addr:housenumber": "2818", "addr:street": "West Diversey Avenue", "addr:street:name": "Diversey", "addr:street:prefix": "West", "addr:street:type": "Avenue", "amenity": "restaurant", "brand": "IHOP", "brand:wikidata": "Q1185675", "brand:wikipedia": "en:IHOP", "building": "yes", "building:levels": "1", "chicago:building_id": "240772", "cuisine": "breakfast;pancake", "delivery": "no", "name": "IHOP"}}, {"type": "way", "id": 209465036, "nodes": [2196790368, 2196790640, 2196790727, 2196790730, 2196790368], "tags": {"addr:city": "Chicago", "addr:housenumber": "3361", "addr:postcode": "60618", "addr:state": "IL", "addr:street": "North Elston Avenue", "addr:street:name": "Elston", "addr:street:prefix": "North", "addr:street:type": "Avenue", "amenity": "restaurant", "building": "retail", "chicago:building_id": "197335", "name": "Honey Butter Fried Chicken", "outdoor_seating": "yes", "phone": "+1-773-478-4000", "smoking": "no", "toilets:wheelchair": "yes", "website": "https://www.honeybutter.com/", "wheelchair": "yes"}}, {"type": "way", "id": 254362318, "nodes": [2393685997, 6955522589, 3567139344, 3555057622, 3555057623, 3555057614, 6955522307, 6970050109, 6970050101, 6970050178, 3555057613, 6970050176, 3555057612, 3555057611, 3555057610, 6970050165, 3555057609, 6970050102, 6970050103, 6970050104, 2601552516, 6970050108, 2601552515, 2601552514, 6970050107, 2601552513, 2601552511, 2601552510, 6970050106, 6970050143, 6970050126, 2601552512, 2601552517, 6970050125, 3555057608, 2393667680, 2393667751, 2404188173, 6955522338, 6955522339, 6955522346, 6955522345, 2393686008, 2393685997], "tags": {"alt_name": "DeVry University Chicago Campus", "amenity": "university", "brand": "DeVry University", "brand:wikidata": "Q3298441", "brand:wikipedia": "en:DeVry University", "ele": "181", "gnis:county_id": "031", "gnis:created": "04/01/1999", "gnis:feature_id": "1826161", "gnis:state_id": "17", "name": "DeVry University", "short_name": "DeVry", "website": "https://www.devry.edu/about/campus-locations/illinois/chicago.html"}}]}