{"version": 0.6, "generator": "Overpass API 0.7.56.3 eb200aeb", "osm3s": {"timestamp_osm_base": "2020-07-04T00:14:02Z", "copyright": "The data included in this document is from www.openstreetmap.org. The data is made available under ODbL."}, "elements": [{"type": "node", "id": 6282545846, "lat": 41.9539441, "lon": -87.7198151, "tags": {"addr:city": "Chicago", "addr:housenumber": "3658", "addr:postcode": "60618", "addr:state": "IL", "addr:street": "West Irving Park Road", "amenity": "restaurant", "name": "Chicken Works & Salad Company", "phone": "+1-773-588-5488", "website": "http://www.chickenworkschicago.com/"}}, {"type": "node", "id": 6294255482, "lat": 41.9541051, "lon": -87.718301, "tags": {"addr:city": "Chicago", "addr:housenumber": "3608", "addr:postcode": "60618", "addr:state": "IL", "addr:street": "West Irving Park Road", "amenity": "bar", "name": "Hearth And Crust", "phone": "+1-773-516-4800", "website": "https://hearthandcrust.com/"}}, {"type": "node", "id": 6303044522, "lat": 41.9573408, "lon": -87.7157832, "tags": {"addr:city": "Chicago", "addr:housenumber": "4156", "addr:postcode": "60618", "addr:state": "IL", "addr:street": "North Saint Louis Avenue", "amenity": "bar", "name": "T & A Too", "phone": "+1-312-555-1212"}}, {"type": "node", "id": 6320668646, "lat": 41.9539316, "lon": -87.7179009, "tags": {"addr:city": "Chicago", "addr:housenumber": "3600", "addr:postcode": "60618", "addr:state": "IL", "addr:street": "West Irving Park Road", "amenity": "cafe", "name": "Lucky Charm Cafe", "phone": "+1-773-293-7207", "website": "http://luckycharmcafe.com/"}}]}