{"version": 0.6, "generator": "Overpass API 0.7.56.3 eb200aeb", "osm3s": {"timestamp_osm_base": "2020-07-17T21:20:03Z", "copyright": "The data included in this document is from www.openstreetmap.org. The data is made available under ODbL."}, "elements": [{"type": "node", "id": 1262345400, "lat": 41.923399, "lon": -87.698384, "tags": {"addr:city": "Chicago", "addr:housenumber": "2320", "addr:postcode": "60647", "addr:street": "North Milwaukee Avenue", "amenity": "restaurant", "cuisine": "mexican", "name": "2 Amigos", "smoking": "no", "takeaway": "yes"}}, {"type": "node", "id": 1262346097, "lat": 41.9236445, "lon": -87.6988013, "tags": {"addr:city": "Chicago", "addr:housenumber": "2338", "addr:postcode": "60647", "addr:street": "North Milwaukee Avenue", "amenity": "bar", "atm": "yes", "food": "no", "name": "Cole's Bar", "outdoor_seating": "no", "smoking": "no"}}, {"type": "node", "id": 1262347995, "lat": 41.924953, "lon": -87.700966, "tags": {"addr:city": "Chicago", "addr:housenumber": "2410", "addr:postcode": "60647", "addr:state": "IL", "addr:street": "North Milwaukee Avenue", "amenity": "restaurant", "cuisine": "ramen;asian;japanese", "name": "Furious Spoon - Logan Square", "opening_hours": "Su-Th 11:00-01:00; Fr 11:00-02:00; Sa 11:00-03:00", "phone": "+1-773-770-3559", "website": "http://furiousramen.com"}}, {"type": "node", "id": 1585425015, "lat": 41.9250199, "lon": -87.6874251, "tags": {"addr:city": "Chicago", "addr:housenumber": "2401", "addr:postcode": "60647", "addr:street": "North Western Avenue", "amenity": "bar", "name": "Quenchers"}}, {"type": "node", "id": 2162237021, "lat": 41.9356172, "lon": -87.6975623, "tags": {"amenity": "restaurant", "name": "Orbit Room"}}, {"type": "node", "id": 2196231356, "lat": 41.9236958, "lon": -87.6970468}, {"type": "node", "id": 2196231359, "lat": 41.9236974, "lon": -87.6970927}, {"type": "node", "id": 2196231368, "lat": 41.9237006, "lon": -87.6971772}, {"type": "node", "id": 2196231378, "lat": 41.9237018, "lon": -87.6971441}, {"type": "node", "id": 2196231381, "lat": 41.9237024, "lon": -87.6970063}, {"type": "node", "id": 2196231382, "lat": 41.9237024, "lon": -87.6972562}, {"type": "node", "id": 2196231383, "lat": 41.9237026, "lon": -87.6970394}, {"type": "node", "id": 2196231387, "lat": 41.9237034, "lon": -87.697179}, {"type": "node", "id": 2196231402, "lat": 41.9237112, "lon": -87.6971054}, {"type": "node", "id": 2196231405, "lat": 41.9237114, "lon": -87.6971348}, {"type": "node", "id": 2196231455, "lat": 41.9237299, "lon": -87.6972578}, {"type": "node", "id": 2196231485, "lat": 41.9237354, "lon": -87.6972669}, {"type": "node", "id": 2196231530, "lat": 41.9237436, "lon": -87.6970077}, {"type": "node", "id": 2196231531, "lat": 41.9237438, "lon": -87.6970463}, {"type": "node", "id": 2196231640, "lat": 41.9237547, "lon": -87.6972685}, {"type": "node", "id": 2196231710, "lat": 41.9237601, "lon": -87.6972593}, {"type": "node", "id": 2196231762, "lat": 41.923767, "lon": -87.6972611}, {"type": "node", "id": 2196231771, "lat": 41.9237699, "lon": -87.6970479}, {"type": "node", "id": 2196695425, "lat": 41.9241082, "lon": -87.6991295}, {"type": "node", "id": 2196695561, "lat": 41.9241487, "lon": -87.6991953}, {"type": "node", "id": 2196695766, "lat": 41.9241913, "lon": -87.6992647}, {"type": "node", "id": 2196696161, "lat": 41.9242805, "lon": -87.69941}, {"type": "node", "id": 2196696257, "lat": 41.9242987, "lon": -87.6989277}, {"type": "node", "id": 2196696452, "lat": 41.924335, "lon": -87.6989873}, {"type": "node", "id": 2196696471, "lat": 41.9243377, "lon": -87.6989917}, {"type": "node", "id": 2196697224, "lat": 41.92441, "lon": -87.6989119}, {"type": "node", "id": 2196697314, "lat": 41.9244147, "lon": -87.6989119}, {"type": "node", "id": 2196697466, "lat": 41.9244412, "lon": -87.6989855}, {"type": "node", "id": 2196697468, "lat": 41.9244412, "lon": -87.6989892}, {"type": "node", "id": 2196697476, "lat": 41.924442, "lon": -87.6989891}, {"type": "node", "id": 2196697718, "lat": 41.9244864, "lon": -87.6991699}, {"type": "node", "id": 2196697732, "lat": 41.9244891, "lon": -87.6991698}, {"type": "node", "id": 2196698996, "lat": 41.9246571, "lon": -87.6991752}, {"type": "node", "id": 2196699000, "lat": 41.9246591, "lon": -87.6990002}, {"type": "node", "id": 2196700902, "lat": 41.9250337, "lon": -87.6882088}, {"type": "node", "id": 2196700904, "lat": 41.9250341, "lon": -87.6880416}, {"type": "node", "id": 2196701484, "lat": 41.9252423, "lon": -87.6882104}, {"type": "node", "id": 2196701487, "lat": 41.9252432, "lon": -87.688135}, {"type": "node", "id": 2196702206, "lat": 41.9254038, "lon": -87.6881371}, {"type": "node", "id": 2196702217, "lat": 41.9254046, "lon": -87.688047}, {"type": "node", "id": 2196706116, "lat": 41.9257969, "lon": -87.6882581}, {"type": "node", "id": 2196706176, "lat": 41.925807, "lon": -87.6878611}, {"type": "node", "id": 2196706393, "lat": 41.9258614, "lon": -87.6882611}, {"type": "node", "id": 2196706420, "lat": 41.9258701, "lon": -87.6878641}, {"type": "node", "id": 2196712373, "lat": 41.9264617, "lon": -87.7029669}, {"type": "node", "id": 2196712999, "lat": 41.9265416, "lon": -87.7025251}, {"type": "node", "id": 2196713072, "lat": 41.9265503, "lon": -87.7031057}, {"type": "node", "id": 2196713167, "lat": 41.926573, "lon": -87.7024881}, {"type": "node", "id": 2196713554, "lat": 41.9265922, "lon": -87.7024952}, {"type": "node", "id": 2196713586, "lat": 41.9266717, "lon": -87.7027297}, {"type": "node", "id": 2196713835, "lat": 41.9267998, "lon": -87.7028203}, {"type": "node", "id": 2196726093, "lat": 41.9304316, "lon": -87.6889427}, {"type": "node", "id": 2196726113, "lat": 41.9304346, "lon": -87.6884961}, {"type": "node", "id": 2196726256, "lat": 41.9304671, "lon": -87.6889074}, {"type": "node", "id": 2196726258, "lat": 41.9304673, "lon": -87.6889423}, {"type": "node", "id": 2196726343, "lat": 41.9304931, "lon": -87.6889072}, {"type": "node", "id": 2196726355, "lat": 41.9304963, "lon": -87.6884955}, {"type": "node", "id": 2196733822, "lat": 41.9318866, "lon": -87.7023824}, {"type": "node", "id": 2196733857, "lat": 41.9318937, "lon": -87.7019377}, {"type": "node", "id": 2196733985, "lat": 41.9319497, "lon": -87.7023855}, {"type": "node", "id": 2196734001, "lat": 41.931962, "lon": -87.7023854}, {"type": "node", "id": 2196734010, "lat": 41.9319648, "lon": -87.7023872}, {"type": "node", "id": 2196734021, "lat": 41.9319703, "lon": -87.7023871}, {"type": "node", "id": 2196734025, "lat": 41.9319729, "lon": -87.7023595}, {"type": "node", "id": 2196734036, "lat": 41.9319758, "lon": -87.7023871}, {"type": "node", "id": 2196734040, "lat": 41.9319784, "lon": -87.702365}, {"type": "node", "id": 2196734041, "lat": 41.9319785, "lon": -87.7023815}, {"type": "node", "id": 2196734045, "lat": 41.9319798, "lon": -87.7023687}, {"type": "node", "id": 2196734046, "lat": 41.9319798, "lon": -87.702376}, {"type": "node", "id": 2196734049, "lat": 41.9319802, "lon": -87.7019405}, {"type": "node", "id": 2196734852, "lat": 41.9321972, "lon": -87.6982412}, {"type": "node", "id": 2196734859, "lat": 41.932198, "lon": -87.6981512}, {"type": "node", "id": 2196735073, "lat": 41.9322589, "lon": -87.6982425}, {"type": "node", "id": 2196735074, "lat": 41.932259, "lon": -87.6982572}, {"type": "node", "id": 2196735080, "lat": 41.9322625, "lon": -87.6885421}, {"type": "node", "id": 2196735084, "lat": 41.9322662, "lon": -87.6882296}, {"type": "node", "id": 2196735239, "lat": 41.9323201, "lon": -87.6885433}, {"type": "node", "id": 2196735242, "lat": 41.9323209, "lon": -87.6884386}, {"type": "node", "id": 2196735244, "lat": 41.9323211, "lon": -87.6882309}, {"type": "node", "id": 2196735246, "lat": 41.9323214, "lon": -87.6882805}, {"type": "node", "id": 2196735348, "lat": 41.9323701, "lon": -87.6982432}, {"type": "node", "id": 2196735349, "lat": 41.9323701, "lon": -87.6982597}, {"type": "node", "id": 2196735356, "lat": 41.9323721, "lon": -87.6882819}, {"type": "node", "id": 2196735382, "lat": 41.9323813, "lon": -87.6884398}, {"type": "node", "id": 2196735386, "lat": 41.9323832, "lon": -87.6882964}, {"type": "node", "id": 2196735588, "lat": 41.9324743, "lon": -87.6982458}, {"type": "node", "id": 2196735590, "lat": 41.9324752, "lon": -87.6981558}, {"type": "node", "id": 2196751322, "lat": 41.9379343, "lon": -87.6857706}, {"type": "node", "id": 2196751467, "lat": 41.9379874, "lon": -87.6857021}, {"type": "node", "id": 2196751525, "lat": 41.938002, "lon": -87.6858673}, {"type": "node", "id": 2196751704, "lat": 41.9380552, "lon": -87.685797}, {"type": "node", "id": 2196787631, "lat": 41.940921, "lon": -87.6878998}, {"type": "node", "id": 2196787638, "lat": 41.9409229, "lon": -87.6877546}, {"type": "node", "id": 2196787640, "lat": 41.9409233, "lon": -87.6878208}, {"type": "node", "id": 2196787647, "lat": 41.9409272, "lon": -87.6875359}, {"type": "node", "id": 2196787651, "lat": 41.9409301, "lon": -87.6878115}, {"type": "node", "id": 2196787653, "lat": 41.9409312, "lon": -87.6877545}, {"type": "node", "id": 2196787746, "lat": 41.9409828, "lon": -87.6879029}, {"type": "node", "id": 2196787752, "lat": 41.9409859, "lon": -87.6878367}, {"type": "node", "id": 2196787760, "lat": 41.9409906, "lon": -87.6875371}, {"type": "node", "id": 2200391526, "lat": 41.9391951, "lon": -87.6830711}, {"type": "node", "id": 2200391530, "lat": 41.939196, "lon": -87.6829902}, {"type": "node", "id": 2200391693, "lat": 41.9392513, "lon": -87.6830724}, {"type": "node", "id": 2200391751, "lat": 41.9392596, "lon": -87.6830833}, {"type": "node", "id": 2200391864, "lat": 41.9392788, "lon": -87.6830831}, {"type": "node", "id": 2200391876, "lat": 41.9392824, "lon": -87.682993}, {"type": "node", "id": 2200391880, "lat": 41.9392843, "lon": -87.683072}, {"type": "node", "id": 2200391887, "lat": 41.939288, "lon": -87.6830003}, {"type": "node", "id": 2200391936, "lat": 41.9393099, "lon": -87.6830019}, {"type": "node", "id": 2200391950, "lat": 41.9393167, "lon": -87.6829927}, {"type": "node", "id": 2200392020, "lat": 41.9393552, "lon": -87.6829941}, {"type": "node", "id": 2200392021, "lat": 41.9393552, "lon": -87.6829996}, {"type": "node", "id": 2200392173, "lat": 41.9393689, "lon": -87.6829903}, {"type": "node", "id": 2200392174, "lat": 41.9393689, "lon": -87.6830013}, {"type": "node", "id": 2200392234, "lat": 41.9393968, "lon": -87.6830746}, {"type": "node", "id": 2200392245, "lat": 41.9394037, "lon": -87.6830837}, {"type": "node", "id": 2200392290, "lat": 41.9394188, "lon": -87.6830854}, {"type": "node", "id": 2200392308, "lat": 41.9394241, "lon": -87.6830449}, {"type": "node", "id": 2200392311, "lat": 41.9394251, "lon": -87.6829916}, {"type": "node", "id": 2200392339, "lat": 41.939431, "lon": -87.683054}, {"type": "node", "id": 2200392341, "lat": 41.9394311, "lon": -87.6830724}, {"type": "node", "id": 2393667680, "lat": 41.9428218, "lon": -87.6908115}, {"type": "node", "id": 2393667751, "lat": 41.9438427, "lon": -87.6908432}, {"type": "node", "id": 2393685997, "lat": 41.9433922, "lon": -87.6922414}, {"type": "node", "id": 2393686008, "lat": 41.9435709, "lon": -87.6922429}, {"type": "node", "id": 2403040378, "lat": 41.924632, "lon": -87.699928, "tags": {"addr:city": "Chicago", "addr:housenumber": "2385", "addr:postcode": "60647", "addr:street": "North Milwaukee Avenue", "amenity": "cafe", "drive_through": "no", "internet_access": "wlan", "name": "Gaslight Coffee Roasters", "outdoor_seating": "no", "smoking": "no", "takeaway": "yes", "wheelchair": "yes"}}, {"type": "node", "id": 2404188173, "lat": 41.9438372, "lon": -87.6914896}, {"type": "node", "id": 2422425841, "lat": 41.92796, "lon": -87.697351, "tags": {"addr:city": "Chicago", "addr:housenumber": "2543", "addr:postcode": "60618", "addr:street": "North California Avenue", "amenity": "cafe", "brand": "Starbucks", "brand:wikidata": "Q37158", "brand:wikipedia": "en:Starbucks", "cuisine": "coffee_shop", "drive_through": "no", "name": "Starbucks", "official_name": "Starbucks Coffee", "outdoor_seating": "yes", "takeaway": "yes"}}, {"type": "node", "id": 2422436953, "lat": 41.9389697, "lon": -87.6979732, "tags": {"addr:city": "Chicago", "addr:housenumber": "3144", "addr:postcode": "60618", "addr:street": "North California Avenue", "amenity": "restaurant", "cuisine": "mexican", "name": "Taqueria Traspasada", "wheelchair": "yes"}}, {"type": "node", "id": 2495670456, "lat": 41.931995, "lon": -87.698314, "tags": {"addr:city": "Chicago", "addr:housenumber": "2815", "addr:postcode": "60618", "addr:street": "West Diversey Parkway", "amenity": "restaurant", "cuisine": "mexican", "name": "L'Patron", "outdoor_seating": "no", "takeaway": "yes"}}, {"type": "node", "id": 2516917179, "lat": 41.937096, "lon": -87.69797, "tags": {"addr:city": "Chicago", "addr:housenumber": "3046", "addr:postcode": "60618", "addr:street": "North California Avenue", "amenity": "bar", "name": "Clyde's"}}, {"type": "node", "id": 2601552510, "lat": 41.9407935, "lon": -87.6924228}, {"type": "node", "id": 2601552511, "lat": 41.9407937, "lon": -87.6925988}, {"type": "node", "id": 2601552512, "lat": 41.9407993, "lon": -87.6907578}, {"type": "node", "id": 2601552513, "lat": 41.9408234, "lon": -87.6927284}, {"type": "node", "id": 2601552514, "lat": 41.9409246, "lon": -87.6928977}, {"type": "node", "id": 2601552515, "lat": 41.9409972, "lon": -87.6929537}, {"type": "node", "id": 2601552516, "lat": 41.9414811, "lon": -87.6929985}, {"type": "node", "id": 2601552517, "lat": 41.9419666, "lon": -87.6907935}, {"type": "node", "id": 2612365316, "lat": 41.9319208, "lon": -87.7002647, "tags": {"addr:city": "Chicago", "addr:housenumber": "2901", "addr:postcode": "60618", "addr:state": "IL", "addr:street": "West Diversey Parkway", "amenity": "restaurant", "cuisine": "Tequila_Bar", "name": "Masa Azul", "phone": "(773) 687-0300", "website": "http://www.masaazul.com/"}}, {"type": "node", "id": 2761642364, "lat": 41.9253484, "lon": -87.7010478, "tags": {"addr:city": "Chicago", "addr:housenumber": "2421", "addr:postcode": "60647", "addr:state": "IL", "addr:street": "North Milwaukee Avenue", "amenity": "bar", "name": "The Whistler", "phone": "+1-773-227-3530", "website": "https://whistlerchicago.com/", "wheelchair": "yes"}}, {"type": "node", "id": 2761648471, "lat": 41.9237455, "lon": -87.6983641, "tags": {"addr:city": "Chicago", "addr:housenumber": "2333", "addr:postcode": "60647", "addr:state": "IL", "addr:street": "North Milwaukee Avenue", "amenity": "restaurant", "name": "The Chicago Diner", "phone": "+1-773-252-3211", "website": "http://www.veggiediner.com/", "wheelchair:description": "they have a ramp to get over the small entrance step"}}, {"type": "node", "id": 2904923307, "lat": 41.9275368, "lon": -87.6976401, "tags": {"addr:housenumber": "2528", "addr:street": "North California Avenue", "amenity": "restaurant", "name": "The General", "source:name": "survey"}}, {"type": "node", "id": 3552123092, "lat": 41.9277148, "lon": -87.6973415, "tags": {"addr:city": "Chicago", "addr:housenumber": "2535", "addr:postcode": "60647", "addr:state": "IL", "addr:street": "North California Avenue", "amenity": "restaurant", "name": "Buona Terra", "phone": "+1-773-289-3800", "website": "http://www.buona-terra.com/"}}, {"type": "node", "id": 3552123473, "lat": 41.9276449, "lon": -87.6976526, "tags": {"amenity": "restaurant", "cuisine": "thai", "name": "Anong"}}, {"type": "node", "id": 3552127034, "lat": 41.9271765, "lon": -87.69713, "tags": {"addr:city": "Chicago", "addr:housenumber": "2515", "addr:postcode": "60647", "addr:state": "IL", "addr:street": "North California Avenue", "amenity": "restaurant", "cuisine": "korean", "name": "Gosu", "phone": "+1-773-276-7330", "website": "http://www.gosuchicago.com/"}}, {"type": "node", "id": 3552127994, "lat": 41.9273063, "lon": -87.6972986, "tags": {"amenity": "restaurant", "cuisine": "sushi", "name": "Hachi's Kitchen"}}, {"type": "node", "id": 3555057608, "lat": 41.9426005, "lon": -87.6908138}, {"type": "node", "id": 3555057609, "lat": 41.9419597, "lon": -87.6930147}, {"type": "node", "id": 3555057610, "lat": 41.9421048, "lon": -87.6930373}, {"type": "node", "id": 3555057611, "lat": 41.942257, "lon": -87.6930804}, {"type": "node", "id": 3555057612, "lat": 41.9423871, "lon": -87.6931299}, {"type": "node", "id": 3555057613, "lat": 41.9425541, "lon": -87.6932184}, {"type": "node", "id": 3555057614, "lat": 41.9429017, "lon": -87.6934627}, {"type": "node", "id": 3555057622, "lat": 41.9433671, "lon": -87.6937835}, {"type": "node", "id": 3555057623, "lat": 41.9429584, "lon": -87.6935016}, {"type": "node", "id": 3567139344, "lat": 41.9433764, "lon": -87.6932131}, {"type": "node", "id": 3570237498, "lat": 41.9239504, "lon": -87.6994139, "tags": {"addr:city": "Chicago", "addr:housenumber": "2354", "addr:postcode": "60647", "addr:state": "IL", "addr:street": "North Milwaukee Avenue", "amenity": "bar", "name": "East Room", "phone": "+1-773-698-8774", "website": "http://www.eastroomchicago.com/"}}, {"type": "node", "id": 3572607693, "lat": 41.924661, "lon": -87.6962247, "tags": {"amenity": "restaurant", "cuisine": "argentinian", "name": "El \u00d1and\u00fa"}}, {"type": "node", "id": 3572607694, "lat": 41.924667, "lon": -87.6960476, "tags": {"amenity": "restaurant", "cuisine": "peruvian", "name": "4 Suyos"}}, {"type": "node", "id": 3572612795, "lat": 41.9250721, "lon": -87.6885267, "tags": {"addr:city": "Chicago", "addr:housenumber": "2420", "addr:postcode": "60647", "addr:state": "IL", "addr:street": "West Fullerton Avenue", "amenity": "restaurant", "cuisine": "puerto_rican", "name": "La Cocina Boricua de la Familia Galarza", "phone": "+1-773-235-7377"}}, {"type": "node", "id": 3572612796, "lat": 41.9250781, "lon": -87.6884409, "tags": {"amenity": "restaurant", "cuisine": "chinese", "name": "Blue Willow"}}, {"type": "node", "id": 3572612797, "lat": 41.9250761, "lon": -87.6878723, "tags": {"amenity": "restaurant", "name": "Fullerton Restaurant", "opening_hours": "Mo-Su 05:30-16:00"}}, {"type": "node", "id": 3572965495, "lat": 41.930495, "lon": -87.6884158}, {"type": "node", "id": 3572965496, "lat": 41.9304414, "lon": -87.6884153}, {"type": "node", "id": 3572965497, "lat": 41.9304429, "lon": -87.6880311}, {"type": "node", "id": 3572965498, "lat": 41.9305022, "lon": -87.6880326}, {"type": "node", "id": 3574954894, "lat": 41.9322163, "lon": -87.7014748, "tags": {"addr:city": "Chicago", "addr:housenumber": "2934", "addr:postcode": "60647", "addr:state": "IL", "addr:street": "West Diversey Avenue", "amenity": "restaurant", "name": "Son of a Butcher by Whisk", "phone": "+1-773-687-9709", "website": "https://sobutcher.com/"}}, {"type": "node", "id": 3649687383, "lat": 41.9392689, "lon": -87.6976471, "tags": {"amenity": "restaurant", "name": "Jaiyen Sushi & Noodle"}}, {"type": "node", "id": 3649689183, "lat": 41.9405258, "lon": -87.7001999, "tags": {"amenity": "restaurant", "cuisine": "romanian", "name": "Nelly's Saloon"}}, {"type": "node", "id": 3660929470, "lat": 41.9250279, "lon": -87.687063, "tags": {"addr:city": "Chicago", "addr:housenumber": "2346", "addr:postcode": "60647", "addr:state": "IL", "addr:street": "West Fullerton Avenue", "amenity": "restaurant", "name": "Estrella Negra", "phone": "+1-773-227-5993", "website": "http://estrellanegra.com/"}}, {"type": "node", "id": 3660929473, "lat": 41.9257822, "lon": -87.6874761, "tags": {"amenity": "restaurant", "name": "Sonny's Pizza"}}, {"type": "node", "id": 3819127811, "lat": 41.9319651, "lon": -87.7003362, "tags": {"amenity": "restaurant", "cuisine": "mexican", "name": "Las Islas Marias"}}, {"type": "node", "id": 3819140676, "lat": 41.9319622, "lon": -87.701037, "tags": {"amenity": "restaurant", "cuisine": "ecuadorean", "name": "Restaurant Ecuador"}}, {"type": "node", "id": 3819197957, "lat": 41.924249, "lon": -87.6988885, "tags": {"addr:city": "Chicago", "addr:housenumber": "2357", "addr:postcode": "60647", "addr:state": "IL", "addr:street": "North Milwaukee Avenue", "addr:unit": "2", "amenity": "bar", "name": "The Heavy Feather", "website": "https://www.heavyfeatherchicago.com/"}}, {"type": "node", "id": 3819197958, "lat": 41.9246316, "lon": -87.6994251, "tags": {"amenity": "cafe", "name": "DAS"}}, {"type": "node", "id": 3847814498, "lat": 41.9254204, "lon": -87.7016774, "tags": {"amenity": "bar", "name": "Black Lion"}}, {"type": "node", "id": 3863354241, "lat": 41.9322534, "lon": -87.6925875, "tags": {"amenity": "restaurant", "name": "Ceviche Peruvian Restaurant"}}, {"type": "node", "id": 3863354248, "lat": 41.9320502, "lon": -87.6886082, "tags": {"amenity": "restaurant", "name": "Lee's Chop Suey"}}, {"type": "node", "id": 3863354249, "lat": 41.931905, "lon": -87.6876711, "tags": {"addr:city": "Chicago", "addr:housenumber": "2753", "addr:postcode": "60618", "addr:state": "IL", "addr:street": "North Western Avenue", "amenity": "cafe", "name": "CornerStone Cafe", "phone": "+1-773-235-1155", "website": "http://chicagocornerstonecafe.com/"}}, {"type": "node", "id": 3863402374, "lat": 41.9310911, "lon": -87.6850726, "tags": {"amenity": "restaurant", "brand": "Pei Wei", "brand:wikidata": "Q7160898", "brand:wikipedia": "en:Pei Wei Asian Diner", "cuisine": "asian", "name": "Pei Wei"}}, {"type": "node", "id": 3882461187, "lat": 41.9247152, "lon": -87.6902194, "tags": {"amenity": "restaurant", "cuisine": "sushi", "name": "S@kura"}}, {"type": "node", "id": 4303032344, "lat": 41.9319581, "lon": -87.70231, "tags": {"addr:city": "Chicago", "addr:housenumber": "2957", "addr:postcode": "60647", "addr:state": "IL", "addr:street": "West Diversey Avenue", "amenity": "bar", "name": "The Ladies Room", "phone": "+1-773-661-9170", "website": "http://www.eatfatrice.com/"}}, {"type": "node", "id": 4354344660, "lat": 41.9257031, "lon": -87.7021781, "tags": {"addr:city": "Chicago", "addr:housenumber": "2450", "addr:postcode": "60647", "addr:state": "IL", "addr:street": "North Milwaukee Avenue", "amenity": "bar", "name": "Estereo", "opening_hours": "Mo-Su 12:00-02:00", "phone": "+1-773-360-8363", "website": "https://www.estereochicago.com"}}, {"type": "node", "id": 4743569594, "lat": 41.9249893, "lon": -87.6972462, "tags": {"addr:city": "Chicago", "addr:housenumber": "2758", "addr:postcode": "60647", "addr:state": "IL", "addr:street": "West Fullerton Avenue", "amenity": "bar", "name": "Spilt Milk", "phone": "+1-773-413-8440", "website": "https://www.yelp.com/biz/spilt-milk-chicago-5?osq=Bars"}}, {"type": "node", "id": 4940842327, "lat": 41.9250994, "lon": -87.7012599, "tags": {"addr:city": "Chicago", "addr:housenumber": "2412", "addr:postcode": "60647", "addr:state": "IL", "addr:street": "North Milwaukee Avenue", "amenity": "bar", "name": "Deadbolt Bar", "opening_hours": "Mo-Fr 17:00-02:00; Sa 17:00-03:00; Su 17:00-02:00;", "outdoor_seating": "no", "phone": "+1-773-698-6101", "smoking": "no", "website": "https://www.deadboltbar.com/"}}, {"type": "node", "id": 5723926330, "lat": 41.9251531, "lon": -87.7012931, "tags": {"addr:city": "Chicago", "addr:housenumber": "2414", "addr:postcode": "60647", "addr:state": "IL", "addr:street": "North Milwaukee Avenue", "amenity": "restaurant", "cuisine": "wisconsin", "name": "The Pink Squirrel", "opening_hours": "Su-Fr 17:00-02:00; Sa 17:00-03:00", "outdoor_seating": "no"}}, {"type": "node", "id": 6052896090, "lat": 41.9251582, "lon": -87.7025343, "tags": {"addr:city": "Chicago", "addr:housenumber": "3000", "addr:postcode": "60647", "addr:state": "IL", "addr:street": "West Fullerton Avenue", "amenity": "restaurant", "name": "BIG & little\u2019s Restaurant & Bar", "outdoor_seating": "yes", "phone": "+1-773-687-9033", "website": "https://www.bigandlittleschicago.com/"}}, {"type": "node", "id": 6251978296, "lat": 41.9254643, "lon": -87.7012475, "tags": {"addr:city": "Chicago", "addr:housenumber": "2427", "addr:postcode": "60647", "addr:state": "IL", "addr:street": "North Milwaukee Avenue", "amenity": "restaurant", "name": "The Whale"}}, {"type": "node", "id": 6262050399, "lat": 41.9315661, "lon": -87.6921939, "tags": {"addr:city": "Chicago", "addr:housenumber": "2545", "addr:postcode": "60647", "addr:state": "IL", "addr:street": "West Diversey Avenue", "amenity": "restaurant", "cuisine": "american", "name": "Arbor", "phone": "+1-312-866-0795", "website": "http://www.arborprojects.com/"}}, {"type": "node", "id": 6263855094, "lat": 41.9390654, "lon": -87.6982113, "tags": {"addr:city": "Chicago", "addr:housenumber": "3188", "addr:postcode": "60618", "addr:state": "IL", "addr:street": "North Elston Avenue", "amenity": "restaurant", "name": "B\u2019el Bar + Kitchen", "phone": "+1-872-241-9032", "website": "https://www.belchicago.com/"}}, {"type": "node", "id": 6268240223, "lat": 41.9246574, "lon": -87.6930068, "tags": {"addr:city": "Chicago", "addr:housenumber": "2069", "addr:postcode": "60647", "addr:state": "IL", "addr:street": "North Rockwell Street", "amenity": "bar", "name": "Bob Inn", "website": "https://myspace.com/24939439"}}, {"type": "node", "id": 6280739326, "lat": 41.9251527, "lon": -87.6911495, "tags": {"addr:city": "Chicago", "addr:housenumber": "2524", "addr:postcode": "60647", "addr:state": "IL", "addr:street": "West Fullerton Avenue", "amenity": "cafe", "cuisine": "coffee_shop", "name": "Cherubs", "phone": "+1-773-235-8103"}}, {"type": "node", "id": 6282647776, "lat": 41.925444, "lon": -87.6792724, "tags": {"addr:city": "Chicago", "addr:housenumber": "2444", "addr:postcode": "60647", "addr:state": "IL", "addr:street": "North Elston Avenue", "amenity": "cafe", "name": "Chromium", "phone": "+1-773-235-2300", "website": "https://www.midtown.com/chicago"}}, {"type": "node", "id": 6284507622, "lat": 41.9391728, "lon": -87.6997382, "tags": {"addr:city": "Chicago", "addr:housenumber": "2849", "addr:postcode": "60618", "addr:state": "IL", "addr:street": "West Belmont Avenue", "amenity": "bar", "name": "DMen Tap", "phone": "+1-773-961-8757", "website": "http://www.dmentap.com/"}}, {"type": "node", "id": 6286662313, "lat": 41.9242728, "lon": -87.6990832, "tags": {"addr:city": "Chicago", "addr:housenumber": "2363", "addr:postcode": "60647", "addr:state": "IL", "addr:street": "North Milwaukee Avenue", "amenity": "bar", "name": "Emporium - Logan Square", "phone": "+1-773-360-8774", "website": "https://emporiumchicago.com/"}}, {"type": "node", "id": 6291502402, "lat": 41.9342762, "lon": -87.6905784, "tags": {"addr:city": "Chicago", "addr:housenumber": "290", "addr:postcode": "60618", "addr:state": "IL", "addr:street": "North Elston Avenue", "amenity": "bar", "name": "Frank and Mary\u2019s Tavern", "phone": "+1-773-463-8179"}}, {"type": "node", "id": 6297771040, "lat": 41.9393248, "lon": -87.6864334, "tags": {"addr:city": "Chicago", "addr:housenumber": "2319", "addr:postcode": "60618", "addr:state": "IL", "addr:street": "West Belmont Avenue", "amenity": "bar", "name": "Hungry Brain", "phone": "+1-773-687-8230", "website": "http://www.hungrybrainchicago.com/"}}, {"type": "node", "id": 6298848604, "lat": 41.9242137, "lon": -87.6989691, "tags": {"addr:city": "Chicago", "addr:housenumber": "2357", "addr:postcode": "60647", "addr:state": "IL", "addr:street": "North Milwaukee Avenue", "amenity": "bar", "name": "Slippery Slope", "phone": "+1-773-799-8504", "website": "http://www.slipperyslopechicago.com/"}}, {"type": "node", "id": 6299456746, "lat": 41.925907, "lon": -87.7017482, "tags": {"addr:city": "Chicago", "addr:housenumber": "2451", "addr:postcode": "60647", "addr:state": "IL", "addr:street": "North Milwaukee Avenue", "amenity": "restaurant", "cuisine": "pizza", "name": "Paulie Gee's", "phone": "+1-773-360-1072", "website": "https://pauliegee.com/"}}, {"type": "node", "id": 6300449137, "lat": 41.9392348, "lon": -87.6974398, "tags": {"addr:city": "Chicago", "addr:housenumber": "2755", "addr:postcode": "60618", "addr:state": "IL", "addr:street": "West Belmont Avenue", "amenity": "restaurant", "name": "Pisolino", "phone": "+1-773-293-6025", "website": "http://pisolinochicago.com/"}}, {"type": "node", "id": 6304083691, "lat": 41.9391867, "lon": -87.6975419, "tags": {"addr:city": "Chicago", "addr:housenumber": "3185", "addr:postcode": "60618", "addr:state": "IL", "addr:street": "North Elston Avenue", "amenity": "cafe", "name": "The Avondale Coffee Club", "phone": "+1-773-754-8140", "website": "https://www.avondalecoffeeclub.com/"}}, {"type": "node", "id": 6305257154, "lat": 41.9388637, "lon": -87.6972279, "tags": {"addr:city": "Chicago", "addr:housenumber": "3173", "addr:postcode": "60618", "addr:state": "IL", "addr:street": "North Elston Avenue", "amenity": "bar", "name": "The Beer Temple", "phone": "+1-773-754-0907", "website": "http://craftbeertemple.com/blog/"}}, {"type": "node", "id": 6306928757, "lat": 41.9258426, "lon": -87.7016794, "tags": {"addr:city": "Chicago", "addr:housenumber": "2445", "addr:postcode": "60647", "addr:state": "IL", "addr:street": "North Milwaukee Avenue", "amenity": "restaurant", "name": "Twain", "phone": "+1-773-697-8463", "website": "https://www.twainchicago.com/"}}, {"type": "node", "id": 6315665351, "lat": 41.925319, "lon": -87.7008542, "tags": {"addr:city": "Chicago", "addr:housenumber": "2417", "addr:postcode": "60647", "addr:state": "IL", "addr:street": "North Milwaukee Avenue", "amenity": "bar", "name": "The Native", "phone": "+1-872-206-5526", "website": "https://www.thenativechicago.com/"}}, {"type": "node", "id": 6320677445, "lat": 41.935612, "lon": -87.69751, "tags": {"addr:city": "Chicago", "addr:housenumber": "2959", "addr:postcode": "60618", "addr:state": "IL", "addr:street": "North California Avenue", "amenity": "bar", "name": "Ludlow Liquors", "phone": "+1-773-754-7492", "website": "https://www.ludlow-liquors.com/"}}, {"type": "node", "id": 6321460385, "lat": 41.9308446, "lon": -87.6911398, "tags": {"addr:city": "Chicago", "addr:housenumber": "2717", "addr:postcode": "60647", "addr:state": "IL", "addr:street": "North Maplewood Avenue", "amenity": "bar", "name": "Maplewood Brewery & Distillery", "phone": "+1-773-270-1061", "website": "http://www.maplewoodbrew.com/"}}, {"type": "node", "id": 6322596969, "lat": 41.9375004, "lon": -87.6925691, "tags": {"addr:city": "Chicago", "addr:housenumber": "3057", "addr:postcode": "60618", "addr:state": "IL", "addr:street": "North Rockwell Street", "amenity": "bar", "name": "Metropolitan Brewing Taproom", "phone": "+1-773-754-0494", "website": "http://metrobrewing.com/"}}, {"type": "node", "id": 6322602685, "lat": 41.9289091, "lon": -87.6977086, "tags": {"addr:city": "Chicago", "addr:housenumber": "2800", "addr:postcode": "60647", "addr:state": "IL", "addr:street": "West Logan Boulevard", "amenity": "restaurant", "cuisine": "mexican", "name": "Mi Tocaya Antojer\u00eda", "opening_hours": "Tu-Th 17:00-22:00; Fr-Sa 17:00-23:00; Su 17:00-21:00", "phone": "+1-872-315-3947", "website": "http://www.mitocaya.com"}}, {"type": "node", "id": 6323011945, "lat": 41.9356744, "lon": -87.692579, "tags": {"addr:city": "Chicago", "addr:housenumber": "2977", "addr:postcode": "60618", "addr:state": "IL", "addr:street": "North Elston Avenue", "amenity": "bar", "name": "\u00d1", "phone": "+1-773-866-9898", "website": "http://www.barranchicago.com/"}}, {"type": "node", "id": 6323066697, "lat": 41.9405281, "lon": -87.7002989, "tags": {"addr:city": "Chicago", "addr:housenumber": "3256", "addr:postcode": "60618", "addr:state": "IL", "addr:street": "North Elston Avenue", "amenity": "bar", "name": "Nelly\u2019s Saloon", "phone": "+1-773-588-4494"}}, {"type": "node", "id": 6324382907, "lat": 41.9276471, "lon": -87.6977733, "tags": {"addr:city": "Chicago", "addr:housenumber": "2532", "addr:postcode": "60647", "addr:state": "IL", "addr:street": "North California Avenue", "amenity": "restaurant", "name": "Landbirds", "phone": "+1-773-697-7107", "website": "http://www.landbirdschicago.com/"}}, {"type": "node", "id": 6324391369, "lat": 41.9245086, "lon": -87.6995198, "tags": {"addr:city": "Chicago", "addr:housenumber": "2375", "addr:postcode": "60647", "addr:state": "IL", "addr:street": "North Milwaukee Avenue", "amenity": "restaurant", "name": "The Radler", "phone": "+1-773-276-0270", "website": "https://www.dasradler.com/"}}, {"type": "node", "id": 6842444176, "lat": 41.924633, "lon": -87.6989436, "tags": {"addr:city": "Chicago", "addr:housenumber": "2839", "addr:postcode": "60647", "addr:state": "IL", "addr:street": "West Fullerton Avenue", "amenity": "cafe", "brand": "La Colombe Coffee Roasters", "brand:wikidata": "Q23461663", "brand:wikipedia": "en:La Colombe Coffee Roasters", "cuisine": "coffee_shop", "name": "La Colombe Coffee Roasters", "short_name": "La Colombe", "takeaway": "yes"}}, {"type": "node", "id": 6955522307, "lat": 41.9427233, "lon": -87.6933402}, {"type": "node", "id": 6955522338, "lat": 41.944547, "lon": -87.6914964}, {"type": "node", "id": 6955522339, "lat": 41.9445432, "lon": -87.6921235}, {"type": "node", "id": 6955522345, "lat": 41.9436637, "lon": -87.6921836}, {"type": "node", "id": 6955522346, "lat": 41.9438043, "lon": -87.6920938}, {"type": "node", "id": 6955522589, "lat": 41.9433808, "lon": -87.6929422}, {"type": "node", "id": 6970050101, "lat": 41.9426566, "lon": -87.6932905}, {"type": "node", "id": 6970050102, "lat": 41.9417606, "lon": -87.6930081}, {"type": "node", "id": 6970050103, "lat": 41.9417148, "lon": -87.6930102}, {"type": "node", "id": 6970050104, "lat": 41.9416698, "lon": -87.6930058}, {"type": "node", "id": 6970050106, "lat": 41.9407922, "lon": -87.6922262}, {"type": "node", "id": 6970050107, "lat": 41.9408668, "lon": -87.6928247}, {"type": "node", "id": 6970050108, "lat": 41.9410748, "lon": -87.6929849}, {"type": "node", "id": 6970050109, "lat": 41.9426895, "lon": -87.693315}, {"type": "node", "id": 6970050125, "lat": 41.9425108, "lon": -87.6908109}, {"type": "node", "id": 6970050126, "lat": 41.9407985, "lon": -87.6909445}, {"type": "node", "id": 6970050143, "lat": 41.9407926, "lon": -87.6921474}, {"type": "node", "id": 6970050165, "lat": 41.9420199, "lon": -87.6930241}, {"type": "node", "id": 6970050176, "lat": 41.9425245, "lon": -87.6932027}, {"type": "node", "id": 6970050178, "lat": 41.9426245, "lon": -87.6932679}, {"type": "node", "id": 7182570708, "lat": 41.9325338, "lon": -87.6789663, "tags": {"addr:city": "Chicago", "addr:housenumber": "2000", "addr:postcode": "60614", "addr:state": "IL", "addr:street": "West Diversey Parkway", "amenity": "cafe", "name": "Hexe Coffee Co.", "website": "https://www.hexecoffee.com"}}, {"type": "way", "id": 209405301, "nodes": [2196231356, 2196231359, 2196231402, 2196231405, 2196231378, 2196231368, 2196231387, 2196231382, 2196231455, 2196231485, 2196231640, 2196231710, 2196231762, 2196231771, 2196231531, 2196231530, 2196231381, 2196231383, 2196231356], "tags": {"addr:housenumber": "2331", "addr:street": "North California Avenue", "addr:street:name": "California", "addr:street:prefix": "North", "addr:street:type": "Avenue", "amenity": "restaurant", "building": "yes", "building:levels": "3", "chicago:building_id": "267027", "cuisine": "mexican", "name": "Don Chema"}}, {"type": "way", "id": 209454050, "nodes": [2196695766, 2196697466, 2196697314, 2196697224, 2196696471, 2196696452, 2196696257, 2196695425, 2196695561, 2196695766], "tags": {"addr:housenumber": "2359-2361", "addr:street": "North Milwaukee Avenue", "addr:street:name": "Milwaukee", "addr:street:prefix": "North", "addr:street:type": "Avenue", "amenity": "bar", "building": "yes", "building:levels": "1", "chicago:building_id": "850887", "name": "Chicago Distilling Company"}}, {"type": "way", "id": 209454070, "nodes": [2196700902, 2196701484, 2196701487, 2196702206, 2196702217, 2196700904, 2196700902], "tags": {"addr:housenumber": "2410", "addr:street": "West Fullerton Avenue", "addr:street:name": "Fullerton", "addr:street:prefix": "West", "addr:street:type": "Avenue", "amenity": "bar", "building": "yes", "building:levels": "2", "chicago:building_id": "262840", "name": "Logan Arcade"}}, {"type": "way", "id": 209454109, "nodes": [2196726093, 2196726258, 2196726256, 2196726343, 2196726355, 2196726113, 2196726093], "tags": {"addr:city": "Chicago", "addr:housenumber": "2416-2422", "addr:postcode": "60647", "addr:state": "IL", "addr:street": "West Schubert Avenue", "addr:street:name": "Schubert", "addr:street:prefix": "West", "addr:street:type": "Avenue", "amenity": "restaurant", "building": "yes", "building:levels": "1", "chicago:building_id": "246789", "cuisine": "barbecue", "name": "Fat Willy\u2019s Rib Shack", "phone": "+1-773-782-1800", "website": "https://www.fatwillys.com/"}}, {"type": "way", "id": 209454230, "nodes": [2196706116, 2196706393, 2196706420, 2196706176, 2196706116], "tags": {"addr:housenumber": "2428", "addr:street": "North Western Avenue", "addr:street:name": "Western", "addr:street:prefix": "North", "addr:street:type": "Avenue", "amenity": "bar", "building": "yes", "building:levels": "1", "chicago:building_id": "261401", "name": "The Mutiny"}}, {"type": "way", "id": 209454505, "nodes": [2196712373, 2196713072, 2196713835, 2196713554, 2196713167, 2196712999, 2196713586, 2196712373], "tags": {"addr:city": "Chicago", "addr:housenumber": "2475", "addr:postcode": "60618", "addr:street": "North Milwaukee Avenue", "addr:street:name": "Milwaukee", "addr:street:prefix": "North", "addr:street:type": "Avenue", "amenity": "restaurant", "building": "yes", "building:levels": "1", "chicago:building_id": "258658", "cuisine": "italian", "name": "Marcello's Father & Son Restaurant", "outdoor_seating": "no", "smoking": "no", "takeaway": "yes"}}, {"type": "way", "id": 209455839, "nodes": [2196733822, 2196733985, 2196734001, 2196734010, 2196734021, 2196734036, 2196734041, 2196734046, 2196734045, 2196734040, 2196734025, 2196734049, 2196733857, 2196733822], "tags": {"addr:city": "Chicago", "addr:housenumber": "2957", "addr:postcode": "60647", "addr:state": "IL", "addr:street": "West Diversey Avenue", "addr:street:name": "Sacramento", "addr:street:prefix": "North", "addr:street:type": "Avenue", "amenity": "restaurant", "building": "yes", "chicago:building_id": "242498", "cuisine": "asian", "name": "Fat Rice", "phone": "+1-773-661-9170", "website": "http://www.eatfatrice.com"}}, {"type": "way", "id": 209455856, "nodes": [2196735080, 2196735239, 2196735242, 2196735382, 2196735386, 2196735356, 2196735246, 2196735244, 2196735084, 2196735080], "tags": {"addr:city": "Chicago", "addr:housenumber": "2406", "addr:postcode": "60618", "addr:state": "IL", "addr:street": "West Diversey Parkway", "addr:street:name": "Western", "addr:street:prefix": "North", "addr:street:type": "Avenue", "amenity": "restaurant", "building": "yes", "building:levels": "1", "chicago:building_id": "240885", "cuisine": "breakfast;american", "name": "Golden Nugget"}}, {"type": "way", "id": 209455931, "nodes": [2196734852, 2196735073, 2196735074, 2196735349, 2196735348, 2196735588, 2196735590, 2196734859, 2196734852], "tags": {"addr:city": "Chicago", "addr:housenumber": "2818", "addr:street": "West Diversey Avenue", "addr:street:name": "Diversey", "addr:street:prefix": "West", "addr:street:type": "Avenue", "amenity": "restaurant", "brand": "IHOP", "brand:wikidata": "Q1185675", "brand:wikipedia": "en:IHOP", "building": "yes", "building:levels": "1", "chicago:building_id": "240772", "cuisine": "breakfast;pancake", "delivery": "no", "name": "IHOP"}}, {"type": "way", "id": 209456231, "nodes": [2196696161, 2196697718, 2196697732, 2196698996, 2196699000, 2196697476, 2196697468, 2196695766, 2196696161], "tags": {"addr:housenumber": "2841-2843", "addr:street": "West Fullerton Avenue", "addr:street:name": "Fullerton", "addr:street:prefix": "West", "addr:street:type": "Avenue", "amenity": "bar", "building": "yes", "building:levels": "1", "chicago:building_id": "850893", "name": "Emporium Logan Square"}}, {"type": "way", "id": 209457311, "nodes": [2196751322, 2196751525, 2196751704, 2196751467, 2196751322], "tags": {"addr:city": "Chicago", "addr:housenumber": "3101", "addr:postcode": "60618", "addr:state": "IL", "addr:street": "North Clybourn Avenue", "addr:street:name": "Clybourn", "addr:street:prefix": "North", "addr:street:type": "Avenue", "amenity": "restaurant", "building": "yes", "building:levels": "1", "chicago:building_id": "217146", "cuisine": "Cuban", "name": "90 Miles"}}, {"type": "way", "id": 209464798, "nodes": [2196787752, 2196787760, 2196787647, 2196787638, 2196787653, 2196787651, 2196787640, 2196787631, 2196787746, 2196787752], "tags": {"addr:city": "Chicago", "addr:housenumber": "3251", "addr:postcode": "60618", "addr:state": "IL", "addr:street": "North Western Avenue", "addr:street:name": "Western", "addr:street:prefix": "North", "addr:street:type": "Avenue", "amenity": "bar", "building": "yes", "building:levels": "2", "chicago:building_id": "857907", "name": "Blue Light", "phone": "+1-773-755-5875", "website": "bluelightchicago.com"}}, {"type": "way", "id": 209885839, "nodes": [2200391526, 2200391693, 2200391751, 2200391864, 2200391880, 2200392234, 2200392245, 2200392290, 2200392341, 2200392339, 2200392308, 2200392311, 2200392173, 2200392174, 2200392021, 2200392020, 2200391950, 2200391936, 2200391887, 2200391876, 2200391530, 2200391526], "tags": {"addr:housenumber": "3155-3159", "addr:street": "North Leavitt Street", "addr:street:name": "Leavitt", "addr:street:prefix": "North", "addr:street:type": "Street", "amenity": "cafe", "brand": "Starbucks", "brand:wikidata": "Q37158", "brand:wikipedia": "en:Starbucks", "building": "yes", "building:levels": "2", "chicago:building_id": "211602", "cuisine": "coffee_shop", "name": "Starbucks", "official_name": "Starbucks Coffee", "takeaway": "yes"}}, {"type": "way", "id": 254362318, "nodes": [2393685997, 6955522589, 3567139344, 3555057622, 3555057623, 3555057614, 6955522307, 6970050109, 6970050101, 6970050178, 3555057613, 6970050176, 3555057612, 3555057611, 3555057610, 6970050165, 3555057609, 6970050102, 6970050103, 6970050104, 2601552516, 6970050108, 2601552515, 2601552514, 6970050107, 2601552513, 2601552511, 2601552510, 6970050106, 6970050143, 6970050126, 2601552512, 2601552517, 6970050125, 3555057608, 2393667680, 2393667751, 2404188173, 6955522338, 6955522339, 6955522346, 6955522345, 2393686008, 2393685997], "tags": {"alt_name": "DeVry University Chicago Campus", "amenity": "university", "brand": "DeVry University", "brand:wikidata": "Q3298441", "brand:wikipedia": "en:DeVry University", "ele": "181", "gnis:county_id": "031", "gnis:created": "04/01/1999", "gnis:feature_id": "1826161", "gnis:state_id": "17", "name": "DeVry University", "short_name": "DeVry", "website": "https://www.devry.edu/about/campus-locations/illinois/chicago.html"}}, {"type": "way", "id": 351505403, "nodes": [3572965495, 3572965496, 3572965497, 3572965498, 3572965495], "tags": {"addr:city": "Chicago", "addr:housenumber": "2700", "addr:postcode": "60647", "addr:state": "IL", "addr:street": "North Western Avenue", "amenity": "restaurant", "building": "yes", "cuisine": "british", "name": "Owen & Engine", "phone": "+1-773-235-2930", "website": "https://www.owenandengine.com"}}]}