{"version": 0.6, "generator": "Overpass API 0.7.56.1004 6cd3eaec", "osm3s": {"timestamp_osm_base": "2020-07-22T04:53:03Z", "copyright": "The data included in this document is from www.openstreetmap.org. The data is made available under ODbL."}, "elements": [{"type": "node", "id": 5635711630, "lat": 41.7626616, "lon": -87.5767553, "tags": {"addr:housenumber": "1966", "addr:street": "East 73rd Street", "amenity": "restaurant", "cuisine": "vegetarian", "name": "Good Foods Vegan/Vegetarian Deli", "website": "https://www.facebook.com/pages/Good-Foods-VeganVegetarian-Deli/407099532698141"}}, {"type": "node", "id": 6154492739, "lat": 41.7588656, "lon": -87.5909705, "tags": {"addr:city": "Chicago", "addr:housenumber": "1358", "addr:postcode": "60619", "addr:state": "IL", "addr:street": "East 75th Street", "amenity": "restaurant", "name": "Chuckies Grill"}}, {"type": "node", "id": 6283066010, "lat": 41.7589794, "lon": -87.5870686, "tags": {"addr:city": "Chicago", "addr:housenumber": "1530", "addr:postcode": "60619", "addr:state": "IL", "addr:street": "East 75th Street", "amenity": "bar", "name": "Club Escape", "phone": "+1-773-599-9372"}}, {"type": "node", "id": 6294310786, "lat": 41.7513951, "lon": -87.5789625, "tags": {"addr:city": "Chicago", "addr:housenumber": "1849", "addr:postcode": "60649", "addr:state": "IL", "addr:street": "East 79th Street", "amenity": "cafe", "name": "Heritage Cafe", "phone": "+1-773-530-0045", "website": "https://heritage1849.com/"}}, {"type": "node", "id": 6301778282, "lat": 41.7472739, "lon": -87.5861365, "tags": {"addr:city": "Chicago", "addr:housenumber": "8114", "addr:postcode": "60617", "addr:state": "IL", "addr:street": "South Stony Island Avenue", "amenity": "cafe", "name": "Stony\u2019s Palace Cafe", "phone": "+1-773-978-4535", "website": "https://www.stonyspalace.com/"}}, {"type": "node", "id": 6566849013, "lat": 41.7515441, "lon": -87.5950635, "tags": {"addr:city": "Chicago", "addr:housenumber": "1200", "addr:postcode": "60619", "addr:state": "IL", "addr:street": "East 79th Street", "amenity": "restaurant", "description": "The Woodlawn is a shared kitchen that also has temporary (popup) restaurants.", "name": "The Woodlawn", "phone": "+1-708-986-3008"}}]}