{"version": 0.6, "generator": "Overpass API 0.7.56.3 eb200aeb", "osm3s": {"timestamp_osm_base": "2020-07-04T04:38:02Z", "copyright": "The data included in this document is from www.openstreetmap.org. The data is made available under ODbL."}, "elements": [{"type": "node", "id": 347159885, "lat": 41.9112846, "lon": -87.6348689, "tags": {"addr:city": "Chicago", "addr:country": "US", "addr:housenumber": "210", "addr:postcode": "60610", "addr:state": "IL", "addr:street": "West North Avenue", "amenity": "cafe", "brand": "Starbucks", "brand:wikidata": "Q37158", "brand:wikipedia": "en:Starbucks", "cuisine": "coffee_shop", "entrance": "yes", "name": "Starbucks", "official_name": "Starbucks Coffee", "takeaway": "yes"}}, {"type": "node", "id": 1722519093, "lat": 41.8916803, "lon": -87.6280028, "tags": {"name": "Grand", "network": "CTA", "operator": "Chicago Transit Authority", "public_transport": "stop_position", "subway": "yes"}}, {"type": "node", "id": 1722519094, "lat": 41.8923658, "lon": -87.6280256}, {"type": "node", "id": 1722519095, "lat": 41.8941368, "lon": -87.6280738}, {"type": "node", "id": 1722519096, "lat": 41.8956562, "lon": -87.6281074}, {"type": "node", "id": 1722519098, "lat": 41.8991325, "lon": -87.6282426}, {"type": "node", "id": 1722519099, "lat": 41.9002577, "lon": -87.6282758}, {"type": "node", "id": 1722519100, "lat": 41.9021163, "lon": -87.6283264}, {"type": "node", "id": 1722519101, "lat": 41.9031594, "lon": -87.6285986}, {"type": "node", "id": 1722519102, "lat": 41.9036384, "lon": -87.6286209}, {"type": "node", "id": 1722519103, "lat": 41.9037521, "lon": -87.628645}, {"type": "node", "id": 1722519104, "lat": 41.9037994, "lon": -87.6389283}, {"type": "node", "id": 1722519105, "lat": 41.9037997, "lon": -87.6392287}, {"type": "node", "id": 1722519106, "lat": 41.9038145, "lon": -87.6286733}, {"type": "node", "id": 1722519107, "lat": 41.9038337, "lon": -87.6369522}, {"type": "node", "id": 1722519108, "lat": 41.9038426, "lon": -87.6394772}, {"type": "node", "id": 1722519109, "lat": 41.9038772, "lon": -87.6344418}, {"type": "node", "id": 1722519110, "lat": 41.9038662, "lon": -87.6287234}, {"type": "node", "id": 1722519111, "lat": 41.903899, "lon": -87.6287809}, {"type": "node", "id": 1722519112, "lat": 41.9039265, "lon": -87.6396838}, {"type": "node", "id": 1722519113, "lat": 41.9039242, "lon": -87.6315435, "tags": {"name": "Clark/Division", "network": "CTA", "operator": "Chicago Transit Authority", "public_transport": "stop_position", "railway": "stop", "subway": "yes"}}, {"type": "node", "id": 1722519114, "lat": 41.9039447, "lon": -87.6288934}, {"type": "node", "id": 1722519115, "lat": 41.9039593, "lon": -87.6290546}, {"type": "node", "id": 1722519116, "lat": 41.9040626, "lon": -87.6399047}, {"type": "node", "id": 1722519118, "lat": 41.9080759, "lon": -87.645517}, {"type": "node", "id": 1724441444, "lat": 41.9106374, "lon": -87.6345311, "tags": {"addr:city": "Chicago", "addr:housename": "1551", "addr:housenumber": "1551", "addr:postcode": "60610", "addr:state": "IL", "addr:street": "North Wells Street", "amenity": "restaurant", "cuisine": "pizza;italian", "name": "Dinotto", "opening_hours": "Tu-Th 16:30-22:00; Fr-Sa 12:00-22:00; Su 16:00-22:00", "phone": "+1-312-202-0302", "website": "https://dinotto.business.site/"}}, {"type": "node", "id": 1724441449, "lat": 41.9105842, "lon": -87.6345302, "tags": {"addr:city": "Chicago", "addr:country": "US", "addr:housenumber": "1549", "addr:state": "IL", "addr:street": "North Wells Street", "amenity": "restaurant", "cuisine": "sandwich", "name": "Einstein Bagels"}}, {"type": "node", "id": 2086708645, "lat": 41.9115662, "lon": -87.6345885}, {"type": "node", "id": 2086708647, "lat": 41.9115704, "lon": -87.6342839}, {"type": "node", "id": 2086708649, "lat": 41.9116319, "lon": -87.6345901}, {"type": "node", "id": 2086708650, "lat": 41.9116361, "lon": -87.6342855}, {"type": "node", "id": 2166039808, "lat": 41.9098892, "lon": -87.6351894}, {"type": "node", "id": 2166039809, "lat": 41.90989, "lon": -87.6348596}, {"type": "node", "id": 2166039810, "lat": 41.9100235, "lon": -87.63519}, {"type": "node", "id": 2166039811, "lat": 41.9100237, "lon": -87.6351024}, {"type": "node", "id": 2166039813, "lat": 41.9100922, "lon": -87.6351027}, {"type": "node", "id": 2166039815, "lat": 41.9100927, "lon": -87.6348605}, {"type": "node", "id": 2166039854, "lat": 41.9106416, "lon": -87.6351225}, {"type": "node", "id": 2166039855, "lat": 41.9106425, "lon": -87.635053}, {"type": "node", "id": 2166039857, "lat": 41.9106453, "lon": -87.6348451}, {"type": "node", "id": 2166039861, "lat": 41.9106971, "lon": -87.6351239}, {"type": "node", "id": 2166039862, "lat": 41.9107008, "lon": -87.6348464}, {"type": "node", "id": 2207604483, "lat": 41.9016614, "lon": -87.6281971}, {"type": "node", "id": 2207604487, "lat": 41.9016647, "lon": -87.6281282}, {"type": "node", "id": 2207604493, "lat": 41.9016763, "lon": -87.6278065}, {"type": "node", "id": 2207604498, "lat": 41.9016782, "lon": -87.6276633}, {"type": "node", "id": 2207604503, "lat": 41.9016833, "lon": -87.627823}, {"type": "node", "id": 2207604504, "lat": 41.9016868, "lon": -87.6274847}, {"type": "node", "id": 2207604505, "lat": 41.9016898, "lon": -87.6273507}, {"type": "node", "id": 2207604510, "lat": 41.9016998, "lon": -87.6278302}, {"type": "node", "id": 2207604511, "lat": 41.9017061, "lon": -87.6282009}, {"type": "node", "id": 2207604512, "lat": 41.9017081, "lon": -87.6278429}, {"type": "node", "id": 2207604513, "lat": 41.9017093, "lon": -87.628132}, {"type": "node", "id": 2207604514, "lat": 41.9017107, "lon": -87.6276634}, {"type": "node", "id": 2207604515, "lat": 41.9017146, "lon": -87.6274859}, {"type": "node", "id": 2207604516, "lat": 41.9017143, "lon": -87.6275004}, {"type": "node", "id": 2207604517, "lat": 41.9017177, "lon": -87.6278502}, {"type": "node", "id": 2207604518, "lat": 41.9017205, "lon": -87.627852}, {"type": "node", "id": 2207604695, "lat": 41.9018569, "lon": -87.6276708}, {"type": "node", "id": 2207604696, "lat": 41.9018616, "lon": -87.6275064}, {"type": "node", "id": 2207604697, "lat": 41.9018674, "lon": -87.6278595}, {"type": "node", "id": 2207604698, "lat": 41.9018677, "lon": -87.6275067}, {"type": "node", "id": 2207604701, "lat": 41.9018703, "lon": -87.627674}, {"type": "node", "id": 2207604702, "lat": 41.9018711, "lon": -87.6273581}, {"type": "node", "id": 2207604703, "lat": 41.9018732, "lon": -87.6279201}, {"type": "node", "id": 2207604704, "lat": 41.9018742, "lon": -87.6278613}, {"type": "node", "id": 2207605389, "lat": 41.9025321, "lon": -87.6286255}, {"type": "node", "id": 2207605390, "lat": 41.9025322, "lon": -87.628642}, {"type": "node", "id": 2207605395, "lat": 41.902528, "lon": -87.6291447}, {"type": "node", "id": 2207605398, "lat": 41.902532, "lon": -87.6285681}, {"type": "node", "id": 2207605614, "lat": 41.9027025, "lon": -87.6291512}, {"type": "node", "id": 2207605631, "lat": 41.902705, "lon": -87.6289318}, {"type": "node", "id": 2207605641, "lat": 41.9027089, "lon": -87.6286203}, {"type": "node", "id": 2207608395, "lat": 41.9050307, "lon": -87.6350389}, {"type": "node", "id": 2207608406, "lat": 41.9050381, "lon": -87.634666}, {"type": "node", "id": 2207608564, "lat": 41.9050966, "lon": -87.6350233}, {"type": "node", "id": 2207608565, "lat": 41.9050962, "lon": -87.6350412}, {"type": "node", "id": 2207608584, "lat": 41.9051036, "lon": -87.6346683}, {"type": "node", "id": 2207608926, "lat": 41.9052211, "lon": -87.6348978}, {"type": "node", "id": 2207608949, "lat": 41.9052256, "lon": -87.6346727}, {"type": "node", "id": 2207609009, "lat": 41.9052681, "lon": -87.6348995}, {"type": "node", "id": 2207609010, "lat": 41.9052679, "lon": -87.6349087}, {"type": "node", "id": 2207609030, "lat": 41.9052784, "lon": -87.6348583}, {"type": "node", "id": 2207609040, "lat": 41.905282, "lon": -87.6346747}, {"type": "node", "id": 2207609057, "lat": 41.9052917, "lon": -87.6348588}, {"type": "node", "id": 2207609060, "lat": 41.9052907, "lon": -87.6349095}, {"type": "node", "id": 2207609172, "lat": 41.9053678, "lon": -87.6350447}, {"type": "node", "id": 2207609174, "lat": 41.9053698, "lon": -87.6349183}, {"type": "node", "id": 2207609177, "lat": 41.9053694, "lon": -87.6349183}, {"type": "node", "id": 2207609180, "lat": 41.9053714, "lon": -87.6347878}, {"type": "node", "id": 2207609186, "lat": 41.9053717, "lon": -87.6347592}, {"type": "node", "id": 2207609188, "lat": 41.9053728, "lon": -87.6346746}, {"type": "node", "id": 2207609269, "lat": 41.9054415, "lon": -87.6350463}, {"type": "node", "id": 2207609270, "lat": 41.9054429, "lon": -87.6349285}, {"type": "node", "id": 2207609278, "lat": 41.9054461, "lon": -87.6346763}, {"type": "node", "id": 2207635538, "lat": 41.907732, "lon": -87.6344762}, {"type": "node", "id": 2207635541, "lat": 41.9077358, "lon": -87.6341393}, {"type": "node", "id": 2207635615, "lat": 41.9078347, "lon": -87.6341407}, {"type": "node", "id": 2207635617, "lat": 41.9078376, "lon": -87.634469}, {"type": "node", "id": 2207635618, "lat": 41.9078253, "lon": -87.6344782}, {"type": "node", "id": 2207637696, "lat": 41.9090034, "lon": -87.6341272}, {"type": "node", "id": 2207637705, "lat": 41.909016, "lon": -87.6341274}, {"type": "node", "id": 2207637706, "lat": 41.909016, "lon": -87.6341331}, {"type": "node", "id": 2207637782, "lat": 41.9090487, "lon": -87.6342489}, {"type": "node", "id": 2207637785, "lat": 41.909049, "lon": -87.6342002}, {"type": "node", "id": 2207637813, "lat": 41.9090601, "lon": -87.6344978}, {"type": "node", "id": 2207637819, "lat": 41.9090613, "lon": -87.634249}, {"type": "node", "id": 2207637826, "lat": 41.9090661, "lon": -87.6342003}, {"type": "node", "id": 2207637827, "lat": 41.9090665, "lon": -87.6341336}, {"type": "node", "id": 2207638953, "lat": 41.9097401, "lon": -87.6345198}, {"type": "node", "id": 2207638957, "lat": 41.9097469, "lon": -87.6342361}, {"type": "node", "id": 2207638967, "lat": 41.9097543, "lon": -87.6339208}, {"type": "node", "id": 2207638968, "lat": 41.9097544, "lon": -87.6339318}, {"type": "node", "id": 2207639299, "lat": 41.9099564, "lon": -87.6345238}, {"type": "node", "id": 2207639310, "lat": 41.9099639, "lon": -87.6339253}, {"type": "node", "id": 2207640348, "lat": 41.9107678, "lon": -87.634064}, {"type": "node", "id": 2207640351, "lat": 41.9107718, "lon": -87.6338215}, {"type": "node", "id": 2207640358, "lat": 41.9107802, "lon": -87.6340786}, {"type": "node", "id": 2207640378, "lat": 41.9108036, "lon": -87.6340783}, {"type": "node", "id": 2207640380, "lat": 41.9108046, "lon": -87.6340214}, {"type": "node", "id": 2207640484, "lat": 41.911042, "lon": -87.634028}, {"type": "node", "id": 2207640485, "lat": 41.9110449, "lon": -87.6338295}, {"type": "node", "id": 2295332892, "lat": 41.9017355, "lon": -87.6217968}, {"type": "node", "id": 2295332893, "lat": 41.9017762, "lon": -87.6217782}, {"type": "node", "id": 2295332894, "lat": 41.901808, "lon": -87.6220791}, {"type": "node", "id": 2295332895, "lat": 41.9018526, "lon": -87.6219227}, {"type": "node", "id": 2295332897, "lat": 41.9018481, "lon": -87.6218175}, {"type": "node", "id": 2295332898, "lat": 41.9018645, "lon": -87.6218884}, {"type": "node", "id": 2295332899, "lat": 41.9018778, "lon": -87.6220247}, {"type": "node", "id": 2368691222, "lat": 41.8916917, "lon": -87.6281434, "tags": {"name": "Grand", "network": "CTA", "operator": "Chicago Transit Authority", "public_transport": "stop_position", "subway": "yes"}}, {"type": "node", "id": 2368691921, "lat": 41.895654, "lon": -87.6282306}, {"type": "node", "id": 2368691924, "lat": 41.8923536, "lon": -87.6281542}, {"type": "node", "id": 2368691925, "lat": 41.8941416, "lon": -87.6281957}, {"type": "node", "id": 2368694112, "lat": 41.9038322, "lon": -87.634469}, {"type": "node", "id": 2368694113, "lat": 41.9038871, "lon": -87.6397384}, {"type": "node", "id": 2368694114, "lat": 41.9037547, "lon": -87.6392626}, {"type": "node", "id": 2368694115, "lat": 41.9037887, "lon": -87.6369794}, {"type": "node", "id": 2368694116, "lat": 41.9106286, "lon": -87.649211}, {"type": "node", "id": 2368694117, "lat": 41.9045545, "lon": -87.6407198}, {"type": "node", "id": 2368694118, "lat": 41.9040132, "lon": -87.6399655}, {"type": "node", "id": 2368694121, "lat": 41.9021154, "lon": -87.6284294}, {"type": "node", "id": 2368694123, "lat": 41.9038832, "lon": -87.6313692, "tags": {"name": "Clark/Division", "network": "CTA", "operator": "Chicago Transit Authority", "public_transport": "stop_position", "railway": "stop", "subway": "yes"}}, {"type": "node", "id": 2368694124, "lat": 41.9038012, "lon": -87.6287717}, {"type": "node", "id": 2368694125, "lat": 41.9039005, "lon": -87.6289597}, {"type": "node", "id": 2368694127, "lat": 41.9080409, "lon": -87.6455789}, {"type": "node", "id": 2368694130, "lat": 41.9039091, "lon": -87.6291132}, {"type": "node", "id": 2368694131, "lat": 41.9096816, "lon": -87.647888}, {"type": "node", "id": 2368694132, "lat": 41.9037996, "lon": -87.6395229}, {"type": "node", "id": 2368694135, "lat": 41.9038712, "lon": -87.6288605}, {"type": "node", "id": 2368694137, "lat": 41.9037544, "lon": -87.6389561}, {"type": "node", "id": 2368694143, "lat": 41.9036379, "lon": -87.6287239}, {"type": "node", "id": 2368694147, "lat": 41.9037465, "lon": -87.6287469}, {"type": "node", "id": 2368694149, "lat": 41.9031582, "lon": -87.6287015}, {"type": "node", "id": 2368694151, "lat": 41.9002598, "lon": -87.6283789}, {"type": "node", "id": 2368694153, "lat": 41.9038444, "lon": -87.6288136}, {"type": "node", "id": 2368694155, "lat": 41.8991341, "lon": -87.6283457}, {"type": "node", "id": 2393465770, "lat": 41.912499, "lon": -87.6345793, "tags": {"addr:city": "Chicago", "addr:country": "US", "addr:housenumber": "1647", "addr:state": "IL", "addr:street": "North Wells Street", "amenity": "bar", "entrance": "yes"}}, {"type": "node", "id": 2393465775, "lat": 41.9096394, "lon": -87.6348401, "tags": {"addr:city": "Chicago", "addr:country": "US", "addr:housenumber": "1514", "addr:postcode": "60610", "addr:state": "IL", "addr:street": "North Wells Street", "amenity": "restaurant", "cuisine": "italian", "name": "Topo Gigio Ristorante", "opening_hours": "Mo-Sa 11:30-22:30; Su 16:00-21:30", "phone": "+1-312-266-9355", "website": "https://www.topogigiochicago.com/"}}, {"type": "node", "id": 2393465796, "lat": 41.9090017, "lon": -87.6344973}, {"type": "node", "id": 2393465797, "lat": 41.9090029, "lon": -87.6342414}, {"type": "node", "id": 2400890638, "lat": 41.9056981, "lon": -87.6421541}, {"type": "node", "id": 2400890639, "lat": 41.9046129, "lon": -87.6406644}, {"type": "node", "id": 2465890859, "lat": 41.9037941, "lon": -87.6301786, "tags": {"amenity": "cafe", "brand": "Starbucks", "brand:wikidata": "Q37158", "brand:wikipedia": "en:Starbucks", "cuisine": "coffee_shop", "name": "Starbucks", "official_name": "Starbucks Coffee", "takeaway": "yes"}}, {"type": "node", "id": 2480104438, "lat": 41.9040444, "lon": -87.6346483, "tags": {"addr:city": "Chicago", "addr:housenumber": "1202", "addr:postcode": "60610", "addr:state": "IL", "addr:street": "North Wells Street", "amenity": "restaurant", "cuisine": "english", "name": "Glunz Tavern", "opening_hours": "Tu-Th 17:00-00:00; Fr 12:00-02:00; Sa 10:00-02:00; Su 10:00-23:00", "phone": "+1-312-642-3001", "website": "http://www.glunztavern.com"}}, {"type": "node", "id": 2521766275, "lat": 41.911036, "lon": -87.6327641, "tags": {"addr:city": "Chicago", "addr:country": "US", "addr:housenumber": "129", "addr:street": "West North Avenue", "amenity": "restaurant", "cuisine": "chinese", "name": "Peking Chinese Restaurant"}}, {"type": "node", "id": 3076177733, "lat": 41.9017806, "lon": -87.628498, "tags": {"amenity": "restaurant", "name": "Dublins Bar and Grill"}}, {"type": "node", "id": 3364476958, "lat": 41.9005334, "lon": -87.6259823, "tags": {"addr:city": "Chicago", "addr:housenumber": "57", "addr:postcode": "60611", "addr:state": "IL", "addr:street": "East Oak Street", "amenity": "restaurant", "cuisine": "french", "name": "La Colonial", "phone": "+1-312-255-0088", "website": "http://www.lecolonialchicago.com"}}, {"type": "node", "id": 3364504895, "lat": 41.9009817, "lon": -87.6273639, "tags": {"amenity": "cafe", "brand": "Starbucks", "brand:wikidata": "Q37158", "brand:wikipedia": "en:Starbucks", "cuisine": "coffee_shop", "name": "Starbucks", "official_name": "Starbucks Coffee", "takeaway": "yes"}}, {"type": "node", "id": 3575173108, "lat": 41.8997553, "lon": -87.627613, "tags": {"amenity": "bar", "name": "Bernard's Bar"}}, {"type": "node", "id": 3926278417, "lat": 41.9022222, "lon": -87.628503, "tags": {"addr:city": "Chicago", "addr:country": "US", "addr:housenumber": "1110", "addr:postcode": "60610", "addr:state": "IL", "addr:street": "North State Street", "amenity": "restaurant", "cuisine": "mexican", "name": "Velvet Taco", "takeaway": "yes", "wheelchair": "yes"}}, {"type": "node", "id": 4006777056, "lat": 41.9027749, "lon": -87.6283042, "tags": {"addr:city": "Chicago", "addr:housenumber": "1131", "addr:postcode": "60610", "addr:state": "IL", "addr:street": "North State Street", "amenity": "restaurant", "cuisine": "french", "delivery": "no", "name": "Bistrot Zinc", "phone": "(312) 337-1131", "takeaway": "no", "website": "bistrotzinc.com"}}, {"type": "node", "id": 4036871250, "lat": 41.9013634, "lon": -87.6276181, "tags": {"addr:city": "Chicago", "addr:housenumber": "1015", "addr:postcode": "60611", "addr:state": "IL", "addr:street": "North Rush Street", "amenity": "restaurant", "cuisine": "italian", "name": "Nico Osteria", "opening_hours": "Mo-Th 07:30-22:00; Fr 07:30-23:00; Sa 09:00-23:00; Su 09:00-22:00", "phone": "+1-312-994-7100", "website": "https://www.nicoosteria.com/"}}, {"type": "node", "id": 4191676729, "lat": 41.9109799, "lon": -87.6349566, "tags": {"addr:city": "Chicago", "addr:housenumber": "1562", "addr:postcode": "60610", "addr:state": "IL", "addr:street": "North Wells Street", "amenity": "cafe", "brand": "Le Pain Quotidien", "brand:wikidata": "Q2046903", "brand:wikipedia": "en:Le Pain Quotidien", "cuisine": "coffee_shop", "name": "Le Pain Quotidien", "phone": "+1-312-281-6775", "takeaway": "yes", "website": "https://www1.lepainquotidien.com/us/en/locations/605/1562-n-wells-st"}}, {"type": "node", "id": 4214191957, "lat": 41.9100021, "lon": -87.6343992, "tags": {"amenity": "restaurant", "cuisine": "mexican", "name": "Buzz Bait Tacos - PERMANENTLY CLOSED"}}, {"type": "node", "id": 4431654562, "lat": 41.9025298, "lon": -87.6290791}, {"type": "node", "id": 4726228300, "lat": 41.9029694, "lon": -87.628362, "tags": {"amenity": "restaurant", "name": "RA Sushi Bar", "opening_hours": "Mo-Su 11:00-01:00"}}, {"type": "node", "id": 4731329221, "lat": 41.9009516, "lon": -87.6278769, "tags": {"addr:housenumber": "1024", "addr:street": "North Rush Street", "amenity": "restaurant"}}, {"type": "node", "id": 5148730568, "lat": 41.9019937, "lon": -87.6279206, "tags": {"amenity": "restaurant", "name": "Carmine\u2019s", "phone": "+1-312-988-7676", "website": "http://www.rosebudrestaurants.com/"}}, {"type": "node", "id": 5267040321, "lat": 41.8967431, "lon": -87.6282666, "tags": {"name": "Chicago", "network": "CTA", "operator": "Chicago Transit Authority", "public_transport": "stop_position", "railway": "stop", "subway": "yes"}}, {"type": "node", "id": 5267040322, "lat": 41.896745, "lon": -87.6281497, "tags": {"name": "Chicago", "network": "CTA", "operator": "Chicago Transit Authority", "public_transport": "stop_position", "railway": "stop", "subway": "yes"}}, {"type": "node", "id": 5460859747, "lat": 41.9033294, "lon": -87.6306073, "tags": {"addr:city": "Chicago", "addr:housenumber": "52", "addr:postcode": "60610", "addr:state": "IL", "addr:street": "West Elm Street", "amenity": "restaurant", "cuisine": "american", "name": "Blue Door Kitchen & Garden", "opening_hours": "Mo-Th 11:00-22:00; Fr 11:00-23:00; Sa 09:00-23:00; Su 09:00-22:00", "phone": "+1-312-573-4000", "website": "https://bluedoorkitchenchicago.com/"}}, {"type": "node", "id": 5686525329, "lat": 41.9024218, "lon": -87.6285093}, {"type": "node", "id": 6077923586, "lat": 41.9014579, "lon": -87.6279749, "tags": {"addr:city": "Chicago", "addr:housenumber": "1028", "addr:postcode": "60611", "addr:state": "IL", "addr:street": "North Rush Street", "amenity": "restaurant", "cuisine": "american", "name": "Gibson's Bar & Steakhouse", "opening_hours": "Mo-Su 11:00-02:00", "phone": "+1-312-266-8999", "website": "https://www.gibsonssteakhouse.com/"}}, {"type": "node", "id": 6081060319, "lat": 41.9090489, "lon": -87.6342218}, {"type": "node", "id": 6081060321, "lat": 41.9090608, "lon": -87.6343593}, {"type": "node", "id": 6221682531, "lat": 41.9023751, "lon": -87.6288081, "tags": {"addr:city": "Chicago", "addr:housenumber": "1112", "addr:postcode": "60610", "addr:state": "IL", "addr:street": "North State Street", "amenity": "restaurant", "name": "Somerset", "phone": "+1-312-586-2150", "website": "https://www.somersetchicago.com/"}}, {"type": "node", "id": 6221707063, "lat": 41.902338, "lon": -87.6288061, "tags": {"addr:city": "Chicago", "addr:housenumber": "1112", "addr:postcode": "60610", "addr:state": "IL", "addr:street": "North State Street", "amenity": "restaurant", "cuisine": "tapas;cocktail", "name": "Devereaux", "opening_hours": "Su-Th 16:00-23:00; Fr 12:00-14:00, 16:00-02:00; Sa 16:00-00:00", "operator": "Boka Restaurant Group", "phone": "+1-312-586-2160", "website": "https://www.devereauxchicago.com/"}}, {"type": "node", "id": 6226279492, "lat": 41.9041723, "lon": -87.6347462, "tags": {"addr:city": "Chicago", "addr:housenumber": "1208", "addr:postcode": "60610", "addr:state": "IL", "addr:street": "North Wells Street", "amenity": "bar", "name": "The Rabbit Hole", "phone": "+1-312-274-1824", "website": "https://www.therabbitholechicago.com/"}}, {"type": "node", "id": 6237287435, "lat": 41.9059085, "lon": -87.6304864, "tags": {"addr:city": "Chicago", "addr:housenumber": "1300", "addr:postcode": "60610", "addr:state": "IL", "addr:street": "North Dearborn Parkway", "amenity": "restaurant", "cuisine": "american", "name": "3 Arts Club Caf\u00e9", "opening_hours": "Mo-Sa 10:00-20:00; Su 11:00-18:00", "phone": "+1-312-475-9116", "website": "3artsclubcafe.com"}}, {"type": "node", "id": 6238840231, "lat": 41.9019662, "lon": -87.6287408, "tags": {"addr:city": "Chicago", "addr:housenumber": "8", "addr:postcode": "60610", "addr:state": "IL", "addr:street": "West Maple Street", "amenity": "restaurant", "cuisine": "american", "name": "Maple & Ash", "opening_hours": "Mo-Th 17:00-22:00; Fr 17:00-23:00; Sa 16:30-23:00; Su 10:00-14:00, 17:00-22:00", "phone": "+1-312-944-8888", "website": "https://www.mapleandash.com/"}}, {"type": "node", "id": 6250192785, "lat": 41.9056759, "lon": -87.6303029, "tags": {"addr:city": "Chicago", "addr:housenumber": "1260", "addr:postcode": "60610", "addr:state": "IL", "addr:street": "North Dearborn Parkway", "amenity": "restaurant", "name": "3rd Coast Cafe", "phone": "+1-312-649-0730", "website": "https://www.3rdcoastcafe.com/"}}, {"type": "node", "id": 6256290024, "lat": 41.9093, "lon": -87.6348661, "tags": {"addr:city": "Chicago", "addr:housenumber": "1500", "addr:postcode": "60610", "addr:state": "IL", "addr:street": "North Wells Street", "amenity": "bar", "name": "80 Proof", "phone": "+1-773-966-0404", "website": "https://80proofchi.com/"}}, {"type": "node", "id": 6261014453, "lat": 41.91169, "lon": -87.6344514, "tags": {"addr:city": "Chicago", "addr:housenumber": "1617", "addr:postcode": "60614", "addr:state": "IL", "addr:street": "North Wells Street", "amenity": "restaurant", "cuisine": "pub;american", "name": "Wells On Wells", "opening_hours": "Mo 17:00-00:00; Tu-Fr 11:30-02:00; Sa 10:30-03:00; Su 10:30-02:00", "phone": "+1-312-944-1617", "website": "https://wellsonwells.com/"}}, {"type": "node", "id": 6261025487, "lat": 41.9090121, "lon": -87.63492, "tags": {"addr:city": "Chicago", "addr:housenumber": "1446", "addr:postcode": "60610", "addr:state": "IL", "addr:street": "North Wells Street", "amenity": "bar", "name": "SUITE Lounge", "phone": "+1-312-787-6103", "website": "http://www.suite-lounge.com"}}, {"type": "node", "id": 6261028501, "lat": 41.909098, "lon": -87.6348744, "tags": {"addr:city": "Chicago", "addr:housenumber": "1448", "addr:postcode": "60610", "addr:state": "IL", "addr:street": "North Wells Street", "amenity": "restaurant", "cuisine": "barbecue;bbq;american;southern", "name": "The Fireplace Inn", "opening_hours": "Tu-Th 16:30-00:00; Fr 11:00-02:00; Sa 11:00-03:00; Su 11:00-00:00", "phone": "+1-312-664-5264", "website": "https://fireplaceinn.com"}}, {"type": "node", "id": 6261029018, "lat": 41.9095177, "lon": -87.6349428, "tags": {"addr:city": "Chicago", "addr:housenumber": "1510", "addr:postcode": "60610", "addr:state": "IL", "addr:street": "North Wells Street", "amenity": "restaurant", "cuisine": "bar;grill", "name": "Benchmark", "opening_hours": "Mo-Fr 17:00-02:00; Sa 10:00-03:00; Su 10:00-02:00", "phone": "+1-312-649-9640", "website": "https://benchmarkchicago.com"}}, {"type": "node", "id": 6261031287, "lat": 41.9082856, "lon": -87.6343138, "tags": {"addr:city": "Chicago", "addr:housenumber": "1419", "addr:postcode": "60610", "addr:state": "IL", "addr:street": "North Wells Street", "amenity": "restaurant", "cuisine": "american", "name": "Old Town Pour House", "opening_hours": "Mo 16:00-23:00; Tu-Th 16:00-00:00; Fr 11:30-02:00; Sa 11:30-03:00; Su 10:30-23:00", "outdoor_seating": "no", "phone": "+1-312-477-2800", "website": "https://www.oldtownpourhouse.com/"}}, {"type": "node", "id": 6261032304, "lat": 41.9082037, "lon": -87.6343058, "tags": {"addr:city": "Chicago", "addr:housenumber": "1421", "addr:postcode": "60610", "addr:state": "IL", "addr:street": "North Wells Street", "amenity": "restaurant", "cuisine": "italian", "name": "Mama Milano Pizza Bar", "opening_hours": "We-Th 16:30-21:30; Fr 16:30-22:30; Sa 11:30-22:30; Su 11:30-21:00", "phone": "+1-312-787-3710", "website": "https://www.mamamilanopizzamenu.com"}}, {"type": "node", "id": 6261040332, "lat": 41.9077491, "lon": -87.634853, "tags": {"addr:city": "Chicago", "addr:housenumber": "1400", "addr:postcode": "60610", "addr:state": "IL", "addr:street": "North Wells Street", "amenity": "restaurant", "cuisine": "mexican", "name": "Broken English Taco Pub", "opening_hours": "Mo-Th 17:00-23:00; Fr 17:00-01:00; Sa 11:00-01:00; Su 11:00-21:00", "outdoor_seating": "yes", "phone": "+1-312-951-7667", "website": "https://www.tacopub.com"}}, {"type": "node", "id": 6269017070, "lat": 41.9060351, "lon": -87.6284881, "tags": {"addr:city": "Chicago", "addr:housenumber": "1301", "addr:postcode": "60610", "addr:state": "IL", "addr:street": "North State Parkway", "amenity": "restaurant", "name": "Booth One", "phone": "+1-312- 649-0535", "website": "http://boothone.com/"}}, {"type": "node", "id": 6269380246, "lat": 41.9041965, "lon": -87.6296419, "tags": {"addr:city": "Chicago", "addr:housenumber": "20", "addr:postcode": "60610", "addr:state": "IL", "addr:street": "West Division Street", "amenity": "bar", "name": "Butch McGuire\u2019s", "phone": "+1-312- 337-9080", "website": "https://butchmcguires.com/"}}, {"type": "node", "id": 6269917646, "lat": 41.9005593, "lon": -87.6246247, "tags": {"addr:city": "Chicago", "addr:housenumber": "980", "addr:postcode": "60611", "addr:state": "IL", "addr:street": "North Michigan Avenue", "addr:unit": "2", "amenity": "restaurant", "cuisine": "italian", "name": "Spiaggia", "phone": "+1-312-280-2750", "website": "https://spiaggiarestaurant.com"}}, {"type": "node", "id": 6272419651, "lat": 41.9100648, "lon": -87.6343821, "tags": {"addr:city": "Chicago", "addr:housenumber": "1531", "addr:postcode": "60610", "addr:state": "IL", "addr:street": "North Wells Street", "amenity": "bar", "name": "BATSU! Chicago", "phone": "+1-312-664-3663", "website": "http://batsuchicago.com/"}}, {"type": "node", "id": 6280019306, "lat": 41.9042068, "lon": -87.6342984, "tags": {"addr:city": "Chicago", "addr:housenumber": "1209", "addr:postcode": "60610", "addr:state": "IL", "addr:street": "North Wells Street", "amenity": "restaurant", "cuisine": "pizza", "name": "Happy Camper Pizzeria", "opening_hours": "Mo-We 16:00-02:00; Th 16:00-02:00; Fr 11:00-02:00; Sa 10:30-03:00; Su 10:30-00:00", "phone": "+1-312-344-1634", "website": "http://www.happycamperchicago.com"}}, {"type": "node", "id": 6282313992, "lat": 41.9044119, "lon": -87.6326293, "tags": {"addr:city": "Chicago", "addr:housenumber": "12111", "addr:postcode": "60610", "addr:state": "IL", "addr:street": "North LaSalle Boulevard", "addr:unit": "CU", "amenity": "cafe", "name": "Cassava Cafe", "phone": "+1-312-487-2888", "website": "http://cassava.cafe/"}}, {"type": "node", "id": 6282505580, "lat": 41.9036152, "lon": -87.6304189, "tags": {"addr:city": "Chicago", "addr:housenumber": "1160", "addr:postcode": "60610", "addr:state": "IL", "addr:street": "North Dearborn Street", "amenity": "restaurant", "name": "Chicago Q", "phone": "+1-312-642-1160", "website": "https://chicagoqrestaurant.com/"}}, {"type": "node", "id": 6283111502, "lat": 41.9126714, "lon": -87.6345196, "tags": {"addr:city": "Chicago", "addr:housenumber": "1651", "addr:postcode": "60614", "addr:state": "IL", "addr:street": "North Wells Street", "amenity": "cafe", "name": "Cocoa + Co.", "phone": "+1-312-624-8540", "website": "https://cocoaandco.com/"}}, {"type": "node", "id": 6283146876, "lat": 41.9037986, "lon": -87.6292569, "tags": {"addr:city": "Chicago", "addr:housenumber": "13", "addr:postcode": "60610", "addr:state": "IL", "addr:street": "West Division Street", "amenity": "bar", "name": "Coconutz", "phone": "+1-312-266-0944", "website": "https://coconutzchicago.com/"}}, {"type": "node", "id": 6284483101, "lat": 41.9041397, "lon": -87.6317688, "tags": {"addr:city": "Chicago", "addr:housenumber": "102", "addr:postcode": "60610", "addr:state": "IL", "addr:street": "West Division Street", "addr:unit": "2", "amenity": "bar", "name": "Division on the Rocks"}}, {"type": "node", "id": 6284631061, "lat": 41.9002084, "lon": -87.6252109, "tags": {"addr:city": "Chicago", "addr:housenumber": "100", "addr:postcode": "60611", "addr:state": "IL", "addr:street": "East Walton Street", "amenity": "restaurant", "name": "Doc B\u2019s Restaurant + Bar", "phone": "+1-312-626-1300", "website": "https://www.docbsrestaurant.com/"}}, {"type": "node", "id": 6284848609, "lat": 41.901576, "lon": -87.628962, "tags": {"addr:city": "Chicago", "addr:housenumber": "1050", "addr:postcode": "60610", "addr:state": "IL", "addr:street": "North State Street", "amenity": "bar", "name": "Dublin Bar & Grill", "phone": "+1-312-266-6340"}}, {"type": "node", "id": 6285850463, "lat": 41.9021359, "lon": -87.6287498, "tags": {"addr:city": "Chicago", "addr:housenumber": "8", "addr:postcode": "60610", "addr:state": "IL", "addr:street": "West Maple Street", "amenity": "bar", "name": "Eight Bar and Patio", "phone": "+1-312-944-8888", "website": "https://www.eightbarchicago.com/"}}, {"type": "node", "id": 6289511578, "lat": 41.9010063, "lon": -87.6256101, "tags": {"addr:city": "Chicago", "addr:housenumber": "104", "addr:postcode": "60611", "addr:state": "IL", "addr:street": "East Oak Street", "amenity": "restaurant", "cuisine": "mediterranean;spanish", "name": "Fig & Olive", "opening_hours": "Mo-Su 11:00-22:00", "phone": "+1-312-445-0060", "website": "https://www.figandolive.com/location/fig-and-olive-chicago/"}}, {"type": "node", "id": 6294287038, "lat": 41.9002877, "lon": -87.6250731, "tags": {"addr:city": "Chicago", "addr:housenumber": "100", "addr:postcode": "60611", "addr:state": "IL", "addr:street": "East Walton Street", "amenity": "cafe", "name": "Hendrickx Belgian Bread Crafter", "phone": "+1-312-649-6717", "website": "http://hendrickxbakery.com/"}}, {"type": "node", "id": 6297766776, "lat": 41.9010663, "lon": -87.6279947, "tags": {"addr:city": "Chicago", "addr:housenumber": "1024", "addr:postcode": "60611", "addr:state": "IL", "addr:street": "North Rush Street", "amenity": "restaurant", "name": "Hugo\u2019s Frog Bar & Fish House", "phone": "+1-312-640-0999", "website": "http://www.hugosfrogbar.com/"}}, {"type": "node", "id": 6298873064, "lat": 41.9071048, "lon": -87.6343148, "tags": {"addr:city": "Chicago", "addr:housenumber": "1345", "addr:postcode": "60610", "addr:state": "IL", "addr:street": "North Wells Street", "amenity": "restaurant", "name": "Small Cheval - Wells", "website": "http://smallcheval.com/"}}, {"type": "node", "id": 6300071822, "lat": 41.9049988, "lon": -87.6341556, "tags": {"addr:city": "Chicago", "addr:housenumber": "1233", "addr:postcode": "60610", "addr:state": "IL", "addr:street": "North Wells Street", "amenity": "cafe", "name": "Intelligentsia Coffee", "phone": "+1-312-229-1400", "website": "https://www.intelligentsiacoffee.com/old-town-coffeebar"}}, {"type": "node", "id": 6300287486, "lat": 41.9033723, "lon": -87.6290617, "tags": {"addr:city": "Chicago", "addr:housenumber": "12", "addr:postcode": "60610", "addr:state": "IL", "addr:street": "West Elm Street", "amenity": "bar", "name": "Sparrow", "phone": "+1-312-725-0732", "website": "http://www.sparrowchicago.com/"}}, {"type": "node", "id": 6301862903, "lat": 41.9015004, "lon": -87.6316474, "tags": {"addr:city": "Chicago", "addr:housenumber": "1028", "addr:postcode": "60610", "addr:state": "IL", "addr:street": "North Clark Street", "amenity": "restaurant", "name": "Sunny Side Up", "phone": "+1-312-967-0777", "website": "https://www.chicagosunnysideup.com/"}}, {"type": "node", "id": 6304176252, "lat": 41.9099123, "lon": -87.6344869, "tags": {"addr:city": "Chicago", "addr:housenumber": "1527", "addr:postcode": "60610", "addr:state": "IL", "addr:street": "North Wells Street", "amenity": "restaurant", "name": "The VIG Chicago", "phone": "+1-312-982-2186", "website": "http://www.thevigchicago.com/"}}, {"type": "node", "id": 6315211014, "lat": 41.9010102, "lon": -87.6260647, "tags": {"addr:city": "Chicago", "addr:housenumber": "58", "addr:postcode": "60611", "addr:state": "IL", "addr:street": "East Oak Street", "amenity": "bar", "name": "The Esquire Champagne Room", "phone": "+1-312-846-6575", "website": "https://delfriscos.com/"}}, {"type": "node", "id": 6315254173, "lat": 41.9033279, "lon": -87.6292502, "tags": {"addr:city": "Chicago", "addr:housenumber": "14", "addr:postcode": "60610", "addr:state": "IL", "addr:street": "West Elm Street", "amenity": "bar", "name": "The Hangge-Uppe", "phone": "+1-312-337-0561", "website": "https://hanggeuppe.com/"}}, {"type": "node", "id": 6315657599, "lat": 41.9037631, "lon": -87.6295523, "tags": {"addr:city": "Chicago", "addr:housenumber": "21", "addr:postcode": "60610", "addr:state": "IL", "addr:street": "West Division Street", "amenity": "bar", "name": "The Lodge Tavern", "phone": "+1-312-642-4406", "website": "https://lodgetavern.com/"}}, {"type": "node", "id": 6316788451, "lat": 41.8997205, "lon": -87.6265184, "tags": {"addr:city": "Chicago", "addr:housenumber": "900", "addr:postcode": "60611", "addr:state": "IL", "addr:street": "North Michigan Avenue", "amenity": "cafe", "name": "Wellness Grub", "phone": "+1-312-415-1265", "website": "http://wellnessgrub.com/"}}, {"type": "node", "id": 6316896345, "lat": 41.901787, "lon": -87.6278078, "tags": {"addr:city": "Chicago", "addr:housenumber": "1031", "addr:postcode": "60610", "addr:state": "IL", "addr:street": "North Rush Street", "amenity": "cafe", "name": "Whispers Cafe", "website": "http://www.whisperscoffee.com/index.html"}}, {"type": "node", "id": 6317115432, "lat": 41.90453, "lon": -87.629156, "tags": {"addr:city": "Chicago", "addr:housenumber": "1220", "addr:postcode": "60610", "addr:state": "IL", "addr:street": "North State Parkway", "amenity": "bar", "name": "Zebra Lounge", "phone": "+1-312-642-5140", "website": "https://www.thezebralounge.net/"}}, {"type": "node", "id": 6318364009, "lat": 41.909856, "lon": -87.634225, "tags": {"addr:city": "Chicago", "addr:housenumber": "1525", "addr:postcode": "60610", "addr:state": "IL", "addr:street": "North Wells Street", "amenity": "bar", "name": "LG\u2019s Bar", "phone": "+1-312-888-9368", "website": "https://ladygregorys.com/"}}, {"type": "node", "id": 6319154670, "lat": 41.9100715, "lon": -87.6344749, "tags": {"addr:city": "Chicago", "addr:housenumber": "1531", "addr:postcode": "60610", "addr:state": "IL", "addr:street": "North Wells Street", "amenity": "restaurant", "name": "Kamehachi", "phone": "+1-312-664-3663", "website": "http://www.kamehachi.com/"}}, {"type": "node", "id": 6319999085, "lat": 41.903348, "lon": -87.6284873, "tags": {"addr:city": "Chicago", "addr:housenumber": "4", "addr:postcode": "60610", "addr:state": "IL", "addr:street": "East Elm Street", "amenity": "cafe", "name": "La Colombe Coffee", "phone": "+1-773-295-9279", "website": "https://www.lacolombe.com/"}}, {"type": "node", "id": 6320201558, "lat": 41.8997676, "lon": -87.6274933, "tags": {"addr:city": "Chicago", "addr:housenumber": "11", "addr:postcode": "60611", "addr:state": "IL", "addr:street": "East Walton Street", "amenity": "cafe", "name": "Petit Margeaux", "phone": "+1-312-625-1324", "website": "https://www.michaelmina.net/restaurants/chicago/petitmargeaux/"}}, {"type": "node", "id": 6320642353, "lat": 41.9025995, "lon": -87.6288738, "tags": {"addr:city": "Chicago", "addr:housenumber": "1120", "addr:postcode": "60610", "addr:state": "IL", "addr:street": "North State Street", "amenity": "restaurant", "brand": "Lou Malnati's Pizzeria", "brand:wikidata": "Q6685628", "brand:wikipedia": "en:Lou Malnati's Pizzeria", "cuisine": "pizza", "name": "Lou Malnati's Pizzeria", "phone": "+1-312-725-7777", "website": "https://www.loumalnatis.com/chicago-gold-coast"}}, {"type": "node", "id": 6321251063, "lat": 41.9017819, "lon": -87.6275837, "tags": {"addr:city": "Chicago", "addr:housenumber": "18", "addr:postcode": "60611", "addr:state": "IL", "addr:street": "East Bellevue Place", "amenity": "restaurant", "name": "LuxBar", "phone": "+1-312-642-3400", "website": "https://www.luxbar.com/"}}, {"type": "node", "id": 6321487749, "lat": 41.8997256, "lon": -87.6276208, "tags": {"addr:city": "Chicago", "addr:housenumber": "11", "addr:postcode": "60611", "addr:state": "IL", "addr:street": "East Walton Street", "amenity": "restaurant", "cuisine": "french", "name": "Margeaux Brasserie", "phone": "+1-708-529-1246", "website": "https://www.michaelmina.net/restaurants/chicago/margeaux-brasserie/"}}, {"type": "node", "id": 6321552510, "lat": 41.8998248, "lon": -87.6226204, "tags": {"addr:city": "Chicago", "addr:housenumber": "163", "addr:postcode": "60611", "addr:state": "IL", "addr:street": "East Walton Place", "amenity": "bar", "name": "Martini Bar", "phone": "+1-312-751-8100", "website": "https://www.millenniumhotels.com/en/chicago/millennium-knickerbocker-hotel-chicago/martini-bar/"}}, {"type": "node", "id": 6322991225, "lat": 41.9004321, "lon": -87.6234171, "tags": {"addr:city": "Chicago", "addr:housenumber": "140", "addr:postcode": "60611", "addr:state": "IL", "addr:street": "East Walton Place", "amenity": "bar", "name": "Movie Mondays at the Drake\u2019s Palm Court", "phone": "+1-312-787-2200", "website": "https://www.thedrakehotel.com/dining/palm-court"}}, {"type": "node", "id": 6323965477, "lat": 41.9069115, "lon": -87.634332, "tags": {"addr:city": "Chicago", "addr:housenumber": "1339", "addr:postcode": "60610", "addr:state": "IL", "addr:street": "North Wells Street", "amenity": "bar", "name": "Old Town Pub", "phone": "+1-312-266-6789", "website": "otpchicago.com"}}, {"type": "node", "id": 6324357300, "lat": 41.9034592, "lon": -87.6302929, "tags": {"addr:city": "Chicago", "addr:housenumber": "1154", "addr:postcode": "60610", "addr:state": "IL", "addr:street": "North Dearborn Street", "amenity": "restaurant", "name": "La Storia", "phone": "+1-312-915-5950", "website": "https://lastoriachicago.com/"}}, {"type": "node", "id": 6324371956, "lat": 41.9037963, "lon": -87.6305393, "tags": {"addr:city": "Chicago", "addr:housenumber": "49", "addr:postcode": "60610", "addr:state": "IL", "addr:street": "West Division Street", "amenity": "restaurant", "name": "The Halal Guys", "phone": "+1-312-877-5575", "website": "https://westdivisionstreetchicagoil.thehalalguys.com/"}}, {"type": "node", "id": 6325995436, "lat": 41.9102129, "lon": -87.6344, "tags": {"addr:city": "Chicago", "addr:housenumber": "1535", "addr:postcode": "60610", "addr:state": "IL", "addr:street": "North Wells Street", "amenity": "restaurant", "name": "Woodie\u2019s Flat", "phone": "+1-312-643-0093", "website": "https://www.woodieschicago.com/"}}, {"type": "node", "id": 6326129929, "lat": 41.8997085, "lon": -87.6265979, "tags": {"addr:city": "Chicago", "addr:housenumber": "900", "addr:postcode": "60611", "addr:state": "IL", "addr:street": "North Michigan Avenue", "addr:unit": "3", "amenity": "cafe", "name": "Nespresso Boutique at Sur la table", "phone": "+1-800-562-1465", "website": "https://www.nespresso.com/worldofcoffee/WCP/"}}, {"type": "node", "id": 6326168644, "lat": 41.912159, "lon": -87.6313931, "tags": {"addr:city": "Chicago", "addr:housenumber": "1601", "addr:postcode": "60614", "addr:state": "IL", "addr:street": "North Clark Street", "amenity": "cafe", "name": "North and Clark Caf\u00e9", "phone": "+1-312-799-2121", "website": "https://www.chicagohistory.org/visit/north-clark-cafe/"}}, {"type": "node", "id": 6326478100, "lat": 41.9080596, "lon": -87.6342858, "tags": {"addr:city": "Chicago", "addr:housenumber": "1411", "addr:postcode": "60610", "addr:state": "IL", "addr:street": "North Wells Street", "amenity": "restaurant", "name": "Old Jerusalem", "phone": "+1-312-944-0459", "website": "http://oldjerusalemrestaurant.net/"}}, {"type": "node", "id": 6326487082, "lat": 41.9003921, "lon": -87.6234555, "tags": {"addr:city": "Chicago", "addr:housenumber": "140", "addr:postcode": "60611", "addr:state": "IL", "addr:street": "East Walton Place", "amenity": "bar", "name": "Palm Court", "phone": "+1-312-787-2200", "website": "https://www.thedrakehotel.com/"}}, {"type": "node", "id": 6326505491, "lat": 41.9001473, "lon": -87.6238003, "tags": {"addr:city": "Chicago", "addr:housenumber": "140", "addr:postcode": "60611", "addr:state": "IL", "addr:street": "East Walton Street", "amenity": "cafe", "name": "Lavazza Espression", "phone": "+1-312-640-2440", "website": "http://www.lavazzaespression.com/"}}, {"type": "node", "id": 6326512644, "lat": 41.9002461, "lon": -87.6270606, "tags": {"addr:city": "Chicago", "addr:housenumber": "937", "addr:postcode": "60611", "addr:state": "IL", "addr:street": "North Rush Street", "amenity": "restaurant", "name": "Le Colonial", "phone": "+1-312-255-0088", "website": "http://www.lecolonialchicago.com/"}}, {"type": "node", "id": 6397573806, "lat": 41.8997256, "lon": -87.6252642, "tags": {"addr:city": "Chicago", "addr:housenumber": "900", "addr:postcode": "60611", "addr:state": "IL", "addr:street": "North Michigan Avenue", "addr:unit": "5th & 6th Floors", "amenity": "restaurant", "cuisine": "food_court", "name": "Aster Hall", "opening_hours": "Mo-Sa 11:00-20:00; Su 11:00-18:00", "website": "http://www.asterhallchicago.com"}}, {"type": "node", "id": 6407268648, "lat": 41.9100061, "lon": -87.6344756, "tags": {"addr:city": "Chicago", "addr:housenumber": "1529", "addr:postcode": "60610", "addr:state": "IL", "addr:street": "North Wells Street", "amenity": "restaurant", "cuisine": "sandwich;dessert", "name": "Bombobar - Old Town", "opening_hours": "Mo-We 08:00-22:00; Fr 08:00-02:30; Sa 09:00-03:30; Su 09:00-22:00", "phone": "+1-312-549-8433", "website": "https://www.bombobar.com"}}, {"type": "node", "id": 6425689677, "lat": 41.9068335, "lon": -87.6347845, "tags": {"addr:city": "Chicago", "addr:housenumber": "1342", "addr:postcode": "60610", "addr:state": "IL", "addr:street": "North Wells Street", "amenity": "restaurant", "cuisine": "sushi;japanese", "name": "Cafe Sushi", "opening_hours": "Mo-Th 17:00-22:30; Fr-Sa 17:00-23:30; Su 16:00-21:30", "phone": "+1-312-337-0700", "website": "http://www.cafesushiwells.com/"}}, {"type": "node", "id": 6509327748, "lat": 41.910625, "lon": -87.6490293}, {"type": "node", "id": 6757774710, "lat": 41.9113754, "lon": -87.6349829, "tags": {"addr:city": "Chicago", "addr:housenumber": "1608", "addr:postcode": "60614", "addr:state": "IL", "addr:street": "North Wells Street", "amenity": "bar", "name": "Utopian Tailgate", "phone": "+1-312-210-7799", "website": "https://www.utopiantailgate.com"}}, {"type": "node", "id": 7120079536, "lat": 41.9018673, "lon": -87.6220514}, {"type": "node", "id": 7120079537, "lat": 41.9018731, "lon": -87.6220783}, {"type": "node", "id": 7120079538, "lat": 41.9019258, "lon": -87.622055}, {"type": "node", "id": 7120079539, "lat": 41.9019187, "lon": -87.6220265}, {"type": "node", "id": 7120079540, "lat": 41.9018995, "lon": -87.6220152}, {"type": "node", "id": 7120079541, "lat": 41.9019161, "lon": -87.6220814}, {"type": "node", "id": 7120079542, "lat": 41.9018955, "lon": -87.6220929}, {"type": "node", "id": 7675817129, "lat": 41.9098034, "lon": -87.6480581, "tags": {"railway": "switch"}}, {"type": "node", "id": 7675817130, "lat": 41.9096255, "lon": -87.6476521, "tags": {"railway": "switch"}}, {"type": "node", "id": 7675817131, "lat": 41.9098427, "lon": -87.6479514, "tags": {"railway": "switch"}}, {"type": "node", "id": 7675817132, "lat": 41.9096016, "lon": -87.6477754, "tags": {"railway": "switch"}}, {"type": "way", "id": 160184525, "nodes": [1722519113, 1722519109, 1722519107, 1722519104, 1722519105, 1722519108, 1722519112, 1722519116, 2400890639, 2400890638, 1722519118, 7675817130, 7675817131, 6509327748], "tags": {"cta:objectid": "29", "cta:segmentid": "29", "electrified": "rail", "frequency": "0", "gauge": "1435", "layer": "-2", "level": "-1", "name": "State Street Subway", "oneway": "yes", "operator": "Chicago Transit Authority", "railway": "subway", "tunnel": "yes", "voltage": "600"}}, {"type": "way", "id": 160184532, "nodes": [1722519093, 1722519094, 1722519095, 1722519096, 5267040322, 1722519098, 1722519099, 1722519100, 1722519101, 1722519102, 1722519103, 1722519106, 1722519110, 1722519111, 1722519114, 1722519115, 1722519113], "tags": {"cta:objectid": "26;38", "cta:segmentid": "26;38", "electrified": "rail", "frequency": "0", "gauge": "1435", "layer": "-2", "level": "-1", "name": "State Street Subway", "oneway": "yes", "operator": "Chicago Transit Authority", "railway": "subway", "tunnel": "yes", "voltage": "600"}}, {"type": "way", "id": 198549082, "nodes": [2086708649, 2086708645, 2086708647, 2086708650, 2086708649], "tags": {"addr:city": "Chicago", "addr:country": "US", "addr:housenumber": "1615", "addr:postcode": "60614", "addr:state": "IL", "addr:street": "North Wells Street", "addr:street:name": "Wells", "addr:street:prefix": "North", "addr:street:type": "Street", "amenity": "bar", "building": "yes", "building:levels": "3", "chicago:building_id": "301050", "name": "Corcoran's Grill & Pub", "opening_hours": "Mo-Fr 11:00-01:30; Sa 10:30-02:30; Su 10:30-01:30", "phone": "+1-312-440-0885", "source": "Bing 2012", "website": "https://www.corcoransoldtown.com/", "wheelchair": "no"}}, {"type": "way", "id": 206585437, "nodes": [2166039857, 2166039862, 2166039861, 2166039854, 2166039855, 2166039857], "tags": {"addr:city": "Chicago", "addr:country": "US", "addr:housenumber": "1552", "addr:postcode": "60610", "addr:state": "IL", "addr:street": "North Wells Street", "addr:street:name": "Wells", "addr:street:prefix": "North", "addr:street:type": "Street", "amenity": "cafe", "building": "yes", "building:levels": "2", "chicago:building_id": "304450", "name": "Kanela Breakfast Club", "phone": "+1-312-255-1206", "source": "Bing 2012", "website": "http://kanelacafe.com/"}}, {"type": "way", "id": 206585446, "nodes": [2166039815, 2166039809, 2166039808, 2166039810, 2166039811, 2166039813, 2166039815], "tags": {"addr:city": "Chicago", "addr:country": "US", "addr:housenumber": "1528", "addr:postcode": "60610", "addr:state": "IL", "addr:street": "North Wells Street", "addr:street:name": "Wells", "addr:street:prefix": "North", "addr:street:type": "Street", "amenity": "pub", "building": "yes", "building:levels": "1", "chicago:building_id": "306506", "name": "O'Brian's", "source": "Bing 2012"}}, {"type": "way", "id": 210679215, "nodes": [2207604514, 2207604498, 2207604493, 2207604503, 2207604510, 2207604512, 2207604517, 2207604518, 2207604703, 2207604704, 2207604697, 2207604701, 2207604695, 2207604514], "tags": {"addr:city": "Chicago", "addr:housenumber": "1031", "addr:state": "IL", "addr:street": "North Rush Street", "addr:street:name": "Rush", "addr:street:prefix": "North", "addr:street:type": "Street", "amenity": "restaurant", "building": "yes", "building:levels": "1", "chicago:building_id": "324657", "name": "Tavern on Rush", "phone": "+1-312-664-9600", "website": "https://www.tavernonrush.com/"}}, {"type": "way", "id": 210679261, "nodes": [2207605390, 4431654562, 2207605395, 2207605614, 2207605631, 2207605641, 2207605398, 2207605389, 2207605390], "tags": {"addr:housenumber": "1118-1120", "addr:street": "North State Street", "addr:street:name": "State", "addr:street:prefix": "North", "addr:street:type": "Street", "amenity": "restaurant", "building": "yes", "chicago:building_id": "878127", "cuisine": "pizza", "name": "Lou Malnati's", "opening_hours": "Mo-Fr 11:00-00:00; Sa,Su 00:00-01:00,11:00-00:00", "website": "https://www.loumalnatis.com/chicago-gold-coast"}}, {"type": "way", "id": 210679421, "nodes": [2207608584, 2207608406, 2207608395, 2207608565, 2207608564, 2207608584], "tags": {"addr:housenumber": "1240", "addr:street": "North Wells Street", "addr:street:name": "Wells", "addr:street:prefix": "North", "addr:street:type": "Street", "amenity": "bar", "building": "yes", "building:levels": "3", "chicago:building_id": "815408", "name": "Declan's"}}, {"type": "way", "id": 210679437, "nodes": [2207608926, 2207609009, 2207609010, 2207609060, 2207609057, 2207609030, 2207609040, 2207608949, 2207608926], "tags": {"addr:housenumber": "1246", "addr:street": "North Wells Street", "addr:street:name": "Wells", "addr:street:prefix": "North", "addr:street:type": "Street", "amenity": "restaurant", "building": "yes", "building:levels": "3", "chicago:building_id": "317889", "cuisine": "chinese", "name": "China Doll"}}, {"type": "way", "id": 210679449, "nodes": [2207609278, 2207609188, 2207609186, 2207609180, 2207609174, 2207609177, 2207609172, 2207609269, 2207609270, 2207609278], "tags": {"addr:housenumber": "1252", "addr:street": "North Wells Street", "addr:street:name": "Wells", "addr:street:prefix": "North", "addr:street:type": "Street", "amenity": "restaurant", "building": "yes", "building:levels": "3", "chicago:building_id": "815387", "cuisine": "mexican", "name": "Salpicon"}}, {"type": "way", "id": 210679704, "nodes": [2207604696, 2207604698, 2207604702, 2207604505, 2207604504, 2207604515, 2207604516, 2207604696], "tags": {"addr:city": "Chicago", "addr:housenumber": "22", "addr:postcode": "60611", "addr:state": "IL", "addr:street": "East Bellevue Place", "addr:street:name": "Bellevue", "addr:street:prefix": "East", "addr:street:type": "Place", "amenity": "restaurant", "building": "yes", "building:levels": "1", "chicago:building_id": "815527", "cuisine": "american;breakfast", "name": "The Original Pancake House", "phone": "+1-312-642-7917", "website": "https://www.ophchicagoland.com"}}, {"type": "way", "id": 210680452, "nodes": [2207604483, 2207604511, 2207604513, 2207604487, 2207604483], "tags": {"amenity": "cafe", "building": "roof", "chicago:building_id": "324968", "name": "Bow Truss Coffee Roasters"}}, {"type": "way", "id": 210684438, "nodes": [2207635617, 2207635615, 2207635541, 2207635538, 2207635618, 2207635617], "tags": {"addr:city": "Chicago", "addr:housenumber": "1401", "addr:postcode": "60610", "addr:state": "IL", "addr:street": "North Wells Street", "addr:street:name": "Wells", "addr:street:prefix": "North", "addr:street:type": "Street", "amenity": "restaurant", "building": "yes", "building:levels": "3", "chicago:building_id": "815317", "cuisine": "italian", "name": "Orso's", "opening_hours": "Mo-Th 11:00-23:00; Fr-Sa 11:00-00:00; Su 10:00-22:00", "phone": "+1-312-787-6604", "website": "http://www.orsosrestaurant.com"}}, {"type": "way", "id": 210684661, "nodes": [2393465796, 2207637813, 6081060321, 2207637819, 2207637782, 6081060319, 2207637785, 2207637826, 2207637827, 2207637706, 2207637705, 2207637696, 2393465797, 2393465796], "tags": {"addr:city": "Chicago", "addr:housenumber": "1447", "addr:postcode": "60610", "addr:state": "IL", "addr:street": "North Wells Street", "addr:street:name": "Wells", "addr:street:prefix": "North", "addr:street:type": "Street", "amenity": "bar", "building": "yes", "building:levels": "3", "chicago:building_id": "309192", "name": "Burton Place", "phone": "+1-312-664-4699"}}, {"type": "way", "id": 210684816, "nodes": [2207639310, 2207638967, 2207638968, 2207638957, 2207638953, 2207639299, 2207639310], "tags": {"addr:housenumber": "1525-1527", "addr:street": "North Wells Street", "addr:street:name": "Wells", "addr:street:prefix": "North", "addr:street:type": "Street", "amenity": "bar", "building": "yes", "building:levels": "1", "chicago:building_id": "815256"}}, {"type": "way", "id": 210684908, "nodes": [2207640485, 2207640351, 2207640348, 2207640358, 2207640378, 2207640380, 2207640484, 2207640485], "tags": {"addr:housenumber": "157", "addr:street": "West North Avenue", "addr:street:name": "North", "addr:street:prefix": "West", "addr:street:type": "Avenue", "amenity": "restaurant", "building": "yes", "building:levels": "2", "chicago:building_id": "815206"}}, {"type": "way", "id": 220408416, "nodes": [2295332895, 2295332899, 7120079540, 7120079539, 7120079538, 7120079541, 7120079542, 7120079537, 7120079536, 2295332894, 2295332892, 2295332893, 2295332897, 2295332898, 2295332895], "tags": {"amenity": "cafe", "building": "terrace", "name": "Oak Street Beach Caf\u00e9"}}, {"type": "way", "id": 228237825, "nodes": [2368694123, 2368694130, 2368694125, 2368694135, 2368694153, 2368694124, 2368694147, 2368694143, 2368694149, 5686525329, 2368694121, 2368694151, 2368694155, 5267040321, 2368691921, 2368691925, 2368691924, 2368691222], "tags": {"electrified": "rail", "frequency": "0", "gauge": "1435", "layer": "-2", "level": "-1", "name": "State Street Subway", "oneway": "yes", "operator": "Chicago Transit Authority", "railway": "subway", "tunnel": "yes", "voltage": "600"}}, {"type": "way", "id": 228237826, "nodes": [2368694116, 7675817129, 2368694131, 7675817132, 2368694127, 2368694117, 2368694118, 2368694113, 2368694132, 2368694114, 2368694137, 2368694115, 2368694112, 2368694123], "tags": {"electrified": "rail", "frequency": "0", "gauge": "1435", "layer": "-2", "level": "-1", "name": "State Street Subway", "oneway": "yes", "operator": "Chicago Transit Authority", "railway": "subway", "tunnel": "yes", "voltage": "600"}}]}