{"version": 0.6, "generator": "Overpass API 0.7.56.3 eb200aeb", "osm3s": {"timestamp_osm_base": "2020-07-04T04:34:02Z", "copyright": "The data included in this document is from www.openstreetmap.org. The data is made available under ODbL."}, "elements": [{"type": "node", "id": 1786793074, "lat": 41.8958438, "lon": -87.6904051, "tags": {"addr:city": "Chicago", "addr:housenumber": "2524", "addr:postcode": "60622", "addr:state": "IL", "addr:street": "West Chicago Avenue", "amenity": "restaurant", "name": "Shokolad", "phone": "+1-773-276-6402", "website": "https://www.shokoladpastryandcafe.com/"}}, {"type": "node", "id": 1786793076, "lat": 41.8987428, "lon": -87.686696, "tags": {"addr:city": "Chicago", "addr:housenumber": "939", "addr:postcode": "60622", "addr:state": "IL", "addr:street": "North Western Avenue", "amenity": "cafe", "name": "Cafe Ballou", "phone": "+1-773-661-2114"}}, {"type": "node", "id": 1786793079, "lat": 41.897642, "lon": -87.6919568, "tags": {"addr:city": "Chicago", "addr:housenumber": "2600", "addr:postcode": "60622", "addr:state": "IL", "addr:street": "West Iowa Street", "amenity": "bar", "name": "Archie's", "phone": "+1-872-206-5119", "wifi": "no"}}, {"type": "node", "id": 1786793085, "lat": 41.8958185, "lon": -87.6906931, "tags": {"amenity": "bar", "name": "Black Beetle"}}, {"type": "node", "id": 2196075584, "lat": 41.8954365, "lon": -87.699173}, {"type": "node", "id": 2196075681, "lat": 41.8954824, "lon": -87.6992901}, {"type": "node", "id": 2196075688, "lat": 41.8954879, "lon": -87.6992956}, {"type": "node", "id": 2196075692, "lat": 41.8954907, "lon": -87.6992974}, {"type": "node", "id": 2196075694, "lat": 41.8954948, "lon": -87.6992992}, {"type": "node", "id": 2196075696, "lat": 41.8954975, "lon": -87.6992992}, {"type": "node", "id": 2196075709, "lat": 41.8955016, "lon": -87.6992973}, {"type": "node", "id": 2196075714, "lat": 41.8955057, "lon": -87.6992936}, {"type": "node", "id": 2196075716, "lat": 41.8955071, "lon": -87.6992899}, {"type": "node", "id": 2196075719, "lat": 41.8955084, "lon": -87.6992862}, {"type": "node", "id": 2196075725, "lat": 41.8955112, "lon": -87.6992807}, {"type": "node", "id": 2196075733, "lat": 41.895512, "lon": -87.699176}, {"type": "node", "id": 2196077182, "lat": 41.8959062, "lon": -87.6842781}, {"type": "node", "id": 2196077190, "lat": 41.8959072, "lon": -87.6842138}, {"type": "node", "id": 2196077551, "lat": 41.8960283, "lon": -87.6842805}, {"type": "node", "id": 2196077574, "lat": 41.8960294, "lon": -87.6842181}, {"type": "node", "id": 3575025689, "lat": 41.8989825, "lon": -87.6872868, "tags": {"addr:city": "Chicago", "addr:housenumber": "948", "addr:postcode": "60622", "addr:state": "IL", "addr:street": "North Western Avenue", "amenity": "bar", "name": "Sportsman's Club", "phone": "+1-872-206-8054", "website": "https://drinkingandgathering.com/"}}, {"type": "node", "id": 3575025690, "lat": 41.8986011, "lon": -87.6866989, "tags": {"amenity": "bar", "name": "Stella's Tap"}}, {"type": "node", "id": 3575029393, "lat": 41.8955111, "lon": -87.6969684, "tags": {"addr:city": "Chicago", "addr:housenumber": "2803", "addr:postcode": "60622", "addr:state": "IL", "addr:street": "West Chicago Avenue", "amenity": "restaurant", "cuisine": "chicken", "name": "Feed", "phone": "+1-773-489-4600", "website": "http://feedrestaurantchicago.com/"}}, {"type": "node", "id": 3575084300, "lat": 41.8972953, "lon": -87.6866638, "tags": {"addr:city": "Chicago", "addr:housenumber": "853", "addr:postcode": "60622", "addr:state": "IL", "addr:street": "North Western Avenue", "amenity": "bar", "name": "Blind Robin", "phone": "+1-773-395-3002", "website": "http://theblindrobin.com/"}}, {"type": "node", "id": 4085259564, "lat": 41.8905641, "lon": -87.6855565, "tags": {"addr:city": "Chicago", "addr:country": "US", "addr:housenumber": "2333", "addr:postcode": "60612", "addr:state": "IL", "addr:street": "West Grand Avenue", "amenity": "restaurant", "name": "Chavas Tacos El Original", "phone": "+1-312-226-1129", "website": "http://chavastacoseloriginal.com/"}}, {"type": "node", "id": 4724858615, "lat": 41.8982098, "lon": -87.6866754, "tags": {"addr:city": "Chicago", "addr:housenumber": "921", "addr:postcode": "60622", "addr:state": "IL", "addr:street": "North Western Avenue", "amenity": "bar", "name": "EZ Inn", "opening_hours": "Su-Fr 17:00-02:00; Sa 17:00-03:00", "phone": "+1-773-698-7372", "website": "http://www.ez-inn.com"}}, {"type": "node", "id": 4728267690, "lat": 41.8959197, "lon": -87.6831752, "tags": {"addr:postcode": "60622", "amenity": "cafe", "name": "Old Lviv", "name:ru": "\u0421\u0442\u0430\u0440\u044b\u0439 \u041b\u044c\u0432\u043e\u0432", "opening_hours": "Tu-Su 11:00-20:00", "phone": "+17737727250"}}, {"type": "node", "id": 4858475595, "lat": 41.8958169, "lon": -87.693432, "tags": {"addr:city": "Chicago", "addr:housenumber": "2640", "addr:postcode": "60622", "addr:state": "IL", "addr:street": "West Chicago Avenue", "amenity": "restaurant", "cuisine": "mexican", "name": "Yoli's Tacos", "opening_hours": "Mo-Su 10:00-22:00", "phone": "+1-872-802-4544"}}, {"type": "node", "id": 6267353609, "lat": 41.8892412, "lon": -87.6875116, "tags": {"addr:city": "Chicago", "addr:housenumber": "2427", "addr:postcode": "60612", "addr:state": "IL", "addr:street": "West Hubbard Street", "amenity": "cafe", "name": "Blend Cafe", "phone": "+1-312-265-1121"}}, {"type": "node", "id": 6284202956, "lat": 41.8950429, "lon": -87.687107, "tags": {"addr:city": "Chicago", "addr:housenumber": "738", "addr:postcode": "60612", "addr:state": "IL", "addr:street": "North Western Avenue", "amenity": "cafe", "contact:facebook": "https://www.facebook.com/DarkMatterCoffee/", "contact:instagram": "https://www.instagram.com/darkmattercoffee/", "contact:phone": "+1 773 697 8472", "contact:pinterest": "https://www.pinterest.de/darkmattercoffe/", "contact:twitter": "https://twitter.com/DarkMatter2521", "contact:website": "https://www.darkmattercoffee.com/", "contact:youtube": "https://www.youtube.com/channel/UCUa0veV32dQbEr8nX78eSUw", "cuisine": "coffee_shop", "name": "Dark Matter Coffee - The Mothership", "opening_hours": "Mo-Su 07:00-17:00", "payment:american_express": "yes", "payment:diners_club": "yes", "payment:mastercard": "yes", "payment:visa": "yes"}}, {"type": "node", "id": 6290064774, "lat": 41.8932472, "lon": -87.6841486, "tags": {"addr:city": "Chicago", "addr:housenumber": "2258", "addr:postcode": "60612", "addr:state": "IL", "addr:street": "West Erie Street", "amenity": "restaurant", "name": "Fiore Delicatessen", "phone": "+1-312-942-9419", "website": "http://www.fioresdelicatessen.com/"}}, {"type": "node", "id": 6294339445, "lat": 41.8959484, "lon": -87.694408, "tags": {"addr:city": "Chicago", "addr:housenumber": "2700", "addr:postcode": "60622", "addr:state": "IL", "addr:street": "West Chicago Avenue", "amenity": "restaurant", "name": "Heritage Restaurant and Caviar Bar", "phone": "+1-773-661-9577", "website": "https://heritage-chicago.com/"}}, {"type": "node", "id": 6300313243, "lat": 41.895924, "lon": -87.689589, "tags": {"addr:city": "Chicago", "addr:housenumber": "2500", "addr:postcode": "60622", "addr:state": "IL", "addr:street": "West Chicago Avenue", "amenity": "restaurant", "cuisine": "american;chicken", "name": "Split-Rail", "phone": "+1-773-697-4413", "website": "http://www.splitrailchicago.com"}}, {"type": "node", "id": 6300686046, "lat": 41.8955719, "lon": -87.6901818, "tags": {"addr:city": "Chicago", "addr:housenumber": "2521", "addr:postcode": "60622", "addr:state": "IL", "addr:street": "West Chicago Avenue", "amenity": "cafe", "name": "Star Lounge Coffee Bar", "phone": "+1-773-384-7827", "website": "https://www.darkmattercoffee.com/"}}, {"type": "node", "id": 6300782077, "lat": 41.8989745, "lon": -87.6865757, "tags": {"addr:city": "Chicago", "addr:housenumber": "949", "addr:postcode": "60622", "addr:state": "IL", "addr:street": "North Western Avenue", "amenity": "restaurant", "name": "Salsa Picante", "phone": "+1-773-904-8406", "website": "http://www.salsapicante949.com/"}}, {"type": "node", "id": 6301042528, "lat": 41.8990442, "lon": -87.6969506, "tags": {"addr:city": "Chicago", "addr:housenumber": "954", "addr:postcode": "60622", "addr:state": "IL", "addr:street": "North California Avenue", "amenity": "bar", "name": "Rootstock Wine & Beer Bar", "phone": "+1-773-292-1616", "website": "https://www.rootstockbar.com/"}}, {"type": "node", "id": 6301725940, "lat": 41.8986252, "lon": -87.6866105, "tags": {"addr:city": "Chicago", "addr:housenumber": "935", "addr:postcode": "60622", "addr:state": "IL", "addr:street": "West Walton Street", "amenity": "bar", "name": "Stella\u2019s Sports Bar", "phone": "+1-773-384-0077"}}, {"type": "node", "id": 6305259456, "lat": 41.89596, "lon": -87.6907321, "tags": {"addr:city": "Chicago", "addr:housenumber": "2532", "addr:postcode": "60622", "addr:state": "IL", "addr:street": "West Chicago Avenue", "amenity": "bar", "name": "The Beetle Bar and Grill", "phone": "+1-773-384-0701", "website": "https://www.thebeetlechicago.com/"}}, {"type": "node", "id": 6306586520, "lat": 41.8954045, "lon": -87.6968487, "tags": {"addr:city": "Chicago", "addr:housenumber": "2801", "addr:postcode": "60622", "addr:state": "IL", "addr:street": "West Chicago Avenue", "amenity": "bar", "name": "The Continental", "phone": "+1-773-292-1200"}}, {"type": "node", "id": 6319067420, "lat": 41.8878949, "lon": -87.6826783, "tags": {"addr:city": "Chicago", "addr:housenumber": "324", "addr:postcode": "60612", "addr:state": "IL", "addr:street": "North Leavitt Street", "amenity": "restaurant", "name": "Kaathis", "phone": "+1-872-222-0502", "website": "https://kaathis.com/"}}, {"type": "node", "id": 6319134431, "lat": 41.8955355, "lon": -87.691556, "tags": {"addr:city": "Chicago", "addr:housenumber": "2557", "addr:postcode": "60622", "addr:state": "IL", "addr:street": "West Chicago Avenue", "amenity": "restaurant", "name": "Kai Zan", "phone": "+1-773-278-5776", "website": "http://www.eatatkaizan.com/"}}, {"type": "node", "id": 6322995244, "lat": 41.8955065, "lon": -87.6845512, "tags": {"addr:city": "Chicago", "addr:housenumber": "2301", "addr:postcode": "60612", "addr:state": "IL", "addr:street": "West Chicago Avenue", "amenity": "bar", "name": "Mr Brown\u2019s Lounge", "phone": "+1-773-278-4445", "website": "https://mrbrownslounge.com/"}}, {"type": "node", "id": 6397121374, "lat": 41.8957939, "lon": -87.6990103, "tags": {"addr:city": "Chicago", "addr:housenumber": "2858", "addr:postcode": "60622", "addr:state": "IL", "addr:street": "West Chicago Avenue", "amenity": "restaurant", "cuisine": "american;hotdog;hot_dog", "name": "Lola's Coney Island", "opening_hours": "Mo-Sa 11:00-21:00; Su 12:00-18:00", "phone": "+1-773-687-9459", "website": "https://www.lolasconeyisland.com/"}}, {"type": "way", "id": 209389468, "nodes": [2196077182, 2196077551, 2196077574, 2196077190, 2196077182], "tags": {"addr:city": "Chicago", "addr:housenumber": "2258", "addr:postcode": "60622", "addr:state": "IL", "addr:street": "West Chicago Avenue", "addr:street:name": "Chicago", "addr:street:prefix": "West", "addr:street:type": "Avenue", "amenity": "restaurant", "building": "commercial", "building:levels": "1", "chicago:building_id": "339921", "name": "Fatso's Last Stand", "phone": "+1-773-245-3287", "website": "http://www.fatsoslaststand.com/"}}, {"type": "way", "id": 209391822, "nodes": [2196075584, 2196075681, 2196075688, 2196075692, 2196075694, 2196075696, 2196075709, 2196075714, 2196075716, 2196075719, 2196075725, 2196075733, 2196075584], "tags": {"addr:city": "Chicago", "addr:housenumber": "2859", "addr:state": "IL", "addr:street": "West Chicago Avenue", "addr:street:name": "Chicago", "addr:street:prefix": "West", "amenity": "restaurant", "building": "yes", "chicago:building_id": "341120", "name": "Taco el Jalisciense", "phone": "+1-773-235-2859"}}]}