{"version": 0.6, "generator": "Overpass API 0.7.56.3 eb200aeb", "osm3s": {"timestamp_osm_base": "2020-07-04T04:56:02Z", "copyright": "The data included in this document is from www.openstreetmap.org. The data is made available under ODbL."}, "elements": [{"type": "node", "id": 5674085876, "lat": 41.8098666, "lon": -87.5931455, "tags": {"addr:city": "Chicago", "addr:housenumber": "1358", "addr:postcode": "60653", "addr:street": "East 47th Street", "amenity": "restaurant", "brand": "The Original Pancake House", "brand:wikidata": "Q7755384", "brand:wikipedia": "en:The Original Pancake House", "cuisine": "breakfast;pancake", "name": "The Original Pancake House", "website": "https://www.ophchicagoland.com/hyde-park/"}}, {"type": "node", "id": 6282277094, "lat": 41.8099623, "lon": -87.5996723, "tags": {"addr:city": "Chicago", "addr:housenumber": "1060", "addr:postcode": "60653", "addr:state": "IL", "addr:street": "East 47th Street", "addr:unit": "FL 1", "amenity": "cafe", "name": "Carver 47 Cafe", "phone": "+1-773-285-1211", "website": "https://littleblackpearl.squarespace.com/carver-47/"}}, {"type": "node", "id": 7243417794, "lat": 41.816976, "lon": -87.60634, "tags": {"addr:city": "Chicago", "addr:housenumber": "810", "addr:postcode": "60653", "addr:state": "IL", "addr:street": "East 43rd Street", "amenity": "bar", "name": "Some Like It Black", "phone": "+1-773-891-4866", "website": "https://www.somelikeitblack.com"}}]}