{"version": 0.6, "generator": "Overpass API 0.7.56.3 eb200aeb", "osm3s": {"timestamp_osm_base": "2020-07-04T02:39:02Z", "copyright": "The data included in this document is from www.openstreetmap.org. The data is made available under ODbL."}, "elements": [{"type": "node", "id": 1585419572, "lat": 41.9212374, "lon": -87.67314, "tags": {"addr:city": "Chicago", "addr:housenumber": "1809", "addr:postcode": "60614", "addr:state": "IL", "addr:street": "West Webster Avenue", "amenity": "cafe", "cuisine": "coffee_shop", "name": "Little Beans", "phone": "+1-773-251-1025", "website": "https://littlebeanscafe.com/"}}, {"type": "node", "id": 1585420540, "lat": 41.9220517, "lon": -87.6734351, "tags": {"addr:housenumber": "2222", "addr:postcode": "60614", "addr:street": "North Elston Avenue", "amenity": "restaurant", "cuisine": "sandwich", "name": "The Goddess and Grocer", "website": "http://www.goddessandgrocer.com/elston.php"}}, {"type": "node", "id": 1585423403, "lat": 41.9212295, "lon": -87.6779251, "tags": {"addr:housenumber": "2158", "addr:street": "North Damen Avenue", "amenity": "cafe", "cuisine": "coffee_shop", "name": "Bucktown Beanery", "wifi": "free"}}, {"type": "node", "id": 1685093555, "lat": 41.9198795, "lon": -87.6804824, "tags": {"addr:city": "Chicago", "addr:housenumber": "2076", "addr:postcode": "60647", "addr:state": "IL", "addr:street": "North Hoyne Avenue", "amenity": "bar", "name": "Charleston", "phone": "+1-773-489-4757", "website": "https://www.charlestonchicago.com/"}}, {"type": "node", "id": 1699464559, "lat": 41.9178252, "lon": -87.6795216, "tags": {"amenity": "restaurant", "name": "Jack & Ginger's"}}, {"type": "node", "id": 1699464583, "lat": 41.9175667, "lon": -87.677763, "tags": {"addr:city": "Chicago", "addr:housenumber": "1958", "addr:postcode": "60647", "addr:state": "IL", "addr:street": "North Damen Avenue", "amenity": "restaurant", "cuisine": "french", "name": "Le Bouchon", "phone": "+1-773-862-6600", "website": "http://www.lebouchonofchicago.com/"}}, {"type": "node", "id": 1699464827, "lat": 41.9175758, "lon": -87.6802739, "tags": {"amenity": "cafe", "brand": "Starbucks", "brand:wikidata": "Q37158", "brand:wikipedia": "en:Starbucks", "cuisine": "coffee_shop", "name": "Starbucks", "takeaway": "yes"}}, {"type": "node", "id": 1700855290, "lat": 41.9174886, "lon": -87.6851722, "tags": {"addr:city": "Chicago", "addr:housenumber": "1944", "addr:postcode": "60647", "addr:state": "IL", "addr:street": "North Oakley Avenue", "amenity": "bar", "name": "Floyd's Pub", "phone": "+1-773-276-6060", "website": "http://floydspub.net/"}}, {"type": "node", "id": 2196193268, "lat": 41.9159196, "lon": -87.6867571}, {"type": "node", "id": 2196193451, "lat": 41.9159617, "lon": -87.6868213}, {"type": "node", "id": 2196193545, "lat": 41.915989, "lon": -87.6867898}, {"type": "node", "id": 2196193552, "lat": 41.9159898, "lon": -87.6867913}, {"type": "node", "id": 2196194592, "lat": 41.9161233, "lon": -87.6865173}, {"type": "node", "id": 2196194760, "lat": 41.916162, "lon": -87.6865768}, {"type": "node", "id": 2200242724, "lat": 41.9182738, "lon": -87.682951}, {"type": "node", "id": 2200242734, "lat": 41.918279, "lon": -87.6826497}, {"type": "node", "id": 2200242950, "lat": 41.9183383, "lon": -87.6829522}, {"type": "node", "id": 2200243001, "lat": 41.9183448, "lon": -87.6826527}, {"type": "node", "id": 2200343250, "lat": 41.9257322, "lon": -87.668746}, {"type": "node", "id": 2200343251, "lat": 41.925733, "lon": -87.6686339}, {"type": "node", "id": 2200343272, "lat": 41.9257412, "lon": -87.6686338}, {"type": "node", "id": 2200343276, "lat": 41.925745, "lon": -87.6683509}, {"type": "node", "id": 2200343368, "lat": 41.9257995, "lon": -87.668749}, {"type": "node", "id": 2200343378, "lat": 41.925804, "lon": -87.6683521}, {"type": "node", "id": 2200344091, "lat": 41.9260067, "lon": -87.6687597}, {"type": "node", "id": 2200344094, "lat": 41.9260088, "lon": -87.6686403}, {"type": "node", "id": 2200344103, "lat": 41.9260117, "lon": -87.6684344}, {"type": "node", "id": 2200344106, "lat": 41.9260127, "lon": -87.6683609}, {"type": "node", "id": 2200344121, "lat": 41.9260156, "lon": -87.6686402}, {"type": "node", "id": 2200344140, "lat": 41.9260186, "lon": -87.6684344}, {"type": "node", "id": 2200344284, "lat": 41.9260712, "lon": -87.6687609}, {"type": "node", "id": 2200344309, "lat": 41.9260772, "lon": -87.6683621}, {"type": "node", "id": 2671405828, "lat": 41.9175718, "lon": -87.680526, "tags": {"amenity": "restaurant", "cuisine": "cuban", "name": "Cafe Laguardia"}}, {"type": "node", "id": 3575036693, "lat": 41.9182746, "lon": -87.6851707, "tags": {"addr:city": "Chicago", "addr:housenumber": "2020", "addr:postcode": "60647", "addr:state": "IL", "addr:street": "North Oakley Avenue", "amenity": "bar", "name": "The Gallery Cabaret", "phone": "+1-773-489-5471", "website": "https://www.gallerycabaret.com/"}}, {"type": "node", "id": 3575496171, "lat": 41.9176357, "lon": -87.6778131, "tags": {"addr:city": "Chicago", "addr:housenumber": "1960", "addr:postcode": "60647", "addr:state": "IL", "addr:street": "North Damen Avenue", "amenity": "restaurant", "cuisine": "japanese", "name": "Izakaya Mita", "phone": "+1-773-799-8677", "website": "http://www.izakayamita.com/"}}, {"type": "node", "id": 3581500506, "lat": 41.9162108, "lon": -87.6701232, "tags": {"addr:city": "Chicago", "addr:housenumber": "1658", "addr:postcode": "60622", "addr:state": "IL", "addr:street": "West Cortland Street", "amenity": "pub", "name": "Bucktown Pub", "phone": "+1-773- 394-9898", "website": "http://www.bucktownpub.com/"}}, {"type": "node", "id": 3581500507, "lat": 41.9162108, "lon": -87.6699784, "tags": {"amenity": "cafe", "name": "Riverside Cafe"}}, {"type": "node", "id": 3660922643, "lat": 41.9252887, "lon": -87.6678214, "tags": {"amenity": "cafe", "name": "Nada Tea & Coffee"}}, {"type": "node", "id": 3660929434, "lat": 41.9249859, "lon": -87.6706571, "tags": {"addr:city": "Chicago", "addr:housenumber": "1665", "addr:street": "West Fullerton Avenue", "amenity": "bar", "name": "Liars Club", "opening_hours": "Su-Fr 20:00-04:00; Sa 20:00-03:00", "phone": "+1-773-665-1110"}}, {"type": "node", "id": 3791781401, "lat": 41.9212458, "lon": -87.6745362}, {"type": "node", "id": 3791781402, "lat": 41.9212687, "lon": -87.6745054}, {"type": "node", "id": 3791781403, "lat": 41.9213604, "lon": -87.6745054}, {"type": "node", "id": 3791781404, "lat": 41.9213833, "lon": -87.6735657}, {"type": "node", "id": 3791781405, "lat": 41.9209615, "lon": -87.6735626}, {"type": "node", "id": 3791781406, "lat": 41.9209615, "lon": -87.6736334}, {"type": "node", "id": 3791781407, "lat": 41.9209088, "lon": -87.6736797}, {"type": "node", "id": 3791781408, "lat": 41.9208881, "lon": -87.6736396}, {"type": "node", "id": 3791781409, "lat": 41.9207941, "lon": -87.6737351}, {"type": "node", "id": 3863476802, "lat": 41.9215071, "lon": -87.6788359, "tags": {"addr:city": "Chicago", "addr:housenumber": "2026", "addr:postcode": "60647", "addr:state": "IL", "addr:street": "West Webster Avenue", "amenity": "bar", "name": "Burke\u2019s Web Pub", "phone": "+1-773-276-3411"}}, {"type": "node", "id": 3863476803, "lat": 41.9220332, "lon": -87.6828391, "tags": {"addr:city": "Chicago", "addr:housenumber": "2224", "addr:postcode": "60647", "addr:state": "IL", "addr:street": "North Leavitt Street", "amenity": "bar", "name": "The Corner Bar", "website": "http://cornerbarchicago.com/"}}, {"type": "node", "id": 5092756819, "lat": 41.925504, "lon": -87.6723414, "tags": {"amenity": "cafe", "brand": "Starbucks", "brand:wikidata": "Q37158", "brand:wikipedia": "en:Starbucks", "cuisine": "coffee_shop", "name": "Starbucks", "official_name": "Starbucks Coffee", "takeaway": "yes"}}, {"type": "node", "id": 6258328991, "lat": 41.9169917, "lon": -87.6774345, "tags": {"addr:city": "Chicago", "addr:housenumber": "1935", "addr:postcode": "60647", "addr:state": "IL", "addr:street": "North Damen Avenue", "amenity": "restaurant", "name": "6 Degrees", "phone": "+1-773-904-8812", "website": "https://www.6degreesbucktown.com/"}}, {"type": "node", "id": 6263471199, "lat": 41.9286184, "lon": -87.6715995, "tags": {"addr:city": "Chicago", "addr:housenumber": "1721", "addr:postcode": "60614", "addr:state": "IL", "addr:street": "West Wrightwood Avenue", "amenity": "bar", "name": "Augie\u2019s", "phone": "+1-773-296-0018", "website": "http://augiesbooze.homestead.com/"}}, {"type": "node", "id": 6282647776, "lat": 41.925444, "lon": -87.6792724, "tags": {"addr:city": "Chicago", "addr:housenumber": "2444", "addr:postcode": "60647", "addr:state": "IL", "addr:street": "North Elston Avenue", "amenity": "cafe", "name": "Chromium", "phone": "+1-773-235-2300", "website": "https://www.midtown.com/chicago"}}, {"type": "node", "id": 6283090050, "lat": 41.9189969, "lon": -87.6773565, "tags": {"addr:city": "Chicago", "addr:housenumber": "2045", "addr:postcode": "60647", "addr:state": "IL", "addr:street": "North Damen Avenue", "amenity": "restaurant", "name": "Coast Sushi Bar", "phone": "+1-773-235-5775", "website": "http://www.coastsushi.net/"}}, {"type": "node", "id": 6284097746, "lat": 41.9194305, "lon": -87.6772409, "tags": {"addr:city": "Chicago", "addr:housenumber": "1951", "addr:postcode": "60647", "addr:state": "IL", "addr:street": "West Dickens Avenue", "amenity": "bar", "name": "Danny\u2019s Tavern", "phone": "+1-773-489-6457"}}, {"type": "node", "id": 6285013873, "lat": 41.9179598, "lon": -87.6789791, "tags": {"addr:city": "Chicago", "addr:housenumber": "2032", "addr:postcode": "60647", "addr:state": "IL", "addr:street": "West Armitage Avenue", "amenity": "bar", "name": "Ed and Jean\u2019s Tavern", "phone": "+1-773-851-8054", "website": "http://www.edandjeanstavern.com/"}}, {"type": "node", "id": 6291799872, "lat": 41.9179762, "lon": -87.6773811, "tags": {"addr:city": "Chicago", "addr:housenumber": "1954", "addr:postcode": "60622", "addr:state": "IL", "addr:street": "West Armitage Avenue", "amenity": "bar", "name": "Gigi\u2019s Kitchen", "phone": "+1-773-799-8290", "website": "https://www.gigischicago.com/"}}, {"type": "node", "id": 6300965222, "lat": 41.920137, "lon": -87.6779363, "tags": {"addr:city": "Chicago", "addr:housenumber": "2118", "addr:postcode": "60647", "addr:state": "IL", "addr:street": "North Damen Avenue", "amenity": "restaurant", "name": "The Royal Grocer & Co", "phone": "+1-773-904-7805", "website": "http://www.royalgrocer.com/"}}, {"type": "node", "id": 6305261850, "lat": 41.9178287, "lon": -87.6843751, "tags": {"addr:city": "Chicago", "addr:housenumber": "2246", "addr:postcode": "60647", "addr:state": "IL", "addr:street": "West Armitage Avenue", "amenity": "restaurant", "name": "The Bento Box", "phone": "+1-773-278-3932"}}, {"type": "node", "id": 6306494893, "lat": 41.9210516, "lon": -87.6779871, "tags": {"addr:city": "Chicago", "addr:housenumber": "2152", "addr:postcode": "60647", "addr:state": "IL", "addr:street": "North Damen Avenue", "amenity": "restaurant", "name": "The Bristol", "phone": "+1-773-862-5555", "website": "http://www.thebristolchicago.com/"}}, {"type": "node", "id": 6315663847, "lat": 41.917591, "lon": -87.6798155, "tags": {"addr:city": "Chicago", "addr:housenumber": "1949", "addr:postcode": "60647", "addr:state": "IL", "addr:street": "North Hoyne Avenue", "amenity": "bar", "name": "The Map Room", "phone": "+1-773-252-7636", "website": "http://www.maproom.com/"}}, {"type": "node", "id": 6319024840, "lat": 41.9161269, "lon": -87.6778008, "tags": {"addr:city": "Chicago", "addr:housenumber": "1880", "addr:postcode": "60647", "addr:state": "IL", "addr:street": "North Damen Avenue", "amenity": "restaurant", "name": "JuiceRx", "phone": "+1-312-252-4938", "website": "https://drinkjuicerx.com/"}}, {"type": "node", "id": 6321781325, "lat": 41.9162275, "lon": -87.6737745, "tags": {"addr:city": "Chicago", "addr:housenumber": "1824", "addr:postcode": "60647", "addr:state": "IL", "addr:street": "West Cortland Street", "amenity": "bar", "name": "Rory Lake\u2019s Karaoke Dreams", "phone": "+1-773-278-0093", "website": "http://www.rorylakepresents.com/"}}, {"type": "node", "id": 6325945247, "lat": 41.9207648, "lon": -87.6691269, "tags": {"addr:city": "Chicago", "addr:housenumber": "2112", "addr:postcode": "60614", "addr:state": "IL", "addr:street": "North Ashland Avenue", "amenity": "cafe", "name": "Vero Coffee & Gelato", "phone": "+1-773-342-6585", "website": "https://verocoffeeandgelato.com/"}}, {"type": "node", "id": 7411640772, "lat": 41.9212534, "lon": -87.6731346, "tags": {"amenity": "cafe", "name": "Little Beans Cafe & Playspace"}}, {"type": "way", "id": 209403393, "nodes": [2196193451, 2196193545, 2196193552, 2196194760, 2196194592, 2196193268, 2196193451], "tags": {"addr:city": "Chicago", "addr:housenumber": "1910", "addr:postcode": "60647", "addr:state": "IL", "addr:street": "North Milwaukee Avenue", "addr:street:name": "Milwaukee", "addr:street:prefix": "North", "addr:street:type": "Avenue", "amenity": "bar", "building": "yes", "building:levels": "2", "chicago:building_id": "843412", "name": "Remedy", "phone": "+1-773-698-7715", "website": "http://remedybarchicago.com/"}}, {"type": "way", "id": 209868352, "nodes": [2200242724, 2200242950, 2200243001, 2200242734, 2200242724], "tags": {"addr:city": "Chicago", "addr:housenumber": "2020", "addr:postcode": "60647", "addr:state": "IL", "addr:street": "North Leavitt Street", "addr:street:name": "Leavitt", "addr:street:prefix": "North", "addr:street:type": "Street", "amenity": "cafe", "building": "yes", "building:levels": "2", "chicago:building_id": "284167", "name": "Red June", "phone": "+1-773-227-2600", "website": "http://www.redjunecafe.com/"}}, {"type": "way", "id": 209882840, "nodes": [2200343250, 2200343368, 2200343378, 2200343276, 2200343272, 2200343251, 2200343250], "tags": {"addr:housenumber": "2418", "addr:postcode": "60614", "addr:street": "North Ashland Avenue", "addr:street:name": "Ashland", "addr:street:prefix": "North", "addr:street:type": "Avenue", "amenity": "restaurant", "building": "yes", "building:levels": "1", "chicago:building_id": "261255", "name": "The Squared Circle"}}, {"type": "way", "id": 209882878, "nodes": [2200344091, 2200344284, 2200344309, 2200344106, 2200344103, 2200344140, 2200344121, 2200344094, 2200344091], "tags": {"addr:city": "Chicago", "addr:housenumber": "2428", "addr:postcode": "60614", "addr:state": "IL", "addr:street": "North Ashland Avenue", "addr:street:name": "Ashland", "addr:street:prefix": "North", "addr:street:type": "Avenue", "amenity": "restaurant", "building": "yes", "building:levels": "2", "chicago:building_id": "260281", "name": "Asian Cajun", "phone": "+1-773-828-5642", "website": "https://asiancajunrestaurant.com/"}}, {"type": "way", "id": 375835721, "nodes": [3791781401, 3791781402, 3791781403, 3791781404, 3791781405, 3791781406, 3791781407, 3791781408, 3791781409, 3791781401], "tags": {"amenity": "bar", "building": "yes", "building:levels": "2", "name": "WhirlyBall"}}]}