{"version": 0.6, "generator": "Overpass API 0.7.56.1004 6cd3eaec", "osm3s": {"timestamp_osm_base": "2020-07-22T03:33:03Z", "copyright": "The data included in this document is from www.openstreetmap.org. The data is made available under ODbL."}, "elements": [{"type": "node", "id": 2205892783, "lat": 41.753829, "lon": -87.6242606}, {"type": "node", "id": 2205892798, "lat": 41.7538337, "lon": -87.6239013}, {"type": "node", "id": 2205893002, "lat": 41.7539608, "lon": -87.6242628}, {"type": "node", "id": 2205893013, "lat": 41.7539654, "lon": -87.6239054}, {"type": "node", "id": 2208958493, "lat": 41.7508316, "lon": -87.6201707}, {"type": "node", "id": 2208958498, "lat": 41.7508345, "lon": -87.6199618}, {"type": "node", "id": 2208958710, "lat": 41.7509373, "lon": -87.6201732}, {"type": "node", "id": 2208958718, "lat": 41.7509401, "lon": -87.6199643}, {"type": "node", "id": 2209007442, "lat": 41.7580808, "lon": -87.6197386}, {"type": "node", "id": 2209007447, "lat": 41.7580845, "lon": -87.6194491}, {"type": "node", "id": 2209007611, "lat": 41.7581557, "lon": -87.6176743}, {"type": "node", "id": 2209007613, "lat": 41.7581566, "lon": -87.6175955}, {"type": "node", "id": 2209007701, "lat": 41.7581984, "lon": -87.6176867}, {"type": "node", "id": 2209007714, "lat": 41.7581997, "lon": -87.6176757}, {"type": "node", "id": 2209007718, "lat": 41.7582005, "lon": -87.6175969}, {"type": "node", "id": 2209007720, "lat": 41.7582018, "lon": -87.617584}, {"type": "node", "id": 2209007773, "lat": 41.7582194, "lon": -87.6197408}, {"type": "node", "id": 2209007791, "lat": 41.758233, "lon": -87.619726}, {"type": "node", "id": 2209007804, "lat": 41.7582368, "lon": -87.6194529}, {"type": "node", "id": 2209007851, "lat": 41.7582601, "lon": -87.6176878}, {"type": "node", "id": 2209007853, "lat": 41.7582608, "lon": -87.6175852}, {"type": "node", "id": 2209007865, "lat": 41.7582696, "lon": -87.6176639}, {"type": "node", "id": 2209007866, "lat": 41.7582706, "lon": -87.6176089}, {"type": "node", "id": 2209007867, "lat": 41.7582721, "lon": -87.6176364}, {"type": "node", "id": 5466051563, "lat": 41.7582333, "lon": -87.6180284, "tags": {"addr:city": "Chicago", "addr:housenumber": "307", "addr:postcode": "60619", "addr:state": "IL", "addr:street": "East 75th Street", "amenity": "bar", "name": "Frances' Cocktail Lounge"}}, {"type": "node", "id": 6050577208, "lat": 41.7558916, "lon": -87.6055361, "tags": {"addr:city": "Chicago", "addr:housenumber": "7628", "addr:postcode": "60619", "addr:state": "IL", "addr:street": "South Cottage Grove Avenue", "amenity": "bar", "name": "Murphy's Lounge"}}, {"type": "node", "id": 6154664270, "lat": 41.7440469, "lon": -87.6069131, "tags": {"addr:city": "Chicago", "addr:housenumber": "712", "addr:postcode": "60619", "addr:state": "IL", "addr:street": "East 83rd Street", "amenity": "restaurant", "name": "City Life"}}, {"type": "node", "id": 6154664271, "lat": 41.7581061, "lon": -87.6055383, "tags": {"addr:city": "Chicago", "addr:housenumber": "7512", "addr:postcode": "60619", "addr:state": "IL", "addr:street": "South Cottage Grove Avenue", "amenity": "bar", "name": "Randy's Lounge"}}, {"type": "node", "id": 6300512910, "lat": 41.7583443, "lon": -87.6082472, "tags": {"addr:city": "Chicago", "addr:housenumber": "653", "addr:postcode": "60619", "addr:state": "IL", "addr:street": "East 75th Street", "amenity": "bar", "name": "President\u2019s Lounge", "phone": "+1-773-874-1212"}}, {"type": "node", "id": 6321574357, "lat": 41.7435228, "lon": -87.6231342, "tags": {"addr:city": "Chicago", "addr:housenumber": "33", "addr:postcode": "60619", "addr:state": "IL", "addr:street": "East 83rd Street", "amenity": "cafe", "name": "Mather\u2019s More Than a Cafe", "phone": "+1-773-488-2801", "website": "https://www.matherlifeways.com/mathers-more-than-a-cafe"}}, {"type": "way", "id": 210501911, "nodes": [2205892783, 2205893002, 2205893013, 2205892798, 2205892783], "tags": {"addr:city": "Chicago", "addr:housenumber": "7723", "addr:postcode": "60619", "addr:street": "South State Street", "addr:street:name": "State", "addr:street:prefix": "South", "addr:street:type": "Street", "amenity": "restaurant", "building": "yes", "building:levels": "1", "chicago:building_id": "605463", "cuisine": "mexican", "name": "Jerk Taco Man", "website": "https://www.jerktacoman.com/"}}, {"type": "way", "id": 210858618, "nodes": [2208958493, 2208958710, 2208958718, 2208958498, 2208958493], "tags": {"addr:city": "Chicago", "addr:housenumber": "131", "addr:postcode": "60619", "addr:street": "East 79th Street", "addr:street:name": "79th", "addr:street:prefix": "East", "addr:street:type": "Street", "amenity": "restaurant", "building": "yes", "building:levels": "1", "chicago:building_id": "614275", "cuisine": "mexican", "name": "Pepe's Mexican Restaurant", "website": "http://pepes.com/088/pepes-mexican-food-restaurants-Chicago-IL.php"}}, {"type": "way", "id": 210862931, "nodes": [2209007442, 2209007773, 2209007791, 2209007804, 2209007447, 2209007442], "tags": {"addr:city": "Chicago", "addr:housenumber": "203", "addr:state": "IL", "addr:street": "East 75th Street", "addr:street:name": "75th", "addr:street:prefix": "East", "addr:street:type": "Street", "amenity": "restaurant", "building": "yes", "building:levels": "1", "chicago:building_id": "595360", "craft": "caterer", "diet:vegan": "only", "name": "Original Soul Vegetarian", "website": "https://www.originalsoulvegetarian.com/"}}, {"type": "way", "id": 210862949, "nodes": [2209007611, 2209007714, 2209007701, 2209007851, 2209007865, 2209007867, 2209007866, 2209007853, 2209007720, 2209007718, 2209007613, 2209007611], "tags": {"addr:city": "Chicago", "addr:housenumber": "311", "addr:postcode": "60619", "addr:state": "IL", "addr:street": "East 75th Street", "addr:street:name": "75th", "addr:street:prefix": "East", "addr:street:type": "Street", "amenity": "restaurant", "building": "yes", "building:levels": "1", "chicago:building_id": "595299", "cuisine": "barbecue", "name": "Lem's Bar-B-Q", "website": "http://www.lemsbarbq.com/"}}]}