{"version": 0.6, "generator": "Overpass API 0.7.56.1004 6cd3eaec", "osm3s": {"timestamp_osm_base": "2020-07-22T01:16:01Z", "copyright": "The data included in this document is from www.openstreetmap.org. The data is made available under ODbL."}, "elements": [{"type": "node", "id": 354268767, "lat": 41.8679269, "lon": -87.680254}, {"type": "node", "id": 2199652436, "lat": 41.8575573, "lon": -87.6676041}, {"type": "node", "id": 2199652486, "lat": 41.8575596, "lon": -87.6675215}, {"type": "node", "id": 2199653406, "lat": 41.8576589, "lon": -87.6676067}, {"type": "node", "id": 2199653408, "lat": 41.8576611, "lon": -87.6675241}, {"type": "node", "id": 2200380931, "lat": 41.8714182, "lon": -87.6759677}, {"type": "node", "id": 2200380932, "lat": 41.867773, "lon": -87.6736339}, {"type": "node", "id": 2200380941, "lat": 41.8659414, "lon": -87.6729741}, {"type": "node", "id": 2200380949, "lat": 41.8683982, "lon": -87.6701205}, {"type": "node", "id": 2200380953, "lat": 41.8714981, "lon": -87.6714026}, {"type": "node", "id": 2200380956, "lat": 41.8676452, "lon": -87.6714453}, {"type": "node", "id": 2200380958, "lat": 41.8659819, "lon": -87.6702726}, {"type": "node", "id": 2200380963, "lat": 41.8715141, "lon": -87.6702975}, {"type": "node", "id": 2200380970, "lat": 41.8669681, "lon": -87.6695519}, {"type": "node", "id": 2200380989, "lat": 41.8669599, "lon": -87.6687265}, {"type": "node", "id": 2200380994, "lat": 41.8725103, "lon": -87.6707177}, {"type": "node", "id": 2200380995, "lat": 41.8666884, "lon": -87.6729976}, {"type": "node", "id": 2200381003, "lat": 41.8650845, "lon": -87.6694765}, {"type": "node", "id": 2200381004, "lat": 41.8676153, "lon": -87.6736235}, {"type": "node", "id": 2200381006, "lat": 41.867847, "lon": -87.6665964}, {"type": "node", "id": 2200381008, "lat": 41.871582, "lon": -87.6666929}, {"type": "node", "id": 2200381017, "lat": 41.8677391, "lon": -87.6761126}, {"type": "node", "id": 2200381020, "lat": 41.8669401, "lon": -87.6671862}, {"type": "node", "id": 2200381022, "lat": 41.8690733, "lon": -87.6759087}, {"type": "node", "id": 2200381031, "lat": 41.8683703, "lon": -87.671467}, {"type": "node", "id": 2200381045, "lat": 41.867841, "lon": -87.667202}, {"type": "node", "id": 2200381061, "lat": 41.8679892, "lon": -87.6761142}, {"type": "node", "id": 2200381064, "lat": 41.8667244, "lon": -87.6700722}, {"type": "node", "id": 2200381068, "lat": 41.8689974, "lon": -87.68027}, {"type": "node", "id": 2200381071, "lat": 41.8669361, "lon": -87.6673578}, {"type": "node", "id": 2200381078, "lat": 41.8727843, "lon": -87.6703405}, {"type": "node", "id": 2200381080, "lat": 41.8728263, "lon": -87.6704206}, {"type": "node", "id": 2200633104, "lat": 41.8724946, "lon": -87.6714394}, {"type": "node", "id": 2200633113, "lat": 41.8728197, "lon": -87.6707318}, {"type": "node", "id": 2468069259, "lat": 41.871623, "lon": -87.6703012}, {"type": "node", "id": 3264147413, "lat": 41.8650703, "lon": -87.6702447}, {"type": "node", "id": 3919513824, "lat": 41.8578685, "lon": -87.6708525, "tags": {"amenity": "restaurant", "name": "Taqueria El Mezquite"}}, {"type": "node", "id": 4076939404, "lat": 41.8523519, "lon": -87.6851567, "tags": {"amenity": "restaurant", "name": "Super Taqueria El Taconazo"}}, {"type": "node", "id": 4076939409, "lat": 41.8523623, "lon": -87.6847253, "tags": {"amenity": "restaurant", "cuisine": "chinese", "name": "Wen Gai"}}, {"type": "node", "id": 4076939412, "lat": 41.8519228, "lon": -87.6849903, "tags": {"amenity": "restaurant", "brand": "Pizza Hut", "brand:wikidata": "Q191615", "brand:wikipedia": "en:Pizza Hut", "cuisine": "pizza", "name": "Pizza Hut"}}, {"type": "node", "id": 4076939426, "lat": 41.8511632, "lon": -87.6862264, "tags": {"amenity": "restaurant", "cuisine": "chinese", "name": "Canton Star"}}, {"type": "node", "id": 5042203300, "lat": 41.852241, "lon": -87.6795198, "tags": {"addr:city": "Chicago", "addr:housenumber": "2128", "addr:postcode": "60608", "addr:state": "IL", "addr:street": "West Cermak Road", "amenity": "restaurant", "name": "Miro's Restaurants & Pizzeria"}}, {"type": "node", "id": 5926633071, "lat": 41.8669451, "lon": -87.667873}, {"type": "node", "id": 5926633072, "lat": 41.8669575, "lon": -87.6685864}, {"type": "node", "id": 6126571201, "lat": 41.8574586, "lon": -87.6663934, "tags": {"addr:city": "Chicago", "addr:housenumber": "1808", "addr:postcode": "60608", "addr:state": "IL", "addr:street": "South Ashland Avenue", "amenity": "restaurant", "cuisine": "mexican;carnitas", "drink:alcohol": "no", "name": "Sabas Vega", "phone": "+1 312-666-5180", "website": "https://donrafarestaurants.com/sabasvega/"}}, {"type": "node", "id": 6126577491, "lat": 41.8479967, "lon": -87.6829231, "tags": {"addr:city": "Chicago", "addr:housenumber": "2413", "addr:state": "IL", "addr:street": "South Oakley Avenue", "amenity": "restaurant", "cuisine": "italian", "name": "Bacchanalia", "phone": "+1 773-254-6555"}}, {"type": "node", "id": 6126580564, "lat": 41.8578806, "lon": -87.6702407, "tags": {"addr:city": "Chicago", "addr:housenumber": "1738", "addr:postcode": "60608", "addr:state": "IL", "addr:street": "West 18th Street", "amenity": "cafe", "cuisine": "coffee_shop", "name": "Cafe Mestizo", "phone": "+1 312-425-5724"}}, {"type": "node", "id": 6251767399, "lat": 41.8580855, "lon": -87.6709499, "tags": {"addr:city": "Chicago", "addr:housenumber": "1758", "addr:postcode": "60608", "addr:state": "IL", "addr:street": "West 18th Street", "amenity": "restaurant", "name": "5 Rabanitos Restaurante and Taqueria", "phone": "+1-312-285-2710", "website": "https://5rabanitosdotcom.wordpress.com/"}}, {"type": "node", "id": 6280472914, "lat": 41.8548431, "lon": -87.6684053, "tags": {"addr:city": "Chicago", "addr:housenumber": "1659", "addr:postcode": "60608", "addr:state": "IL", "addr:street": "West Cullerton Street", "amenity": "bar", "name": "Caminos De Michoacan Bar", "phone": "+1-312-226-0687", "website": "https://www.tpskaraoke.com/karaoke-fridays-caminos-de-michoacan-bar"}}, {"type": "node", "id": 6280524453, "lat": 41.8575892, "lon": -87.6697952, "tags": {"addr:city": "Chicago", "addr:housenumber": "1725", "addr:postcode": "60608", "addr:state": "IL", "addr:street": "West 18th Street", "amenity": "restaurant", "name": "Carnitas Uruapan Restaurant", "phone": "+1-312-226-2654", "website": "http://www.carnitasuruapanchi.com/"}}, {"type": "node", "id": 6285863501, "lat": 41.8625051, "lon": -87.6868715, "tags": {"addr:city": "Chicago", "addr:housenumber": "2419", "addr:postcode": "60608", "addr:state": "IL", "addr:street": "West 14th Street", "amenity": "restaurant", "cuisine": "american", "name": "EL Ideas", "phone": "+1-312-226-8144", "website": "http://www.elideas.com/"}}, {"type": "node", "id": 6300146985, "lat": 41.8575391, "lon": -87.6697878, "tags": {"addr:city": "Chicago", "addr:housenumber": "1727", "addr:postcode": "60608", "addr:state": "IL", "addr:street": "West 18th Street", "amenity": "cafe", "name": "INTERSECT", "phone": "+1-312-846-6805", "website": "https://www.intersectcoffee.com/"}}, {"type": "node", "id": 6303127333, "lat": 41.8579759, "lon": -87.6655859, "tags": {"addr:city": "Chicago", "addr:housenumber": "1544", "addr:postcode": "60608", "addr:state": "IL", "addr:street": "West 18th Street", "amenity": "restaurant", "name": "Taqueria Los Comales 3", "phone": "+1-312-666-2251", "website": "https://www.loscomales.com/"}}, {"type": "node", "id": 6305247842, "lat": 41.8544099, "lon": -87.6757334, "tags": {"addr:city": "Chicago", "addr:housenumber": "2015", "addr:postcode": "60608", "addr:state": "IL", "addr:street": "South Damen Avenue", "amenity": "bar", "name": "The Barrel", "phone": "+1-312-754-0156"}}, {"type": "node", "id": 6315605303, "lat": 41.857978, "lon": -87.6680425, "tags": {"addr:city": "Chicago", "addr:housenumber": "1646", "addr:postcode": "60608", "addr:state": "IL", "addr:street": "West 18th Street", "amenity": "restaurant", "name": "The Jibarito Stop", "phone": "+1-312-988-0585", "website": "https://thejibaritostop.com/Home/HomeManager"}}, {"type": "node", "id": 6316691060, "lat": 41.8627522, "lon": -87.6863494, "tags": {"addr:city": "Chicago", "addr:housenumber": "1400", "addr:postcode": "60608", "addr:state": "IL", "addr:street": "South Western Avenue", "amenity": "bar", "name": "Water Hole Lounge", "phone": "+1-312-243-7988", "website": "https://waterholechicago.wixsite.com/waterholechicago"}}, {"type": "node", "id": 6317051145, "lat": 41.8574736, "lon": -87.6692665, "tags": {"addr:city": "Chicago", "addr:housenumber": "1711", "addr:postcode": "60608", "addr:state": "IL", "addr:street": "West 18th Street", "amenity": "cafe", "name": "Xurro", "phone": "+1-773-823-9571", "website": "https://www.churrofactory.com/"}}, {"type": "node", "id": 6319862087, "lat": 41.8546674, "lon": -87.6760984, "tags": {"addr:city": "Chicago", "addr:housenumber": "2010", "addr:postcode": "60608", "addr:state": "IL", "addr:street": "South Damen Avenue", "amenity": "cafe", "name": "L Cafecito Jumping Bean", "phone": "+1-312-366-2930", "website": "https://cafejumpingbean.wordpress.com/menu-2/"}}, {"type": "node", "id": 6321541517, "lat": 41.8514785, "lon": -87.6781294, "tags": {"addr:city": "Chicago", "addr:housenumber": "2058", "addr:postcode": "60608", "addr:state": "IL", "addr:street": "West 22nd Place", "amenity": "bar", "name": "Martin\u2019s Corner", "phone": "+1-773-847-5515"}}, {"type": "node", "id": 6883621708, "lat": 41.8703585, "lon": -87.675941}, {"type": "node", "id": 6883621709, "lat": 41.8701725, "lon": -87.6759364}, {"type": "way", "id": 209782710, "nodes": [2199652436, 2199653406, 2199653408, 2199652486, 2199652436], "tags": {"addr:housenumber": "1635", "addr:street": "West 18th Street", "addr:street:name": "18th", "addr:street:prefix": "West", "addr:street:type": "Street", "amenity": "cafe", "building": "yes", "chicago:building_id": "378524", "name": "Monsivais Cafe"}}, {"type": "way", "id": 209879618, "nodes": [354268767, 2200381068, 2200381022, 6883621709, 6883621708, 2200380931, 2200380953, 2200633104, 2200380994, 2200633113, 2200381080, 2200381078, 2468069259, 2200380963, 2200381008, 2200381006, 2200381045, 2200381020, 2200381071, 5926633071, 5926633072, 2200380989, 2200380970, 2200381003, 3264147413, 2200380958, 2200380941, 2200380995, 2200381064, 2200380949, 2200381031, 2200380956, 2200381004, 2200380932, 2200381017, 2200381061, 354268767], "tags": {"amenity": "university", "ele": "181", "gnis:county_id": "031", "gnis:created": "05/03/1999", "gnis:feature_id": "1837072", "gnis:state_id": "17", "name": "University of Illinois at Chicago West Campus"}}]}