{"version": 0.6, "generator": "Overpass API 0.7.56.3 eb200aeb", "osm3s": {"timestamp_osm_base": "2020-07-04T22:55:02Z", "copyright": "The data included in this document is from www.openstreetmap.org. The data is made available under ODbL."}, "elements": [{"type": "node", "id": 3630426293, "lat": 41.9528814, "lon": -87.8107707, "tags": {"addr:city": "Norridge", "addr:housenumber": "7230", "addr:postcode": "60706", "addr:street": "West Irving Park Road", "amenity": "bar", "name": "City Tap & Grill", "wheelchair": "yes"}}, {"type": "node", "id": 6269769547, "lat": 41.9383511, "lon": -87.7938811, "tags": {"addr:city": "Chicago", "addr:housenumber": "6710", "addr:postcode": "60634", "addr:state": "IL", "addr:street": "West Belmont Avenue", "amenity": "bar", "name": "Cafe Prague", "phone": "+1-773-427-7587", "website": "http://www.cafepraguechicago.com"}}, {"type": "node", "id": 6272375295, "lat": 41.9424056, "lon": -87.8073994, "tags": {"addr:city": "Chicago", "addr:housenumber": "3426", "addr:postcode": "60634", "addr:state": "IL", "addr:street": "North Harlem Avenue", "amenity": "restaurant", "name": "BarTucci", "phone": "+1-773-887-4416", "website": "http://bartuccichicago.com/"}}, {"type": "node", "id": 6306488458, "lat": 41.9503507, "lon": -87.8075249, "tags": {"addr:city": "Chicago", "addr:housenumber": "3848", "addr:postcode": "60634", "addr:state": "IL", "addr:street": "North Harlem Avenue", "amenity": "bar", "name": "The Brewery", "phone": "+1-773-625-7818", "website": "https://the-brewery-bar-and-grill.business.site/"}}, {"type": "node", "id": 6315673013, "lat": 41.9525251, "lon": -87.7985204, "tags": {"addr:city": "Chicago", "addr:housenumber": "6859", "addr:postcode": "60634", "addr:state": "IL", "addr:street": "West Irving Park Road", "amenity": "bar", "name": "The Nest Bar & Eatery", "phone": "+1-773-685-7155", "website": "https://thenestbarandeatery.com//"}}, {"type": "node", "id": 6318868018, "lat": 41.9404538, "lon": -87.8065294, "tags": {"addr:city": "Chicago", "addr:housenumber": "3317", "addr:postcode": "60634", "addr:state": "IL", "addr:street": "North Harlem Avenue", "amenity": "restaurant", "name": "Jibarito\u2019s on Harlem", "phone": "+1-773-647-1122", "website": "https://jibaritos-on-harlem.business.site/"}}, {"type": "node", "id": 6324182961, "lat": 41.93836, "lon": -87.7940371, "tags": {"addr:city": "Chicago", "addr:housenumber": "6714", "addr:postcode": "60634", "addr:state": "IL", "addr:street": "West Belmont Avenue", "amenity": "bar", "name": "OverTime Sports Bar and Grill", "phone": "+1-773-993-0533"}}]}