{"version": 0.6, "generator": "Overpass API 0.7.56.3 eb200aeb", "osm3s": {"timestamp_osm_base": "2020-07-17T21:20:03Z", "copyright": "The data included in this document is from www.openstreetmap.org. The data is made available under ODbL."}, "elements": [{"type": "node", "id": 1745517144, "lat": 41.9674484, "lon": -87.7684218}, {"type": "node", "id": 1745517149, "lat": 41.9674495, "lon": -87.7683722}, {"type": "node", "id": 1745517356, "lat": 41.9674962, "lon": -87.7683736}, {"type": "node", "id": 1745517359, "lat": 41.9674974, "lon": -87.7683405}, {"type": "node", "id": 1745517541, "lat": 41.9675646, "lon": -87.7683418}, {"type": "node", "id": 1745517548, "lat": 41.9675658, "lon": -87.7683105}, {"type": "node", "id": 1745517601, "lat": 41.9675982, "lon": -87.7684738}, {"type": "node", "id": 1745517611, "lat": 41.9675993, "lon": -87.768426}, {"type": "node", "id": 1745517815, "lat": 41.9676764, "lon": -87.7684768}, {"type": "node", "id": 1745517831, "lat": 41.9676797, "lon": -87.7683132}, {"type": "node", "id": 1745518192, "lat": 41.9679588, "lon": -87.7606604}, {"type": "node", "id": 1745518238, "lat": 41.9679805, "lon": -87.7606161}, {"type": "node", "id": 1745518263, "lat": 41.9680095, "lon": -87.7607055}, {"type": "node", "id": 1745518390, "lat": 41.9680661, "lon": -87.7604443}, {"type": "node", "id": 1745518690, "lat": 41.9681171, "lon": -87.7604917}, {"type": "node", "id": 1745526356, "lat": 41.9694732, "lon": -87.7627962}, {"type": "node", "id": 1745526416, "lat": 41.9694787, "lon": -87.7627851}, {"type": "node", "id": 1745526774, "lat": 41.9694964, "lon": -87.7627592}, {"type": "node", "id": 1745526891, "lat": 41.9695119, "lon": -87.7628547}, {"type": "node", "id": 1745527030, "lat": 41.9695344, "lon": -87.7626816}, {"type": "node", "id": 1745527281, "lat": 41.969556, "lon": -87.7626171}, {"type": "node", "id": 1745527366, "lat": 41.9695716, "lon": -87.7627107}, {"type": "node", "id": 1745527428, "lat": 41.9695785, "lon": -87.762718}, {"type": "node", "id": 1745527899, "lat": 41.9696335, "lon": -87.762462}, {"type": "node", "id": 1745528296, "lat": 41.9696776, "lon": -87.762502}, {"type": "node", "id": 1749350451, "lat": 41.9677627, "lon": -87.7760197}, {"type": "node", "id": 1749350456, "lat": 41.9677637, "lon": -87.7759351}, {"type": "node", "id": 1749350504, "lat": 41.9678183, "lon": -87.7716728}, {"type": "node", "id": 1749350512, "lat": 41.9678206, "lon": -87.7715809}, {"type": "node", "id": 1749350604, "lat": 41.9678553, "lon": -87.7772912}, {"type": "node", "id": 1749350636, "lat": 41.9678645, "lon": -87.7715805}, {"type": "node", "id": 1749350643, "lat": 41.9678674, "lon": -87.7772488}, {"type": "node", "id": 1749350665, "lat": 41.9678742, "lon": -87.7715933}, {"type": "node", "id": 1749350735, "lat": 41.9678944, "lon": -87.7760094}, {"type": "node", "id": 1749350736, "lat": 41.9678944, "lon": -87.7760222}, {"type": "node", "id": 1749350837, "lat": 41.9679505, "lon": -87.7773915}, {"type": "node", "id": 1749350877, "lat": 41.9679575, "lon": -87.7760106}, {"type": "node", "id": 1749350926, "lat": 41.9679658, "lon": -87.7760216}, {"type": "node", "id": 1749351217, "lat": 41.9680211, "lon": -87.7772456}, {"type": "node", "id": 1749351298, "lat": 41.9680378, "lon": -87.7716654}, {"type": "node", "id": 1749351299, "lat": 41.9680379, "lon": -87.7716764}, {"type": "node", "id": 1749351303, "lat": 41.9680389, "lon": -87.7716102}, {"type": "node", "id": 1749351309, "lat": 41.9680399, "lon": -87.7760228}, {"type": "node", "id": 1749351313, "lat": 41.9680403, "lon": -87.7715973}, {"type": "node", "id": 1749351319, "lat": 41.9680408, "lon": -87.7759419}, {"type": "node", "id": 1749351472, "lat": 41.9680735, "lon": -87.7716669}, {"type": "node", "id": 1749351476, "lat": 41.9680746, "lon": -87.7716118}, {"type": "node", "id": 1749353274, "lat": 41.9686262, "lon": -87.7784568}, {"type": "node", "id": 1749353275, "lat": 41.9686265, "lon": -87.7785138}, {"type": "node", "id": 1749353285, "lat": 41.968645, "lon": -87.7786497}, {"type": "node", "id": 1749353287, "lat": 41.9686457, "lon": -87.7785154}, {"type": "node", "id": 1749353623, "lat": 41.9687568, "lon": -87.7781548}, {"type": "node", "id": 1749353634, "lat": 41.9687597, "lon": -87.7778974}, {"type": "node", "id": 1749353804, "lat": 41.9688316, "lon": -87.7786517}, {"type": "node", "id": 1749353813, "lat": 41.9688356, "lon": -87.778637}, {"type": "node", "id": 1749353818, "lat": 41.9688375, "lon": -87.7784605}, {"type": "node", "id": 1749353843, "lat": 41.9688433, "lon": -87.7781559}, {"type": "node", "id": 1749353851, "lat": 41.9688462, "lon": -87.7779003}, {"type": "node", "id": 1749363459, "lat": 41.9714741, "lon": -87.7714826}, {"type": "node", "id": 1749363541, "lat": 41.9714992, "lon": -87.771578}, {"type": "node", "id": 1749364287, "lat": 41.9716972, "lon": -87.7713758}, {"type": "node", "id": 1749364352, "lat": 41.9717224, "lon": -87.7714712}, {"type": "node", "id": 1749666420, "lat": 41.9764995, "lon": -87.7691234}, {"type": "node", "id": 1749666667, "lat": 41.9766354, "lon": -87.7688574}, {"type": "node", "id": 1749666768, "lat": 41.976669, "lon": -87.7692782}, {"type": "node", "id": 1749667082, "lat": 41.9768049, "lon": -87.7690122}, {"type": "node", "id": 4131957038, "lat": 41.9675362, "lon": -87.7771017, "tags": {"addr:city": "Chicago", "addr:housenumber": "5959", "addr:postcode": "60630", "addr:state": "IL", "addr:street": "West Lawrence Avenue", "amenity": "restaurant", "cuisine": "mexican", "name": "Taquer\u00eda Amigo Chino", "opening_hours": "Su-Th 07:00-24:00; Fr-Sa 00:00-24:00"}}, {"type": "node", "id": 4134476928, "lat": 41.9679551, "lon": -87.7755004, "tags": {"addr:city": "Chicago", "addr:housenumber": "5914", "addr:postcode": "60630", "addr:state": "IL", "addr:street": "West Lawrence Avenue", "amenity": "restaurant", "cuisine": "vietnamese", "name": "Pho Number One"}}, {"type": "node", "id": 4137634824, "lat": 41.967518, "lon": -87.7678363}, {"type": "node", "id": 4137634825, "lat": 41.9675148, "lon": -87.7678368}, {"type": "node", "id": 4137634826, "lat": 41.9675145, "lon": -87.7678586}, {"type": "node", "id": 4137634827, "lat": 41.9674915, "lon": -87.7678583}, {"type": "node", "id": 4137634828, "lat": 41.967491, "lon": -87.7679143}, {"type": "node", "id": 4137634829, "lat": 41.9674525, "lon": -87.7679131}, {"type": "node", "id": 4137634830, "lat": 41.967452, "lon": -87.767953}, {"type": "node", "id": 4137634831, "lat": 41.9673782, "lon": -87.767948}, {"type": "node", "id": 4137634832, "lat": 41.9673805, "lon": -87.7678244}, {"type": "node", "id": 4137634833, "lat": 41.9673741, "lon": -87.7678238}, {"type": "node", "id": 4137634834, "lat": 41.9673773, "lon": -87.7676415}, {"type": "node", "id": 4137634835, "lat": 41.9675064, "lon": -87.767644}, {"type": "node", "id": 4137634836, "lat": 41.967505, "lon": -87.7677433}, {"type": "node", "id": 4137634837, "lat": 41.9675166, "lon": -87.7677433}, {"type": "node", "id": 4137634838, "lat": 41.9675166, "lon": -87.767772}, {"type": "node", "id": 4137634839, "lat": 41.9675189, "lon": -87.7677719}, {"type": "node", "id": 4137634846, "lat": 41.9674539, "lon": -87.7679131}, {"type": "node", "id": 4172392093, "lat": 41.97003, "lon": -87.7628353}, {"type": "node", "id": 4172392094, "lat": 41.9698623, "lon": -87.7631699}, {"type": "node", "id": 4172392095, "lat": 41.9697858, "lon": -87.7631007}, {"type": "node", "id": 4172392096, "lat": 41.9697432, "lon": -87.7631857}, {"type": "node", "id": 4172392097, "lat": 41.9697022, "lon": -87.7631474}, {"type": "node", "id": 4172392098, "lat": 41.9699171, "lon": -87.7627296}, {"type": "node", "id": 4172392103, "lat": 41.9708434, "lon": -87.7632141, "tags": {"addr:city": "Chicago", "addr:housenumber": "4945", "addr:postcode": "60630", "addr:state": "IL", "addr:street": "North Milwaukee Avenue", "amenity": "restaurant", "cuisine": "sushi", "delivery": "yes", "name": "Gorilla Sushi Bar", "takeaway": "yes"}}, {"type": "node", "id": 4186479468, "lat": 41.9705905, "lon": -87.7626602, "tags": {"addr:city": "Chicago", "addr:housenumber": "5364", "addr:postcode": "60630", "addr:state": "IL", "addr:street": "West Gale Street", "amenity": "restaurant", "cuisine": "american", "delivery": "no", "name": "Jefferson Park Grill"}}, {"type": "node", "id": 4186479471, "lat": 41.9680695, "lon": -87.7610792}, {"type": "node", "id": 4186479475, "lat": 41.9681174, "lon": -87.761121}, {"type": "node", "id": 4186479476, "lat": 41.9679337, "lon": -87.7613616}, {"type": "node", "id": 4186479477, "lat": 41.9679822, "lon": -87.7614041}, {"type": "node", "id": 4186624668, "lat": 41.9687569, "lon": -87.7781439}, {"type": "node", "id": 4186624671, "lat": 41.9687595, "lon": -87.7779182}, {"type": "node", "id": 4186821640, "lat": 41.969289, "lon": -87.7609822, "tags": {"addr:city": "Chicago", "addr:housenumber": "4859", "addr:postcode": "60630", "addr:state": "IL", "addr:street": "North Milwaukee Avenue", "amenity": "restaurant", "cuisine": "filipino", "name": "Kawayan"}}, {"type": "node", "id": 4263626450, "lat": 41.9771698, "lon": -87.7697283, "tags": {"addr:city": "Chicago", "addr:housenumber": "5316", "addr:postcode": "60630", "addr:state": "IL", "addr:street": "North Milwaukee Avenue", "amenity": "restaurant", "cuisine": "chinese", "name": "Chinese Kitchen"}}, {"type": "node", "id": 4269213208, "lat": 41.9658908, "lon": -87.7598708, "tags": {"addr:city": "Chicago", "addr:housenumber": "4716", "addr:postcode": "60630", "addr:state": "IL", "addr:street": "North Milwaukee Avenue", "amenity": "restaurant", "cuisine": "chinese", "name": "China Star"}}, {"type": "node", "id": 5623406086, "lat": 41.9692208, "lon": -87.7609158, "tags": {"addr:city": "Chicago", "addr:housenumber": "4855", "addr:postcode": "60630", "addr:state": "IL", "addr:street": "North Milwaukee Avenue", "amenity": "restaurant", "cuisine": "chinese", "delivery": "yes", "name": "Excelsior Garden", "outdoor_seating": "no", "takeaway": "yes"}}, {"type": "node", "id": 6263888085, "lat": 41.9611391, "lon": -87.7550894, "tags": {"addr:city": "Chicago", "addr:housenumber": "4416", "addr:postcode": "60630", "addr:state": "IL", "addr:street": "North Milwaukee Avenue", "amenity": "bar", "name": "Babe\u2019s On Milwaukee", "phone": "+1-773-545-3137"}}, {"type": "node", "id": 6298804877, "lat": 41.9607098, "lon": -87.7722949, "tags": {"addr:city": "Chicago", "addr:housenumber": "5800", "addr:postcode": "60634", "addr:state": "IL", "addr:street": "West Montrose Avenue", "amenity": "bar", "name": "Six Penny Bit", "phone": "+1-773-545-2033"}}, {"type": "node", "id": 6321708060, "lat": 41.9705803, "lon": -87.7628638, "tags": {"addr:city": "Chicago", "addr:housenumber": "4933", "addr:postcode": "60630", "addr:state": "IL", "addr:street": "North Milwaukee Avenue", "amenity": "bar", "name": "Rex Tavern", "phone": "+1-773-202-9444", "website": "http://www.rextavernchicago.com/"}}, {"type": "node", "id": 6324500111, "lat": 41.9631548, "lon": -87.7569774, "tags": {"addr:city": "Chicago", "addr:housenumber": "4530", "addr:postcode": "60630", "addr:state": "IL", "addr:street": "North Milwaukee Avenue", "amenity": "bar", "name": "The Windsor Tavern", "phone": "+1-773-736-3400"}}, {"type": "node", "id": 6412876024, "lat": 41.9679347, "lon": -87.7676669, "tags": {"addr:city": "Chicago", "addr:housenumber": "4800", "addr:postcode": "60630", "addr:state": "IL", "addr:street": "North Central Avenue", "amenity": "restaurant", "cuisine": "colombian", "name": "El Asadero Colombiano", "opening_hours": "Su-Th 10:00-22:00; Fr-Sa 10:00-23:00", "outdoor_seating": "no"}}, {"type": "node", "id": 6412876025, "lat": 41.9695853, "lon": -87.7624103}, {"type": "node", "id": 6412876026, "lat": 41.9694429, "lon": -87.7626862}, {"type": "node", "id": 6412876027, "lat": 41.9694425, "lon": -87.7627287}, {"type": "way", "id": 162704482, "nodes": [1745518263, 1745518690, 1745518390, 1745518238, 1745518192, 1745518263], "tags": {"addr:city": "Chicago", "addr:housenumber": "4801", "addr:postcode": "60630", "addr:state": "IL", "addr:street": "North Milwaukee Avenue", "addr:street:name": "Milwaukee", "addr:street:prefix": "North", "addr:street:type": "Avenue", "amenity": "cafe", "building": "yes", "building:levels": "1", "chicago:building_id": "844615", "cuisine": "coffee_shop", "name": "Costa Cafe"}}, {"type": "way", "id": 162705754, "nodes": [1745526416, 1745526356, 1745526891, 1745527428, 1745527366, 1745528296, 1745527899, 1745527281, 1745527030, 1745526774, 1745526416], "tags": {"addr:city": "Chicago", "addr:housenumber": "4874", "addr:postcode": "60630", "addr:state": "IL", "addr:street": "North Milwaukee Avenue", "addr:street:name": "Milwaukee", "addr:street:prefix": "North", "addr:street:type": "Avenue", "amenity": "bar", "building": "yes", "building:levels": "2", "chicago:building_id": "101987", "name": "Jefferson Inn", "phone": "+1-773-283-5522", "smoking": "isolated"}}, {"type": "way", "id": 162714729, "nodes": [1745517144, 1745517611, 1745517601, 1745517815, 1745517831, 1745517548, 1745517541, 1745517359, 1745517356, 1745517149, 1745517144], "tags": {"addr:city": "Chicago", "addr:housenumber": "5619", "addr:postcode": "60630", "addr:state": "IL", "addr:street": "West Lawrence Avenue", "addr:street:name": "Lawrence", "addr:street:prefix": "West", "addr:street:type": "Avenue", "amenity": "restaurant", "building": "yes", "building:levels": "2", "chicago:building_id": "108454", "cuisine": "polish", "name": "Smakosz Restaurant"}}, {"type": "way", "id": 163177517, "nodes": [1749350604, 1749350837, 1749351217, 1749350643, 1749350604], "tags": {"addr:city": "Chicago", "addr:housenumber": "4801", "addr:postcode": "60630", "addr:state": "IL", "addr:street": "North Austin Avenue", "addr:street:name": "Austin", "addr:street:prefix": "North", "addr:street:type": "Avenue", "amenity": "restaurant", "building": "yes", "chicago:building_id": "107513", "cuisine": "mexican", "delivery": "yes", "name": "Los Encinos Restaurant", "opening_hours": "Su-Th 06:00-22:00; Fr-Sa 06:00-00:00", "outdoor_seating": "no"}}, {"type": "way", "id": 163177651, "nodes": [1749353623, 1749353843, 1749353851, 1749353634, 4186624671, 4186624668, 1749353623], "tags": {"addr:city": "Chicago", "addr:housenumber": "4835", "addr:postcode": "60630", "addr:state": "IL", "addr:street": "North Austin Avenue", "addr:street:name": "Austin", "addr:street:prefix": "North", "addr:street:type": "Avenue", "amenity": "restaurant", "building": "yes", "building:levels": "1", "chicago:building_id": "105366", "cuisine": "barbecue", "name": "Earl's BBQ"}}, {"type": "way", "id": 163179442, "nodes": [1749363459, 1749363541, 1749364352, 1749364287, 1749363459], "tags": {"addr:city": "Chicago", "addr:housenumber": "5722", "addr:postcode": "60630", "addr:state": "IL", "addr:street": "West Higgins Avenue", "addr:street:name": "Higgins", "addr:street:prefix": "West", "addr:street:type": "Avenue", "amenity": "bar", "building": "yes", "building:levels": "2", "chicago:building_id": "93968", "name": "Bar 57 West", "phone": "+1-773-427-6635"}}, {"type": "way", "id": 163179641, "nodes": [1749350504, 1749351299, 1749351298, 1749351472, 1749351476, 1749351303, 1749351313, 1749350665, 1749350636, 1749350512, 1749350504], "tags": {"addr:city": "Chicago", "addr:housenumber": "5748", "addr:postcode": "60630", "addr:state": "IL", "addr:street": "West Lawrence Avenue", "addr:street:name": "Lawrence", "addr:street:prefix": "West", "addr:street:type": "Avenue", "amenity": "bar", "building": "yes", "building:levels": "2", "chicago:building_id": "107297", "name": "Brigadoon"}}, {"type": "way", "id": 163180198, "nodes": [1749350451, 1749350736, 1749350735, 1749350877, 1749350926, 1749351309, 1749351319, 1749350456, 1749350451], "tags": {"addr:city": "Chicago", "addr:housenumber": "5930", "addr:postcode": "60630", "addr:state": "IL", "addr:street": "West Lawrence Avenue", "addr:street:name": "Lawrence", "addr:street:prefix": "West", "addr:street:type": "Avenue", "amenity": "restaurant", "building": "yes", "building:levels": "2", "chicago:building_id": "107454", "cuisine": "chicken", "delivery": "yes", "name": "Broasted Chicken Royale", "opening_hours": "Tu-Th 15:00-21:00; Fr-Sa 12:00-21:00; Su 12:00-20:00", "outdoor_seating": "no"}}, {"type": "way", "id": 163180298, "nodes": [1749353274, 1749353275, 1749353287, 1749353285, 1749353804, 1749353813, 1749353818, 1749353274], "tags": {"addr:housenumber": "6000", "addr:street": "West Gunnison Street", "addr:street:name": "Gunnison", "addr:street:prefix": "West", "addr:street:type": "Street", "amenity": "bar", "building": "yes", "chicago:building_id": "105421", "name": "Charlotte's Bar & Grill"}}, {"type": "way", "id": 163220727, "nodes": [1749666420, 1749666768, 1749667082, 1749666667, 1749666420], "tags": {"addr:city": "Chicago", "addr:housenumber": "5310", "addr:postcode": "60630", "addr:state": "IL", "addr:street": "North Milwaukee Avenue", "addr:street:name": "Milwaukee", "addr:street:prefix": "North", "addr:street:type": "Avenue", "amenity": "restaurant", "building": "yes", "building:levels": "1", "chicago:building_id": "76488", "cuisine": "pancake", "name": "Elly's Pancake House"}}, {"type": "way", "id": 412295229, "nodes": [4137634824, 4137634825, 4137634826, 4137634827, 4137634828, 4137634846, 4137634829, 4137634830, 4137634831, 4137634832, 4137634833, 4137634834, 4137634835, 4137634836, 4137634837, 4137634838, 4137634839, 4137634824], "tags": {"addr:city": "Chicago", "addr:housenumber": "5601", "addr:postcode": "60630", "addr:state": "IL", "addr:street": "West Lawrence Avenue", "amenity": "cafe", "brand": "Starbucks", "brand:wikidata": "Q37158", "brand:wikipedia": "en:Starbucks", "building": "retail", "chicago:building_id": "109027", "cuisine": "coffee_shop", "drive_through": "yes", "name": "Starbucks", "official_name": "Starbucks Coffee", "takeaway": "yes"}}, {"type": "way", "id": 416495647, "nodes": [4172392093, 4172392094, 4172392095, 4172392096, 4172392097, 4172392098, 4172392093], "tags": {"addr:city": "Chicago", "addr:housenumber": "4914", "addr:postcode": "60630", "addr:state": "IL", "addr:street": "North Milwaukee Avenue", "amenity": "restaurant", "building": "yes", "chicago:building_id": "100756", "cuisine": "american", "name": "Gale Street Inn", "phone": "+1-773-725-1300", "website": "http://www.galestreet.com/"}}, {"type": "way", "id": 418199446, "nodes": [4186479475, 4186479471, 4186479476, 4186479477, 4186479475], "tags": {"addr:city": "Chicago", "addr:housenumber": "4808", "addr:postcode": "60630", "addr:state": "IL", "addr:street": "North Milwaukee Avenue", "amenity": "restaurant", "building": "yes", "cuisine": "mexican", "name": "Taqueria La Estrella"}}, {"type": "way", "id": 684481665, "nodes": [1745527899, 6412876025, 6412876026, 6412876027, 1745526356, 1745526416, 1745526774, 1745527030, 1745527281, 1745527899], "tags": {"addr:city": "Chicago", "addr:housenumber": "4872", "addr:postcode": "60630", "addr:state": "IL", "addr:street": "North Milwaukee Avenue", "amenity": "cafe", "building": "yes", "internet_access": "wlan", "name": "Weston's Coffee & Tap Co.", "opening_hours": "Mo-Th 6:30-19:00; Fr 6:30-20:30; Sa 7:30-20:30; Su 7:30-19:00", "outdoor_seating": "no", "phone": "+1-708-669-7625", "website": "http://www.westonscoffee.com/"}}]}