{"version": 0.6, "generator": "Overpass API 0.7.56.1004 6cd3eaec", "osm3s": {"timestamp_osm_base": "2020-07-22T01:17:02Z", "copyright": "The data included in this document is from www.openstreetmap.org. The data is made available under ODbL."}, "elements": [{"type": "node", "id": 1700855278, "lat": 41.9244862, "lon": -87.7112831, "tags": {"amenity": "cafe", "name": "Cafe Bella"}}, {"type": "node", "id": 1700855339, "lat": 41.9244801, "lon": -87.713164, "tags": {"addr:city": "Chicago", "addr:housenumber": "3425", "addr:postcode": "60647", "addr:state": "IL", "addr:street": "West Fullerton Avenue", "amenity": "bar", "name": "The Burlington", "phone": "+1-773-384-3243", "website": "theburlingtonbar.com"}}, {"type": "node", "id": 1700855342, "lat": 41.9248764, "lon": -87.7085532, "tags": {"amenity": "bar", "name": "The Whirl-A-Way"}}, {"type": "node", "id": 1742945208, "lat": 41.9241249, "lon": -87.7282033}, {"type": "node", "id": 1742945214, "lat": 41.9241258, "lon": -87.7281059}, {"type": "node", "id": 1742945497, "lat": 41.9243138, "lon": -87.7281078}, {"type": "node", "id": 1742945503, "lat": 41.9243294, "lon": -87.7282069}, {"type": "node", "id": 1742945505, "lat": 41.9243304, "lon": -87.7281315}, {"type": "node", "id": 1743245275, "lat": 41.9313728, "lon": -87.7267107}, {"type": "node", "id": 1743245279, "lat": 41.9313746, "lon": -87.7265398}, {"type": "node", "id": 1743245610, "lat": 41.9316212, "lon": -87.7267157}, {"type": "node", "id": 1743245611, "lat": 41.931623, "lon": -87.7265448}, {"type": "node", "id": 1755605926, "lat": 41.9243256, "lon": -87.7148772}, {"type": "node", "id": 1755605929, "lat": 41.9243266, "lon": -87.7148037}, {"type": "node", "id": 1755606003, "lat": 41.92439, "lon": -87.7148619}, {"type": "node", "id": 1755606004, "lat": 41.9243901, "lon": -87.7148784}, {"type": "node", "id": 1755606044, "lat": 41.9244117, "lon": -87.7148065}, {"type": "node", "id": 1755606047, "lat": 41.9244133, "lon": -87.7148635}, {"type": "node", "id": 1755606048, "lat": 41.9244134, "lon": -87.71488}, {"type": "node", "id": 1755606062, "lat": 41.9244171, "lon": -87.7147955}, {"type": "node", "id": 1755606103, "lat": 41.9244445, "lon": -87.714797}, {"type": "node", "id": 1755606122, "lat": 41.9244514, "lon": -87.7148043}, {"type": "node", "id": 1755606174, "lat": 41.9244917, "lon": -87.7148829}, {"type": "node", "id": 1755606176, "lat": 41.9244926, "lon": -87.7148058}, {"type": "node", "id": 1755606480, "lat": 41.9248142, "lon": -87.7110913}, {"type": "node", "id": 1755606493, "lat": 41.9248186, "lon": -87.7108946}, {"type": "node", "id": 1755606514, "lat": 41.9248268, "lon": -87.7108853}, {"type": "node", "id": 1755606745, "lat": 41.9249033, "lon": -87.7110775}, {"type": "node", "id": 1755606747, "lat": 41.9249034, "lon": -87.7110941}, {"type": "node", "id": 1755606882, "lat": 41.9249582, "lon": -87.7110788}, {"type": "node", "id": 1755606888, "lat": 41.9249591, "lon": -87.7109833}, {"type": "node", "id": 1755629936, "lat": 41.9297941, "lon": -87.7092072}, {"type": "node", "id": 1755629943, "lat": 41.9297965, "lon": -87.7093006}, {"type": "node", "id": 1755630510, "lat": 41.9299571, "lon": -87.7090524}, {"type": "node", "id": 1755630822, "lat": 41.9300955, "lon": -87.7093237}, {"type": "node", "id": 1755630825, "lat": 41.9301063, "lon": -87.7092979}, {"type": "node", "id": 1755640402, "lat": 41.9326003, "lon": -87.7130001}, {"type": "node", "id": 1755640571, "lat": 41.9326391, "lon": -87.7130659}, {"type": "node", "id": 1755641653, "lat": 41.9328554, "lon": -87.7127349}, {"type": "node", "id": 1755641768, "lat": 41.9328928, "lon": -87.7128007}, {"type": "node", "id": 1755651481, "lat": 41.9353526, "lon": -87.7183265}, {"type": "node", "id": 1755651625, "lat": 41.9353913, "lon": -87.7183904}, {"type": "node", "id": 1755651879, "lat": 41.9354689, "lon": -87.7182702}, {"type": "node", "id": 1755651931, "lat": 41.9354812, "lon": -87.7182573}, {"type": "node", "id": 1755651933, "lat": 41.9354814, "lon": -87.7182922}, {"type": "node", "id": 1755651980, "lat": 41.935495, "lon": -87.7182792}, {"type": "node", "id": 1755652034, "lat": 41.9355108, "lon": -87.7181559}, {"type": "node", "id": 1755652178, "lat": 41.9355496, "lon": -87.7182198}, {"type": "node", "id": 1780015409, "lat": 41.9243305, "lon": -87.7259629, "tags": {"amenity": "restaurant", "cuisine": "mexican", "name": "Burrito Joint"}}, {"type": "node", "id": 2285171996, "lat": 41.936156, "lon": -87.7193663, "tags": {"addr:city": "Chicago", "addr:housenumber": "3030", "addr:postcode": "60618", "addr:state": "IL", "addr:street": "North Milwaukee Avenue", "amenity": "restaurant", "name": "Staropolska Restaurant", "phone": "+1-773-342-0779", "website": "http://www.staropolskarestaurant.com/"}}, {"type": "node", "id": 3268302073, "lat": 41.9307708, "lon": -87.7104473, "tags": {"addr:city": "Chicago", "addr:country": "US", "addr:housenumber": "2732", "addr:place": "Logan Square", "addr:postcode": "60647", "addr:state": "IL", "addr:street": "North Milwaukee Avenue", "amenity": "bar", "cuisine": "burger", "name": "The Harding Tavern", "phone": "+1-773-697-9340", "website": "https://www.thehardingtavern.com/"}}, {"type": "node", "id": 3534333527, "lat": 41.9249621, "lon": -87.7108901}, {"type": "node", "id": 3551740566, "lat": 41.9296241, "lon": -87.7085498, "tags": {"amenity": "restaurant", "cuisine": "chinese", "name": "Choi's Chinese"}}, {"type": "node", "id": 3551744333, "lat": 41.929747, "lon": -87.7087557, "tags": {"addr:city": "Chicago", "addr:housenumber": "2642", "addr:postcode": "60647", "addr:state": "IL", "addr:street": "North Milwaukee Avenue", "amenity": "cafe", "cuisine": "coffee_shop", "name": "Intelligentsia", "phone": "+1-773-945-1690", "website": "https://www.intelligentsiacoffee.com/logan-square-coffeebar"}}, {"type": "node", "id": 3551875830, "lat": 41.9248555, "lon": -87.7111412, "tags": {"addr:city": "Chicago", "addr:housenumber": "3306", "addr:postcode": "60647", "addr:state": "IL", "addr:street": "West Fullerton Avenue", "amenity": "restaurant", "cuisine": "thai", "name": "Dena Kitchen", "phone": "+1-773-697-3504"}}, {"type": "node", "id": 3551892777, "lat": 41.9343813, "lon": -87.7158349, "tags": {"amenity": "restaurant", "cuisine": "mexican", "name": "Tacos Tequilas"}}, {"type": "node", "id": 3551896302, "lat": 41.9337049, "lon": -87.7152636, "tags": {"amenity": "restaurant", "cuisine": "thai", "name": "The Spice"}}, {"type": "node", "id": 3551904715, "lat": 41.9333478, "lon": -87.713791, "tags": {"amenity": "restaurant", "brand": "Giordano's Pizzeria", "brand:wikidata": "Q5563393", "brand:wikipedia": "en:Giordano's Pizzeria", "cuisine": "pizza", "name": "Giordano's Pizzeria"}}, {"type": "node", "id": 3551926769, "lat": 41.9377162, "lon": -87.7212864, "tags": {"amenity": "restaurant", "cuisine": "polish", "name": "Red Apple Buffet"}}, {"type": "node", "id": 3551945144, "lat": 41.9393459, "lon": -87.7163315, "tags": {"amenity": "bar", "name": "Late Bar"}}, {"type": "node", "id": 3551946808, "lat": 41.9393511, "lon": -87.7172411, "tags": {"addr:city": "Chicago", "addr:housenumber": "3556", "addr:postcode": "60618", "addr:state": "IL", "addr:street": "West Belmont Avenue", "amenity": "bar", "name": "Chuck's & Ed's Tavern"}}, {"type": "node", "id": 3563909260, "lat": 41.931975, "lon": -87.7223584, "tags": {"amenity": "restaurant", "cuisine": "salvadoran", "name": "El Guanaco"}}, {"type": "node", "id": 3572450423, "lat": 41.939013, "lon": -87.7241868, "tags": {"amenity": "restaurant", "cuisine": "mexican", "name": "El Gallo Bravo #2"}}, {"type": "node", "id": 3572599403, "lat": 41.9248994, "lon": -87.7090217, "tags": {"amenity": "restaurant", "cuisine": "cuban", "name": "El Rinconcito Cubano"}}, {"type": "node", "id": 3574942642, "lat": 41.924331, "lon": -87.7155481, "tags": {"addr:city": "Chicago", "addr:housenumber": "3545", "addr:postcode": "60647", "addr:state": "IL", "addr:street": "West Fullerton Avenue", "amenity": "bar", "name": "The Double Urban Tavern", "phone": "+1-773-772-7000", "website": "http://www.thedoubletavern.com/"}}, {"type": "node", "id": 3575010907, "lat": 41.9325834, "lon": -87.7134313, "tags": {"amenity": "restaurant", "cuisine": "chinese", "name": "Friendship Chinese"}}, {"type": "node", "id": 3627809229, "lat": 41.9345296, "lon": -87.7174228, "tags": {"amenity": "bar", "name": "Podhale"}}, {"type": "node", "id": 3627809230, "lat": 41.93435, "lon": -87.7174148, "tags": {"amenity": "bar", "name": "Podlasie Club"}}, {"type": "node", "id": 3627809231, "lat": 41.9354831, "lon": -87.7219538, "tags": {"amenity": "bar", "name": "Ski's Lounge"}}, {"type": "node", "id": 3629730354, "lat": 41.9247459, "lon": -87.7185896, "tags": {"amenity": "restaurant", "cuisine": "mexican", "name": "Raymond's Tacos"}}, {"type": "node", "id": 3629730355, "lat": 41.9247518, "lon": -87.7187854, "tags": {"amenity": "restaurant", "cuisine": "pizza", "name": "Vito & Angelo Pizzeria"}}, {"type": "node", "id": 3641096467, "lat": 41.9247881, "lon": -87.7159408, "tags": {"amenity": "restaurant", "cuisine": "mexican", "name": "El Pacifico"}}, {"type": "node", "id": 3649631221, "lat": 41.9316589, "lon": -87.7124643, "tags": {"amenity": "restaurant", "cuisine": "chinese", "name": "Van Phat"}}, {"type": "node", "id": 3649643207, "lat": 41.9325547, "lon": -87.7128675, "tags": {"amenity": "restaurant", "cuisine": "pizza", "name": "Dante's Pizzeria"}}, {"type": "node", "id": 3649650842, "lat": 41.9390585, "lon": -87.711587, "tags": {"amenity": "restaurant", "cuisine": "chinese", "name": "Eat First"}}, {"type": "node", "id": 3659153796, "lat": 41.9248341, "lon": -87.7122744, "tags": {"addr:city": "Chicago", "addr:housenumber": "3400", "addr:postcode": "60647", "addr:state": "IL", "addr:street": "West Fullerton Avenue", "amenity": "restaurant", "cuisine": "puerto_rican", "name": "Jibaritos y Mas", "phone": "+1-773-799-8601", "website": "https://www.orderjibaritosymas.com"}}, {"type": "node", "id": 3659153798, "lat": 41.9248538, "lon": -87.7104754, "tags": {"amenity": "restaurant", "name": "Big Tony's Pizza"}}, {"type": "node", "id": 3660417021, "lat": 41.931227, "lon": -87.7103111, "tags": {"amenity": "restaurant", "name": "D'Noche"}}, {"type": "node", "id": 3882069859, "lat": 41.9244787, "lon": -87.7134416, "tags": {"amenity": "bar", "name": "Acapulco Night Club"}}, {"type": "node", "id": 3882086458, "lat": 41.9244563, "lon": -87.7140572, "tags": {"amenity": "restaurant", "cuisine": "puerto_rican", "name": "Cafeteria Marcela's"}}, {"type": "node", "id": 3882556825, "lat": 41.9371181, "lon": -87.7267952, "tags": {"amenity": "restaurant", "brand": "Wingstop", "brand:wikidata": "Q8025339", "brand:wikipedia": "en:Wingstop", "cuisine": "wings", "name": "Wingstop"}}, {"type": "node", "id": 3882580215, "lat": 41.9410645, "lon": -87.7262185, "tags": {"amenity": "bar", "name": "Milano Cafe & Bar"}}, {"type": "node", "id": 3882580216, "lat": 41.9406036, "lon": -87.7260147, "tags": {"amenity": "cafe", "name": "Outdoor Grill"}}, {"type": "node", "id": 4741715729, "lat": 41.9242272, "lon": -87.7143073, "tags": {"addr:city": "Chicago", "addr:housenumber": "3509", "addr:postcode": "60647", "addr:state": "IL", "addr:street": "West Fullerton Avenue", "amenity": "restaurant", "name": "Park & Field", "outdoor_seating": "yes", "phone": "+1-765-426-6657", "smoking": "no", "website": "http://parkandfieldchicago.com/"}}, {"type": "node", "id": 5759671055, "lat": 41.9309154, "lon": -87.7101777, "tags": {"addr:city": "Chicago", "addr:housenumber": "2727", "addr:postcode": "60647", "addr:state": "IL", "addr:street": "North Milwaukee Avenue", "amenity": "bar", "brewery": "yes", "name": "The Walk In Chicago", "opening_hours": "Mo-Fr 17:00-02:00; Sa 12:00-03:00; Su 12:00-02:00", "outdoor_seating": "yes", "phone": "+1-773-227-7033", "smoking": "no", "website": "https://www.thewalkinchicago.com"}}, {"type": "node", "id": 6050593221, "lat": 41.9392866, "lon": -87.7212467, "tags": {"addr:city": "Chicago", "addr:housenumber": "3734", "addr:postcode": "60618", "addr:state": "IL", "addr:street": "West Belmont Avenue", "amenity": "bar", "name": "Sleeping Village", "phone": "+1-773-654-3971", "website": "https://sleeping-village.com/"}}, {"type": "node", "id": 6261014741, "lat": 41.9394182, "lon": -87.7172402, "tags": {"addr:city": "Chicago", "addr:housenumber": "3420", "addr:postcode": "60618", "addr:state": "IL", "addr:street": "West Belmont Avenue", "amenity": "bar", "name": "Alice\u2019s Lounge", "phone": "+1-773-279-9382"}}, {"type": "node", "id": 6263777970, "lat": 41.9394421, "lon": -87.718779, "tags": {"addr:city": "Chicago", "addr:housenumber": "3634", "addr:postcode": "60618", "addr:state": "IL", "addr:street": "West Belmont Avenue", "amenity": "bar", "name": "Avondale Tap", "phone": "+1-773-754-8341", "website": "https://www.avondaletap.com/"}}, {"type": "node", "id": 6265732543, "lat": 41.9392104, "lon": -87.7273404, "tags": {"addr:city": "Chicago", "addr:housenumber": "3200", "addr:postcode": "60641", "addr:state": "IL", "addr:street": "North Pulaski Road", "amenity": "bar", "name": "Belford Tavern", "phone": "+1-773-725-7112"}}, {"type": "node", "id": 6269109513, "lat": 41.9371647, "lon": -87.721029, "tags": {"addr:city": "Chicago", "addr:housenumber": "3804", "addr:postcode": "60618", "addr:state": "IL", "addr:street": "North Milwaukee Avenue", "amenity": "bar", "name": "Bristol Lounge", "phone": "+1-773-545-7072"}}, {"type": "node", "id": 6280505896, "lat": 41.9244495, "lon": -87.7110497, "tags": {"addr:city": "Chicago", "addr:housenumber": "3311", "addr:postcode": "60647", "addr:state": "IL", "addr:street": "West Fullerton Avenue", "amenity": "cafe", "name": "Caribella", "phone": "+1-773-360-8873", "website": "https://caribellachicago.com/"}}, {"type": "node", "id": 6280541276, "lat": 41.9249421, "lon": -87.7102153, "tags": {"addr:city": "Chicago", "addr:housenumber": "3268", "addr:postcode": "60647", "addr:state": "IL", "addr:street": "West Fullerton Avenue", "amenity": "restaurant", "cuisine": "latin_american", "name": "Casa Yari", "phone": "+1-773-661-9546", "website": "https://www.facebook.com/casayari2013"}}, {"type": "node", "id": 6282566260, "lat": 41.931393, "lon": -87.7115622, "tags": {"addr:city": "Chicago", "addr:housenumber": "2770", "addr:postcode": "60647", "addr:state": "IL", "addr:street": "North Milwaukee Avenue", "amenity": "restaurant", "name": "Chiya Chai Cafe", "phone": "+1-773-360-7541", "website": "https://www.chiyachai.com/"}}, {"type": "node", "id": 6282663455, "lat": 41.9401528, "lon": -87.7274057, "tags": {"addr:city": "Chicago", "addr:housenumber": "3234", "addr:postcode": "60618", "addr:state": "IL", "addr:street": "North Pulaski Road", "amenity": "cafe", "name": "City Cafe", "phone": "+1-773-736-5646"}}, {"type": "node", "id": 6294625891, "lat": 41.9312206, "lon": -87.7113891, "tags": {"addr:city": "Chicago", "addr:housenumber": "2760", "addr:postcode": "60647", "addr:state": "IL", "addr:street": "North Milwaukee Avenue", "amenity": "bar", "name": "Hopewell Brewing Company", "phone": "+1-773-698-6178", "website": "http://www.hopewellbrewing.com/"}}, {"type": "node", "id": 6300387387, "lat": 41.9244367, "lon": -87.7109014, "tags": {"addr:city": "Chicago", "addr:housenumber": "3039", "addr:postcode": "60647", "addr:state": "IL", "addr:street": "West Fullerton Avenue", "amenity": "restaurant", "name": "Penumbra Restaurant & Wine Bar", "phone": "+1-773-772-2343", "website": "https://www.penumbrawinebar.com/"}}, {"type": "node", "id": 6301180417, "lat": 41.9313998, "lon": -87.7114512, "tags": {"addr:city": "Chicago", "addr:housenumber": "2766", "addr:postcode": "60647", "addr:state": "IL", "addr:street": "North Milwaukee Avenue", "amenity": "restaurant", "name": "RYUU Asian BBQ & Sushi", "phone": "+1-773-661-1919", "website": "https://www.ryuubbq.com/"}}, {"type": "node", "id": 6301185685, "lat": 41.9306627, "lon": -87.7096689, "tags": {"addr:city": "Chicago", "addr:housenumber": "2715", "addr:postcode": "60647", "addr:state": "IL", "addr:street": "North Milwaukee Avenue", "amenity": "restaurant", "name": "SABA Italian Bar + Kitchen", "phone": "+1-773-697-9273", "website": "https://www.sabaitalian.com/"}}, {"type": "node", "id": 6301756482, "lat": 41.9285568, "lon": -87.7302765, "tags": {"addr:city": "Chicago", "addr:housenumber": "4110", "addr:postcode": "60639", "addr:state": "IL", "addr:street": "West Wrightwood Avenue", "amenity": "cafe", "name": "Stewarts Private Blend Coffee", "phone": "+1-773-489-2500", "website": "https://stewarts.com/"}}, {"type": "node", "id": 6315650619, "lat": 41.9243426, "lon": -87.7196926, "tags": {"addr:city": "Chicago", "addr:housenumber": "3703", "addr:postcode": "60647", "addr:state": "IL", "addr:street": "West Fullerton Avenue", "amenity": "restaurant", "name": "The Little Pickle", "phone": "+1-312-270-4538", "website": "https://www.thelittlepicklechicago.com/"}}, {"type": "node", "id": 6316862751, "lat": 41.9249895, "lon": -87.7085876, "tags": {"addr:city": "Chicago", "addr:housenumber": "3224", "addr:postcode": "60647", "addr:state": "IL", "addr:street": "West Fullerton Avenue", "amenity": "bar", "name": "Whirlaway Lounge", "phone": "+1-773-276-6809", "website": "http://www.whirlaway.net/"}}, {"type": "node", "id": 6319244927, "lat": 41.9345972, "lon": -87.7168267, "tags": {"addr:city": "Chicago", "addr:housenumber": "2934", "addr:postcode": "60618", "addr:state": "IL", "addr:street": "North Milwaukee Avenue", "amenity": "cafe", "name": "Kerelys Cuban Cafe & Pizzeria", "phone": "+1-773-394-4040", "website": "https://www.kerelysmenu.com/"}}, {"type": "node", "id": 6319849466, "lat": 41.9243634, "lon": -87.7213646, "tags": {"addr:city": "Chicago", "addr:housenumber": "3749", "addr:postcode": "60647", "addr:state": "IL", "addr:street": "West Fullerton Avenue", "amenity": "restaurant", "cuisine": "mexican", "name": "L\u2019 Patron Tacos", "phone": "+1-773-799-8066"}}, {"type": "node", "id": 6322769552, "lat": 41.934803, "lon": -87.7164307, "tags": {"addr:city": "Chicago", "addr:housenumber": "2937", "addr:postcode": "60618", "addr:state": "IL", "addr:street": "North Milwaukee Avenue", "amenity": "bar", "name": "Moe\u2019s Tavern", "phone": "+1-773-227-2937"}}, {"type": "node", "id": 6324278875, "lat": 41.9249315, "lon": -87.720486, "tags": {"addr:city": "Chicago", "addr:housenumber": "3724", "addr:postcode": "60647", "addr:state": "IL", "addr:street": "West Fullerton Avenue", "amenity": "cafe", "name": "Pan Artesanal", "phone": "+1-312-286-5265", "website": "https://www.panartesanalbakery.com/"}}, {"type": "node", "id": 6459337926, "lat": 41.9248691, "lon": -87.7155809, "tags": {"addr:city": "Chicago", "addr:housenumber": "3524", "addr:postcode": "60647", "addr:state": "IL", "addr:street": "West Fullerton Avenue", "amenity": "restaurant", "cuisine": "american", "name": "Flat & Point", "phone": "+1-773-904-7152", "website": "https://www.flatandpoint.com"}}, {"type": "node", "id": 7202666507, "lat": 41.9302301, "lon": -87.7095424, "tags": {"addr:city": "Chicago", "addr:housenumber": "2700", "addr:postcode": "60647", "addr:state": "IL", "addr:street": "North Milwaukee Avenue", "amenity": "restaurant", "name": "The Old Plank"}}, {"type": "node", "id": 7442864166, "lat": 41.9243876, "lon": -87.7203158, "tags": {"addr:city": "Chicago", "addr:housenumber": "3721", "addr:postcode": "60647", "addr:state": "IL", "addr:street": "West Fullerton Avenue", "amenity": "restaurant", "cuisine": "mexican", "name": "Gabriela\u2019s Carnitas"}}, {"type": "way", "id": 162390785, "nodes": [1742945208, 1742945503, 1742945505, 1742945497, 1742945214, 1742945208], "tags": {"addr:city": "Chicago", "addr:housenumber": "4035", "addr:postcode": "60639", "addr:state": "IL", "addr:street": "West Fullerton Avenue", "addr:street:name": "Fullerton", "addr:street:prefix": "West", "addr:street:type": "Avenue", "amenity": "bar", "building": "yes", "name": "The Levee", "phone": "+1-773-342-2808", "website": "http://daleveechicago.com/"}}, {"type": "way", "id": 162436410, "nodes": [1743245275, 1743245610, 1743245611, 1743245279, 1743245275], "tags": {"addr:city": "Chicago", "addr:housenumber": "3959", "addr:postcode": "60647", "addr:street": "West Diversey Avenue", "addr:street:name": "Diversey", "addr:street:prefix": "West", "addr:street:type": "Avenue", "amenity": "restaurant", "building": "yes", "building:levels": "1", "chicago:building_id": "244081", "cuisine": "american", "name": "Golden Nugget Pancake House", "website": "https://www.goldennuggetpancake.com/"}}, {"type": "way", "id": 163893035, "nodes": [1755630510, 1755629936, 1755629943, 1755630822, 1755630825, 1755630510], "tags": {"addr:housenumber": "2658", "addr:street": "North Milwaukee Avenue", "addr:street:name": "Milwaukee", "addr:street:prefix": "North", "addr:street:type": "Avenue", "amenity": "restaurant", "building": "retail", "chicago:building_id": "870060", "cuisine": "mexican", "name": "Puebla Restaurant"}}, {"type": "way", "id": 163893589, "nodes": [1755640402, 1755640571, 1755641768, 1755641653, 1755640402], "tags": {"addr:housenumber": "2829", "addr:street": "North Milwaukee Avenue", "addr:street:name": "Milwaukee", "addr:street:prefix": "North", "addr:street:type": "Avenue", "amenity": "restaurant", "building": "yes", "building:levels": "1", "chicago:building_id": "239526", "cuisine": "mexican", "name": "Taqueria El Ranchito"}}, {"type": "way", "id": 163894553, "nodes": [1755651481, 1755651625, 1755651933, 1755651879, 1755651931, 1755651980, 1755652178, 1755652034, 1755651481], "tags": {"addr:housenumber": "2988", "addr:street": "North Milwaukee Avenue", "addr:street:name": "Milwaukee", "addr:street:prefix": "North", "addr:street:type": "Avenue", "amenity": "bar", "building": "yes", "building:levels": "3", "chicago:building_id": "228506", "name": "Regina & Joe Tap"}}, {"type": "way", "id": 163896559, "nodes": [1755605926, 1755606004, 1755606003, 1755606047, 1755606048, 1755606174, 1755606176, 1755606122, 1755606103, 1755606062, 1755606044, 1755605929, 1755605926], "tags": {"addr:housenumber": "3525", "addr:postcode": "60647", "addr:street": "West Fullerton Avenue", "addr:street:name": "Fullerton", "addr:street:prefix": "West", "addr:street:type": "Avenue", "amenity": "restaurant", "building": "yes", "chicago:building_id": "265636", "cuisine": "pizza", "name": "Festa Pizzeria"}}, {"type": "way", "id": 346991085, "nodes": [1755606882, 1755606745, 1755606747, 1755606480, 1755606493, 1755606514, 3534333527, 1755606888, 1755606882], "tags": {"addr:city": "Chicago", "addr:housenumber": "3300", "addr:postcode": "60647", "addr:state": "IL", "addr:street": "West Fullerton Avenue", "amenity": "restaurant", "building": "yes", "capacity": "25", "cuisine": "mexican", "delivery": "no", "name": "El Habanero", "opening_hours": "11:00-21:00", "phone": "+1-773-227-9225", "smoking": "no", "takeaway": "yes"}}]}