{"version": 0.6, "generator": "Overpass API 0.7.56.1004 6cd3eaec", "osm3s": {"timestamp_osm_base": "2020-07-22T03:53:02Z", "copyright": "The data included in this document is from www.openstreetmap.org. The data is made available under ODbL."}, "elements": [{"type": "node", "id": 2196075584, "lat": 41.8954365, "lon": -87.699173}, {"type": "node", "id": 2196075681, "lat": 41.8954824, "lon": -87.6992901}, {"type": "node", "id": 2196075688, "lat": 41.8954879, "lon": -87.6992956}, {"type": "node", "id": 2196075692, "lat": 41.8954907, "lon": -87.6992974}, {"type": "node", "id": 2196075694, "lat": 41.8954948, "lon": -87.6992992}, {"type": "node", "id": 2196075696, "lat": 41.8954975, "lon": -87.6992992}, {"type": "node", "id": 2196075709, "lat": 41.8955016, "lon": -87.6992973}, {"type": "node", "id": 2196075714, "lat": 41.8955057, "lon": -87.6992936}, {"type": "node", "id": 2196075716, "lat": 41.8955071, "lon": -87.6992899}, {"type": "node", "id": 2196075719, "lat": 41.8955084, "lon": -87.6992862}, {"type": "node", "id": 2196075725, "lat": 41.8955112, "lon": -87.6992807}, {"type": "node", "id": 2196075733, "lat": 41.895512, "lon": -87.699176}, {"type": "node", "id": 3581811866, "lat": 41.9107207, "lon": -87.7070256, "tags": {"amenity": "restaurant", "cuisine": "sushi", "name": "Zoku Sushi"}}, {"type": "node", "id": 3581811869, "lat": 41.9098615, "lon": -87.7134735, "tags": {"addr:city": "Chicago", "addr:housenumber": "3437", "addr:postcode": "60651", "addr:state": "IL", "addr:street": "West North Avenue", "amenity": "restaurant", "name": "La Encantada", "phone": "+1-773-489-5026", "website": "https://www.laencantadashoppingcenter.com/"}}, {"type": "node", "id": 3664687674, "lat": 41.9055766, "lon": -87.7006028, "tags": {"addr:city": "Chicago", "addr:housenumber": "1301", "addr:postcode": "60622", "addr:state": "IL", "addr:street": "North Humboldt Drive", "amenity": "cafe", "name": "The Boathouse Cafe", "phone": "+1-312-838-6205"}}, {"type": "node", "id": 3673559735, "lat": 41.9103602, "lon": -87.7013592, "tags": {"addr:city": "Chicago", "addr:housenumber": "2958", "addr:postcode": "60647", "addr:state": "IL", "addr:street": "West North Avenue", "amenity": "restaurant", "name": "Humboldt Haus", "phone": "+1-773-697-9590"}}, {"type": "node", "id": 3673564376, "lat": 41.9103428, "lon": -87.703029, "tags": {"addr:city": "Chicago", "addr:housenumber": "3018", "addr:postcode": "60647", "addr:state": "IL", "addr:street": "West North Avenue", "amenity": "bar", "name": "Humble Bar & Lounge", "phone": "+1-773-661-2419"}}, {"type": "node", "id": 4499383715, "lat": 41.9099427, "lon": -87.7090096, "tags": {"amenity": "restaurant", "cuisine": "mexican", "name": "La Perla Tapatia"}}, {"type": "node", "id": 5794904574, "lat": 41.909773, "lon": -87.7071905, "tags": {"addr:city": "Chicago", "addr:housenumber": "1552", "addr:postcode": "60651", "addr:state": "IL", "addr:street": "North Kedzie Avenue", "amenity": "restaurant", "cuisine": "colombian", "delivery": "yes", "name": "ArePA George", "opening_hours": "Tu-Fr 11:00-19:00; Sa 11:00-20:00; Su 11:00-16:00", "outdoor_seating": "no", "phone": "+1-773-969-7945", "smoking": "no", "takeaway": "yes"}}, {"type": "node", "id": 6282450641, "lat": 41.8952918, "lon": -87.7142823, "tags": {"addr:city": "Chicago", "addr:housenumber": "3507", "addr:postcode": "60651", "addr:state": "IL", "addr:street": "West Chicago Avenue", "amenity": "cafe", "cuisine": "coffee_shop", "name": "Chicago Fitness & Nutrition", "phone": "+1-773-704-9447"}}, {"type": "node", "id": 6284447675, "lat": 41.899387, "lon": -87.6995161, "tags": {"addr:city": "Chicago", "addr:housenumber": "1000", "addr:postcode": "60622", "addr:state": "IL", "addr:street": "North Francisco Avenue", "amenity": "restaurant", "name": "Diana\u2019s Food & Restaurant", "phone": "+1-773-235-9218"}}, {"type": "node", "id": 6284761828, "lat": 41.895383, "lon": -87.7081531, "tags": {"addr:city": "Chicago", "addr:housenumber": "3241", "addr:postcode": "60651", "addr:state": "IL", "addr:street": "West Chicago Avenue", "amenity": "bar", "name": "Dr J\u2019s Place", "phone": "+1-773-826-2140"}}, {"type": "node", "id": 6301752863, "lat": 41.9102381, "lon": -87.7151597, "tags": {"addr:city": "Chicago", "addr:housenumber": "3524", "addr:postcode": "60647", "addr:state": "IL", "addr:street": "West North Avenue", "amenity": "bar", "name": "Steve\u2019s Sports Bar & Lounge", "phone": "+1-773-384-2778"}}, {"type": "node", "id": 6320088299, "lat": 41.9101643, "lon": -87.7212799, "tags": {"addr:city": "Chicago", "addr:housenumber": "3758", "addr:postcode": "60647", "addr:state": "IL", "addr:street": "West North Avenue", "amenity": "bar", "name": "La Lena Restaurant", "phone": "+1-773-687-9848", "website": "http://www.lalenarestaurant.com/"}}, {"type": "node", "id": 6320092758, "lat": 41.9057749, "lon": -87.7119373, "tags": {"addr:city": "Chicago", "addr:housenumber": "1340", "addr:postcode": "60651", "addr:state": "IL", "addr:street": "North Homan Avenue", "amenity": "restaurant", "name": "La Palma Puerto Rican Restaurant", "phone": "+1-773-862-0886", "website": "http://ww5.lapalmarestaurant.com/"}}, {"type": "node", "id": 6324081032, "lat": 41.8956915, "lon": -87.7143237, "tags": {"addr:city": "Chicago", "addr:housenumber": "3506", "addr:postcode": "60651", "addr:state": "IL", "addr:street": "West Chicago Avenue", "amenity": "cafe", "name": "Oooh Wee! Sweet Tea", "website": "https://www.ooohweesweettea.com/locations"}}, {"type": "node", "id": 6397121374, "lat": 41.8957939, "lon": -87.6990103, "tags": {"addr:city": "Chicago", "addr:housenumber": "2858", "addr:postcode": "60622", "addr:state": "IL", "addr:street": "West Chicago Avenue", "amenity": "restaurant", "cuisine": "american;hotdog;hot_dog", "name": "Lola's Coney Island", "opening_hours": "Mo-Sa 11:00-21:00; Su 12:00-18:00", "phone": "+1-773-687-9459", "website": "https://www.lolasconeyisland.com/"}}, {"type": "way", "id": 209391822, "nodes": [2196075584, 2196075681, 2196075688, 2196075692, 2196075694, 2196075696, 2196075709, 2196075714, 2196075716, 2196075719, 2196075725, 2196075733, 2196075584], "tags": {"addr:city": "Chicago", "addr:housenumber": "2859", "addr:state": "IL", "addr:street": "West Chicago Avenue", "addr:street:name": "Chicago", "addr:street:prefix": "West", "amenity": "restaurant", "building": "yes", "chicago:building_id": "341120", "name": "Taco el Jalisciense", "phone": "+1-773-235-2859"}}]}