{"version": 0.6, "generator": "Overpass API 0.7.56.1004 6cd3eaec", "osm3s": {"timestamp_osm_base": "2020-07-22T05:11:03Z", "copyright": "The data included in this document is from www.openstreetmap.org. The data is made available under ODbL."}, "elements": [{"type": "node", "id": 1743362366, "lat": 41.9485109, "lon": -87.7399363}, {"type": "node", "id": 1743362409, "lat": 41.9485193, "lon": -87.7399546}, {"type": "node", "id": 1743362669, "lat": 41.948555, "lon": -87.7399727}, {"type": "node", "id": 1743363082, "lat": 41.9486, "lon": -87.7399098}, {"type": "node", "id": 1743363161, "lat": 41.9486055, "lon": -87.7399171}, {"type": "node", "id": 1743363787, "lat": 41.9486719, "lon": -87.7397584}, {"type": "node", "id": 1743363906, "lat": 41.9486982, "lon": -87.7398023}, {"type": "node", "id": 1743380087, "lat": 41.9536271, "lon": -87.7414366}, {"type": "node", "id": 1743380090, "lat": 41.9536279, "lon": -87.7413384}, {"type": "node", "id": 1743380204, "lat": 41.9537039, "lon": -87.7414414}, {"type": "node", "id": 1743380211, "lat": 41.9537162, "lon": -87.7414266}, {"type": "node", "id": 1743380496, "lat": 41.953955, "lon": -87.7414317}, {"type": "node", "id": 1743380498, "lat": 41.9539564, "lon": -87.7413446}, {"type": "node", "id": 2262977450, "lat": 41.9533541, "lon": -87.7378643, "tags": {"amenity": "cafe", "cuisine": "coffee_shop", "name": "Starbucks", "operator": "Starbucks Corporation", "shop": "beverages", "source": "local_knowledge", "wifi": "free"}}, {"type": "node", "id": 3289277377, "lat": 41.9533928, "lon": -87.7336633, "tags": {"amenity": "restaurant", "cuisine": "american", "name": "Golden Nugget Pancake House"}}, {"type": "node", "id": 3289277378, "lat": 41.9534071, "lon": -87.7333409, "tags": {"amenity": "cafe", "name": "Berrista Coffee"}}, {"type": "node", "id": 5967983388, "lat": 41.9533558, "lon": -87.7321275, "tags": {"addr:city": "Chicago", "addr:housenumber": "3982", "addr:postcode": "60641", "addr:state": "IL", "addr:street": "North Avondale Avenue", "amenity": "cafe", "cuisine": "coffee_shop", "diet:vegan": "yes", "diet:vegetarian": "yes", "name": "Backlot Coffee", "opening_hours": "Mo-Fr 06:00-18:00; Sa,Su 07:00-18:00", "phone": "+1-773-657-3797", "website": "http://backlotcoffee.com/"}}, {"type": "node", "id": 6191112085, "lat": 41.9534081, "lon": -87.7334011, "tags": {"addr:city": "Chicago", "addr:housenumber": "4219", "addr:postcode": "60641", "addr:state": "IL", "addr:street": "West Irving Park Road", "amenity": "restaurant", "cuisine": "mexican", "name": "Chicago Taco Authority", "phone": "+1-773-282-8226", "takeaway": "yes"}}, {"type": "node", "id": 6282545846, "lat": 41.9539441, "lon": -87.7198151, "tags": {"addr:city": "Chicago", "addr:housenumber": "3658", "addr:postcode": "60618", "addr:state": "IL", "addr:street": "West Irving Park Road", "amenity": "restaurant", "name": "Chicken Works & Salad Company", "phone": "+1-773-588-5488", "website": "http://www.chickenworkschicago.com/"}}, {"type": "node", "id": 6290058906, "lat": 41.9538084, "lon": -87.7326723, "tags": {"addr:city": "Chicago", "addr:housenumber": "4200", "addr:postcode": "60641", "addr:state": "IL", "addr:street": "West Irving Park Road", "amenity": "cafe", "diet:vegan": "no", "diet:vegetarian": "yes", "name": "Finom", "opening_hours": "Mo-Fr 07:00-18:00; Sa,Su 08:00-17:00", "phone": "+1-312-620-5010", "website": "http://finomcoffee.com/"}}, {"type": "node", "id": 6297835323, "lat": 41.9609937, "lon": -87.7394333, "tags": {"addr:city": "Chicago", "addr:housenumber": "4424", "addr:postcode": "60641", "addr:state": "IL", "addr:street": "West Montrose Avenue", "amenity": "bar", "name": "Sidekicks", "phone": "+1-773-545-6212", "website": "http://sidekicks-chicago.com/"}}, {"type": "node", "id": 6298041172, "lat": 41.9539018, "lon": -87.7265701, "tags": {"addr:city": "Chicago", "addr:housenumber": "3932", "addr:postcode": "60641", "addr:state": "IL", "addr:street": "West Irving Park Road", "amenity": "bar", "name": "Independence Tap", "phone": "+1-773-588-2385"}}, {"type": "node", "id": 6301096133, "lat": 41.9612494, "lon": -87.7221138, "tags": {"addr:city": "Chicago", "addr:housenumber": "3740", "addr:postcode": "60618", "addr:state": "IL", "addr:street": "West Montrose Avenue", "amenity": "restaurant", "name": "Ruby\u2019s Fast Food", "phone": "+1-773-539-2669"}}, {"type": "node", "id": 6304130595, "lat": 41.9538165, "lon": -87.7329115, "tags": {"addr:city": "Chicago", "addr:housenumber": "4206", "addr:postcode": "60641", "addr:state": "IL", "addr:street": "West Irving Park Road", "amenity": "bar", "name": "The Unforgettable Bar", "phone": "+1-773-283-3422", "website": "http://theunforgettablebar.com/"}}, {"type": "node", "id": 6306526919, "lat": 41.9557745, "lon": -87.7278715, "tags": {"addr:city": "Chicago", "addr:housenumber": "4104", "addr:postcode": "60641", "addr:state": "IL", "addr:street": "North Pulaski Road", "amenity": "bar", "name": "The Cabin At Old Irving", "phone": "+1-773-481-4183", "website": "https://www.thecabinatoldirving.com/"}}, {"type": "node", "id": 6322565621, "lat": 41.9537514, "lon": -87.7366287, "tags": {"addr:city": "Chicago", "addr:housenumber": "4328", "addr:postcode": "60641", "addr:state": "IL", "addr:street": "West Irving Park Road", "amenity": "bar", "name": "McNamara\u2019s", "phone": "+1-77-725-1800", "website": "http://www.mcnamaras.com/"}}, {"type": "node", "id": 6323628623, "lat": 41.9624699, "lon": -87.732191, "tags": {"addr:city": "Chicago", "addr:housenumber": "4500", "addr:postcode": "60630", "addr:state": "IL", "addr:street": "North Elston Avenue", "amenity": "bar", "name": "O\u2019Donnell\u2019s", "phone": "+1-773-282-0813"}}, {"type": "node", "id": 6323951051, "lat": 41.960549, "lon": -87.73934, "tags": {"addr:city": "Chicago", "addr:housenumber": "4419", "addr:postcode": "60641", "addr:state": "IL", "addr:street": "West Montrose Avenue", "amenity": "bar", "name": "Old Irving Brewing", "phone": "+1-773-916-6421", "website": "https://www.oldirvingbrewing.com/"}}, {"type": "node", "id": 6324258698, "lat": 41.9571862, "lon": -87.7274109, "tags": {"addr:city": "Chicago", "addr:housenumber": "4157", "addr:postcode": "60641", "addr:state": "IL", "addr:street": "North Pulaski Road", "amenity": "bar", "name": "Paddy Mac\u2019s", "phone": "+1-773-279-9300", "website": "http://www.paddymacschicago.com/"}}, {"type": "node", "id": 6412880555, "lat": 41.9503259, "lon": -87.7279976}, {"type": "node", "id": 6412880557, "lat": 41.9503308, "lon": -87.7276328}, {"type": "node", "id": 6412880558, "lat": 41.9501297, "lon": -87.7276279}, {"type": "node", "id": 6412880560, "lat": 41.9501248, "lon": -87.7279927}, {"type": "node", "id": 6968019524, "lat": 41.9611269, "lon": -87.7263816, "tags": {"addr:city": "Chicago", "addr:housenumber": "3930", "addr:state": "IL", "addr:street": "West Montrose Avenue", "amenity": "restaurant", "cuisine": "mexican", "name": "Taqueria La Fogata"}}, {"type": "node", "id": 7173964885, "lat": 41.9534803, "lon": -87.7288221, "tags": {"amenity": "restaurant", "cuisine": "moroccan", "name": "Shokran", "opening_hours": "We-Su 16:00-22:00"}}, {"type": "way", "id": 162449023, "nodes": [1743362366, 1743362409, 1743362669, 1743363161, 1743363082, 1743363906, 1743363787, 1743362366], "tags": {"addr:city": "Chicago", "addr:housenumber": "3734", "addr:postcode": "60641", "addr:state": "IL", "addr:street": "North Milwaukee Avenue", "addr:street:name": "Milwaukee", "amenity": "bar", "name": "The Booze Hound", "phone": "+1-773-736-1010"}}, {"type": "way", "id": 162452435, "nodes": [1743380204, 1743380211, 1743380496, 1743380498, 1743380090, 1743380087, 1743380204], "tags": {"addr:city": "Chicago", "addr:housenumber": "4520", "addr:state": "IL", "addr:street": "West Irving Park Road", "addr:street:name": "Irving Park", "addr:street:prefix": "West", "addr:street:type": "Road", "amenity": "restaurant", "building": "yes", "building:levels": "2", "chicago:building_id": "846310", "cuisine": "pizza", "name": "Chicago's Pizza"}}, {"type": "way", "id": 684481903, "nodes": [6412880555, 6412880557, 6412880558, 6412880560, 6412880555], "tags": {"addr:city": "Chicago", "addr:housenumber": "3800", "addr:postcode": "60641", "addr:state": "IL", "addr:street": "North Pulaski Road", "amenity": "restaurant", "building": "yes", "name": "Smoque BBQ", "opening_hours": "Tu-Th 11:00-21:00", "phone": "+1-773-545-7427", "website": "http://www.smoquebbq.com/"}}]}