{"version": 0.6, "generator": "Overpass API 0.7.56.3 eb200aeb", "osm3s": {"timestamp_osm_base": "2020-07-04T04:03:03Z", "copyright": "The data included in this document is from www.openstreetmap.org. The data is made available under ODbL."}, "elements": [{"type": "node", "id": 258025450, "lat": 41.9049662, "lon": -87.6699526}, {"type": "node", "id": 258281900, "lat": 41.875617, "lon": -87.6352309}, {"type": "node", "id": 258281901, "lat": 41.8756042, "lon": -87.6338748}, {"type": "node", "id": 258281903, "lat": 41.8756843, "lon": -87.6293729}, {"type": "node", "id": 258281905, "lat": 41.8857251, "lon": -87.639345}, {"type": "node", "id": 258281906, "lat": 41.8858639, "lon": -87.6400177}, {"type": "node", "id": 258281907, "lat": 41.8891083, "lon": -87.6443761}, {"type": "node", "id": 258281909, "lat": 41.8951173, "lon": -87.6535892}, {"type": "node", "id": 258957340, "lat": 41.8857351, "lon": -87.6325676, "tags": {"highway": "traffic_signals", "traffic_signals": "traffic_lights"}}, {"type": "node", "id": 258957456, "lat": 41.8756298, "lon": -87.6295729}, {"type": "node", "id": 258957458, "lat": 41.8854881, "lon": -87.629509}, {"type": "node", "id": 258957459, "lat": 41.8857187, "lon": -87.6297177}, {"type": "node", "id": 365489153, "lat": 41.90293, "lon": -87.6658404}, {"type": "node", "id": 365489154, "lat": 41.9039122, "lon": -87.667895}, {"type": "node", "id": 365489352, "lat": 41.886817, "lon": -87.6413207}, {"type": "node", "id": 706968780, "lat": 41.8757896, "lon": -87.6292725}, {"type": "node", "id": 706968781, "lat": 41.8759374, "lon": -87.6292188}, {"type": "node", "id": 706968782, "lat": 41.8856587, "lon": -87.6296051}, {"type": "node", "id": 706968784, "lat": 41.8857465, "lon": -87.6298791}, {"type": "node", "id": 707905319, "lat": 41.8857571, "lon": -87.6397709}, {"type": "node", "id": 707905321, "lat": 41.885797, "lon": -87.639889}, {"type": "node", "id": 707905651, "lat": 41.887937, "lon": -87.6428142}, {"type": "node", "id": 736035819, "lat": 41.9032414, "lon": -87.6664345}, {"type": "node", "id": 736035820, "lat": 41.9035623, "lon": -87.6671796, "tags": {"name": "Division", "network": "CTA", "operator": "Chicago Transit Authority", "public_transport": "stop_position", "railway": "stop", "subway": "yes"}}, {"type": "node", "id": 736035821, "lat": 41.9045719, "lon": -87.669287}, {"type": "node", "id": 736035822, "lat": 41.9047543, "lon": -87.6696185}, {"type": "node", "id": 736637716, "lat": 41.8857336, "lon": -87.6334344}, {"type": "node", "id": 873051690, "lat": 41.8780334, "lon": -87.6292842}, {"type": "node", "id": 1606917431, "lat": 41.885582, "lon": -87.6295459}, {"type": "node", "id": 1613640656, "lat": 41.8758517, "lon": -87.6292335}, {"type": "node", "id": 1613640678, "lat": 41.8757327, "lon": -87.6293131}, {"type": "node", "id": 1613640702, "lat": 41.8756495, "lon": -87.6294707}, {"type": "node", "id": 2200107680, "lat": 41.900711, "lon": -87.6672093}, {"type": "node", "id": 2200107714, "lat": 41.9007148, "lon": -87.6669172}, {"type": "node", "id": 2200107795, "lat": 41.9007262, "lon": -87.6672257}, {"type": "node", "id": 2200107958, "lat": 41.9007578, "lon": -87.6672272}, {"type": "node", "id": 2200108058, "lat": 41.9007769, "lon": -87.6672086}, {"type": "node", "id": 2200108076, "lat": 41.9007807, "lon": -87.6669202}, {"type": "node", "id": 2200109452, "lat": 41.9010733, "lon": -87.6636682}, {"type": "node", "id": 2200109752, "lat": 41.9011176, "lon": -87.6637375}, {"type": "node", "id": 2200111013, "lat": 41.9012804, "lon": -87.6634272}, {"type": "node", "id": 2200111113, "lat": 41.9013247, "lon": -87.6634966}, {"type": "node", "id": 2200116752, "lat": 41.9028728, "lon": -87.6670803}, {"type": "node", "id": 2200116765, "lat": 41.902875, "lon": -87.6670013}, {"type": "node", "id": 2200117190, "lat": 41.9032186, "lon": -87.6670914}, {"type": "node", "id": 2200117197, "lat": 41.9032209, "lon": -87.6670124}, {"type": "node", "id": 2200189962, "lat": 41.9074164, "lon": -87.6674133}, {"type": "node", "id": 2200189974, "lat": 41.9074212, "lon": -87.6670532}, {"type": "node", "id": 2200190097, "lat": 41.9074768, "lon": -87.6674145}, {"type": "node", "id": 2200190112, "lat": 41.9074829, "lon": -87.6670563}, {"type": "node", "id": 2389087619, "lat": 41.9031904, "lon": -87.6664792}, {"type": "node", "id": 2389087620, "lat": 41.8890637, "lon": -87.644432}, {"type": "node", "id": 2389087622, "lat": 41.8950465, "lon": -87.6536404}, {"type": "node", "id": 2389087623, "lat": 41.8856856, "lon": -87.6298882}, {"type": "node", "id": 2389087624, "lat": 41.875672, "lon": -87.6316469, "tags": {"name": "LaSalle", "network": "CTA", "operator": "Chicago Transit Authority", "public_transport": "stop_position", "railway": "stop", "subway": "yes"}}, {"type": "node", "id": 2389087625, "lat": 41.878032, "lon": -87.629366}, {"type": "node", "id": 2389087626, "lat": 41.8756651, "lon": -87.6338745}, {"type": "node", "id": 2389087627, "lat": 41.8757682, "lon": -87.6293804}, {"type": "node", "id": 2389087628, "lat": 41.8807251, "lon": -87.6294424, "tags": {"name": "Monroe", "network": "CTA", "operator": "Chicago Transit Authority", "public_transport": "stop_position", "railway": "stop", "subway": "yes"}}, {"type": "node", "id": 2389087629, "lat": 41.875707, "lon": -87.6294988}, {"type": "node", "id": 2389087631, "lat": 41.8856169, "lon": -87.6296672}, {"type": "node", "id": 2389087632, "lat": 41.8756779, "lon": -87.6352309}, {"type": "node", "id": 2389087633, "lat": 41.8758168, "lon": -87.6293457}, {"type": "node", "id": 2389087635, "lat": 41.8856642, "lon": -87.639349}, {"type": "node", "id": 2389087636, "lat": 41.8758689, "lon": -87.629313}, {"type": "node", "id": 2389087637, "lat": 41.878173, "lon": -87.6293704, "tags": {"name": "Jackson", "network": "CTA", "operator": "Chicago Transit Authority", "public_transport": "stop_position", "railway": "stop", "subway": "yes"}}, {"type": "node", "id": 2389087638, "lat": 41.9028819, "lon": -87.6658907}, {"type": "node", "id": 2389087639, "lat": 41.8757342, "lon": -87.6294224}, {"type": "node", "id": 2389087640, "lat": 41.8911449, "lon": -87.6476749, "tags": {"name": "Grand", "network": "CTA", "operator": "Chicago Transit Authority", "public_transport": "stop_position", "railway": "stop", "subway": "yes"}}, {"type": "node", "id": 2389087641, "lat": 41.9045209, "lon": -87.6693317}, {"type": "node", "id": 2389087642, "lat": 41.8857439, "lon": -87.6399297}, {"type": "node", "id": 2389087643, "lat": 41.8856621, "lon": -87.629752}, {"type": "node", "id": 2389087644, "lat": 41.8856727, "lon": -87.6334341}, {"type": "node", "id": 2389087645, "lat": 41.8961627, "lon": -87.6553624, "tags": {"name": "Chicago", "network": "CTA", "operator": "Chicago Transit Authority", "public_transport": "stop_position", "railway": "stop", "subway": "yes"}}, {"type": "node", "id": 2389087646, "lat": 41.8899783, "lon": -87.6458537}, {"type": "node", "id": 2389087647, "lat": 41.9038608, "lon": -87.6679388}, {"type": "node", "id": 2389087648, "lat": 41.8856975, "lon": -87.6397925}, {"type": "node", "id": 2389087649, "lat": 41.8832093, "lon": -87.6294884, "tags": {"name": "Washington", "network": "CTA", "operator": "Chicago Transit Authority", "public_transport": "stop_position", "railway": "stop", "subway": "yes"}}, {"type": "node", "id": 2389087650, "lat": 41.8759406, "lon": -87.6293007}, {"type": "node", "id": 2389087651, "lat": 41.8855579, "lon": -87.6296217}, {"type": "node", "id": 2389087652, "lat": 41.8858169, "lon": -87.6400702}, {"type": "node", "id": 2389087653, "lat": 41.903519, "lon": -87.6672111, "tags": {"name": "Division", "network": "CTA", "operator": "Chicago Transit Authority", "public_transport": "stop_position", "railway": "stop", "subway": "yes"}}, {"type": "node", "id": 2389087654, "lat": 41.9049233, "lon": -87.6699939}, {"type": "node", "id": 2389087657, "lat": 41.8756906, "lon": -87.6295838}, {"type": "node", "id": 2389087658, "lat": 41.8787534, "lon": -87.6293804}, {"type": "node", "id": 2389087659, "lat": 41.8867738, "lon": -87.6413784}, {"type": "node", "id": 2389087660, "lat": 41.8854784, "lon": -87.6295904}, {"type": "node", "id": 2389087661, "lat": 41.9047049, "lon": -87.6696667}, {"type": "node", "id": 2496841186, "lat": 41.8963373, "lon": -87.6670898, "tags": {"addr:city": "Chicago", "addr:housenumber": "811", "addr:postcode": "60622", "addr:state": "IL", "addr:street": "North Ashland Avenue", "amenity": "restaurant", "name": "Taqueria Traspasada", "phone": "+1-312-850-2069"}}, {"type": "node", "id": 3188221400, "lat": 41.8755967, "lon": -87.6375939}, {"type": "node", "id": 3188221401, "lat": 41.8756575, "lon": -87.6376008}, {"type": "node", "id": 3575072895, "lat": 41.9028054, "lon": -87.6672521, "tags": {"amenity": "restaurant", "cuisine": "mexican", "name": "Authentaco"}}, {"type": "node", "id": 3575072896, "lat": 41.9026397, "lon": -87.6677134, "tags": {"amenity": "restaurant", "cuisine": "mexican", "name": "La Pasadita"}}, {"type": "node", "id": 3575072897, "lat": 41.9004836, "lon": -87.6676383, "tags": {"addr:city": "Chicago", "addr:housenumber": "1024", "addr:postcode": "60622", "addr:state": "IL", "addr:street": "North Ashland Avenue", "addr:street:name": "Ashland", "addr:street:prefix": "North", "addr:street:type": "Avenue", "amenity": "restaurant", "cuisine": "mexican", "name": "Alegrias Seafood Chicago", "opening_hours": "Mo-Th, Su 10:00-22:00; Fr-Sa 10:00-23:00", "phone": "+1-773-252-7200", "website": "http://alegriasseafoodchicago.com"}}, {"type": "node", "id": 3575084293, "lat": 41.8970869, "lon": -87.6650571, "tags": {"addr:city": "Chicago", "addr:housenumber": "832", "addr:postcode": "60622", "addr:state": "IL", "addr:street": "North Greenview Avenue", "amenity": "bar", "name": "The Chipp Inn", "outdoor_seating": "no", "phone": "+1-312-421-9052"}}, {"type": "node", "id": 3575084295, "lat": 41.8962923, "lon": -87.663429, "tags": {"addr:city": "Chicago", "addr:housenumber": "1424", "addr:postcode": "60622", "addr:state": "IL", "addr:street": "West Chicago Avenue", "amenity": "pub", "email": "info@fivestarbar.com", "name": "Five Star Bar", "outdoor_seating": "yes", "phone": "+1-312-850-2555", "website": "http://www.fivestarbar.com/"}}, {"type": "node", "id": 3575084296, "lat": 41.8963372, "lon": -87.6629342, "tags": {"addr:city": "Chicago", "addr:housenumber": "1412", "addr:postcode": "60622", "addr:state": "IL", "addr:street": "West Chicago Avenue", "amenity": "bar", "name": "Lush Wine & Spirits", "phone": "+1-312-666-6900", "website": "http://www.luswineandspirits.com/"}}, {"type": "node", "id": 3575084297, "lat": 41.8962244, "lon": -87.6668569, "tags": {"amenity": "restaurant", "cuisine": "thai", "name": "Manee Thai"}}, {"type": "node", "id": 3596874096, "lat": 41.8975839, "lon": -87.6670559, "tags": {"addr:city": "Chicago", "addr:housenumber": "851", "addr:postcode": "60622", "addr:state": "IL", "addr:street": "North Ashland Avenue", "amenity": "restaurant", "cuisine": "american", "delivery": "no", "name": "Ruxbin", "phone": "(312) 624\u20138509", "smoking": "no", "takeaway": "no", "website": "http://www.ruxbinchicago.com"}}, {"type": "node", "id": 3618178425, "lat": 41.8961397, "lon": -87.6554969, "tags": {"addr:city": "Chicago", "addr:housenumber": "1105", "addr:postcode": "60622", "addr:state": "IL", "addr:street": "West Chicago Avenue", "amenity": "cafe", "name": "Big Shoulders Coffee", "opening_hours": "Mo-Fr 06:00-19:00; Sa-Su 07:30-17:00"}}, {"type": "node", "id": 3652941309, "lat": 41.9030503, "lon": -87.6662514, "tags": {"amenity": "restaurant", "cuisine": "sushi", "name": "Usagi Ya"}}, {"type": "node", "id": 3652941314, "lat": 41.9024913, "lon": -87.665369, "tags": {"amenity": "restaurant", "cuisine": "chinese", "name": "China Court"}}, {"type": "node", "id": 3652941315, "lat": 41.9022238, "lon": -87.6649962, "tags": {"addr:city": "Chicago", "addr:housenumber": "1132", "addr:postcode": "60642", "addr:state": "IL", "addr:street": "North Milwaukee Avenue", "amenity": "restaurant", "name": "Kin Sushi & Thai Cuisine", "phone": "+1 773-772-2722", "website": "https://www.kinchicago.com/"}}, {"type": "node", "id": 4697798553, "lat": 41.894242, "lon": -87.659813, "tags": {"addr:city": "Chicago", "addr:housenumber": "1303", "addr:postcode": "60642", "addr:state": "IL", "addr:street": "West Huron Street", "amenity": "restaurant", "cuisine": "mexican", "name": "Taqueria El Jardin", "opening_hours": "09:00-19:30", "outdoor_seating": "no", "smoking": "no", "takeaway": "yes"}}, {"type": "node", "id": 5028745128, "lat": 41.8959528, "lon": -87.6660177, "tags": {"addr:postcode": "60622", "amenity": "restaurant", "cuisine": "mexican;french", "name": "Mexique", "phone": "(312)850-0288"}}, {"type": "node", "id": 5272952064, "lat": 41.891221, "lon": -87.6476367, "tags": {"name": "Grand", "network": "CTA", "operator": "Chicago Transit Authority", "public_transport": "stop_position", "railway": "stop", "subway": "yes"}}, {"type": "node", "id": 5272952065, "lat": 41.8856844, "lon": -87.6312903, "tags": {"name": "Clark/Lake", "network": "CTA", "operator": "Chicago Transit Authority", "public_transport": "stop_position", "railway": "stop", "subway": "yes"}}, {"type": "node", "id": 5272952066, "lat": 41.8857373, "lon": -87.6312876, "tags": {"name": "Clark/Lake", "network": "CTA", "operator": "Chicago Transit Authority", "public_transport": "stop_position", "railway": "stop", "subway": "yes"}}, {"type": "node", "id": 5272952067, "lat": 41.883209, "lon": -87.6294539, "tags": {"name": "Washington", "network": "CTA", "operator": "Chicago Transit Authority", "public_transport": "stop_position", "railway": "stop", "subway": "yes"}}, {"type": "node", "id": 5272957251, "lat": 41.8962122, "lon": -87.6553004, "tags": {"name": "Chicago", "network": "CTA", "operator": "Chicago Transit Authority", "public_transport": "stop_position", "railway": "stop", "subway": "yes"}}, {"type": "node", "id": 5272959956, "lat": 41.8781723, "lon": -87.6292891, "tags": {"name": "Jackson", "network": "CTA", "operator": "Chicago Transit Authority", "public_transport": "stop_position", "railway": "stop", "subway": "yes"}}, {"type": "node", "id": 5272959957, "lat": 41.8807275, "lon": -87.62938, "tags": {"name": "Monroe", "network": "CTA", "operator": "Chicago Transit Authority", "public_transport": "stop_position", "railway": "stop", "subway": "yes"}}, {"type": "node", "id": 5272963174, "lat": 41.8756111, "lon": -87.6316453, "tags": {"name": "LaSalle", "network": "CTA", "operator": "Chicago Transit Authority", "public_transport": "stop_position", "railway": "stop", "subway": "yes"}}, {"type": "node", "id": 5299997866, "lat": 41.896462, "lon": -87.6550805, "tags": {"addr:city": "Chicago", "addr:housenumber": "1062", "addr:postcode": "60642", "addr:state": "IL", "addr:street": "West Chicago Avenue", "amenity": "restaurant", "name": "Windy City Cafe", "phone": "+1-312-492-8010", "website": "https://windycity-cafe.com/"}}, {"type": "node", "id": 5460871124, "lat": 41.8963394, "lon": -87.6677065, "tags": {"addr:city": "Chicago", "addr:housenumber": "1604", "addr:postcode": "60622", "addr:state": "IL", "addr:street": "West Chicago Avenue", "amenity": "bar", "name": "Beatnik", "opening_hours": "Tu-Fr 17:00-02:00; Sa 11:00-03:00; Su 11:00-02:00", "phone": "+1-312-929-4945", "website": "https://www.beatnikchicago.com/"}}, {"type": "node", "id": 6050593220, "lat": 41.9079334, "lon": -87.6520136, "tags": {"addr:city": "Chicago", "addr:housenumber": "1460", "addr:postcode": "60642", "addr:state": "IL", "addr:street": "North Kingsbury Street", "amenity": "bar", "name": "Off Color Mousetrap", "phone": "+1-312-929-2916", "website": "http://www.offcolorbrewing.com/"}}, {"type": "node", "id": 6262038806, "lat": 41.9008233, "lon": -87.6627954, "tags": {"addr:city": "Chicago", "addr:housenumber": "1046", "addr:postcode": "60622", "addr:state": "IL", "addr:street": "North Milwaukee Avenue", "amenity": "cafe", "name": "Arabia Caf\u00e9 & Hookah Lounge", "phone": "+1-773-276-2345"}}, {"type": "node", "id": 6265172903, "lat": 41.8963785, "lon": -87.6644256, "tags": {"addr:city": "Chicago", "addr:housenumber": "1450", "addr:postcode": "60654", "addr:state": "IL", "addr:street": "North Greenview Avenue", "amenity": "restaurant", "cuisine": "spanish;tapas;small_plates", "name": "Bar Biscay", "phone": "+1-312-455-8900", "website": "https://www.barbiscay.com"}}, {"type": "node", "id": 6265647624, "lat": 41.8963937, "lon": -87.6641441, "tags": {"addr:city": "Chicago", "addr:housenumber": "1444", "addr:postcode": "60642", "addr:state": "IL", "addr:street": "West Chicago Avenue", "amenity": "bar", "name": "Beauty Bar", "phone": "+1-312-226-8828", "website": "http://www.thebeautybar.com/"}}, {"type": "node", "id": 6269627500, "lat": 41.8959189, "lon": -87.6638671, "tags": {"addr:city": "Chicago", "addr:housenumber": "1437", "addr:postcode": "60642", "addr:state": "IL", "addr:street": "West Chicago Avenue", "amenity": "restaurant", "name": "Cafe Central", "phone": "+1-312-243-6776"}}, {"type": "node", "id": 6280546662, "lat": 41.9074471, "lon": -87.6672296, "tags": {"addr:city": "Chicago", "addr:housenumber": "1413", "addr:postcode": "60622", "addr:state": "IL", "addr:street": "North Ashland Avenue", "amenity": "restaurant", "name": "Caspian Kabab Fine Persian Cuisine", "phone": "+1-773-666-5767", "website": "http://caspiankabab.com/"}}, {"type": "node", "id": 6283222471, "lat": 41.9008216, "lon": -87.6627776, "tags": {"addr:city": "Chicago", "addr:housenumber": "1046", "addr:postcode": "60622", "addr:state": "IL", "addr:street": "North Milwaukee Avenue", "amenity": "cafe", "name": "Coffee On Milwaukee", "phone": "+1-773-276-3200"}}, {"type": "node", "id": 6286791027, "lat": 41.9032233, "lon": -87.6576052, "tags": {"addr:city": "Chicago", "addr:housenumber": "1777", "addr:postcode": "60642", "addr:state": "IL", "addr:street": "North Elston Avenue", "amenity": "bar", "name": "Estate", "phone": "+1-312-523-4296", "website": "http://estateultrabar.com"}}, {"type": "node", "id": 6290954452, "lat": 41.8963373, "lon": -87.6638657, "tags": {"addr:city": "Chicago", "addr:housenumber": "1434", "addr:postcode": "60642", "addr:state": "IL", "addr:street": "West Chicago Avenue", "amenity": "restaurant", "name": "Flo", "phone": "+1-312-243-0477", "website": "https://flochicago.com/"}}, {"type": "node", "id": 6292027817, "lat": 41.903415, "lon": -87.652989, "tags": {"addr:city": "Chicago", "addr:housenumber": "1011", "addr:postcode": "60642", "addr:state": "IL", "addr:street": "West Division Street", "amenity": "restaurant", "name": "Goose Island Shrimp House Chicago", "phone": "+1-312-642-3640", "website": "http://gooseislandshrimphouse.com/"}}, {"type": "node", "id": 6294267462, "lat": 41.8965552, "lon": -87.667071, "tags": {"addr:city": "Chicago", "addr:housenumber": "815", "addr:postcode": "60622", "addr:state": "IL", "addr:street": "North Ashland Avenue", "amenity": "cafe", "name": "Healthy and Simple", "phone": "+1-312-624-8971"}}, {"type": "node", "id": 6300667059, "lat": 41.8963169, "lon": -87.6647172, "tags": {"addr:city": "Chicago", "addr:housenumber": "1458", "addr:postcode": "60642", "addr:state": "IL", "addr:street": "West Chicago Avenue", "amenity": "cafe", "name": "Standing Passengers", "phone": "+1-312-374-3177", "website": "https://www.standingpassengers.com/"}}, {"type": "node", "id": 6304017578, "lat": 41.8989063, "lon": -87.6670205, "tags": {"addr:city": "Chicago", "addr:housenumber": "933", "addr:postcode": "60622", "addr:state": "IL", "addr:street": "North Ashland Avenue", "amenity": "restaurant", "cuisine": "american;american_new;new_american", "name": "Temporis", "opening_hours": "Tu-Sa 17:00-21:00", "phone": "+1-773-697-4961", "website": "https://www.temporischicago.com/"}}, {"type": "node", "id": 6315186963, "lat": 41.8989749, "lon": -87.6490724, "tags": {"addr:city": "Chicago", "addr:housenumber": "900", "addr:postcode": "60642", "addr:state": "IL", "addr:street": "North Branch Street", "amenity": "cafe", "name": "The Daily Grind", "phone": "+1-312-752-2000"}}, {"type": "node", "id": 6315665345, "lat": 41.8957112, "lon": -87.6548491, "tags": {"addr:city": "Chicago", "addr:housenumber": "770", "addr:postcode": "60642", "addr:state": "IL", "addr:street": "North Milwaukee Avenue", "amenity": "bar", "name": "The Matchbox", "phone": "+1-312-666-9292"}}, {"type": "node", "id": 6319264224, "lat": 41.8991184, "lon": -87.666976, "tags": {"addr:city": "Chicago", "addr:housenumber": "939", "addr:postcode": "60622", "addr:state": "IL", "addr:street": "North Ashland Avenue", "amenity": "restaurant", "name": "Kimchi Pop", "phone": "+1-872-802-4424", "website": "https://www.kimchipopchicago.com/"}}, {"type": "node", "id": 6319897991, "lat": 41.8963535, "lon": -87.6639632, "tags": {"addr:city": "Chicago", "addr:housenumber": "1438", "addr:postcode": "60642", "addr:state": "IL", "addr:street": "West Chicago Avenue", "amenity": "restaurant", "name": "La Calavera Chicago", "phone": "+1-312-255-7925", "website": "http://www.calaverachicago.com/"}}, {"type": "node", "id": 6320612929, "lat": 41.8962815, "lon": -87.6678216, "tags": {"addr:city": "Chicago", "addr:housenumber": "1610", "addr:postcode": "60622", "addr:state": "IL", "addr:street": "West Chicago Avenue", "amenity": "bar", "name": "Loop Tavern", "phone": "+1-312-226-6740"}}, {"type": "node", "id": 6321516956, "lat": 41.9025114, "lon": -87.6678565, "tags": {"addr:city": "Chicago", "addr:housenumber": "1132", "addr:postcode": "60622", "addr:state": "IL", "addr:street": "North Ashland Avenue", "amenity": "restaurant", "name": "Mariscos La Costa", "phone": "+1-773-360-1226", "website": "https://www.lacostachicago.com/"}}, {"type": "node", "id": 6322987207, "lat": 41.907172, "lon": -87.6673201, "tags": {"addr:city": "Chicago", "addr:housenumber": "1401", "addr:postcode": "60622", "addr:state": "IL", "addr:street": "North Ashland Avenue", "amenity": "restaurant", "name": "Mott St", "phone": "+1-773-687-9977", "website": "http://www.mottstreetchicago.com/"}}, {"type": "node", "id": 6324088187, "lat": 41.8959969, "lon": -87.6621632, "tags": {"addr:city": "Chicago", "addr:housenumber": "1371", "addr:postcode": "60642", "addr:state": "IL", "addr:street": "West Chicago Avenue", "amenity": "restaurant", "name": "Opart Thai House", "phone": "+1-312-988-0986", "website": "https://www.opartthai.com"}}, {"type": "node", "id": 6397120472, "lat": 41.8963061, "lon": -87.6648107, "tags": {"addr:city": "Chicago", "addr:housenumber": "1460", "addr:postcode": "60642", "addr:state": "IL", "addr:street": "West Chicago Avenue", "amenity": "restaurant", "cuisine": "asian;japanese", "name": "Jeong", "opening_hours": "Tu-Sa 17:00-22:00", "phone": "+1-312-877-5016", "website": "http://jeongchicago.com"}}, {"type": "node", "id": 6774960135, "lat": 41.8982361, "lon": -87.6584179}, {"type": "node", "id": 6842452391, "lat": 41.9018301, "lon": -87.6676707, "tags": {"addr:housenumber": "1108", "addr:street": "North Ashland Avenue", "amenity": "cafe", "cuisine": "ice_cream;smoothies", "name": "Coco Ice Cream"}}, {"type": "node", "id": 6991303059, "lat": 41.8857352, "lon": -87.6323843, "tags": {"highway": "traffic_signals", "traffic_signals": "traffic_lights"}}, {"type": "node", "id": 7015621558, "lat": 41.8857268, "lon": -87.6381883}, {"type": "node", "id": 7073555751, "lat": 41.8942118, "lon": -87.6525505, "tags": {"addr:city": "Chicago", "addr:housenumber": "694", "addr:postcode": "60642", "addr:state": "IL", "addr:street": "North Milwaukee Avenue", "amenity": "bar", "name": "The Dandy Crown", "phone": "+1-312-846-6420", "website": "http://thedandycrown.com"}}, {"type": "node", "id": 7330277259, "lat": 41.9035858, "lon": -87.6652262, "tags": {"addr:city": "Chicago", "addr:housenumber": "1500", "addr:postcode": "60642", "addr:state": "IL", "addr:street": "West Division Street", "amenity": "restaurant", "cuisine": "sushi;japanese", "name": "Seadog Sushi Bar", "phone": "+1-773-235-8100"}}, {"type": "node", "id": 7598304985, "lat": 41.8958747, "lon": -87.6667787, "tags": {"addr:housenumber": "1549", "amenity": "restaurant", "name": "Spicy Fingers Seafood Kitchen"}}, {"type": "node", "id": 7607793125, "lat": 41.8756808, "lon": -87.6306661, "tags": {"railway": "switch"}}, {"type": "node", "id": 7607793126, "lat": 41.8756222, "lon": -87.6304099, "tags": {"railway": "switch"}}, {"type": "node", "id": 7607793127, "lat": 41.8756193, "lon": -87.6306682, "tags": {"railway": "switch"}}, {"type": "node", "id": 7607793128, "lat": 41.8756833, "lon": -87.6304013, "tags": {"railway": "switch"}}, {"type": "node", "id": 7662839840, "lat": 41.885735, "lon": -87.6326313}, {"type": "node", "id": 7675964055, "lat": 41.8836614, "lon": -87.6295087}, {"type": "node", "id": 7676191090, "lat": 41.8922758, "lon": -87.6492293}, {"type": "node", "id": 7676191091, "lat": 41.8933257, "lon": -87.6508241}, {"type": "node", "id": 7676191092, "lat": 41.8959631, "lon": -87.654909}, {"type": "node", "id": 7676191093, "lat": 41.8965232, "lon": -87.655796}, {"type": "node", "id": 7676191096, "lat": 41.8975476, "lon": -87.6573753}, {"type": "node", "id": 7676191098, "lat": 41.8981388, "lon": -87.6582711}, {"type": "way", "id": 209846451, "nodes": [2200107680, 2200107795, 2200107958, 2200108058, 2200108076, 2200107714, 2200107680], "tags": {"addr:housenumber": "1035", "addr:street": "North Ashland Avenue", "addr:street:name": "Ashland", "addr:street:prefix": "North", "addr:street:type": "Avenue", "amenity": "restaurant", "building": "yes", "building:levels": "1", "chicago:building_id": "327552", "cuisine": "mexican", "name": "El Barco Mariscos"}}, {"type": "way", "id": 209846687, "nodes": [2200109452, 2200109752, 2200111113, 2200111013, 2200109452], "tags": {"addr:city": "Chicago", "addr:housenumber": "1072", "addr:postcode": "60642", "addr:state": "IL", "addr:street": "North Milwaukee Avenue", "addr:street:name": "Milwaukee", "addr:street:prefix": "North", "addr:street:type": "Avenue", "amenity": "restaurant", "building": "yes", "building:levels": "2", "chicago:building_id": "326171", "name": "The Frontier", "phone": "+1-773-772-4322", "website": "https://www.thefrontierchicago.com/", "wikidata": "Q16993845", "wikipedia": "en:Frontier (restaurant)"}}, {"type": "way", "id": 209847822, "nodes": [2200116752, 2200117190, 2200117197, 2200116765, 2200116752], "tags": {"addr:city": "Chicago", "addr:housenumber": "1549", "addr:postcode": "60642", "addr:state": "IL", "addr:street": "West Division Street", "addr:street:name": "Division", "addr:street:prefix": "West", "addr:street:type": "Street", "amenity": "restaurant", "building": "yes", "building:levels": "1", "chicago:building_id": "322607", "cuisine": "polish", "name": "Podhalanka", "phone": "+1-773-486-6655"}}, {"type": "way", "id": 209863979, "nodes": [2200189962, 2200190097, 2200190112, 2200189974, 2200189962], "tags": {"addr:housenumber": "1413", "addr:street": "North Ashland Avenue", "addr:street:name": "Ashland", "addr:street:prefix": "North", "addr:street:type": "Avenue", "amenity": "restaurant", "building": "yes", "building:levels": "2", "chicago:building_id": "313398"}}, {"type": "way", "id": 230398414, "nodes": [2389087654, 2389087661, 2389087641, 2389087647, 2389087653, 2389087619, 2389087638, 2389087645, 2389087622, 2389087640, 2389087646, 2389087620, 2389087659, 2389087652, 2389087642, 2389087648, 2389087635, 2389087644, 5272952065, 2389087623, 2389087643, 2389087631, 2389087651, 2389087660, 7675964055, 2389087649, 2389087628, 2389087658, 2389087637, 2389087625, 2389087650, 2389087636, 2389087633, 2389087627, 2389087639, 2389087629, 2389087657, 7607793128, 7607793125, 2389087624, 2389087626, 2389087632, 3188221401], "tags": {"electrified": "rail", "frequency": "0", "gauge": "1435", "layer": "-2", "level": "0", "name": "Dearborn Street Subway", "oneway": "yes", "operator": "Chicago Transit Authority", "railway": "subway", "tunnel": "yes", "voltage": "600"}}, {"type": "way", "id": 312901443, "nodes": [3188221400, 258281900, 258281901, 5272963174, 7607793127, 7607793126, 258957456, 1613640702, 258281903, 1613640678, 706968780, 1613640656, 706968781, 873051690, 5272959956, 5272959957, 5272952067, 258957458, 1606917431, 706968782, 258957459, 706968784, 5272952066, 6991303059, 258957340, 7662839840, 736637716, 7015621558, 258281905, 707905319, 707905321, 258281906, 365489352, 707905651, 258281907, 5272952064, 7676191090, 7676191091, 258281909, 7676191092, 5272957251, 7676191093, 7676191096, 7676191098, 6774960135, 365489153, 736035819, 736035820, 365489154, 736035821, 736035822, 258025450], "tags": {"electrified": "rail", "frequency": "0", "gauge": "1435", "layer": "-2", "level": "-1", "name": "Dearborn Street Subway", "oneway": "yes", "operator": "Chicago Transit Authority", "railway": "subway", "tunnel": "yes", "voltage": "600"}}]}