{"version": 0.6, "generator": "Overpass API 0.7.56.3 eb200aeb", "osm3s": {"timestamp_osm_base": "2020-07-20T22:10:02Z", "copyright": "The data included in this document is from www.openstreetmap.org. The data is made available under ODbL."}, "elements": [{"type": "node", "id": 286369226, "lat": 41.9252157, "lon": -87.6590264}, {"type": "node", "id": 286369232, "lat": 41.9236965, "lon": -87.6511635}, {"type": "node", "id": 286369233, "lat": 41.9236653, "lon": -87.6529154}, {"type": "node", "id": 286369234, "lat": 41.9218369, "lon": -87.6536137}, {"type": "node", "id": 286369235, "lat": 41.9218071, "lon": -87.6545905}, {"type": "node", "id": 286369237, "lat": 41.9235769, "lon": -87.6582718}, {"type": "node", "id": 286369306, "lat": 41.9263468, "lon": -87.6529996}, {"type": "node", "id": 286369307, "lat": 41.9253718, "lon": -87.6529784}, {"type": "node", "id": 286369308, "lat": 41.9250203, "lon": -87.6512022}, {"type": "node", "id": 286369309, "lat": 41.9243434, "lon": -87.6511679}, {"type": "node", "id": 286369311, "lat": 41.9236164, "lon": -87.6546637}, {"type": "node", "id": 307890165, "lat": 41.9253504, "lon": -87.6498796}, {"type": "node", "id": 307890172, "lat": 41.9237168, "lon": -87.6497863}, {"type": "node", "id": 308675507, "lat": 41.9244322, "lon": -87.6511724}, {"type": "node", "id": 318276729, "lat": 41.9208448, "lon": -87.6332051, "tags": {"amenity": "cafe", "name": "Park Place Cafe"}}, {"type": "node", "id": 370093716, "lat": 41.9253655, "lon": -87.6489723}, {"type": "node", "id": 370093749, "lat": 41.9237371, "lon": -87.64883}, {"type": "node", "id": 370093752, "lat": 41.9253329, "lon": -87.6488812}, {"type": "node", "id": 416770215, "lat": 41.9243826, "lon": -87.6582994}, {"type": "node", "id": 416770216, "lat": 41.9243744, "lon": -87.6589981}, {"type": "node", "id": 417255771, "lat": 41.925225, "lon": -87.6583375}, {"type": "node", "id": 417255772, "lat": 41.9258596, "lon": -87.6583677}, {"type": "node", "id": 417255773, "lat": 41.9258724, "lon": -87.6576982}, {"type": "node", "id": 417255774, "lat": 41.9252849, "lon": -87.6576725}, {"type": "node", "id": 417255775, "lat": 41.9258658, "lon": -87.6554215}, {"type": "node", "id": 417255776, "lat": 41.9263308, "lon": -87.6545006}, {"type": "node", "id": 452377015, "lat": 41.9241152, "lon": -87.6498508}, {"type": "node", "id": 452377016, "lat": 41.9237193, "lon": -87.6498337}, {"type": "node", "id": 477087140, "lat": 41.9233904, "lon": -87.6460993, "tags": {"addr:city": "Chicago", "addr:housenumber": "2274", "addr:postcode": "60614", "addr:state": "IL", "addr:street": "North Lincoln Avenue", "amenity": "bar", "name": "Halligan Bar", "phone": "+1-773-472-7940", "website": "https://halliganbarchicago.com/"}}, {"type": "node", "id": 477087310, "lat": 41.9216973, "lon": -87.6488467, "tags": {"addr:city": "Chicago", "addr:housenumber": "2158", "addr:postcode": "60614", "addr:state": "IL", "addr:street": "North Halsted Street", "amenity": "bar", "name": "Glasscott's", "phone": "+1-773-281-1205", "website": "http://www.glascotts.com/"}}, {"type": "node", "id": 772288954, "lat": 41.932955, "lon": -87.6444494, "tags": {"amenity": "restaurant"}}, {"type": "node", "id": 1349879207, "lat": 41.9267484, "lon": -87.6409859, "tags": {"addr:housenumber": "2447", "addr:street": "North Clark Street", "addr:street:name": "Clark", "addr:street:prefix": "North", "addr:street:type": "Street", "amenity": "restaurant", "cuisine": "american", "name": "House of Wings"}}, {"type": "node", "id": 1349879445, "lat": 41.9251559, "lon": -87.6399232, "tags": {"amenity": "restaurant", "cuisine": "thai", "name": "Nine", "takeaway": "yes"}}, {"type": "node", "id": 1349879616, "lat": 41.9261777, "lon": -87.6405454, "tags": {"addr:city": "Chicago", "addr:housenumber": "2423", "addr:postcode": "60614", "addr:state": "IL", "addr:street": "North Clark Street", "amenity": "restaurant", "name": "Drawl Southern Cook House & Whiskey Room", "phone": "+1-773-687-8111", "website": "https://www.drawlchicago.com/"}}, {"type": "node", "id": 1349879617, "lat": 41.9258684, "lon": -87.6408981, "tags": {"amenity": "restaurant", "cuisine": "international", "name": "Tapas Restarurant/Bar"}}, {"type": "node", "id": 1983543632, "lat": 41.924302, "lon": -87.649851}, {"type": "node", "id": 1983549241, "lat": 41.9222116, "lon": -87.6528996}, {"type": "node", "id": 1983549242, "lat": 41.9222019, "lon": -87.6536129}, {"type": "node", "id": 2204017997, "lat": 41.918528, "lon": -87.6490047}, {"type": "node", "id": 2204018017, "lat": 41.9185342, "lon": -87.6486592}, {"type": "node", "id": 2204018019, "lat": 41.9185354, "lon": -87.648647}, {"type": "node", "id": 2204018237, "lat": 41.9185966, "lon": -87.6490156}, {"type": "node", "id": 2204018278, "lat": 41.9186054, "lon": -87.6486499}, {"type": "node", "id": 2204024213, "lat": 41.9200758, "lon": -87.6491571}, {"type": "node", "id": 2204024246, "lat": 41.9200822, "lon": -87.6487242}, {"type": "node", "id": 2204024332, "lat": 41.9201013, "lon": -87.6486982}, {"type": "node", "id": 2204024436, "lat": 41.9201452, "lon": -87.6491589}, {"type": "node", "id": 2204024451, "lat": 41.9201521, "lon": -87.6486996}, {"type": "node", "id": 2204034445, "lat": 41.9230531, "lon": -87.6459254}, {"type": "node", "id": 2204034519, "lat": 41.9230715, "lon": -87.6459558}, {"type": "node", "id": 2204034575, "lat": 41.9230861, "lon": -87.6459754}, {"type": "node", "id": 2204034779, "lat": 41.9231343, "lon": -87.6458217}, {"type": "node", "id": 2204034784, "lat": 41.9231356, "lon": -87.6458033}, {"type": "node", "id": 2204035015, "lat": 41.9232155, "lon": -87.6458109}, {"type": "node", "id": 2204035410, "lat": 41.9233282, "lon": -87.6456194}, {"type": "node", "id": 2204035573, "lat": 41.9233681, "lon": -87.645674}, {"type": "node", "id": 2204035943, "lat": 41.9234782, "lon": -87.6455002}, {"type": "node", "id": 2204036024, "lat": 41.9234865, "lon": -87.6455203}, {"type": "node", "id": 2204036056, "lat": 41.9234904, "lon": -87.6454853}, {"type": "node", "id": 2204036147, "lat": 41.9235015, "lon": -87.6454999}, {"type": "node", "id": 2204036210, "lat": 41.9235131, "lon": -87.6453767}, {"type": "node", "id": 2204036347, "lat": 41.9235532, "lon": -87.6454314}, {"type": "node", "id": 2204044941, "lat": 41.9255989, "lon": -87.6479266}, {"type": "node", "id": 2204044944, "lat": 41.9256, "lon": -87.6478825}, {"type": "node", "id": 2204044971, "lat": 41.9256247, "lon": -87.6478859}, {"type": "node", "id": 2204044972, "lat": 41.9256249, "lon": -87.6478796}, {"type": "node", "id": 2204045107, "lat": 41.9257046, "lon": -87.6479365}, {"type": "node", "id": 2204045130, "lat": 41.9257114, "lon": -87.6479272}, {"type": "node", "id": 2204045252, "lat": 41.9257553, "lon": -87.6479267}, {"type": "node", "id": 2204045265, "lat": 41.9257595, "lon": -87.6479377}, {"type": "node", "id": 2204045344, "lat": 41.9257855, "lon": -87.6479319}, {"type": "node", "id": 2204045352, "lat": 41.9257874, "lon": -87.6478827}, {"type": "node", "id": 2204047387, "lat": 41.9264871, "lon": -87.641602}, {"type": "node", "id": 2204047439, "lat": 41.9265006, "lon": -87.6415578}, {"type": "node", "id": 2204047720, "lat": 41.9265733, "lon": -87.6413291}, {"type": "node", "id": 2204047724, "lat": 41.9265738, "lon": -87.6416507}, {"type": "node", "id": 2204047824, "lat": 41.9265941, "lon": -87.6415898}, {"type": "node", "id": 2204047916, "lat": 41.9266147, "lon": -87.6413691}, {"type": "node", "id": 2204047937, "lat": 41.9266201, "lon": -87.6413544}, {"type": "node", "id": 2204048116, "lat": 41.9266634, "lon": -87.6413965}, {"type": "node", "id": 2204048654, "lat": 41.9268133, "lon": -87.6486915}, {"type": "node", "id": 2204048686, "lat": 41.9268205, "lon": -87.648437}, {"type": "node", "id": 2204048959, "lat": 41.9268779, "lon": -87.6486948}, {"type": "node", "id": 2204048983, "lat": 41.9268851, "lon": -87.6484403}, {"type": "node", "id": 2204051362, "lat": 41.9275472, "lon": -87.6414714, "tags": {"addr:housenumber": "2473", "addr:postcode": "60614", "addr:street": "North Clark Street", "amenity": "restaurant", "cuisine": "japanese", "entrance": "main", "name": "Kabuki"}}, {"type": "node", "id": 2204054829, "lat": 41.9286645, "lon": -87.649427}, {"type": "node", "id": 2204054879, "lat": 41.9286698, "lon": -87.6489879}, {"type": "node", "id": 2204055130, "lat": 41.9287302, "lon": -87.6494285}, {"type": "node", "id": 2204055146, "lat": 41.9287355, "lon": -87.6489894}, {"type": "node", "id": 2204055723, "lat": 41.9289325, "lon": -87.6492998}, {"type": "node", "id": 2204055739, "lat": 41.9289362, "lon": -87.6489973}, {"type": "node", "id": 2204055852, "lat": 41.9289907, "lon": -87.6493014}, {"type": "node", "id": 2204055884, "lat": 41.9289944, "lon": -87.6489982}, {"type": "node", "id": 2204056515, "lat": 41.929182, "lon": -87.6475271}, {"type": "node", "id": 2204056518, "lat": 41.929182, "lon": -87.6474538}, {"type": "node", "id": 2204056556, "lat": 41.9291994, "lon": -87.6475478}, {"type": "node", "id": 2204057197, "lat": 41.9294237, "lon": -87.6475534}, {"type": "node", "id": 2204057201, "lat": 41.9294238, "lon": -87.6474613}, {"type": "node", "id": 2207658045, "lat": 41.9243235, "lon": -87.6402119}, {"type": "node", "id": 2207658053, "lat": 41.9243479, "lon": -87.6402288}, {"type": "node", "id": 2207658054, "lat": 41.9243549, "lon": -87.6402415}, {"type": "node", "id": 2207658059, "lat": 41.9243595, "lon": -87.6400908}, {"type": "node", "id": 2207658063, "lat": 41.9243637, "lon": -87.6401073}, {"type": "node", "id": 2207658068, "lat": 41.9243769, "lon": -87.6402523}, {"type": "node", "id": 2207658069, "lat": 41.9243875, "lon": -87.6401953}, {"type": "node", "id": 2207658070, "lat": 41.9243929, "lon": -87.6401823}, {"type": "node", "id": 2207658071, "lat": 41.9243931, "lon": -87.6399857}, {"type": "node", "id": 2207658073, "lat": 41.9243958, "lon": -87.6402025}, {"type": "node", "id": 2207658074, "lat": 41.9244039, "lon": -87.6401767}, {"type": "node", "id": 2207658084, "lat": 41.924428, "lon": -87.6400754}, {"type": "node", "id": 2207658086, "lat": 41.9244309, "lon": -87.6400992}, {"type": "node", "id": 2207658094, "lat": 41.9244468, "lon": -87.6400182}, {"type": "node", "id": 2262371979, "lat": 41.9277431, "lon": -87.6486926, "tags": {"addr:city": "Chicago", "addr:housenumber": "2519", "addr:postcode": "60614", "addr:state": "IL", "addr:street": "North Halsted Street", "amenity": "bar", "name": "B.L.U.E.S.", "phone": "+1-773-528-1012", "website": "http://www.chicagobluesbar.com"}}, {"type": "node", "id": 2348349944, "lat": 41.9237168, "lon": -87.6496983, "tags": {"barrier": "gate"}}, {"type": "node", "id": 2361072388, "lat": 41.9300231, "lon": -87.643667, "tags": {"addr:housenumber": "2616", "addr:postcode": "60614", "addr:street": "North Clark Street", "amenity": "bar", "name": "Duke's Chicago Bar and Grill"}}, {"type": "node", "id": 2361072391, "lat": 41.9311283, "lon": -87.6439425, "tags": {"addr:housenumber": "2665", "addr:postcode": "60614", "addr:street": "North Clark Street", "amenity": "restaurant", "cuisine": "burger", "name": "Fatty's Burgers and More"}}, {"type": "node", "id": 2399641185, "lat": 41.9272981, "lon": -87.6413164, "tags": {"addr:housenumber": "2465", "addr:postcode": "60614", "addr:street": "North Clark Street", "amenity": "restaurant", "cuisine": "italian", "name": "Basil Leaf", "phone": "773-935-3388"}}, {"type": "node", "id": 2399641189, "lat": 41.9270011, "lon": -87.6411338, "tags": {"addr:city": "Chicago", "addr:housenumber": "2452", "addr:postcode": "60614", "addr:state": "IL", "addr:street": "North Clark Street", "amenity": "cafe", "cuisine": "donut", "name": "Firecakes Donuts", "phone": "+1-773-666-5277", "website": "https://www.firecakesdonuts.com/"}}, {"type": "node", "id": 2399641190, "lat": 41.9268031, "lon": -87.6415082, "tags": {"addr:city": "Chicago", "addr:housenumber": "2450", "addr:postcode": "60614", "addr:state": "IL", "addr:street": "North Clark Street", "addr:street:name": "Clark", "addr:street:prefix": "North", "addr:street:type": "Street", "amenity": "cafe", "name": "Gaslight Coffee Roasters", "opening_hours": "Mo-Fr 11:00-02:00; Sa 09:30-03:00; Su 09:30-02:00", "phone": "+1-773-435-0007", "website": "https://gaslightbar.com/"}}, {"type": "node", "id": 2399641191, "lat": 41.9172647, "lon": -87.6370796, "tags": {"addr:housenumber": "1925", "addr:street": "North Lincoln Avenue", "addr:street:name": "Lincoln", "addr:street:prefix": "North", "addr:street:type": "Avenue", "amenity": "restaurant", "cuisine": "pizza", "name": "Rocco Ranalli's"}}, {"type": "node", "id": 2458410440, "lat": 41.9251354, "lon": -87.6590281}, {"type": "node", "id": 2607221649, "lat": 41.9229445, "lon": -87.6449862, "tags": {"addr:city": "Chicago", "addr:country": "US", "addr:housenumber": "2245", "addr:street": "North Lincoln Avenue", "amenity": "restaurant", "cuisine": "pizza", "name": "Lincoln Park Pizza"}}, {"type": "node", "id": 2607221651, "lat": 41.9235545, "lon": -87.6458622, "tags": {"amenity": "cafe", "brand": "Starbucks", "brand:wikidata": "Q37158", "brand:wikipedia": "en:Starbucks", "cuisine": "coffee_shop", "name": "Starbucks", "official_name": "Starbucks Coffee", "takeaway": "yes"}}, {"type": "node", "id": 2607221928, "lat": 41.923172, "lon": -87.6457498}, {"type": "node", "id": 2623046304, "lat": 41.9174354, "lon": -87.6486475, "tags": {"addr:city": "Chicago", "addr:housenumber": "1948", "addr:postcode": "60614", "addr:street": "North Halsted Street", "amenity": "bar", "name": "Manhandler Saloon"}}, {"type": "node", "id": 2623896621, "lat": 41.9179369, "lon": -87.6483425, "tags": {"addr:city": "Chicago", "addr:housenumber": "1969", "addr:postcode": "60614", "addr:street": "North Halsted Street", "amenity": "restaurant", "cuisine": "Taqueria/Cantina", "name": "Taco Joint", "phone": "+1-312-951-2457", "website": "https://www.tacojoint.com/"}}, {"type": "node", "id": 2623896633, "lat": 41.917875, "lon": -87.648321, "tags": {"addr:city": "Chicago", "addr:housenumber": "1967", "addr:postcode": "60614", "addr:street": "North Halsted Street", "amenity": "restaurant", "name": "Rustic House"}}, {"type": "node", "id": 2623896642, "lat": 41.9179319, "lon": -87.6486675, "tags": {"addr:city": "Chicago", "addr:housenumber": "1966", "addr:postcode": "60614", "addr:state": "IL", "addr:street": "North Halsted Street", "amenity": "restaurant", "name": "Pasta Palazzo", "phone": "+1-773-248-1400", "takeaway": "yes", "website": "http://pastapalazzo.com/"}}, {"type": "node", "id": 2624050319, "lat": 41.9180677, "lon": -87.6483402, "tags": {"addr:city": "Chicago", "addr:housenumber": "1973", "addr:postcode": "60614", "addr:state": "IL", "addr:street": "North Halsted Street", "amenity": "bar", "name": "Marquee Lounge"}}, {"type": "node", "id": 2624050324, "lat": 41.9177852, "lon": -87.6486715, "tags": {"addr:city": "Chicago", "addr:housenumber": "1962", "addr:postcode": "60614", "addr:street": "North Halsted Street", "amenity": "restaurant", "name": "Coppervine"}}, {"type": "node", "id": 2624050329, "lat": 41.9180886, "lon": -87.6471654, "tags": {"addr:city": "Chicago", "addr:housenumber": "732", "addr:postcode": "60614", "addr:street": "West Armitage Avenue", "amenity": "restaurant", "cuisine": "fast_food", "name": "Brothers Beef"}}, {"type": "node", "id": 2673655700, "lat": 41.9187003, "lon": -87.6366459, "tags": {"addr:city": "Chicago", "addr:housenumber": "2020", "addr:postcode": "60614", "addr:state": "IL", "addr:street": "North Lincoln Park West", "amenity": "restaurant", "brand": "The Original Pancake House", "brand:wikidata": "Q7755384", "brand:wikipedia": "en:The Original Pancake House", "cuisine": "breakfast;pancake", "name": "The Original Pancake House"}}, {"type": "node", "id": 2946725325, "lat": 41.9169091, "lon": -87.6366164, "tags": {"amenity": "restaurant", "cuisine": "italian", "name": "Brick's"}}, {"type": "node", "id": 2946757911, "lat": 41.9328768, "lon": -87.647886, "tags": {"addr:housenumber": "730", "addr:street": "West Diversey Parkway", "amenity": "restaurant", "cuisine": "japanese", "name": "Sakura", "opening_hours": "Mo-Su 11:30-22:30"}}, {"type": "node", "id": 2968844771, "lat": 41.9189763, "lon": -87.6487203, "tags": {"addr:city": "Chicago", "addr:housenumber": "2024", "addr:postcode": "60614", "addr:state": "IL", "addr:street": "North Halsted Street", "amenity": "restaurant", "name": "Cafe Ba-Ba-Reeba!", "phone": "+1-773-935-5000", "website": "http://cafebabareeba.com/"}}, {"type": "node", "id": 2988737657, "lat": 41.9180298, "lon": -87.6386499, "tags": {"addr:city": "Chicago", "addr:housenumber": "1970", "addr:postcode": "60614", "addr:state": "IL", "addr:street": "North Lincoln Avenue", "amenity": "restaurant", "entrance": "yes", "name": "Stanley's Kitchen and Tap"}}, {"type": "node", "id": 3269064603, "lat": 41.9181092, "lon": -87.6465719, "tags": {"amenity": "restaurant", "cuisine": "pizza", "name": "Armitage Pizza", "takeaway": "yes"}}, {"type": "node", "id": 3518291652, "lat": 41.9324546, "lon": -87.6459114, "tags": {"addr:city": "Chicago", "addr:housenumber": "659", "addr:postcode": "60614", "addr:state": "IL", "addr:street": "West Diversey Parkway", "amenity": "cafe", "name": "Next Door Cafe", "opening_hours": "Mo-Su 07:00-22:00", "phone": "+1-773-472-3667", "website": "https://www.nextdoorchicago.com"}}, {"type": "node", "id": 3627743049, "lat": 41.9293462, "lon": -87.6428605, "tags": {"addr:city": "Chicago", "addr:housenumber": "2568", "addr:postcode": "60614", "addr:state": "IL", "addr:street": "North Clark Street", "amenity": "restaurant", "capacity": "50", "cuisine": "korean", "delivery": "no", "name": "Del Seoul", "opening_hours": "Mo-Th 11:30-21:30; Fr-Sa 11:30-22:00; Su 11:30-21:00", "phone": "+1-773-248-4227", "website": "https://delseoul.com/", "wheelchair": "yes"}}, {"type": "node", "id": 3841977063, "lat": 41.9218198, "lon": -87.6541736}, {"type": "node", "id": 4045036123, "lat": 41.9233231, "lon": -87.6455687, "tags": {"addr:city": "Chicago", "addr:housenumber": "2265", "addr:postcode": "60614", "addr:state": "IL", "addr:street": "North Lincoln Avenue", "amenity": "bar", "name": "Kelsey's", "phone": "+1-773-348-1666", "website": "http://kelseysbar.com/"}}, {"type": "node", "id": 4045036124, "lat": 41.9232814, "lon": -87.6454858, "tags": {"addr:city": "Chicago", "addr:housenumber": "2263", "addr:postcode": "60614", "addr:state": "IL", "addr:street": "North Lincoln Avenue", "amenity": "bar", "name": "Lincoln Avenue Social", "phone": "+1-773-348-7200", "website": "https://lincolnavenuesocial.com/"}}, {"type": "node", "id": 4045036125, "lat": 41.9231514, "lon": -87.645214, "tags": {"amenity": "bar", "name": "The Apartment"}}, {"type": "node", "id": 4100246313, "lat": 41.9200447, "lon": -87.6366013, "tags": {"addr:city": "Chicago", "addr:housenumber": "2056", "addr:postcode": "60614", "addr:state": "IL", "addr:street": "Lincoln Park West", "amenity": "restaurant", "name": "RJ Grunts", "opening_hours": "Mo-Fr 11:30-23:00; Sa 10:00-23:00; Su 10:00-21:00", "phone": "+1-773-929-5363", "website": "http://www.rjgruntschicago.com/"}}, {"type": "node", "id": 4188110370, "lat": 41.9200282, "lon": -87.6369267, "tags": {"amenity": "cafe", "brand": "Starbucks", "brand:wikidata": "Q37158", "brand:wikipedia": "en:Starbucks", "cuisine": "coffee_shop", "name": "Starbucks", "official_name": "Starbucks Coffee", "takeaway": "yes"}}, {"type": "node", "id": 4191676734, "lat": 41.9176173, "lon": -87.6386253, "tags": {"amenity": "bar", "name": "Sedgwick's"}}, {"type": "node", "id": 4191676737, "lat": 41.9234681, "lon": -87.6393605, "tags": {"amenity": "restaurant", "cuisine": "sushi", "name": "Sushi Para II"}}, {"type": "node", "id": 4194646390, "lat": 41.9267147, "lon": -87.6485845, "tags": {"amenity": "restaurant", "cuisine": "thai", "name": "Paulas Thai Kitchen"}}, {"type": "node", "id": 4196262792, "lat": 41.9248791, "lon": -87.6482362, "tags": {"addr:city": "Chicago", "addr:housenumber": "2360", "addr:postcode": "60614", "addr:state": "IL", "addr:street": "North Lincoln Avenue", "amenity": "restaurant", "name": "La Crosta Woodfire Pizzeria Italiana", "phone": "+1-773-649-1000", "website": "http://lacrostachicago.com/"}}, {"type": "node", "id": 4196262795, "lat": 41.9219393, "lon": -87.6488352, "tags": {"amenity": "cafe", "brand": "Starbucks", "brand:wikidata": "Q37158", "brand:wikipedia": "en:Starbucks", "cuisine": "coffee_shop", "name": "Starbucks", "official_name": "Starbucks Coffee", "takeaway": "yes"}}, {"type": "node", "id": 4196262798, "lat": 41.9219534, "lon": -87.648107, "tags": {"addr:city": "Chicago", "addr:housenumber": "746", "addr:postcode": "60614", "addr:state": "IL", "addr:street": "West Webster Avenue", "amenity": "restaurant", "name": "Toast", "phone": "+1-773-935-5600", "website": "http://chicago-toast.com/"}}, {"type": "node", "id": 4366103741, "lat": 41.929762, "lon": -87.6432957, "tags": {"amenity": "bar", "name": "D.O.C"}}, {"type": "node", "id": 4366103743, "lat": 41.9299851, "lon": -87.6431533, "tags": {"amenity": "restaurant", "cuisine": "mexican", "name": "Tarascas", "phone": "(773) 549-2595", "website": "http://www.cocinatarascas.com/"}}, {"type": "node", "id": 4372831552, "lat": 41.9239848, "lon": -87.6469762, "tags": {"addr:city": "Chicago", "addr:country": "US", "addr:housenumber": "2312", "addr:postcode": "60614", "addr:state": "IL", "addr:street": "North Lincoln Avenue", "amenity": "restaurant", "cuisine": "international", "name": "Rickshaw Republic", "phone": "+1-773-697-4750", "website": "http://rickshawrepublic.com/", "wheelchair": "no"}}, {"type": "node", "id": 4499383937, "lat": 41.923718, "lon": -87.649649, "tags": {"barrier": "gate"}}, {"type": "node", "id": 4499383938, "lat": 41.9237203, "lon": -87.6495479}, {"type": "node", "id": 4525512611, "lat": 41.9288349, "lon": -87.6425793, "tags": {"addr:city": "Chicago", "addr:housenumber": "2534", "addr:postcode": "60614", "addr:state": "IL", "addr:street": "North Clark Street", "amenity": "restaurant", "cuisine": "hawaiian", "name": "Aloha Eats", "opening_hours": "Su,Tu,Th 12:00-20:00; Fr,Sa 12:00-21:00", "phone": "+1-773-935-6828", "website": "https://www.alohaeats.com/"}}, {"type": "node", "id": 4525512613, "lat": 41.9280172, "lon": -87.6417258, "tags": {"addr:city": "Chicago", "addr:housenumber": "2503", "addr:postcode": "60614", "addr:state": "IL", "addr:street": "North Clark Street", "amenity": "bar", "name": "Frank\u2019s Bar", "phone": "+1-773-549-2700", "website": "http://www.franksbarchicago.com/"}}, {"type": "node", "id": 4525512617, "lat": 41.9286324, "lon": -87.6421131, "tags": {"amenity": "cafe", "brand": "Starbucks", "brand:wikidata": "Q37158", "brand:wikipedia": "en:Starbucks", "cuisine": "coffee_shop", "name": "Starbucks", "official_name": "Starbucks Coffee", "takeaway": "yes"}}, {"type": "node", "id": 4525512618, "lat": 41.9277023, "lon": -87.6415754, "tags": {"addr:city": "Chicago", "addr:housenumber": "2483", "addr:postcode": "60614", "addr:state": "IL", "addr:street": "North Clark Street", "amenity": "bar", "email": "info@thetinlizzie.com", "name": "The Tin Lizzie", "phone": "+1-773-549-1132", "website": "https://www.thetinlizzie.com/"}}, {"type": "node", "id": 4564443501, "lat": 41.9208033, "lon": -87.6373192, "tags": {"addr:postcode": "60614", "amenity": "restaurant", "cuisine": "pizza", "name": "Chicago Pizza and Oven Grinder Co.", "opening_hours": "Mo-Th 16:00-23:00; Fr 16:00-00:00; Sa 11:30-00:00; Su 11:30-23:00", "phone": "7732482570", "website": "http://chicagopizzaandovengrinder.com"}}, {"type": "node", "id": 4726115309, "lat": 41.9259491, "lon": -87.6409341, "tags": {"addr:city": "Chicago", "addr:housenumber": "444", "addr:postcode": "60614", "addr:state": "IL", "addr:street": "West Fullerton Parkway", "amenity": "restaurant", "cuisine": "pizza", "name": "Casati's Pizza Vino", "phone": "+1-773-857-1237", "website": "https://www.cpvino.com/"}}, {"type": "node", "id": 4924475703, "lat": 41.9286556, "lon": -87.6425393, "tags": {"addr:city": "Chicago", "addr:housenumber": "2530", "addr:postcode": "60614", "addr:state": "IL", "addr:street": "North Clark Street", "amenity": "cafe", "name": "Colectivo Coffee", "outdoor_seating": "yes", "phone": "+1-773-687-8078", "website": "http://colectivocoffee.com/cafes/lincoln-park-cafe/"}}, {"type": "node", "id": 5092612001, "lat": 41.9207184, "lon": -87.6373313, "tags": {"addr:city": "Chicago", "addr:housenumber": "2119", "addr:postcode": "60614", "addr:state": "IL", "addr:street": "North Clark Street", "amenity": "restaurant", "name": "Riccardo Trattoria", "phone": "+1-773-549-0038", "website": "http://www.riccardotrattoria.com/"}}, {"type": "node", "id": 5092612002, "lat": 41.920646, "lon": -87.6376583, "tags": {"addr:city": "Chicago", "addr:housenumber": "2116", "addr:postcode": "60614", "addr:state": "IL", "addr:street": "North Clark Street", "amenity": "restaurant", "name": "Riccardo Enoteca", "phone": "+1-773-549-5010", "website": "http://www.riccardoenoteca.com/"}}, {"type": "node", "id": 5393821521, "lat": 41.9286066, "lon": -87.6485213, "tags": {"addr:city": "Chicago", "addr:housenumber": "2545", "addr:postcode": "60614", "addr:state": "IL", "addr:street": "North Halsted Street", "amenity": "restaurant", "cuisine": "chinese", "email": "cdir.chicago@gmail.com", "name": "Chengdu Impression", "opening_hours": "Mo-Su 16:00-22:00", "phone": "+1-(773)477-6256", "website": "https://www.chengduimpression.com/"}}, {"type": "node", "id": 5460880257, "lat": 41.9153668, "lon": -87.6345049, "tags": {"addr:city": "Chicago", "addr:housenumber": "1800", "addr:postcode": "60614", "addr:state": "IL", "addr:street": "North Lincoln Avenue", "amenity": "restaurant", "cuisine": "american", "name": "The Kennison", "opening_hours": "Su-Th 17:00-22:00; Fr-Sa 17:00-23:00; Sa-Su 09:00-14:00", "phone": "+1-312-981-7070", "website": "https://www.thekennison.com/"}}, {"type": "node", "id": 5640384005, "lat": 41.9293078, "lon": -87.6428324, "tags": {"amenity": "restaurant", "name": "Lito's Empanadas"}}, {"type": "node", "id": 5688396721, "lat": 41.9153381, "lon": -87.6344171, "tags": {"addr:city": "Chicago", "addr:housenumber": "1816", "addr:postcode": "60614", "addr:state": "IL", "addr:street": "North Clark Street", "addr:unit": "13", "amenity": "bar", "name": "The J Parker", "opening_hours": "Mo-Th 17:00-00:00; Fr 15:00-02:00; Sa 14:00-02:00; Su 14:00-00:00", "phone": "+1-312-254-4747", "website": "https://www.jparkerchicago.com/"}}, {"type": "node", "id": 5864459415, "lat": 41.9329255, "lon": -87.645183, "tags": {"addr:city": "Chicago", "addr:housenumber": "2800", "addr:postcode": "60657", "addr:state": "IL", "addr:street": "North Clark Street", "amenity": "cafe", "name": "Stan\u2019s Donuts & Coffee", "phone": "+1-773-883-4764", "website": "http://www.stansdonutschicago.com/"}}, {"type": "node", "id": 5872612136, "lat": 41.9317127, "lon": -87.6487652, "tags": {"addr:city": "Chicago", "addr:housenumber": "2703", "addr:postcode": "60614", "addr:state": "IL", "addr:street": "North Halsted Street", "amenity": "restaurant", "cuisine": "mexican", "name": "The Mayan Palace", "opening_hours": "Su-Mo 11:00-22:00; Tu-Sa 11:00-23:00", "phone": "+1-773-935-4200", "website": "https://www.themayanpalacechicago.com/"}}, {"type": "node", "id": 6152474394, "lat": 41.9253198, "lon": -87.6554087}, {"type": "node", "id": 6152474396, "lat": 41.9258876, "lon": -87.6544944}, {"type": "node", "id": 6152474397, "lat": 41.9253782, "lon": -87.6523958}, {"type": "node", "id": 6152474398, "lat": 41.9249999, "lon": -87.6523833}, {"type": "node", "id": 6198363142, "lat": 41.9204702, "lon": -87.6487784, "tags": {"addr:city": "Chicago", "addr:housenumber": "2114", "addr:postcode": "60614", "addr:state": "IL", "addr:street": "North Halsted Street", "amenity": "restaurant", "cuisine": "breakfast, american", "name": "Nookies, too", "opening_hours": "Su-Sa 07:00-15:30", "phone": "+1-773-327-1400", "website": "http://www.nookieschicago.com/too_menu.php"}}, {"type": "node", "id": 6221691717, "lat": 41.9152622, "lon": -87.6343853, "tags": {"addr:city": "Chicago", "addr:housenumber": "1816", "addr:postcode": "60614", "addr:state": "IL", "addr:street": "North Clark Street", "amenity": "cafe", "cuisine": "breakfast", "name": "Elaine's Coffee Call", "opening_hours": "Mo-Su 06:30-17:00", "phone": "+1-312-254-4665", "website": "https://www.bokagrp.com/elaines.php"}}, {"type": "node", "id": 6256206803, "lat": 41.9225682, "lon": -87.6443899, "tags": {"addr:city": "Chicago", "addr:housenumber": "2221", "addr:postcode": "60614", "addr:state": "IL", "addr:street": "North Lincoln Avenue", "amenity": "restaurant", "name": "7 Plates Cafe", "phone": "+1-773-687-8817", "website": "https://www.sevenplatescafe.com/"}}, {"type": "node", "id": 6261035288, "lat": 41.9314578, "lon": -87.6487892, "tags": {"addr:city": "Chicago", "addr:housenumber": "2683", "addr:postcode": "60614", "addr:state": "IL", "addr:street": "North Halsted Street", "amenity": "bar", "name": "aliveOne", "phone": "+1-773-348-9800", "website": "http://aliveone.com/"}}, {"type": "node", "id": 6267385985, "lat": 41.9185677, "lon": -87.6488313, "tags": {"addr:city": "Chicago", "addr:housenumber": "2010", "addr:postcode": "60614", "addr:state": "IL", "addr:street": "North Halsted Street", "amenity": "restaurant", "name": "Blue Door Farm Stand", "phone": "+1-312- 265-0259", "website": "https://bluedoorfarmstand.com/"}}, {"type": "node", "id": 6269368100, "lat": 41.9293029, "lon": -87.647509, "tags": {"addr:city": "Chicago", "addr:housenumber": "724", "addr:postcode": "60614", "addr:state": "IL", "addr:street": "West Wrightwood Avenue", "amenity": "bar", "name": "Burwood Tap", "phone": "+1-773-525-2593", "website": "http://www.burwoodtap.com/"}}, {"type": "node", "id": 6269851247, "lat": 41.9285045, "lon": -87.6420619, "tags": {"addr:city": "Chicago", "addr:housenumber": "2523", "addr:postcode": "60614", "addr:state": "IL", "addr:street": "North Clark Street", "amenity": "cafe", "name": "Cafe Vienna", "phone": "+1-773-244-9922", "website": "http://www.cafevienna.net/home"}}, {"type": "node", "id": 6280558497, "lat": 41.9180485, "lon": -87.6456973, "tags": {"addr:city": "Chicago", "addr:housenumber": "655", "addr:postcode": "60614", "addr:state": "IL", "addr:street": "West Armitage Avenue", "amenity": "restaurant", "name": "Cedar Palace", "phone": "+1-312-643-0933", "website": "https://www.cedarpalacechicago.com/"}}, {"type": "node", "id": 6282812182, "lat": 41.9199493, "lon": -87.6418258, "tags": {"addr:city": "Chicago", "addr:housenumber": "507", "addr:postcode": "60614", "addr:state": "IL", "addr:street": "West Dickens Avenue", "amenity": "cafe", "name": "CityGrounds Coffee Bar"}}, {"type": "node", "id": 6283371365, "lat": 41.9327184, "lon": -87.6407591, "tags": {"addr:city": "Chicago", "addr:housenumber": "433", "addr:postcode": "60614", "addr:state": "IL", "addr:street": "West Diversey Parkway", "amenity": "bar", "name": "Compass Bar", "phone": "+1-773-248-3230", "website": "https://www.compassbarchicago.com/"}}, {"type": "node", "id": 6283943982, "lat": 41.9177735, "lon": -87.6487892, "tags": {"addr:city": "Chicago", "addr:housenumber": "1962", "addr:postcode": "60614", "addr:state": "IL", "addr:street": "North Halsted Street", "amenity": "restaurant", "cuisine": "seafood", "name": "Crab Cellar", "phone": "+1-773-248-1737", "website": "https://www.crabcellar.com/"}}, {"type": "node", "id": 6291738082, "lat": 41.9332106, "lon": -87.6416208, "tags": {"addr:city": "Chicago", "addr:housenumber": "500", "addr:postcode": "60657", "addr:state": "IL", "addr:street": "West Diversey Parkway", "amenity": "bar", "name": "Galway Bay", "phone": "+1-773-348-3750", "website": "http://www.galwaybaypub.com/"}}, {"type": "node", "id": 6291750700, "lat": 41.9182088, "lon": -87.6383858, "tags": {"addr:city": "Chicago", "addr:housenumber": "345", "addr:postcode": "60614", "addr:state": "IL", "addr:street": "West Armitage Avenue", "amenity": "bar", "name": "Gamekeepers Tavern & Grill", "phone": "+1-773-549-0400", "website": "http://gamekeeperschicago.com/"}}, {"type": "node", "id": 6291773197, "lat": 41.918593, "lon": -87.6380077, "tags": {"addr:city": "Chicago", "addr:housenumber": "340", "addr:postcode": "60614", "addr:state": "IL", "addr:street": "West Armitage Avenue", "amenity": "restaurant", "name": "Geja\u2019s Cafe", "phone": "+1-773-281-9101", "website": "https://gejascafe.com/"}}, {"type": "node", "id": 6291778778, "lat": 41.9199929, "lon": -87.6408687, "tags": {"addr:city": "Chicago", "addr:housenumber": "2075", "addr:postcode": "60614", "addr:state": "IL", "addr:street": "North Lincoln Avenue", "amenity": "restaurant", "name": "Gemini", "phone": "+1-773-525-2522", "website": "http://www.geminichicago.com/"}}, {"type": "node", "id": 6292415386, "lat": 41.9239642, "lon": -87.6368939, "tags": {"amenity": "restaurant", "cuisine": "japanese", "email": "nnerone@leye.com", "internet_access": "wlan", "name": "Naoki Sushi", "opening_hours": "Su 17:00-21:00; Mo-Th 17:30-21:00; Fr-Sa 17:30-22:00", "phone": "7738680002", "website": "http://naoki-sushi.com/"}}, {"type": "node", "id": 6294060040, "lat": 41.9329983, "lon": -87.6465576, "tags": {"addr:city": "Chicago", "addr:housenumber": "676", "addr:postcode": "60614", "addr:state": "IL", "addr:street": "West Diversey Parkway", "amenity": "restaurant", "name": "Half Shell", "phone": "+1-773-549-1773", "website": "http://halfshellchicago.com/"}}, {"type": "node", "id": 6294616307, "lat": 41.9233475, "lon": -87.6460503, "tags": {"addr:city": "Chicago", "addr:housenumber": "2270", "addr:postcode": "60614", "addr:state": "IL", "addr:street": "North Lincoln Avenue", "amenity": "bar", "name": "Hook and Ladder", "phone": "+1-773-857-0546", "website": "http://www.hookandladderchicago.com/"}}, {"type": "node", "id": 6297599701, "lat": 41.9316579, "lon": -87.6485447, "tags": {"addr:city": "Chicago", "addr:housenumber": "2701", "addr:postcode": "60614", "addr:state": "IL", "addr:street": "North Halsted Street", "amenity": "restaurant", "name": "Sapori Trattoria", "phone": "+1-312-967-9358", "website": "https://www.saporitrattoria.net/"}}, {"type": "node", "id": 6299322085, "lat": 41.9185326, "lon": -87.6373677, "tags": {"addr:city": "Chicago", "addr:housenumber": "322", "addr:postcode": "60614", "addr:state": "IL", "addr:street": "West Armitage Avenue", "amenity": "bar", "name": "Park West", "phone": "+1-773-929-1322", "website": "https://parkwestchicago.com/"}}, {"type": "node", "id": 6299336421, "lat": 41.9325966, "lon": -87.6408545, "tags": {"addr:city": "Chicago", "addr:housenumber": "435", "addr:postcode": "60614", "addr:state": "IL", "addr:street": "West Diversey Parkway", "amenity": "restaurant", "cuisine": "middle_eastern", "name": "Pars Cove Restaurant", "phone": "+1-773-549-1515", "website": "https://www.parscove.com/"}}, {"type": "node", "id": 6299354512, "lat": 41.9266392, "lon": -87.6485154, "tags": {"addr:city": "Chicago", "addr:housenumber": "2439", "addr:postcode": "60614", "addr:state": "IL", "addr:street": "North Halsted Street", "amenity": "bar", "name": "Parson\u2019s Chicken & Fish", "phone": "+1-773-661-6016", "website": "http://www.parsonschickenandfish.com/"}}, {"type": "node", "id": 6300413145, "lat": 41.9257267, "lon": -87.6477665, "tags": {"addr:city": "Chicago", "addr:housenumber": "734", "addr:postcode": "60614", "addr:state": "IL", "addr:street": "West Fullerton Avenue", "amenity": "restaurant", "name": "Philly Bros", "phone": "+1-773-278-2767", "website": "https://www.phillybros.com/"}}, {"type": "node", "id": 6301020113, "lat": 41.9181487, "lon": -87.6398708, "tags": {"addr:city": "Chicago", "addr:housenumber": "425", "addr:postcode": "60614", "addr:state": "IL", "addr:street": "West Armitage Avenue", "amenity": "bar", "name": "River Shannon", "phone": "+1-312-944-5087", "website": "https://therivershannon.com/"}}, {"type": "node", "id": 6301720990, "lat": 41.9176217, "lon": -87.6487786, "tags": {"addr:city": "Chicago", "addr:housenumber": "1954", "addr:postcode": "60614", "addr:state": "IL", "addr:street": "North Halsted Street", "amenity": "restaurant", "name": "Stella Barra Pizzeria", "phone": "+1-773-634-4101", "website": "http://stellabarra.com/"}}, {"type": "node", "id": 6302665610, "lat": 41.9183755, "lon": -87.6487346, "tags": {"addr:city": "Chicago", "addr:housenumber": "2002", "addr:postcode": "60614", "addr:state": "IL", "addr:street": "North Halsted Street", "amenity": "bar", "name": "The Store", "phone": "+1-773-327-7766", "website": "http://www.thestoretil4.com/"}}, {"type": "node", "id": 6303091617, "lat": 41.9326539, "lon": -87.6432988, "tags": {"addr:city": "Chicago", "addr:housenumber": "553", "addr:postcode": "60614", "addr:state": "IL", "addr:street": "West Diversey Parkway", "amenity": "restaurant", "name": "Tanaka Ramen", "phone": "+1-773-857-5140", "website": "https://tanakaramen.com/"}}, {"type": "node", "id": 6303939519, "lat": 41.9326796, "lon": -87.6433565, "tags": {"addr:city": "Chicago", "addr:housenumber": "557", "addr:postcode": "60614", "addr:state": "IL", "addr:street": "West Diversey Parkway", "amenity": "cafe", "name": "TeaGschwendner", "phone": "+1-773-360-8009", "website": "https://shop.tgtea.com/"}}, {"type": "node", "id": 6304253435, "lat": 41.930152, "lon": -87.6438156, "tags": {"addr:city": "Chicago", "addr:housenumber": "2622", "addr:postcode": "60614", "addr:state": "IL", "addr:street": "North Clark Street", "amenity": "restaurant", "facebook": "https://www.facebook.com/TheWienerCircle/", "name": "The Wiener\u2019s Circle", "name:en": "The Wiener\u2019s Circle", "name:zh": "\u7dad\u7d0d\u723e\u65af\u5c0f\u5403\u5e97", "opening_hours": "Su-Th 10:30-04:00; Fr-Sa 10:30-05:00", "phone": "+1-773-477-7444", "start_date": "1983", "website": "http://www.wienercircle.net/", "wikidata": "Q3523370", "wikipedia": "en:The Wieners Circle"}}, {"type": "node", "id": 6305147152, "lat": 41.9230946, "lon": -87.6451223, "tags": {"addr:city": "Chicago", "addr:housenumber": "2249", "addr:postcode": "60614", "addr:state": "IL", "addr:street": "North Lincoln Avenue", "amenity": "bar", "name": "Tobacco Road Tap Room", "phone": "+1-773-661-6416", "website": "https://www.tobaccoroadchi.com/"}}, {"type": "node", "id": 6305256043, "lat": 41.9187992, "lon": -87.648845, "tags": {"addr:city": "Chicago", "addr:housenumber": "2020", "addr:postcode": "60614", "addr:state": "IL", "addr:street": "North Halsted Street", "amenity": "bar", "name": "The Beaumont", "phone": "+1-773-281-0177"}}, {"type": "node", "id": 6305337839, "lat": 41.9321476, "lon": -87.6450562, "tags": {"addr:city": "Chicago", "addr:housenumber": "2546", "addr:postcode": "60614", "addr:state": "IL", "addr:street": "North Clark Street", "amenity": "restaurant", "name": "Toro Sushi", "phone": "+1-773-348-7255"}}, {"type": "node", "id": 6314860238, "lat": 41.9177296, "lon": -87.6483011, "tags": {"addr:city": "Chicago", "addr:housenumber": "1961", "addr:postcode": "60614", "addr:state": "IL", "addr:street": "North Halsted Street", "amenity": "bar", "name": "J9 Wine Bar", "phone": "+1-312-982-2488", "website": "http://www.j9winebar.com/"}}, {"type": "node", "id": 6315204690, "lat": 41.9169023, "lon": -87.6365441, "tags": {"addr:city": "Chicago", "addr:housenumber": "1909", "addr:postcode": "60614", "addr:state": "IL", "addr:street": "North Lincoln Avenue", "amenity": "bar", "name": "The Drop Lounge", "phone": "+1-312-574-0898", "website": "http://www.thedropchicago.com/"}}, {"type": "node", "id": 6315211135, "lat": 41.9272419, "lon": -87.6417085, "tags": {"addr:city": "Chicago", "addr:housenumber": "2468", "addr:postcode": "60603", "addr:state": "IL", "addr:street": "North Clark Street", "amenity": "restaurant", "name": "The Fat Shallot - Lincoln Park", "phone": "+1-773-661-6335", "website": "http://thefatshallot.com/"}}, {"type": "node", "id": 6315216334, "lat": 41.9270976, "lon": -87.6412309, "tags": {"addr:city": "Chicago", "addr:housenumber": "2455", "addr:postcode": "60614", "addr:state": "IL", "addr:street": "North Clark Street", "amenity": "restaurant", "name": "The Field House", "phone": "+1-773-348-6489"}}, {"type": "node", "id": 6315631023, "lat": 41.9271263, "lon": -87.6307613, "tags": {"addr:city": "Chicago", "addr:housenumber": "2401", "addr:postcode": "60614", "addr:state": "IL", "addr:street": "North Lake Shore Drive", "amenity": "restaurant", "name": "The Lakefront Restaurant", "phone": "+1-312-414-1313", "website": "https://theateronthelake.com/restaurant/"}}, {"type": "node", "id": 6315649380, "lat": 41.9248961, "lon": -87.6482983, "tags": {"addr:city": "Chicago", "addr:housenumber": "2364", "addr:postcode": "60614", "addr:state": "IL", "addr:street": "North Lincoln Avenue", "amenity": "restaurant", "name": "The Little Meatball", "phone": "+1-773-360-8496", "website": "https://thelittlemeatball.com/"}}, {"type": "node", "id": 6315684067, "lat": 41.9264033, "lon": -87.6413997, "tags": {"addr:city": "Chicago", "addr:housenumber": "2436", "addr:postcode": "60614", "addr:state": "IL", "addr:street": "North Clark Street", "amenity": "bar", "name": "The Other Side Bar", "phone": "+1-773-525-8238"}}, {"type": "node", "id": 6315689961, "lat": 41.9263714, "lon": -87.6414025, "tags": {"addr:city": "Chicago", "addr:housenumber": "2434", "addr:postcode": "60614", "addr:state": "IL", "addr:street": "North Clark Street", "amenity": "restaurant", "name": "The Pasta Bowl", "phone": "+1-773-525-2695", "website": "https://www.pastabowl.com/"}}, {"type": "node", "id": 6315706586, "lat": 41.9190822, "lon": -87.6337461, "tags": {"addr:city": "Chicago", "addr:housenumber": "2021", "addr:postcode": "60614", "addr:state": "IL", "addr:street": "North Stockton Drive", "amenity": "cafe", "name": "The Patio at Caf\u00e9 Brauer", "phone": "+1-312-742-2400", "website": "https://www.lpzoo.org/dining/patio-cafe-brauer"}}, {"type": "node", "id": 6321594753, "lat": 41.9330575, "lon": -87.6465042, "tags": {"addr:city": "Chicago", "addr:housenumber": "674", "addr:postcode": "60614", "addr:state": "IL", "addr:street": "West Diversey Parkway", "amenity": "bar", "name": "Matisse Tavern & Grill", "phone": "+1-773-528-6670", "website": "https://www.matissetavernchicago.com/"}}, {"type": "node", "id": 6322600949, "lat": 41.9330704, "lon": -87.6408035, "tags": {"addr:city": "Chicago", "addr:housenumber": "432", "addr:postcode": "60657", "addr:state": "IL", "addr:street": "West Diversey Parkway", "amenity": "restaurant", "name": "MFK Restaurant", "phone": "+1-773-857-2540", "website": "https://mfkrestaurant.com/"}}, {"type": "node", "id": 6322787575, "lat": 41.9242236, "lon": -87.637024, "tags": {"addr:city": "Chicago", "addr:housenumber": "2300", "addr:postcode": "60614", "addr:state": "IL", "addr:street": "North Lincoln Park West", "amenity": "restaurant", "name": "Mon Ami Gabi", "phone": "+1-773-348-8886", "website": "http://www.monamigabi.com/chicago/", "wikidata": "Q6456854", "wikipedia": "en:L2O"}}, {"type": "node", "id": 6323038072, "lat": 41.9329303, "lon": -87.6464132, "tags": {"addr:city": "Chicago", "addr:country": "US", "addr:housenumber": "670", "addr:postcode": "60614", "addr:state": "IL", "addr:street": "West Diversey Parkway", "amenity": "restaurant", "brand": "Nando's", "brand:wikidata": "Q3472954", "brand:wikipedia": "en:Nando's", "cuisine": "chicken;portuguese", "name": "Nando's", "phone": "+1-773-634-7153", "website": "https://www.nandosperiperi.com/"}}, {"type": "node", "id": 6323140931, "lat": 41.9235791, "lon": -87.6457972, "tags": {"addr:city": "Chicago", "addr:housenumber": "2273", "addr:postcode": "60614", "addr:state": "IL", "addr:street": "North Lincoln Avenue", "amenity": "cafe", "name": "Nighthawk AM", "phone": "+1-773-697-8899", "website": "https://www.nighthawkam.com/"}}, {"type": "node", "id": 6323191927, "lat": 41.9269656, "lon": -87.6485799, "tags": {"addr:city": "Chicago", "addr:housenumber": "2453", "addr:postcode": "60614", "addr:state": "IL", "addr:street": "North Halsted Street", "amenity": "restaurant", "name": "Noodles In the Pot", "phone": "+1-773-975-6177", "website": "http://www.noodlesinthepot.com/"}}, {"type": "node", "id": 6323209548, "lat": 41.929797, "lon": -87.6375066, "tags": {"addr:city": "Chicago", "addr:housenumber": "2610", "addr:postcode": "60614", "addr:state": "IL", "addr:street": "North Cannon Drive", "amenity": "restaurant", "cuisine": "american", "name": "North Pond", "phone": "+1-773-477-5845", "website": "http://northpondrestaurant.com"}}, {"type": "node", "id": 6324135870, "lat": 41.9330169, "lon": -87.6445527, "tags": {"addr:city": "Chicago", "addr:housenumber": "616", "addr:postcode": "60614", "addr:state": "IL", "addr:street": "West Diversey Parkway", "amenity": "restaurant", "brand": "The Original Pancake House", "brand:wikidata": "Q7755384", "brand:wikipedia": "en:The Original Pancake House", "cuisine": "breakfast;pancake", "name": "The Original Pancake House", "phone": "+1-773-929-8130", "website": "https://www.ophchicagoland.com/lincoln-park/"}}, {"type": "node", "id": 6324195508, "lat": 41.9177881, "lon": -87.6489419, "tags": {"addr:city": "Chicago", "addr:housenumber": "1962", "addr:postcode": "60614", "addr:state": "IL", "addr:street": "North Halsted Street", "addr:unit": "1", "amenity": "restaurant", "cuisine": "seafood", "name": "Oyster Bah", "phone": "+1-773-248-3000", "website": "http://oysterbah.com/"}}, {"type": "node", "id": 6324352337, "lat": 41.9169476, "lon": -87.6365562, "tags": {"addr:city": "Chicago", "addr:housenumber": "1909", "addr:postcode": "60614", "addr:state": "IL", "addr:street": "North Lincoln Avenue", "amenity": "restaurant", "name": "La Roccia", "phone": "+1-312-255-0851", "website": "https://www.larocciapizza.com/"}}, {"type": "node", "id": 6324379534, "lat": 41.9318129, "lon": -87.6412205, "tags": {"addr:city": "Chicago", "addr:housenumber": "2732", "addr:postcode": "60614", "addr:state": "IL", "addr:street": "North Pine Grove Avenue", "amenity": "bar", "name": "Lakeview Men\u2019s Club", "phone": "+1-773-525-9533"}}, {"type": "node", "id": 6324601603, "lat": 41.9241811, "lon": -87.6498509}, {"type": "node", "id": 6407456510, "lat": 41.9175688, "lon": -87.6486847, "tags": {"addr:city": "Chicago", "addr:housenumber": "1954", "addr:postcode": "60614", "addr:state": "IL", "addr:street": "North Halsted Street", "amenity": "restaurant", "cuisine": "american;californian", "name": "Summer House Santa Monica", "opening_hours": "Mo-Th 11:00-22:00; Fr 11:00-23:00; Sa 08:00-23:00; Su 08:00-22:00", "phone": "+1-773-634-4100", "website": "http://summerhousesm.com"}}, {"type": "node", "id": 7070671349, "lat": 41.9241862, "lon": -87.6344252, "tags": {"amenity": "cafe", "name": "Safari Cafe"}}, {"type": "node", "id": 7081204126, "lat": 41.9219136, "lon": -87.6342484, "tags": {"amenity": "cafe", "name": "Eadie Levy's Landmark Caf\u00e9"}}, {"type": "node", "id": 7277573845, "lat": 41.932665, "lon": -87.6450601, "tags": {"amenity": "cafe", "brand": "Starbucks", "brand:wikidata": "Q37158", "brand:wikipedia": "en:Starbucks", "cuisine": "coffee_shop", "name": "Starbucks", "official_name": "Starbucks Coffee", "takeaway": "yes"}}, {"type": "node", "id": 7330251178, "lat": 41.9219485, "lon": -87.6484614, "tags": {"addr:city": "Chicago", "addr:housenumber": "756", "addr:postcode": "60614", "addr:state": "IL", "addr:street": "West Webster Avenue", "amenity": "restaurant", "cuisine": "asian;sushi;thai", "name": "Shine and Rise", "phone": "+1-773-296-0101", "website": "https://www.shinerestaurant.com/"}}, {"type": "node", "id": 7330265557, "lat": 41.9329015, "lon": -87.6472424, "tags": {"addr:city": "Chicago", "addr:housenumber": "714", "addr:postcode": "60614", "addr:state": "IL", "addr:street": "West Diversey Parkway", "amenity": "restaurant", "cuisine": "indian", "name": "Mild 2 Spicy", "phone": "+1-773-661-6778"}}, {"type": "way", "id": 26150036, "nodes": [286369237, 416770215, 416770216, 2458410440, 286369226, 417255771, 417255772, 417255773, 417255774, 6152474394, 417255775, 6152474396, 417255776, 286369306, 286369307, 6152474397, 6152474398, 286369308, 308675507, 286369309, 286369232, 286369233, 1983549241, 1983549242, 286369234, 3841977063, 286369235, 286369311, 286369237], "tags": {"amenity": "university", "name": "DePaul University", "operator": "Depaul University", "operator:type": "university", "wheelchair": "yes", "wikipedia": "en:DePaul University"}}, {"type": "way", "id": 32853826, "nodes": [370093716, 307890165, 1983543632, 6324601603, 452377015, 452377016, 307890172, 2348349944, 4499383937, 4499383938, 370093749, 370093752, 370093716], "tags": {"amenity": "university", "name": "DePaul University", "operator": "DePaul University", "operator:type": "university"}}, {"type": "way", "id": 210316907, "nodes": [2204018237, 2204018278, 2204018019, 2204018017, 2204017997, 2204018237], "tags": {"addr:housenumber": "2010", "addr:street": "North Halsted Street", "addr:street:name": "Halsted", "addr:street:prefix": "North", "addr:street:type": "Street", "amenity": "restaurant", "building": "yes", "building:levels": "2", "chicago:building_id": "822495"}}, {"type": "way", "id": 210317387, "nodes": [2204024213, 2204024436, 2204024451, 2204024332, 2204024246, 2204024213], "tags": {"addr:city": "Chicago", "addr:housenumber": "2100", "addr:postcode": "60614", "addr:state": "IL", "addr:street": "North Halsted Street", "addr:street:name": "Halsted", "addr:street:prefix": "North", "addr:street:type": "Street", "amenity": "restaurant", "building": "yes", "chicago:building_id": "277405", "name": "Chez Moi", "phone": "+1-773-871-2100", "website": "https://www.chezmoichicago.com/"}}, {"type": "way", "id": 210318212, "nodes": [2204034784, 2204034779, 2204034445, 2204034519, 2204034575, 2204035015, 2607221928, 2204034784], "tags": {"addr:housenumber": "2254-2264", "addr:street": "North Lincoln Avenue", "addr:street:name": "Lincoln", "addr:street:prefix": "North", "addr:street:type": "Avenue", "amenity": "cafe", "building": "yes", "chicago:building_id": "851014", "name": "Countryside Cafe"}}, {"type": "way", "id": 210318223, "nodes": [2204035573, 2204036024, 2204035943, 2204036056, 2204036147, 2204036347, 2204036210, 2204035410, 2204035573], "tags": {"addr:city": "Chicago", "addr:country": "US", "addr:housenumber": "2269", "addr:postcode": "60614", "addr:street": "North Lincoln Avenue", "addr:street:name": "Lincoln", "addr:street:prefix": "North", "addr:street:type": "Avenue", "amenity": "restaurant", "building": "yes", "chicago:building_id": "851040", "cuisine": "vietnamese", "name": "Simply it", "smoking": "no", "website": "http://www.chicagosimplyit.com/"}}, {"type": "way", "id": 210321426, "nodes": [2204047724, 2204047824, 2204048116, 2204047916, 2204047937, 2204047720, 2204047439, 2204047387, 2204047724], "tags": {"addr:city": "Chicago", "addr:housenumber": "2442", "addr:postcode": "60614", "addr:state": "IL", "addr:street": "North Clark Street", "addr:street:name": "Clark", "addr:street:prefix": "North", "addr:street:type": "Street", "amenity": "bar", "building": "yes", "chicago:building_id": "850323", "name": "Galway Arms", "opening_hours": "Mo-Fr 12:00-02:00; Sa 11:00-03:00; Su 11:00-01:00", "phone": "+1-773-472-5555", "website": "http://www.galwayarms.com/"}}, {"type": "way", "id": 210321451, "nodes": [2204048654, 2204048959, 2204048983, 2204048686, 2204048654], "tags": {"addr:housenumber": "2447", "addr:street": "North Halsted Street", "addr:street:name": "Halsted", "addr:street:prefix": "North", "addr:street:type": "Street", "amenity": "bar", "building": "yes", "chicago:building_id": "257205", "name": "The Tonic Room"}}, {"type": "way", "id": 210321648, "nodes": [2204055130, 2204055146, 2204054879, 2204054829, 2204055130], "tags": {"addr:city": "Chicago", "addr:housenumber": "2548", "addr:postcode": "60614", "addr:state": "IL", "addr:street": "North Halsted Street", "addr:street:name": "Halsted", "addr:street:prefix": "North", "addr:street:type": "Street", "amenity": "bar", "building": "yes", "building:levels": "2", "chicago:building_id": "863343", "name": "Kingston Mines", "phone": "+1-773-477-4647", "website": "https://kingstonmines.com/"}}, {"type": "way", "id": 210321659, "nodes": [2204055739, 2204055723, 2204055852, 2204055884, 2204055739], "tags": {"addr:housenumber": "2558", "addr:street": "North Halsted Street", "addr:street:name": "Halsted", "addr:street:prefix": "North", "addr:street:type": "Street", "amenity": "restaurant", "building": "yes", "building:levels": "2", "chicago:building_id": "863337", "cuisine": "mexican", "name": "Las Fuentes"}}, {"type": "way", "id": 210322867, "nodes": [2204056515, 2204056556, 2204057197, 2204057201, 2204056518, 2204056515], "tags": {"addr:city": "Chicago", "addr:housenumber": "724", "addr:postcode": "60614", "addr:state": "IL", "addr:street": "West Wrightwood Avenue", "addr:street:name": "Wrightwood", "addr:street:prefix": "West", "addr:street:type": "Avenue", "amenity": "bar", "building": "yes", "building:levels": "2", "chicago:building_id": "249238", "email": "burwoodtap724@gmail.com", "name": "Burwood Tap", "opening_hours": "11:00-03:00", "outdoor_seating": "no", "smoking": "outside"}}, {"type": "way", "id": 210322882, "nodes": [2204045265, 2204045344, 2204045352, 2204044972, 2204044971, 2204044944, 2204044941, 2204045107, 2204045130, 2204045252, 2204045265], "tags": {"addr:city": "Chicago", "addr:housenumber": "738", "addr:postcode": "60614", "addr:street": "West Fullerton Avenue", "addr:street:name": "Fullerton", "addr:street:prefix": "West", "addr:street:type": "Avenue", "amenity": "cafe", "building": "yes", "chicago:building_id": "850377", "name": "Bourgeois Pig Cafe", "opening_hours": "Mo-Sa 07:00-22:00; Su 08:00-22:00", "phone": "+1 773-883-5282", "website": "http://bpigcafe.com/"}}, {"type": "way", "id": 210686862, "nodes": [2207658071, 2207658059, 2207658063, 2207658045, 2207658053, 2207658054, 2207658068, 2207658073, 2207658069, 2207658070, 2207658074, 2207658086, 2207658084, 2207658094, 2207658071], "tags": {"addr:city": "Chicago", "addr:housenumber": "2326", "addr:postcode": "60614", "addr:state": "IL", "addr:street": "North Clark Street", "addr:street:name": "Clark", "addr:street:prefix": "North", "addr:street:type": "Street", "amenity": "bar", "building": "yes", "building:levels": "3", "chicago:building_id": "866325", "name": "Ravens", "phone": "+1-773-348-1774", "website": "ravenschicago.com"}}, {"type": "relation", "id": 2527861, "members": [{"type": "way", "ref": 26150036, "role": "outer"}, {"type": "way", "ref": 32853826, "role": "outer"}], "tags": {"amenity": "university", "name": "DePaul University", "type": "multipolygon"}}]}