{"version": 0.6, "generator": "Overpass API 0.7.56.3 eb200aeb", "osm3s": {"timestamp_osm_base": "2020-07-04T02:28:02Z", "copyright": "The data included in this document is from www.openstreetmap.org. The data is made available under ODbL."}, "elements": [{"type": "node", "id": 306741002, "lat": 41.8914114, "lon": -87.6096584, "tags": {"amenity": "restaurant", "name": "Bubba Gump Shrimp Co.", "wheelchair": "yes"}}, {"type": "node", "id": 792325825, "lat": 41.8850607, "lon": -87.6217926}, {"type": "node", "id": 792325828, "lat": 41.8850684, "lon": -87.6212259}, {"type": "node", "id": 792325831, "lat": 41.8855018, "lon": -87.6212367}, {"type": "node", "id": 792325834, "lat": 41.8854954, "lon": -87.6218033}, {"type": "node", "id": 1579399010, "lat": 41.8850928, "lon": -87.6211565}, {"type": "node", "id": 1648217459, "lat": 41.8914624, "lon": -87.6094084, "tags": {"amenity": "pub", "name": "Harry Caray's Tavern"}}, {"type": "node", "id": 1663730890, "lat": 41.8913751, "lon": -87.6225394}, {"type": "node", "id": 1663730900, "lat": 41.8916573, "lon": -87.6225428}, {"type": "node", "id": 1663730902, "lat": 41.8913767, "lon": -87.6224422}, {"type": "node", "id": 1663730933, "lat": 41.8916587, "lon": -87.622448}, {"type": "node", "id": 1830940583, "lat": 41.8846515, "lon": -87.6237671, "tags": {"amenity": "restaurant", "name": "Market Creations"}}, {"type": "node", "id": 1830940587, "lat": 41.8846784, "lon": -87.6228175, "tags": {"amenity": "restaurant", "cuisine": "breakfast", "name": "Wildberry Pancakes and Cafe", "opening_hours": "06:30-14:30", "phone": "312-938-9777"}}, {"type": "node", "id": 1854704954, "lat": 41.8850849, "lon": -87.6191156, "tags": {"addr:city": "Chicago", "addr:housenumber": "333", "addr:postcode": "60601", "addr:street": "East Randolph Street", "amenity": "restaurant", "cuisine": "chinese", "name": "Yum Cha Dim Sum Parlor", "note": "Opened April 2014", "phone": "+1 312 946-8885", "website": "http://www.yumchachicago.com"}}, {"type": "node", "id": 2070963648, "lat": 41.89046, "lon": -87.623798, "tags": {"addr:city": "Chicago", "addr:housenumber": "435", "addr:postcode": "60611", "addr:street": "North Michigan Avenue", "amenity": "cafe", "atm": "no", "brand": "Argo", "drive_through": "no", "internet_access": "no", "opening_hours": "Mo-Fr 06:00-23:00; Sa 07:00-23:00; Su 07:00-22:00", "operator": "Argo Tea", "phone": "+1 (312) 546-4790", "website": "https://www.argotea.com/"}}, {"type": "node", "id": 2095093507, "lat": 41.8800158, "lon": -87.6223457, "tags": {"amenity": "restaurant", "cuisine": "italian", "name": "Terzo Piano"}}, {"type": "node", "id": 2262372941, "lat": 41.8912185, "lon": -87.619059, "tags": {"addr:housenumber": "322", "addr:postcode": "60611", "addr:street": "East Illinois Street", "amenity": "pub", "name": "Lucky Strike Bowl", "source": "773-347-2695", "website": "http://www.bowlluckystrike.com/", "wheelchair": "yes"}}, {"type": "node", "id": 2292889299, "lat": 41.8853925, "lon": -87.6186399, "tags": {"addr:city": "Chicago", "addr:housenumber": "333", "addr:postcode": "60601", "addr:state": "IL", "addr:street": "East Benton Place", "amenity": "restaurant", "cuisine": "diner", "name": "Eggy's", "phone": "+1-773-234-3449", "source": "survey", "website": "https://www.eggysdiner.com/locations/chicago/"}}, {"type": "node", "id": 2339944269, "lat": 41.8931098, "lon": -87.6131642, "tags": {"addr:housename": "Caff\u00e8 Oliva", "addr:housenumber": "550", "addr:postcode": "60611", "addr:street": "East Grand Avenue", "amenity": "restaurant", "cuisine": "international", "name": "Caff\u00e8 Oliva", "source": "www.caffeoliva.com", "website": "https://www.caffeoliva.com/"}}, {"type": "node", "id": 2391278936, "lat": 41.8854601, "lon": -87.6218723, "tags": {"entrance": "yes"}}, {"type": "node", "id": 2391278941, "lat": 41.8855495, "lon": -87.621512, "tags": {"entrance": "yes"}}, {"type": "node", "id": 2391283010, "lat": 41.8851112, "lon": -87.6218641, "tags": {"entrance": "yes"}}, {"type": "node", "id": 2402056321, "lat": 41.892042, "lon": -87.61891, "tags": {"addr:city": "Chicago", "addr:housenumber": "345", "addr:street": "East Ohio Street", "amenity": "pub", "cuisine": "irish", "food": "yes", "name": "D4", "outdoor_seating": "yes"}}, {"type": "node", "id": 2427403731, "lat": 41.8844733, "lon": -87.6238606, "tags": {"amenity": "cafe", "brand": "Starbucks", "brand:wikidata": "Q37158", "brand:wikipedia": "en:Starbucks", "cuisine": "coffee_shop", "layer": "-1", "level": "-1", "name": "Starbucks", "official_name": "Starbucks Coffee", "takeaway": "yes"}}, {"type": "node", "id": 2427546347, "lat": 41.8846595, "lon": -87.6241745, "tags": {"addr:city": "Chicago", "addr:housenumber": "151", "addr:postcode": "60601", "addr:state": "IL", "addr:street": "North Michigan Avenue", "amenity": "bar", "layer": "-1", "level": "+1-312-929-3080", "name": "M Bar", "website": "http://mbarchicago.com/"}}, {"type": "node", "id": 2438340739, "lat": 41.8850138, "lon": -87.6215013, "tags": {"entrance": "yes"}}, {"type": "node", "id": 2471454173, "lat": 41.8902528, "lon": -87.6234629, "tags": {"addr:housename": "Tribune Tower", "addr:housenumber": "435", "addr:postcode": "60611", "addr:street": "North Michigan Avenue", "amenity": "restaurant", "name": "Howells & Hood", "website": "https://www.howellsandhood.com/"}}, {"type": "node", "id": 2553708327, "lat": 41.88541, "lon": -87.61763, "tags": {"addr:housenumber": "180", "addr:street": "North Field Boulevard", "amenity": "restaurant", "cuisine": "steak_house", "internet_access": "wlan", "internet_access:fee": "no", "microbrewery": "no", "name": "III Forks", "organic": "no", "outdoor_seating": "yes", "smoking": "no", "takeaway": "no", "wheelchair": "yes"}}, {"type": "node", "id": 2708231824, "lat": 41.8921642, "lon": -87.6180984, "tags": {"addr:city": "Chicago", "addr:housenumber": "355", "addr:postcode": "60611", "addr:state": "IL", "addr:street": "East Ohio Street", "amenity": "cafe", "cuisine": "breakfast", "internet_access": "no", "name": "Yolk", "phone": "+1-312-822-9655", "website": "https://www.eatyolk.com/", "wheelchair": "yes"}}, {"type": "node", "id": 2819072953, "lat": 41.8865103, "lon": -87.6242243, "tags": {"amenity": "restaurant", "name": "Sweetwater"}}, {"type": "node", "id": 2884825219, "lat": 41.8850104, "lon": -87.6217639}, {"type": "node", "id": 2884825220, "lat": 41.885017, "lon": -87.621252}, {"type": "node", "id": 2884825221, "lat": 41.8850311, "lon": -87.6217919}, {"type": "node", "id": 2884825222, "lat": 41.8850383, "lon": -87.6212252}, {"type": "node", "id": 2884825223, "lat": 41.8850602, "lon": -87.6218312}, {"type": "node", "id": 2884825224, "lat": 41.8850689, "lon": -87.6211867}, {"type": "node", "id": 2884825225, "lat": 41.8850841, "lon": -87.6218635}, {"type": "node", "id": 2884825230, "lat": 41.8854699, "lon": -87.6218725}, {"type": "node", "id": 2884825231, "lat": 41.8854796, "lon": -87.6211655}, {"type": "node", "id": 2884825232, "lat": 41.8854949, "lon": -87.621841}, {"type": "node", "id": 2884825233, "lat": 41.8855024, "lon": -87.6211964}, {"type": "node", "id": 2884825234, "lat": 41.8855244, "lon": -87.6218039}, {"type": "node", "id": 2884825235, "lat": 41.8855327, "lon": -87.6212374}, {"type": "node", "id": 2884825236, "lat": 41.8855461, "lon": -87.6217765}, {"type": "node", "id": 2884825237, "lat": 41.8855528, "lon": -87.6212645}, {"type": "node", "id": 3399988513, "lat": 41.8919137, "lon": -87.6229257, "tags": {"amenity": "restaurant", "cuisine": "burger", "name": "Chef's Burger Bistro"}}, {"type": "node", "id": 3468511745, "lat": 41.8913274, "lon": -87.6085962, "tags": {"amenity": "bar", "name": "Margaritaville"}}, {"type": "node", "id": 3549524275, "lat": 41.8862551, "lon": -87.6215867, "tags": {"amenity": "cafe", "brand": "Starbucks", "brand:wikidata": "Q37158", "brand:wikipedia": "en:Starbucks", "cuisine": "coffee_shop", "name": "Starbucks", "official_name": "Starbucks Coffee", "takeaway": "yes"}}, {"type": "node", "id": 3551688415, "lat": 41.8924751, "lon": -87.6187471, "tags": {"addr:city": "Chicago", "addr:housenumber": "345", "addr:postcode": "60611", "addr:state": "IL", "addr:street": "East Ohio Street", "amenity": "cafe", "name": "Dollop Coffee", "phone": "+1-312-929-4007", "website": "https://dollop.coffee/", "wheelchair": "yes"}}, {"type": "node", "id": 3575164510, "lat": 41.8927469, "lon": -87.6215023, "tags": {"amenity": "restaurant", "cuisine": "thai", "name": "Dao"}}, {"type": "node", "id": 3575164511, "lat": 41.8923735, "lon": -87.6211134, "tags": {"amenity": "restaurant", "cuisine": "spanish", "name": "Emilios Tapas"}}, {"type": "node", "id": 3575164512, "lat": 41.8927289, "lon": -87.622079, "tags": {"amenity": "restaurant", "cuisine": "italian", "name": "Tre Soldi"}}, {"type": "node", "id": 3575164513, "lat": 41.8927269, "lon": -87.6222426, "tags": {"addr:city": "Chicago", "addr:housenumber": "210", "addr:postcode": "60611", "addr:state": "IL", "addr:street": "East Ohio Street", "amenity": "restaurant", "cuisine": "japanese", "name": "Gyu-Kaku", "phone": "+1-312-266-8929", "website": "https://www.gyu-kaku.com"}}, {"type": "node", "id": 3575164515, "lat": 41.892702, "lon": -87.6231371, "tags": {"addr:city": "Chicago", "addr:housenumber": "162", "addr:postcode": "60611", "addr:state": "Il", "addr:street": "East Ohio Street", "amenity": "cafe", "cuisine": "coffee_shop", "name": "Kafenio Lavazza", "phone": "+1-312-255-8850", "website": "http://www.kafeniochicago.com/"}}, {"type": "node", "id": 3575181786, "lat": 41.8924821, "lon": -87.6184376, "tags": {"amenity": "restaurant", "cuisine": "pizza", "name": "Robert's Pizza Company"}}, {"type": "node", "id": 3660899325, "lat": 41.8918754, "lon": -87.623299, "tags": {"amenity": "restaurant", "name": "Labriola Ristorante & Cafe"}}, {"type": "node", "id": 3660900078, "lat": 41.8924171, "lon": -87.6232272, "tags": {"amenity": "restaurant", "cuisine": "armenian", "name": "Sayat Nova"}}, {"type": "node", "id": 3660900079, "lat": 41.8923449, "lon": -87.6232272, "tags": {"addr:city": "Chicago", "addr:housenumber": "157", "addr:postcode": "60611", "addr:state": "IL", "addr:street": "East Ohio Street", "amenity": "bar", "name": "Second Story Bar", "phone": "+1-312-923-9536"}}, {"type": "node", "id": 3750517760, "lat": 41.8826848, "lon": -87.6235979, "tags": {"addr:housenumber": "11", "addr:street": "North Michigan Avenue", "addr:street:name": "Michigan", "addr:street:prefix": "North", "addr:street:type": "Avenue", "amenity": "restaurant", "name": "The Park Grill", "wikidata": "Q7137749", "wikipedia": "en:Park Grill"}}, {"type": "node", "id": 3917218261, "lat": 41.8924038, "lon": -87.6212638, "tags": {"amenity": "restaurant", "name": "Ramen MisoYa"}}, {"type": "node", "id": 3918944637, "lat": 41.8897262, "lon": -87.6212705, "tags": {"amenity": "cafe", "name": "Illy"}}, {"type": "node", "id": 3985040972, "lat": 41.8861962, "lon": -87.6129597, "tags": {"amenity": "restaurant", "cuisine": "chinese", "name": "Friendship Chinese"}}, {"type": "node", "id": 4097813076, "lat": 41.8909495, "lon": -87.6162491, "tags": {"addr:city": "Chicago", "addr:housenumber": "435", "addr:postcode": "60611", "addr:state": "IL", "addr:street": "East Illinois Street", "amenity": "restaurant", "name": "Pinstripes", "opening_hours": "11:30-23:00", "phone": "+1-312-527-3010", "takeaway": "yes", "website": "https://pinstripes.com/chicago-illinois/", "wheelchair": "limited"}}, {"type": "node", "id": 4222717943, "lat": 41.8906383, "lon": -87.6173152, "tags": {"amenity": "cafe", "brand": "Starbucks", "brand:wikidata": "Q37158", "brand:wikipedia": "en:Starbucks", "cuisine": "coffee_shop", "name": "Starbucks", "official_name": "Starbucks Coffee", "takeaway": "yes"}}, {"type": "node", "id": 4222717945, "lat": 41.8912617, "lon": -87.6149427, "tags": {"addr:city": "Chicago", "addr:housenumber": "502", "addr:postcode": "60611", "addr:state": "IL", "addr:street": "East Illinois Street", "amenity": "restaurant", "name": "Kanela Breakfast Club", "phone": "+1-312-380-0071", "website": "http://www.kanelabreakfastclub.com/"}}, {"type": "node", "id": 4222717946, "lat": 41.8912044, "lon": -87.6187447, "tags": {"amenity": "restaurant", "name": "Niu Japanese Fusion"}}, {"type": "node", "id": 4306418293, "lat": 41.8882819, "lon": -87.6215145, "tags": {"amenity": "cafe", "name": "Cyrano's Caf\u00e9 & Wine Bar", "opening_hours": "Mo-Su 11:00-22:00"}}, {"type": "node", "id": 4306493789, "lat": 41.8880159, "lon": -87.6187797, "tags": {"amenity": "bar", "name": "Island Party Hut"}}, {"type": "node", "id": 4634046603, "lat": 41.8866803, "lon": -87.6167118, "tags": {"amenity": "cafe", "leisure": "picnic_table", "name": "ROM", "outdoor_seating": "yes"}}, {"type": "node", "id": 4737382944, "lat": 41.8914743, "lon": -87.6068822, "tags": {"addr:city": "Chicago", "addr:housenumber": "600", "addr:postcode": "60611", "addr:state": "IL", "addr:street": "East Grand Avenue", "amenity": "restaurant", "cuisine": "mexican", "name": "Xurro", "website": "https://www.churrofactory.com/", "website:yelp": "https://www.yelp.com/biz/porkchop-bbq-chicago-2"}}, {"type": "node", "id": 5756730722, "lat": 41.8855672, "lon": -87.624242, "tags": {"addr:city": "Chicago", "addr:housenumber": "189", "addr:postcode": "60601", "addr:state": "IL", "addr:street": "North Michigan Avenue", "amenity": "restaurant", "name": "Nutella Cafe", "phone": "+1-800-861-4888"}}, {"type": "node", "id": 5756730723, "lat": 41.885489, "lon": -87.6242526, "tags": {"addr:housenumber": "151", "amenity": "cafe", "name": "Garret Popcorn"}}, {"type": "node", "id": 5825114811, "lat": 41.8861341, "lon": -87.6209122, "tags": {"addr:city": "Chicago", "addr:housenumber": "200", "addr:postcode": "60601", "addr:state": "IL", "addr:street": "North Columbus Service Drive", "amenity": "bar", "name": "Columbus Tap", "phone": "+1-312-565-6644", "website": "https://www.columbustap.com/"}}, {"type": "node", "id": 5954587020, "lat": 41.8912513, "lon": -87.6119668, "tags": {"addr:city": "Chicago", "addr:housenumber": "580", "addr:postcode": "60611", "addr:state": "IL", "addr:street": "East Illinois Street", "amenity": "restaurant", "cuisine": "mexican", "name": "Casa Margarita", "opening_hours": "Mo-Su 11:00-10:30"}}, {"type": "node", "id": 6265067983, "lat": 41.8919452, "lon": -87.6235734, "tags": {"addr:city": "Chicago", "addr:housenumber": "535", "addr:postcode": "60611", "addr:state": "IL", "addr:street": "North Michigan Avenue", "amenity": "restaurant", "name": "Bandera Restaurant", "phone": "+1-312-644-3524", "website": "https://banderarestaurants.com/"}}, {"type": "node", "id": 6269133412, "lat": 41.8848467, "lon": -87.6187821, "tags": {"addr:city": "Chicago", "addr:housenumber": "340", "addr:postcode": "60601", "addr:state": "IL", "addr:street": "Upper East Randolph Street", "amenity": "restaurant", "name": "Brown Bag Seafood", "phone": "+1-312-496-3999", "website": "https://www.brownbagseafood.com/home/"}}, {"type": "node", "id": 6269753786, "lat": 41.8798388, "lon": -87.622138, "tags": {"addr:city": "Chicago", "addr:housenumber": "111", "addr:postcode": "60603", "addr:state": "IL", "addr:street": "South Michigan Avenue", "amenity": "restaurant", "name": "Cafe Moderno", "website": "http://www.cafe-moderno.com/"}}, {"type": "node", "id": 6272159727, "lat": 41.8873276, "lon": -87.620108, "tags": {"addr:city": "Chicago", "addr:housenumber": "303", "addr:postcode": "60601", "addr:state": "IL", "addr:street": "East Wacker Drive", "amenity": "cafe", "name": "Bake For Me", "outdoor_seating": "yes", "phone": "+1-312-228-9676", "website": "http://www.bakeforme.com/bfm-locations-303-east-wacker.html"}}, {"type": "node", "id": 6272398247, "lat": 41.8927553, "lon": -87.6224945, "tags": {"addr:city": "Chicago", "addr:housenumber": "200", "addr:postcode": "60611", "addr:state": "IL", "addr:street": "East Ohio Street", "amenity": "cafe", "name": "Baskin-Robbins / Dunkin\u2019 Donuts", "phone": "+1-312-787-9055", "website": "https://www.baskinrobbins.com/content/baskinrobbins/en.html"}}, {"type": "node", "id": 6273484387, "lat": 41.8869672, "lon": -87.6232241, "tags": {"addr:city": "Chicago", "addr:housenumber": "233", "addr:postcode": "60601", "addr:state": "IL", "addr:street": "North Michigan Avenue", "amenity": "restaurant", "name": "Blackwood BBQ - Illinois Center", "phone": "+1-312-487-4802", "website": "https://www.blackwoodbbq.com/"}}, {"type": "node", "id": 6282415461, "lat": 41.889071, "lon": -87.6198699, "tags": {"addr:city": "Chicago", "addr:housenumber": "301", "addr:postcode": "60611", "addr:state": "IL", "addr:street": "East North Water Street", "amenity": "bar", "name": "Chi Bar", "phone": "+1-312-755-2227", "website": "https://www.achiga.io/site-down/"}}, {"type": "node", "id": 6282807044, "lat": 41.8901774, "lon": -87.6210884, "tags": {"addr:city": "Chicago", "addr:housenumber": "455", "addr:postcode": "60611", "addr:state": "IL", "addr:street": "North Cityfront Plaza Drive", "amenity": "cafe", "cuisine": "coffee_shop", "name": "Cityfront Cafe", "phone": "+1-312-374-1169", "website": "https://www.cityfrontcafe.com/"}}, {"type": "node", "id": 6284038647, "lat": 41.8909189, "lon": -87.6155741, "tags": {"addr:city": "Chicago", "addr:housenumber": "455", "addr:postcode": "60611", "addr:state": "IL", "addr:street": "East Illinois Street", "amenity": "cafe", "name": "Cupitol Coffee & Eatery", "phone": "+1-312-414-1400", "website": "https://cupitol.com/"}}, {"type": "node", "id": 6284067097, "lat": 41.892086, "lon": -87.6192076, "tags": {"addr:city": "Chicago", "addr:housenumber": "345", "addr:postcode": "60611", "addr:state": "IL", "addr:street": "East Ohio Street", "amenity": "bar", "name": "D4 Irish Pub & Cafe", "phone": "+1-312-624-8385", "website": "http://d4pub.com/"}}, {"type": "node", "id": 6284833185, "lat": 41.8867541, "lon": -87.6168158, "tags": {"addr:city": "Chicago", "addr:housenumber": "400", "addr:postcode": "60601", "addr:state": "IL", "addr:street": "East South Water Street", "amenity": "cafe", "name": "Drunken Bean", "phone": "+1-312-549-8000", "website": "https://www.drunkenbeancafe.com/"}}, {"type": "node", "id": 6290938945, "lat": 41.8920723, "lon": -87.616159, "tags": {"addr:city": "Chicago", "addr:housenumber": "440", "addr:postcode": "60611", "addr:state": "IL", "addr:street": "East Grand Avenue", "amenity": "bar", "name": "Flamingo Bar & Grill", "phone": "+1-312-222-0901"}}, {"type": "node", "id": 6291816768, "lat": 41.8849499, "lon": -87.6231709, "tags": {"addr:city": "Chicago", "addr:housenumber": "130", "addr:postcode": "60601", "addr:state": "IL", "addr:street": "East Randolph Street", "amenity": "restaurant", "cuisine": "pizza", "name": "Giordano\u2019s", "phone": "+1-312-616-1200", "website": "https://giordanos.com/locations/prudential-plaza-millenium-park/"}}, {"type": "node", "id": 6291823782, "lat": 41.8918168, "lon": -87.6095322, "tags": {"addr:city": "Chicago", "addr:housenumber": "700", "addr:postcode": "60611", "addr:state": "Il", "addr:street": "East Grand Avenue", "amenity": "restaurant", "cuisine": "pizza", "name": "Giordano\u2019s - Navy Pier;Giordano's Pizza", "phone": "+1-312-288-8783", "website": "https://giordanos.com/locations/navy-pier/"}}, {"type": "node", "id": 6291863980, "lat": 41.8916193, "lon": -87.6208279, "tags": {"addr:city": "Chicago", "addr:housenumber": "255", "addr:postcode": "60611", "addr:state": "IL", "addr:street": "East Grand Avenue", "amenity": "cafe", "name": "Glass & Cup Coffee And Wine Bar"}}, {"type": "node", "id": 6294193504, "lat": 41.8918517, "lon": -87.6096704, "tags": {"addr:city": "Chicago", "addr:housenumber": "700", "addr:postcode": "60611", "addr:state": "IL", "addr:street": "East Grand Avenue", "amenity": "restaurant", "name": "Harry Caray\u2019s Tavern", "phone": "+1-312-527-9700", "website": "https://www.harrycarays.com/harry-carays-tavern-navy-pier.html"}}, {"type": "node", "id": 6300349874, "lat": 41.8919626, "lon": -87.6236604, "tags": {"addr:city": "Chicago", "addr:housenumber": "535", "addr:postcode": "60611", "addr:state": "IL", "addr:street": "North Michigan Avenue", "amenity": "cafe", "name": "Stan\u2019s Donuts & Coffee", "phone": "+1-312-955-3100", "website": "https://www.stansdonuts.com/"}}, {"type": "node", "id": 6300349926, "lat": 41.8855311, "lon": -87.6240423, "tags": {"addr:city": "Chicago", "addr:housenumber": "181", "addr:postcode": "60601", "addr:state": "IL", "addr:street": "North Michigan Avenue", "amenity": "cafe", "name": "Stan\u2019s Donuts & Coffee", "phone": "+1-312-729-5480", "website": "https://www.stansdonuts.com/"}}, {"type": "node", "id": 6300573021, "lat": 41.8924248, "lon": -87.6216836, "tags": {"addr:city": "Chicago", "addr:housenumber": "213", "addr:postcode": "60611", "addr:state": "IL", "addr:street": "East Ohio Street", "amenity": "restaurant", "name": "Ramen Misoya", "phone": "+1-312-496-3566", "website": "https://misoya.net/"}}, {"type": "node", "id": 6300739597, "lat": 41.8915969, "lon": -87.620825, "tags": {"addr:city": "Chicago", "addr:housenumber": "255", "addr:postcode": "60611", "addr:state": "IL", "addr:street": "East Grand Avenue", "amenity": "bar", "name": "The Red Star Bar", "phone": "+1-312-379-7900", "website": "http://www.redstarbar.us/"}}, {"type": "node", "id": 6301005156, "lat": 41.8917824, "lon": -87.6094511, "tags": {"addr:city": "Chicago", "addr:housenumber": "700", "addr:postcode": "60611", "addr:state": "IL", "addr:street": "East Grand Avenue", "amenity": "cafe", "name": "Riva Crabhouse", "phone": "+1-312-644-7482", "website": "https://www.rivanavypier.com/"}}, {"type": "node", "id": 6303823312, "lat": 41.8850448, "lon": -87.6231506, "tags": {"addr:city": "Chicago", "addr:housenumber": "130", "addr:postcode": "60601", "addr:state": "IL", "addr:street": "East Randolph Street", "amenity": "bar", "name": "Tavern at the Park", "phone": "+1-312-552-0070", "website": "https://tavernatthepark.com/"}}, {"type": "node", "id": 6304579210, "lat": 41.8912397, "lon": -87.6055872, "tags": {"addr:city": "Chicago", "addr:housenumber": "600", "addr:postcode": "60611", "addr:state": "IL", "addr:street": "East Grand Avenue", "amenity": "bar", "name": "Tiny Tavern", "phone": "+1-312-374-3923", "website": "http://www.tinytavern.com/"}}, {"type": "node", "id": 6305240475, "lat": 41.8861805, "lon": -87.6210463, "tags": {"addr:city": "Chicago", "addr:housenumber": "200", "addr:postcode": "60601", "addr:state": "IL", "addr:street": "North Columbus Service Drive", "amenity": "bar", "name": "THE BAR", "phone": "+1-312-565-8000", "website": "thebarinchicago.com"}}, {"type": "node", "id": 6316619846, "lat": 41.8915854, "lon": -87.6225213, "tags": {"addr:city": "Chicago", "addr:housenumber": "201", "addr:postcode": "60611", "addr:state": "IL", "addr:street": "East Grand Avenue", "amenity": "restaurant", "name": "Volare Ristorante Italiano", "phone": "+1-312-410-9900", "website": "https://www.volarerestaurant.com/"}}, {"type": "node", "id": 6322131726, "lat": 41.887808, "lon": -87.624171, "tags": {"addr:city": "Chicago", "addr:housenumber": "333", "addr:postcode": "60601", "addr:state": "IL", "addr:street": "North Michigan Avenue", "addr:unit": "4", "amenity": "bar", "name": "Tavern Club at 333", "phone": "+1-312-925-8984", "website": "https://tavernclub333.com/"}}, {"type": "node", "id": 6322607204, "lat": 41.8913879, "lon": -87.6238131, "tags": {"addr:city": "Chicago", "addr:housenumber": "505", "addr:postcode": "60611", "addr:state": "IL", "addr:street": "North Michigan Avenue", "amenity": "restaurant", "cuisine": "steak_house;steak;american", "name": "Michael Jordan\u2019s Steak House", "phone": "+1-312-321-8823", "website": "http://mjshchicago.com/"}}, {"type": "node", "id": 6324364633, "lat": 41.8919798, "lon": -87.6235962, "tags": {"addr:city": "Chicago", "addr:housenumber": "535", "addr:postcode": "60611", "addr:state": "IL", "addr:street": "North Michigan Avenue", "amenity": "cafe", "name": "Labriola", "phone": "+1-312-955-3100", "website": "https://www.labriolacafe.com/"}}, {"type": "node", "id": 6324376885, "lat": 41.8891535, "lon": -87.619764, "tags": {"addr:city": "Chicago", "addr:housenumber": "301", "addr:postcode": "60611", "addr:state": "IL", "addr:street": "East North Water Street", "amenity": "cafe", "name": "The Link@Sheraton Cafe", "website": "https://www.marriott.com/hotels/hotel-information/restaurant/chigs-sheraton-grand-chicago?program=spg"}}, {"type": "node", "id": 6324385517, "lat": 41.8874524, "lon": -87.6216548, "tags": {"addr:city": "Chicago", "addr:housenumber": "151", "addr:postcode": "60601", "addr:state": "IL", "addr:street": "East Upper Wacker Drive", "amenity": "restaurant", "name": "The Living Room", "phone": "+1-312-565-1234", "website": "https://www.hyatt.com/en-US/hotel/illinois/hyatt-regency-chicago/chirc/dining"}}, {"type": "node", "id": 6325990674, "lat": 41.8907631, "lon": -87.6172397, "tags": {"addr:city": "Chicago", "addr:housenumber": "465", "addr:postcode": "60611", "addr:state": "IL", "addr:street": "North McClurg Court", "amenity": "bar", "name": "Winter\u2019s Jazz Club", "website": "https://www.wintersjazzclub.com/"}}, {"type": "node", "id": 6326350643, "lat": 41.8873394, "lon": -87.6215813, "tags": {"addr:city": "Chicago", "addr:housenumber": "151", "addr:postcode": "60601", "addr:state": "IL", "addr:street": "East South Water Street", "amenity": "cafe", "name": "Market Chicago"}}, {"type": "node", "id": 6326420731, "lat": 41.8852755, "lon": -87.6187686, "tags": {"addr:city": "Chicago", "addr:housenumber": "333", "addr:postcode": "60601", "addr:state": "IL", "addr:street": "East Benton Place", "amenity": "restaurant", "name": "MingHin Cuisine", "phone": "+1-312-228-1333", "website": "https://www.minghincuisine.com/"}}, {"type": "node", "id": 6356726511, "lat": 41.8898716, "lon": -87.6193007, "tags": {"addr:city": "Chicago", "addr:housenumber": "455", "addr:postcode": "60611", "addr:state": "IL", "addr:street": "North Park Drive", "amenity": "restaurant", "cuisine": "american", "name": "ETA Restaurant + Bar", "opening_hours": "Mo-Th 06:30-21:00; Fr 06:30-22:00; Sa 07:00-22:00; Su 07:00-21:00", "phone": "+1-312-840-6605", "website": "https://www.etarestaurantandbar.com/"}}, {"type": "node", "id": 6407510885, "lat": 41.8919786, "lon": -87.6229324, "tags": {"addr:city": "Chicago", "addr:housenumber": "164", "addr:postcode": "60611", "addr:state": "IL", "addr:street": "East Grand Avenue", "amenity": "restaurant", "cuisine": "seafood", "name": "The Hampton Social", "opening_hours": "Mo-Th 11:00-22:00; Fr-Sa 11:00-23:00; Su 10:00-22:00", "phone": "+1-312-414-1861", "website": "https://www.hamptonsocial.com"}}, {"type": "node", "id": 6466670487, "lat": 41.8919449, "lon": -87.6224525, "tags": {"amenity": "restaurant", "name": "Hampton social"}}, {"type": "node", "id": 6466677386, "lat": 41.8925119, "lon": -87.6184597, "tags": {"amenity": "restaurant", "name": "Streeterville pizzeria and tap"}}, {"type": "node", "id": 6642064379, "lat": 41.8912599, "lon": -87.6068669, "tags": {"addr:city": "Chicago", "addr:housenumber": "600", "addr:postcode": "60611", "addr:state": "IL", "addr:street": "East Grand Avenue", "amenity": "restaurant", "cuisine": "middle_eastern;mediterranean", "name": "IDOF - I Dream Of Falafel", "website": "http://www.idreamoffalafel.com/"}}, {"type": "node", "id": 7035168353, "lat": 41.8912154, "lon": -87.6051804}, {"type": "node", "id": 7035168354, "lat": 41.8912325, "lon": -87.6051811}, {"type": "node", "id": 7040062494, "lat": 41.8912313, "lon": -87.6052387}, {"type": "node", "id": 7040062500, "lat": 41.8912142, "lon": -87.6052381}, {"type": "way", "id": 64388609, "nodes": [792325825, 2884825221, 2884825219, 2438340739, 2884825220, 2884825222, 792325828, 2884825224, 1579399010, 2884825231, 2884825233, 792325831, 2884825235, 2884825237, 2391278941, 2884825236, 2884825234, 792325834, 2884825232, 2884825230, 2391278936, 2391283010, 2884825225, 2884825223, 792325825], "tags": {"addr:city": "Chicago", "addr:housenumber": "200", "addr:postcode": "60601", "addr:state": "IL", "addr:street": "East Randolph Street", "addr:street:name": "Randolph", "addr:street:prefix": "East", "addr:street:type": "Street", "amenity": "bar", "building": "yes", "building:colour": "white", "building:levels": "83", "chicago:building_id": "353242", "height": "340", "name": "Red Bar", "name:ru": "\u0410\u043e\u043d-\u0446\u0435\u043d\u0442\u0440", "name:uk": "\u0410\u043e\u043d \u0446\u0435\u043d\u0442\u0440", "old_name": "Amoco Tower", "roof:material": "concrete", "roof:shape": "flat", "start_date": "1974", "wikidata": "Q271695", "wikipedia": "en:Aon Center (Chicago)"}}, {"type": "way", "id": 153735901, "nodes": [1663730900, 1663730890, 1663730902, 1663730933, 1663730900], "tags": {"addr:housenumber": "201", "addr:postcode": "60611", "addr:street": "East Grand Avenue", "addr:street:name": "Grand", "addr:street:prefix": "East", "addr:street:type": "Avenue", "amenity": "restaurant", "building": "yes", "building:levels": "2", "chicago:building_id": "347361", "name": "Volare"}}, {"type": "way", "id": 753474614, "nodes": [7040062500, 7040062494, 7035168354, 7035168353, 7040062500], "tags": {"amenity": "bar", "building": "yes"}}]}