{"version": 0.6, "generator": "Overpass API 0.7.56.3 eb200aeb", "osm3s": {"timestamp_osm_base": "2020-07-17T21:20:03Z", "copyright": "The data included in this document is from www.openstreetmap.org. The data is made available under ODbL."}, "elements": [{"type": "node", "id": 2356511949, "lat": 41.8688239, "lon": -87.6246198, "tags": {"addr:city": "Chicago", "addr:housenumber": "1120", "addr:postcode": "60605", "addr:state": "IL", "addr:street": "South Michigan Avenue", "amenity": "restaurant", "cuisine": "breakfast", "name": "Yolk - South Loop", "phone": "+1-312-789-9655", "website": "https://eatyolk.com/"}}, {"type": "node", "id": 2633069904, "lat": 41.8670718, "lon": -87.6243199, "tags": {"addr:housenumber": "1250", "addr:street": "South Michigan Avenue", "amenity": "restaurant", "cuisine": "Comfort_Food", "name": "Crave Cafe and Lounge"}}, {"type": "node", "id": 3581436121, "lat": 41.857775, "lon": -87.6220889, "tags": {"addr:housenumber": "205", "addr:postcode": "60616", "addr:state": "IL", "addr:street": "East 18th Street", "amenity": "cafe", "name": "The Spoke & Bird", "outdoor_seating": "yes", "phone": "1-929-263-2473", "website": "http://www.spokeandbird.com/"}}, {"type": "node", "id": 3919160343, "lat": 41.8678198, "lon": -87.6245541, "tags": {"addr:city": "Chicago", "addr:country": "US", "addr:housenumber": "1150", "addr:postcode": "60605", "addr:state": "IL", "addr:street": "South Michigan Avenue", "amenity": "restaurant", "cuisine": "burger", "name": "Burger Bar Chicago - South Loop", "phone": "+1-312-988-0162", "website": "http://burgerbarchicago.com/"}}, {"type": "node", "id": 4431002885, "lat": 41.8666021, "lon": -87.6148089}, {"type": "node", "id": 4431002886, "lat": 41.8666407, "lon": -87.6147404}, {"type": "node", "id": 4431002887, "lat": 41.8664067, "lon": -87.61451}, {"type": "node", "id": 4431002888, "lat": 41.8663696, "lon": -87.6145723}, {"type": "node", "id": 5123254321, "lat": 41.8625159, "lon": -87.624269, "tags": {"addr:city": "Chicago", "addr:housenumber": "1454", "addr:postcode": "60605", "addr:state": "IL", "addr:street": "South Michigan Avenue", "amenity": "bar", "name": "Vice District Taproom", "phone": "+1-312-291-9022", "website": "http://www.vicedistrictbrewing.com/"}}, {"type": "node", "id": 5376364522, "lat": 41.864555, "lon": -87.623821, "tags": {"addr:housenumber": "1355", "addr:street": "South Michigan Avenue", "amenity": "restaurant", "name": "Kurah Mediterranean"}}, {"type": "node", "id": 6105248085, "lat": 41.8526635, "lon": -87.6226785, "tags": {"addr:city": "Chicago", "addr:housenumber": "2206", "addr:postcode": "60616", "addr:state": "IL", "addr:street": "South Indiana Avenue", "amenity": "restaurant", "name": "Fatpour Tap Works", "name:en": "Fatpour (McCormick)", "phone": "+1-312-878-9292", "website": "https://www.fatpourmccormick.com/"}}, {"type": "node", "id": 6238937332, "lat": 41.8526537, "lon": -87.6231835, "tags": {"addr:city": "Chicago", "addr:housenumber": "111", "addr:postcode": "60616", "addr:state": "IL", "addr:street": "East Cermak Road", "amenity": "cafe", "brand": "Starbucks", "brand:wikidata": "Q37158", "brand:wikipedia": "en:Starbucks", "cuisine": "coffee_shop", "name": "Starbucks"}}, {"type": "node", "id": 6304139897, "lat": 41.8526562, "lon": -87.6244084, "tags": {"addr:city": "Chicago", "addr:housenumber": "67", "addr:postcode": "60616", "addr:state": "IL", "addr:street": "East Cermak Road", "amenity": "bar", "name": "The Velvet Lounge", "phone": "+1-312-631-3398"}}, {"type": "node", "id": 6306514980, "lat": 41.8599865, "lon": -87.6243607, "tags": {"addr:city": "Chicago", "addr:housenumber": "75", "addr:postcode": "60616", "addr:state": "IL", "addr:street": "East 16th Street", "amenity": "bar", "name": "The Bureau Bar", "phone": "+1-312-888-3156"}}, {"type": "node", "id": 6306554132, "lat": 41.8639536, "lon": -87.6237618, "tags": {"addr:city": "Chicago", "addr:housenumber": "1401", "addr:postcode": "60605", "addr:state": "IL", "addr:street": "South Michigan Avenue", "amenity": "restaurant", "name": "The Chicago Firehouse Restaurant", "phone": "+1-312-786-1401", "website": "http://www.chicagofirehouse.com/"}}, {"type": "node", "id": 6316574821, "lat": 41.8635201, "lon": -87.6245316, "tags": {"addr:city": "Chicago", "addr:housenumber": "1416", "addr:postcode": "60605", "addr:state": "IL", "addr:street": "South Michigan Avenue", "amenity": "bar", "name": "Victory Tap Chicago", "phone": "+1-312-566-9300", "website": "http://armandspizzeria.com/"}}, {"type": "node", "id": 6316636401, "lat": 41.8527335, "lon": -87.6227817, "tags": {"addr:city": "Chicago", "addr:housenumber": "133", "addr:postcode": "60616", "addr:state": "IL", "addr:street": "East Cermak Road", "addr:unit": "22", "amenity": "bar", "name": "VU Rooftop Bar", "phone": "+1-312-528-0191", "website": "https://www.vurooftop.com/"}}, {"type": "node", "id": 6316767066, "lat": 41.8619185, "lon": -87.6235586, "tags": {"addr:city": "Chicago", "addr:housenumber": "1503", "addr:postcode": "60605", "addr:state": "IL", "addr:street": "South Michigan Avenue", "amenity": "bar", "name": "Weather Mark Tavern", "phone": "+1-312-588-0230", "website": "https://weathermarktavern.com/"}}, {"type": "node", "id": 6317036888, "lat": 41.8537603, "lon": -87.6196811, "tags": {"addr:city": "Chicago", "addr:housenumber": "2121", "addr:postcode": "60616", "addr:state": "il", "addr:street": "South Calumet Avenue", "amenity": "bar", "name": "Woven + Bound Restaurant", "phone": "+1-312-824-0500", "website": "https://www.marriott.com/hotel-restaurants/chimq-marriott-marquis-chicago/woven-and-bound-restaurant/5718135/home-page.mi"}}, {"type": "node", "id": 6318454174, "lat": 41.8661313, "lon": -87.6213901, "tags": {"addr:city": "Chicago", "addr:housenumber": "1251", "addr:postcode": "60605", "addr:state": "IL", "addr:street": "South Prairie Avenue", "amenity": "cafe", "name": "Little Branch Cafe", "phone": "+1-312-360-0101", "website": "https://www.littlebranchcafe.com/"}}, {"type": "node", "id": 6319826943, "lat": 41.8580669, "lon": -87.6243788, "tags": {"addr:city": "Chicago", "addr:housenumber": "1736", "addr:postcode": "60616", "addr:state": "IL", "addr:street": "South Michigan Avenue", "amenity": "bar", "name": "Krolls South Loop", "phone": "+1-312-235-1400", "website": "http://www.krolls-chicago.com/"}}, {"type": "node", "id": 6321945044, "lat": 41.8539444, "lon": -87.6203557, "tags": {"addr:city": "Chicago", "addr:housenumber": "2121", "addr:postcode": "60616", "addr:state": "IL", "addr:street": "South Prairie Avenue", "amenity": "restaurant", "name": "Showroom Food Hall", "phone": "+1-312-824-0500", "website": "https://www.marriott.com/hotels/hotel-information/restaurant/chimq-marriott-marquis-chicago/"}}, {"type": "node", "id": 6326004181, "lat": 41.8539177, "lon": -87.6204197, "tags": {"addr:city": "Chicago", "addr:housenumber": "2121", "addr:postcode": "60616", "addr:state": "IL", "addr:street": "South Prairie Avenue", "amenity": "bar", "name": "Woven + Bound Restaurant", "phone": "+1-312-824-0500", "website": "https://www.marriott.com/hotel-restaurants/chimq-marriott-marquis-chicago/woven-and-bound-restaurant/5718135/home-page.mi"}}, {"type": "node", "id": 6394851285, "lat": 41.853067, "lon": -87.6240632, "tags": {"amenity": "restaurant", "name": "Papa John's"}}, {"type": "node", "id": 7157672325, "lat": 41.8664929, "lon": -87.6145948}, {"type": "node", "id": 7157672326, "lat": 41.8665561, "lon": -87.6146571}, {"type": "node", "id": 7157672327, "lat": 41.8665639, "lon": -87.6146406}, {"type": "node", "id": 7157672328, "lat": 41.8665001, "lon": -87.6145783}, {"type": "node", "id": 7159005293, "lat": 41.8680881, "lon": -87.6134104, "tags": {"amenity": "cafe", "name": "Soundings Cafe"}}, {"type": "way", "id": 445721198, "nodes": [4431002885, 4431002886, 7157672326, 7157672327, 7157672328, 7157672325, 4431002887, 4431002888, 4431002885], "tags": {"amenity": "restaurant", "building": "yes", "cuisine": "sandwich", "name": "Museum Campus Cafe"}}]}