{"version": 0.6, "generator": "Overpass API 0.7.56.1004 6cd3eaec", "osm3s": {"timestamp_osm_base": "2020-07-22T03:28:02Z", "copyright": "The data included in this document is from www.openstreetmap.org. The data is made available under ODbL."}, "elements": [{"type": "node", "id": 3919513824, "lat": 41.8578685, "lon": -87.6708525, "tags": {"amenity": "restaurant", "name": "Taqueria El Mezquite"}}, {"type": "node", "id": 4076939404, "lat": 41.8523519, "lon": -87.6851567, "tags": {"amenity": "restaurant", "name": "Super Taqueria El Taconazo"}}, {"type": "node", "id": 4076939409, "lat": 41.8523623, "lon": -87.6847253, "tags": {"amenity": "restaurant", "cuisine": "chinese", "name": "Wen Gai"}}, {"type": "node", "id": 4076939412, "lat": 41.8519228, "lon": -87.6849903, "tags": {"amenity": "restaurant", "brand": "Pizza Hut", "brand:wikidata": "Q191615", "brand:wikipedia": "en:Pizza Hut", "cuisine": "pizza", "name": "Pizza Hut"}}, {"type": "node", "id": 4076939426, "lat": 41.8511632, "lon": -87.6862264, "tags": {"amenity": "restaurant", "cuisine": "chinese", "name": "Canton Star"}}, {"type": "node", "id": 4407607308, "lat": 41.8577607, "lon": -87.6923518, "tags": {"addr:housenumber": "2607", "addr:street": "West 17th Street", "amenity": "bar", "name": "Lagunitas Tap Room", "website": "https://lagunitas.com/taprooms/chicago"}}, {"type": "node", "id": 5042203300, "lat": 41.852241, "lon": -87.6795198, "tags": {"addr:city": "Chicago", "addr:housenumber": "2128", "addr:postcode": "60608", "addr:state": "IL", "addr:street": "West Cermak Road", "amenity": "restaurant", "name": "Miro's Restaurants & Pizzeria"}}, {"type": "node", "id": 6126577491, "lat": 41.8479967, "lon": -87.6829231, "tags": {"addr:city": "Chicago", "addr:housenumber": "2413", "addr:state": "IL", "addr:street": "South Oakley Avenue", "amenity": "restaurant", "cuisine": "italian", "name": "Bacchanalia", "phone": "+1 773-254-6555"}}, {"type": "node", "id": 6126580564, "lat": 41.8578806, "lon": -87.6702407, "tags": {"addr:city": "Chicago", "addr:housenumber": "1738", "addr:postcode": "60608", "addr:state": "IL", "addr:street": "West 18th Street", "amenity": "cafe", "cuisine": "coffee_shop", "name": "Cafe Mestizo", "phone": "+1 312-425-5724"}}, {"type": "node", "id": 6126601398, "lat": 41.8476445, "lon": -87.683278, "tags": {"addr:city": "Chicago", "addr:housenumber": "2424", "addr:postcode": "60608", "addr:state": "IL", "addr:street": "South Oakley Avenue", "amenity": "restaurant", "cuisine": "italian", "name": "Bruna's", "opening_hours": "11:00-22:00; Fr-Sa 11:00-23:00; Su 12:30-22:00", "phone": "+1 773-254-5550", "website": "http://brunasristorante.com/"}}, {"type": "node", "id": 6126958125, "lat": 41.8478007, "lon": -87.6829077, "tags": {"addr:city": "Chicago", "addr:housenumber": "2421", "addr:postcode": "60608", "addr:state": "IL", "addr:street": "South Oakley Avenue", "amenity": "restaurant", "cuisine": "pizza", "name": "Ignotz Ristorante", "opening_hours": "Tu-Th 11:00-21:30; Fr 11:00-23:00; Sa 16:00-23:00; Su 15:00-21:00", "phone": "+1 773-579-0300"}}, {"type": "node", "id": 6126964802, "lat": 41.8479127, "lon": -87.6832441, "tags": {"addr:city": "Chicago", "addr:housenumber": "2414", "addr:postcode": "60608", "addr:state": "IL", "addr:street": "South Oakley Avenue", "amenity": "restaurant", "cuisine": "italian", "fixme": "Bad hours", "name": "La Fontanella", "opening_hours": "Mo-Fr 11:30-12:00, Sa-Su 12:00-22:00", "phone": "+1 773-927-5249"}}, {"type": "node", "id": 6280524453, "lat": 41.8575892, "lon": -87.6697952, "tags": {"addr:city": "Chicago", "addr:housenumber": "1725", "addr:postcode": "60608", "addr:state": "IL", "addr:street": "West 18th Street", "amenity": "restaurant", "name": "Carnitas Uruapan Restaurant", "phone": "+1-312-226-2654", "website": "http://www.carnitasuruapanchi.com/"}}, {"type": "node", "id": 6300146985, "lat": 41.8575391, "lon": -87.6697878, "tags": {"addr:city": "Chicago", "addr:housenumber": "1727", "addr:postcode": "60608", "addr:state": "IL", "addr:street": "West 18th Street", "amenity": "cafe", "name": "INTERSECT", "phone": "+1-312-846-6805", "website": "https://www.intersectcoffee.com/"}}, {"type": "node", "id": 6305247842, "lat": 41.8544099, "lon": -87.6757334, "tags": {"addr:city": "Chicago", "addr:housenumber": "2015", "addr:postcode": "60608", "addr:state": "IL", "addr:street": "South Damen Avenue", "amenity": "bar", "name": "The Barrel", "phone": "+1-312-754-0156"}}, {"type": "node", "id": 6317051145, "lat": 41.8574736, "lon": -87.6692665, "tags": {"addr:city": "Chicago", "addr:housenumber": "1711", "addr:postcode": "60608", "addr:state": "IL", "addr:street": "West 18th Street", "amenity": "cafe", "name": "Xurro", "phone": "+1-773-823-9571", "website": "https://www.churrofactory.com/"}}, {"type": "node", "id": 6319862087, "lat": 41.8546674, "lon": -87.6760984, "tags": {"addr:city": "Chicago", "addr:housenumber": "2010", "addr:postcode": "60608", "addr:state": "IL", "addr:street": "South Damen Avenue", "amenity": "cafe", "name": "L Cafecito Jumping Bean", "phone": "+1-312-366-2930", "website": "https://cafejumpingbean.wordpress.com/menu-2/"}}, {"type": "node", "id": 6321541517, "lat": 41.8514785, "lon": -87.6781294, "tags": {"addr:city": "Chicago", "addr:housenumber": "2058", "addr:postcode": "60608", "addr:state": "IL", "addr:street": "West 22nd Place", "amenity": "bar", "name": "Martin\u2019s Corner", "phone": "+1-773-847-5515"}}]}