{"version": 0.6, "generator": "Overpass API 0.7.56.1004 6cd3eaec", "osm3s": {"timestamp_osm_base": "2020-07-22T00:08:03Z", "copyright": "The data included in this document is from www.openstreetmap.org. The data is made available under ODbL."}, "elements": [{"type": "node", "id": 1699188826, "lat": 41.8346504, "lon": -87.6330179, "tags": {"amenity": "restaurant", "name": "Fraternelli's Pizza"}}, {"type": "node", "id": 1699188829, "lat": 41.8352407, "lon": -87.6257357, "tags": {"amenity": "cafe", "name": "Global Grounds"}}, {"type": "node", "id": 1699188850, "lat": 41.83463, "lon": -87.6342789, "tags": {"amenity": "cafe", "name": "Parkside Cafe"}}, {"type": "node", "id": 1699188851, "lat": 41.8360904, "lon": -87.6261812, "tags": {"amenity": "restaurant", "name": "Pritzker Club"}}, {"type": "node", "id": 1699188921, "lat": 41.8309502, "lon": -87.6295558}, {"type": "node", "id": 1699188923, "lat": 41.8309886, "lon": -87.6278263}, {"type": "node", "id": 1699188929, "lat": 41.8310472, "lon": -87.6250887}, {"type": "node", "id": 1699189060, "lat": 41.8328632, "lon": -87.6250233}, {"type": "node", "id": 1699189065, "lat": 41.8328613, "lon": -87.6251059}, {"type": "node", "id": 1699189070, "lat": 41.8328856, "lon": -87.6233946}, {"type": "node", "id": 1699189680, "lat": 41.8357718, "lon": -87.6256929}, {"type": "node", "id": 1699189684, "lat": 41.8357728, "lon": -87.6253266}, {"type": "node", "id": 1699189689, "lat": 41.8357728, "lon": -87.625481}, {"type": "node", "id": 1699189710, "lat": 41.8360248, "lon": -87.6256923}, {"type": "node", "id": 1699189728, "lat": 41.8362392, "lon": -87.6256937}, {"type": "node", "id": 1699189730, "lat": 41.8362401, "lon": -87.6253266}, {"type": "node", "id": 1699189880, "lat": 41.839507, "lon": -87.6297554}, {"type": "node", "id": 1699189883, "lat": 41.8395606, "lon": -87.6234863}, {"type": "node", "id": 1699190037, "lat": 41.8308176, "lon": -87.6268849, "tags": {"amenity": "cafe", "brand": "Starbucks", "brand:wikidata": "Q37158", "brand:wikipedia": "en:Starbucks", "cuisine": "coffee_shop", "name": "Starbucks", "takeaway": "yes"}}, {"type": "node", "id": 1699190038, "lat": 41.8354336, "lon": -87.6282795, "tags": {"amenity": "bar", "name": "The BOG", "operator": "Sodexo"}}, {"type": "node", "id": 2058878703, "lat": 41.8328775, "lon": -87.6244051}, {"type": "node", "id": 2206126864, "lat": 41.8238364, "lon": -87.6382907}, {"type": "node", "id": 2206126867, "lat": 41.8238374, "lon": -87.6382283}, {"type": "node", "id": 2206126875, "lat": 41.8238443, "lon": -87.6382301}, {"type": "node", "id": 2206126880, "lat": 41.8238465, "lon": -87.6381457}, {"type": "node", "id": 2206126882, "lat": 41.8238465, "lon": -87.6383713}, {"type": "node", "id": 2206126886, "lat": 41.8238474, "lon": -87.6382906}, {"type": "node", "id": 2206126977, "lat": 41.823933, "lon": -87.638374}, {"type": "node", "id": 2206126985, "lat": 41.8239371, "lon": -87.6381484}, {"type": "node", "id": 2206127138, "lat": 41.8240516, "lon": -87.6228886}, {"type": "node", "id": 2206127140, "lat": 41.8240547, "lon": -87.6225827}, {"type": "node", "id": 2206127318, "lat": 41.8241123, "lon": -87.6228897}, {"type": "node", "id": 2206127322, "lat": 41.8241154, "lon": -87.6225838}, {"type": "node", "id": 6282558637, "lat": 41.8311353, "lon": -87.6338966, "tags": {"addr:city": "Chicago", "addr:housenumber": "320", "addr:postcode": "60616", "addr:state": "IL", "addr:street": "West 35th Street", "amenity": "bar", "name": "ChiSox Bar & Grill", "phone": "+1-312-674-5860", "website": "https://www.mlb.com/whitesox/ballpark/chisox-bar-and-grill"}}, {"type": "node", "id": 6283464385, "lat": 41.8346792, "lon": -87.6341999, "tags": {"addr:city": "Chicago", "addr:housenumber": "3258", "addr:postcode": "60616", "addr:state": "IL", "addr:street": "South Princeton Avenue", "amenity": "bar", "name": "Cork and Kerry", "phone": "+1-312-842-0769", "website": "https://corkandkerry.com/"}}, {"type": "node", "id": 6289514671, "lat": 41.8384445, "lon": -87.6331359, "tags": {"addr:city": "Chicago", "addr:housenumber": "234", "addr:postcode": "60616", "addr:state": "IL", "addr:street": "West 31st Street", "amenity": "restaurant", "name": "Fat Fish Bar and Grill", "phone": "+1-312-842-9200", "website": "http://orderfatfishbarngrill.com/"}}, {"type": "node", "id": 6291485654, "lat": 41.8383786, "lon": -87.6343653, "tags": {"addr:city": "Chicago", "addr:housenumber": "300", "addr:postcode": "60616", "addr:state": "IL", "addr:street": "West 31st Street", "amenity": "restaurant", "name": "Franco\u2019s Ristorante", "phone": "+1-312-225-9566", "website": "https://www.francoschicago.com/"}}, {"type": "node", "id": 6291884636, "lat": 41.8356602, "lon": -87.6257569, "tags": {"addr:city": "Chicago", "addr:housenumber": "3201", "addr:postcode": "60616", "addr:state": "IL", "addr:street": "South State Street", "amenity": "cafe", "name": "Global Grounds Cafe", "phone": "+1-312-567-3711"}}, {"type": "node", "id": 6300622785, "lat": 41.8347423, "lon": -87.6325388, "tags": {"addr:city": "Chicago", "addr:housenumber": "218", "addr:postcode": "60616", "addr:state": "IL", "addr:street": "West 33rd Street", "amenity": "cafe", "name": "Red Line Cafe", "phone": "+1-312-265-0219", "website": "https://srg33.com/the-red-line/"}}, {"type": "node", "id": 6301765417, "lat": 41.8347452, "lon": -87.6325776, "tags": {"addr:city": "Chicago", "addr:housenumber": "220", "addr:postcode": "60616", "addr:state": "IL", "addr:street": "West 33rd Street", "amenity": "restaurant", "name": "Stix n Brix Wood Fired Pizza", "phone": "+1-312-265-0219", "website": "https://srg33.com/stix-n-brix/"}}, {"type": "node", "id": 6305237157, "lat": 41.8237688, "lon": -87.6393124, "tags": {"addr:city": "Chicago", "addr:housenumber": "514", "addr:postcode": "60609", "addr:state": "IL", "addr:street": "West Pershing Road", "amenity": "bar", "name": "The BallPark Pub", "phone": "+1-773-675-4687", "website": "http://theballparkpub.com/"}}, {"type": "node", "id": 6306861424, "lat": 41.8346866, "lon": -87.6330617, "tags": {"addr:city": "Chicago", "addr:housenumber": "238", "addr:postcode": "60616", "addr:state": "IL", "addr:street": "West 33rd Street", "amenity": "bar", "name": "Turtles Bar and Grill", "phone": "+1-312-225-7333"}}, {"type": "node", "id": 6319016362, "lat": 41.8383635, "lon": -87.6339444, "tags": {"addr:city": "Chicago", "addr:housenumber": "258", "addr:postcode": "60616", "addr:state": "IL", "addr:street": "West 31st Street", "amenity": "cafe", "name": "Joy Cafe"}}, {"type": "way", "id": 157657353, "nodes": [1699189730, 1699189684, 1699189689, 1699189680, 1699189710, 1699189728, 1699189730], "tags": {"amenity": "restaurant", "building": "university", "name": "Commons Cafeteria", "operator": "Sodexo"}}, {"type": "way", "id": 157657413, "nodes": [1699189880, 1699189883, 1699189070, 2058878703, 1699189060, 1699189065, 1699188929, 1699188923, 1699188921, 1699189880], "tags": {"amenity": "university", "name": "Illinois Institute of Technology", "wikidata": "Q659706", "wikipedia": "en:Illinois Institute of Technology"}}, {"type": "way", "id": 210526771, "nodes": [2206127140, 2206127138, 2206127318, 2206127322, 2206127140], "tags": {"addr:housenumber": "3851", "addr:postcode": "60653", "addr:street": "South Michigan Avenue", "addr:street:name": "Michigan", "addr:street:prefix": "South", "addr:street:type": "Avenue", "amenity": "restaurant", "building": "yes", "chicago:building_id": "886140", "cuisine": "meat", "name": "Chicago Rib House"}}, {"type": "way", "id": 210527552, "nodes": [2206126864, 2206126886, 2206126882, 2206126977, 2206126985, 2206126880, 2206126875, 2206126867, 2206126864], "tags": {"addr:housenumber": "448-454", "addr:street": "West Pershing Road", "addr:street:name": "Pershing", "addr:street:prefix": "West", "addr:street:type": "Road", "amenity": "cafe", "building": "yes", "building:levels": "1", "chicago:building_id": "425003", "name": "Snack Shop"}}]}