{"version": 0.6, "generator": "Overpass API 0.7.56.1004 6cd3eaec", "osm3s": {"timestamp_osm_base": "2020-07-22T04:47:03Z", "copyright": "The data included in this document is from www.openstreetmap.org. The data is made available under ODbL."}, "elements": [{"type": "node", "id": 2361072387, "lat": 41.8091967, "lon": -87.6200842, "tags": {"addr:housenumber": "225", "addr:street": "East 47th Street", "amenity": "restaurant", "cuisine": "chinese", "name": "Dragon Express"}}, {"type": "node", "id": 6258049946, "lat": 41.8168214, "lon": -87.6129712, "tags": {"addr:city": "Chicago", "addr:housenumber": "526", "addr:postcode": "60653", "addr:state": "IL", "addr:street": "East 43rd Street", "amenity": "cafe", "name": "Ain\u2019t She Sweet Cafe", "phone": "+1-773-373-3530", "website": "http://aintshesweetcafe.com/"}}, {"type": "node", "id": 6282277094, "lat": 41.8099623, "lon": -87.5996723, "tags": {"addr:city": "Chicago", "addr:housenumber": "1060", "addr:postcode": "60653", "addr:state": "IL", "addr:street": "East 47th Street", "addr:unit": "FL 1", "amenity": "cafe", "name": "Carver 47 Cafe", "phone": "+1-773-285-1211", "website": "https://littleblackpearl.squarespace.com/carver-47/"}}, {"type": "node", "id": 6298795081, "lat": 41.8168186, "lon": -87.6128774, "tags": {"addr:city": "Chicago", "addr:housenumber": "528", "addr:postcode": "60653", "addr:state": "IL", "addr:street": "East 43rd Street", "amenity": "cafe", "name": "Sip & Savor", "phone": "+1-773-855-2125", "website": "http://www.sipandsavorchicago.com/"}}, {"type": "node", "id": 6300738093, "lat": 41.8095528, "lon": -87.6159933, "tags": {"addr:city": "Chicago", "addr:housenumber": "4655", "addr:postcode": "60653", "addr:state": "IL", "addr:street": "South Doctor Martin Luther King Junior Drive", "amenity": "cafe", "name": "Spoken Word Cafe", "outdoor_seating": "yes", "phone": "+1-773-373-2233"}}, {"type": "node", "id": 6301077864, "lat": 41.8099311, "lon": -87.6161107, "tags": {"addr:city": "Chicago", "addr:housenumber": "464", "addr:postcode": "60653", "addr:state": "IL", "addr:street": "South Doctor Martin Luther King Junior Drive", "amenity": "bar", "name": "Renaissance Bronzeville", "phone": "+1-773-690-5416", "website": "http://www.renaissancebronzeville.com/"}}, {"type": "node", "id": 7243417794, "lat": 41.816976, "lon": -87.60634, "tags": {"addr:city": "Chicago", "addr:housenumber": "810", "addr:postcode": "60653", "addr:state": "IL", "addr:street": "East 43rd Street", "amenity": "bar", "name": "Some Like It Black", "phone": "+1-773-891-4866", "website": "https://www.somelikeitblack.com"}}]}