{"version": 0.6, "generator": "Overpass API 0.7.56.1004 6cd3eaec", "osm3s": {"timestamp_osm_base": "2020-07-22T01:48:03Z", "copyright": "The data included in this document is from www.openstreetmap.org. The data is made available under ODbL."}, "elements": [{"type": "node", "id": 1526962143, "lat": 41.9665273, "lon": -87.6938614, "tags": {"amenity": "restaurant", "name": "Pizza Art Cafe"}}, {"type": "node", "id": 1526962145, "lat": 41.966629, "lon": -87.6938828, "tags": {"amenity": "cafe", "name": "Beans and Bagels"}}, {"type": "node", "id": 1557244584, "lat": 41.9674616, "lon": -87.687611, "tags": {"addr:city": "Chicago", "addr:housenumber": "4729", "addr:postcode": "60625", "addr:state": "IL", "addr:street": "North Lincoln Avenue", "amenity": "restaurant", "cuisine": "american", "name": "Cafe Selmarie", "phone": "+1-773-989-5595", "website": "http://cafeselmarie.com/"}}, {"type": "node", "id": 1755754561, "lat": 41.9540486, "lon": -87.7096177}, {"type": "node", "id": 1755754568, "lat": 41.9540521, "lon": -87.7094982}, {"type": "node", "id": 1755755021, "lat": 41.9542394, "lon": -87.709625}, {"type": "node", "id": 1755755025, "lat": 41.9542406, "lon": -87.7096048}, {"type": "node", "id": 1755755105, "lat": 41.9542791, "lon": -87.7096062}, {"type": "node", "id": 1755755116, "lat": 41.9542813, "lon": -87.7095088}, {"type": "node", "id": 1975835341, "lat": 41.9662621, "lon": -87.7013037, "tags": {"addr:city": "Chicago", "addr:housenumber": "4664", "addr:postcode": "60625", "addr:state": "IL", "addr:street": "North Manor Avenue", "amenity": "cafe", "cuisine": "coffee_shop", "internet_access": "yes", "name": "First Slice", "phone": "+1-773-267-0169", "source": "local knowledge", "website": "http://firstslice.org/", "wifi": "free"}}, {"type": "node", "id": 2149694269, "lat": 41.965757, "lon": -87.708734, "tags": {"addr:city": "Chicago", "addr:housenumber": "4636", "addr:postcode": "60625", "addr:street": "North Kedzie Avenue", "amenity": "restaurant", "cuisine": "arab", "name": "Salam", "outdoor_seating": "no", "smoking": "no", "takeaway": "yes"}}, {"type": "node", "id": 2196816832, "lat": 41.9536122, "lon": -87.6993319}, {"type": "node", "id": 2196816834, "lat": 41.9536144, "lon": -87.69924}, {"type": "node", "id": 2196816858, "lat": 41.9536295, "lon": -87.6992417}, {"type": "node", "id": 2196816860, "lat": 41.9536307, "lon": -87.6992104}, {"type": "node", "id": 2196817156, "lat": 41.9538331, "lon": -87.6993371}, {"type": "node", "id": 2196817161, "lat": 41.9538352, "lon": -87.6992158}, {"type": "node", "id": 2196853939, "lat": 41.9614408, "lon": -87.6909119, "tags": {"amenity": "restaurant", "name": "Cafe Lutz"}}, {"type": "node", "id": 2196877059, "lat": 41.9674433, "lon": -87.6882328}, {"type": "node", "id": 2196877474, "lat": 41.9675074, "lon": -87.6882714}, {"type": "node", "id": 2196877628, "lat": 41.9675108, "lon": -87.688259}, {"type": "node", "id": 2196877665, "lat": 41.9675389, "lon": -87.6879648}, {"type": "node", "id": 2196877836, "lat": 41.9675721, "lon": -87.6882999}, {"type": "node", "id": 2196878328, "lat": 41.9676606, "lon": -87.6880444}, {"type": "node", "id": 2274028613, "lat": 41.9682002, "lon": -87.6936095, "tags": {"addr:city": "Chicago", "addr:housenumber": "4749", "addr:postcode": "60625", "addr:state": "IL", "addr:street": "North Rockwell Street", "amenity": "bar", "name": "The Red Lion Lincoln Square", "phone": "+1-773-654-1341", "website": "https://www.theredlionlincolnsquare.com/"}}, {"type": "node", "id": 2274265367, "lat": 41.9645511, "lon": -87.7088137, "tags": {"addr:city": "Chicago", "addr:housenumber": "4558", "addr:street": "North Kedzie Avenue", "amenity": "cafe", "brand": "Starbucks", "brand:wikidata": "Q37158", "brand:wikipedia": "en:Starbucks", "cuisine": "coffee_shop", "internet_access": "yes", "name": "Starbucks", "phone": "(773) 267-1579"}}, {"type": "node", "id": 2359636164, "lat": 41.9520045, "lon": -87.707771, "tags": {"addr:city": "Chicago", "addr:housenumber": "3859", "addr:postcode": "60618", "addr:street": "North Kedzie Avenue", "amenity": "restaurant", "cuisine": "mexican", "name": "Tamale's Garibay"}}, {"type": "node", "id": 2673354533, "lat": 41.9684173, "lon": -87.6882204, "tags": {"amenity": "restaurant", "cuisine": "italian", "name": "Trattoria Trullo"}}, {"type": "node", "id": 2673354534, "lat": 41.9682471, "lon": -87.6881332, "tags": {"amenity": "restaurant", "cuisine": "greek", "name": "Barba Yianni"}}, {"type": "node", "id": 2969264559, "lat": 41.9680798, "lon": -87.6884053, "tags": {"addr:city": "Chicago", "addr:housenumber": "4752", "addr:postcode": "60625", "addr:street": "North Lincoln Avenue", "amenity": "restaurant", "cuisine": "mexican", "name": "Garcia's", "toilets:wheelchair": "yes", "wheelchair": "yes"}}, {"type": "node", "id": 3011054097, "lat": 41.954188, "lon": -87.7033678, "tags": {"addr:city": "Chicago", "addr:housenumber": "3000", "addr:postcode": "60618", "addr:street": "West Irving Park Road", "amenity": "bar", "cuisine": "burger", "name": "LeaderBar Drafthouse & Eatery", "opening_hours": "12:00-00:00", "phone": "+1-773-478-2337", "website": "http://www.leaderbar.com/"}}, {"type": "node", "id": 3011071566, "lat": 41.954188, "lon": -87.7017101, "tags": {"addr:city": "Chicago", "addr:housenumber": "2922", "addr:postcode": "60618", "addr:street": "West Irving Park Road", "amenity": "restaurant", "cuisine": "barbecue", "name": "PitchFork", "phone": "+1-773-866-2010", "website": "https://pitchforkchicago.com/"}}, {"type": "node", "id": 3011103181, "lat": 41.9546765, "lon": -87.6887215, "tags": {"addr:housenumber": "4018", "addr:street": "North Western Avenue", "amenity": "restaurant", "cuisine": "thai", "name": "Sticky Rice", "opening_hours": "Mo-Sa 11:30-23:00; Su 12:00-22:00", "website": "http://www.stickyricethai.com/"}}, {"type": "node", "id": 3015666651, "lat": 41.9537738, "lon": -87.7047186, "tags": {"amenity": "restaurant", "cuisine": "ecuadorian", "name": "Mi Cuidad"}}, {"type": "node", "id": 3015667206, "lat": 41.9537838, "lon": -87.702057, "tags": {"addr:city": "Chicago", "addr:housenumber": "2933", "addr:postcode": "60618", "addr:state": "IL", "addr:street": "West Irving Park Road", "amenity": "cafe", "cuisine": "serbian", "internet_access": "wlan", "name": "Beograd Cafe", "phone": "+1-773-478-7575", "website": "http://beogradchicago.com/index.html"}}, {"type": "node", "id": 3015668079, "lat": 41.9537639, "lon": -87.7060785, "tags": {"amenity": "restaurant", "cuisine": "thai", "name": "Dharma Garden"}}, {"type": "node", "id": 3015672019, "lat": 41.9536402, "lon": -87.6991711, "tags": {"amenity": "restaurant", "cuisine": "mexican", "name": "The Famous Taco Burrito"}}, {"type": "node", "id": 3015676165, "lat": 41.954379, "lon": -87.6986616, "tags": {"amenity": "restaurant", "cuisine": "chinese", "name": "Lo's China Kitchen"}}, {"type": "node", "id": 3660383836, "lat": 41.9540962, "lon": -87.7073132, "tags": {"addr:city": "Chicago", "addr:housenumber": "3144", "addr:postcode": "60618", "addr:state": "IL", "addr:street": "West Irving Park Road", "amenity": "bar", "name": "Serbian Village", "phone": "+1-773-478-2900"}}, {"type": "node", "id": 3809208225, "lat": 41.9682723, "lon": -87.688678, "tags": {"amenity": "restaurant", "cuisine": "Breakfast_and_lunch", "name": "Pannekoken"}}, {"type": "node", "id": 5711720121, "lat": 41.9613028, "lon": -87.7067528, "tags": {"addr:housenumber": "3120", "addr:postcode": "60618", "amenity": "restaurant", "cuisine": "spanish", "name": "Brasa Roja", "name:en": "Brasa Roja Columbian Cuisine", "name:es": "Brasa Roja Columbian Cuisine", "opening_hours": "Mo-Su 09:00-22:00", "phone": "7738662252", "website": "http://brasarojarestaurant.com"}}, {"type": "node", "id": 6131450052, "lat": 41.9609383, "lon": -87.7099105, "tags": {"addr:city": "Chicago", "addr:housenumber": "3241", "addr:postcode": "60618", "addr:state": "IL", "addr:street": "West Montrose Avenue", "amenity": "bar", "brewery": "yes", "name": "Surge Coffee Bar & Billiards", "phone": "+1-773-961-8096", "website": "https://surgebilliards.com"}}, {"type": "node", "id": 6260995467, "lat": 41.9684136, "lon": -87.6947404, "tags": {"addr:city": "Chicago", "addr:housenumber": "2621", "addr:postcode": "60625", "addr:state": "IL", "addr:street": "West Lawrence Avenue", "amenity": "cafe", "cuisine": "coffee_shop;turkish", "name": "Albert\u2019s Place Turkish Cafe", "phone": "+1-773-681-0275"}}, {"type": "node", "id": 6261234292, "lat": 41.9613634, "lon": -87.7043718, "tags": {"addr:city": "Chicago", "addr:housenumber": "3026", "addr:postcode": "60618", "addr:state": "IL", "addr:street": "West Montrose Avenue", "amenity": "bar", "name": "Angelo\u2019s Wine Bar", "outdoor_seating": "no", "phone": "+1-773-539-0111"}}, {"type": "node", "id": 6269067889, "lat": 41.9559106, "lon": -87.7078551, "tags": {"addr:city": "Chicago", "addr:housenumber": "3154", "addr:postcode": "60618", "addr:state": "IL", "addr:street": "North Kedzie Avenue", "amenity": "bar", "name": "Brickhouse Bar & Grill", "phone": "+1-773-677-9106"}}, {"type": "node", "id": 6283230832, "lat": 41.9682487, "lon": -87.6917466, "tags": {"addr:city": "Chicago", "addr:housenumber": "2501", "addr:postcode": "60625", "addr:state": "IL", "addr:street": "West Lawrence Avenue", "amenity": "cafe", "name": "Coffee Slasticarna Drina", "phone": "+1-773-275-5568"}}, {"type": "node", "id": 6291787688, "lat": 41.9678492, "lon": -87.6877745, "tags": {"addr:city": "Chicago", "addr:housenumber": "4743", "addr:postcode": "60625", "addr:state": "IL", "addr:street": "North Lincoln Avenue", "amenity": "cafe", "name": "Geraldine\u2019s", "phone": "+1-", "toilets:wheelchair": "yes", "wheelchair": "yes"}}, {"type": "node", "id": 6292035122, "lat": 41.9687174, "lon": -87.6959965, "tags": {"addr:city": "Chicago", "addr:housenumber": "2656", "addr:postcode": "60625", "addr:state": "IL", "addr:street": "West Lawrence Avenue", "amenity": "restaurant", "cuisine": "fine_dining", "name": "goosefoot", "phone": "+1-773-942-7547", "website": "http://www.goosefoot.net/"}}, {"type": "node", "id": 6292139275, "lat": 41.9686008, "lon": -87.7107064, "tags": {"addr:city": "Chicago", "addr:housenumber": "3254", "addr:postcode": "60625", "addr:state": "IL", "addr:street": "West Lawrence Avenue", "amenity": "restaurant", "name": "Great Sea Chinese Restaurant", "phone": "+1-773-478-9129", "website": "https://www.greatsearestaurant.com/"}}, {"type": "node", "id": 6297501127, "lat": 41.9672827, "lon": -87.6874715, "tags": {"addr:city": "Chicago", "addr:housenumber": "4721", "addr:postcode": "60625", "addr:state": "IL", "addr:street": "North Lincoln Avenue", "amenity": "bar", "name": "H\u00fcettenbar", "phone": "+1-773-561-2507", "website": "http://www.huettenbar.com/"}}, {"type": "node", "id": 6299470725, "lat": 41.9613885, "lon": -87.7056383, "tags": {"addr:city": "Chicago", "addr:housenumber": "3056", "addr:postcode": "60618", "addr:state": "IL", "addr:street": "West Montrose Avenue", "amenity": "bar", "name": "Peacock Liquors", "phone": "+1-773-588-5148"}}, {"type": "node", "id": 6300336899, "lat": 41.9656329, "lon": -87.6885158, "tags": {"addr:city": "Chicago", "addr:housenumber": "4623", "addr:postcode": "60625", "addr:state": "IL", "addr:street": "North Western Avenue", "amenity": "bar", "name": "Spyners Pub", "phone": "+1-773-784-8719", "website": "spyners.com"}}, {"type": "node", "id": 6300570350, "lat": 41.9542487, "lon": -87.7028442, "tags": {"addr:city": "Chicago", "addr:housenumber": "2958", "addr:postcode": "60618", "addr:state": "IL", "addr:street": "West Irving Park Road", "amenity": "restaurant", "name": "Raisu Japanese Fine Dining", "phone": "+1-773-961-7299", "website": "http://www.raisusushi.com/"}}, {"type": "node", "id": 6301759131, "lat": 41.9546735, "lon": -87.6887916, "tags": {"addr:city": "Chicago", "addr:housenumber": "4018", "addr:postcode": "60618", "addr:state": "IL", "addr:street": "North Western Avenue", "amenity": "restaurant", "name": "Sticky Rice", "phone": "+1-773-588-0133", "website": "http://stickyricethai.com/index10.php"}}, {"type": "node", "id": 6303022935, "lat": 41.9688043, "lon": -87.6941954, "tags": {"addr:city": "Chicago", "addr:housenumber": "2604", "addr:postcode": "60625", "addr:state": "IL", "addr:street": "West Lawrence Avenue", "amenity": "restaurant", "name": "Sweet Pepper Venezuelan Food Bar", "phone": "+1-872-208-5665", "website": "https://www.sweetpepperchgo.com/"}}, {"type": "node", "id": 6307008790, "lat": 41.9609809, "lon": -87.7018042, "tags": {"addr:city": "Chicago", "addr:housenumber": "2925", "addr:postcode": "60618", "addr:state": "Il", "addr:street": "West Montrose Avenue", "amenity": "bar", "name": "Twisted Hippo", "phone": "+1-708-844-7768", "website": "http://www.twistedhippo.com/"}}, {"type": "node", "id": 6314808938, "lat": 41.9682955, "lon": -87.6916405, "tags": {"addr:city": "Chicago", "addr:housenumber": "2501", "addr:postcode": "60625", "addr:state": "IL", "addr:street": "West Lawrence Avenue", "amenity": "restaurant", "name": "Isla Pilipina", "phone": "+1-773-271-2988", "website": "https://www.islapilipina.com/"}}, {"type": "node", "id": 6315619705, "lat": 41.9559382, "lon": -87.7083207, "tags": {"addr:city": "Chicago", "addr:housenumber": "4100", "addr:postcode": "60618", "addr:state": "IL", "addr:street": "North Kedzie Avenue", "amenity": "bar", "name": "The Kedzie Inn", "phone": "+1-773-942-6771", "website": "https://kedzieinn.com/"}}, {"type": "node", "id": 6315734235, "lat": 41.9686081, "lon": -87.7094578, "tags": {"addr:city": "Chicago", "addr:housenumber": "3222", "addr:postcode": "60625", "addr:state": "IL", "addr:street": "West Lawrence Avenue", "amenity": "cafe", "name": "Ur Cafe", "phone": "+1-773-478-3222"}}, {"type": "node", "id": 6316930531, "lat": 41.9542269, "lon": -87.7039226, "tags": {"addr:city": "Chicago", "addr:housenumber": "3014", "addr:postcode": "60618", "addr:state": "IL", "addr:street": "West Irving Park Road", "amenity": "bar", "name": "Windy City Playhouse", "phone": "+1-773-891-8985", "website": "https://windycityplayhouse.com/"}}, {"type": "node", "id": 6319069400, "lat": 41.9680943, "lon": -87.7086626, "tags": {"addr:city": "Chicago", "addr:housenumber": "4748", "addr:postcode": "60625", "addr:state": "IL", "addr:street": "North Kedzie Avenue", "amenity": "restaurant", "name": "Kabobi Grill", "phone": "+1-773-583-1400", "website": "http://www.kabobigrill.com/"}}, {"type": "node", "id": 6319918450, "lat": 41.9644999, "lon": -87.689108, "tags": {"addr:city": "Chicago", "addr:housenumber": "4544", "addr:postcode": "60625", "addr:state": "IL", "addr:street": "North Western Avenue", "amenity": "cafe", "name": "La Catedral Cafe & Restaurant", "phone": "+1-773-654-1068"}}, {"type": "node", "id": 6320578107, "lat": 41.9541577, "lon": -87.7054052, "tags": {"addr:city": "Chicago", "addr:housenumber": "3058", "addr:postcode": "60618", "addr:state": "IL", "addr:street": "West Irving Park Road", "amenity": "bar", "name": "Lizard\u2019s Liquid Lounge", "phone": "+1-773-463-7599", "website": "http://www.lizardsliquidlounge.com/"}}, {"type": "node", "id": 6320585974, "lat": 41.9687446, "lon": -87.6939674, "tags": {"addr:city": "Chicago", "addr:housenumber": "2600", "addr:postcode": "60625", "addr:state": "IL", "addr:street": "West Lawrence Avenue", "amenity": "bar", "name": "Loafers", "phone": "+1-773-275-6020"}}, {"type": "node", "id": 6322814494, "lat": 41.9682798, "lon": -87.6948315, "tags": {"addr:city": "Chicago", "addr:housenumber": "4757", "addr:postcode": "60625", "addr:state": "IL", "addr:street": "North Talman Avenue", "amenity": "restaurant", "name": "Monti\u2019s", "phone": "+1-773-942-6012", "website": "http://www.ilovemontis.com/"}}, {"type": "node", "id": 6322817723, "lat": 41.9610702, "lon": -87.7023111, "tags": {"addr:city": "Chicago", "addr:housenumber": "2933", "addr:postcode": "60618", "addr:state": "Il", "addr:street": "West Montrose Avenue", "amenity": "bar", "name": "Montrose Saloon", "phone": "+1-773-463-7663", "website": "https://www.montrosesaloon.com/"}}, {"type": "node", "id": 6323196242, "lat": 41.9669895, "lon": -87.7081576, "tags": {"addr:city": "Chicago", "addr:housenumber": "4701", "addr:postcode": "60625", "addr:state": "IL", "addr:street": "North Kedzie Avenue", "amenity": "restaurant", "name": "Noon O Kabab", "phone": "+1-773-279-8899", "website": "https://www.noonokabab.com/"}}, {"type": "node", "id": 6323811996, "lat": 41.96825, "lon": -87.7058769, "tags": {"addr:city": "Chicago", "addr:housenumber": "3057", "addr:postcode": "60625", "addr:state": "IL", "addr:street": "West Lawrence Avenue", "amenity": "bar", "name": "Oaza Restaurant", "phone": "+1-872-888-8983"}}, {"type": "node", "id": 6324000046, "lat": 41.9683705, "lon": -87.6944679, "tags": {"addr:city": "Chicago", "addr:housenumber": "2615", "addr:postcode": "60625", "addr:state": "IL", "addr:street": "West Lawrence Avenue", "amenity": "cafe", "name": "Olympic Club", "phone": "+1-773-293-1450"}}, {"type": "node", "id": 6324150054, "lat": 41.9668775, "lon": -87.6871357, "tags": {"addr:city": "Chicago", "addr:housenumber": "4703", "addr:postcode": "60625", "addr:state": "IL", "addr:street": "North Lincoln Avenue", "amenity": "cafe", "name": "Oromo Cafe", "phone": "+1-773-799-1931", "website": "http://www.oromocafechicago.com/"}}, {"type": "node", "id": 6324325182, "lat": 41.9682926, "lon": -87.6885894, "tags": {"addr:city": "Chicago", "addr:housenumber": "4757", "addr:postcode": "60625", "addr:state": "IL", "addr:street": "North Western Avenue", "amenity": "restaurant", "name": "Pannenkoeken Cafe", "phone": "+1-773-769-8800", "website": "http://www.pannenkoekencafe.com/"}}, {"type": "way", "id": 163905432, "nodes": [1755754561, 1755755021, 1755755025, 1755755105, 1755755116, 1755754568, 1755754561], "tags": {"addr:housenumber": "3234", "addr:street": "West Irving Park Road", "addr:street:name": "Irving Park", "addr:street:prefix": "West", "addr:street:type": "Road", "amenity": "restaurant", "building": "yes", "building:levels": "2", "name": "Golden Nugget"}}, {"type": "way", "id": 209464598, "nodes": [2196816832, 2196817156, 2196817161, 2196816860, 2196816858, 2196816834, 2196816832], "tags": {"addr:city": "Chicago", "addr:housenumber": "2825", "addr:postcode": "60618", "addr:state": "IL", "addr:street": "West Irving Park Road", "addr:street:name": "Irving Park", "addr:street:prefix": "West", "addr:street:type": "Road", "amenity": "bar", "building": "yes", "chicago:building_id": "153642", "name": "Pete\u2019s Place"}}, {"type": "way", "id": 209478172, "nodes": [2196877836, 2196878328, 2196877665, 2196877059, 2196877474, 2196877628, 2196877836], "tags": {"addr:city": "Chicago", "addr:housenumber": "4736-4738", "addr:postcode": "60625", "addr:state": "IL", "addr:street": "North Lincoln Avenue", "addr:street:name": "Lincoln", "addr:street:prefix": "North", "addr:street:type": "Avenue", "amenity": "cafe", "building": "yes", "chicago:building_id": "857720", "cuisine": "coffee_shop", "internet_access": "wlan", "name": "The Book Cellar", "phone": "+1-773-293-2665", "shop": "books", "website": "https://www.bookcellarinc.com/", "wheelchair": "yes"}}]}