{"version": 0.6, "generator": "Overpass API 0.7.56.1004 6cd3eaec", "osm3s": {"timestamp_osm_base": "2020-07-22T05:30:02Z", "copyright": "The data included in this document is from www.openstreetmap.org. The data is made available under ODbL."}, "elements": [{"type": "node", "id": 463772264, "lat": 41.9217238, "lon": -87.6647779, "tags": {"addr:city": "Chicago", "addr:housenumber": "2200", "addr:postcode": "60614", "addr:state": "IL", "addr:street": "North Clybourn Avenue", "amenity": "cafe", "cuisine": "coffee_shop;american", "name": "CornerStone Cafe", "phone": "+1-773-270-4343", "website": "https://www.cornerstonecafechicago.com/"}}, {"type": "node", "id": 495655717, "lat": 41.9376211, "lon": -87.6660205, "tags": {"addr:housenumber": "3045", "addr:street": "North Greenview Avenue", "amenity": "cafe", "brand": "Starbucks", "brand:wikidata": "Q37158", "brand:wikipedia": "en:Starbucks", "cuisine": "coffee_shop", "name": "Starbucks", "official_name": "Starbucks Coffee", "takeaway": "yes"}}, {"type": "node", "id": 1585419572, "lat": 41.9212374, "lon": -87.67314, "tags": {"addr:city": "Chicago", "addr:housenumber": "1809", "addr:postcode": "60614", "addr:state": "IL", "addr:street": "West Webster Avenue", "amenity": "cafe", "cuisine": "coffee_shop", "name": "Little Beans", "phone": "+1-773-251-1025", "website": "https://littlebeanscafe.com/"}}, {"type": "node", "id": 1585420540, "lat": 41.9220517, "lon": -87.6734351, "tags": {"addr:housenumber": "2222", "addr:postcode": "60614", "addr:street": "North Elston Avenue", "amenity": "restaurant", "cuisine": "sandwich", "name": "The Goddess and Grocer", "website": "http://www.goddessandgrocer.com/elston.php"}}, {"type": "node", "id": 1585423403, "lat": 41.9212295, "lon": -87.6779251, "tags": {"addr:housenumber": "2158", "addr:street": "North Damen Avenue", "amenity": "cafe", "cuisine": "coffee_shop", "name": "Bucktown Beanery", "wifi": "free"}}, {"type": "node", "id": 1585425015, "lat": 41.9250199, "lon": -87.6874251, "tags": {"addr:city": "Chicago", "addr:housenumber": "2401", "addr:postcode": "60647", "addr:street": "North Western Avenue", "amenity": "bar", "name": "Quenchers"}}, {"type": "node", "id": 2196700902, "lat": 41.9250337, "lon": -87.6882088}, {"type": "node", "id": 2196700904, "lat": 41.9250341, "lon": -87.6880416}, {"type": "node", "id": 2196701484, "lat": 41.9252423, "lon": -87.6882104}, {"type": "node", "id": 2196701487, "lat": 41.9252432, "lon": -87.688135}, {"type": "node", "id": 2196702206, "lat": 41.9254038, "lon": -87.6881371}, {"type": "node", "id": 2196702217, "lat": 41.9254046, "lon": -87.688047}, {"type": "node", "id": 2196706116, "lat": 41.9257969, "lon": -87.6882581}, {"type": "node", "id": 2196706176, "lat": 41.925807, "lon": -87.6878611}, {"type": "node", "id": 2196706393, "lat": 41.9258614, "lon": -87.6882611}, {"type": "node", "id": 2196706420, "lat": 41.9258701, "lon": -87.6878641}, {"type": "node", "id": 2196751322, "lat": 41.9379343, "lon": -87.6857706}, {"type": "node", "id": 2196751467, "lat": 41.9379874, "lon": -87.6857021}, {"type": "node", "id": 2196751525, "lat": 41.938002, "lon": -87.6858673}, {"type": "node", "id": 2196751704, "lat": 41.9380552, "lon": -87.685797}, {"type": "node", "id": 2200342512, "lat": 41.9248385, "lon": -87.6640738}, {"type": "node", "id": 2200342513, "lat": 41.9248405, "lon": -87.6639918}, {"type": "node", "id": 2200342626, "lat": 41.9248526, "lon": -87.6641558}, {"type": "node", "id": 2200342628, "lat": 41.9248537, "lon": -87.6640849}, {"type": "node", "id": 2200342663, "lat": 41.9250315, "lon": -87.6640901}, {"type": "node", "id": 2200342664, "lat": 41.9250329, "lon": -87.6640901}, {"type": "node", "id": 2200342676, "lat": 41.9250497, "lon": -87.6641561}, {"type": "node", "id": 2200342678, "lat": 41.9250498, "lon": -87.664169}, {"type": "node", "id": 2200342680, "lat": 41.9251254, "lon": -87.6640834}, {"type": "node", "id": 2200342682, "lat": 41.9251254, "lon": -87.6639971}, {"type": "node", "id": 2200342730, "lat": 41.9251129, "lon": -87.664172}, {"type": "node", "id": 2200342732, "lat": 41.9251152, "lon": -87.6640948}, {"type": "node", "id": 2200343250, "lat": 41.9257322, "lon": -87.668746}, {"type": "node", "id": 2200343251, "lat": 41.925733, "lon": -87.6686339}, {"type": "node", "id": 2200343272, "lat": 41.9257412, "lon": -87.6686338}, {"type": "node", "id": 2200343276, "lat": 41.925745, "lon": -87.6683509}, {"type": "node", "id": 2200343368, "lat": 41.9257995, "lon": -87.668749}, {"type": "node", "id": 2200343378, "lat": 41.925804, "lon": -87.6683521}, {"type": "node", "id": 2200344091, "lat": 41.9260067, "lon": -87.6687597}, {"type": "node", "id": 2200344094, "lat": 41.9260088, "lon": -87.6686403}, {"type": "node", "id": 2200344103, "lat": 41.9260117, "lon": -87.6684344}, {"type": "node", "id": 2200344106, "lat": 41.9260127, "lon": -87.6683609}, {"type": "node", "id": 2200344121, "lat": 41.9260156, "lon": -87.6686402}, {"type": "node", "id": 2200344140, "lat": 41.9260186, "lon": -87.6684344}, {"type": "node", "id": 2200344284, "lat": 41.9260712, "lon": -87.6687609}, {"type": "node", "id": 2200344309, "lat": 41.9260772, "lon": -87.6683621}, {"type": "node", "id": 2200366030, "lat": 41.9329518, "lon": -87.6641628}, {"type": "node", "id": 2200366044, "lat": 41.9329587, "lon": -87.6637242}, {"type": "node", "id": 2200366395, "lat": 41.933012, "lon": -87.6641645}, {"type": "node", "id": 2200366402, "lat": 41.933019, "lon": -87.663726}, {"type": "node", "id": 2200369775, "lat": 41.9343189, "lon": -87.6682783}, {"type": "node", "id": 2200369788, "lat": 41.934323, "lon": -87.6680339}, {"type": "node", "id": 2200369846, "lat": 41.9343503, "lon": -87.6680042}, {"type": "node", "id": 2200369850, "lat": 41.9343505, "lon": -87.6680354}, {"type": "node", "id": 2200370017, "lat": 41.9343903, "lon": -87.6682813}, {"type": "node", "id": 2200370036, "lat": 41.9343942, "lon": -87.6680056}, {"type": "node", "id": 2200375034, "lat": 41.9361355, "lon": -87.6682595}, {"type": "node", "id": 2200375035, "lat": 41.9361356, "lon": -87.6682833}, {"type": "node", "id": 2200375051, "lat": 41.9361415, "lon": -87.6683494}, {"type": "node", "id": 2200375055, "lat": 41.9361423, "lon": -87.6682484}, {"type": "node", "id": 2200375056, "lat": 41.9361426, "lon": -87.6682943}, {"type": "node", "id": 2200375058, "lat": 41.9361475, "lon": -87.6679543}, {"type": "node", "id": 2200375143, "lat": 41.9361938, "lon": -87.664126}, {"type": "node", "id": 2200375144, "lat": 41.936194, "lon": -87.6641535}, {"type": "node", "id": 2200375147, "lat": 41.9361955, "lon": -87.664646}, {"type": "node", "id": 2200375151, "lat": 41.9361974, "lon": -87.6640304}, {"type": "node", "id": 2200375152, "lat": 41.9361975, "lon": -87.6640451}, {"type": "node", "id": 2200375154, "lat": 41.9361976, "lon": -87.6643042}, {"type": "node", "id": 2200375165, "lat": 41.9362006, "lon": -87.6641167}, {"type": "node", "id": 2200375167, "lat": 41.9362009, "lon": -87.6641627}, {"type": "node", "id": 2200375169, "lat": 41.9362014, "lon": -87.6640193}, {"type": "node", "id": 2200375170, "lat": 41.9362016, "lon": -87.6640542}, {"type": "node", "id": 2200375176, "lat": 41.9362035, "lon": -87.6643354}, {"type": "node", "id": 2200375179, "lat": 41.9362045, "lon": -87.6643041}, {"type": "node", "id": 2200375183, "lat": 41.936206, "lon": -87.6683506}, {"type": "node", "id": 2200375192, "lat": 41.9362096, "lon": -87.6640137}, {"type": "node", "id": 2200375200, "lat": 41.936212, "lon": -87.6679573}, {"type": "node", "id": 2200375224, "lat": 41.9362178, "lon": -87.6640118}, {"type": "node", "id": 2200375246, "lat": 41.9362261, "lon": -87.6640135}, {"type": "node", "id": 2200375257, "lat": 41.9362302, "lon": -87.6640172}, {"type": "node", "id": 2200375268, "lat": 41.9362344, "lon": -87.6640245}, {"type": "node", "id": 2200375269, "lat": 41.9362344, "lon": -87.6640355}, {"type": "node", "id": 2200375272, "lat": 41.9362354, "lon": -87.6643365}, {"type": "node", "id": 2200375315, "lat": 41.9362442, "lon": -87.6647131}, {"type": "node", "id": 2200375475, "lat": 41.9362842, "lon": -87.6642816}, {"type": "node", "id": 2200375703, "lat": 41.9363444, "lon": -87.6642042}, {"type": "node", "id": 2200375720, "lat": 41.9363501, "lon": -87.6641967}, {"type": "node", "id": 2200376304, "lat": 41.9364942, "lon": -87.664397}, {"type": "node", "id": 3572612797, "lat": 41.9250761, "lon": -87.6878723, "tags": {"amenity": "restaurant", "name": "Fullerton Restaurant", "opening_hours": "Mo-Su 05:30-16:00"}}, {"type": "node", "id": 3572965495, "lat": 41.930495, "lon": -87.6884158}, {"type": "node", "id": 3572965496, "lat": 41.9304414, "lon": -87.6884153}, {"type": "node", "id": 3572965497, "lat": 41.9304429, "lon": -87.6880311}, {"type": "node", "id": 3572965498, "lat": 41.9305022, "lon": -87.6880326}, {"type": "node", "id": 3575150419, "lat": 41.9227343, "lon": -87.6873596, "tags": {"amenity": "restaurant", "cuisine": "mexican", "name": "Quesadilla la Reyna del Sur"}}, {"type": "node", "id": 3575150420, "lat": 41.9226026, "lon": -87.6877914, "tags": {"amenity": "restaurant", "cuisine": "mexican", "name": "Birrieria Estilo Jalisco"}}, {"type": "node", "id": 3575152789, "lat": 41.9222677, "lon": -87.6877992, "tags": {"addr:city": "Chicago", "addr:housenumber": "2218", "addr:postcode": "60647", "addr:state": "IL", "addr:street": "North Western Avenue", "amenity": "bar", "name": "Tap Room", "phone": "+1-773-489-3622"}}, {"type": "node", "id": 3617756790, "lat": 41.921758, "lon": -87.6643563, "tags": {"amenity": "bar", "name": "The Drinkingbird"}}, {"type": "node", "id": 3660922643, "lat": 41.9252887, "lon": -87.6678214, "tags": {"amenity": "cafe", "name": "Nada Tea & Coffee"}}, {"type": "node", "id": 3660929434, "lat": 41.9249859, "lon": -87.6706571, "tags": {"addr:city": "Chicago", "addr:housenumber": "1665", "addr:street": "West Fullerton Avenue", "amenity": "bar", "name": "Liars Club", "opening_hours": "Su-Fr 20:00-04:00; Sa 20:00-03:00", "phone": "+1-773-665-1110"}}, {"type": "node", "id": 3660929470, "lat": 41.9250279, "lon": -87.687063, "tags": {"addr:city": "Chicago", "addr:housenumber": "2346", "addr:postcode": "60647", "addr:state": "IL", "addr:street": "West Fullerton Avenue", "amenity": "restaurant", "name": "Estrella Negra", "phone": "+1-773-227-5993", "website": "http://estrellanegra.com/"}}, {"type": "node", "id": 3660929473, "lat": 41.9257822, "lon": -87.6874761, "tags": {"amenity": "restaurant", "name": "Sonny's Pizza"}}, {"type": "node", "id": 3791781401, "lat": 41.9212458, "lon": -87.6745362}, {"type": "node", "id": 3791781402, "lat": 41.9212687, "lon": -87.6745054}, {"type": "node", "id": 3791781403, "lat": 41.9213604, "lon": -87.6745054}, {"type": "node", "id": 3791781404, "lat": 41.9213833, "lon": -87.6735657}, {"type": "node", "id": 3791781405, "lat": 41.9209615, "lon": -87.6735626}, {"type": "node", "id": 3791781406, "lat": 41.9209615, "lon": -87.6736334}, {"type": "node", "id": 3791781407, "lat": 41.9209088, "lon": -87.6736797}, {"type": "node", "id": 3791781408, "lat": 41.9208881, "lon": -87.6736396}, {"type": "node", "id": 3791781409, "lat": 41.9207941, "lon": -87.6737351}, {"type": "node", "id": 3863354249, "lat": 41.931905, "lon": -87.6876711, "tags": {"addr:city": "Chicago", "addr:housenumber": "2753", "addr:postcode": "60618", "addr:state": "IL", "addr:street": "North Western Avenue", "amenity": "cafe", "name": "CornerStone Cafe", "phone": "+1-773-235-1155", "website": "http://chicagocornerstonecafe.com/"}}, {"type": "node", "id": 3863402374, "lat": 41.9310911, "lon": -87.6850726, "tags": {"amenity": "restaurant", "brand": "Pei Wei", "brand:wikidata": "Q7160898", "brand:wikipedia": "en:Pei Wei Asian Diner", "cuisine": "asian", "name": "Pei Wei"}}, {"type": "node", "id": 3863476802, "lat": 41.9215071, "lon": -87.6788359, "tags": {"addr:city": "Chicago", "addr:housenumber": "2026", "addr:postcode": "60647", "addr:state": "IL", "addr:street": "West Webster Avenue", "amenity": "bar", "name": "Burke\u2019s Web Pub", "phone": "+1-773-276-3411"}}, {"type": "node", "id": 3863476803, "lat": 41.9220332, "lon": -87.6828391, "tags": {"addr:city": "Chicago", "addr:housenumber": "2224", "addr:postcode": "60647", "addr:state": "IL", "addr:street": "North Leavitt Street", "amenity": "bar", "name": "The Corner Bar", "website": "http://cornerbarchicago.com/"}}, {"type": "node", "id": 3883912233, "lat": 41.9219437, "lon": -87.664624, "tags": {"amenity": "restaurant", "cuisine": "italian", "name": "Filippos Ristorante"}}, {"type": "node", "id": 3883912234, "lat": 41.9217988, "lon": -87.6644169, "tags": {"amenity": "restaurant", "cuisine": "thai", "name": "Rice Cafe"}}, {"type": "node", "id": 4049483564, "lat": 41.9368582, "lon": -87.6650564, "tags": {"amenity": "restaurant", "cuisine": "american", "level": "0", "name": "Grand River"}}, {"type": "node", "id": 5092756819, "lat": 41.925504, "lon": -87.6723414, "tags": {"amenity": "cafe", "brand": "Starbucks", "brand:wikidata": "Q37158", "brand:wikipedia": "en:Starbucks", "cuisine": "coffee_shop", "name": "Starbucks", "official_name": "Starbucks Coffee", "takeaway": "yes"}}, {"type": "node", "id": 6263471199, "lat": 41.9286184, "lon": -87.6715995, "tags": {"addr:city": "Chicago", "addr:housenumber": "1721", "addr:postcode": "60614", "addr:state": "IL", "addr:street": "West Wrightwood Avenue", "amenity": "bar", "name": "Augie\u2019s", "phone": "+1-773-296-0018", "website": "http://augiesbooze.homestead.com/"}}, {"type": "node", "id": 6265680688, "lat": 41.9217939, "lon": -87.6643172, "tags": {"addr:city": "Chicago", "addr:housenumber": "2201", "addr:postcode": "60614", "addr:state": "IL", "addr:street": "North Clybourn Avenue", "amenity": "restaurant", "name": "Beck\u2019s Chicago", "phone": "+1-773-661-1573", "website": "https://beckschicago.com/"}}, {"type": "node", "id": 6270078272, "lat": 41.9253339, "lon": -87.6667824, "tags": {"addr:city": "Chicago", "addr:housenumber": "1524", "addr:postcode": "60614", "addr:state": "IL", "addr:street": "West Fullerton Avenue", "amenity": "restaurant", "name": "Cairo Kebab", "phone": "+1-773-687-8413"}}, {"type": "node", "id": 6282433414, "lat": 41.9385233, "lon": -87.6675367, "tags": {"addr:city": "Chicago", "addr:housenumber": "3134", "addr:postcode": "60657", "addr:state": "IL", "addr:street": "North Lincoln Avenue", "amenity": "cafe", "cuisine": "coffee_shop", "name": "Chicago Diplomat Cafe", "phone": "+1-773-262-2722", "website": "https://chicago-diplomat-cafe.business.site/"}}, {"type": "node", "id": 6282647776, "lat": 41.925444, "lon": -87.6792724, "tags": {"addr:city": "Chicago", "addr:housenumber": "2444", "addr:postcode": "60647", "addr:state": "IL", "addr:street": "North Elston Avenue", "amenity": "cafe", "name": "Chromium", "phone": "+1-773-235-2300", "website": "https://www.midtown.com/chicago"}}, {"type": "node", "id": 6283178216, "lat": 41.938034, "lon": -87.6709073, "tags": {"addr:city": "Chicago", "addr:housenumber": "1658", "addr:postcode": "60657", "addr:state": "IL", "addr:street": "West Barry Avenue", "amenity": "bar", "name": "Cody\u2019s Public House", "phone": "+1-773-528-4050"}}, {"type": "node", "id": 6284426181, "lat": 41.9217431, "lon": -87.6651378, "tags": {"addr:city": "Chicago", "addr:housenumber": "1450", "addr:postcode": "60614", "addr:state": "IL", "addr:street": "West Webster Avenue", "amenity": "restaurant", "name": "Devour 312", "phone": "+1-773-360-7312", "website": "https://www.devour312.com/"}}, {"type": "node", "id": 6284478880, "lat": 41.921811, "lon": -87.666291, "tags": {"addr:city": "Chicago", "addr:housenumber": "1480", "addr:postcode": "60614", "addr:state": "IL", "addr:street": "West Webster Avenue", "amenity": "bar", "name": "Distilled Chicago", "phone": "+1-773-770-3703", "website": "http://distilledchicago.com/"}}, {"type": "node", "id": 6291153865, "lat": 41.9322813, "lon": -87.6687371, "tags": {"addr:city": "Chicago", "addr:housenumber": "2758", "addr:postcode": "60657", "addr:state": "IL", "addr:street": "North Ashland Avenue", "amenity": "bar", "name": "Four Shadows", "phone": "+1-773-248-9160", "website": "http://fourshadows.net/"}}, {"type": "node", "id": 6292131019, "lat": 41.9250291, "lon": -87.6640426, "tags": {"addr:city": "Chicago", "addr:housenumber": "1417", "addr:postcode": "60614", "addr:state": "IL", "addr:street": "West Fullerton Avenue", "amenity": "restaurant", "name": "Grand Trunk Road", "phone": "+1-773-857-1269", "website": "https://www.grandtrunkroad.co/"}}, {"type": "node", "id": 6297566248, "lat": 41.9362512, "lon": -87.6641824, "tags": {"addr:city": "Chicago", "addr:housenumber": "3000", "addr:postcode": "60657", "addr:state": "IL", "addr:street": "North Lincoln Avenue", "amenity": "restaurant", "name": "Sam & George\u2019s", "phone": "+1-773-935-4025", "website": "http://www.sandg-chicago.com/"}}, {"type": "node", "id": 6297644135, "lat": 41.9250705, "lon": -87.6650212, "tags": {"addr:city": "Chicago", "addr:housenumber": "1443", "addr:postcode": "60614", "addr:state": "IL", "addr:street": "West Fullerton Avenue", "amenity": "restaurant", "name": "Jumbo Crab"}}, {"type": "node", "id": 6297827190, "lat": 41.9344543, "lon": -87.6658815, "tags": {"addr:city": "Chicago", "addr:housenumber": "1456", "addr:postcode": "60657", "addr:state": "IL", "addr:street": "West George Street", "amenity": "bar", "name": "Side Street Saloon", "phone": "+1-773-327-1127"}}, {"type": "node", "id": 6300393195, "lat": 41.9219536, "lon": -87.6643402, "tags": {"addr:city": "Chicago", "addr:housenumber": "2207", "addr:postcode": "60614", "addr:state": "IL", "addr:street": "North Clybourn Avenue", "amenity": "restaurant", "cuisine": "pizza", "name": "Pequod\u2019s Pizzeria", "outdoor_seating": "yes", "phone": "+1-773-327-1512", "website": "https://pequodspizza.com"}}, {"type": "node", "id": 6300841827, "lat": 41.9226924, "lon": -87.6878062, "tags": {"addr:city": "Chicago", "addr:housenumber": "2234", "addr:postcode": "60647", "addr:state": "IL", "addr:street": "North Western Avenue", "amenity": "restaurant", "cuisine": "mexican", "name": "Restaurante El Comalito", "phone": "+1-773-666-5558"}}, {"type": "node", "id": 6304074588, "lat": 41.9371009, "lon": -87.6681753, "tags": {"addr:city": "Chicago", "addr:housenumber": "3033", "addr:postcode": "60657", "addr:state": "IL", "addr:street": "North Ashland Avenue", "amenity": "restaurant", "name": "The Art of Pizza", "phone": "+1-773-327-5600", "website": "http://www.artofpizzachicago.com/"}}, {"type": "node", "id": 6304238326, "lat": 41.9250423, "lon": -87.664123, "tags": {"addr:city": "Chicago", "addr:housenumber": "1419", "addr:postcode": "60614", "addr:state": "IL", "addr:street": "West Fullerton Avenue", "amenity": "bar", "name": "The Warehouse Bar & Pizzeria Chicago", "phone": "+1-(773) 661-6454", "website": "https://www.thewarehousechicago.com/"}}, {"type": "node", "id": 6306494893, "lat": 41.9210516, "lon": -87.6779871, "tags": {"addr:city": "Chicago", "addr:housenumber": "2152", "addr:postcode": "60647", "addr:state": "IL", "addr:street": "North Damen Avenue", "amenity": "restaurant", "name": "The Bristol", "phone": "+1-773-862-5555", "website": "http://www.thebristolchicago.com/"}}, {"type": "node", "id": 6306915776, "lat": 41.9343553, "lon": -87.6681643, "tags": {"addr:city": "Chicago", "addr:housenumber": "2901", "addr:postcode": "60657", "addr:state": "IL", "addr:street": "North Ashland Avenue", "amenity": "restaurant", "name": "Tutto Fresco", "phone": "+1-773-661-9009", "website": "http://www.tuttofrescochicago.com/"}}, {"type": "node", "id": 6315632339, "lat": 41.9367992, "lon": -87.6649701, "tags": {"addr:city": "Chicago", "addr:housenumber": "3032", "addr:postcode": "60657", "addr:state": "IL", "addr:street": "North Lincoln Avenue", "amenity": "bar", "name": "The Land on Lincoln", "phone": "+1-872-802-0111", "website": "https://www.thelandonlincoln.com/"}}, {"type": "node", "id": 6316843887, "lat": 41.9220253, "lon": -87.6645086, "tags": {"addr:city": "Chicago", "addr:housenumber": "2211", "addr:postcode": "60614", "addr:state": "IL", "addr:street": "North Clybourn Avenue", "amenity": "bar", "name": "Whale Tale", "phone": "+1-773-528-2211", "website": "https://www.whaletalechicago.com/"}}, {"type": "node", "id": 6318428983, "lat": 41.9363406, "lon": -87.6643657, "tags": {"addr:city": "Chicago", "addr:housenumber": "3010", "addr:postcode": "60657", "addr:state": "IL", "addr:street": "North Lincoln Avenue", "amenity": "bar", "name": "Lincoln Tap Room", "phone": "+1-773-868-0060", "website": "https://www.lincolntaproom.com/"}}, {"type": "node", "id": 6319245707, "lat": 41.9218751, "lon": -87.665271, "tags": {"addr:city": "Chicago", "addr:housenumber": "2212", "addr:postcode": "60614", "addr:state": "IL", "addr:street": "North Clybourn Avenue", "amenity": "bar", "name": "Kibbitznest Books, Brews & Blarney", "phone": "+1-773-360-7591", "website": "http://www.kibbitznest.com/"}}, {"type": "node", "id": 6324263888, "lat": 41.9231811, "lon": -87.6879259, "tags": {"addr:city": "Chicago", "addr:housenumber": "2252", "addr:postcode": "60647", "addr:state": "IL", "addr:street": "North Western Avenue", "amenity": "restaurant", "cuisine": "cuban", "name": "Paladar", "phone": "+1-773-252-4747", "website": "http://paladarchicago.com/"}}, {"type": "node", "id": 6325945247, "lat": 41.9207648, "lon": -87.6691269, "tags": {"addr:city": "Chicago", "addr:housenumber": "2112", "addr:postcode": "60614", "addr:state": "IL", "addr:street": "North Ashland Avenue", "amenity": "cafe", "name": "Vero Coffee & Gelato", "phone": "+1-773-342-6585", "website": "https://verocoffeeandgelato.com/"}}, {"type": "node", "id": 7182570708, "lat": 41.9325338, "lon": -87.6789663, "tags": {"addr:city": "Chicago", "addr:housenumber": "2000", "addr:postcode": "60614", "addr:state": "IL", "addr:street": "West Diversey Parkway", "amenity": "cafe", "name": "Hexe Coffee Co.", "website": "https://www.hexecoffee.com"}}, {"type": "node", "id": 7411640772, "lat": 41.9212534, "lon": -87.6731346, "tags": {"amenity": "cafe", "name": "Little Beans Cafe & Playspace"}}, {"type": "way", "id": 209454070, "nodes": [2196700902, 2196701484, 2196701487, 2196702206, 2196702217, 2196700904, 2196700902], "tags": {"addr:housenumber": "2410", "addr:street": "West Fullerton Avenue", "addr:street:name": "Fullerton", "addr:street:prefix": "West", "addr:street:type": "Avenue", "amenity": "bar", "building": "yes", "building:levels": "2", "chicago:building_id": "262840", "name": "Logan Arcade"}}, {"type": "way", "id": 209454230, "nodes": [2196706116, 2196706393, 2196706420, 2196706176, 2196706116], "tags": {"addr:housenumber": "2428", "addr:street": "North Western Avenue", "addr:street:name": "Western", "addr:street:prefix": "North", "addr:street:type": "Avenue", "amenity": "bar", "building": "yes", "building:levels": "1", "chicago:building_id": "261401", "name": "The Mutiny"}}, {"type": "way", "id": 209457311, "nodes": [2196751322, 2196751525, 2196751704, 2196751467, 2196751322], "tags": {"addr:city": "Chicago", "addr:housenumber": "3101", "addr:postcode": "60618", "addr:state": "IL", "addr:street": "North Clybourn Avenue", "addr:street:name": "Clybourn", "addr:street:prefix": "North", "addr:street:type": "Avenue", "amenity": "restaurant", "building": "yes", "building:levels": "1", "chicago:building_id": "217146", "cuisine": "Cuban", "name": "90 Miles"}}, {"type": "way", "id": 209880419, "nodes": [2200342680, 2200342682, 2200342513, 2200342512, 2200342680], "tags": {"addr:housenumber": "1417", "addr:street": "West Fullerton Avenue", "addr:street:name": "Fullerton", "addr:street:prefix": "West", "addr:street:type": "Avenue", "amenity": "restaurant", "building": "yes", "chicago:building_id": "850942", "name": "Knife & Tine"}}, {"type": "way", "id": 209880429, "nodes": [2200342626, 2200342676, 2200342678, 2200342730, 2200342732, 2200342664, 2200342663, 2200342628, 2200342626], "tags": {"addr:housenumber": "1419", "addr:street": "West Fullerton Avenue", "addr:street:name": "Fullerton", "addr:street:prefix": "West", "addr:street:type": "Avenue", "amenity": "restaurant", "building": "yes", "building:levels": "1", "chicago:building_id": "263304", "name": "Warehouse"}}, {"type": "way", "id": 209882840, "nodes": [2200343250, 2200343368, 2200343378, 2200343276, 2200343272, 2200343251, 2200343250], "tags": {"addr:housenumber": "2418", "addr:postcode": "60614", "addr:street": "North Ashland Avenue", "addr:street:name": "Ashland", "addr:street:prefix": "North", "addr:street:type": "Avenue", "amenity": "restaurant", "building": "yes", "building:levels": "1", "chicago:building_id": "261255", "name": "The Squared Circle"}}, {"type": "way", "id": 209882878, "nodes": [2200344091, 2200344284, 2200344309, 2200344106, 2200344103, 2200344140, 2200344121, 2200344094, 2200344091], "tags": {"addr:city": "Chicago", "addr:housenumber": "2428", "addr:postcode": "60614", "addr:state": "IL", "addr:street": "North Ashland Avenue", "addr:street:name": "Ashland", "addr:street:prefix": "North", "addr:street:type": "Avenue", "amenity": "restaurant", "building": "yes", "building:levels": "2", "chicago:building_id": "260281", "name": "Asian Cajun", "phone": "+1-773-828-5642", "website": "https://asiancajunrestaurant.com/"}}, {"type": "way", "id": 209884980, "nodes": [2200366030, 2200366395, 2200366402, 2200366044, 2200366030], "tags": {"addr:housenumber": "2814", "addr:street": "North Southport Avenue", "addr:street:name": "Southport", "addr:street:prefix": "North", "addr:street:type": "Avenue", "amenity": "restaurant", "building": "yes", "building:levels": "2", "chicago:building_id": "238031", "cuisine": "mexican", "name": "Que Rico"}}, {"type": "way", "id": 209885154, "nodes": [2200369775, 2200370017, 2200370036, 2200369846, 2200369850, 2200369788, 2200369775], "tags": {"addr:housenumber": "2901", "addr:street": "North Ashland Avenue", "addr:street:name": "Ashland", "addr:street:prefix": "North", "addr:street:type": "Avenue", "amenity": "restaurant", "building": "yes", "building:levels": "1", "chicago:building_id": "232184", "cuisine": "latin", "name": "Flo", "opening_hours": "Tu-Fr 17:00-22:00; Sa 09:00-23:00; Su 09:00-15:00; PH off", "outdoor_seating": "no", "smoking": "no"}}, {"type": "way", "id": 209885452, "nodes": [2200375176, 2200375272, 2200375475, 2200375703, 2200375720, 2200375269, 2200375268, 2200375257, 2200375246, 2200375224, 2200375192, 2200375169, 2200375151, 2200375152, 2200375170, 2200375165, 2200375143, 2200375144, 2200375167, 2200375154, 2200375179, 2200375176], "tags": {"addr:housenumber": "3000-3004", "addr:street": "North Lincoln Avenue", "addr:street:name": "Lincoln", "addr:street:prefix": "North", "addr:street:type": "Avenue", "amenity": "restaurant", "building": "yes", "building:levels": "3", "chicago:building_id": "853921", "cuisine": "american", "level": "0", "name": "S&G Restaurant"}}, {"type": "way", "id": 209885453, "nodes": [2200375034, 2200375035, 2200375056, 2200375051, 2200375183, 2200375200, 2200375058, 2200375055, 2200375034], "tags": {"addr:city": "Chicago", "addr:housenumber": "3001", "addr:postcode": "60657", "addr:state": "IL", "addr:street": "North Ashland Avenue", "addr:street:name": "Ashland", "addr:street:prefix": "North", "addr:street:type": "Avenue", "amenity": "restaurant", "building": "yes", "building:levels": "2", "chicago:building_id": "224618", "name": "Breakfast House", "phone": "+1-773-666-5522", "website": "http://www.breakfast-house.com/index.html"}}, {"type": "way", "id": 209885467, "nodes": [2200375720, 2200375703, 2200375475, 2200375272, 2200375176, 2200375147, 2200375315, 2200376304, 2200375720], "tags": {"addr:housenumber": "3008-3012", "addr:street": "North Lincoln Avenue", "addr:street:name": "Lincoln", "addr:street:prefix": "North", "addr:street:type": "Avenue", "amenity": "restaurant", "building": "yes", "building:levels": "2", "chicago:building_id": "882783"}}, {"type": "way", "id": 351505403, "nodes": [3572965495, 3572965496, 3572965497, 3572965498, 3572965495], "tags": {"addr:city": "Chicago", "addr:housenumber": "2700", "addr:postcode": "60647", "addr:state": "IL", "addr:street": "North Western Avenue", "amenity": "restaurant", "building": "yes", "cuisine": "british", "name": "Owen & Engine", "phone": "+1-773-235-2930", "website": "https://www.owenandengine.com"}}, {"type": "way", "id": 375835721, "nodes": [3791781401, 3791781402, 3791781403, 3791781404, 3791781405, 3791781406, 3791781407, 3791781408, 3791781409, 3791781401], "tags": {"amenity": "bar", "building": "yes", "building:levels": "2", "name": "WhirlyBall"}}]}