{"version": 0.6, "generator": "Overpass API 0.7.56.3 eb200aeb", "osm3s": {"timestamp_osm_base": "2020-07-04T02:38:02Z", "copyright": "The data included in this document is from www.openstreetmap.org. The data is made available under ODbL."}, "elements": [{"type": "node", "id": 347433861, "lat": 41.9305296, "lon": -87.6612825, "tags": {"amenity": "pub", "name": "Rocks Lincoln Park"}}, {"type": "node", "id": 369593953, "lat": 41.927166, "lon": -87.6636019, "tags": {"amenity": "pub", "name": "Bird's Nest", "smoking": "no"}}, {"type": "node", "id": 495655712, "lat": 41.9359674, "lon": -87.6632892, "tags": {"addr:housenumber": "2971", "addr:street": "North Lincoln Avenue", "amenity": "restaurant", "name": "Golden Apple", "phone": "773-528-1413"}}, {"type": "node", "id": 495655717, "lat": 41.9376211, "lon": -87.6660205, "tags": {"addr:housenumber": "3045", "addr:street": "North Greenview Avenue", "amenity": "cafe", "brand": "Starbucks", "brand:wikidata": "Q37158", "brand:wikipedia": "en:Starbucks", "cuisine": "coffee_shop", "name": "Starbucks", "official_name": "Starbucks Coffee", "takeaway": "yes"}}, {"type": "node", "id": 2167184271, "lat": 41.9278273, "lon": -87.6636143, "tags": {"addr:city": "Chicago", "addr:housenumber": "2524", "addr:postcode": "60614", "addr:street": "North Southport Avenue", "amenity": "restaurant", "name": "The Monkey's Paw", "smoking": "no"}}, {"type": "node", "id": 2200366030, "lat": 41.9329518, "lon": -87.6641628}, {"type": "node", "id": 2200366044, "lat": 41.9329587, "lon": -87.6637242}, {"type": "node", "id": 2200366395, "lat": 41.933012, "lon": -87.6641645}, {"type": "node", "id": 2200366402, "lat": 41.933019, "lon": -87.663726}, {"type": "node", "id": 2200369775, "lat": 41.9343189, "lon": -87.6682783}, {"type": "node", "id": 2200369788, "lat": 41.934323, "lon": -87.6680339}, {"type": "node", "id": 2200369846, "lat": 41.9343503, "lon": -87.6680042}, {"type": "node", "id": 2200369850, "lat": 41.9343505, "lon": -87.6680354}, {"type": "node", "id": 2200370017, "lat": 41.9343903, "lon": -87.6682813}, {"type": "node", "id": 2200370036, "lat": 41.9343942, "lon": -87.6680056}, {"type": "node", "id": 2200375034, "lat": 41.9361355, "lon": -87.6682595}, {"type": "node", "id": 2200375035, "lat": 41.9361356, "lon": -87.6682833}, {"type": "node", "id": 2200375051, "lat": 41.9361415, "lon": -87.6683494}, {"type": "node", "id": 2200375055, "lat": 41.9361423, "lon": -87.6682484}, {"type": "node", "id": 2200375056, "lat": 41.9361426, "lon": -87.6682943}, {"type": "node", "id": 2200375058, "lat": 41.9361475, "lon": -87.6679543}, {"type": "node", "id": 2200375143, "lat": 41.9361938, "lon": -87.664126}, {"type": "node", "id": 2200375144, "lat": 41.936194, "lon": -87.6641535}, {"type": "node", "id": 2200375147, "lat": 41.9361955, "lon": -87.664646}, {"type": "node", "id": 2200375151, "lat": 41.9361974, "lon": -87.6640304}, {"type": "node", "id": 2200375152, "lat": 41.9361975, "lon": -87.6640451}, {"type": "node", "id": 2200375154, "lat": 41.9361976, "lon": -87.6643042}, {"type": "node", "id": 2200375165, "lat": 41.9362006, "lon": -87.6641167}, {"type": "node", "id": 2200375167, "lat": 41.9362009, "lon": -87.6641627}, {"type": "node", "id": 2200375169, "lat": 41.9362014, "lon": -87.6640193}, {"type": "node", "id": 2200375170, "lat": 41.9362016, "lon": -87.6640542}, {"type": "node", "id": 2200375176, "lat": 41.9362035, "lon": -87.6643354}, {"type": "node", "id": 2200375179, "lat": 41.9362045, "lon": -87.6643041}, {"type": "node", "id": 2200375183, "lat": 41.936206, "lon": -87.6683506}, {"type": "node", "id": 2200375192, "lat": 41.9362096, "lon": -87.6640137}, {"type": "node", "id": 2200375200, "lat": 41.936212, "lon": -87.6679573}, {"type": "node", "id": 2200375224, "lat": 41.9362178, "lon": -87.6640118}, {"type": "node", "id": 2200375246, "lat": 41.9362261, "lon": -87.6640135}, {"type": "node", "id": 2200375257, "lat": 41.9362302, "lon": -87.6640172}, {"type": "node", "id": 2200375268, "lat": 41.9362344, "lon": -87.6640245}, {"type": "node", "id": 2200375269, "lat": 41.9362344, "lon": -87.6640355}, {"type": "node", "id": 2200375272, "lat": 41.9362354, "lon": -87.6643365}, {"type": "node", "id": 2200375315, "lat": 41.9362442, "lon": -87.6647131}, {"type": "node", "id": 2200375475, "lat": 41.9362842, "lon": -87.6642816}, {"type": "node", "id": 2200375703, "lat": 41.9363444, "lon": -87.6642042}, {"type": "node", "id": 2200375720, "lat": 41.9363501, "lon": -87.6641967}, {"type": "node", "id": 2200376304, "lat": 41.9364942, "lon": -87.664397}, {"type": "node", "id": 2200391982, "lat": 41.9393322, "lon": -87.6782272}, {"type": "node", "id": 2200391984, "lat": 41.9393333, "lon": -87.6781739}, {"type": "node", "id": 2200391989, "lat": 41.9393344, "lon": -87.6781409}, {"type": "node", "id": 2200392508, "lat": 41.9394845, "lon": -87.678233}, {"type": "node", "id": 2200392513, "lat": 41.9394854, "lon": -87.6781467}, {"type": "node", "id": 2200392514, "lat": 41.9394856, "lon": -87.6781724}, {"type": "node", "id": 2200517049, "lat": 41.9408113, "lon": -87.6698575}, {"type": "node", "id": 2200517060, "lat": 41.9408122, "lon": -87.6697748}, {"type": "node", "id": 2200517417, "lat": 41.9408416, "lon": -87.6698811}, {"type": "node", "id": 2200517588, "lat": 41.9408703, "lon": -87.6696235}, {"type": "node", "id": 2200518044, "lat": 41.9409295, "lon": -87.6696615}, {"type": "node", "id": 2204083841, "lat": 41.936266, "lon": -87.6614478}, {"type": "node", "id": 2204083850, "lat": 41.9362696, "lon": -87.6613613}, {"type": "node", "id": 2204084385, "lat": 41.9364417, "lon": -87.6614569}, {"type": "node", "id": 2204084390, "lat": 41.9364439, "lon": -87.6613687}, {"type": "node", "id": 2933401201, "lat": 41.9399274, "lon": -87.6612013, "tags": {"addr:city": "Chicago", "addr:housenumber": "1258", "addr:postcode": "60657", "addr:state": "IL", "addr:street": "West Belmont Avenue", "amenity": "restaurant", "delivery": "no", "name": "Fahlstrom's Fresh Fish Market", "opening_hours": "Mo-Fr 11:00-22:00; Sa 09:00-22:00; Su 09:00-21:00", "phone": "+1-773-281-6000", "takeaway": "yes", "website": "https://www.fahlstromsfreshfish.com/"}}, {"type": "node", "id": 4049483564, "lat": 41.9368582, "lon": -87.6650564, "tags": {"amenity": "restaurant", "cuisine": "american", "level": "0", "name": "Grand River"}}, {"type": "node", "id": 5460785521, "lat": 41.9395264, "lon": -87.6636243, "tags": {"addr:city": "Chicago", "addr:housenumber": "3157", "addr:postcode": "60657", "addr:state": "IL", "addr:street": "North Southport Avenue", "amenity": "restaurant", "cuisine": "american;new_american;american_new", "name": "Tied House", "opening_hours": "Su-Th 16:30-23:00; Fr-Sa 16:30-00:00", "phone": "+1-773-697-4632", "website": "https://www.tiedhousechicago.com"}}, {"type": "node", "id": 5460886933, "lat": 41.9398722, "lon": -87.6696522, "tags": {"addr:city": "Chicago", "addr:housenumber": "1622", "addr:postcode": "60657", "addr:state": "IL", "addr:street": "West Belmont Avenue", "amenity": "restaurant", "cuisine": "american;pub", "name": "Flagship Tavern and Grill", "opening_hours": "Mo-Th 17:00-02:00; Fr 15:00-02:00; Sa 11:00-03:00; Su 11:00-02:00", "phone": "+1-773-281-3805", "website": "https://www.flagshipchicago.com/"}}, {"type": "node", "id": 5567717002, "lat": 41.9403305, "lon": -87.6785481, "tags": {"amenity": "restaurant", "cuisine": "burger;hot_dogs", "name": "Man Jo Vin's", "outdoor_seating": "no", "smoking": "no", "takeaway": "yes"}}, {"type": "node", "id": 5651992039, "lat": 41.9396498, "lon": -87.6636315, "tags": {"amenity": "bar", "name": "Schuba's"}}, {"type": "node", "id": 6263471199, "lat": 41.9286184, "lon": -87.6715995, "tags": {"addr:city": "Chicago", "addr:housenumber": "1721", "addr:postcode": "60614", "addr:state": "IL", "addr:street": "West Wrightwood Avenue", "amenity": "bar", "name": "Augie\u2019s", "phone": "+1-773-296-0018", "website": "http://augiesbooze.homestead.com/"}}, {"type": "node", "id": 6263526427, "lat": 41.9286414, "lon": -87.6623901, "tags": {"addr:city": "Chicago", "addr:housenumber": "1335", "addr:postcode": "60614", "addr:state": "IL", "addr:street": "West Wrightwood Avenue", "amenity": "restaurant", "name": "Avli Taverna", "phone": "+1-773-857-5577", "website": "http://avli.us/"}}, {"type": "node", "id": 6269118585, "lat": 41.9284536, "lon": -87.6636452, "tags": {"addr:city": "Chicago", "addr:housenumber": "2548", "addr:postcode": "60614", "addr:state": "IL", "addr:street": "North Southport Avenue", "amenity": "bar", "name": "Broken Barrel Bar", "phone": "+1-773-327-4900", "website": "https://www.brokenbarrelbar.com/"}}, {"type": "node", "id": 6282433414, "lat": 41.9385233, "lon": -87.6675367, "tags": {"addr:city": "Chicago", "addr:housenumber": "3134", "addr:postcode": "60657", "addr:state": "IL", "addr:street": "North Lincoln Avenue", "amenity": "cafe", "cuisine": "coffee_shop", "name": "Chicago Diplomat Cafe", "phone": "+1-773-262-2722", "website": "https://chicago-diplomat-cafe.business.site/"}}, {"type": "node", "id": 6283178216, "lat": 41.938034, "lon": -87.6709073, "tags": {"addr:city": "Chicago", "addr:housenumber": "1658", "addr:postcode": "60657", "addr:state": "IL", "addr:street": "West Barry Avenue", "amenity": "bar", "name": "Cody\u2019s Public House", "phone": "+1-773-528-4050"}}, {"type": "node", "id": 6289397250, "lat": 41.9363597, "lon": -87.6614074, "tags": {"addr:city": "Chicago", "addr:housenumber": "1300", "addr:postcode": "60657", "addr:state": "Il", "addr:street": "West Wellington Avenue", "amenity": "restaurant", "name": "Farm Bar Lakeview", "phone": "+1-773-281-2599", "website": "http://farm-bar.com/"}}, {"type": "node", "id": 6289909793, "lat": 41.9398986, "lon": -87.6707542, "tags": {"addr:city": "Chicago", "addr:housenumber": "1652", "addr:postcode": "60657", "addr:state": "IL", "addr:street": "West Belmont Avenue", "amenity": "restaurant", "name": "Fennel & Iris", "phone": "+1-773-687-8442", "website": "http://fennelandiris.com/"}}, {"type": "node", "id": 6291153865, "lat": 41.9322813, "lon": -87.6687371, "tags": {"addr:city": "Chicago", "addr:housenumber": "2758", "addr:postcode": "60657", "addr:state": "IL", "addr:street": "North Ashland Avenue", "amenity": "bar", "name": "Four Shadows", "phone": "+1-773-248-9160", "website": "http://fourshadows.net/"}}, {"type": "node", "id": 6294293052, "lat": 41.9357623, "lon": -87.6628497, "tags": {"addr:city": "Chicago", "addr:housenumber": "2959", "addr:postcode": "60657", "addr:state": "IL", "addr:street": "North Lincoln Avenue", "amenity": "cafe", "name": "Heritage Bicycles General Store", "phone": "+1-773-245-3005", "website": "https://www.heritagebicycles.com/"}}, {"type": "node", "id": 6297537502, "lat": 41.9335076, "lon": -87.6638856, "tags": {"addr:city": "Chicago", "addr:housenumber": "2834", "addr:postcode": "60657", "addr:state": "IL", "addr:street": "North Southport Avenue", "amenity": "restaurant", "name": "Sal\u2019s Trattoria", "phone": "+1-773-857-1401", "website": "http://salstrattoria.com/"}}, {"type": "node", "id": 6297566248, "lat": 41.9362512, "lon": -87.6641824, "tags": {"addr:city": "Chicago", "addr:housenumber": "3000", "addr:postcode": "60657", "addr:state": "IL", "addr:street": "North Lincoln Avenue", "amenity": "restaurant", "name": "Sam & George\u2019s", "phone": "+1-773-935-4025", "website": "http://www.sandg-chicago.com/"}}, {"type": "node", "id": 6297639056, "lat": 41.9396579, "lon": -87.6633518, "tags": {"addr:city": "Chicago", "addr:housenumber": "3159", "addr:postcode": "60657", "addr:state": "IL", "addr:street": "North Southport Avenue", "amenity": "bar", "name": "Schubas Tavern", "phone": "+1-773-525-2508", "website": "https://www.schubastavern.com/"}}, {"type": "node", "id": 6297827190, "lat": 41.9344543, "lon": -87.6658815, "tags": {"addr:city": "Chicago", "addr:housenumber": "1456", "addr:postcode": "60657", "addr:state": "IL", "addr:street": "West George Street", "amenity": "bar", "name": "Side Street Saloon", "phone": "+1-773-327-1127"}}, {"type": "node", "id": 6302030514, "lat": 41.9400544, "lon": -87.663414, "tags": {"addr:city": "Chicago", "addr:housenumber": "1358", "addr:postcode": "60657", "addr:state": "IL", "addr:street": "West Belmont Avenue", "amenity": "restaurant", "name": "The Spanish Square", "phone": "+1-773-717-7900", "website": "http://www.thespanishsquare.com/"}}, {"type": "node", "id": 6304074588, "lat": 41.9371009, "lon": -87.6681753, "tags": {"addr:city": "Chicago", "addr:housenumber": "3033", "addr:postcode": "60657", "addr:state": "IL", "addr:street": "North Ashland Avenue", "amenity": "restaurant", "name": "The Art of Pizza", "phone": "+1-773-327-5600", "website": "http://www.artofpizzachicago.com/"}}, {"type": "node", "id": 6306915776, "lat": 41.9343553, "lon": -87.6681643, "tags": {"addr:city": "Chicago", "addr:housenumber": "2901", "addr:postcode": "60657", "addr:state": "IL", "addr:street": "North Ashland Avenue", "amenity": "restaurant", "name": "Tutto Fresco", "phone": "+1-773-661-9009", "website": "http://www.tuttofrescochicago.com/"}}, {"type": "node", "id": 6307022465, "lat": 41.9348552, "lon": -87.661554, "tags": {"addr:city": "Chicago", "addr:housenumber": "1913", "addr:postcode": "60657", "addr:state": "IL", "addr:street": "North Lincoln Avenue", "amenity": "bar", "name": "Twisted Tap"}}, {"type": "node", "id": 6315194719, "lat": 41.934158, "lon": -87.6639155, "tags": {"addr:city": "Chicago", "addr:housenumber": "2856", "addr:postcode": "60657", "addr:state": "IL", "addr:street": "North Southport Avenue", "amenity": "bar", "name": "The Diag", "phone": "+1-773-404-8400", "website": "https://www.diagchicago.com/"}}, {"type": "node", "id": 6315206885, "lat": 41.9342202, "lon": -87.6607793, "tags": {"addr:city": "Chicago", "addr:housenumber": "2871", "addr:postcode": "60657", "addr:state": "IL", "addr:street": "North Lincoln Avenue", "amenity": "bar", "name": "The Elbo Room", "phone": "+1-773-549-5549", "website": "elboroomlive.com"}}, {"type": "node", "id": 6315632339, "lat": 41.9367992, "lon": -87.6649701, "tags": {"addr:city": "Chicago", "addr:housenumber": "3032", "addr:postcode": "60657", "addr:state": "IL", "addr:street": "North Lincoln Avenue", "amenity": "bar", "name": "The Land on Lincoln", "phone": "+1-872-802-0111", "website": "https://www.thelandonlincoln.com/"}}, {"type": "node", "id": 6315711823, "lat": 41.9398934, "lon": -87.6701961, "tags": {"addr:city": "Chicago", "addr:housenumber": "1638", "addr:postcode": "60657", "addr:state": "IL", "addr:street": "West Belmont Avenue", "amenity": "bar", "name": "The Pony Inn", "phone": "+1-312-453-9397", "website": "http://theponychicago.com/"}}, {"type": "node", "id": 6318428983, "lat": 41.9363406, "lon": -87.6643657, "tags": {"addr:city": "Chicago", "addr:housenumber": "3010", "addr:postcode": "60657", "addr:state": "IL", "addr:street": "North Lincoln Avenue", "amenity": "bar", "name": "Lincoln Tap Room", "phone": "+1-773-868-0060", "website": "https://www.lincolntaproom.com/"}}, {"type": "node", "id": 6319831697, "lat": 41.9399793, "lon": -87.6603361, "tags": {"addr:city": "Chicago", "addr:housenumber": "1232", "addr:postcode": "60657", "addr:state": "IL", "addr:street": "West Belmont Avenue", "amenity": "restaurant", "name": "Kubo Chicago", "phone": "+1-773-857-1408", "website": "https://www.kubochicago.com/"}}, {"type": "node", "id": 6326466249, "lat": 41.9340181, "lon": -87.6610034, "tags": {"addr:city": "Chicago", "addr:housenumber": "2878", "addr:postcode": "60657", "addr:state": "IL", "addr:street": "North Lincoln Avenue", "amenity": "restaurant", "name": "Left Coast Food + Juice", "phone": "+1-773-880-5338", "website": "http://www.leftcoastfood.com/"}}, {"type": "node", "id": 6326496079, "lat": 41.9352165, "lon": -87.6627816, "tags": {"addr:city": "Chicago", "addr:housenumber": "2942", "addr:postcode": "60657", "addr:state": "IL", "addr:street": "North Lincoln Avenue", "amenity": "restaurant", "name": "Las Tablas Colombian Steakhouse", "phone": "+1-773-871-2414", "website": "http://www.lastablas.com/"}}, {"type": "node", "id": 7182570708, "lat": 41.9325338, "lon": -87.6789663, "tags": {"addr:city": "Chicago", "addr:housenumber": "2000", "addr:postcode": "60614", "addr:state": "IL", "addr:street": "West Diversey Parkway", "amenity": "cafe", "name": "Hexe Coffee Co.", "website": "https://www.hexecoffee.com"}}, {"type": "way", "id": 209882061, "nodes": [2200391982, 2200392508, 2200392514, 2200392513, 2200391989, 2200391984, 2200391982], "tags": {"addr:city": "Chicago", "addr:housenumber": "1957", "addr:street": "West Belmont Avenue", "addr:street:name": "Belmont", "addr:street:prefix": "West", "addr:street:type": "Avenue", "amenity": "restaurant", "building": "yes", "building:levels": "3", "chicago:building_id": "211256", "cuisine": "mexican", "name": "Tony's Burrito Mex"}}, {"type": "way", "id": 209884980, "nodes": [2200366030, 2200366395, 2200366402, 2200366044, 2200366030], "tags": {"addr:housenumber": "2814", "addr:street": "North Southport Avenue", "addr:street:name": "Southport", "addr:street:prefix": "North", "addr:street:type": "Avenue", "amenity": "restaurant", "building": "yes", "building:levels": "2", "chicago:building_id": "238031", "cuisine": "mexican", "name": "Que Rico"}}, {"type": "way", "id": 209885154, "nodes": [2200369775, 2200370017, 2200370036, 2200369846, 2200369850, 2200369788, 2200369775], "tags": {"addr:housenumber": "2901", "addr:street": "North Ashland Avenue", "addr:street:name": "Ashland", "addr:street:prefix": "North", "addr:street:type": "Avenue", "amenity": "restaurant", "building": "yes", "building:levels": "1", "chicago:building_id": "232184", "cuisine": "latin", "name": "Flo", "opening_hours": "Tu-Fr 17:00-22:00; Sa 09:00-23:00; Su 09:00-15:00; PH off", "outdoor_seating": "no", "smoking": "no"}}, {"type": "way", "id": 209885452, "nodes": [2200375176, 2200375272, 2200375475, 2200375703, 2200375720, 2200375269, 2200375268, 2200375257, 2200375246, 2200375224, 2200375192, 2200375169, 2200375151, 2200375152, 2200375170, 2200375165, 2200375143, 2200375144, 2200375167, 2200375154, 2200375179, 2200375176], "tags": {"addr:housenumber": "3000-3004", "addr:street": "North Lincoln Avenue", "addr:street:name": "Lincoln", "addr:street:prefix": "North", "addr:street:type": "Avenue", "amenity": "restaurant", "building": "yes", "building:levels": "3", "chicago:building_id": "853921", "cuisine": "american", "level": "0", "name": "S&G Restaurant"}}, {"type": "way", "id": 209885453, "nodes": [2200375034, 2200375035, 2200375056, 2200375051, 2200375183, 2200375200, 2200375058, 2200375055, 2200375034], "tags": {"addr:city": "Chicago", "addr:housenumber": "3001", "addr:postcode": "60657", "addr:state": "IL", "addr:street": "North Ashland Avenue", "addr:street:name": "Ashland", "addr:street:prefix": "North", "addr:street:type": "Avenue", "amenity": "restaurant", "building": "yes", "building:levels": "2", "chicago:building_id": "224618", "name": "Breakfast House", "phone": "+1-773-666-5522", "website": "http://www.breakfast-house.com/index.html"}}, {"type": "way", "id": 209885467, "nodes": [2200375720, 2200375703, 2200375475, 2200375272, 2200375176, 2200375147, 2200375315, 2200376304, 2200375720], "tags": {"addr:housenumber": "3008-3012", "addr:street": "North Lincoln Avenue", "addr:street:name": "Lincoln", "addr:street:prefix": "North", "addr:street:type": "Avenue", "amenity": "restaurant", "building": "yes", "building:levels": "2", "chicago:building_id": "882783"}}, {"type": "way", "id": 209895909, "nodes": [2200517049, 2200517417, 2200518044, 2200517588, 2200517060, 2200517049], "tags": {"addr:housenumber": "3244", "addr:street": "North Lincoln Avenue", "addr:street:name": "Lincoln", "addr:street:prefix": "North", "addr:street:type": "Avenue", "amenity": "bar", "building": "yes", "chicago:building_id": "204563", "name": "Northdown Taproom"}}, {"type": "way", "id": 210325520, "nodes": [2204083841, 2204084385, 2204084390, 2204083850, 2204083841], "tags": {"addr:housenumber": "1300", "addr:street": "West Wellington Avenue", "addr:street:name": "Wellington", "addr:street:prefix": "West", "addr:street:type": "Avenue", "amenity": "pub", "building": "yes", "building:levels": "2", "chicago:building_id": "223390", "name": "Wellington's Tavern"}}]}