{"version": 0.6, "generator": "Overpass API 0.7.56.1004 6cd3eaec", "osm3s": {"timestamp_osm_base": "2020-07-22T00:41:03Z", "copyright": "The data included in this document is from www.openstreetmap.org. The data is made available under ODbL."}, "elements": [{"type": "node", "id": 347159885, "lat": 41.9112846, "lon": -87.6348689, "tags": {"addr:city": "Chicago", "addr:country": "US", "addr:housenumber": "210", "addr:postcode": "60610", "addr:state": "IL", "addr:street": "West North Avenue", "amenity": "cafe", "brand": "Starbucks", "brand:wikidata": "Q37158", "brand:wikipedia": "en:Starbucks", "cuisine": "coffee_shop", "entrance": "yes", "name": "Starbucks", "official_name": "Starbucks Coffee", "takeaway": "yes"}}, {"type": "node", "id": 347160446, "lat": 41.9127223, "lon": -87.638378, "tags": {"addr:city": "Chicago", "addr:housenumber": "1655", "addr:postcode": "60614", "addr:state": "IL", "addr:street": "North Sedgwick Street", "amenity": "restaurant", "cuisine": "american;ribs", "name": "Twin Anchors Restaurant & Tavern", "opening_hours": "Mo-Tu 17:00-22:30; We-Th 17:00-23:00; Fr 17:00-00:00; Sa 12:00-00:00; Su 12:00-22:30", "phone": "+1-312-266-1616", "website": "https://twinanchorsribs.com/"}}, {"type": "node", "id": 1724441444, "lat": 41.9106374, "lon": -87.6345311, "tags": {"addr:city": "Chicago", "addr:housename": "1551", "addr:housenumber": "1551", "addr:postcode": "60610", "addr:state": "IL", "addr:street": "North Wells Street", "amenity": "restaurant", "cuisine": "pizza;italian", "name": "Dinotto", "opening_hours": "Tu-Th 16:30-22:00; Fr-Sa 12:00-22:00; Su 16:00-22:00", "phone": "+1-312-202-0302", "website": "https://dinotto.business.site/"}}, {"type": "node", "id": 1724441449, "lat": 41.9105842, "lon": -87.6345302, "tags": {"addr:city": "Chicago", "addr:country": "US", "addr:housenumber": "1549", "addr:state": "IL", "addr:street": "North Wells Street", "amenity": "restaurant", "cuisine": "sandwich", "name": "Einstein Bagels"}}, {"type": "node", "id": 2086708645, "lat": 41.9115662, "lon": -87.6345885}, {"type": "node", "id": 2086708647, "lat": 41.9115704, "lon": -87.6342839}, {"type": "node", "id": 2086708649, "lat": 41.9116319, "lon": -87.6345901}, {"type": "node", "id": 2086708650, "lat": 41.9116361, "lon": -87.6342855}, {"type": "node", "id": 2166039854, "lat": 41.9106416, "lon": -87.6351225}, {"type": "node", "id": 2166039855, "lat": 41.9106425, "lon": -87.635053}, {"type": "node", "id": 2166039857, "lat": 41.9106453, "lon": -87.6348451}, {"type": "node", "id": 2166039861, "lat": 41.9106971, "lon": -87.6351239}, {"type": "node", "id": 2166039862, "lat": 41.9107008, "lon": -87.6348464}, {"type": "node", "id": 2203998741, "lat": 41.9104459, "lon": -87.6436874}, {"type": "node", "id": 2203998747, "lat": 41.9104492, "lon": -87.6435478}, {"type": "node", "id": 2203998749, "lat": 41.9104542, "lon": -87.6436892}, {"type": "node", "id": 2203998788, "lat": 41.9105184, "lon": -87.6436407}, {"type": "node", "id": 2203998793, "lat": 41.9105206, "lon": -87.6435507}, {"type": "node", "id": 2207604483, "lat": 41.9016614, "lon": -87.6281971}, {"type": "node", "id": 2207604487, "lat": 41.9016647, "lon": -87.6281282}, {"type": "node", "id": 2207604493, "lat": 41.9016763, "lon": -87.6278065}, {"type": "node", "id": 2207604498, "lat": 41.9016782, "lon": -87.6276633}, {"type": "node", "id": 2207604503, "lat": 41.9016833, "lon": -87.627823}, {"type": "node", "id": 2207604504, "lat": 41.9016868, "lon": -87.6274847}, {"type": "node", "id": 2207604505, "lat": 41.9016898, "lon": -87.6273507}, {"type": "node", "id": 2207604510, "lat": 41.9016998, "lon": -87.6278302}, {"type": "node", "id": 2207604511, "lat": 41.9017061, "lon": -87.6282009}, {"type": "node", "id": 2207604512, "lat": 41.9017081, "lon": -87.6278429}, {"type": "node", "id": 2207604513, "lat": 41.9017093, "lon": -87.628132}, {"type": "node", "id": 2207604514, "lat": 41.9017107, "lon": -87.6276634}, {"type": "node", "id": 2207604515, "lat": 41.9017146, "lon": -87.6274859}, {"type": "node", "id": 2207604516, "lat": 41.9017143, "lon": -87.6275004}, {"type": "node", "id": 2207604517, "lat": 41.9017177, "lon": -87.6278502}, {"type": "node", "id": 2207604518, "lat": 41.9017205, "lon": -87.627852}, {"type": "node", "id": 2207604695, "lat": 41.9018569, "lon": -87.6276708}, {"type": "node", "id": 2207604696, "lat": 41.9018616, "lon": -87.6275064}, {"type": "node", "id": 2207604697, "lat": 41.9018674, "lon": -87.6278595}, {"type": "node", "id": 2207604698, "lat": 41.9018677, "lon": -87.6275067}, {"type": "node", "id": 2207604701, "lat": 41.9018703, "lon": -87.627674}, {"type": "node", "id": 2207604702, "lat": 41.9018711, "lon": -87.6273581}, {"type": "node", "id": 2207604703, "lat": 41.9018732, "lon": -87.6279201}, {"type": "node", "id": 2207604704, "lat": 41.9018742, "lon": -87.6278613}, {"type": "node", "id": 2207605389, "lat": 41.9025321, "lon": -87.6286255}, {"type": "node", "id": 2207605390, "lat": 41.9025322, "lon": -87.628642}, {"type": "node", "id": 2207605395, "lat": 41.902528, "lon": -87.6291447}, {"type": "node", "id": 2207605398, "lat": 41.902532, "lon": -87.6285681}, {"type": "node", "id": 2207605614, "lat": 41.9027025, "lon": -87.6291512}, {"type": "node", "id": 2207605631, "lat": 41.902705, "lon": -87.6289318}, {"type": "node", "id": 2207605641, "lat": 41.9027089, "lon": -87.6286203}, {"type": "node", "id": 2207607263, "lat": 41.9039337, "lon": -87.6361013}, {"type": "node", "id": 2207607264, "lat": 41.9039326, "lon": -87.6362491}, {"type": "node", "id": 2207607343, "lat": 41.9040848, "lon": -87.6361034}, {"type": "node", "id": 2207607348, "lat": 41.9040836, "lon": -87.6362512}, {"type": "node", "id": 2207608395, "lat": 41.9050307, "lon": -87.6350389}, {"type": "node", "id": 2207608406, "lat": 41.9050381, "lon": -87.634666}, {"type": "node", "id": 2207608564, "lat": 41.9050966, "lon": -87.6350233}, {"type": "node", "id": 2207608565, "lat": 41.9050962, "lon": -87.6350412}, {"type": "node", "id": 2207608584, "lat": 41.9051036, "lon": -87.6346683}, {"type": "node", "id": 2207608926, "lat": 41.9052211, "lon": -87.6348978}, {"type": "node", "id": 2207608949, "lat": 41.9052256, "lon": -87.6346727}, {"type": "node", "id": 2207609009, "lat": 41.9052681, "lon": -87.6348995}, {"type": "node", "id": 2207609010, "lat": 41.9052679, "lon": -87.6349087}, {"type": "node", "id": 2207609030, "lat": 41.9052784, "lon": -87.6348583}, {"type": "node", "id": 2207609040, "lat": 41.905282, "lon": -87.6346747}, {"type": "node", "id": 2207609057, "lat": 41.9052917, "lon": -87.6348588}, {"type": "node", "id": 2207609060, "lat": 41.9052907, "lon": -87.6349095}, {"type": "node", "id": 2207609172, "lat": 41.9053678, "lon": -87.6350447}, {"type": "node", "id": 2207609174, "lat": 41.9053698, "lon": -87.6349183}, {"type": "node", "id": 2207609177, "lat": 41.9053694, "lon": -87.6349183}, {"type": "node", "id": 2207609180, "lat": 41.9053714, "lon": -87.6347878}, {"type": "node", "id": 2207609186, "lat": 41.9053717, "lon": -87.6347592}, {"type": "node", "id": 2207609188, "lat": 41.9053728, "lon": -87.6346746}, {"type": "node", "id": 2207609269, "lat": 41.9054415, "lon": -87.6350463}, {"type": "node", "id": 2207609270, "lat": 41.9054429, "lon": -87.6349285}, {"type": "node", "id": 2207609278, "lat": 41.9054461, "lon": -87.6346763}, {"type": "node", "id": 2207635538, "lat": 41.907732, "lon": -87.6344762}, {"type": "node", "id": 2207635541, "lat": 41.9077358, "lon": -87.6341393}, {"type": "node", "id": 2207635615, "lat": 41.9078347, "lon": -87.6341407}, {"type": "node", "id": 2207635617, "lat": 41.9078376, "lon": -87.634469}, {"type": "node", "id": 2207635618, "lat": 41.9078253, "lon": -87.6344782}, {"type": "node", "id": 2207637696, "lat": 41.9090034, "lon": -87.6341272}, {"type": "node", "id": 2207637705, "lat": 41.909016, "lon": -87.6341274}, {"type": "node", "id": 2207637706, "lat": 41.909016, "lon": -87.6341331}, {"type": "node", "id": 2207637782, "lat": 41.9090487, "lon": -87.6342489}, {"type": "node", "id": 2207637785, "lat": 41.909049, "lon": -87.6342002}, {"type": "node", "id": 2207637813, "lat": 41.9090601, "lon": -87.6344978}, {"type": "node", "id": 2207637819, "lat": 41.9090613, "lon": -87.634249}, {"type": "node", "id": 2207637826, "lat": 41.9090661, "lon": -87.6342003}, {"type": "node", "id": 2207637827, "lat": 41.9090665, "lon": -87.6341336}, {"type": "node", "id": 2207638564, "lat": 41.9094986, "lon": -87.6384087}, {"type": "node", "id": 2207638569, "lat": 41.9095013, "lon": -87.6380817}, {"type": "node", "id": 2207638657, "lat": 41.9095425, "lon": -87.6384094}, {"type": "node", "id": 2207638661, "lat": 41.9095453, "lon": -87.6380823}, {"type": "node", "id": 2207638953, "lat": 41.9097401, "lon": -87.6345198}, {"type": "node", "id": 2207638957, "lat": 41.9097469, "lon": -87.6342361}, {"type": "node", "id": 2207638967, "lat": 41.9097543, "lon": -87.6339208}, {"type": "node", "id": 2207638968, "lat": 41.9097544, "lon": -87.6339318}, {"type": "node", "id": 2207639299, "lat": 41.9099564, "lon": -87.6345238}, {"type": "node", "id": 2207639310, "lat": 41.9099639, "lon": -87.6339253}, {"type": "node", "id": 2207640348, "lat": 41.9107678, "lon": -87.634064}, {"type": "node", "id": 2207640351, "lat": 41.9107718, "lon": -87.6338215}, {"type": "node", "id": 2207640358, "lat": 41.9107802, "lon": -87.6340786}, {"type": "node", "id": 2207640378, "lat": 41.9108036, "lon": -87.6340783}, {"type": "node", "id": 2207640380, "lat": 41.9108046, "lon": -87.6340214}, {"type": "node", "id": 2207640484, "lat": 41.911042, "lon": -87.634028}, {"type": "node", "id": 2207640485, "lat": 41.9110449, "lon": -87.6338295}, {"type": "node", "id": 2262364827, "lat": 41.9113354, "lon": -87.6356269, "tags": {"addr:housenumber": "230", "addr:postcode": "60614", "addr:street": "West North Avenue", "amenity": "bar", "name": "UP Comedy Club", "source": "312-664-4032", "website": "http://www.upcomedyclub.com/"}}, {"type": "node", "id": 2295332892, "lat": 41.9017355, "lon": -87.6217968}, {"type": "node", "id": 2295332893, "lat": 41.9017762, "lon": -87.6217782}, {"type": "node", "id": 2295332894, "lat": 41.901808, "lon": -87.6220791}, {"type": "node", "id": 2295332895, "lat": 41.9018526, "lon": -87.6219227}, {"type": "node", "id": 2295332897, "lat": 41.9018481, "lon": -87.6218175}, {"type": "node", "id": 2295332898, "lat": 41.9018645, "lon": -87.6218884}, {"type": "node", "id": 2295332899, "lat": 41.9018778, "lon": -87.6220247}, {"type": "node", "id": 2393465770, "lat": 41.912499, "lon": -87.6345793, "tags": {"addr:city": "Chicago", "addr:country": "US", "addr:housenumber": "1647", "addr:state": "IL", "addr:street": "North Wells Street", "amenity": "bar", "entrance": "yes"}}, {"type": "node", "id": 2393465775, "lat": 41.9096394, "lon": -87.6348401, "tags": {"addr:city": "Chicago", "addr:country": "US", "addr:housenumber": "1514", "addr:postcode": "60610", "addr:state": "IL", "addr:street": "North Wells Street", "amenity": "restaurant", "cuisine": "italian", "name": "Topo Gigio Ristorante", "opening_hours": "Mo-Sa 11:30-22:30; Su 16:00-21:30", "phone": "+1-312-266-9355", "website": "https://www.topogigiochicago.com/"}}, {"type": "node", "id": 2393465796, "lat": 41.9090017, "lon": -87.6344973}, {"type": "node", "id": 2393465797, "lat": 41.9090029, "lon": -87.6342414}, {"type": "node", "id": 2399641191, "lat": 41.9172647, "lon": -87.6370796, "tags": {"addr:housenumber": "1925", "addr:street": "North Lincoln Avenue", "addr:street:name": "Lincoln", "addr:street:prefix": "North", "addr:street:type": "Avenue", "amenity": "restaurant", "cuisine": "pizza", "name": "Rocco Ranalli's"}}, {"type": "node", "id": 2465890859, "lat": 41.9037941, "lon": -87.6301786, "tags": {"amenity": "cafe", "brand": "Starbucks", "brand:wikidata": "Q37158", "brand:wikipedia": "en:Starbucks", "cuisine": "coffee_shop", "name": "Starbucks", "official_name": "Starbucks Coffee", "takeaway": "yes"}}, {"type": "node", "id": 2479668242, "lat": 41.9089305, "lon": -87.6383817}, {"type": "node", "id": 2479668243, "lat": 41.9089363, "lon": -87.6380474}, {"type": "node", "id": 2479668244, "lat": 41.9089981, "lon": -87.6383838}, {"type": "node", "id": 2479668245, "lat": 41.909004, "lon": -87.6380495}, {"type": "node", "id": 2480059861, "lat": 41.9048924, "lon": -87.6390534, "tags": {"amenity": "cafe", "brand": "Starbucks", "brand:wikidata": "Q37158", "brand:wikipedia": "en:Starbucks", "cuisine": "coffee_shop", "name": "Starbucks", "official_name": "Starbucks Coffee", "takeaway": "yes"}}, {"type": "node", "id": 2480104438, "lat": 41.9040444, "lon": -87.6346483, "tags": {"addr:city": "Chicago", "addr:housenumber": "1202", "addr:postcode": "60610", "addr:state": "IL", "addr:street": "North Wells Street", "amenity": "restaurant", "cuisine": "english", "name": "Glunz Tavern", "opening_hours": "Tu-Th 17:00-00:00; Fr 12:00-02:00; Sa 10:00-02:00; Su 10:00-23:00", "phone": "+1-312-642-3001", "website": "http://www.glunztavern.com"}}, {"type": "node", "id": 2521766275, "lat": 41.911036, "lon": -87.6327641, "tags": {"addr:city": "Chicago", "addr:country": "US", "addr:housenumber": "129", "addr:street": "West North Avenue", "amenity": "restaurant", "cuisine": "chinese", "name": "Peking Chinese Restaurant"}}, {"type": "node", "id": 2673655700, "lat": 41.9187003, "lon": -87.6366459, "tags": {"addr:city": "Chicago", "addr:housenumber": "2020", "addr:postcode": "60614", "addr:state": "IL", "addr:street": "North Lincoln Park West", "amenity": "restaurant", "brand": "The Original Pancake House", "brand:wikidata": "Q7755384", "brand:wikipedia": "en:The Original Pancake House", "cuisine": "breakfast;pancake", "name": "The Original Pancake House"}}, {"type": "node", "id": 2870579423, "lat": 41.910905, "lon": -87.6408852, "tags": {"amenity": "bar", "name": "Old Town Social"}}, {"type": "node", "id": 2946725325, "lat": 41.9169091, "lon": -87.6366164, "tags": {"amenity": "restaurant", "cuisine": "italian", "name": "Brick's"}}, {"type": "node", "id": 2980328058, "lat": 41.9046047, "lon": -87.6404009, "tags": {"amenity": "cafe", "brand": "Starbucks", "brand:wikidata": "Q37158", "brand:wikipedia": "en:Starbucks", "cuisine": "coffee_shop", "name": "Starbucks", "note": "This Starbucks and the other one inside Jewel exists.", "official_name": "Starbucks Coffee", "takeaway": "yes"}}, {"type": "node", "id": 2988737657, "lat": 41.9180298, "lon": -87.6386499, "tags": {"addr:city": "Chicago", "addr:housenumber": "1970", "addr:postcode": "60614", "addr:state": "IL", "addr:street": "North Lincoln Avenue", "amenity": "restaurant", "entrance": "yes", "name": "Stanley's Kitchen and Tap"}}, {"type": "node", "id": 3076177733, "lat": 41.9017806, "lon": -87.628498, "tags": {"amenity": "restaurant", "name": "Dublins Bar and Grill"}}, {"type": "node", "id": 3926278417, "lat": 41.9022222, "lon": -87.628503, "tags": {"addr:city": "Chicago", "addr:country": "US", "addr:housenumber": "1110", "addr:postcode": "60610", "addr:state": "IL", "addr:street": "North State Street", "amenity": "restaurant", "cuisine": "mexican", "name": "Velvet Taco", "takeaway": "yes", "wheelchair": "yes"}}, {"type": "node", "id": 4006777056, "lat": 41.9027749, "lon": -87.6283042, "tags": {"addr:city": "Chicago", "addr:housenumber": "1131", "addr:postcode": "60610", "addr:state": "IL", "addr:street": "North State Street", "amenity": "restaurant", "cuisine": "french", "delivery": "no", "name": "Bistrot Zinc", "phone": "(312) 337-1131", "takeaway": "no", "website": "bistrotzinc.com"}}, {"type": "node", "id": 4036871250, "lat": 41.9013634, "lon": -87.6276181, "tags": {"addr:city": "Chicago", "addr:housenumber": "1015", "addr:postcode": "60611", "addr:state": "IL", "addr:street": "North Rush Street", "amenity": "restaurant", "cuisine": "italian", "name": "Nico Osteria", "opening_hours": "Mo-Th 07:30-22:00; Fr 07:30-23:00; Sa 09:00-23:00; Su 09:00-22:00", "phone": "+1-312-994-7100", "website": "https://www.nicoosteria.com/"}}, {"type": "node", "id": 4191676729, "lat": 41.9109799, "lon": -87.6349566, "tags": {"addr:city": "Chicago", "addr:housenumber": "1562", "addr:postcode": "60610", "addr:state": "IL", "addr:street": "North Wells Street", "amenity": "cafe", "brand": "Le Pain Quotidien", "brand:wikidata": "Q2046903", "brand:wikipedia": "en:Le Pain Quotidien", "cuisine": "coffee_shop", "name": "Le Pain Quotidien", "phone": "+1-312-281-6775", "takeaway": "yes", "website": "https://www1.lepainquotidien.com/us/en/locations/605/1562-n-wells-st"}}, {"type": "node", "id": 4191676733, "lat": 41.9114966, "lon": -87.6387692, "tags": {"amenity": "bar", "name": "Sedgwick Stop"}}, {"type": "node", "id": 4191676734, "lat": 41.9176173, "lon": -87.6386253, "tags": {"amenity": "bar", "name": "Sedgwick's"}}, {"type": "node", "id": 4191676735, "lat": 41.9109006, "lon": -87.6404783, "tags": {"amenity": "restaurant", "cuisine": "japanese", "name": "Shiso"}}, {"type": "node", "id": 4196277890, "lat": 41.9109839, "lon": -87.635275, "tags": {"addr:city": "Chicago", "addr:country": "US", "addr:postcode": "60614", "addr:state": "IL", "amenity": "restaurant", "building": "entrance", "cuisine": "mexican", "name": "Adobo Grill"}}, {"type": "node", "id": 4214191957, "lat": 41.9100021, "lon": -87.6343992, "tags": {"amenity": "restaurant", "cuisine": "mexican", "name": "Buzz Bait Tacos - PERMANENTLY CLOSED"}}, {"type": "node", "id": 4431654562, "lat": 41.9025298, "lon": -87.6290791}, {"type": "node", "id": 4629759398, "lat": 41.9025377, "lon": -87.6413921, "tags": {"amenity": "cafe"}}, {"type": "node", "id": 4726228300, "lat": 41.9029694, "lon": -87.628362, "tags": {"amenity": "restaurant", "name": "RA Sushi Bar", "opening_hours": "Mo-Su 11:00-01:00"}}, {"type": "node", "id": 5148730568, "lat": 41.9019937, "lon": -87.6279206, "tags": {"amenity": "restaurant", "name": "Carmine\u2019s", "phone": "+1-312-988-7676", "website": "http://www.rosebudrestaurants.com/"}}, {"type": "node", "id": 5460859747, "lat": 41.9033294, "lon": -87.6306073, "tags": {"addr:city": "Chicago", "addr:housenumber": "52", "addr:postcode": "60610", "addr:state": "IL", "addr:street": "West Elm Street", "amenity": "restaurant", "cuisine": "american", "name": "Blue Door Kitchen & Garden", "opening_hours": "Mo-Th 11:00-22:00; Fr 11:00-23:00; Sa 09:00-23:00; Su 09:00-22:00", "phone": "+1-312-573-4000", "website": "https://bluedoorkitchenchicago.com/"}}, {"type": "node", "id": 5460880257, "lat": 41.9153668, "lon": -87.6345049, "tags": {"addr:city": "Chicago", "addr:housenumber": "1800", "addr:postcode": "60614", "addr:state": "IL", "addr:street": "North Lincoln Avenue", "amenity": "restaurant", "cuisine": "american", "name": "The Kennison", "opening_hours": "Su-Th 17:00-22:00; Fr-Sa 17:00-23:00; Sa-Su 09:00-14:00", "phone": "+1-312-981-7070", "website": "https://www.thekennison.com/"}}, {"type": "node", "id": 5688396721, "lat": 41.9153381, "lon": -87.6344171, "tags": {"addr:city": "Chicago", "addr:housenumber": "1816", "addr:postcode": "60614", "addr:state": "IL", "addr:street": "North Clark Street", "addr:unit": "13", "amenity": "bar", "name": "The J Parker", "opening_hours": "Mo-Th 17:00-00:00; Fr 15:00-02:00; Sa 14:00-02:00; Su 14:00-00:00", "phone": "+1-312-254-4747", "website": "https://www.jparkerchicago.com/"}}, {"type": "node", "id": 6077923586, "lat": 41.9014579, "lon": -87.6279749, "tags": {"addr:city": "Chicago", "addr:housenumber": "1028", "addr:postcode": "60611", "addr:state": "IL", "addr:street": "North Rush Street", "amenity": "restaurant", "cuisine": "american", "name": "Gibson's Bar & Steakhouse", "opening_hours": "Mo-Su 11:00-02:00", "phone": "+1-312-266-8999", "website": "https://www.gibsonssteakhouse.com/"}}, {"type": "node", "id": 6081060319, "lat": 41.9090489, "lon": -87.6342218}, {"type": "node", "id": 6081060321, "lat": 41.9090608, "lon": -87.6343593}, {"type": "node", "id": 6191165327, "lat": 41.9109366, "lon": -87.6358742, "tags": {"addr:city": "Chicago", "addr:housenumber": "227", "addr:postcode": "60610", "addr:state": "IL", "addr:street": "West North Avenue", "amenity": "restaurant", "cuisine": "seafood", "name": "Two Lights Seafood & Oyster", "opening_hours": "Mo-Fr 17:00-22:00; Sa 17:00-23:00; Su 17:00-21:00", "phone": "+1-312-929-3091", "website": "twolightschicago.com"}}, {"type": "node", "id": 6221682531, "lat": 41.9023751, "lon": -87.6288081, "tags": {"addr:city": "Chicago", "addr:housenumber": "1112", "addr:postcode": "60610", "addr:state": "IL", "addr:street": "North State Street", "amenity": "restaurant", "name": "Somerset", "phone": "+1-312-586-2150", "website": "https://www.somersetchicago.com/"}}, {"type": "node", "id": 6221691717, "lat": 41.9152622, "lon": -87.6343853, "tags": {"addr:city": "Chicago", "addr:housenumber": "1816", "addr:postcode": "60614", "addr:state": "IL", "addr:street": "North Clark Street", "amenity": "cafe", "cuisine": "breakfast", "name": "Elaine's Coffee Call", "opening_hours": "Mo-Su 06:30-17:00", "phone": "+1-312-254-4665", "website": "https://www.bokagrp.com/elaines.php"}}, {"type": "node", "id": 6221707063, "lat": 41.902338, "lon": -87.6288061, "tags": {"addr:city": "Chicago", "addr:housenumber": "1112", "addr:postcode": "60610", "addr:state": "IL", "addr:street": "North State Street", "amenity": "restaurant", "cuisine": "tapas;cocktail", "name": "Devereaux", "opening_hours": "Su-Th 16:00-23:00; Fr 12:00-14:00, 16:00-02:00; Sa 16:00-00:00", "operator": "Boka Restaurant Group", "phone": "+1-312-586-2160", "website": "https://www.devereauxchicago.com/"}}, {"type": "node", "id": 6226279492, "lat": 41.9041723, "lon": -87.6347462, "tags": {"addr:city": "Chicago", "addr:housenumber": "1208", "addr:postcode": "60610", "addr:state": "IL", "addr:street": "North Wells Street", "amenity": "bar", "name": "The Rabbit Hole", "phone": "+1-312-274-1824", "website": "https://www.therabbitholechicago.com/"}}, {"type": "node", "id": 6237287435, "lat": 41.9059085, "lon": -87.6304864, "tags": {"addr:city": "Chicago", "addr:housenumber": "1300", "addr:postcode": "60610", "addr:state": "IL", "addr:street": "North Dearborn Parkway", "amenity": "restaurant", "cuisine": "american", "name": "3 Arts Club Caf\u00e9", "opening_hours": "Mo-Sa 10:00-20:00; Su 11:00-18:00", "phone": "+1-312-475-9116", "website": "3artsclubcafe.com"}}, {"type": "node", "id": 6238840231, "lat": 41.9019662, "lon": -87.6287408, "tags": {"addr:city": "Chicago", "addr:housenumber": "8", "addr:postcode": "60610", "addr:state": "IL", "addr:street": "West Maple Street", "amenity": "restaurant", "cuisine": "american", "name": "Maple & Ash", "opening_hours": "Mo-Th 17:00-22:00; Fr 17:00-23:00; Sa 16:30-23:00; Su 10:00-14:00, 17:00-22:00", "phone": "+1-312-944-8888", "website": "https://www.mapleandash.com/"}}, {"type": "node", "id": 6250192785, "lat": 41.9056759, "lon": -87.6303029, "tags": {"addr:city": "Chicago", "addr:housenumber": "1260", "addr:postcode": "60610", "addr:state": "IL", "addr:street": "North Dearborn Parkway", "amenity": "restaurant", "name": "3rd Coast Cafe", "phone": "+1-312-649-0730", "website": "https://www.3rdcoastcafe.com/"}}, {"type": "node", "id": 6256290024, "lat": 41.9093, "lon": -87.6348661, "tags": {"addr:city": "Chicago", "addr:housenumber": "1500", "addr:postcode": "60610", "addr:state": "IL", "addr:street": "North Wells Street", "amenity": "bar", "name": "80 Proof", "phone": "+1-773-966-0404", "website": "https://80proofchi.com/"}}, {"type": "node", "id": 6261014453, "lat": 41.91169, "lon": -87.6344514, "tags": {"addr:city": "Chicago", "addr:housenumber": "1617", "addr:postcode": "60614", "addr:state": "IL", "addr:street": "North Wells Street", "amenity": "restaurant", "cuisine": "pub;american", "name": "Wells On Wells", "opening_hours": "Mo 17:00-00:00; Tu-Fr 11:30-02:00; Sa 10:30-03:00; Su 10:30-02:00", "phone": "+1-312-944-1617", "website": "https://wellsonwells.com/"}}, {"type": "node", "id": 6261017458, "lat": 41.9113447, "lon": -87.6353526, "tags": {"addr:city": "Chicago", "addr:housenumber": "230", "addr:postcode": "60610", "addr:state": "IL", "addr:street": "West North Avenue", "addr:unit": "2nd Floor", "amenity": "restaurant", "cuisine": "pub;american", "name": "1959 Kitchen & Bar", "opening_hours": "Mo-Th 17:00-00:00; Fr-Sa 17:00-02:00; Su 16:00-00:00", "phone": "+1-312-337-3992", "website": "https://www.secondcity.com/1959"}}, {"type": "node", "id": 6261019535, "lat": 41.9109894, "lon": -87.635527, "tags": {"addr:city": "Chicago", "addr:housenumber": "219", "addr:postcode": "60610", "addr:state": "IL", "addr:street": "West North Avenue", "amenity": "bar", "name": "Old Town Ale House", "opening_hours": "Mo-Fr 15:00-04:00; Sa 12:00-05:00; Su 12:00-04:00", "phone": "+1-312-944-7020", "website": "http://www.theoldtownalehouse.com"}}, {"type": "node", "id": 6261025487, "lat": 41.9090121, "lon": -87.63492, "tags": {"addr:city": "Chicago", "addr:housenumber": "1446", "addr:postcode": "60610", "addr:state": "IL", "addr:street": "North Wells Street", "amenity": "bar", "name": "SUITE Lounge", "phone": "+1-312-787-6103", "website": "http://www.suite-lounge.com"}}, {"type": "node", "id": 6261028501, "lat": 41.909098, "lon": -87.6348744, "tags": {"addr:city": "Chicago", "addr:housenumber": "1448", "addr:postcode": "60610", "addr:state": "IL", "addr:street": "North Wells Street", "amenity": "restaurant", "cuisine": "barbecue;bbq;american;southern", "name": "The Fireplace Inn", "opening_hours": "Tu-Th 16:30-00:00; Fr 11:00-02:00; Sa 11:00-03:00; Su 11:00-00:00", "phone": "+1-312-664-5264", "website": "https://fireplaceinn.com"}}, {"type": "node", "id": 6261029018, "lat": 41.9095177, "lon": -87.6349428, "tags": {"addr:city": "Chicago", "addr:housenumber": "1510", "addr:postcode": "60610", "addr:state": "IL", "addr:street": "North Wells Street", "amenity": "restaurant", "cuisine": "bar;grill", "name": "Benchmark", "opening_hours": "Mo-Fr 17:00-02:00; Sa 10:00-03:00; Su 10:00-02:00", "phone": "+1-312-649-9640", "website": "https://benchmarkchicago.com"}}, {"type": "node", "id": 6261031287, "lat": 41.9082856, "lon": -87.6343138, "tags": {"addr:city": "Chicago", "addr:housenumber": "1419", "addr:postcode": "60610", "addr:state": "IL", "addr:street": "North Wells Street", "amenity": "restaurant", "cuisine": "american", "name": "Old Town Pour House", "opening_hours": "Mo 16:00-23:00; Tu-Th 16:00-00:00; Fr 11:30-02:00; Sa 11:30-03:00; Su 10:30-23:00", "outdoor_seating": "no", "phone": "+1-312-477-2800", "website": "https://www.oldtownpourhouse.com/"}}, {"type": "node", "id": 6261032304, "lat": 41.9082037, "lon": -87.6343058, "tags": {"addr:city": "Chicago", "addr:housenumber": "1421", "addr:postcode": "60610", "addr:state": "IL", "addr:street": "North Wells Street", "amenity": "restaurant", "cuisine": "italian", "name": "Mama Milano Pizza Bar", "opening_hours": "We-Th 16:30-21:30; Fr 16:30-22:30; Sa 11:30-22:30; Su 11:30-21:00", "phone": "+1-312-787-3710", "website": "https://www.mamamilanopizzamenu.com"}}, {"type": "node", "id": 6261040332, "lat": 41.9077491, "lon": -87.634853, "tags": {"addr:city": "Chicago", "addr:housenumber": "1400", "addr:postcode": "60610", "addr:state": "IL", "addr:street": "North Wells Street", "amenity": "restaurant", "cuisine": "mexican", "name": "Broken English Taco Pub", "opening_hours": "Mo-Th 17:00-23:00; Fr 17:00-01:00; Sa 11:00-01:00; Su 11:00-21:00", "outdoor_seating": "yes", "phone": "+1-312-951-7667", "website": "https://www.tacopub.com"}}, {"type": "node", "id": 6269017070, "lat": 41.9060351, "lon": -87.6284881, "tags": {"addr:city": "Chicago", "addr:housenumber": "1301", "addr:postcode": "60610", "addr:state": "IL", "addr:street": "North State Parkway", "amenity": "restaurant", "name": "Booth One", "phone": "+1-312- 649-0535", "website": "http://boothone.com/"}}, {"type": "node", "id": 6269380246, "lat": 41.9041965, "lon": -87.6296419, "tags": {"addr:city": "Chicago", "addr:housenumber": "20", "addr:postcode": "60610", "addr:state": "IL", "addr:street": "West Division Street", "amenity": "bar", "name": "Butch McGuire\u2019s", "phone": "+1-312- 337-9080", "website": "https://butchmcguires.com/"}}, {"type": "node", "id": 6272419651, "lat": 41.9100648, "lon": -87.6343821, "tags": {"addr:city": "Chicago", "addr:housenumber": "1531", "addr:postcode": "60610", "addr:state": "IL", "addr:street": "North Wells Street", "amenity": "bar", "name": "BATSU! Chicago", "phone": "+1-312-664-3663", "website": "http://batsuchicago.com/"}}, {"type": "node", "id": 6280019306, "lat": 41.9042068, "lon": -87.6342984, "tags": {"addr:city": "Chicago", "addr:housenumber": "1209", "addr:postcode": "60610", "addr:state": "IL", "addr:street": "North Wells Street", "amenity": "restaurant", "cuisine": "pizza", "name": "Happy Camper Pizzeria", "opening_hours": "Mo-We 16:00-02:00; Th 16:00-02:00; Fr 11:00-02:00; Sa 10:30-03:00; Su 10:30-00:00", "phone": "+1-312-344-1634", "website": "http://www.happycamperchicago.com"}}, {"type": "node", "id": 6282313992, "lat": 41.9044119, "lon": -87.6326293, "tags": {"addr:city": "Chicago", "addr:housenumber": "12111", "addr:postcode": "60610", "addr:state": "IL", "addr:street": "North LaSalle Boulevard", "addr:unit": "CU", "amenity": "cafe", "name": "Cassava Cafe", "phone": "+1-312-487-2888", "website": "http://cassava.cafe/"}}, {"type": "node", "id": 6282505580, "lat": 41.9036152, "lon": -87.6304189, "tags": {"addr:city": "Chicago", "addr:housenumber": "1160", "addr:postcode": "60610", "addr:state": "IL", "addr:street": "North Dearborn Street", "amenity": "restaurant", "name": "Chicago Q", "phone": "+1-312-642-1160", "website": "https://chicagoqrestaurant.com/"}}, {"type": "node", "id": 6283111502, "lat": 41.9126714, "lon": -87.6345196, "tags": {"addr:city": "Chicago", "addr:housenumber": "1651", "addr:postcode": "60614", "addr:state": "IL", "addr:street": "North Wells Street", "amenity": "cafe", "name": "Cocoa + Co.", "phone": "+1-312-624-8540", "website": "https://cocoaandco.com/"}}, {"type": "node", "id": 6283146876, "lat": 41.9037986, "lon": -87.6292569, "tags": {"addr:city": "Chicago", "addr:housenumber": "13", "addr:postcode": "60610", "addr:state": "IL", "addr:street": "West Division Street", "amenity": "bar", "name": "Coconutz", "phone": "+1-312-266-0944", "website": "https://coconutzchicago.com/"}}, {"type": "node", "id": 6284483101, "lat": 41.9041397, "lon": -87.6317688, "tags": {"addr:city": "Chicago", "addr:housenumber": "102", "addr:postcode": "60610", "addr:state": "IL", "addr:street": "West Division Street", "addr:unit": "2", "amenity": "bar", "name": "Division on the Rocks"}}, {"type": "node", "id": 6284848609, "lat": 41.901576, "lon": -87.628962, "tags": {"addr:city": "Chicago", "addr:housenumber": "1050", "addr:postcode": "60610", "addr:state": "IL", "addr:street": "North State Street", "amenity": "bar", "name": "Dublin Bar & Grill", "phone": "+1-312-266-6340"}}, {"type": "node", "id": 6285850463, "lat": 41.9021359, "lon": -87.6287498, "tags": {"addr:city": "Chicago", "addr:housenumber": "8", "addr:postcode": "60610", "addr:state": "IL", "addr:street": "West Maple Street", "amenity": "bar", "name": "Eight Bar and Patio", "phone": "+1-312-944-8888", "website": "https://www.eightbarchicago.com/"}}, {"type": "node", "id": 6291060942, "lat": 41.9109045, "lon": -87.6405716, "tags": {"addr:city": "Chicago", "addr:housenumber": "449", "addr:postcode": "60610", "addr:state": "IL", "addr:street": "West North Avenue", "amenity": "restaurant", "name": "Forastero", "phone": "+1-312-265-0322", "website": "https://forastero-llc.mycloveronline.com/"}}, {"type": "node", "id": 6291750700, "lat": 41.9182088, "lon": -87.6383858, "tags": {"addr:city": "Chicago", "addr:housenumber": "345", "addr:postcode": "60614", "addr:state": "IL", "addr:street": "West Armitage Avenue", "amenity": "bar", "name": "Gamekeepers Tavern & Grill", "phone": "+1-773-549-0400", "website": "http://gamekeeperschicago.com/"}}, {"type": "node", "id": 6291773197, "lat": 41.918593, "lon": -87.6380077, "tags": {"addr:city": "Chicago", "addr:housenumber": "340", "addr:postcode": "60614", "addr:state": "IL", "addr:street": "West Armitage Avenue", "amenity": "restaurant", "name": "Geja\u2019s Cafe", "phone": "+1-773-281-9101", "website": "https://gejascafe.com/"}}, {"type": "node", "id": 6294479336, "lat": 41.9081132, "lon": -87.6425061, "tags": {"addr:city": "Chicago", "addr:housenumber": "1416", "addr:postcode": "60610", "addr:state": "IL", "addr:street": "North Mohawk Street", "amenity": "bar", "name": "Hogan, Dean, and Cox", "phone": "+1-314-288-6562"}}, {"type": "node", "id": 6294526485, "lat": 41.9108805, "lon": -87.6393364, "tags": {"addr:city": "Chicago", "addr:housenumber": "417", "addr:postcode": "60610", "addr:state": "IL", "addr:street": "West North Avenue", "amenity": "restaurant", "name": "Hom Mali Thai and Sushi on North Ave", "phone": "+1-312-664-3400", "website": "https://www.hommalichicago.com/"}}, {"type": "node", "id": 6297766776, "lat": 41.9010663, "lon": -87.6279947, "tags": {"addr:city": "Chicago", "addr:housenumber": "1024", "addr:postcode": "60611", "addr:state": "IL", "addr:street": "North Rush Street", "amenity": "restaurant", "name": "Hugo\u2019s Frog Bar & Fish House", "phone": "+1-312-640-0999", "website": "http://www.hugosfrogbar.com/"}}, {"type": "node", "id": 6298873064, "lat": 41.9071048, "lon": -87.6343148, "tags": {"addr:city": "Chicago", "addr:housenumber": "1345", "addr:postcode": "60610", "addr:state": "IL", "addr:street": "North Wells Street", "amenity": "restaurant", "name": "Small Cheval - Wells", "website": "http://smallcheval.com/"}}, {"type": "node", "id": 6299322085, "lat": 41.9185326, "lon": -87.6373677, "tags": {"addr:city": "Chicago", "addr:housenumber": "322", "addr:postcode": "60614", "addr:state": "IL", "addr:street": "West Armitage Avenue", "amenity": "bar", "name": "Park West", "phone": "+1-773-929-1322", "website": "https://parkwestchicago.com/"}}, {"type": "node", "id": 6300071822, "lat": 41.9049988, "lon": -87.6341556, "tags": {"addr:city": "Chicago", "addr:housenumber": "1233", "addr:postcode": "60610", "addr:state": "IL", "addr:street": "North Wells Street", "amenity": "cafe", "name": "Intelligentsia Coffee", "phone": "+1-312-229-1400", "website": "https://www.intelligentsiacoffee.com/old-town-coffeebar"}}, {"type": "node", "id": 6300287486, "lat": 41.9033723, "lon": -87.6290617, "tags": {"addr:city": "Chicago", "addr:housenumber": "12", "addr:postcode": "60610", "addr:state": "IL", "addr:street": "West Elm Street", "amenity": "bar", "name": "Sparrow", "phone": "+1-312-725-0732", "website": "http://www.sparrowchicago.com/"}}, {"type": "node", "id": 6301020113, "lat": 41.9181487, "lon": -87.6398708, "tags": {"addr:city": "Chicago", "addr:housenumber": "425", "addr:postcode": "60614", "addr:state": "IL", "addr:street": "West Armitage Avenue", "amenity": "bar", "name": "River Shannon", "phone": "+1-312-944-5087", "website": "https://therivershannon.com/"}}, {"type": "node", "id": 6301862903, "lat": 41.9015004, "lon": -87.6316474, "tags": {"addr:city": "Chicago", "addr:housenumber": "1028", "addr:postcode": "60610", "addr:state": "IL", "addr:street": "North Clark Street", "amenity": "restaurant", "name": "Sunny Side Up", "phone": "+1-312-967-0777", "website": "https://www.chicagosunnysideup.com/"}}, {"type": "node", "id": 6304176252, "lat": 41.9099123, "lon": -87.6344869, "tags": {"addr:city": "Chicago", "addr:housenumber": "1527", "addr:postcode": "60610", "addr:state": "IL", "addr:street": "North Wells Street", "amenity": "restaurant", "name": "The VIG Chicago", "phone": "+1-312-982-2186", "website": "http://www.thevigchicago.com/"}}, {"type": "node", "id": 6315204690, "lat": 41.9169023, "lon": -87.6365441, "tags": {"addr:city": "Chicago", "addr:housenumber": "1909", "addr:postcode": "60614", "addr:state": "IL", "addr:street": "North Lincoln Avenue", "amenity": "bar", "name": "The Drop Lounge", "phone": "+1-312-574-0898", "website": "http://www.thedropchicago.com/"}}, {"type": "node", "id": 6315254173, "lat": 41.9033279, "lon": -87.6292502, "tags": {"addr:city": "Chicago", "addr:housenumber": "14", "addr:postcode": "60610", "addr:state": "IL", "addr:street": "West Elm Street", "amenity": "bar", "name": "The Hangge-Uppe", "phone": "+1-312-337-0561", "website": "https://hanggeuppe.com/"}}, {"type": "node", "id": 6315657599, "lat": 41.9037631, "lon": -87.6295523, "tags": {"addr:city": "Chicago", "addr:housenumber": "21", "addr:postcode": "60610", "addr:state": "IL", "addr:street": "West Division Street", "amenity": "bar", "name": "The Lodge Tavern", "phone": "+1-312-642-4406", "website": "https://lodgetavern.com/"}}, {"type": "node", "id": 6316896345, "lat": 41.901787, "lon": -87.6278078, "tags": {"addr:city": "Chicago", "addr:housenumber": "1031", "addr:postcode": "60610", "addr:state": "IL", "addr:street": "North Rush Street", "amenity": "cafe", "name": "Whispers Cafe", "website": "http://www.whisperscoffee.com/index.html"}}, {"type": "node", "id": 6317115432, "lat": 41.90453, "lon": -87.629156, "tags": {"addr:city": "Chicago", "addr:housenumber": "1220", "addr:postcode": "60610", "addr:state": "IL", "addr:street": "North State Parkway", "amenity": "bar", "name": "Zebra Lounge", "phone": "+1-312-642-5140", "website": "https://www.thezebralounge.net/"}}, {"type": "node", "id": 6318364009, "lat": 41.909856, "lon": -87.634225, "tags": {"addr:city": "Chicago", "addr:housenumber": "1525", "addr:postcode": "60610", "addr:state": "IL", "addr:street": "North Wells Street", "amenity": "bar", "name": "LG\u2019s Bar", "phone": "+1-312-888-9368", "website": "https://ladygregorys.com/"}}, {"type": "node", "id": 6319154670, "lat": 41.9100715, "lon": -87.6344749, "tags": {"addr:city": "Chicago", "addr:housenumber": "1531", "addr:postcode": "60610", "addr:state": "IL", "addr:street": "North Wells Street", "amenity": "restaurant", "name": "Kamehachi", "phone": "+1-312-664-3663", "website": "http://www.kamehachi.com/"}}, {"type": "node", "id": 6319999085, "lat": 41.903348, "lon": -87.6284873, "tags": {"addr:city": "Chicago", "addr:housenumber": "4", "addr:postcode": "60610", "addr:state": "IL", "addr:street": "East Elm Street", "amenity": "cafe", "name": "La Colombe Coffee", "phone": "+1-773-295-9279", "website": "https://www.lacolombe.com/"}}, {"type": "node", "id": 6320642353, "lat": 41.9025995, "lon": -87.6288738, "tags": {"addr:city": "Chicago", "addr:housenumber": "1120", "addr:postcode": "60610", "addr:state": "IL", "addr:street": "North State Street", "amenity": "restaurant", "brand": "Lou Malnati's Pizzeria", "brand:wikidata": "Q6685628", "brand:wikipedia": "en:Lou Malnati's Pizzeria", "cuisine": "pizza", "name": "Lou Malnati's Pizzeria", "phone": "+1-312-725-7777", "website": "https://www.loumalnatis.com/chicago-gold-coast"}}, {"type": "node", "id": 6321251063, "lat": 41.9017819, "lon": -87.6275837, "tags": {"addr:city": "Chicago", "addr:housenumber": "18", "addr:postcode": "60611", "addr:state": "IL", "addr:street": "East Bellevue Place", "amenity": "restaurant", "name": "LuxBar", "phone": "+1-312-642-3400", "website": "https://www.luxbar.com/"}}, {"type": "node", "id": 6321478798, "lat": 41.9145918, "lon": -87.6389496, "tags": {"addr:city": "Chicago", "addr:housenumber": "1758", "addr:postcode": "60614", "addr:state": "IL", "addr:street": "North Sedgwick Street", "amenity": "bar", "name": "Marge\u2019s Still", "phone": "+1-312-664-9775", "website": "http://www.margeschicago.com/"}}, {"type": "node", "id": 6323193150, "lat": 41.9142731, "lon": -87.6349799, "tags": {"addr:city": "Chicago", "addr:housenumber": "1746", "addr:postcode": "60614", "addr:state": "IL", "addr:street": "North Wells Street", "amenity": "restaurant", "name": "Nookies", "phone": "+1-312-337-2454", "website": "http://www.nookieschicago.com/"}}, {"type": "node", "id": 6323965477, "lat": 41.9069115, "lon": -87.634332, "tags": {"addr:city": "Chicago", "addr:housenumber": "1339", "addr:postcode": "60610", "addr:state": "IL", "addr:street": "North Wells Street", "amenity": "bar", "name": "Old Town Pub", "phone": "+1-312-266-6789", "website": "otpchicago.com"}}, {"type": "node", "id": 6324352337, "lat": 41.9169476, "lon": -87.6365562, "tags": {"addr:city": "Chicago", "addr:housenumber": "1909", "addr:postcode": "60614", "addr:state": "IL", "addr:street": "North Lincoln Avenue", "amenity": "restaurant", "name": "La Roccia", "phone": "+1-312-255-0851", "website": "https://www.larocciapizza.com/"}}, {"type": "node", "id": 6324357300, "lat": 41.9034592, "lon": -87.6302929, "tags": {"addr:city": "Chicago", "addr:housenumber": "1154", "addr:postcode": "60610", "addr:state": "IL", "addr:street": "North Dearborn Street", "amenity": "restaurant", "name": "La Storia", "phone": "+1-312-915-5950", "website": "https://lastoriachicago.com/"}}, {"type": "node", "id": 6324371956, "lat": 41.9037963, "lon": -87.6305393, "tags": {"addr:city": "Chicago", "addr:housenumber": "49", "addr:postcode": "60610", "addr:state": "IL", "addr:street": "West Division Street", "amenity": "restaurant", "name": "The Halal Guys", "phone": "+1-312-877-5575", "website": "https://westdivisionstreetchicagoil.thehalalguys.com/"}}, {"type": "node", "id": 6325995436, "lat": 41.9102129, "lon": -87.6344, "tags": {"addr:city": "Chicago", "addr:housenumber": "1535", "addr:postcode": "60610", "addr:state": "IL", "addr:street": "North Wells Street", "amenity": "restaurant", "name": "Woodie\u2019s Flat", "phone": "+1-312-643-0093", "website": "https://www.woodieschicago.com/"}}, {"type": "node", "id": 6326168644, "lat": 41.912159, "lon": -87.6313931, "tags": {"addr:city": "Chicago", "addr:housenumber": "1601", "addr:postcode": "60614", "addr:state": "IL", "addr:street": "North Clark Street", "amenity": "cafe", "name": "North and Clark Caf\u00e9", "phone": "+1-312-799-2121", "website": "https://www.chicagohistory.org/visit/north-clark-cafe/"}}, {"type": "node", "id": 6326478100, "lat": 41.9080596, "lon": -87.6342858, "tags": {"addr:city": "Chicago", "addr:housenumber": "1411", "addr:postcode": "60610", "addr:state": "IL", "addr:street": "North Wells Street", "amenity": "restaurant", "name": "Old Jerusalem", "phone": "+1-312-944-0459", "website": "http://oldjerusalemrestaurant.net/"}}, {"type": "node", "id": 6407268648, "lat": 41.9100061, "lon": -87.6344756, "tags": {"addr:city": "Chicago", "addr:housenumber": "1529", "addr:postcode": "60610", "addr:state": "IL", "addr:street": "North Wells Street", "amenity": "restaurant", "cuisine": "sandwich;dessert", "name": "Bombobar - Old Town", "opening_hours": "Mo-We 08:00-22:00; Fr 08:00-02:30; Sa 09:00-03:30; Su 09:00-22:00", "phone": "+1-312-549-8433", "website": "https://www.bombobar.com"}}, {"type": "node", "id": 6425689677, "lat": 41.9068335, "lon": -87.6347845, "tags": {"addr:city": "Chicago", "addr:housenumber": "1342", "addr:postcode": "60610", "addr:state": "IL", "addr:street": "North Wells Street", "amenity": "restaurant", "cuisine": "sushi;japanese", "name": "Cafe Sushi", "opening_hours": "Mo-Th 17:00-22:30; Fr-Sa 17:00-23:30; Su 16:00-21:30", "phone": "+1-312-337-0700", "website": "http://www.cafesushiwells.com/"}}, {"type": "node", "id": 6757774710, "lat": 41.9113754, "lon": -87.6349829, "tags": {"addr:city": "Chicago", "addr:housenumber": "1608", "addr:postcode": "60614", "addr:state": "IL", "addr:street": "North Wells Street", "amenity": "bar", "name": "Utopian Tailgate", "phone": "+1-312-210-7799", "website": "https://www.utopiantailgate.com"}}, {"type": "node", "id": 7120079536, "lat": 41.9018673, "lon": -87.6220514}, {"type": "node", "id": 7120079537, "lat": 41.9018731, "lon": -87.6220783}, {"type": "node", "id": 7120079538, "lat": 41.9019258, "lon": -87.622055}, {"type": "node", "id": 7120079539, "lat": 41.9019187, "lon": -87.6220265}, {"type": "node", "id": 7120079540, "lat": 41.9018995, "lon": -87.6220152}, {"type": "node", "id": 7120079541, "lat": 41.9019161, "lon": -87.6220814}, {"type": "node", "id": 7120079542, "lat": 41.9018955, "lon": -87.6220929}, {"type": "way", "id": 198549082, "nodes": [2086708649, 2086708645, 2086708647, 2086708650, 2086708649], "tags": {"addr:city": "Chicago", "addr:country": "US", "addr:housenumber": "1615", "addr:postcode": "60614", "addr:state": "IL", "addr:street": "North Wells Street", "addr:street:name": "Wells", "addr:street:prefix": "North", "addr:street:type": "Street", "amenity": "bar", "building": "yes", "building:levels": "3", "chicago:building_id": "301050", "name": "Corcoran's Grill & Pub", "opening_hours": "Mo-Fr 11:00-01:30; Sa 10:30-02:30; Su 10:30-01:30", "phone": "+1-312-440-0885", "source": "Bing 2012", "website": "https://www.corcoransoldtown.com/", "wheelchair": "no"}}, {"type": "way", "id": 206585437, "nodes": [2166039857, 2166039862, 2166039861, 2166039854, 2166039855, 2166039857], "tags": {"addr:city": "Chicago", "addr:country": "US", "addr:housenumber": "1552", "addr:postcode": "60610", "addr:state": "IL", "addr:street": "North Wells Street", "addr:street:name": "Wells", "addr:street:prefix": "North", "addr:street:type": "Street", "amenity": "cafe", "building": "yes", "building:levels": "2", "chicago:building_id": "304450", "name": "Kanela Breakfast Club", "phone": "+1-312-255-1206", "source": "Bing 2012", "website": "http://kanelacafe.com/"}}, {"type": "way", "id": 210315354, "nodes": [2203998741, 2203998749, 2203998788, 2203998793, 2203998747, 2203998741], "tags": {"addr:housenumber": "1548", "addr:street": "North Larrabee Street", "addr:street:name": "Larrabee", "addr:street:prefix": "North", "addr:street:type": "Street", "amenity": "restaurant", "building": "yes", "building:levels": "1", "chicago:building_id": "305179", "cuisine": "burger"}}, {"type": "way", "id": 210679215, "nodes": [2207604514, 2207604498, 2207604493, 2207604503, 2207604510, 2207604512, 2207604517, 2207604518, 2207604703, 2207604704, 2207604697, 2207604701, 2207604695, 2207604514], "tags": {"addr:city": "Chicago", "addr:housenumber": "1031", "addr:state": "IL", "addr:street": "North Rush Street", "addr:street:name": "Rush", "addr:street:prefix": "North", "addr:street:type": "Street", "amenity": "restaurant", "building": "yes", "building:levels": "1", "chicago:building_id": "324657", "name": "Tavern on Rush", "phone": "+1-312-664-9600", "website": "https://www.tavernonrush.com/"}}, {"type": "way", "id": 210679261, "nodes": [2207605390, 4431654562, 2207605395, 2207605614, 2207605631, 2207605641, 2207605398, 2207605389, 2207605390], "tags": {"addr:housenumber": "1118-1120", "addr:street": "North State Street", "addr:street:name": "State", "addr:street:prefix": "North", "addr:street:type": "Street", "amenity": "restaurant", "building": "yes", "chicago:building_id": "878127", "cuisine": "pizza", "name": "Lou Malnati's", "opening_hours": "Mo-Fr 11:00-00:00; Sa,Su 00:00-01:00,11:00-00:00", "website": "https://www.loumalnatis.com/chicago-gold-coast"}}, {"type": "way", "id": 210679421, "nodes": [2207608584, 2207608406, 2207608395, 2207608565, 2207608564, 2207608584], "tags": {"addr:housenumber": "1240", "addr:street": "North Wells Street", "addr:street:name": "Wells", "addr:street:prefix": "North", "addr:street:type": "Street", "amenity": "bar", "building": "yes", "building:levels": "3", "chicago:building_id": "815408", "name": "Declan's"}}, {"type": "way", "id": 210679437, "nodes": [2207608926, 2207609009, 2207609010, 2207609060, 2207609057, 2207609030, 2207609040, 2207608949, 2207608926], "tags": {"addr:housenumber": "1246", "addr:street": "North Wells Street", "addr:street:name": "Wells", "addr:street:prefix": "North", "addr:street:type": "Street", "amenity": "restaurant", "building": "yes", "building:levels": "3", "chicago:building_id": "317889", "cuisine": "chinese", "name": "China Doll"}}, {"type": "way", "id": 210679449, "nodes": [2207609278, 2207609188, 2207609186, 2207609180, 2207609174, 2207609177, 2207609172, 2207609269, 2207609270, 2207609278], "tags": {"addr:housenumber": "1252", "addr:street": "North Wells Street", "addr:street:name": "Wells", "addr:street:prefix": "North", "addr:street:type": "Street", "amenity": "restaurant", "building": "yes", "building:levels": "3", "chicago:building_id": "815387", "cuisine": "mexican", "name": "Salpicon"}}, {"type": "way", "id": 210679704, "nodes": [2207604696, 2207604698, 2207604702, 2207604505, 2207604504, 2207604515, 2207604516, 2207604696], "tags": {"addr:city": "Chicago", "addr:housenumber": "22", "addr:postcode": "60611", "addr:state": "IL", "addr:street": "East Bellevue Place", "addr:street:name": "Bellevue", "addr:street:prefix": "East", "addr:street:type": "Place", "amenity": "restaurant", "building": "yes", "building:levels": "1", "chicago:building_id": "815527", "cuisine": "american;breakfast", "name": "The Original Pancake House", "phone": "+1-312-642-7917", "website": "https://www.ophchicagoland.com"}}, {"type": "way", "id": 210679752, "nodes": [2207607263, 2207607264, 2207607348, 2207607343, 2207607263], "tags": {"addr:housenumber": "238", "addr:street": "West Division Street", "addr:street:name": "Division", "addr:street:prefix": "West", "addr:street:type": "Street", "amenity": "restaurant", "building": "yes", "building:levels": "1", "chicago:building_id": "320662", "cuisine": "pizza", "name": "Sammy's Red Hots", "opening_hours": "09:00-02:00", "phone": "312-266-7290", "website": "http://sammysredhotschicago.com/"}}, {"type": "way", "id": 210680452, "nodes": [2207604483, 2207604511, 2207604513, 2207604487, 2207604483], "tags": {"amenity": "cafe", "building": "roof", "chicago:building_id": "324968", "name": "Bow Truss Coffee Roasters"}}, {"type": "way", "id": 210684438, "nodes": [2207635617, 2207635615, 2207635541, 2207635538, 2207635618, 2207635617], "tags": {"addr:city": "Chicago", "addr:housenumber": "1401", "addr:postcode": "60610", "addr:state": "IL", "addr:street": "North Wells Street", "addr:street:name": "Wells", "addr:street:prefix": "North", "addr:street:type": "Street", "amenity": "restaurant", "building": "yes", "building:levels": "3", "chicago:building_id": "815317", "cuisine": "italian", "name": "Orso's", "opening_hours": "Mo-Th 11:00-23:00; Fr-Sa 11:00-00:00; Su 10:00-22:00", "phone": "+1-312-787-6604", "website": "http://www.orsosrestaurant.com"}}, {"type": "way", "id": 210684661, "nodes": [2393465796, 2207637813, 6081060321, 2207637819, 2207637782, 6081060319, 2207637785, 2207637826, 2207637827, 2207637706, 2207637705, 2207637696, 2393465797, 2393465796], "tags": {"addr:city": "Chicago", "addr:housenumber": "1447", "addr:postcode": "60610", "addr:state": "IL", "addr:street": "North Wells Street", "addr:street:name": "Wells", "addr:street:prefix": "North", "addr:street:type": "Street", "amenity": "bar", "building": "yes", "building:levels": "3", "chicago:building_id": "309192", "name": "Burton Place", "phone": "+1-312-664-4699"}}, {"type": "way", "id": 210684734, "nodes": [2207638564, 2207638657, 2207638661, 2207638569, 2207638564], "tags": {"addr:housenumber": "1507", "addr:street": "North Sedgwick Street", "addr:street:name": "Sedgwick", "addr:street:prefix": "North", "addr:street:type": "Street", "amenity": "restaurant", "building": "yes", "building:levels": "1", "chicago:building_id": "815577", "cuisine": "chinese", "name": "Lan's China Bistro"}}, {"type": "way", "id": 210684816, "nodes": [2207639310, 2207638967, 2207638968, 2207638957, 2207638953, 2207639299, 2207639310], "tags": {"addr:housenumber": "1525-1527", "addr:street": "North Wells Street", "addr:street:name": "Wells", "addr:street:prefix": "North", "addr:street:type": "Street", "amenity": "bar", "building": "yes", "building:levels": "1", "chicago:building_id": "815256"}}, {"type": "way", "id": 210684908, "nodes": [2207640485, 2207640351, 2207640348, 2207640358, 2207640378, 2207640380, 2207640484, 2207640485], "tags": {"addr:housenumber": "157", "addr:street": "West North Avenue", "addr:street:name": "North", "addr:street:prefix": "West", "addr:street:type": "Avenue", "amenity": "restaurant", "building": "yes", "building:levels": "2", "chicago:building_id": "815206"}}, {"type": "way", "id": 220408416, "nodes": [2295332895, 2295332899, 7120079540, 7120079539, 7120079538, 7120079541, 7120079542, 7120079537, 7120079536, 2295332894, 2295332892, 2295332893, 2295332897, 2295332898, 2295332895], "tags": {"amenity": "cafe", "building": "terrace", "name": "Oak Street Beach Caf\u00e9"}}, {"type": "way", "id": 240217310, "nodes": [2479668244, 2479668242, 2479668243, 2479668245, 2479668244], "tags": {"addr:city": "Chicago", "addr:housenumber": "1447", "addr:postcode": "60610", "addr:state": "IL", "addr:street": "North Sedgwick Street", "addr:street:name": "Sedgwick", "addr:street:prefix": "North", "addr:street:type": "Street", "amenity": "cafe", "building": "yes", "name": "Eva's Cafe", "phone": "+1-312-280-8900", "website": "https://evascafeoldtown.com/"}}]}