{"version": 0.6, "generator": "Overpass API 0.7.56.3 eb200aeb", "osm3s": {"timestamp_osm_base": "2020-07-17T21:20:03Z", "copyright": "The data included in this document is from www.openstreetmap.org. The data is made available under ODbL."}, "elements": [{"type": "node", "id": 479652780, "lat": 41.8846406, "lon": -87.6476069, "tags": {"addr:city": "Chicago", "addr:housenumber": "800", "addr:postcode": "60607", "addr:state": "IL", "addr:street": "West Randolph Street", "amenity": "restaurant", "cuisine": "upscale_\"diner\";burger;american", "name": "Au Cheval", "opening_hours": "Mo-Sa 10:00-01:00; Su 09:00-00:00", "phone": "1-312-929-4580", "website": "http://auchevalchicago.com/"}}, {"type": "node", "id": 1699207283, "lat": 41.8855339, "lon": -87.6429355, "tags": {"addr:city": "Chicago", "addr:housenumber": "605", "addr:postcode": "60661", "addr:state": "IL", "addr:street": "West Lake Street", "amenity": "restaurant", "cuisine": "thai;asian", "delivery": "yes", "name": "Bang Chop Thai Kitchen", "opening_hours": "Mo-Fr 11:00-20:30", "phone": "+1-312-285-2800", "website": "http://www.bangchopthaikitchenchicago.com/"}}, {"type": "node", "id": 2203578021, "lat": 41.8864495, "lon": -87.6485349}, {"type": "node", "id": 2203578023, "lat": 41.8864504, "lon": -87.6484469}, {"type": "node", "id": 2203578385, "lat": 41.8866769, "lon": -87.6485392}, {"type": "node", "id": 2203578387, "lat": 41.8866779, "lon": -87.6484512}, {"type": "node", "id": 2203578493, "lat": 41.8868516, "lon": -87.6520574}, {"type": "node", "id": 2203578494, "lat": 41.8868556, "lon": -87.6516901}, {"type": "node", "id": 2203578545, "lat": 41.8869125, "lon": -87.6461716}, {"type": "node", "id": 2203578549, "lat": 41.8869154, "lon": -87.6459586}, {"type": "node", "id": 2203578554, "lat": 41.886925, "lon": -87.6459585}, {"type": "node", "id": 2203578606, "lat": 41.8870717, "lon": -87.6516943}, {"type": "node", "id": 2203578659, "lat": 41.8871136, "lon": -87.6520583}, {"type": "node", "id": 2203578661, "lat": 41.8871156, "lon": -87.6516966}, {"type": "node", "id": 2203578777, "lat": 41.8872872, "lon": -87.6459601}, {"type": "node", "id": 2203578844, "lat": 41.8873764, "lon": -87.6461832}, {"type": "node", "id": 2203578846, "lat": 41.8873792, "lon": -87.6459665}, {"type": "node", "id": 2203580582, "lat": 41.8900939, "lon": -87.6578717}, {"type": "node", "id": 2203580583, "lat": 41.8900957, "lon": -87.6574769}, {"type": "node", "id": 2203580648, "lat": 41.8901189, "lon": -87.6551243}, {"type": "node", "id": 2203580662, "lat": 41.8901248, "lon": -87.6547276}, {"type": "node", "id": 2203580748, "lat": 41.8901667, "lon": -87.6578728}, {"type": "node", "id": 2203580750, "lat": 41.8901685, "lon": -87.6574779}, {"type": "node", "id": 2203580768, "lat": 41.8901779, "lon": -87.6551273}, {"type": "node", "id": 2203580772, "lat": 41.8901838, "lon": -87.6547288}, {"type": "node", "id": 2203583448, "lat": 41.8907222, "lon": -87.6599457}, {"type": "node", "id": 2203583453, "lat": 41.890723, "lon": -87.6598557}, {"type": "node", "id": 2203583502, "lat": 41.8907441, "lon": -87.6599454}, {"type": "node", "id": 2203583549, "lat": 41.8908013, "lon": -87.6598567}, {"type": "node", "id": 2203583552, "lat": 41.8908096, "lon": -87.6598731}, {"type": "node", "id": 2203583587, "lat": 41.8908631, "lon": -87.6598726}, {"type": "node", "id": 2203583591, "lat": 41.8908712, "lon": -87.6598596}, {"type": "node", "id": 2203583715, "lat": 41.8909404, "lon": -87.6599489}, {"type": "node", "id": 2203583724, "lat": 41.8909426, "lon": -87.6598607}, {"type": "node", "id": 2203936165, "lat": 41.8912981, "lon": -87.6472549}, {"type": "node", "id": 2203936451, "lat": 41.8914248, "lon": -87.6472556}, {"type": "node", "id": 2207599830, "lat": 41.8945803, "lon": -87.6375406}, {"type": "node", "id": 2207599831, "lat": 41.8945843, "lon": -87.637262}, {"type": "node", "id": 2207599832, "lat": 41.8945842, "lon": -87.6372747}, {"type": "node", "id": 2207599896, "lat": 41.8946462, "lon": -87.6375424}, {"type": "node", "id": 2207599898, "lat": 41.8946479, "lon": -87.6374296}, {"type": "node", "id": 2207599903, "lat": 41.8946573, "lon": -87.6374299}, {"type": "node", "id": 2207599904, "lat": 41.8946598, "lon": -87.637264}, {"type": "node", "id": 2357293589, "lat": 41.8846322, "lon": -87.6484701, "tags": {"addr:city": "Chicago", "addr:housenumber": "820", "addr:postcode": "60607", "addr:state": "IL", "addr:street": "West Randolph Street", "amenity": "restaurant", "cuisine": "american", "name": "Little Goat Diner", "opening_hours": "Mo-Th 07:00-22:00; Fr-Sa 07:00-00:00; Su 07:00-22:00", "phone": "+1-312-888-3455", "website": "https://littlegoatchicago.com/"}}, {"type": "node", "id": 2478422406, "lat": 41.8897866, "lon": -87.6371788, "tags": {"amenity": "cafe", "brand": "Starbucks", "brand:wikidata": "Q37158", "brand:wikipedia": "en:Starbucks", "cuisine": "coffee_shop", "name": "Starbucks", "official_name": "Starbucks Coffee", "takeaway": "yes"}}, {"type": "node", "id": 2485000319, "lat": 41.8846116, "lon": -87.6373395, "tags": {"amenity": "cafe", "brand": "Starbucks", "brand:wikidata": "Q37158", "brand:wikipedia": "en:Starbucks", "cuisine": "coffee_shop", "name": "Starbucks", "official_name": "Starbucks Coffee", "takeaway": "yes"}}, {"type": "node", "id": 2570892816, "lat": 41.8859048, "lon": -87.6430854, "tags": {"amenity": "cafe", "brand": "Starbucks", "brand:wikidata": "Q37158", "brand:wikipedia": "en:Starbucks", "cuisine": "coffee_shop", "name": "Starbucks", "official_name": "Starbucks Coffee", "takeaway": "yes"}}, {"type": "node", "id": 2870453012, "lat": 41.8970504, "lon": -87.6433416, "tags": {"addr:city": "Chicago", "addr:housenumber": "600", "addr:postcode": "60654", "addr:street": "West Chicago Avenue", "amenity": "restaurant", "cuisine": "Bar_Food", "name": "Motel Bar", "smoking": "no"}}, {"type": "node", "id": 2870454030, "lat": 41.897217, "lon": -87.6433446, "tags": {"addr:city": "Chicago", "addr:housenumber": "600", "addr:postcode": "60654", "addr:street": "West Chicago Avenue", "amenity": "restaurant", "cuisine": "sandwich", "name": "Snarf's"}}, {"type": "node", "id": 2870517023, "lat": 41.8992975, "lon": -87.6428845, "tags": {"amenity": "restaurant", "cuisine": "sandwich", "name": "Goddess & the Grocer"}}, {"type": "node", "id": 3094904880, "lat": 41.8912975, "lon": -87.6474278}, {"type": "node", "id": 3094904881, "lat": 41.8915099, "lon": -87.6472562}, {"type": "node", "id": 3094904882, "lat": 41.8915093, "lon": -87.6474291}, {"type": "node", "id": 3114037604, "lat": 41.9003844, "lon": -87.6377709, "tags": {"amenity": "restaurant", "cuisine": "kyrgyz", "name": "Dastorkon"}}, {"type": "node", "id": 3367138857, "lat": 41.8861273, "lon": -87.6484831}, {"type": "node", "id": 3367138858, "lat": 41.8861312, "lon": -87.648271}, {"type": "node", "id": 3367138859, "lat": 41.8861848, "lon": -87.6483855}, {"type": "node", "id": 3367138860, "lat": 41.8861869, "lon": -87.6482729}, {"type": "node", "id": 3367138861, "lat": 41.8861959, "lon": -87.6484855}, {"type": "node", "id": 3367138862, "lat": 41.8861978, "lon": -87.6483859}, {"type": "node", "id": 3575173111, "lat": 41.8865946, "lon": -87.6520069, "tags": {"addr:city": "Chicago", "addr:housenumber": "953", "addr:postcode": "60607", "addr:state": "IL", "addr:street": "West Fulton Market", "amenity": "restaurant", "cuisine": "fine_dining", "name": "Next", "phone": "+1-312-226-0858", "website": "https://www.nextrestaurant.com/", "wikidata": "Q7020950", "wikipedia": "en:Next (restaurant)"}}, {"type": "node", "id": 3575173112, "lat": 41.8865101, "lon": -87.6519209, "tags": {"addr:city": "Chicago", "addr:housenumber": "955", "addr:postcode": "60607", "addr:state": "IL", "addr:street": "West Fulton Market", "amenity": "bar", "name": "The Aviary", "opening_hours": "Su-We 17:00-00:00; Th-Fr 17:00-02:00; 17:00-03:00", "phone": "+1-312-226-0868", "website": "theaviary.com"}}, {"type": "node", "id": 3575231494, "lat": 41.8910574, "lon": -87.6471083, "tags": {"addr:city": "Chicago", "addr:housenumber": "495", "addr:postcode": "60654", "addr:state": "IL", "addr:street": "North Milwaukee Avenue", "amenity": "bar", "name": "Emmit's Irish Pub", "opening_hours": "Mo-Th 16:00-02:00; Fr 15:00-02:00; Sa 11:00-03:00; Su 11:00-02:00", "phone": "+1-312-563-9631", "website": "https://www.emmits.com/"}}, {"type": "node", "id": 3575231495, "lat": 41.8910436, "lon": -87.6470004, "tags": {"addr:city": "Chicago", "addr:housenumber": "491", "addr:postcode": "60654", "addr:state": "IL", "addr:street": "North Milwaukee Avenue", "amenity": "bar", "name": "Richard's Bar", "opening_hours": "Mo-Fr 08:00-02:00; Sa 09:00-03:00; Su 12:00-02:00", "phone": "+1-312-733-2251"}}, {"type": "node", "id": 3575231496, "lat": 41.8910439, "lon": -87.6468381, "tags": {"addr:city": "Chicago", "addr:housenumber": "721", "addr:postcode": "60654", "addr:state": "IL", "addr:street": "West Grand Avenue", "amenity": "restaurant", "cuisine": "italian", "name": "La Scarola", "opening_hours": "Mo-Fr 17:00-23:00; Sa 16:00-23:00; Su 16:00-22:00", "phone": "+1-312-243-1740", "website": "http://lascarola.com/"}}, {"type": "node", "id": 3575231700, "lat": 41.8896009, "lon": -87.6448653, "tags": {"addr:city": "Chicago", "addr:housenumber": "415", "addr:postcode": "60654", "addr:state": "IL", "addr:street": "North Milwaukee Avenue", "amenity": "bar", "name": "The Swill Inn"}}, {"type": "node", "id": 3618178425, "lat": 41.8961397, "lon": -87.6554969, "tags": {"addr:city": "Chicago", "addr:housenumber": "1105", "addr:postcode": "60622", "addr:state": "IL", "addr:street": "West Chicago Avenue", "amenity": "cafe", "name": "Big Shoulders Coffee", "opening_hours": "Mo-Fr 06:00-19:00; Sa-Su 07:30-17:00"}}, {"type": "node", "id": 4076939309, "lat": 41.8866569, "lon": -87.6488989, "tags": {"addr:city": "Chicago", "addr:housenumber": "837", "addr:postcode": "60607", "addr:state": "IL", "addr:street": "West Fulton Market", "amenity": "restaurant", "cuisine": "seafood;pork", "name": "The Publican", "opening_hours": "Mo-Th 15:30-21:30; Fr-Sa 15:30-22:30; Su 17:00-21:30", "phone": "+1-312-733-9555", "website": "thepublicanrestaurant.com"}}, {"type": "node", "id": 4076939311, "lat": 41.8845767, "lon": -87.6519538, "tags": {"amenity": "cafe", "brand": "Starbucks", "brand:wikidata": "Q37158", "brand:wikipedia": "en:Starbucks", "cuisine": "coffee_shop", "name": "Starbucks", "official_name": "Starbucks Coffee", "takeaway": "yes"}}, {"type": "node", "id": 4076939316, "lat": 41.8846242, "lon": -87.6490718, "tags": {"addr:city": "Chicago", "addr:housenumber": "840", "addr:postcode": "60607", "addr:state": "IL", "addr:street": "West Randolph Street", "amenity": "bar", "name": "Maude's Liquor Bar", "opening_hours": "Mo 17:00-22:00; Tu-Th 17:00-23:00; Fr 17:00-00:00; Sa 17:00-00:00; Su 17:00-22:00", "phone": "+1-312-243-9712", "website": "http://maudesliquorbar.com/"}}, {"type": "node", "id": 4076939317, "lat": 41.8846219, "lon": -87.6492059, "tags": {"addr:city": "Chicago", "addr:housenumber": "844", "addr:postcode": "60607", "addr:state": "IL", "addr:street": "West Randolph Street", "amenity": "restaurant", "cuisine": "burger;american", "name": "Grange Hall Burger Bar", "opening_hours": "Tu-th 17:00-22:00; Fr 11:30-23:00; Sa 09:00-23:00; Su 09:00-16:00", "phone": "+1-312-491-0844", "website": "http://grangehallburgerbar.com"}}, {"type": "node", "id": 4457007838, "lat": 41.8846234, "lon": -87.6488209, "tags": {"addr:city": "Chicago", "addr:country": "US", "addr:housenumber": "832", "addr:postcode": "60607", "addr:state": "IL", "addr:street": "West Randolph Street", "amenity": "restaurant", "name": "Bar Siena", "opening_hours": "Tu-Fr 11:30-02:00; Sa 09:00-03:00; Su 09:00-02:00; Mo 11:30-02:00", "phone": "+1-312-492-7775", "website": "http://barsiena.com"}}, {"type": "node", "id": 4567406790, "lat": 41.8962701, "lon": -87.6482164, "tags": {"addr:city": "Chicago", "addr:housenumber": "811", "addr:postcode": "60642", "addr:state": "IL", "addr:street": "West Chicago Avenue", "amenity": "cafe", "name": "Cafe Blue", "phone": "+1-312-763-2870", "website": "http://www.cafe.blue/"}}, {"type": "node", "id": 4688046612, "lat": 41.8846306, "lon": -87.6478713, "tags": {"addr:city": "Chicago", "addr:housenumber": "800", "addr:postcode": "60607", "addr:state": "IL", "addr:street": "West Randolph Street", "amenity": "bar", "name": "Lone Wolf", "opening_hours": "Mo-Fr 16:00-02:00; Sa 12:00-15:00; Su 12:00-02:00", "phone": "+1-312-600-9391", "website": "https://www.lonewolftavern.com/#new-page"}}, {"type": "node", "id": 4697798553, "lat": 41.894242, "lon": -87.659813, "tags": {"addr:city": "Chicago", "addr:housenumber": "1303", "addr:postcode": "60642", "addr:state": "IL", "addr:street": "West Huron Street", "amenity": "restaurant", "cuisine": "mexican", "name": "Taqueria El Jardin", "opening_hours": "09:00-19:30", "outdoor_seating": "no", "smoking": "no", "takeaway": "yes"}}, {"type": "node", "id": 4726220389, "lat": 41.8858519, "lon": -87.648447, "tags": {"addr:city": "Chicago", "addr:housenumber": "820", "addr:postcode": "60607", "addr:state": "IL", "addr:street": "West Lake Street", "amenity": "restaurant", "cuisine": "japanese;sushi", "name": "The Izakaya at Momotaro", "opening_hours": "Su 16:30-22:30; Mo-Th 17:00-22:30; Fr 16:30-23:00; Sa 16:30-00:00", "phone": "+1-312-733-4818", "website": "http://momotarochicago.com"}}, {"type": "node", "id": 4731260221, "lat": 41.8869199, "lon": -87.652526, "tags": {"addr:city": "Chicago", "addr:housenumber": "1000", "addr:postcode": "60607", "addr:state": "IL", "addr:street": "West Fulton Market", "amenity": "restaurant", "cuisine": "seafood;sandwiches", "name": "Cold Storage", "name:en": "Cold Storage", "opening_hours": "Mo-Th 11:00-23:00; Sa 16:30-00:00; Su 16:30-22:30", "phone": "+1-312-638-6280", "website": "https://www.coldstoragechicago.com/"}}, {"type": "node", "id": 4888074922, "lat": 41.8891109, "lon": -87.6520123, "tags": {"addr:city": "Chicago", "addr:housenumber": "401", "addr:postcode": "60607", "addr:state": "IL", "addr:street": "North Morgan Street", "amenity": "restaurant", "delivery": "no", "description": "The Brass Monkey is a private event venue.", "name": "The Brass Monkey", "outdoor_seating": "no", "phone": "+1-312-763-3316", "takeaway": "no"}}, {"type": "node", "id": 5141715525, "lat": 41.884627, "lon": -87.6479979, "tags": {"addr:housenumber": "802", "addr:street": "West Randolph Street", "amenity": "restaurant", "name": "Bad Hunter"}}, {"type": "node", "id": 5249789676, "lat": 41.8848398, "lon": -87.6507983, "tags": {"addr:city": "Chicago", "addr:housenumber": "161", "addr:postcode": "60607", "addr:state": "IL", "addr:street": "North Sangamon Street", "amenity": "restaurant", "cuisine": "roman;italian", "name": "Bonci Pizzeria", "opening_hours": "Mo-Th 11:00-22:00; Fr-Sa 11:00-23:00; Su 11:00-21:00", "phone": "+1-312-243-4016", "website": "https://bonciusa.com/"}}, {"type": "node", "id": 5299997866, "lat": 41.896462, "lon": -87.6550805, "tags": {"addr:city": "Chicago", "addr:housenumber": "1062", "addr:postcode": "60642", "addr:state": "IL", "addr:street": "West Chicago Avenue", "amenity": "restaurant", "name": "Windy City Cafe", "phone": "+1-312-492-8010", "website": "https://windycity-cafe.com/"}}, {"type": "node", "id": 5310397019, "lat": 41.8983773, "lon": -87.6374532, "tags": {"addr:city": "Chicago", "addr:housenumber": "860", "addr:postcode": "60610", "addr:state": "IL", "addr:street": "North Orleans Street", "amenity": "restaurant", "cuisine": "american", "description": "Hot dogs and fast food. Featured on Diners, Drive Ins, and Dives.", "name": "BIG & little's Restaurant", "opening_hours": "Mo-Fr 11:00-21:00; Sa 12:00-21:00; Su 12:00-20:00", "phone": "+1-312-943-0000", "website": "https://www.bigandlittleschicago.com/"}}, {"type": "node", "id": 5398863224, "lat": 41.8913731, "lon": -87.648171, "tags": {"addr:city": "Chicago", "addr:housenumber": "506", "addr:postcode": "60642", "addr:state": "IL", "addr:street": "North Milwaukee Avenue", "amenity": "cafe", "cuisine": "coffee_shop", "name": "Starbucks"}}, {"type": "node", "id": 5441371907, "lat": 41.8872097, "lon": -87.650725, "tags": {"addr:city": "Chicago", "addr:housenumber": "311", "addr:postcode": "60607", "addr:state": "IL", "addr:street": "North Sangamon Street", "amenity": "restaurant", "cuisine": "american;drinks", "name": "Fulton Market Kitchen", "opening_hours": "Tu-Fr 17:00-02:00; Sa 17:00-03:00", "phone": "+1-312-733-6900", "website": "https://www.fultonmarketkitchen.com/"}}, {"type": "node", "id": 5441373072, "lat": 41.8866336, "lon": -87.6494008, "tags": {"addr:city": "Chicago", "addr:housenumber": "847", "addr:postcode": "60607", "addr:state": "IL", "addr:street": "West Fulton Market", "amenity": "restaurant", "cuisine": "southern;chicken;fried_chicken", "name": "Gus's World Famous Fried Chicken", "opening_hours": "Mo-Th 11:00-22:00; Fr-Sa 11:00-23:00; Su 11:00-21:00", "phone": "+1-312-733-1971", "website": "http://gusfriedchicken.com/"}}, {"type": "node", "id": 5441374473, "lat": 41.8866376, "lon": -87.6496341, "tags": {"addr:city": "Chicago", "addr:housenumber": "857", "addr:postcode": "60607", "addr:state": "IL", "addr:street": "West Fulton Market", "amenity": "restaurant", "cuisine": "chinese", "name": "Duck Duck Goat", "opening_hours": "Su-Th 16:30-22:30; Fr-Sa 16:30-23:30; Sa-Su 11:00-16:00", "phone": "+1-312-902-3825", "website": "duckduckgoatchicago.com"}}, {"type": "node", "id": 5441377149, "lat": 41.886605, "lon": -87.6518793, "tags": {"addr:city": "Chicago", "addr:housenumber": "951", "addr:postcode": "60607", "addr:state": "IL", "addr:street": "West Fulton Market", "amenity": "restaurant", "cuisine": "american", "name": "Roister Restaurant", "opening_hours": "Mo-Th 17:00-21:00; Fr-Su 10:00-14:00; Fr-Su 17:00-22:00", "website": "http://roisterrestaurant.com"}}, {"type": "node", "id": 5441383176, "lat": 41.8869381, "lon": -87.6488617, "tags": {"addr:city": "Chicago", "addr:housenumber": "834", "addr:postcode": "60607", "addr:state": "IL", "addr:street": "West Fulton Market", "amenity": "restaurant", "cuisine": "american;drinks", "name": "Beatrix Fulton Market", "opening_hours": "Mo-Fr 07:00-22:00; Sa 08:00-23:00; Su 08:00-21:00", "phone": "+1-312-733-0370", "website": "http://beatrixrestaurants.com"}}, {"type": "node", "id": 5441383743, "lat": 41.8869605, "lon": -87.6496187, "tags": {"addr:city": "Chicago", "addr:housenumber": "852", "addr:postcode": "60607", "addr:state": "IL", "addr:street": "West Fulton Market", "amenity": "restaurant", "cuisine": "burger", "name": "Kuma's Corner - West Loop", "opening_hours": "Su-Th 11:15-23:00; Fr-Sa 11:15-00:00", "phone": "+1-312-666-9090", "website": "https://kumascorner.com/"}}, {"type": "node", "id": 5441385374, "lat": 41.8866515, "lon": -87.6484218, "tags": {"addr:city": "Chicago", "addr:housenumber": "819", "addr:postcode": "60607", "addr:state": "IL", "addr:street": "West Fulton Market", "amenity": "restaurant", "cuisine": "ramen;noodle", "name": "Omakase Takeya", "opening_hours": "Tu-Su 11:30-14:30; We-Th 17:00-22:30; Fr-Sa 17:00-23:00; Su 17:00-21:30", "phone": "+1-312-666-7710", "website": "http://ramentakeya.com"}}, {"type": "node", "id": 5441388896, "lat": 41.8875203, "lon": -87.6519922, "tags": {"addr:city": "Chicago", "addr:housenumber": "311", "addr:postcode": "60607", "addr:state": "IL", "addr:street": "North Morgan Street", "amenity": "restaurant", "cuisine": "american;drinks", "name": "City Mouse Chicago", "opening_hours": "Mo-Su 07:00-23:00", "phone": "+1-312-764-1908", "website": "https://www.citymousechicago.com/"}}, {"type": "node", "id": 5441396526, "lat": 41.8876449, "lon": -87.6523807, "tags": {"addr:city": "Chicago", "addr:housenumber": "326", "addr:postcode": "60607", "addr:state": "IL", "addr:street": "North Morgan Street", "amenity": "restaurant", "cuisine": "american;street_food", "name": "Regards to Edith", "opening_hours": "Mo-Th 17:00-22:00; Fr 16:00-23:00; Sa 10:00-23:00; Su 10:00-22:00", "phone": "+1-312-763-6564", "website": "regardstoedith.com"}}, {"type": "node", "id": 5441403136, "lat": 41.8871969, "lon": -87.6524263, "tags": {"addr:city": "Chicago", "addr:housenumber": "1000", "addr:postcode": "60607", "addr:state": "IL", "addr:street": "West Fulton Market", "amenity": "restaurant", "cuisine": "steak;seafood", "name": "Swift & Sons", "opening_hours": "Mo-Th 16:30-23:00; Fr-Sa 16:30-00:00; Su 16:30-22:30", "phone": "+1-312-733-9420", "website": "https://www.swiftandsonschicago.com/"}}, {"type": "node", "id": 5448894821, "lat": 41.8845857, "lon": -87.6542009, "tags": {"addr:city": "Chicago", "addr:housenumber": "1048", "addr:postcode": "60607", "addr:state": "IL", "addr:street": "West Randolph Street", "amenity": "restaurant", "cuisine": "pizza;italian", "email": "Fornorossochicago@gmail.com", "name": "Forno Rosso Pizzeria Napoletana", "opening_hours": "Su-Th 11:00-22:00; Fr-Sa 11:00-00:00", "phone": "+1-773-716-3000", "website": "http://www.fornorossopizzeria.com/"}}, {"type": "node", "id": 5452994604, "lat": 41.8853503, "lon": -87.6519829, "tags": {"addr:city": "Chicago", "addr:housenumber": "181", "addr:postcode": "60607", "addr:state": "IL", "addr:street": "North Morgan Street", "amenity": "cafe", "cuisine": "donut;coffee;chicken;sandwich", "name": "Do-Rite Donuts & Coffee", "opening_hours": "Mo-Th 06:30-19:00; Fr 06:30-01:00; Sa 07:00-01:00; Su 07:00-19:00", "phone": "+1-312-624-8878", "website": "http://doritedonuts.com/"}}, {"type": "node", "id": 5457991656, "lat": 41.8944231, "lon": -87.6373733, "tags": {"addr:city": "Chicago", "addr:housenumber": "666", "addr:postcode": "60654", "addr:state": "IL", "addr:street": "North Orleans Street", "amenity": "restaurant", "cuisine": "regional;italian", "name": "Mr. Beef on Orleans", "opening_hours": "Mo-Th 10:00-18:00; Fr 10:00-04:00; Sa 10:30-05:00", "phone": "+1-312-337-8500"}}, {"type": "node", "id": 5457994277, "lat": 41.8937476, "lon": -87.6373553, "tags": {"addr:city": "Chicago", "addr:housenumber": "644", "addr:postcode": "60654", "addr:state": "IL", "addr:street": "North Orleans Street", "amenity": "restaurant", "cuisine": "brunch;american", "name": "Brunch", "opening_hours": "Mo-Fr 07:00-15:00; Sa-Su 08:00-16:00", "phone": "+1-312-265-1411", "website": "https://www.brunchit.com/"}}, {"type": "node", "id": 5457997976, "lat": 41.8941144, "lon": -87.6373493, "tags": {"addr:city": "Chicago", "addr:housenumber": "660", "addr:postcode": "60654", "addr:state": "IL", "addr:street": "North Orleans Street", "amenity": "restaurant", "cuisine": "mediterranean", "name": "Bernie's Lunch & Supper", "opening_hours": "Mo-Th 11:00-22:00; Fr 11:00-23:00; Sa 10:00-23:00; Su 10:00-17:00", "phone": "+1-312-624-9892", "website": "http://bernieslunchandsupper.com/"}}, {"type": "node", "id": 5458005427, "lat": 41.8896816, "lon": -87.6372631, "tags": {"addr:city": "Chicago", "addr:housenumber": "414", "addr:postcode": "60654", "addr:state": "IL", "addr:street": "North Orleans Street", "amenity": "bar", "name": "Reverie", "opening_hours": "Th 21:00-02:00; Fr 15:00-02:00; Sa 21:00-03:00", "phone": "+1-312-467-4141", "website": "http://www.reveriechicago.com/"}}, {"type": "node", "id": 5458006342, "lat": 41.889785, "lon": -87.6376935, "tags": {"addr:city": "Chicago", "addr:housenumber": "353", "addr:postcode": "60654", "addr:state": "IL", "addr:street": "West Hubbard Street", "amenity": "restaurant", "cuisine": "seafood;american", "name": "The Hampton Social - River North", "opening_hours": "Mo-Tu 11:00-22:00; We-Th 11:00-23:00; Fr 11:00-00:00; Sa 10:00-00:00; Su 10:00-22:00", "phone": "+1-312-464-0500", "website": "https://www.thehamptonsocial.com/"}}, {"type": "node", "id": 5458006691, "lat": 41.8900951, "lon": -87.6377144, "tags": {"addr:city": "Chicago", "addr:housenumber": "354", "addr:postcode": "60654", "addr:state": "IL", "addr:street": "West Hubbard Street", "amenity": "restaurant", "cuisine": "burger;coffee", "name": "3 Greens Market", "opening_hours": "Mo-Fr 07:00-20:00; Sa-Su 08:00-15:00", "phone": "+1-312-888-9195", "website": "http://3greensmarket.com/"}}, {"type": "node", "id": 5458008447, "lat": 41.8933455, "lon": -87.6391791, "tags": {"addr:city": "Chicago", "addr:housenumber": "416", "addr:postcode": "60654", "addr:state": "IL", "addr:street": "West Ontario Street", "amenity": "restaurant", "cuisine": "american", "name": "Hutch American Cafe", "opening_hours": "Mo-Su 08:00-15:00", "phone": "+1-312-300-4195", "website": "https://www.hutchchicago.com/"}}, {"type": "node", "id": 5458149906, "lat": 41.889796, "lon": -87.6378482, "tags": {"addr:city": "Chicago", "addr:housenumber": "353", "addr:postcode": "60654", "addr:state": "IL", "addr:street": "West Hubbard Street", "addr:unit": "Lower Level", "amenity": "bar", "name": "The Bassment", "opening_hours": "We-Fr 20:00-02:00; Sa 20:00-03:00", "phone": "+1-312-386-5778", "website": "https://www.thebassmentchicago.com/"}}, {"type": "node", "id": 5458152669, "lat": 41.894551, "lon": -87.6373962, "tags": {"addr:city": "Chicago", "addr:housenumber": "676", "addr:postcode": "60654", "addr:state": "IL", "addr:street": "North Orleans Street", "amenity": "bar", "name": "The Drifter Chicago", "phone": "+1-312-631-3887", "website": "https://www.thedrifterchicago.com/"}}, {"type": "node", "id": 5460297238, "lat": 41.884643, "lon": -87.6424139, "tags": {"addr:city": "Chicago", "addr:housenumber": "564", "addr:postcode": "60661", "addr:state": "IL", "addr:street": "West Randolph Street", "amenity": "bar", "name": "CH Distillery", "opening_hours": "Tu-Th 16:00-22:00; Fr 16:00-23:00; Sa 17:00-23:00", "phone": "+1-312-707-8780", "website": "https://chdistillery.com/"}}, {"type": "node", "id": 5460308912, "lat": 41.8855982, "lon": -87.6422429, "tags": {"addr:city": "Chicago", "addr:housenumber": "567", "addr:postcode": "60661", "addr:state": "IL", "addr:street": "West Lake Street", "amenity": "restaurant", "cuisine": "vietnamese;asian", "name": "Saigon Sisters", "opening_hours": "Mo 11:00-14:00; Tu-Th 11:00-21:00; Fr 11:00-22:00; Sa 17:00-22:00", "phone": "+1-312-496-0090", "website": "https://www.saigonsisters.com/"}}, {"type": "node", "id": 5460317300, "lat": 41.8854657, "lon": -87.6437925, "tags": {"addr:city": "Chicago", "addr:housenumber": "627", "addr:postcode": "60661", "addr:state": "IL", "addr:street": "West Lake Street", "amenity": "restaurant", "cuisine": "pizza;italian", "name": "Sarpino's Pizzeria West Loop", "opening_hours": "Su-Th 09:30-04:00; Fr-Sa 09:30-05:00", "phone": "+1-312-207-1777", "website": "https://www.gosarpinos.com/"}}, {"type": "node", "id": 5460343455, "lat": 41.8854936, "lon": -87.6439803, "tags": {"addr:city": "Chicago", "addr:housenumber": "629", "addr:postcode": "60661", "addr:state": "IL", "addr:street": "West Lake Street", "amenity": "restaurant", "cuisine": "italian;regional", "name": "Fast Track", "opening_hours": "Mo-Fr 06:00-16:00; Sa 08:30-16:00", "phone": "+1-312-993-9300"}}, {"type": "node", "id": 5460377110, "lat": 41.8847628, "lon": -87.6472909, "tags": {"addr:city": "Chicago", "addr:housenumber": "738", "addr:postcode": "60661", "addr:state": "IL", "addr:street": "West Randolph Street", "amenity": "restaurant", "name": "Ronero", "phone": "+1-312-600-6105", "website": "https://www.ronerochicago.com/"}}, {"type": "node", "id": 5460380983, "lat": 41.8847049, "lon": -87.646666, "tags": {"addr:city": "Chicago", "addr:housenumber": "720", "addr:postcode": "60661", "addr:state": "IL", "addr:street": "West Randolph Street", "amenity": "restaurant", "cuisine": "japanese;sushi;asian", "name": "Tanoshii", "opening_hours": "Mo-Fr 11:30-14:30; Su-Th 16:30-22:00; Fr-Sa 16:30-23:00", "phone": "+1-312-207-8894", "website": "http://tanoshiisushi.com/"}}, {"type": "node", "id": 5460388170, "lat": 41.8849925, "lon": -87.6472212, "tags": {"addr:city": "Chicago", "addr:housenumber": "738", "addr:postcode": "60661", "addr:state": "IL", "addr:street": "West Randolph Street", "amenity": "bar", "name": "Esco Bar", "opening_hours": "Th-Fr 21:00-02:00; Sa 21:00-03:00", "phone": "+1-872-206-5245"}}, {"type": "node", "id": 5460391091, "lat": 41.8848667, "lon": -87.6477496, "tags": {"addr:city": "Chicago", "addr:housenumber": "160", "addr:postcode": "60661", "addr:state": "IL", "addr:street": "North Halsted Street", "amenity": "restaurant", "cuisine": "american;breakfast;sandwich;burger", "name": "Johnnies Snack Shop", "opening_hours": "Mo-Sa 06:00-15:00; Su 07:00-14:00", "phone": "+1-312-226-7769", "website": "http://johnniessnackshop.com/"}}, {"type": "node", "id": 5460565146, "lat": 41.8854339, "lon": -87.6524622, "tags": {"addr:city": "Chicago", "addr:housenumber": "180", "addr:postcode": "60607", "addr:state": "IL", "addr:street": "North Morgan Street", "amenity": "restaurant", "cuisine": "mexican;barbecue;bbq;taco;tacos", "name": "Federales", "opening_hours": "Mo-Th 16:00-02:00; Fr 11:00-02:00; Sa 11:00-03:00; Su 11:00-02:00", "phone": "+1-773-831-9696", "website": "https://federaleschicago.com/"}}, {"type": "node", "id": 5460569481, "lat": 41.8854238, "lon": -87.6526362, "tags": {"addr:city": "Chicago", "addr:housenumber": "1009", "addr:postcode": "60607", "addr:state": "IL", "addr:street": "West Lake Street", "amenity": "restaurant", "cuisine": "sandwich;american", "name": "The Corned Beef Factory Sandwich Shop", "opening_hours": "Mo-Fr 06:00-15:00; Sa 10:00-15:00", "phone": "+1-312-666-2536", "website": "http://cornedbeeffactorychicago.com/"}}, {"type": "node", "id": 5460570321, "lat": 41.8857772, "lon": -87.6527738, "tags": {"addr:city": "Chicago", "addr:housenumber": "1012", "addr:postcode": "60607", "addr:state": "IL", "addr:street": "West Lake Street", "amenity": "cafe", "cuisine": "juice;american;organic", "name": "Harvest Juicery", "opening_hours": "Mo-Fr 07:00-19:00; Sa 08:00-14:00", "phone": "+1-312-265-0182", "website": "https://www.harvestjuicery.com/"}}, {"type": "node", "id": 5460571170, "lat": 41.8857512, "lon": -87.6519857, "tags": {"addr:city": "Chicago", "addr:housenumber": "201", "addr:postcode": "60607", "addr:state": "IL", "addr:street": "North Morgan Street", "amenity": "restaurant", "cuisine": "latin_american;tapas", "name": "Bar Takito", "opening_hours": "Mo-Tu 11:00-22:00; We-Th 11:00-23:00; Fr-Sa 11:00-01:00; Su 11:00-15:00", "phone": "+1-312-888-9602", "website": "http://bartakito.com/"}}, {"type": "node", "id": 5460575190, "lat": 41.8860045, "lon": -87.6451011, "tags": {"addr:city": "Chicago", "addr:housenumber": "661", "addr:postcode": "60661", "addr:state": "IL", "addr:street": "West Walnut Street", "amenity": "restaurant", "cuisine": "american;fine_dining", "name": "Oriole", "opening_hours": "Tu-Sa 17:30-21:30", "phone": "+1-312-877-5339", "website": "http://www.oriolechicago.com/", "wikidata": "Q48816428", "wikipedia": "en:Oriole (restaurant)"}}, {"type": "node", "id": 5460580000, "lat": 41.8858571, "lon": -87.6451137, "tags": {"addr:city": "Chicago", "addr:housenumber": "660", "addr:postcode": "60661", "addr:state": "IL", "addr:street": "West Lake Street", "amenity": "bar", "name": "Moneygun", "opening_hours": "Su-Fr 17:00-02:00; Sa 17:00-03:00", "phone": "+1-312-600-0600", "website": "https://www.moneygunchicago.com/"}}, {"type": "node", "id": 5460581461, "lat": 41.885901, "lon": -87.6452368, "tags": {"addr:city": "Chicago", "addr:housenumber": "664", "addr:postcode": "60661", "addr:state": "IL", "addr:street": "West Lake Street", "amenity": "restaurant", "name": "Saint Lou's Assembly", "phone": "+1-312-600-0600", "website": "https://www.saintlouschicago.com/"}}, {"type": "node", "id": 5460583911, "lat": 41.8845456, "lon": -87.6492396, "tags": {"addr:city": "Chicago", "addr:housenumber": "844", "addr:postcode": "60607", "addr:state": "IL", "addr:street": "West Randolph Street", "amenity": "bar", "name": "Backdoor Saloon", "phone": "+1-312-491-0844", "website": "https://www.thebackdoorsaloon.com/"}}, {"type": "node", "id": 5460586766, "lat": 41.8846081, "lon": -87.6499579, "tags": {"addr:city": "Chicago", "addr:housenumber": "900", "addr:postcode": "60607", "addr:state": "IL", "addr:street": "West Randolph Street", "amenity": "restaurant", "cuisine": "mexican;latin_american", "name": "Le\u00f1a Brava", "opening_hours": "Tu-Th 17:30-22:00; Fr-Sa 17:30-23:00; Su 17:30-21:00", "phone": "+1-312-733-1975", "website": "http://www.rickbayless.com/restaurants/lena-brava/"}}, {"type": "node", "id": 5460599291, "lat": 41.8846013, "lon": -87.6501403, "tags": {"addr:city": "Chicago", "addr:housenumber": "904", "addr:postcode": "60607", "addr:state": "IL", "addr:street": "West Randolph Street", "amenity": "restaurant", "cuisine": "taco;mexican", "name": "Cruz Blanca Brewery & Taquer\u00eda", "opening_hours": "Tu-Th 11:00-22:00; Fr-Sa 11:00-00:00; Su 11:00-21:00", "phone": "+1-312-733-1975", "website": "http://cruzblanca.com"}}, {"type": "node", "id": 5460607041, "lat": 41.8847223, "lon": -87.6487697, "tags": {"addr:city": "Chicago", "addr:housenumber": "832", "addr:postcode": "60607", "addr:state": "IL", "addr:street": "West Randolph Street", "amenity": "cafe", "cuisine": "donut;coffee_shop;coffee", "name": "Bombobar - West Loop", "opening_hours": "Mo-Su 08:00-23:00", "phone": "+1-312-967-7000", "website": "http://www.bombobar.com/"}}, {"type": "node", "id": 5460610021, "lat": 41.8855009, "lon": -87.648244, "tags": {"addr:city": "Chicago", "addr:housenumber": "817", "addr:postcode": "60607", "addr:state": "IL", "addr:street": "West Lake Street", "amenity": "restaurant", "cuisine": "american;fine_dining", "name": "BLVD", "opening_hours": "Su-Mo 17:00-22:00; Tu-Th 17:00-23:00; Fr-Sa 17:00-00:00", "phone": "+1-312-526-3116", "website": "https://blvdchicago.com/"}}, {"type": "node", "id": 5460625911, "lat": 41.8849698, "lon": -87.6604106, "tags": {"addr:city": "Chicago", "addr:housenumber": "177", "addr:postcode": "60607", "addr:state": "IL", "addr:street": "North Ada Street", "addr:unit": "001", "amenity": "restaurant", "cuisine": "american", "name": "The Loyalist", "opening_hours": "Tu-Th 16:00-23:00; Fr-Sa 16:00-01:00", "phone": "+1-773-913-3774", "website": "http://www.smythandtheloyalist.com"}}, {"type": "node", "id": 5460648618, "lat": 41.8866344, "lon": -87.6482299, "tags": {"addr:city": "Chicago", "addr:housenumber": "817", "addr:postcode": "60607", "addr:state": "IL", "addr:street": "West Fulton Market", "amenity": "restaurant", "cuisine": "mexican;sandwich", "name": "Cemitas Puebla", "opening_hours": "Su-Th 11:00-21:00; Fr-Sa 11:00-22:30", "phone": "+1-312-455-9200", "website": "http://www.cemitaspuebla.com/"}}, {"type": "node", "id": 5460651233, "lat": 41.8843074, "lon": -87.6405879, "tags": {"addr:city": "Chicago", "addr:housenumber": "131", "addr:postcode": "60661", "addr:state": "IL", "addr:street": "North Clinton Street", "addr:unit": "7", "amenity": "restaurant", "diet:vegan": "only", "name": "Chicago Raw", "opening_hours": "Mo-Fr 07:00-19:30; Sa 08:30-17:30", "phone": "+1-312-831-2729", "website": "https://www.chicagorawfood.com/"}}, {"type": "node", "id": 5460657121, "lat": 41.8846692, "lon": -87.6570694, "tags": {"addr:city": "Chicago", "addr:housenumber": "1200", "addr:postcode": "60607", "addr:state": "IL", "addr:street": "West Randolph Street", "amenity": "bar", "name": "City Winery", "opening_hours": "Su-We 11:00-22:00; Th-Sa 11:00-23:00", "phone": "+1-312-733-9463", "website": "http://www.citywinery.com/chicago/"}}, {"type": "node", "id": 5460660364, "lat": 41.8844717, "lon": -87.6609272, "tags": {"addr:city": "Chicago", "addr:housenumber": "1350", "addr:postcode": "60607", "addr:state": "IL", "addr:street": "West Randolph Street", "amenity": "restaurant", "cuisine": "american", "name": "Elske", "opening_hours": "We-Th 18:00-22:00; Fr-Sa 18:00-23:00; Su 18:00-22:00", "phone": "+1-312-733-1314", "website": "https://elskerestaurant.com/"}}, {"type": "node", "id": 5460661639, "lat": 41.8909236, "lon": -87.6474629, "tags": {"addr:city": "Chicago", "addr:housenumber": "494", "addr:postcode": "60654", "addr:state": "IL", "addr:street": "North Milwaukee Avenue", "amenity": "restaurant", "cuisine": "american;burger", "name": "Maillard Tavern", "opening_hours": "Su-Th 11:00-23:00; Fr-Sa 11:00-01:00", "phone": "+1-312-766-2727", "website": "https://www.maillardtavern.com/"}}, {"type": "node", "id": 5460663376, "lat": 41.8866569, "lon": -87.6491936, "tags": {"addr:city": "Chicago", "addr:housenumber": "839", "addr:postcode": "60607", "addr:state": "IL", "addr:street": "West Fulton Market", "amenity": "bar", "name": "Emporium Arcade Bar", "opening_hours": "Mo-Th 16:00-02:00; Fr 15:00-02:00; Sa 12:00-03:00; Su 12:00-02:00", "phone": "+1-312-733-2222", "website": "http://www.emporiumchicago.com/"}}, {"type": "node", "id": 5460666621, "lat": 41.8872669, "lon": -87.6490322, "tags": {"addr:city": "Chicago", "addr:housenumber": "310", "addr:postcode": "60607", "addr:state": "IL", "addr:street": "North Green Street", "amenity": "restaurant", "name": "Punch Bowl Social Chicago", "phone": "+1-312-809-9551", "website": "https://www.punchbowlsocial.com/"}}, {"type": "node", "id": 5460671009, "lat": 41.8905209, "lon": -87.6591892, "tags": {"addr:city": "Chicago", "addr:housenumber": "459", "addr:postcode": "60642", "addr:state": "IL", "addr:street": "North Ogden Avenue", "amenity": "bar", "name": "G & O", "opening_hours": "Mo-Fr 16:00-02:00; Sa 10:00-03:00; Su 10:00-00:00", "phone": "+1-312-888-3367", "website": "http://grandandogden.com/"}}, {"type": "node", "id": 5460671489, "lat": 41.8863297, "lon": -87.6401044, "tags": {"addr:city": "Chicago", "addr:housenumber": "233", "addr:postcode": "60606", "addr:state": "IL", "addr:street": "North Canal Street", "amenity": "restaurant", "cuisine": "italian", "name": "Gibsons Italia", "opening_hours": "Mo-Sa 11:00-00:00", "phone": "+1-312-414-1100", "website": "https://gibsonsitalia.com/"}}, {"type": "node", "id": 5460683108, "lat": 41.8875631, "lon": -87.6426214, "tags": {"addr:city": "Chicago", "addr:housenumber": "325", "addr:postcode": "60661", "addr:state": "IL", "addr:street": "North Jefferson Street", "amenity": "restaurant", "cuisine": "pub;american", "name": "Jefferson Tap & Grille", "opening_hours": "Su-We 11:00-02:00; Th-Fr 11:00-04:00; Sa 11:00-05:00", "phone": "+1-312-648-0100", "website": "https://www.jeffersontap.com/"}}, {"type": "node", "id": 5460683559, "lat": 41.8844648, "lon": -87.6407581, "tags": {"addr:city": "Chicago", "addr:housenumber": "135", "addr:postcode": "60661", "addr:state": "IL", "addr:street": "North Clinton Street", "amenity": "cafe", "brand": "Le Pain Quotidien", "brand:wikidata": "Q2046903", "brand:wikipedia": "en:Le Pain Quotidien", "cuisine": "coffee_shop", "name": "Le Pain Quotidien", "opening_hours": "Mo-Fr 07:00-18:00; Sa 08:00-17:00", "phone": "+1-312-234-0900", "takeaway": "yes", "website": "https://www1.lepainquotidien.com/us/en/locations/601/135-n-clinton-st"}}, {"type": "node", "id": 5460688022, "lat": 41.8846734, "lon": -87.6472823, "tags": {"addr:city": "Chicago", "addr:housenumber": "740", "addr:postcode": "60661", "addr:state": "IL", "addr:street": "West Randolph Street", "amenity": "restaurant", "cuisine": "mexican", "name": "La Josie", "opening_hours": "Mo-Th 11:00-01:00; Fr-Sa 11:00-02:00; Su 11:00-00:00", "phone": "+1-312-929-2900", "website": "https://www.lajosie.com/"}}, {"type": "node", "id": 5460697773, "lat": 41.8852668, "lon": -87.6582229, "tags": {"addr:city": "Chicago", "addr:housenumber": "1235", "addr:postcode": "60607", "addr:state": "IL", "addr:street": "West Lake Street", "amenity": "restaurant", "cuisine": "italian", "name": "Macello Ristorante", "opening_hours": "Tu-Th 11:30-22:00; Fr 11:30-23:00; Sa 17:00-23:00; Su 15:00-20:00", "phone": "+1-312-850-9870"}}, {"type": "node", "id": 5460698312, "lat": 41.8846138, "lon": -87.658239, "tags": {"addr:city": "Chicago", "addr:housenumber": "1240", "addr:postcode": "60607", "addr:state": "IL", "addr:street": "West Randolph Street", "amenity": "restaurant", "cuisine": "middle_eastern", "name": "Alhambra Palace", "opening_hours": "Su-Mo 11:00-22:00; Tu 11:00-02:00; We-Th 11:00-22:00; Fr 11:00-01:45; Sa 11:00-02:45", "phone": "+1-312-666-9555", "website": "http://www.alhambrapalacerestaurant.com/"}}, {"type": "node", "id": 5460701279, "lat": 41.8846236, "lon": -87.6489767, "tags": {"addr:city": "Chicago", "addr:housenumber": "838", "addr:postcode": "60607", "addr:state": "IL", "addr:street": "West Randolph Street", "amenity": "restaurant", "cuisine": "american", "name": "Nosh & Booze", "opening_hours": "Tu-Th 16:00-23:00; Fr 12:00-23:00; Sa 10:00-23:00; Su 10:00-17:00", "phone": "+1-312-733-6090", "website": "http://www.noshingaround.com/"}}, {"type": "node", "id": 5460708812, "lat": 41.8908598, "lon": -87.647944, "tags": {"addr:city": "Chicago", "addr:housenumber": "464", "addr:postcode": "60642", "addr:state": "IL", "addr:street": "North Halsted Street", "amenity": "restaurant", "cuisine": "italian", "name": "Piccolo Sogno", "opening_hours": "Mo-Th 11:30-14:30, 17:30-22:30; Fr 11:30-14:30, 17:00-23:00; Sa 17:00-23:00; Su 17:00-22:00", "phone": "+1-312-421-0077", "website": "https://www.piccolosognorestaurant.com/"}}, {"type": "node", "id": 5460714621, "lat": 41.887566, "lon": -87.6524066, "tags": {"addr:city": "Chicago", "addr:housenumber": "326", "addr:postcode": "60607", "addr:state": "IL", "addr:street": "North Morgan Street", "amenity": "bar", "name": "Prairie School", "opening_hours": "Su-We 16:00-02:00; Th 17:00-02:00; Fr-Sa 16:00-02:00", "phone": "+1-312-763-6564", "website": "https://www.prairieschoolchicago.com/"}}, {"type": "node", "id": 5460722827, "lat": 41.8852803, "lon": -87.6605832, "tags": {"addr:city": "Chicago", "addr:housenumber": "177", "addr:postcode": "60607", "addr:state": "IL", "addr:street": "North Ada Street", "addr:unit": "101", "amenity": "restaurant", "cuisine": "new_american;american", "name": "Smyth", "opening_hours": "Tu-Sa 17:00-22:00", "phone": "+1-773-913-3773", "website": "http://www.smythandtheloyalist.com/smyth"}}, {"type": "node", "id": 5460758421, "lat": 41.8912522, "lon": -87.6559754, "tags": {"addr:city": "Chicago", "addr:housenumber": "1132", "addr:postcode": "60642", "addr:state": "IL", "addr:street": "West Grand Avenue", "amenity": "restaurant", "cuisine": "american", "name": "TWO Restaurant", "opening_hours": "Tu-Th 17:00-22:00; Fr-Sa 17:00-23:00; Su 17:00-21:00", "phone": "+1-312-624-8363", "website": "http://113two.com/"}}, {"type": "node", "id": 5460763042, "lat": 41.8875396, "lon": -87.6518407, "tags": {"addr:city": "Chicago", "addr:housenumber": "311", "addr:postcode": "60607", "addr:state": "IL", "addr:street": "North Morgan Street", "amenity": "restaurant", "cuisine": "american", "name": "Waydown", "opening_hours": "Su-Fr 16:00-02:00; Sa 16:00-03:00", "outdoor_seating": "no", "phone": "+1-312-764-1919", "website": "https://www.acehotel.com/"}}, {"type": "node", "id": 5460766489, "lat": 41.8876567, "lon": -87.6520507, "tags": {"addr:city": "Chicago", "addr:housenumber": "311", "addr:postcode": "60607", "addr:state": "IL", "addr:street": "North Morgan Street", "amenity": "cafe", "cuisine": "coffee_shop;coffee", "name": "Stumptown Coffee Roasters", "opening_hours": "Mo-Su 06:20-19:00", "phone": "+1-855-711-3385", "website": "http://www.stumptowncoffee.com/"}}, {"type": "node", "id": 5460836745, "lat": 41.8850614, "lon": -87.654223, "tags": {"addr:city": "Chicago", "addr:housenumber": "171", "addr:postcode": "60607", "addr:state": "IL", "addr:street": "North Aberdeen Street", "amenity": "restaurant", "cuisine": "american;sandwich", "name": "Capriotti's Sandwich Shop", "opening_hours": "Mo-Th 09:00-20:30; Fr 09:00-22:00; Sa 11:00-22:00; Su 11:00-20:30", "phone": "+1-312-988-0670", "website": "https://www.capriottis.com/"}}, {"type": "node", "id": 5794916615, "lat": 41.8854564, "lon": -87.6383532, "tags": {"addr:city": "Chicago", "addr:housenumber": "150", "addr:postcode": "60606", "addr:state": "IL", "addr:street": "North Riverside Plaza", "amenity": "restaurant", "name": "Small Cheval", "website": "http://smallcheval.com/"}}, {"type": "node", "id": 5794916616, "lat": 41.8850924, "lon": -87.6382935, "tags": {"addr:city": "Chicago", "addr:housenumber": "150", "addr:postcode": "60606", "addr:state": "IL", "addr:street": "North Riverside Plaza", "amenity": "bar", "name": "Porter Kitchen & Deck", "phone": "+1-312-781-7580", "website": "https://porterchicago.com/"}}, {"type": "node", "id": 5794916617, "lat": 41.8854389, "lon": -87.6372981, "tags": {"addr:city": "Chicago", "addr:housenumber": "180", "addr:postcode": "60606", "addr:state": "IL", "addr:street": "North Upper Wacker Drive", "amenity": "restaurant", "name": "Beatnik On The River", "opening_hours": "Mo-Fr 11:00-22:00", "phone": "+1-312-526-3345", "website": "https://www.beatnikontheriver.com"}}, {"type": "node", "id": 5794916618, "lat": 41.8854228, "lon": -87.6371723, "tags": {"addr:city": "Chicago", "addr:housenumber": "180", "addr:postcode": "60606", "addr:state": "IL", "addr:street": "North Upper Wacker Drive", "amenity": "cafe", "name": "Cafe Bonhomme", "opening_hours": "Mo-Fr 07:00-22:00"}}, {"type": "node", "id": 6025987986, "lat": 41.8861336, "lon": -87.6484577, "tags": {"addr:city": "Chicago", "addr:housenumber": "217", "addr:postcode": "60607", "addr:state": "IL", "addr:street": "North Green Street", "amenity": "cafe", "name": "Limitless Coffee - Fulton Market", "phone": "+1-312-929-4643", "website": "https://limitlesscoffee.com/find-us/"}}, {"type": "node", "id": 6026364085, "lat": 41.8861214, "lon": -87.6488411, "tags": {"addr:city": "Chicago", "addr:housenumber": "212", "addr:postcode": "60607", "addr:state": "IL", "addr:street": "North Green Street", "amenity": "bar", "name": "Ballast Point Brewing", "phone": "+1-312-243-9570", "website": "https://www.ballastpoint.com/locations/"}}, {"type": "node", "id": 6026364086, "lat": 41.8861711, "lon": -87.6484558, "tags": {"addr:city": "Chicago", "addr:housenumber": "219", "addr:postcode": "60607", "addr:state": "IL", "addr:street": "North Green Street", "amenity": "restaurant", "cuisine": "japanese", "name": "Ramen-San", "phone": "+1-773-645-0085", "website": "https://www.ramensan.com/"}}, {"type": "node", "id": 6146160785, "lat": 41.8893525, "lon": -87.6445067, "tags": {"addr:city": "Chicago", "addr:housenumber": "401", "addr:postcode": "60654", "addr:state": "IL", "addr:street": "North Milwaukee Avenue", "amenity": "restaurant", "cuisine": "korean", "name": "San Soo Korean BBQ"}}, {"type": "node", "id": 6146181554, "lat": 41.8903215, "lon": -87.6459897, "tags": {"addr:city": "Chicago", "addr:housenumber": "455", "addr:postcode": "60610", "addr:state": "IL", "addr:street": "North Milwaukee Avenue", "amenity": "restaurant", "cuisine": "fried_chicken", "name": "The Roost Carolina Kitchen", "phone": "+1-312-877-5738", "website": "https://www.theroostcarolinakitchen.com/"}}, {"type": "node", "id": 6159637958, "lat": 41.8860808, "lon": -87.6396188, "tags": {"addr:city": "Chicago", "addr:housenumber": "444", "addr:postcode": "60606", "addr:state": "IL", "addr:street": "West Lake Street", "amenity": "restaurant", "name": "Market Creations", "website": "http://marketcreationscafe.com"}}, {"type": "node", "id": 6221680435, "lat": 41.8846118, "lon": -87.6424952, "tags": {"addr:city": "Chicago", "addr:housenumber": "564", "addr:postcode": "60661", "addr:state": "IL", "addr:street": "West Randolph Street", "amenity": "restaurant", "cuisine": "american", "name": "Bellemore", "opening_hours": "Mo-Fr 11:00-14:00; Mo-Th 17:00-22:00; Fr-Sa 16:30-23:00; Su 16:00-21:00", "phone": "+1-312-667-0104", "website": "https://www.bellemorechicago.com/"}}, {"type": "node", "id": 6250223840, "lat": 41.8901294, "lon": -87.6595267, "tags": {"addr:city": "Chicago", "addr:housenumber": "439", "addr:postcode": "60642", "addr:state": "IL", "addr:street": "North Ogden Avenue", "amenity": "bar", "name": "439 Nightclub"}}, {"type": "node", "id": 6256520187, "lat": 41.8869088, "lon": -87.6488326, "tags": {"addr:city": "Chicago", "addr:housenumber": "302", "addr:postcode": "60607", "addr:state": "IL", "addr:street": "North Green Street", "addr:unit": "FL 3", "amenity": "restaurant", "cuisine": "american", "name": "Aba", "phone": "+1-773-645-1400", "website": "http://abarestaurantchicago.com"}}, {"type": "node", "id": 6267363323, "lat": 41.8869576, "lon": -87.6518004, "tags": {"addr:city": "Chicago", "addr:housenumber": "948", "addr:postcode": "60607", "addr:state": "IL", "addr:street": "West Fulton Market", "amenity": "bar", "name": "Blind Barber", "outdoor_seating": "yes", "phone": "+1-312-405-9929", "website": "https://blindbarber.com/"}}, {"type": "node", "id": 6269384932, "lat": 41.8909218, "lon": -87.6561974, "tags": {"addr:city": "Chicago", "addr:housenumber": "1139", "addr:postcode": "60642", "addr:state": "IL", "addr:street": "West Grand Avenue", "amenity": "restaurant", "name": "Butterfly Sushi Bar & Thai Cuisine", "phone": "+1-312- 563-5555", "website": "http://www.butterflysushi2go.com/"}}, {"type": "node", "id": 6280526718, "lat": 41.8871143, "lon": -87.6460757, "tags": {"addr:city": "Chicago", "addr:housenumber": "702", "addr:postcode": "60661", "addr:state": "IL", "addr:street": "West Fulton Market", "amenity": "restaurant", "name": "Carnivale", "phone": "+1-312-850-5005", "website": "https://www.carnivalechicago.com/"}}, {"type": "node", "id": 6281910607, "lat": 41.8929378, "lon": -87.6416278, "tags": {"addr:city": "Chicago", "addr:housenumber": "600", "addr:postcode": "60610", "addr:state": "IL", "addr:street": "North Kingsbury Street", "amenity": "cafe", "name": "Caribou Coffee Store", "outdoor_seating": "yes", "phone": "+1-312-335-0576"}}, {"type": "node", "id": 6282833425, "lat": 41.8882719, "lon": -87.6377875, "tags": {"addr:city": "Chicago", "addr:housenumber": "350", "addr:postcode": "60654", "addr:state": "IL", "addr:street": "West Wolf Point Plaza", "addr:unit": "15", "amenity": "bar", "name": "Cityscape Bar", "phone": "+1-312-836-5000", "website": "https://www.martplaza.com/food-drink/cityscape-bar.aspx"}}, {"type": "node", "id": 6282897113, "lat": 41.8913482, "lon": -87.6468352, "tags": {"addr:city": "Chicago", "addr:housenumber": "722", "addr:postcode": "60654", "addr:state": "IL", "addr:street": "West Grand Avenue", "amenity": "bar", "name": "Clover", "phone": "+1-312-344-1934", "website": "http://cloverchicago.com/"}}, {"type": "node", "id": 6286444981, "lat": 41.8852921, "lon": -87.6550709, "tags": {"addr:city": "Chicago", "addr:housenumber": "1111", "addr:postcode": "60607", "addr:state": "IL", "addr:street": "West Lake Street", "amenity": "restaurant", "name": "Eleven Eleven", "phone": "+1-312-248-8942", "website": "https://elevenelevenchicago.com/"}}, {"type": "node", "id": 6286959503, "lat": 41.9003849, "lon": -87.6376591, "tags": {"addr:city": "Chicago", "addr:housenumber": "351", "addr:postcode": "60610", "addr:state": "IL", "addr:street": "West Oak Street", "addr:unit": "1", "amenity": "restaurant", "name": "EuroAsia Restaurant", "phone": "+1-312-988-0662", "website": "http://euroasiaca.com/"}}, {"type": "node", "id": 6291640639, "lat": 41.8859157, "lon": -87.6496107, "tags": {"addr:city": "Chicago", "addr:housenumber": "205", "addr:postcode": "60607", "addr:state": "IL", "addr:street": "North Peoria Street", "amenity": "restaurant", "name": "Fulton Market Company", "phone": "+1-312-989-9801", "website": "http://fultonmarketcompany.com/"}}, {"type": "node", "id": 6297808319, "lat": 41.8918097, "lon": -87.6474344, "tags": {"addr:city": "Chicago", "addr:housenumber": "517", "addr:postcode": "60642", "addr:state": "IL", "addr:street": "North Halsted Street", "amenity": "cafe", "name": "Iguana Caf\u00e9", "phone": "+1-312432-0663", "website": "http://www.iguanacafe.com/"}}, {"type": "node", "id": 6298375107, "lat": 41.8895868, "lon": -87.6507598, "tags": {"addr:city": "Chicago", "addr:housenumber": "415", "addr:postcode": "60642", "addr:state": "IL", "addr:street": "North Sangamon Street", "amenity": "bar", "name": "Illuminated Brew Works", "website": "http://www.ibw-chicago.com/"}}, {"type": "node", "id": 6298396229, "lat": 41.8888338, "lon": -87.6373879, "tags": {"addr:city": "Chicago", "addr:housenumber": "350", "addr:postcode": "60654", "addr:state": "IL", "addr:street": "North Orleans Street", "amenity": "cafe", "name": "Infuse Coffee and Tea Bar", "phone": "+1-414-467-9866"}}, {"type": "node", "id": 6298799785, "lat": 41.89088, "lon": -87.6583534, "tags": {"addr:city": "Chicago", "addr:housenumber": "1223", "addr:postcode": "60642", "addr:state": "IL", "addr:street": "West Grand Avenue", "amenity": "cafe", "name": "Sip Coffee House & Garden", "phone": "+1-312-563-1123", "website": "http://www.sipcoffeehouse.com/"}}, {"type": "node", "id": 6299500544, "lat": 41.8928813, "lon": -87.6414942, "tags": {"addr:city": "Chicago", "addr:housenumber": "600", "addr:postcode": "60654", "addr:state": "IL", "addr:street": "North Kingsbury Street", "amenity": "cafe", "brand": "Peet's Coffee", "brand:wikidata": "Q1094101", "brand:wikipedia": "en:Peet's Coffee", "cuisine": "coffee_shop", "name": "Peet's Coffee", "phone": "+1-312-489-5061", "takeaway": "yes", "website": "https://www.peets.com/"}}, {"type": "node", "id": 6300513971, "lat": 41.884604, "lon": -87.6523421, "tags": {"addr:city": "Chicago", "addr:housenumber": "1000", "addr:postcode": "60607", "addr:state": "IL", "addr:street": "West Randolph Street", "amenity": "cafe", "name": "Princi", "phone": "+1-312-243-9097", "website": "http://www.princi.com/"}}, {"type": "node", "id": 6303028739, "lat": 41.8972221, "lon": -87.6382658, "tags": {"addr:city": "Chicago", "addr:housenumber": "820", "addr:postcode": "60610", "addr:state": "IL", "addr:street": "North Orleans Street", "amenity": "restaurant", "name": "Sweet Tooth Cafe", "phone": "+1-224-619-5837", "website": "https://sweetshotcookies.com/"}}, {"type": "node", "id": 6303791058, "lat": 41.8863931, "lon": -87.6401579, "tags": {"addr:city": "Chicago", "addr:housenumber": "222", "addr:postcode": "60606", "addr:state": "IL", "addr:street": "North Canal Street", "amenity": "restaurant", "name": "Taste222", "phone": "+1-312-383-6620", "website": "https://www.taste222chicago.com/"}}, {"type": "node", "id": 6306592684, "lat": 41.8857581, "lon": -87.6527639, "tags": {"addr:city": "Chicago", "addr:housenumber": "1016", "addr:postcode": "60607", "addr:state": "IL", "addr:street": "West Lake Street", "amenity": "restaurant", "name": "The Corned Beef Factory Sandwich Shop", "phone": "+1-312-666-2536", "website": "http://cornedbeeffactorychicago.com/"}}, {"type": "node", "id": 6307019781, "lat": 41.8913101, "lon": -87.6585687, "tags": {"addr:city": "Chicago", "addr:housenumber": "501", "addr:postcode": "60642", "addr:state": "IL", "addr:street": "North Ogden Avenue", "amenity": "restaurant", "name": "Twisted Spoke", "phone": "+1-312-666-1500", "website": "http://twistedspoke.com/"}}, {"type": "node", "id": 6315186963, "lat": 41.8989749, "lon": -87.6490724, "tags": {"addr:city": "Chicago", "addr:housenumber": "900", "addr:postcode": "60642", "addr:state": "IL", "addr:street": "North Branch Street", "amenity": "cafe", "name": "The Daily Grind", "phone": "+1-312-752-2000"}}, {"type": "node", "id": 6315188078, "lat": 41.8913788, "lon": -87.647221, "tags": {"addr:city": "Chicago", "addr:housenumber": "730", "addr:postcode": "60654", "addr:state": "IL", "addr:street": "West Grand Avenue", "amenity": "restaurant", "name": "The Dawson", "phone": "+1-312-243-8955", "website": "https://the-dawson.com/"}}, {"type": "node", "id": 6315665345, "lat": 41.8957112, "lon": -87.6548491, "tags": {"addr:city": "Chicago", "addr:housenumber": "770", "addr:postcode": "60642", "addr:state": "IL", "addr:street": "North Milwaukee Avenue", "amenity": "bar", "name": "The Matchbox", "phone": "+1-312-666-9292"}}, {"type": "node", "id": 6315679717, "lat": 41.8865111, "lon": -87.6518726, "tags": {"addr:city": "Chicago", "addr:housenumber": "955", "addr:postcode": "60607", "addr:state": "IL", "addr:street": "West Fulton Market", "amenity": "restaurant", "name": "The Office", "phone": "+1-312-226-0868", "website": "https://www.exploretock.com/theoffice/"}}, {"type": "node", "id": 6315729355, "lat": 41.8862099, "lon": -87.641136, "tags": {"addr:city": "Chicago", "addr:housenumber": "215", "addr:postcode": "60661", "addr:state": "IL", "addr:street": "North Clinton Street", "amenity": "bar", "name": "The Railcar Club", "phone": "+1-312-207-5490", "website": "http://www.therailcarclub.com/"}}, {"type": "node", "id": 6316598035, "lat": 41.8843022, "lon": -87.640161, "tags": {"addr:housenumber": "130", "addr:postcode": "60661", "addr:state": "IL", "addr:street": "North Canal Street", "amenity": "bar", "name": "Vinny\u2019s Pizza Bar", "outdoor_seating": "yes", "phone": "+1-312-902-1544", "website": "vinnysbar.com"}}, {"type": "node", "id": 6316955696, "lat": 41.8851233, "lon": -87.6423413, "tags": {"addr:city": "Chicago", "addr:housenumber": "161", "addr:postcode": "60661", "addr:state": "IL", "addr:street": "North Jefferson Street", "amenity": "restaurant", "name": "Wishbone", "phone": "+1-312-850-2663", "website": "https://www.wishbonechicago.com/"}}, {"type": "node", "id": 6317090571, "lat": 41.8848604, "lon": -87.6449938, "tags": {"addr:city": "Chicago", "addr:housenumber": "652", "addr:postcode": "60661", "addr:state": "IL", "addr:street": "West Couch Place", "amenity": "restaurant", "name": "Yugen", "website": "http://yugenchicago.com/"}}, {"type": "node", "id": 6321398186, "lat": 41.8909316, "lon": -87.6474389, "tags": {"addr:city": "Chicago", "addr:housenumber": "494", "addr:postcode": "60654", "addr:state": "IL", "addr:street": "North Milwaukee Avenue", "amenity": "bar", "name": "Maillard Tavern", "phone": "+1-312-766-2727", "website": "https://www.maillardtavern.com/"}}, {"type": "node", "id": 6321599274, "lat": 41.8846847, "lon": -87.6491444, "tags": {"addr:city": "Chicago", "addr:housenumber": "840", "addr:postcode": "60607", "addr:state": "IL", "addr:street": "West Randolph Street", "amenity": "restaurant", "name": "Maude\u2019s Liquor Bar", "phone": "+1-312-243-9712", "website": "http://www.maudesliquorbar.com/"}}, {"type": "node", "id": 6322560906, "lat": 41.8985537, "lon": -87.6427142, "tags": {"addr:city": "Chicago", "addr:housenumber": "869", "addr:postcode": "60610", "addr:state": "IL", "addr:street": "North Larrabee Street", "amenity": "restaurant", "name": "Texican", "phone": "+1-312-877-5441", "website": "https://www.texican-chicago.com/"}}, {"type": "node", "id": 6322760739, "lat": 41.9012153, "lon": -87.6476574, "tags": {"addr:city": "Chicago", "addr:housenumber": "1059", "addr:postcode": "60642", "addr:state": "IL", "addr:street": "North Halsted Street", "amenity": "restaurant", "name": "Mod Mex & Mod Mix With Rick Bayless"}}, {"type": "node", "id": 6322771416, "lat": 41.8998396, "lon": -87.63707, "tags": {"addr:city": "Chicago", "addr:housenumber": "931", "addr:postcode": "60610", "addr:state": "IL", "addr:street": "North Orleans Street", "amenity": "restaurant", "name": "Mogadishu Restaurant", "phone": "+1-312-265-1850"}}, {"type": "node", "id": 6322784614, "lat": 41.8859058, "lon": -87.6484698, "tags": {"addr:city": "Chicago", "addr:housenumber": "820", "addr:postcode": "60607", "addr:state": "IL", "addr:street": "West Lake Street", "amenity": "restaurant", "name": "Momotaro", "phone": "+1-312-733-4818", "website": "https://www.momotarochicago.com/"}}, {"type": "node", "id": 6323827056, "lat": 41.8913263, "lon": -87.6554785, "tags": {"addr:city": "Chicago", "addr:housenumber": "1118", "addr:postcode": "60642", "addr:state": "IL", "addr:street": "West Grand Avenue", "amenity": "restaurant", "name": "Oggi Trattoria", "phone": "+1-312-733-0442", "website": "http://www.oggitrattoria.org/"}}, {"type": "node", "id": 6324261230, "lat": 41.8859414, "lon": -87.6477162, "tags": {"addr:city": "Chicago", "addr:housenumber": "204", "addr:postcode": "60661", "addr:state": "IL", "addr:street": "North Halsted Street", "amenity": "bar", "name": "Paddy O\u2019Fegan\u2019s", "phone": "+1-312-997-3100", "website": "paddyofegans.com"}}, {"type": "node", "id": 6397203818, "lat": 41.8949375, "lon": -87.6387433, "tags": {"addr:city": "Chicago", "addr:housenumber": "700", "addr:postcode": "60654", "addr:state": "IL", "addr:street": "North Sedgwick Street", "amenity": "restaurant", "cuisine": "american", "name": "Entente", "opening_hours": "Tu-Th 17:00-22:00; Fr-Sa 17:00-23:00", "phone": "+1-312-285-2247", "website": "https://www.ententechicago.com"}}, {"type": "node", "id": 6407178684, "lat": 41.8859191, "lon": -87.6488691, "tags": {"addr:city": "Chicago", "addr:housenumber": "200", "addr:postcode": "60607", "addr:state": "IL", "addr:street": "North Green Street", "amenity": "restaurant", "cuisine": "peruvian", "name": "Cabra", "opening_hours": "Su-Th 16:00-23:00; Fr-Sa 16:00-00:00", "phone": "+1-312-761-1717", "website": "https://www.cabrachicago.com"}}, {"type": "node", "id": 6407436054, "lat": 41.8858183, "lon": -87.6488637, "tags": {"addr:city": "Chicago", "addr:housenumber": "200", "addr:postcode": "60607", "addr:state": "IL", "addr:street": "North Green Street", "amenity": "restaurant", "cuisine": "breakfast;small_plates;tapas", "name": "Cira", "opening_hours": "Su-Th 07:00-23:00, Fr-Sa 07:00-00:00", "phone": "+1-312-761-1777", "website": "https://cirachicago.com/"}}, {"type": "node", "id": 6407444258, "lat": 41.8858782, "lon": -87.6488678, "tags": {"addr:city": "Chicago", "addr:housenumber": "200", "addr:postcode": "60607", "addr:state": "IL", "addr:street": "North Green Street", "amenity": "bar", "name": "Lazy Bird", "phone": "+1-312-761-1799", "website": "https://www.lazybirdchicago.com"}}, {"type": "node", "id": 6431343085, "lat": 41.8866245, "lon": -87.6497016, "tags": {"addr:city": "Chicago", "addr:housenumber": "857", "addr:postcode": "60607", "addr:state": "IL", "addr:street": "West Fulton Market", "amenity": "restaurant", "cuisine": "snackbar;snack;snacks;taiwanese", "name": "Baobing", "opening_hours": "Mo-Th 17:00-22:00; Fr 16:30-23:00; Sa 11:00-23:00; Su 11:00-22:00", "phone": "+1-312-902-3825", "website": "http://www.baobingchi.com"}}, {"type": "node", "id": 6459394817, "lat": 41.8858371, "lon": -87.6469637, "tags": {"addr:city": "Chicago", "addr:housenumber": "731", "addr:postcode": "60661", "addr:state": "IL", "addr:street": "West Lake Street", "amenity": "restaurant", "cuisine": "sushi;japanese;asian", "name": "Mako", "phone": "+1-312-988-0687", "website": "https://www.makochicago.com"}}, {"type": "node", "id": 6651956670, "lat": 41.8974765, "lon": -87.6433795, "tags": {"addr:city": "Chicago", "addr:housenumber": "600", "addr:postcode": "60654", "addr:state": "IL", "addr:street": "West Chicago Avenue", "amenity": "restaurant", "cuisine": "casual", "name": "Farmer's Fridge", "phone": "+1-312-229-0099", "website": "https://www.farmersfridge.com/"}}, {"type": "node", "id": 6757767546, "lat": 41.886506, "lon": -87.6554061, "tags": {"addr:city": "Chicago", "addr:housenumber": "115", "addr:postcode": "60607", "addr:state": "IL", "addr:street": "West Fulton Market", "amenity": "restaurant", "cuisine": "regional", "name": "Fulton Galley", "phone": "+1-312-210-0920"}}, {"type": "node", "id": 6757776653, "lat": 41.8865666, "lon": -87.6518679, "tags": {"addr:city": "Chicago", "addr:housenumber": "951", "addr:postcode": "60607", "addr:state": "IL", "addr:street": "West Fulton Market", "amenity": "restaurant", "cuisine": "american", "name": "St. Clair Supper Club", "phone": "+1-312-789-4896", "website": "http://stclairsupperclub.com"}}, {"type": "node", "id": 6757797206, "lat": 41.8846497, "lon": -87.6471365, "tags": {"addr:city": "Chicago", "addr:housenumber": "736", "addr:postcode": "60661", "addr:state": "IL", "addr:street": "West Randolph Street", "amenity": "restaurant", "cuisine": "indian", "name": "ROOH", "phone": "+1-312-267-2323", "website": "https://www.roohchicago.com"}}, {"type": "node", "id": 6936048967, "lat": 41.8892241, "lon": -87.6490881, "tags": {"addr:city": "Chicago", "addr:housenumber": "838", "addr:postcode": "60607", "addr:state": "IL", "addr:street": "West Kinzie Street", "amenity": "restaurant", "name": "Recess", "phone": "+1-312-801-1181", "website": "https://chicagoinrecess.com"}}, {"type": "node", "id": 6997474713, "lat": 41.8869631, "lon": -87.6505461, "tags": {"addr:city": "Chicago", "addr:housenumber": "916", "addr:postcode": "60607", "addr:state": "IL", "addr:street": "West Fulton Market", "amenity": "restaurant", "cuisine": "food_hall;cafeteria", "name": "Time Out Market Chicago", "phone": "+1-312-637-7888", "website": "https://www.timeout.com/chicago/time-out-market"}}, {"type": "node", "id": 7073555751, "lat": 41.8942118, "lon": -87.6525505, "tags": {"addr:city": "Chicago", "addr:housenumber": "694", "addr:postcode": "60642", "addr:state": "IL", "addr:street": "North Milwaukee Avenue", "amenity": "bar", "name": "The Dandy Crown", "phone": "+1-312-846-6420", "website": "http://thedandycrown.com"}}, {"type": "node", "id": 7259838185, "lat": 41.891969, "lon": -87.6490538, "tags": {"addr:housenumber": "522", "addr:street": "North Milwaukee Avenue", "amenity": "restaurant", "name": "Stax Cafe", "opening_hours": "Mo-Fr 07:00-15:00; Sa-Su 07:00-15:30"}}, {"type": "node", "id": 7283913812, "lat": 41.8849437, "lon": -87.6508212, "tags": {"addr:housenumber": "163", "addr:street": "North Sangamon", "amenity": "restaurant", "description": "Ramen", "name": "Kinton Ramen", "phone": "312-374-3942", "website": "kintonramen.com"}}, {"type": "way", "id": 210269961, "nodes": [2203583502, 2203583715, 2203583724, 2203583591, 2203583587, 2203583552, 2203583549, 2203583453, 2203583448, 2203583502], "tags": {"addr:city": "Chicago", "addr:housenumber": "1321", "addr:postcode": "60642", "addr:street": "West Grand Avenue", "addr:street:name": "Grand", "addr:street:prefix": "West", "addr:street:type": "Avenue", "amenity": "restaurant", "building": "yes", "chicago:building_id": "348949", "cuisine": "pizza", "name": "Coalfire", "phone": "312.226.2625", "website": "http://coalfirechicago.com/"}}, {"type": "way", "id": 210270387, "nodes": [2203580648, 2203580768, 2203580772, 2203580662, 2203580648], "tags": {"addr:city": "Chicago", "addr:housenumber": "440", "addr:postcode": "60642", "addr:state": "IL", "addr:street": "North Aberdeen Street", "addr:street:name": "Aberdeen", "addr:street:prefix": "North", "addr:street:type": "Street", "amenity": "bar", "building": "yes", "chicago:building_id": "350040", "name": "The Aberdeen Tap", "opening_hours": "Su-Fr 11:00-02:00; Sa 11:00-03:00", "phone": "+1-312-929-3845", "website": "http://theaberdeentap.com/", "wheelchair": "limited"}}, {"type": "way", "id": 210270390, "nodes": [2203580582, 2203580748, 2203580750, 2203580583, 2203580582], "tags": {"addr:housenumber": "440", "addr:street": "North Racine Avenue", "addr:street:name": "Racine", "addr:street:prefix": "North", "addr:street:type": "Avenue", "amenity": "restaurant", "building": "yes", "chicago:building_id": "350062", "name": "Mart Anthony's"}}, {"type": "way", "id": 210270539, "nodes": [2203578554, 2203578549, 2203578545, 2203578844, 2203578846, 2203578777, 2203578554], "tags": {"addr:city": "Chicago", "addr:housenumber": "702", "addr:postcode": "60661", "addr:state": "IL", "addr:street": "West Fulton Street", "addr:street:name": "Fulton Market", "addr:street:prefix": "West", "amenity": "restaurant", "building": "yes", "chicago:building_id": "352236", "cuisine": "caribbean;spanish", "name": "Carnivale", "opening_hours": "Mo-Fr 11:30-14:30; Mo-Th 17:00-22:00; Fr-Sa 17:00-23:00; Su 10:30-15:00, 17:00-21:00", "phone": "+1-312-850-5005", "website": "https://www.carnivalechicago.com/"}}, {"type": "way", "id": 210270584, "nodes": [2203578023, 2203578021, 2203578385, 2203578387, 2203578023], "tags": {"addr:city": "Chicago", "addr:housenumber": "825", "addr:postcode": "60607", "addr:state": "IL", "addr:street": "West Fulton Market", "addr:street:name": "Fulton Market", "addr:street:prefix": "West", "amenity": "cafe", "building": "yes", "building:levels": "3", "chicago:building_id": "888189", "cuisine": "sandwich;american", "name": "Publican Quality Meats", "opening_hours": "Mo-Sa 10:00-18:00; Su 10:00-17:00", "phone": "+1-312-445-8977", "website": "http://publicanqualitymeats.com/"}}, {"type": "way", "id": 210270693, "nodes": [2203578606, 2203578494, 2203578493, 2203578659, 2203578661, 2203578606], "tags": {"addr:housenumber": "948-954", "addr:street": "West Fulton Market", "addr:street:name": "Fulton Market", "addr:street:prefix": "West", "amenity": "bar", "building": "yes", "building:levels": "2", "chicago:building_id": "879729"}}, {"type": "way", "id": 210680201, "nodes": [2207599832, 2207599830, 2207599896, 2207599898, 2207599903, 2207599904, 2207599831, 2207599832], "tags": {"addr:city": "Chicago", "addr:housenumber": "678", "addr:postcode": "60654", "addr:state": "IL", "addr:street": "North Orleans Street", "addr:street:name": "Orleans", "addr:street:prefix": "North", "addr:street:type": "Street", "amenity": "restaurant", "building": "yes", "building:levels": "2", "chicago:building_id": "870787", "food": "yes", "name": "The Green Door Tavern", "opening_hours": "Mo-Fr 11:30-02:00; Sa 11:30-03:00; Su 12:00-21:00", "phone": "+1-312-664-5496", "start_date": "1872", "website": "http://www.greendoorchicago.com/", "wikidata": "Q16947573", "wikipedia": "en:Green Door Tavern"}}, {"type": "way", "id": 304920610, "nodes": [3094904880, 2203936165, 2203936451, 3094904881, 3094904882, 3094904880], "tags": {"amenity": "restaurant", "building": "yes", "name": "The Dawson"}}, {"type": "way", "id": 329775434, "nodes": [3367138861, 3367138857, 3367138858, 3367138860, 3367138859, 3367138862, 3367138861], "tags": {"amenity": "restaurant", "building": "yes"}}]}