{"version": 0.6, "generator": "Overpass API 0.7.56.3 eb200aeb", "osm3s": {"timestamp_osm_base": "2020-07-04T02:30:03Z", "copyright": "The data included in this document is from www.openstreetmap.org. The data is made available under ODbL."}, "elements": [{"type": "node", "id": 34877689, "lat": 41.9514226, "lon": -87.7265363}, {"type": "node", "id": 34877691, "lat": 41.9497588, "lon": -87.723601}, {"type": "node", "id": 34877693, "lat": 41.9484654, "lon": -87.7211008}, {"type": "node", "id": 34877695, "lat": 41.9477275, "lon": -87.7196161}, {"type": "node", "id": 34877699, "lat": 41.9462608, "lon": -87.7182705}, {"type": "node", "id": 34877701, "lat": 41.944815, "lon": -87.717451}, {"type": "node", "id": 34877702, "lat": 41.9440107, "lon": -87.7169914}, {"type": "node", "id": 34877704, "lat": 41.9427833, "lon": -87.715981}, {"type": "node", "id": 34877706, "lat": 41.9420321, "lon": -87.7149228}, {"type": "node", "id": 258282961, "lat": 41.9436704, "lon": -87.7167728}, {"type": "node", "id": 258282962, "lat": 41.9424432, "lon": -87.7155446}, {"type": "node", "id": 258284113, "lat": 41.9488935, "lon": -87.7220286}, {"type": "node", "id": 258284114, "lat": 41.9486773, "lon": -87.7215835}, {"type": "node", "id": 258284115, "lat": 41.9481367, "lon": -87.720359}, {"type": "node", "id": 258284116, "lat": 41.9473537, "lon": -87.7191455}, {"type": "node", "id": 310165929, "lat": 41.9518267, "lon": -87.7272751}, {"type": "node", "id": 736037292, "lat": 41.9421935, "lon": -87.715175}, {"type": "node", "id": 1282296201, "lat": 41.9484614, "lon": -87.7209727}, {"type": "node", "id": 1282296203, "lat": 41.9519075, "lon": -87.7272782}, {"type": "node", "id": 1282296208, "lat": 41.9510527, "lon": -87.7258034}, {"type": "node", "id": 1282296214, "lat": 41.9431009, "lon": -87.716244}, {"type": "node", "id": 1282296215, "lat": 41.9502947, "lon": -87.7244623}, {"type": "node", "id": 1282296221, "lat": 41.9491656, "lon": -87.7224748}, {"type": "node", "id": 1282296232, "lat": 41.9433783, "lon": -87.7164988}, {"type": "node", "id": 1282296248, "lat": 41.9473662, "lon": -87.7190362}, {"type": "node", "id": 1282296265, "lat": 41.9491203, "lon": -87.7224774}, {"type": "node", "id": 1282296276, "lat": 41.9467757, "lon": -87.7184976}, {"type": "node", "id": 1282296281, "lat": 41.9421991, "lon": -87.7151017}, {"type": "node", "id": 1282296286, "lat": 41.9443618, "lon": -87.7171452}, {"type": "node", "id": 1282296290, "lat": 41.9480345, "lon": -87.7199937}, {"type": "node", "id": 1282296291, "lat": 41.9478709, "lon": -87.7197067}, {"type": "node", "id": 1282296299, "lat": 41.9470364, "lon": -87.7187006}, {"type": "node", "id": 1282296302, "lat": 41.9463468, "lon": -87.7182315}, {"type": "node", "id": 1282296307, "lat": 41.9453713, "lon": -87.7177085}, {"type": "node", "id": 1282296318, "lat": 41.9476455, "lon": -87.7193768}, {"type": "node", "id": 1282296322, "lat": 41.9489482, "lon": -87.722051}, {"type": "node", "id": 1282296337, "lat": 41.9515414, "lon": -87.726667}, {"type": "node", "id": 1282296343, "lat": 41.9436376, "lon": -87.7167}, {"type": "node", "id": 1282296356, "lat": 41.9475809, "lon": -87.7194138}, {"type": "node", "id": 1282296358, "lat": 41.9478587, "lon": -87.7198301}, {"type": "node", "id": 1282296359, "lat": 41.943346, "lon": -87.7165331}, {"type": "node", "id": 1282296372, "lat": 41.9423468, "lon": -87.7153186}, {"type": "node", "id": 1282296376, "lat": 41.9439089, "lon": -87.7168823}, {"type": "node", "id": 1282296377, "lat": 41.9428775, "lon": -87.7160079}, {"type": "node", "id": 1282296387, "lat": 41.945339, "lon": -87.7177286}, {"type": "node", "id": 1282296393, "lat": 41.9487108, "lon": -87.7215628}, {"type": "node", "id": 1282296404, "lat": 41.9430388, "lon": -87.7162493}, {"type": "node", "id": 1282296407, "lat": 41.9482001, "lon": -87.7203397}, {"type": "node", "id": 1282296414, "lat": 41.9494668, "lon": -87.7230031}, {"type": "node", "id": 1282296419, "lat": 41.9425922, "lon": -87.7156566}, {"type": "node", "id": 1282296427, "lat": 41.9479942, "lon": -87.7200798}, {"type": "node", "id": 1282296438, "lat": 41.9510702, "lon": -87.7259057}, {"type": "node", "id": 1282296439, "lat": 41.9469566, "lon": -87.7187617}, {"type": "node", "id": 1743285031, "lat": 41.9391904, "lon": -87.7373556}, {"type": "node", "id": 1743285034, "lat": 41.9391938, "lon": -87.7371664}, {"type": "node", "id": 1743285094, "lat": 41.9392623, "lon": -87.7374061}, {"type": "node", "id": 1743285095, "lat": 41.9392632, "lon": -87.7373579}, {"type": "node", "id": 1743285227, "lat": 41.9393898, "lon": -87.7374102}, {"type": "node", "id": 1743285229, "lat": 41.9393941, "lon": -87.7371728}, {"type": "node", "id": 1743348179, "lat": 41.9443365, "lon": -87.7277586}, {"type": "node", "id": 1743348184, "lat": 41.9443405, "lon": -87.7274663}, {"type": "node", "id": 1743348271, "lat": 41.9443777, "lon": -87.72776}, {"type": "node", "id": 1743348299, "lat": 41.944383, "lon": -87.7274659}, {"type": "node", "id": 1743349233, "lat": 41.9446538, "lon": -87.7278236}, {"type": "node", "id": 1743349279, "lat": 41.9446588, "lon": -87.7274707}, {"type": "node", "id": 1743349514, "lat": 41.9447027, "lon": -87.7274721}, {"type": "node", "id": 1743349543, "lat": 41.9447115, "lon": -87.7278249}, {"type": "node", "id": 1743349562, "lat": 41.9447166, "lon": -87.727494}, {"type": "node", "id": 1743354871, "lat": 41.9461136, "lon": -87.7278006}, {"type": "node", "id": 1743354872, "lat": 41.9461151, "lon": -87.7275506}, {"type": "node", "id": 1743354930, "lat": 41.9461384, "lon": -87.7278224}, {"type": "node", "id": 1743354937, "lat": 41.9461397, "lon": -87.7278003}, {"type": "node", "id": 1743355059, "lat": 41.9461769, "lon": -87.727822}, {"type": "node", "id": 1743355064, "lat": 41.9461782, "lon": -87.72755}, {"type": "node", "id": 1743355116, "lat": 41.9461884, "lon": -87.7279359}, {"type": "node", "id": 1743355163, "lat": 41.9461947, "lon": -87.7275535}, {"type": "node", "id": 1743355276, "lat": 41.9462365, "lon": -87.7279373}, {"type": "node", "id": 1743355277, "lat": 41.9462366, "lon": -87.7279538}, {"type": "node", "id": 1743355302, "lat": 41.9462633, "lon": -87.7275566}, {"type": "node", "id": 1743355307, "lat": 41.9462722, "lon": -87.7279535}, {"type": "node", "id": 1743355320, "lat": 41.9462771, "lon": -87.7275803}, {"type": "node", "id": 1743355638, "lat": 41.9464575, "lon": -87.7279591}, {"type": "node", "id": 1743355676, "lat": 41.9464649, "lon": -87.7275399}, {"type": "node", "id": 1743355725, "lat": 41.9464785, "lon": -87.7275269}, {"type": "node", "id": 1743356067, "lat": 41.9465934, "lon": -87.7279633}, {"type": "node", "id": 1743356087, "lat": 41.9465976, "lon": -87.727728}, {"type": "node", "id": 1743356168, "lat": 41.9466171, "lon": -87.7277289}, {"type": "node", "id": 1743356188, "lat": 41.9466204, "lon": -87.7275311}, {"type": "node", "id": 1743362366, "lat": 41.9485109, "lon": -87.7399363}, {"type": "node", "id": 1743362409, "lat": 41.9485193, "lon": -87.7399546}, {"type": "node", "id": 1743362669, "lat": 41.948555, "lon": -87.7399727}, {"type": "node", "id": 1743363082, "lat": 41.9486, "lon": -87.7399098}, {"type": "node", "id": 1743363161, "lat": 41.9486055, "lon": -87.7399171}, {"type": "node", "id": 1743363787, "lat": 41.9486719, "lon": -87.7397584}, {"type": "node", "id": 1743363906, "lat": 41.9486982, "lon": -87.7398023}, {"type": "node", "id": 2088669212, "lat": 41.9466938, "lon": -87.7185622}, {"type": "node", "id": 2443252578, "lat": 41.9420655, "lon": -87.7148849}, {"type": "node", "id": 3554594099, "lat": 41.9427119, "lon": -87.7300074, "tags": {"amenity": "restaurant", "cuisine": "mexican", "name": "La Oaxaque\u00f1a"}}, {"type": "node", "id": 3572450423, "lat": 41.939013, "lon": -87.7241868, "tags": {"amenity": "restaurant", "cuisine": "mexican", "name": "El Gallo Bravo #2"}}, {"type": "node", "id": 3627809231, "lat": 41.9354831, "lon": -87.7219538, "tags": {"amenity": "bar", "name": "Ski's Lounge"}}, {"type": "node", "id": 3882556825, "lat": 41.9371181, "lon": -87.7267952, "tags": {"amenity": "restaurant", "brand": "Wingstop", "brand:wikidata": "Q8025339", "brand:wikipedia": "en:Wingstop", "cuisine": "wings", "name": "Wingstop"}}, {"type": "node", "id": 3882579326, "lat": 41.9392769, "lon": -87.7227531, "tags": {"addr:city": "Chicago", "addr:housenumber": "3808", "addr:postcode": "60618", "addr:state": "IL", "addr:street": "West Belmont Avenue", "amenity": "pub", "name": "Edelweiss Tavern", "phone": "+1-773-293-7707", "website": "http://www.edelweisstavern.net/"}}, {"type": "node", "id": 3882580215, "lat": 41.9410645, "lon": -87.7262185, "tags": {"amenity": "bar", "name": "Milano Cafe & Bar"}}, {"type": "node", "id": 3882580216, "lat": 41.9406036, "lon": -87.7260147, "tags": {"amenity": "cafe", "name": "Outdoor Grill"}}, {"type": "node", "id": 4060122319, "lat": 41.9442432, "lon": -87.7319873, "tags": {"amenity": "pub", "name": "Janina's"}}, {"type": "node", "id": 4217839032, "lat": 41.9429008, "lon": -87.7303791, "tags": {"addr:city": "Chicago", "addr:housenumber": "3394", "addr:postcode": "60641", "addr:state": "IL", "addr:street": "North Milwaukee Avenue", "amenity": "bar", "name": "Live Wire Lounge", "phone": "+1-773-756-5363", "website": "http://www.livewireloungechicago.com/"}}, {"type": "node", "id": 4217839033, "lat": 41.9415627, "lon": -87.7281613, "tags": {"amenity": "restaurant", "name": "Pollo Andino Rosticeria"}}, {"type": "node", "id": 6265732543, "lat": 41.9392104, "lon": -87.7273404, "tags": {"addr:city": "Chicago", "addr:housenumber": "3200", "addr:postcode": "60641", "addr:state": "IL", "addr:street": "North Pulaski Road", "amenity": "bar", "name": "Belford Tavern", "phone": "+1-773-725-7112"}}, {"type": "node", "id": 6267140751, "lat": 41.9461358, "lon": -87.7361651, "tags": {"addr:city": "Chicago", "addr:housenumber": "4323", "addr:postcode": "60641", "addr:state": "IL", "addr:street": "North Lowell Avenue", "amenity": "cafe", "cuisine": "sandwiches;coffee_shop;coffee", "diet:vegetarian": "no", "name": "Bia\u2019s Caf\u00e9 Marianao", "opening_hours": "Mo-Sa 06:00-18:00; Su 08:00-16:00", "phone": "+1-773-993-0178"}}, {"type": "node", "id": 6269151464, "lat": 41.946536, "lon": -87.7277384, "tags": {"addr:city": "Chicago", "addr:housenumber": "3600", "addr:postcode": "60641", "addr:state": "IL", "addr:street": "North Pulaski Road", "amenity": "bar", "name": "Brudders Bar and Grill", "phone": "+1-773-283-8700", "website": "bruddersbar.com"}}, {"type": "node", "id": 6282663455, "lat": 41.9401528, "lon": -87.7274057, "tags": {"addr:city": "Chicago", "addr:housenumber": "3234", "addr:postcode": "60618", "addr:state": "IL", "addr:street": "North Pulaski Road", "amenity": "cafe", "name": "City Cafe", "phone": "+1-773-736-5646"}}, {"type": "node", "id": 6294123301, "lat": 41.945475, "lon": -87.7275518, "tags": {"addr:city": "Chicago", "addr:housenumber": "3532", "addr:postcode": "60641", "addr:state": "IL", "addr:street": "North Pulaski Road", "amenity": "bar", "name": "Hangovers Sports Bar and Liquor Store", "phone": "+1-773-283-4666", "website": "https://hangovers.business.site/?m=true"}}, {"type": "node", "id": 6303982943, "lat": 41.9449787, "lon": -87.7270955, "tags": {"addr:city": "Chicago", "addr:housenumber": "3513", "addr:postcode": "60641", "addr:state": "IL", "addr:street": "North Pulaski Road", "amenity": "bar", "name": "Teddy Bear Lounge", "phone": "+1-773-267-5490"}}, {"type": "node", "id": 6369274489, "lat": 41.9482852, "lon": -87.7205459}, {"type": "node", "id": 6369274490, "lat": 41.948464, "lon": -87.7209788}, {"type": "node", "id": 6369274492, "lat": 41.9482034, "lon": -87.7205095}, {"type": "node", "id": 6369533865, "lat": 41.9478025, "lon": -87.7196066, "tags": {"name": "Addison", "network": "CTA", "operator": "Chicago Transit Authority", "public_transport": "stop_position", "railway": "stop", "subway": "yes"}}, {"type": "node", "id": 6369533866, "lat": 41.9472299, "lon": -87.7188837}, {"type": "node", "id": 6369533867, "lat": 41.9471595, "lon": -87.7189466}, {"type": "node", "id": 6518077387, "lat": 41.9469117, "lon": -87.7187276, "tags": {"name": "Addison", "network": "CTA", "operator": "Chicago Transit Authority", "public_transport": "stop_position", "railway": "stop", "subway": "yes"}}, {"type": "way", "id": 28239662, "nodes": [310165929, 34877689, 1282296438, 34877691, 1282296265, 258284113, 258284114, 34877693, 6369274492, 258284115, 1282296427, 1282296358, 34877695, 1282296356, 258284116, 6369533867, 1282296439, 6518077387, 2088669212, 34877699, 1282296387, 34877701, 34877702, 258282961, 1282296359, 1282296404, 34877704, 258282962, 736037292, 34877706], "tags": {"electrified": "rail", "frequency": "0", "gauge": "1435", "name": "O'Hare Branch", "oneway": "yes", "operator": "Chicago Transit Authority", "railway": "subway", "voltage": "600"}}, {"type": "way", "id": 162436031, "nodes": [1743285031, 1743285095, 1743285094, 1743285227, 1743285229, 1743285034, 1743285031], "tags": {"addr:housenumber": "3208", "addr:street": "North Kostner Avenue", "addr:street:name": "Kostner", "addr:street:prefix": "North", "addr:street:type": "Avenue", "amenity": "restaurant", "building": "yes", "chicago:building_id": "212927", "name": "Astoria"}}, {"type": "way", "id": 162447920, "nodes": [1743348179, 1743348271, 1743348299, 1743348184, 1743348179], "tags": {"addr:city": "Chicago", "addr:housenumber": "3456", "addr:postcode": "60641", "addr:state": "IL", "addr:street": "North Pulaski Road", "addr:street:name": "Pulaski", "addr:street:prefix": "North", "addr:street:type": "Road", "amenity": "bar", "building": "yes", "chicago:building_id": "190561", "name": "PL Lounge", "phone": "+1-773-481-5864", "website": "http://pl-zen.com/"}}, {"type": "way", "id": 162448224, "nodes": [1743355116, 1743355276, 1743355277, 1743355307, 1743355320, 1743355302, 1743355163, 1743355116], "tags": {"addr:housenumber": "3554-3558", "addr:street": "North Pulaski Road", "addr:street:name": "Pulaski", "addr:street:prefix": "North", "addr:street:type": "Road", "amenity": "restaurant", "building": "yes", "building:levels": "1", "chicago:building_id": "183137", "cuisine": "thai", "name": "Manee Thai"}}, {"type": "way", "id": 162448228, "nodes": [1743354871, 1743354937, 1743354930, 1743355059, 1743355064, 1743354872, 1743354871], "tags": {"addr:housenumber": "3556", "addr:street": "North Pulaski Road", "addr:street:name": "Pulaski", "addr:street:prefix": "North", "addr:street:type": "Road", "amenity": "restaurant", "building": "yes", "building:levels": "2", "chicago:building_id": "183498", "cuisine": "colombian", "name": "Brasa Roja"}}, {"type": "way", "id": 162448256, "nodes": [1743356067, 1743356087, 1743356168, 1743356188, 1743355725, 1743355676, 1743355638, 1743356067], "tags": {"addr:housenumber": "3600-3604", "addr:street": "North Pulaski Road", "addr:street:name": "Pulaski", "addr:street:prefix": "North", "addr:street:type": "Road", "amenity": "bar", "building": "yes", "building:levels": "1", "chicago:building_id": "848149", "name": "Brudder's"}}, {"type": "way", "id": 162449023, "nodes": [1743362366, 1743362409, 1743362669, 1743363161, 1743363082, 1743363906, 1743363787, 1743362366], "tags": {"addr:city": "Chicago", "addr:housenumber": "3734", "addr:postcode": "60641", "addr:state": "IL", "addr:street": "North Milwaukee Avenue", "addr:street:name": "Milwaukee", "amenity": "bar", "name": "The Booze Hound", "phone": "+1-773-736-1010"}}, {"type": "way", "id": 162450113, "nodes": [1743349233, 1743349543, 1743349562, 1743349514, 1743349279, 1743349233], "tags": {"addr:housenumber": "4003", "addr:street": "West Cornelia Avenue", "addr:street:name": "Cornelia", "addr:street:prefix": "West", "addr:street:type": "Avenue", "amenity": "restaurant", "building": "yes", "building:levels": "2", "chicago:building_id": "189297", "cuisine": "latin_american", "name": "La Humita", "phone": "+1-773-794-9672"}}, {"type": "way", "id": 236279637, "nodes": [2443252578, 1282296281, 1282296372, 1282296419, 1282296377, 1282296214, 1282296232, 1282296343, 1282296376, 1282296286, 1282296307, 1282296302, 1282296276, 1282296299, 6369533866, 1282296248, 1282296318, 6369533865, 1282296291, 1282296290, 1282296407, 6369274489, 1282296201, 6369274490, 1282296393, 1282296322, 1282296221, 1282296414, 1282296215, 1282296208, 1282296337, 1282296203], "tags": {"electrified": "rail", "frequency": "0", "gauge": "1435", "name": "O'Hare Branch", "oneway": "yes", "operator": "Chicago Transit Authority", "railway": "subway", "voltage": "600"}}]}