{"version": 0.6, "generator": "Overpass API 0.7.56.3 eb200aeb", "osm3s": {"timestamp_osm_base": "2020-07-17T21:20:03Z", "copyright": "The data included in this document is from www.openstreetmap.org. The data is made available under ODbL."}, "elements": [{"type": "node", "id": 1749665929, "lat": 41.976337, "lon": -87.7868416}, {"type": "node", "id": 1749666090, "lat": 41.976401, "lon": -87.7870341}, {"type": "node", "id": 1749666254, "lat": 41.9764533, "lon": -87.7867725}, {"type": "node", "id": 1749666433, "lat": 41.9765173, "lon": -87.7869651}, {"type": "node", "id": 1750388053, "lat": 41.9746858, "lon": -87.807621}, {"type": "node", "id": 1750388117, "lat": 41.9746931, "lon": -87.8074021}, {"type": "node", "id": 1750388251, "lat": 41.9747191, "lon": -87.8074038}, {"type": "node", "id": 1750388261, "lat": 41.9747203, "lon": -87.8073633}, {"type": "node", "id": 1750388806, "lat": 41.9748094, "lon": -87.8076292}, {"type": "node", "id": 1750388807, "lat": 41.9748094, "lon": -87.8076421}, {"type": "node", "id": 1750388817, "lat": 41.9748109, "lon": -87.8073681}, {"type": "node", "id": 1750388818, "lat": 41.9748121, "lon": -87.8073368}, {"type": "node", "id": 1750388918, "lat": 41.9748534, "lon": -87.8073677}, {"type": "node", "id": 1750388925, "lat": 41.9748547, "lon": -87.8073383}, {"type": "node", "id": 1750389148, "lat": 41.9749046, "lon": -87.8074611}, {"type": "node", "id": 1750389153, "lat": 41.974907, "lon": -87.807371}, {"type": "node", "id": 1750389190, "lat": 41.9749151, "lon": -87.8076486}, {"type": "node", "id": 1750389228, "lat": 41.9749211, "lon": -87.8074628}, {"type": "node", "id": 1750408454, "lat": 41.9799251, "lon": -87.8032822}, {"type": "node", "id": 1750408595, "lat": 41.9799476, "lon": -87.803385}, {"type": "node", "id": 1750408869, "lat": 41.9800399, "lon": -87.8032375}, {"type": "node", "id": 1750408871, "lat": 41.9800402, "lon": -87.803239}, {"type": "node", "id": 1750409340, "lat": 41.9801939, "lon": -87.8031777}, {"type": "node", "id": 1750409448, "lat": 41.9802385, "lon": -87.8033844}, {"type": "node", "id": 1750428192, "lat": 41.9873879, "lon": -87.7900466}, {"type": "node", "id": 1750428299, "lat": 41.9874252, "lon": -87.7901125}, {"type": "node", "id": 1750428620, "lat": 41.9875572, "lon": -87.7898742}, {"type": "node", "id": 1750428737, "lat": 41.9875946, "lon": -87.78994}, {"type": "node", "id": 2876689578, "lat": 41.9812402, "lon": -87.806711, "tags": {"amenity": "restaurant", "cuisine": "mexican", "name": "Taco Buritto King"}}, {"type": "node", "id": 5711709192, "lat": 41.9804252, "lon": -87.8026084, "tags": {"amenity": "restaurant", "cuisine": "italian;pizza", "delivery": "yes", "name": "Dino's Italian Pizza & Italian Restaurant", "opening_hours": "Mo-Su 11:00-23:00", "outdoor_seating": "yes", "takeaway": "yes"}}, {"type": "node", "id": 6297651885, "lat": 41.9797999, "lon": -87.8074943, "tags": {"addr:city": "Chicago", "addr:housenumber": "5454", "addr:postcode": "60656", "addr:state": "IL", "addr:street": "North Harlem Avenue", "amenity": "restaurant", "cuisine": "breakfast", "name": "Cozy Corner"}}, {"type": "node", "id": 6321581774, "lat": 41.9811358, "lon": -87.806009, "tags": {"addr:city": "Chicago", "addr:housenumber": "7134", "addr:postcode": "60656", "addr:state": "IL", "addr:street": "West Higgins Avenue", "amenity": "cafe", "name": "Mather\u2019s More Than a Cafe", "phone": "+1-773-774-4804", "website": "https://www.matherlifeways.com/mathers-more-than-a-cafe"}}, {"type": "way", "id": 163226336, "nodes": [1749665929, 1749666090, 1749666433, 1749666254, 1749665929], "tags": {"addr:housenumber": "6348", "addr:street": "West Higgins Avenue", "addr:street:name": "Higgins", "addr:street:prefix": "West", "addr:street:type": "Avenue", "amenity": "restaurant", "building": "yes", "chicago:building_id": "77684", "cuisine": "coffee_shop", "name": "The Big Top Restaurant"}}, {"type": "way", "id": 163325629, "nodes": [1750428192, 1750428299, 1750428737, 1750428620, 1750428192], "tags": {"addr:city": "Chicago", "addr:housenumber": "5823", "addr:postcode": "60631", "addr:state": "IL", "addr:street": "North Northwest Highway", "addr:street:name": "Northwest", "addr:street:prefix": "North", "addr:street:type": "Highway", "amenity": "bar", "building": "yes", "building:levels": "1", "chicago:building_id": "49112", "name": "Little Bar", "phone": "+1-773-993-0660"}}, {"type": "way", "id": 163327019, "nodes": [1750409448, 1750409340, 1750408869, 1750408871, 1750408454, 1750408595, 1750409448], "tags": {"addr:city": "Chicago", "addr:housenumber": "7021", "addr:postcode": "60656", "addr:state": "IL", "addr:street": "West Higgins Avenue", "addr:street:name": "Higgins", "addr:street:prefix": "West", "addr:street:type": "Avenue", "amenity": "restaurant", "building": "yes", "building:levels": "1", "chicago:building_id": "844512", "cuisine": "Colombian", "name": "Congas", "phone": "(773) 968-4259"}}, {"type": "way", "id": 163327249, "nodes": [1750388053, 1750388806, 1750388807, 1750389190, 1750389228, 1750389148, 1750389153, 1750388918, 1750388925, 1750388818, 1750388817, 1750388261, 1750388251, 1750388117, 1750388053], "tags": {"addr:city": "Chicago", "addr:housenumber": "5220", "addr:postcode": "60656", "addr:street": "North Harlem Avenue", "addr:street:name": "Harlem", "addr:street:prefix": "North", "addr:street:type": "Avenue", "amenity": "restaurant", "building": "retail", "building:levels": "1", "chicago:building_id": "82743", "cuisine": "american", "name": "Bakers Square", "website": "http://www.bakerssquare.com/locations/220658"}}]}