{"version": 0.6, "generator": "Overpass API 0.7.56.1004 6cd3eaec", "osm3s": {"timestamp_osm_base": "2020-07-22T06:23:02Z", "copyright": "The data included in this document is from www.openstreetmap.org. The data is made available under ODbL."}, "elements": [{"type": "node", "id": 1130094835, "lat": 41.922644, "lon": -87.697483, "tags": {"addr:city": "Chicago", "addr:housenumber": "2230", "addr:postcode": "60647", "addr:street": "North California Avenue", "amenity": "bar", "food": "yes", "name": "Logan Bar", "outdoor_seating": "yes", "phone": "+1-773-252-1110", "website": "loganchicago.com", "wheelchair": "yes"}}, {"type": "node", "id": 1262345400, "lat": 41.923399, "lon": -87.698384, "tags": {"addr:city": "Chicago", "addr:housenumber": "2320", "addr:postcode": "60647", "addr:street": "North Milwaukee Avenue", "amenity": "restaurant", "cuisine": "mexican", "name": "2 Amigos", "smoking": "no", "takeaway": "yes"}}, {"type": "node", "id": 1262346097, "lat": 41.9236445, "lon": -87.6988013, "tags": {"addr:city": "Chicago", "addr:housenumber": "2338", "addr:postcode": "60647", "addr:street": "North Milwaukee Avenue", "amenity": "bar", "atm": "yes", "food": "no", "name": "Cole's Bar", "outdoor_seating": "no", "smoking": "no"}}, {"type": "node", "id": 1585389610, "lat": 41.9165513, "lon": -87.6876454, "tags": {"addr:city": "Chicago", "addr:housenumber": "2403", "addr:postcode": "60647", "addr:state": "IL", "addr:street": "West Homer Street", "amenity": "bar", "name": "Green Eye Lounge", "phone": "+1-773-227-8851", "website": "https://greeneyelounge.com/"}}, {"type": "node", "id": 1585392218, "lat": 41.9162779, "lon": -87.6876159, "tags": {"addr:housenumber": "1912", "addr:postcode": "60647", "addr:street": "North Western Avenue", "amenity": "restaurant", "delivery": "yes", "name": "Belly Shack", "phone": "773-252-1414", "takeaway": "yes", "website": "http://www.bellyshack.com/", "wheelchair": "yes"}}, {"type": "node", "id": 1585423403, "lat": 41.9212295, "lon": -87.6779251, "tags": {"addr:housenumber": "2158", "addr:street": "North Damen Avenue", "amenity": "cafe", "cuisine": "coffee_shop", "name": "Bucktown Beanery", "wifi": "free"}}, {"type": "node", "id": 1585425015, "lat": 41.9250199, "lon": -87.6874251, "tags": {"addr:city": "Chicago", "addr:housenumber": "2401", "addr:postcode": "60647", "addr:street": "North Western Avenue", "amenity": "bar", "name": "Quenchers"}}, {"type": "node", "id": 1685093555, "lat": 41.9198795, "lon": -87.6804824, "tags": {"addr:city": "Chicago", "addr:housenumber": "2076", "addr:postcode": "60647", "addr:state": "IL", "addr:street": "North Hoyne Avenue", "amenity": "bar", "name": "Charleston", "phone": "+1-773-489-4757", "website": "https://www.charlestonchicago.com/"}}, {"type": "node", "id": 1699464559, "lat": 41.9178252, "lon": -87.6795216, "tags": {"amenity": "restaurant", "name": "Jack & Ginger's"}}, {"type": "node", "id": 1699464583, "lat": 41.9175667, "lon": -87.677763, "tags": {"addr:city": "Chicago", "addr:housenumber": "1958", "addr:postcode": "60647", "addr:state": "IL", "addr:street": "North Damen Avenue", "amenity": "restaurant", "cuisine": "french", "name": "Le Bouchon", "phone": "+1-773-862-6600", "website": "http://www.lebouchonofchicago.com/"}}, {"type": "node", "id": 1699464827, "lat": 41.9175758, "lon": -87.6802739, "tags": {"amenity": "cafe", "brand": "Starbucks", "brand:wikidata": "Q37158", "brand:wikipedia": "en:Starbucks", "cuisine": "coffee_shop", "name": "Starbucks", "takeaway": "yes"}}, {"type": "node", "id": 1700855290, "lat": 41.9174886, "lon": -87.6851722, "tags": {"addr:city": "Chicago", "addr:housenumber": "1944", "addr:postcode": "60647", "addr:state": "IL", "addr:street": "North Oakley Avenue", "amenity": "bar", "name": "Floyd's Pub", "phone": "+1-773-276-6060", "website": "http://floydspub.net/"}}, {"type": "node", "id": 2196191472, "lat": 41.9153855, "lon": -87.6850008}, {"type": "node", "id": 2196191717, "lat": 41.9155028, "lon": -87.6850109}, {"type": "node", "id": 2196191866, "lat": 41.9155111, "lon": -87.6851987}, {"type": "node", "id": 2196192238, "lat": 41.9155961, "lon": -87.6850155}, {"type": "node", "id": 2196192241, "lat": 41.9155966, "lon": -87.6850963}, {"type": "node", "id": 2196192517, "lat": 41.9156236, "lon": -87.6850152}, {"type": "node", "id": 2196192520, "lat": 41.9156252, "lon": -87.6850648}, {"type": "node", "id": 2196193268, "lat": 41.9159196, "lon": -87.6867571}, {"type": "node", "id": 2196193451, "lat": 41.9159617, "lon": -87.6868213}, {"type": "node", "id": 2196193545, "lat": 41.915989, "lon": -87.6867898}, {"type": "node", "id": 2196193552, "lat": 41.9159898, "lon": -87.6867913}, {"type": "node", "id": 2196194592, "lat": 41.9161233, "lon": -87.6865173}, {"type": "node", "id": 2196194760, "lat": 41.916162, "lon": -87.6865768}, {"type": "node", "id": 2196202677, "lat": 41.9176383, "lon": -87.691975}, {"type": "node", "id": 2196202683, "lat": 41.9176422, "lon": -87.6917584}, {"type": "node", "id": 2196202720, "lat": 41.9176585, "lon": -87.6872249}, {"type": "node", "id": 2196202730, "lat": 41.9176651, "lon": -87.6869235}, {"type": "node", "id": 2196202833, "lat": 41.917758, "lon": -87.6917659}, {"type": "node", "id": 2196202841, "lat": 41.9177261, "lon": -87.6872275}, {"type": "node", "id": 2196202858, "lat": 41.9177353, "lon": -87.6869261}, {"type": "node", "id": 2196202906, "lat": 41.9177593, "lon": -87.6918226}, {"type": "node", "id": 2196202907, "lat": 41.9177896, "lon": -87.6918307}, {"type": "node", "id": 2196202979, "lat": 41.9177639, "lon": -87.6918958}, {"type": "node", "id": 2196202980, "lat": 41.9177911, "lon": -87.6918836}, {"type": "node", "id": 2196203152, "lat": 41.9178575, "lon": -87.6872324}, {"type": "node", "id": 2196203213, "lat": 41.9178665, "lon": -87.6869311}, {"type": "node", "id": 2196206485, "lat": 41.9187496, "lon": -87.6872131}, {"type": "node", "id": 2196206495, "lat": 41.9187509, "lon": -87.6870606}, {"type": "node", "id": 2196206652, "lat": 41.9188065, "lon": -87.6872141}, {"type": "node", "id": 2196206656, "lat": 41.9188078, "lon": -87.6870616}, {"type": "node", "id": 2196211921, "lat": 41.9197956, "lon": -87.6878427}, {"type": "node", "id": 2196211927, "lat": 41.9197964, "lon": -87.6877379}, {"type": "node", "id": 2196212294, "lat": 41.9198464, "lon": -87.687844}, {"type": "node", "id": 2196212302, "lat": 41.9198486, "lon": -87.6877393}, {"type": "node", "id": 2196212544, "lat": 41.9199429, "lon": -87.693305}, {"type": "node", "id": 2196212651, "lat": 41.9199844, "lon": -87.6933707}, {"type": "node", "id": 2196213642, "lat": 41.9201501, "lon": -87.6930714}, {"type": "node", "id": 2196213756, "lat": 41.9201916, "lon": -87.6931372}, {"type": "node", "id": 2196219001, "lat": 41.9215776, "lon": -87.6956256}, {"type": "node", "id": 2196219109, "lat": 41.9216007, "lon": -87.6955813}, {"type": "node", "id": 2196219159, "lat": 41.9216076, "lon": -87.6955922}, {"type": "node", "id": 2196219243, "lat": 41.9216164, "lon": -87.6956877}, {"type": "node", "id": 2196219263, "lat": 41.9216286, "lon": -87.6956595}, {"type": "node", "id": 2196219376, "lat": 41.9216341, "lon": -87.6956673}, {"type": "node", "id": 2196219430, "lat": 41.9216422, "lon": -87.6956433}, {"type": "node", "id": 2196219524, "lat": 41.9216498, "lon": -87.6955275}, {"type": "node", "id": 2196219791, "lat": 41.9216762, "lon": -87.6955934}, {"type": "node", "id": 2196219836, "lat": 41.9216817, "lon": -87.6956007}, {"type": "node", "id": 2196219846, "lat": 41.9216844, "lon": -87.6955841}, {"type": "node", "id": 2196223815, "lat": 41.9222373, "lon": -87.6970668}, {"type": "node", "id": 2196224182, "lat": 41.92233, "lon": -87.6972055}, {"type": "node", "id": 2196224337, "lat": 41.9223909, "lon": -87.6970506}, {"type": "node", "id": 2196224360, "lat": 41.9224214, "lon": -87.6970962}, {"type": "node", "id": 2196224379, "lat": 41.9224336, "lon": -87.6968315}, {"type": "node", "id": 2196224793, "lat": 41.9224959, "lon": -87.6969228}, {"type": "node", "id": 2196231356, "lat": 41.9236958, "lon": -87.6970468}, {"type": "node", "id": 2196231359, "lat": 41.9236974, "lon": -87.6970927}, {"type": "node", "id": 2196231368, "lat": 41.9237006, "lon": -87.6971772}, {"type": "node", "id": 2196231378, "lat": 41.9237018, "lon": -87.6971441}, {"type": "node", "id": 2196231381, "lat": 41.9237024, "lon": -87.6970063}, {"type": "node", "id": 2196231382, "lat": 41.9237024, "lon": -87.6972562}, {"type": "node", "id": 2196231383, "lat": 41.9237026, "lon": -87.6970394}, {"type": "node", "id": 2196231387, "lat": 41.9237034, "lon": -87.697179}, {"type": "node", "id": 2196231402, "lat": 41.9237112, "lon": -87.6971054}, {"type": "node", "id": 2196231405, "lat": 41.9237114, "lon": -87.6971348}, {"type": "node", "id": 2196231455, "lat": 41.9237299, "lon": -87.6972578}, {"type": "node", "id": 2196231485, "lat": 41.9237354, "lon": -87.6972669}, {"type": "node", "id": 2196231530, "lat": 41.9237436, "lon": -87.6970077}, {"type": "node", "id": 2196231531, "lat": 41.9237438, "lon": -87.6970463}, {"type": "node", "id": 2196231640, "lat": 41.9237547, "lon": -87.6972685}, {"type": "node", "id": 2196231710, "lat": 41.9237601, "lon": -87.6972593}, {"type": "node", "id": 2196231762, "lat": 41.923767, "lon": -87.6972611}, {"type": "node", "id": 2196231771, "lat": 41.9237699, "lon": -87.6970479}, {"type": "node", "id": 2196700902, "lat": 41.9250337, "lon": -87.6882088}, {"type": "node", "id": 2196700904, "lat": 41.9250341, "lon": -87.6880416}, {"type": "node", "id": 2196701484, "lat": 41.9252423, "lon": -87.6882104}, {"type": "node", "id": 2196701487, "lat": 41.9252432, "lon": -87.688135}, {"type": "node", "id": 2196702206, "lat": 41.9254038, "lon": -87.6881371}, {"type": "node", "id": 2196702217, "lat": 41.9254046, "lon": -87.688047}, {"type": "node", "id": 2196706116, "lat": 41.9257969, "lon": -87.6882581}, {"type": "node", "id": 2196706176, "lat": 41.925807, "lon": -87.6878611}, {"type": "node", "id": 2196706393, "lat": 41.9258614, "lon": -87.6882611}, {"type": "node", "id": 2196706420, "lat": 41.9258701, "lon": -87.6878641}, {"type": "node", "id": 2196726093, "lat": 41.9304316, "lon": -87.6889427}, {"type": "node", "id": 2196726113, "lat": 41.9304346, "lon": -87.6884961}, {"type": "node", "id": 2196726256, "lat": 41.9304671, "lon": -87.6889074}, {"type": "node", "id": 2196726258, "lat": 41.9304673, "lon": -87.6889423}, {"type": "node", "id": 2196726343, "lat": 41.9304931, "lon": -87.6889072}, {"type": "node", "id": 2196726355, "lat": 41.9304963, "lon": -87.6884955}, {"type": "node", "id": 2196734852, "lat": 41.9321972, "lon": -87.6982412}, {"type": "node", "id": 2196734859, "lat": 41.932198, "lon": -87.6981512}, {"type": "node", "id": 2196735073, "lat": 41.9322589, "lon": -87.6982425}, {"type": "node", "id": 2196735074, "lat": 41.932259, "lon": -87.6982572}, {"type": "node", "id": 2196735080, "lat": 41.9322625, "lon": -87.6885421}, {"type": "node", "id": 2196735084, "lat": 41.9322662, "lon": -87.6882296}, {"type": "node", "id": 2196735239, "lat": 41.9323201, "lon": -87.6885433}, {"type": "node", "id": 2196735242, "lat": 41.9323209, "lon": -87.6884386}, {"type": "node", "id": 2196735244, "lat": 41.9323211, "lon": -87.6882309}, {"type": "node", "id": 2196735246, "lat": 41.9323214, "lon": -87.6882805}, {"type": "node", "id": 2196735348, "lat": 41.9323701, "lon": -87.6982432}, {"type": "node", "id": 2196735349, "lat": 41.9323701, "lon": -87.6982597}, {"type": "node", "id": 2196735356, "lat": 41.9323721, "lon": -87.6882819}, {"type": "node", "id": 2196735382, "lat": 41.9323813, "lon": -87.6884398}, {"type": "node", "id": 2196735386, "lat": 41.9323832, "lon": -87.6882964}, {"type": "node", "id": 2196735588, "lat": 41.9324743, "lon": -87.6982458}, {"type": "node", "id": 2196735590, "lat": 41.9324752, "lon": -87.6981558}, {"type": "node", "id": 2200230349, "lat": 41.9156231, "lon": -87.6762322}, {"type": "node", "id": 2200230367, "lat": 41.9156253, "lon": -87.6761477}, {"type": "node", "id": 2200231880, "lat": 41.9158522, "lon": -87.6762391}, {"type": "node", "id": 2200232041, "lat": 41.9158741, "lon": -87.6762168}, {"type": "node", "id": 2200232050, "lat": 41.9158751, "lon": -87.6761543}, {"type": "node", "id": 2200242724, "lat": 41.9182738, "lon": -87.682951}, {"type": "node", "id": 2200242734, "lat": 41.918279, "lon": -87.6826497}, {"type": "node", "id": 2200242950, "lat": 41.9183383, "lon": -87.6829522}, {"type": "node", "id": 2200243001, "lat": 41.9183448, "lon": -87.6826527}, {"type": "node", "id": 2422425841, "lat": 41.92796, "lon": -87.697351, "tags": {"addr:city": "Chicago", "addr:housenumber": "2543", "addr:postcode": "60618", "addr:street": "North California Avenue", "amenity": "cafe", "brand": "Starbucks", "brand:wikidata": "Q37158", "brand:wikipedia": "en:Starbucks", "cuisine": "coffee_shop", "drive_through": "no", "name": "Starbucks", "official_name": "Starbucks Coffee", "outdoor_seating": "yes", "takeaway": "yes"}}, {"type": "node", "id": 2461374190, "lat": 41.922552, "lon": -87.697519, "tags": {"addr:city": "Chicago", "addr:housenumber": "2226", "addr:postcode": "60647", "addr:state": "IL", "addr:street": "North California Avenue", "amenity": "restaurant", "cuisine": "mexican", "name": "Taqueria Moran", "phone": "+1-773-235-2663", "wheelchair": "limited"}}, {"type": "node", "id": 2495670456, "lat": 41.931995, "lon": -87.698314, "tags": {"addr:city": "Chicago", "addr:housenumber": "2815", "addr:postcode": "60618", "addr:street": "West Diversey Parkway", "amenity": "restaurant", "cuisine": "mexican", "name": "L'Patron", "outdoor_seating": "no", "takeaway": "yes"}}, {"type": "node", "id": 2665801433, "lat": 41.917717, "lon": -87.6919771}, {"type": "node", "id": 2665801438, "lat": 41.9177654, "lon": -87.6919791}, {"type": "node", "id": 2671405828, "lat": 41.9175718, "lon": -87.680526, "tags": {"amenity": "restaurant", "cuisine": "cuban", "name": "Cafe Laguardia"}}, {"type": "node", "id": 2732205615, "lat": 41.9233284, "lon": -87.6978085, "tags": {"addr:city": "Chicago", "addr:housenumber": "2313", "addr:postcode": "60647", "addr:state": "IL", "addr:street": "North Milwaukee Avenue", "amenity": "cafe", "name": "Cafe Mustache", "phone": "+1-773-687-9063", "website": "http://www.cafemustache.com/"}}, {"type": "node", "id": 2761648471, "lat": 41.9237455, "lon": -87.6983641, "tags": {"addr:city": "Chicago", "addr:housenumber": "2333", "addr:postcode": "60647", "addr:state": "IL", "addr:street": "North Milwaukee Avenue", "amenity": "restaurant", "name": "The Chicago Diner", "phone": "+1-773-252-3211", "website": "http://www.veggiediner.com/", "wheelchair:description": "they have a ramp to get over the small entrance step"}}, {"type": "node", "id": 2761689189, "lat": 41.921848, "lon": -87.6974778, "tags": {"amenity": "bar", "name": "Township"}}, {"type": "node", "id": 2761695654, "lat": 41.91902, "lon": -87.6971023, "tags": {"amenity": "cafe", "name": "Bang Bang Pie Shop"}}, {"type": "node", "id": 2789537651, "lat": 41.9173555, "lon": -87.6984206, "tags": {"addr:city": "Chicago", "addr:housenumber": "2829", "addr:postcode": "60647", "addr:state": "IL", "addr:street": "West Armitage Avenue", "amenity": "restaurant", "cuisine": "mexican", "name": "Dos Urban Cantina", "opening_hours": "Tu-Th 17:00-21:00; Fr-Sa 17:00-23:00; Su 17:00-21:00", "phone": "+1-773-661-6452", "website": "https://dosurbancantina.com", "wheelchair": "no"}}, {"type": "node", "id": 2904923307, "lat": 41.9275368, "lon": -87.6976401, "tags": {"addr:housenumber": "2528", "addr:street": "North California Avenue", "amenity": "restaurant", "name": "The General", "source:name": "survey"}}, {"type": "node", "id": 3232688565, "lat": 41.9220029, "lon": -87.6974958, "tags": {"amenity": "restaurant", "name": "Masada"}}, {"type": "node", "id": 3551841162, "lat": 41.9176933, "lon": -87.6982559, "tags": {"addr:city": "Chicago", "addr:housenumber": "2824", "addr:postcode": "60647", "addr:state": "IL", "addr:street": "West Armitage Avenue", "amenity": "restaurant", "cuisine": "italian", "name": "Osteria Langhe", "phone": "+1-773-661-1582", "website": "https://www.osterialanghe.com/"}}, {"type": "node", "id": 3552123092, "lat": 41.9277148, "lon": -87.6973415, "tags": {"addr:city": "Chicago", "addr:housenumber": "2535", "addr:postcode": "60647", "addr:state": "IL", "addr:street": "North California Avenue", "amenity": "restaurant", "name": "Buona Terra", "phone": "+1-773-289-3800", "website": "http://www.buona-terra.com/"}}, {"type": "node", "id": 3552123473, "lat": 41.9276449, "lon": -87.6976526, "tags": {"amenity": "restaurant", "cuisine": "thai", "name": "Anong"}}, {"type": "node", "id": 3552127034, "lat": 41.9271765, "lon": -87.69713, "tags": {"addr:city": "Chicago", "addr:housenumber": "2515", "addr:postcode": "60647", "addr:state": "IL", "addr:street": "North California Avenue", "amenity": "restaurant", "cuisine": "korean", "name": "Gosu", "phone": "+1-773-276-7330", "website": "http://www.gosuchicago.com/"}}, {"type": "node", "id": 3552127994, "lat": 41.9273063, "lon": -87.6972986, "tags": {"amenity": "restaurant", "cuisine": "sushi", "name": "Hachi's Kitchen"}}, {"type": "node", "id": 3563902071, "lat": 41.9196387, "lon": -87.691747, "tags": {"amenity": "restaurant", "brand": "Wasabi", "brand:wikidata": "Q23891278", "brand:wikipedia": "en:Wasabi (restaurant)", "cuisine": "japanese", "name": "Wasabi"}}, {"type": "node", "id": 3570243600, "lat": 41.91811, "lon": -87.6978544, "tags": {"amenity": "restaurant", "cuisine": "chinese", "name": "China Fast Wok"}}, {"type": "node", "id": 3572607693, "lat": 41.924661, "lon": -87.6962247, "tags": {"amenity": "restaurant", "cuisine": "argentinian", "name": "El \u00d1and\u00fa"}}, {"type": "node", "id": 3572607694, "lat": 41.924667, "lon": -87.6960476, "tags": {"amenity": "restaurant", "cuisine": "peruvian", "name": "4 Suyos"}}, {"type": "node", "id": 3572612795, "lat": 41.9250721, "lon": -87.6885267, "tags": {"addr:city": "Chicago", "addr:housenumber": "2420", "addr:postcode": "60647", "addr:state": "IL", "addr:street": "West Fullerton Avenue", "amenity": "restaurant", "cuisine": "puerto_rican", "name": "La Cocina Boricua de la Familia Galarza", "phone": "+1-773-235-7377"}}, {"type": "node", "id": 3572612796, "lat": 41.9250781, "lon": -87.6884409, "tags": {"amenity": "restaurant", "cuisine": "chinese", "name": "Blue Willow"}}, {"type": "node", "id": 3572612797, "lat": 41.9250761, "lon": -87.6878723, "tags": {"amenity": "restaurant", "name": "Fullerton Restaurant", "opening_hours": "Mo-Su 05:30-16:00"}}, {"type": "node", "id": 3572965495, "lat": 41.930495, "lon": -87.6884158}, {"type": "node", "id": 3572965496, "lat": 41.9304414, "lon": -87.6884153}, {"type": "node", "id": 3572965497, "lat": 41.9304429, "lon": -87.6880311}, {"type": "node", "id": 3572965498, "lat": 41.9305022, "lon": -87.6880326}, {"type": "node", "id": 3575018318, "lat": 41.9183967, "lon": -87.6970911, "tags": {"addr:city": "Chicago", "addr:housenumber": "2023", "addr:postcode": "60647", "addr:state": "IL", "addr:street": "North California Avenue", "amenity": "cafe", "cuisine": "coffee_shop", "name": "La Strada Cafe Bar", "phone": "+1-708-627-0403", "website": "https://www.lastradacafebar.com/"}}, {"type": "node", "id": 3575036693, "lat": 41.9182746, "lon": -87.6851707, "tags": {"addr:city": "Chicago", "addr:housenumber": "2020", "addr:postcode": "60647", "addr:state": "IL", "addr:street": "North Oakley Avenue", "amenity": "bar", "name": "The Gallery Cabaret", "phone": "+1-773-489-5471", "website": "https://www.gallerycabaret.com/"}}, {"type": "node", "id": 3575150416, "lat": 41.918645, "lon": -87.6872335, "tags": {"addr:city": "Chicago", "addr:housenumber": "2035", "addr:postcode": "60647", "addr:state": "IL", "addr:street": "North Western Avenue", "amenity": "cafe", "cuisine": "coffee_shop", "name": "Ipsento", "phone": "+1-773-904-8177", "website": "http://ipsento.com/"}}, {"type": "node", "id": 3575150418, "lat": 41.9201039, "lon": -87.687727, "tags": {"amenity": "restaurant", "cuisine": "pizza", "name": "John's Pizzeria"}}, {"type": "node", "id": 3575150419, "lat": 41.9227343, "lon": -87.6873596, "tags": {"amenity": "restaurant", "cuisine": "mexican", "name": "Quesadilla la Reyna del Sur"}}, {"type": "node", "id": 3575150420, "lat": 41.9226026, "lon": -87.6877914, "tags": {"amenity": "restaurant", "cuisine": "mexican", "name": "Birrieria Estilo Jalisco"}}, {"type": "node", "id": 3575152789, "lat": 41.9222677, "lon": -87.6877992, "tags": {"addr:city": "Chicago", "addr:housenumber": "2218", "addr:postcode": "60647", "addr:state": "IL", "addr:street": "North Western Avenue", "amenity": "bar", "name": "Tap Room", "phone": "+1-773-489-3622"}}, {"type": "node", "id": 3575496171, "lat": 41.9176357, "lon": -87.6778131, "tags": {"addr:city": "Chicago", "addr:housenumber": "1960", "addr:postcode": "60647", "addr:state": "IL", "addr:street": "North Damen Avenue", "amenity": "restaurant", "cuisine": "japanese", "name": "Izakaya Mita", "phone": "+1-773-799-8677", "website": "http://www.izakayamita.com/"}}, {"type": "node", "id": 3659169362, "lat": 41.9176017, "lon": -87.698441, "tags": {"amenity": "restaurant", "name": "SFR"}}, {"type": "node", "id": 3660929470, "lat": 41.9250279, "lon": -87.687063, "tags": {"addr:city": "Chicago", "addr:housenumber": "2346", "addr:postcode": "60647", "addr:state": "IL", "addr:street": "West Fullerton Avenue", "amenity": "restaurant", "name": "Estrella Negra", "phone": "+1-773-227-5993", "website": "http://estrellanegra.com/"}}, {"type": "node", "id": 3660929473, "lat": 41.9257822, "lon": -87.6874761, "tags": {"amenity": "restaurant", "name": "Sonny's Pizza"}}, {"type": "node", "id": 3863354241, "lat": 41.9322534, "lon": -87.6925875, "tags": {"amenity": "restaurant", "name": "Ceviche Peruvian Restaurant"}}, {"type": "node", "id": 3863354248, "lat": 41.9320502, "lon": -87.6886082, "tags": {"amenity": "restaurant", "name": "Lee's Chop Suey"}}, {"type": "node", "id": 3863354249, "lat": 41.931905, "lon": -87.6876711, "tags": {"addr:city": "Chicago", "addr:housenumber": "2753", "addr:postcode": "60618", "addr:state": "IL", "addr:street": "North Western Avenue", "amenity": "cafe", "name": "CornerStone Cafe", "phone": "+1-773-235-1155", "website": "http://chicagocornerstonecafe.com/"}}, {"type": "node", "id": 3863402374, "lat": 41.9310911, "lon": -87.6850726, "tags": {"amenity": "restaurant", "brand": "Pei Wei", "brand:wikidata": "Q7160898", "brand:wikipedia": "en:Pei Wei Asian Diner", "cuisine": "asian", "name": "Pei Wei"}}, {"type": "node", "id": 3863476802, "lat": 41.9215071, "lon": -87.6788359, "tags": {"addr:city": "Chicago", "addr:housenumber": "2026", "addr:postcode": "60647", "addr:state": "IL", "addr:street": "West Webster Avenue", "amenity": "bar", "name": "Burke\u2019s Web Pub", "phone": "+1-773-276-3411"}}, {"type": "node", "id": 3863476803, "lat": 41.9220332, "lon": -87.6828391, "tags": {"addr:city": "Chicago", "addr:housenumber": "2224", "addr:postcode": "60647", "addr:state": "IL", "addr:street": "North Leavitt Street", "amenity": "bar", "name": "The Corner Bar", "website": "http://cornerbarchicago.com/"}}, {"type": "node", "id": 3882461187, "lat": 41.9247152, "lon": -87.6902194, "tags": {"amenity": "restaurant", "cuisine": "sushi", "name": "S@kura"}}, {"type": "node", "id": 3996419870, "lat": 41.917355, "lon": -87.698579, "tags": {"amenity": "restaurant", "cuisine": "pizza", "name": "Ugo's"}}, {"type": "node", "id": 4718913030, "lat": 41.9160583, "lon": -87.6875926, "tags": {"addr:city": "Chicago", "addr:housenumber": "1904", "addr:postcode": "60647", "addr:state": "IL", "addr:street": "North Western Avenue", "amenity": "restaurant", "cuisine": "italian", "name": "Animale", "opening_hours": "Su 12:00-21:00; Mo-Sa 12:00-22:00", "website": "http://www.animalechicago.com/"}}, {"type": "node", "id": 4743569594, "lat": 41.9249893, "lon": -87.6972462, "tags": {"addr:city": "Chicago", "addr:housenumber": "2758", "addr:postcode": "60647", "addr:state": "IL", "addr:street": "West Fullerton Avenue", "amenity": "bar", "name": "Spilt Milk", "phone": "+1-773-413-8440", "website": "https://www.yelp.com/biz/spilt-milk-chicago-5?osq=Bars"}}, {"type": "node", "id": 4886579356, "lat": 41.9207382, "lon": -87.693428, "tags": {"addr:city": "Chicago", "addr:housenumber": "2169", "addr:postcode": "60647", "addr:state": "IL", "addr:street": "North Milwaukee Avenue", "amenity": "restaurant", "name": "Serai", "phone": "+1-872-206-8368", "website": "http://www.seraichicago.com/"}}, {"type": "node", "id": 5171385697, "lat": 41.9209586, "lon": -87.6938554, "tags": {"addr:city": "Chicago", "addr:housenumber": "2211", "addr:postcode": "60647", "addr:state": "IL", "addr:street": "North Milwaukee Avenue", "amenity": "bar", "name": "Navigator Taproom", "phone": "+1-773-687-9135", "smoking": "no", "website": "https://www.navigatortaproom.com/"}}, {"type": "node", "id": 5301228166, "lat": 41.9196328, "lon": -87.6969945, "tags": {"addr:city": "Chicago", "addr:housenumber": "2101", "addr:postcode": "60647", "addr:state": "IL", "addr:street": "North California Avenue", "addr:unit": "Basement", "amenity": "bar", "name": "Golden Teardrops", "operator": "Land & Sea Dept.", "phone": "+1-773-770-3414", "website": "http://goldenteardrops.com/"}}, {"type": "node", "id": 5301228167, "lat": 41.9195959, "lon": -87.6970841, "tags": {"addr:city": "Chicago", "addr:housenumber": "2101", "addr:postcode": "60647", "addr:state": "IL", "addr:street": "North California Avenue", "amenity": "restaurant", "name": "Lonesome Rose", "operator": "Land & Sea Dept.", "phone": "+1-773-770-3414", "website": "http://lonesomerose.com/"}}, {"type": "node", "id": 6258328991, "lat": 41.9169917, "lon": -87.6774345, "tags": {"addr:city": "Chicago", "addr:housenumber": "1935", "addr:postcode": "60647", "addr:state": "IL", "addr:street": "North Damen Avenue", "amenity": "restaurant", "name": "6 Degrees", "phone": "+1-773-904-8812", "website": "https://www.6degreesbucktown.com/"}}, {"type": "node", "id": 6262050399, "lat": 41.9315661, "lon": -87.6921939, "tags": {"addr:city": "Chicago", "addr:housenumber": "2545", "addr:postcode": "60647", "addr:state": "IL", "addr:street": "West Diversey Avenue", "amenity": "restaurant", "cuisine": "american", "name": "Arbor", "phone": "+1-312-866-0795", "website": "http://www.arborprojects.com/"}}, {"type": "node", "id": 6268240223, "lat": 41.9246574, "lon": -87.6930068, "tags": {"addr:city": "Chicago", "addr:housenumber": "2069", "addr:postcode": "60647", "addr:state": "IL", "addr:street": "North Rockwell Street", "amenity": "bar", "name": "Bob Inn", "website": "https://myspace.com/24939439"}}, {"type": "node", "id": 6280739326, "lat": 41.9251527, "lon": -87.6911495, "tags": {"addr:city": "Chicago", "addr:housenumber": "2524", "addr:postcode": "60647", "addr:state": "IL", "addr:street": "West Fullerton Avenue", "amenity": "cafe", "cuisine": "coffee_shop", "name": "Cherubs", "phone": "+1-773-235-8103"}}, {"type": "node", "id": 6282647776, "lat": 41.925444, "lon": -87.6792724, "tags": {"addr:city": "Chicago", "addr:housenumber": "2444", "addr:postcode": "60647", "addr:state": "IL", "addr:street": "North Elston Avenue", "amenity": "cafe", "name": "Chromium", "phone": "+1-773-235-2300", "website": "https://www.midtown.com/chicago"}}, {"type": "node", "id": 6283090050, "lat": 41.9189969, "lon": -87.6773565, "tags": {"addr:city": "Chicago", "addr:housenumber": "2045", "addr:postcode": "60647", "addr:state": "IL", "addr:street": "North Damen Avenue", "amenity": "restaurant", "name": "Coast Sushi Bar", "phone": "+1-773-235-5775", "website": "http://www.coastsushi.net/"}}, {"type": "node", "id": 6283266140, "lat": 41.9222963, "lon": -87.6958529, "tags": {"addr:city": "Chicago", "addr:housenumber": "2261", "addr:postcode": "60647", "addr:state": "IL", "addr:street": "North Milwaukee Avenue", "amenity": "cafe", "name": "Colectivo Coffee", "phone": "+1-773-799-8557", "website": "http://colectivocoffee.com/cafes/logan-square/"}}, {"type": "node", "id": 6284097746, "lat": 41.9194305, "lon": -87.6772409, "tags": {"addr:city": "Chicago", "addr:housenumber": "1951", "addr:postcode": "60647", "addr:state": "IL", "addr:street": "West Dickens Avenue", "amenity": "bar", "name": "Danny\u2019s Tavern", "phone": "+1-773-489-6457"}}, {"type": "node", "id": 6284196705, "lat": 41.9155759, "lon": -87.6876655, "tags": {"addr:city": "Chicago", "addr:housenumber": "1856", "addr:postcode": "60647", "addr:state": "IL", "addr:street": "North Western Avenue", "amenity": "cafe", "cuisine": "coffee_shop", "name": "Dark Matter Coffee - Electric Mud Coffee Bar", "phone": "+1-773-698-6086", "website": "https://www.darkmattercoffee.com/"}}, {"type": "node", "id": 6285013873, "lat": 41.9179598, "lon": -87.6789791, "tags": {"addr:city": "Chicago", "addr:housenumber": "2032", "addr:postcode": "60647", "addr:state": "IL", "addr:street": "West Armitage Avenue", "amenity": "bar", "name": "Ed and Jean\u2019s Tavern", "phone": "+1-773-851-8054", "website": "http://www.edandjeanstavern.com/"}}, {"type": "node", "id": 6291799872, "lat": 41.9179762, "lon": -87.6773811, "tags": {"addr:city": "Chicago", "addr:housenumber": "1954", "addr:postcode": "60622", "addr:state": "IL", "addr:street": "West Armitage Avenue", "amenity": "bar", "name": "Gigi\u2019s Kitchen", "phone": "+1-773-799-8290", "website": "https://www.gigischicago.com/"}}, {"type": "node", "id": 6300575607, "lat": 41.9195848, "lon": -87.6915995, "tags": {"addr:city": "Chicago", "addr:housenumber": "2101", "addr:postcode": "60647", "addr:state": "IL", "addr:street": "North Milwaukee Avenue", "amenity": "restaurant", "name": "Ramen Wasabi", "phone": "+1-773-227-8180", "website": "http://www.wasabichicago.com/"}}, {"type": "node", "id": 6300841827, "lat": 41.9226924, "lon": -87.6878062, "tags": {"addr:city": "Chicago", "addr:housenumber": "2234", "addr:postcode": "60647", "addr:state": "IL", "addr:street": "North Western Avenue", "amenity": "restaurant", "cuisine": "mexican", "name": "Restaurante El Comalito", "phone": "+1-773-666-5558"}}, {"type": "node", "id": 6300965222, "lat": 41.920137, "lon": -87.6779363, "tags": {"addr:city": "Chicago", "addr:housenumber": "2118", "addr:postcode": "60647", "addr:state": "IL", "addr:street": "North Damen Avenue", "amenity": "restaurant", "name": "The Royal Grocer & Co", "phone": "+1-773-904-7805", "website": "http://www.royalgrocer.com/"}}, {"type": "node", "id": 6303047086, "lat": 41.9176924, "lon": -87.695898, "tags": {"addr:city": "Chicago", "addr:housenumber": "2728", "addr:postcode": "60647", "addr:state": "IL", "addr:street": "West Armitage Avenue", "amenity": "restaurant", "name": "Table, Donkey and Stick", "phone": "+1-773-486-8525", "website": "http://tabledonkeystick.com/"}}, {"type": "node", "id": 6305261850, "lat": 41.9178287, "lon": -87.6843751, "tags": {"addr:city": "Chicago", "addr:housenumber": "2246", "addr:postcode": "60647", "addr:state": "IL", "addr:street": "West Armitage Avenue", "amenity": "restaurant", "name": "The Bento Box", "phone": "+1-773-278-3932"}}, {"type": "node", "id": 6306494893, "lat": 41.9210516, "lon": -87.6779871, "tags": {"addr:city": "Chicago", "addr:housenumber": "2152", "addr:postcode": "60647", "addr:state": "IL", "addr:street": "North Damen Avenue", "amenity": "restaurant", "name": "The Bristol", "phone": "+1-773-862-5555", "website": "http://www.thebristolchicago.com/"}}, {"type": "node", "id": 6306837969, "lat": 41.9185363, "lon": -87.6905608, "tags": {"addr:city": "Chicago", "addr:housenumber": "2050", "addr:postcode": "60647", "addr:state": "IL", "addr:street": "North Milwaukee Avenue", "amenity": "restaurant", "name": "Turbo Tacos", "phone": "+1-773-360-8892"}}, {"type": "node", "id": 6315663847, "lat": 41.917591, "lon": -87.6798155, "tags": {"addr:city": "Chicago", "addr:housenumber": "1949", "addr:postcode": "60647", "addr:state": "IL", "addr:street": "North Hoyne Avenue", "amenity": "bar", "name": "The Map Room", "phone": "+1-773-252-7636", "website": "http://www.maproom.com/"}}, {"type": "node", "id": 6319024840, "lat": 41.9161269, "lon": -87.6778008, "tags": {"addr:city": "Chicago", "addr:housenumber": "1880", "addr:postcode": "60647", "addr:state": "IL", "addr:street": "North Damen Avenue", "amenity": "restaurant", "name": "JuiceRx", "phone": "+1-312-252-4938", "website": "https://drinkjuicerx.com/"}}, {"type": "node", "id": 6319221993, "lat": 41.9173465, "lon": -87.6965099, "tags": {"addr:city": "Chicago", "addr:housenumber": "2745", "addr:postcode": "60647", "addr:state": "IL", "addr:street": "West Armitage Avenue", "amenity": "cafe", "name": "Katherine Anne Confections", "phone": "+1-773-245-1630", "website": "http://www.katherine-anne.com/"}}, {"type": "node", "id": 6320623852, "lat": 41.9157481, "lon": -87.6761961, "tags": {"addr:city": "Chicago", "addr:housenumber": "1925", "addr:postcode": "60647", "addr:state": "IL", "addr:street": "West Cortland Street", "amenity": "bar", "name": "Lottie\u2019s Pub", "phone": "+1-773-489-0738", "website": "http://www.lottiespub.com/"}}, {"type": "node", "id": 6321460385, "lat": 41.9308446, "lon": -87.6911398, "tags": {"addr:city": "Chicago", "addr:housenumber": "2717", "addr:postcode": "60647", "addr:state": "IL", "addr:street": "North Maplewood Avenue", "amenity": "bar", "name": "Maplewood Brewery & Distillery", "phone": "+1-773-270-1061", "website": "http://www.maplewoodbrew.com/"}}, {"type": "node", "id": 6322602685, "lat": 41.9289091, "lon": -87.6977086, "tags": {"addr:city": "Chicago", "addr:housenumber": "2800", "addr:postcode": "60647", "addr:state": "IL", "addr:street": "West Logan Boulevard", "amenity": "restaurant", "cuisine": "mexican", "name": "Mi Tocaya Antojer\u00eda", "opening_hours": "Tu-Th 17:00-22:00; Fr-Sa 17:00-23:00; Su 17:00-21:00", "phone": "+1-872-315-3947", "website": "http://www.mitocaya.com"}}, {"type": "node", "id": 6323737136, "lat": 41.9189197, "lon": -87.6877538, "tags": {"addr:city": "Chicago", "addr:housenumber": "2044", "addr:postcode": "60647", "addr:state": "IL", "addr:street": "North Western Avenue", "amenity": "bar", "name": "O\u2019s Tap", "phone": "+1-773-850-5451"}}, {"type": "node", "id": 6324263888, "lat": 41.9231811, "lon": -87.6879259, "tags": {"addr:city": "Chicago", "addr:housenumber": "2252", "addr:postcode": "60647", "addr:state": "IL", "addr:street": "North Western Avenue", "amenity": "restaurant", "cuisine": "cuban", "name": "Paladar", "phone": "+1-773-252-4747", "website": "http://paladarchicago.com/"}}, {"type": "node", "id": 6324382907, "lat": 41.9276471, "lon": -87.6977733, "tags": {"addr:city": "Chicago", "addr:housenumber": "2532", "addr:postcode": "60647", "addr:state": "IL", "addr:street": "North California Avenue", "amenity": "restaurant", "name": "Landbirds", "phone": "+1-773-697-7107", "website": "http://www.landbirdschicago.com/"}}, {"type": "node", "id": 6324384805, "lat": 41.9160456, "lon": -87.6876461, "tags": {"addr:city": "Chicago", "addr:housenumber": "1904", "addr:postcode": "60647", "addr:state": "IL", "addr:street": "North Western Avenue", "amenity": "restaurant", "name": "Langhe Market", "phone": "+1-872-315-3912", "website": "http://langhemarket.com/"}}, {"type": "node", "id": 7182570708, "lat": 41.9325338, "lon": -87.6789663, "tags": {"addr:city": "Chicago", "addr:housenumber": "2000", "addr:postcode": "60614", "addr:state": "IL", "addr:street": "West Diversey Parkway", "amenity": "cafe", "name": "Hexe Coffee Co.", "website": "https://www.hexecoffee.com"}}, {"type": "node", "id": 7185921676, "lat": 41.9174218, "lon": -87.6879726, "tags": {"addr:city": "Chicago", "addr:housenumber": "1965", "addr:postcode": "60647", "addr:state": "IL", "addr:street": "North Milwaukee Avenue", "amenity": "cafe", "name": "Chicago Board Game Cafe", "phone": "+1-(224) 208-5346", "website": "https://www.chicagogamecafe.com"}}, {"type": "way", "id": 209403314, "nodes": [2196191472, 2196191866, 2196192241, 2196192520, 2196192517, 2196192238, 2196191717, 2196191472], "tags": {"addr:housenumber": "1865", "addr:street": "North Milwaukee Avenue", "addr:street:name": "Milwaukee", "addr:street:prefix": "North", "addr:street:type": "Avenue", "amenity": "restaurant", "building": "yes", "building:levels": "1", "chicago:building_id": "291593", "cuisine": "costa_rican", "description": "Costa Rican restaurant, BYOB", "name": "Irazu", "opening_hours": "Mo-Sa 11:30-21:30", "phone": "+1 773-252-5687", "website": "http://www.irazuchicago.com/phone/index.html"}}, {"type": "way", "id": 209403393, "nodes": [2196193451, 2196193545, 2196193552, 2196194760, 2196194592, 2196193268, 2196193451], "tags": {"addr:city": "Chicago", "addr:housenumber": "1910", "addr:postcode": "60647", "addr:state": "IL", "addr:street": "North Milwaukee Avenue", "addr:street:name": "Milwaukee", "addr:street:prefix": "North", "addr:street:type": "Avenue", "amenity": "bar", "building": "yes", "building:levels": "2", "chicago:building_id": "843412", "name": "Remedy", "phone": "+1-773-698-7715", "website": "http://remedybarchicago.com/"}}, {"type": "way", "id": 209403724, "nodes": [2196202841, 2196202858, 2196202730, 2196202720, 2196202841], "tags": {"addr:housenumber": "2001", "addr:street": "North Western Avenue", "addr:street:name": "Western", "addr:street:prefix": "North", "addr:street:type": "Avenue", "amenity": "restaurant", "building": "yes", "building:levels": "1", "chicago:building_id": "831855", "cuisine": "mexican", "name": "Arturo's Tacos"}}, {"type": "way", "id": 209403727, "nodes": [2196203152, 2196203213, 2196202858, 2196202841, 2196203152], "tags": {"addr:housenumber": "2003", "addr:street": "North Western Avenue", "addr:street:name": "Western", "addr:street:prefix": "North", "addr:street:type": "Avenue", "amenity": "restaurant", "building": "yes", "building:levels": "1", "chicago:building_id": "831857", "cuisine": "mexican", "name": "Lazo's"}}, {"type": "way", "id": 209403858, "nodes": [2196206485, 2196206652, 2196206656, 2196206495, 2196206485], "tags": {"addr:housenumber": "2041", "addr:postcode": "60647", "addr:street": "North Western Avenue", "addr:street:name": "Western", "addr:street:prefix": "North", "addr:street:type": "Avenue", "amenity": "restaurant", "building": "yes", "building:levels": "2", "chicago:building_id": "282784", "cuisine": "chicken", "name": "The Art of Chicken"}}, {"type": "way", "id": 209404000, "nodes": [2196211921, 2196212294, 2196212302, 2196211927, 2196211921], "tags": {"addr:housenumber": "2072-2076", "addr:street": "North Western Avenue", "addr:street:name": "Western", "addr:street:prefix": "North", "addr:street:type": "Avenue", "amenity": "restaurant", "building": "yes", "building:levels": "1", "chicago:building_id": "279088", "cuisine": "Hot_dog,Polish sausage,Fried shrimp", "name": "Red Hot Ranch", "note": "Cash only.  There is an atm outside."}}, {"type": "way", "id": 209404317, "nodes": [2196212544, 2196212651, 2196213756, 2196213642, 2196212544], "tags": {"addr:housenumber": "2148", "addr:street": "North Milwaukee Avenue", "addr:street:name": "Milwaukee", "addr:street:prefix": "North", "addr:street:type": "Avenue", "amenity": "restaurant", "building": "yes", "building:levels": "1", "chicago:building_id": "278149", "cuisine": "mexican", "name": "Taqueria Los Comales #11"}}, {"type": "way", "id": 209404898, "nodes": [2196219001, 2196219243, 2196219376, 2196219263, 2196219430, 2196219836, 2196219791, 2196219846, 2196219524, 2196219109, 2196219159, 2196219001], "tags": {"addr:housenumber": "2246", "addr:street": "North Milwaukee Avenue", "addr:street:name": "Milwaukee", "addr:street:prefix": "North", "addr:street:type": "Avenue", "amenity": "restaurant", "building": "yes", "building:levels": "1", "chicago:building_id": "273261", "cuisine": "american", "name": "Victory Grill", "takeaway": "only"}}, {"type": "way", "id": 209404946, "nodes": [2196223815, 2196224182, 2196224360, 2196224337, 2196224793, 2196224379, 2196223815], "tags": {"addr:city": "Chicago", "addr:housenumber": "2294", "addr:postcode": "60647", "addr:state": "IL", "addr:street": "North Milwaukee Avenue", "addr:street:name": "Milwaukee", "addr:street:prefix": "North", "addr:street:type": "Avenue", "amenity": "restaurant", "building": "retail", "building:levels": "1", "chicago:building_id": "270777", "name": "Cozy Corner Diner", "phone": "+1-773-276-2215", "website": "http://www.cozycornerrestaurant.com/cozy-corner-logan-square/"}}, {"type": "way", "id": 209405301, "nodes": [2196231356, 2196231359, 2196231402, 2196231405, 2196231378, 2196231368, 2196231387, 2196231382, 2196231455, 2196231485, 2196231640, 2196231710, 2196231762, 2196231771, 2196231531, 2196231530, 2196231381, 2196231383, 2196231356], "tags": {"addr:housenumber": "2331", "addr:street": "North California Avenue", "addr:street:name": "California", "addr:street:prefix": "North", "addr:street:type": "Avenue", "amenity": "restaurant", "building": "yes", "building:levels": "3", "chicago:building_id": "267027", "cuisine": "mexican", "name": "Don Chema"}}, {"type": "way", "id": 209405949, "nodes": [2196202677, 2665801433, 2665801438, 2196202979, 2196202980, 2196202907, 2196202906, 2196202833, 2196202683, 2196202677], "tags": {"addr:city": "Chicago", "addr:housenumber": "2540", "addr:postcode": "60647", "addr:state": "IL", "addr:street": "West Armitage Avenue", "addr:street:name": "Armitage", "addr:street:prefix": "West", "addr:street:type": "Avenue", "amenity": "restaurant", "building": "yes", "building:levels": "1", "chicago:building_id": "286278", "cuisine": "Hispanic,_Cuban", "name": "90 Miles Cuban Cafe", "phone": "+1-773-227-2822", "website": "https://www.90milescubancafe.com/"}}, {"type": "way", "id": 209454070, "nodes": [2196700902, 2196701484, 2196701487, 2196702206, 2196702217, 2196700904, 2196700902], "tags": {"addr:housenumber": "2410", "addr:street": "West Fullerton Avenue", "addr:street:name": "Fullerton", "addr:street:prefix": "West", "addr:street:type": "Avenue", "amenity": "bar", "building": "yes", "building:levels": "2", "chicago:building_id": "262840", "name": "Logan Arcade"}}, {"type": "way", "id": 209454109, "nodes": [2196726093, 2196726258, 2196726256, 2196726343, 2196726355, 2196726113, 2196726093], "tags": {"addr:city": "Chicago", "addr:housenumber": "2416-2422", "addr:postcode": "60647", "addr:state": "IL", "addr:street": "West Schubert Avenue", "addr:street:name": "Schubert", "addr:street:prefix": "West", "addr:street:type": "Avenue", "amenity": "restaurant", "building": "yes", "building:levels": "1", "chicago:building_id": "246789", "cuisine": "barbecue", "name": "Fat Willy\u2019s Rib Shack", "phone": "+1-773-782-1800", "website": "https://www.fatwillys.com/"}}, {"type": "way", "id": 209454230, "nodes": [2196706116, 2196706393, 2196706420, 2196706176, 2196706116], "tags": {"addr:housenumber": "2428", "addr:street": "North Western Avenue", "addr:street:name": "Western", "addr:street:prefix": "North", "addr:street:type": "Avenue", "amenity": "bar", "building": "yes", "building:levels": "1", "chicago:building_id": "261401", "name": "The Mutiny"}}, {"type": "way", "id": 209455856, "nodes": [2196735080, 2196735239, 2196735242, 2196735382, 2196735386, 2196735356, 2196735246, 2196735244, 2196735084, 2196735080], "tags": {"addr:city": "Chicago", "addr:housenumber": "2406", "addr:postcode": "60618", "addr:state": "IL", "addr:street": "West Diversey Parkway", "addr:street:name": "Western", "addr:street:prefix": "North", "addr:street:type": "Avenue", "amenity": "restaurant", "building": "yes", "building:levels": "1", "chicago:building_id": "240885", "cuisine": "breakfast;american", "name": "Golden Nugget"}}, {"type": "way", "id": 209455931, "nodes": [2196734852, 2196735073, 2196735074, 2196735349, 2196735348, 2196735588, 2196735590, 2196734859, 2196734852], "tags": {"addr:city": "Chicago", "addr:housenumber": "2818", "addr:street": "West Diversey Avenue", "addr:street:name": "Diversey", "addr:street:prefix": "West", "addr:street:type": "Avenue", "amenity": "restaurant", "brand": "IHOP", "brand:wikidata": "Q1185675", "brand:wikipedia": "en:IHOP", "building": "yes", "building:levels": "1", "chicago:building_id": "240772", "cuisine": "breakfast;pancake", "delivery": "no", "name": "IHOP"}}, {"type": "way", "id": 209867804, "nodes": [2200230349, 2200231880, 2200232041, 2200232050, 2200230367, 2200230349], "tags": {"addr:city": "Chicago", "addr:housenumber": "1925", "addr:postcode": "60647", "addr:state": "IL", "addr:street": "West Cortland Street", "addr:street:name": "Cortland", "addr:street:prefix": "West", "addr:street:type": "Street", "amenity": "bar", "building": "yes", "building:levels": "1", "chicago:building_id": "290841", "name": "Lottie's Pub", "phone": "+1-773-489-0738", "website": "http://www.lottiespub.com/"}}, {"type": "way", "id": 209868352, "nodes": [2200242724, 2200242950, 2200243001, 2200242734, 2200242724], "tags": {"addr:city": "Chicago", "addr:housenumber": "2020", "addr:postcode": "60647", "addr:state": "IL", "addr:street": "North Leavitt Street", "addr:street:name": "Leavitt", "addr:street:prefix": "North", "addr:street:type": "Street", "amenity": "cafe", "building": "yes", "building:levels": "2", "chicago:building_id": "284167", "name": "Red June", "phone": "+1-773-227-2600", "website": "http://www.redjunecafe.com/"}}, {"type": "way", "id": 351505403, "nodes": [3572965495, 3572965496, 3572965497, 3572965498, 3572965495], "tags": {"addr:city": "Chicago", "addr:housenumber": "2700", "addr:postcode": "60647", "addr:state": "IL", "addr:street": "North Western Avenue", "amenity": "restaurant", "building": "yes", "cuisine": "british", "name": "Owen & Engine", "phone": "+1-773-235-2930", "website": "https://www.owenandengine.com"}}]}