{"version": 0.6, "generator": "Overpass API 0.7.56.3 eb200aeb", "osm3s": {"timestamp_osm_base": "2020-07-04T02:46:02Z", "copyright": "The data included in this document is from www.openstreetmap.org. The data is made available under ODbL."}, "elements": [{"type": "node", "id": 258025450, "lat": 41.9049662, "lon": -87.6699526}, {"type": "node", "id": 258281900, "lat": 41.875617, "lon": -87.6352309}, {"type": "node", "id": 258281901, "lat": 41.8756042, "lon": -87.6338748}, {"type": "node", "id": 258281903, "lat": 41.8756843, "lon": -87.6293729}, {"type": "node", "id": 258281905, "lat": 41.8857251, "lon": -87.639345}, {"type": "node", "id": 258281906, "lat": 41.8858639, "lon": -87.6400177}, {"type": "node", "id": 258281907, "lat": 41.8891083, "lon": -87.6443761}, {"type": "node", "id": 258281909, "lat": 41.8951173, "lon": -87.6535892}, {"type": "node", "id": 258957340, "lat": 41.8857351, "lon": -87.6325676, "tags": {"highway": "traffic_signals", "traffic_signals": "traffic_lights"}}, {"type": "node", "id": 258957456, "lat": 41.8756298, "lon": -87.6295729}, {"type": "node", "id": 258957458, "lat": 41.8854881, "lon": -87.629509}, {"type": "node", "id": 258957459, "lat": 41.8857187, "lon": -87.6297177}, {"type": "node", "id": 365489153, "lat": 41.90293, "lon": -87.6658404}, {"type": "node", "id": 365489154, "lat": 41.9039122, "lon": -87.667895}, {"type": "node", "id": 365489352, "lat": 41.886817, "lon": -87.6413207}, {"type": "node", "id": 706968780, "lat": 41.8757896, "lon": -87.6292725}, {"type": "node", "id": 706968781, "lat": 41.8759374, "lon": -87.6292188}, {"type": "node", "id": 706968782, "lat": 41.8856587, "lon": -87.6296051}, {"type": "node", "id": 706968784, "lat": 41.8857465, "lon": -87.6298791}, {"type": "node", "id": 707905319, "lat": 41.8857571, "lon": -87.6397709}, {"type": "node", "id": 707905321, "lat": 41.885797, "lon": -87.639889}, {"type": "node", "id": 707905651, "lat": 41.887937, "lon": -87.6428142}, {"type": "node", "id": 736035819, "lat": 41.9032414, "lon": -87.6664345}, {"type": "node", "id": 736035820, "lat": 41.9035623, "lon": -87.6671796, "tags": {"name": "Division", "network": "CTA", "operator": "Chicago Transit Authority", "public_transport": "stop_position", "railway": "stop", "subway": "yes"}}, {"type": "node", "id": 736035821, "lat": 41.9045719, "lon": -87.669287}, {"type": "node", "id": 736035822, "lat": 41.9047543, "lon": -87.6696185}, {"type": "node", "id": 736637716, "lat": 41.8857336, "lon": -87.6334344}, {"type": "node", "id": 873051690, "lat": 41.8780334, "lon": -87.6292842}, {"type": "node", "id": 1606917431, "lat": 41.885582, "lon": -87.6295459}, {"type": "node", "id": 1613640656, "lat": 41.8758517, "lon": -87.6292335}, {"type": "node", "id": 1613640678, "lat": 41.8757327, "lon": -87.6293131}, {"type": "node", "id": 1613640702, "lat": 41.8756495, "lon": -87.6294707}, {"type": "node", "id": 2200109452, "lat": 41.9010733, "lon": -87.6636682}, {"type": "node", "id": 2200109752, "lat": 41.9011176, "lon": -87.6637375}, {"type": "node", "id": 2200111013, "lat": 41.9012804, "lon": -87.6634272}, {"type": "node", "id": 2200111113, "lat": 41.9013247, "lon": -87.6634966}, {"type": "node", "id": 2203578493, "lat": 41.8868516, "lon": -87.6520574}, {"type": "node", "id": 2203578494, "lat": 41.8868556, "lon": -87.6516901}, {"type": "node", "id": 2203578606, "lat": 41.8870717, "lon": -87.6516943}, {"type": "node", "id": 2203578659, "lat": 41.8871136, "lon": -87.6520583}, {"type": "node", "id": 2203578661, "lat": 41.8871156, "lon": -87.6516966}, {"type": "node", "id": 2203580582, "lat": 41.8900939, "lon": -87.6578717}, {"type": "node", "id": 2203580583, "lat": 41.8900957, "lon": -87.6574769}, {"type": "node", "id": 2203580648, "lat": 41.8901189, "lon": -87.6551243}, {"type": "node", "id": 2203580662, "lat": 41.8901248, "lon": -87.6547276}, {"type": "node", "id": 2203580748, "lat": 41.8901667, "lon": -87.6578728}, {"type": "node", "id": 2203580750, "lat": 41.8901685, "lon": -87.6574779}, {"type": "node", "id": 2203580768, "lat": 41.8901779, "lon": -87.6551273}, {"type": "node", "id": 2203580772, "lat": 41.8901838, "lon": -87.6547288}, {"type": "node", "id": 2203583448, "lat": 41.8907222, "lon": -87.6599457}, {"type": "node", "id": 2203583453, "lat": 41.890723, "lon": -87.6598557}, {"type": "node", "id": 2203583502, "lat": 41.8907441, "lon": -87.6599454}, {"type": "node", "id": 2203583549, "lat": 41.8908013, "lon": -87.6598567}, {"type": "node", "id": 2203583552, "lat": 41.8908096, "lon": -87.6598731}, {"type": "node", "id": 2203583587, "lat": 41.8908631, "lon": -87.6598726}, {"type": "node", "id": 2203583591, "lat": 41.8908712, "lon": -87.6598596}, {"type": "node", "id": 2203583715, "lat": 41.8909404, "lon": -87.6599489}, {"type": "node", "id": 2203583724, "lat": 41.8909426, "lon": -87.6598607}, {"type": "node", "id": 2389087619, "lat": 41.9031904, "lon": -87.6664792}, {"type": "node", "id": 2389087620, "lat": 41.8890637, "lon": -87.644432}, {"type": "node", "id": 2389087622, "lat": 41.8950465, "lon": -87.6536404}, {"type": "node", "id": 2389087623, "lat": 41.8856856, "lon": -87.6298882}, {"type": "node", "id": 2389087624, "lat": 41.875672, "lon": -87.6316469, "tags": {"name": "LaSalle", "network": "CTA", "operator": "Chicago Transit Authority", "public_transport": "stop_position", "railway": "stop", "subway": "yes"}}, {"type": "node", "id": 2389087625, "lat": 41.878032, "lon": -87.629366}, {"type": "node", "id": 2389087626, "lat": 41.8756651, "lon": -87.6338745}, {"type": "node", "id": 2389087627, "lat": 41.8757682, "lon": -87.6293804}, {"type": "node", "id": 2389087628, "lat": 41.8807251, "lon": -87.6294424, "tags": {"name": "Monroe", "network": "CTA", "operator": "Chicago Transit Authority", "public_transport": "stop_position", "railway": "stop", "subway": "yes"}}, {"type": "node", "id": 2389087629, "lat": 41.875707, "lon": -87.6294988}, {"type": "node", "id": 2389087631, "lat": 41.8856169, "lon": -87.6296672}, {"type": "node", "id": 2389087632, "lat": 41.8756779, "lon": -87.6352309}, {"type": "node", "id": 2389087633, "lat": 41.8758168, "lon": -87.6293457}, {"type": "node", "id": 2389087635, "lat": 41.8856642, "lon": -87.639349}, {"type": "node", "id": 2389087636, "lat": 41.8758689, "lon": -87.629313}, {"type": "node", "id": 2389087637, "lat": 41.878173, "lon": -87.6293704, "tags": {"name": "Jackson", "network": "CTA", "operator": "Chicago Transit Authority", "public_transport": "stop_position", "railway": "stop", "subway": "yes"}}, {"type": "node", "id": 2389087638, "lat": 41.9028819, "lon": -87.6658907}, {"type": "node", "id": 2389087639, "lat": 41.8757342, "lon": -87.6294224}, {"type": "node", "id": 2389087640, "lat": 41.8911449, "lon": -87.6476749, "tags": {"name": "Grand", "network": "CTA", "operator": "Chicago Transit Authority", "public_transport": "stop_position", "railway": "stop", "subway": "yes"}}, {"type": "node", "id": 2389087641, "lat": 41.9045209, "lon": -87.6693317}, {"type": "node", "id": 2389087642, "lat": 41.8857439, "lon": -87.6399297}, {"type": "node", "id": 2389087643, "lat": 41.8856621, "lon": -87.629752}, {"type": "node", "id": 2389087644, "lat": 41.8856727, "lon": -87.6334341}, {"type": "node", "id": 2389087645, "lat": 41.8961627, "lon": -87.6553624, "tags": {"name": "Chicago", "network": "CTA", "operator": "Chicago Transit Authority", "public_transport": "stop_position", "railway": "stop", "subway": "yes"}}, {"type": "node", "id": 2389087646, "lat": 41.8899783, "lon": -87.6458537}, {"type": "node", "id": 2389087647, "lat": 41.9038608, "lon": -87.6679388}, {"type": "node", "id": 2389087648, "lat": 41.8856975, "lon": -87.6397925}, {"type": "node", "id": 2389087649, "lat": 41.8832093, "lon": -87.6294884, "tags": {"name": "Washington", "network": "CTA", "operator": "Chicago Transit Authority", "public_transport": "stop_position", "railway": "stop", "subway": "yes"}}, {"type": "node", "id": 2389087650, "lat": 41.8759406, "lon": -87.6293007}, {"type": "node", "id": 2389087651, "lat": 41.8855579, "lon": -87.6296217}, {"type": "node", "id": 2389087652, "lat": 41.8858169, "lon": -87.6400702}, {"type": "node", "id": 2389087653, "lat": 41.903519, "lon": -87.6672111, "tags": {"name": "Division", "network": "CTA", "operator": "Chicago Transit Authority", "public_transport": "stop_position", "railway": "stop", "subway": "yes"}}, {"type": "node", "id": 2389087654, "lat": 41.9049233, "lon": -87.6699939}, {"type": "node", "id": 2389087657, "lat": 41.8756906, "lon": -87.6295838}, {"type": "node", "id": 2389087658, "lat": 41.8787534, "lon": -87.6293804}, {"type": "node", "id": 2389087659, "lat": 41.8867738, "lon": -87.6413784}, {"type": "node", "id": 2389087660, "lat": 41.8854784, "lon": -87.6295904}, {"type": "node", "id": 2389087661, "lat": 41.9047049, "lon": -87.6696667}, {"type": "node", "id": 3188221400, "lat": 41.8755967, "lon": -87.6375939}, {"type": "node", "id": 3188221401, "lat": 41.8756575, "lon": -87.6376008}, {"type": "node", "id": 3575084293, "lat": 41.8970869, "lon": -87.6650571, "tags": {"addr:city": "Chicago", "addr:housenumber": "832", "addr:postcode": "60622", "addr:state": "IL", "addr:street": "North Greenview Avenue", "amenity": "bar", "name": "The Chipp Inn", "outdoor_seating": "no", "phone": "+1-312-421-9052"}}, {"type": "node", "id": 3575084295, "lat": 41.8962923, "lon": -87.663429, "tags": {"addr:city": "Chicago", "addr:housenumber": "1424", "addr:postcode": "60622", "addr:state": "IL", "addr:street": "West Chicago Avenue", "amenity": "pub", "email": "info@fivestarbar.com", "name": "Five Star Bar", "outdoor_seating": "yes", "phone": "+1-312-850-2555", "website": "http://www.fivestarbar.com/"}}, {"type": "node", "id": 3575084296, "lat": 41.8963372, "lon": -87.6629342, "tags": {"addr:city": "Chicago", "addr:housenumber": "1412", "addr:postcode": "60622", "addr:state": "IL", "addr:street": "West Chicago Avenue", "amenity": "bar", "name": "Lush Wine & Spirits", "phone": "+1-312-666-6900", "website": "http://www.luswineandspirits.com/"}}, {"type": "node", "id": 3575084297, "lat": 41.8962244, "lon": -87.6668569, "tags": {"amenity": "restaurant", "cuisine": "thai", "name": "Manee Thai"}}, {"type": "node", "id": 3618178425, "lat": 41.8961397, "lon": -87.6554969, "tags": {"addr:city": "Chicago", "addr:housenumber": "1105", "addr:postcode": "60622", "addr:state": "IL", "addr:street": "West Chicago Avenue", "amenity": "cafe", "name": "Big Shoulders Coffee", "opening_hours": "Mo-Fr 06:00-19:00; Sa-Su 07:30-17:00"}}, {"type": "node", "id": 3654893252, "lat": 41.8905455, "lon": -87.6477288, "tags": {"amenity": "pub"}}, {"type": "node", "id": 4567406790, "lat": 41.8962701, "lon": -87.6482164, "tags": {"addr:city": "Chicago", "addr:housenumber": "811", "addr:postcode": "60642", "addr:state": "IL", "addr:street": "West Chicago Avenue", "amenity": "cafe", "name": "Cafe Blue", "phone": "+1-312-763-2870", "website": "http://www.cafe.blue/"}}, {"type": "node", "id": 4697798553, "lat": 41.894242, "lon": -87.659813, "tags": {"addr:city": "Chicago", "addr:housenumber": "1303", "addr:postcode": "60642", "addr:state": "IL", "addr:street": "West Huron Street", "amenity": "restaurant", "cuisine": "mexican", "name": "Taqueria El Jardin", "opening_hours": "09:00-19:30", "outdoor_seating": "no", "smoking": "no", "takeaway": "yes"}}, {"type": "node", "id": 4731260221, "lat": 41.8869199, "lon": -87.652526, "tags": {"addr:city": "Chicago", "addr:housenumber": "1000", "addr:postcode": "60607", "addr:state": "IL", "addr:street": "West Fulton Market", "amenity": "restaurant", "cuisine": "seafood;sandwiches", "name": "Cold Storage", "name:en": "Cold Storage", "opening_hours": "Mo-Th 11:00-23:00; Sa 16:30-00:00; Su 16:30-22:30", "phone": "+1-312-638-6280", "website": "https://www.coldstoragechicago.com/"}}, {"type": "node", "id": 4888074922, "lat": 41.8891109, "lon": -87.6520123, "tags": {"addr:city": "Chicago", "addr:housenumber": "401", "addr:postcode": "60607", "addr:state": "IL", "addr:street": "North Morgan Street", "amenity": "restaurant", "delivery": "no", "description": "The Brass Monkey is a private event venue.", "name": "The Brass Monkey", "outdoor_seating": "no", "phone": "+1-312-763-3316", "takeaway": "no"}}, {"type": "node", "id": 5028745128, "lat": 41.8959528, "lon": -87.6660177, "tags": {"addr:postcode": "60622", "amenity": "restaurant", "cuisine": "mexican;french", "name": "Mexique", "phone": "(312)850-0288"}}, {"type": "node", "id": 5272952064, "lat": 41.891221, "lon": -87.6476367, "tags": {"name": "Grand", "network": "CTA", "operator": "Chicago Transit Authority", "public_transport": "stop_position", "railway": "stop", "subway": "yes"}}, {"type": "node", "id": 5272952065, "lat": 41.8856844, "lon": -87.6312903, "tags": {"name": "Clark/Lake", "network": "CTA", "operator": "Chicago Transit Authority", "public_transport": "stop_position", "railway": "stop", "subway": "yes"}}, {"type": "node", "id": 5272952066, "lat": 41.8857373, "lon": -87.6312876, "tags": {"name": "Clark/Lake", "network": "CTA", "operator": "Chicago Transit Authority", "public_transport": "stop_position", "railway": "stop", "subway": "yes"}}, {"type": "node", "id": 5272952067, "lat": 41.883209, "lon": -87.6294539, "tags": {"name": "Washington", "network": "CTA", "operator": "Chicago Transit Authority", "public_transport": "stop_position", "railway": "stop", "subway": "yes"}}, {"type": "node", "id": 5272957251, "lat": 41.8962122, "lon": -87.6553004, "tags": {"name": "Chicago", "network": "CTA", "operator": "Chicago Transit Authority", "public_transport": "stop_position", "railway": "stop", "subway": "yes"}}, {"type": "node", "id": 5272959956, "lat": 41.8781723, "lon": -87.6292891, "tags": {"name": "Jackson", "network": "CTA", "operator": "Chicago Transit Authority", "public_transport": "stop_position", "railway": "stop", "subway": "yes"}}, {"type": "node", "id": 5272959957, "lat": 41.8807275, "lon": -87.62938, "tags": {"name": "Monroe", "network": "CTA", "operator": "Chicago Transit Authority", "public_transport": "stop_position", "railway": "stop", "subway": "yes"}}, {"type": "node", "id": 5272963174, "lat": 41.8756111, "lon": -87.6316453, "tags": {"name": "LaSalle", "network": "CTA", "operator": "Chicago Transit Authority", "public_transport": "stop_position", "railway": "stop", "subway": "yes"}}, {"type": "node", "id": 5299997866, "lat": 41.896462, "lon": -87.6550805, "tags": {"addr:city": "Chicago", "addr:housenumber": "1062", "addr:postcode": "60642", "addr:state": "IL", "addr:street": "West Chicago Avenue", "amenity": "restaurant", "name": "Windy City Cafe", "phone": "+1-312-492-8010", "website": "https://windycity-cafe.com/"}}, {"type": "node", "id": 5398863224, "lat": 41.8913731, "lon": -87.648171, "tags": {"addr:city": "Chicago", "addr:housenumber": "506", "addr:postcode": "60642", "addr:state": "IL", "addr:street": "North Milwaukee Avenue", "amenity": "cafe", "cuisine": "coffee_shop", "name": "Starbucks"}}, {"type": "node", "id": 5441371907, "lat": 41.8872097, "lon": -87.650725, "tags": {"addr:city": "Chicago", "addr:housenumber": "311", "addr:postcode": "60607", "addr:state": "IL", "addr:street": "North Sangamon Street", "amenity": "restaurant", "cuisine": "american;drinks", "name": "Fulton Market Kitchen", "opening_hours": "Tu-Fr 17:00-02:00; Sa 17:00-03:00", "phone": "+1-312-733-6900", "website": "https://www.fultonmarketkitchen.com/"}}, {"type": "node", "id": 5441383176, "lat": 41.8869381, "lon": -87.6488617, "tags": {"addr:city": "Chicago", "addr:housenumber": "834", "addr:postcode": "60607", "addr:state": "IL", "addr:street": "West Fulton Market", "amenity": "restaurant", "cuisine": "american;drinks", "name": "Beatrix Fulton Market", "opening_hours": "Mo-Fr 07:00-22:00; Sa 08:00-23:00; Su 08:00-21:00", "phone": "+1-312-733-0370", "website": "http://beatrixrestaurants.com"}}, {"type": "node", "id": 5441383743, "lat": 41.8869605, "lon": -87.6496187, "tags": {"addr:city": "Chicago", "addr:housenumber": "852", "addr:postcode": "60607", "addr:state": "IL", "addr:street": "West Fulton Market", "amenity": "restaurant", "cuisine": "burger", "name": "Kuma's Corner - West Loop", "opening_hours": "Su-Th 11:15-23:00; Fr-Sa 11:15-00:00", "phone": "+1-312-666-9090", "website": "https://kumascorner.com/"}}, {"type": "node", "id": 5441388896, "lat": 41.8875203, "lon": -87.6519922, "tags": {"addr:city": "Chicago", "addr:housenumber": "311", "addr:postcode": "60607", "addr:state": "IL", "addr:street": "North Morgan Street", "amenity": "restaurant", "cuisine": "american;drinks", "name": "City Mouse Chicago", "opening_hours": "Mo-Su 07:00-23:00", "phone": "+1-312-764-1908", "website": "https://www.citymousechicago.com/"}}, {"type": "node", "id": 5441396526, "lat": 41.8876449, "lon": -87.6523807, "tags": {"addr:city": "Chicago", "addr:housenumber": "326", "addr:postcode": "60607", "addr:state": "IL", "addr:street": "North Morgan Street", "amenity": "restaurant", "cuisine": "american;street_food", "name": "Regards to Edith", "opening_hours": "Mo-Th 17:00-22:00; Fr 16:00-23:00; Sa 10:00-23:00; Su 10:00-22:00", "phone": "+1-312-763-6564", "website": "regardstoedith.com"}}, {"type": "node", "id": 5441403136, "lat": 41.8871969, "lon": -87.6524263, "tags": {"addr:city": "Chicago", "addr:housenumber": "1000", "addr:postcode": "60607", "addr:state": "IL", "addr:street": "West Fulton Market", "amenity": "restaurant", "cuisine": "steak;seafood", "name": "Swift & Sons", "opening_hours": "Mo-Th 16:30-23:00; Fr-Sa 16:30-00:00; Su 16:30-22:30", "phone": "+1-312-733-9420", "website": "https://www.swiftandsonschicago.com/"}}, {"type": "node", "id": 5460666621, "lat": 41.8872669, "lon": -87.6490322, "tags": {"addr:city": "Chicago", "addr:housenumber": "310", "addr:postcode": "60607", "addr:state": "IL", "addr:street": "North Green Street", "amenity": "restaurant", "name": "Punch Bowl Social Chicago", "phone": "+1-312-809-9551", "website": "https://www.punchbowlsocial.com/"}}, {"type": "node", "id": 5460671009, "lat": 41.8905209, "lon": -87.6591892, "tags": {"addr:city": "Chicago", "addr:housenumber": "459", "addr:postcode": "60642", "addr:state": "IL", "addr:street": "North Ogden Avenue", "amenity": "bar", "name": "G & O", "opening_hours": "Mo-Fr 16:00-02:00; Sa 10:00-03:00; Su 10:00-00:00", "phone": "+1-312-888-3367", "website": "http://grandandogden.com/"}}, {"type": "node", "id": 5460708812, "lat": 41.8908598, "lon": -87.647944, "tags": {"addr:city": "Chicago", "addr:housenumber": "464", "addr:postcode": "60642", "addr:state": "IL", "addr:street": "North Halsted Street", "amenity": "restaurant", "cuisine": "italian", "name": "Piccolo Sogno", "opening_hours": "Mo-Th 11:30-14:30, 17:30-22:30; Fr 11:30-14:30, 17:00-23:00; Sa 17:00-23:00; Su 17:00-22:00", "phone": "+1-312-421-0077", "website": "https://www.piccolosognorestaurant.com/"}}, {"type": "node", "id": 5460714621, "lat": 41.887566, "lon": -87.6524066, "tags": {"addr:city": "Chicago", "addr:housenumber": "326", "addr:postcode": "60607", "addr:state": "IL", "addr:street": "North Morgan Street", "amenity": "bar", "name": "Prairie School", "opening_hours": "Su-We 16:00-02:00; Th 17:00-02:00; Fr-Sa 16:00-02:00", "phone": "+1-312-763-6564", "website": "https://www.prairieschoolchicago.com/"}}, {"type": "node", "id": 5460735957, "lat": 41.8897346, "lon": -87.6620754, "tags": {"addr:city": "Chicago", "addr:housenumber": "1381", "addr:postcode": "60642", "addr:state": "IL", "addr:street": "West Hubbard Street", "amenity": "restaurant", "cuisine": "american;breakfast", "name": "The Breakfast Club & Grill", "phone": "+1-312-666-2372", "website": "https://thebreakfastclubchicago.com/"}}, {"type": "node", "id": 5460758421, "lat": 41.8912522, "lon": -87.6559754, "tags": {"addr:city": "Chicago", "addr:housenumber": "1132", "addr:postcode": "60642", "addr:state": "IL", "addr:street": "West Grand Avenue", "amenity": "restaurant", "cuisine": "american", "name": "TWO Restaurant", "opening_hours": "Tu-Th 17:00-22:00; Fr-Sa 17:00-23:00; Su 17:00-21:00", "phone": "+1-312-624-8363", "website": "http://113two.com/"}}, {"type": "node", "id": 5460763042, "lat": 41.8875396, "lon": -87.6518407, "tags": {"addr:city": "Chicago", "addr:housenumber": "311", "addr:postcode": "60607", "addr:state": "IL", "addr:street": "North Morgan Street", "amenity": "restaurant", "cuisine": "american", "name": "Waydown", "opening_hours": "Su-Fr 16:00-02:00; Sa 16:00-03:00", "outdoor_seating": "no", "phone": "+1-312-764-1919", "website": "https://www.acehotel.com/"}}, {"type": "node", "id": 5460766489, "lat": 41.8876567, "lon": -87.6520507, "tags": {"addr:city": "Chicago", "addr:housenumber": "311", "addr:postcode": "60607", "addr:state": "IL", "addr:street": "North Morgan Street", "amenity": "cafe", "cuisine": "coffee_shop;coffee", "name": "Stumptown Coffee Roasters", "opening_hours": "Mo-Su 06:20-19:00", "phone": "+1-855-711-3385", "website": "http://www.stumptowncoffee.com/"}}, {"type": "node", "id": 5916848688, "lat": 41.8923569, "lon": -87.6620789, "tags": {"addr:city": "Chicago", "addr:housenumber": "543", "addr:postcode": "60642", "addr:state": "IL", "addr:street": "North Noble Street", "amenity": "restaurant", "name": "Nini's Deli", "phone": "+1-312-243-9822", "website": "https://ninisdeli.com/"}}, {"type": "node", "id": 6250223840, "lat": 41.8901294, "lon": -87.6595267, "tags": {"addr:city": "Chicago", "addr:housenumber": "439", "addr:postcode": "60642", "addr:state": "IL", "addr:street": "North Ogden Avenue", "amenity": "bar", "name": "439 Nightclub"}}, {"type": "node", "id": 6256520187, "lat": 41.8869088, "lon": -87.6488326, "tags": {"addr:city": "Chicago", "addr:housenumber": "302", "addr:postcode": "60607", "addr:state": "IL", "addr:street": "North Green Street", "addr:unit": "FL 3", "amenity": "restaurant", "cuisine": "american", "name": "Aba", "phone": "+1-773-645-1400", "website": "http://abarestaurantchicago.com"}}, {"type": "node", "id": 6262038806, "lat": 41.9008233, "lon": -87.6627954, "tags": {"addr:city": "Chicago", "addr:housenumber": "1046", "addr:postcode": "60622", "addr:state": "IL", "addr:street": "North Milwaukee Avenue", "amenity": "cafe", "name": "Arabia Caf\u00e9 & Hookah Lounge", "phone": "+1-773-276-2345"}}, {"type": "node", "id": 6265172903, "lat": 41.8963785, "lon": -87.6644256, "tags": {"addr:city": "Chicago", "addr:housenumber": "1450", "addr:postcode": "60654", "addr:state": "IL", "addr:street": "North Greenview Avenue", "amenity": "restaurant", "cuisine": "spanish;tapas;small_plates", "name": "Bar Biscay", "phone": "+1-312-455-8900", "website": "https://www.barbiscay.com"}}, {"type": "node", "id": 6265647624, "lat": 41.8963937, "lon": -87.6641441, "tags": {"addr:city": "Chicago", "addr:housenumber": "1444", "addr:postcode": "60642", "addr:state": "IL", "addr:street": "West Chicago Avenue", "amenity": "bar", "name": "Beauty Bar", "phone": "+1-312-226-8828", "website": "http://www.thebeautybar.com/"}}, {"type": "node", "id": 6267363323, "lat": 41.8869576, "lon": -87.6518004, "tags": {"addr:city": "Chicago", "addr:housenumber": "948", "addr:postcode": "60607", "addr:state": "IL", "addr:street": "West Fulton Market", "amenity": "bar", "name": "Blind Barber", "outdoor_seating": "yes", "phone": "+1-312-405-9929", "website": "https://blindbarber.com/"}}, {"type": "node", "id": 6269384932, "lat": 41.8909218, "lon": -87.6561974, "tags": {"addr:city": "Chicago", "addr:housenumber": "1139", "addr:postcode": "60642", "addr:state": "IL", "addr:street": "West Grand Avenue", "amenity": "restaurant", "name": "Butterfly Sushi Bar & Thai Cuisine", "phone": "+1-312- 563-5555", "website": "http://www.butterflysushi2go.com/"}}, {"type": "node", "id": 6269627500, "lat": 41.8959189, "lon": -87.6638671, "tags": {"addr:city": "Chicago", "addr:housenumber": "1437", "addr:postcode": "60642", "addr:state": "IL", "addr:street": "West Chicago Avenue", "amenity": "restaurant", "name": "Cafe Central", "phone": "+1-312-243-6776"}}, {"type": "node", "id": 6283222471, "lat": 41.9008216, "lon": -87.6627776, "tags": {"addr:city": "Chicago", "addr:housenumber": "1046", "addr:postcode": "60622", "addr:state": "IL", "addr:street": "North Milwaukee Avenue", "amenity": "cafe", "name": "Coffee On Milwaukee", "phone": "+1-773-276-3200"}}, {"type": "node", "id": 6290954452, "lat": 41.8963373, "lon": -87.6638657, "tags": {"addr:city": "Chicago", "addr:housenumber": "1434", "addr:postcode": "60642", "addr:state": "IL", "addr:street": "West Chicago Avenue", "amenity": "restaurant", "name": "Flo", "phone": "+1-312-243-0477", "website": "https://flochicago.com/"}}, {"type": "node", "id": 6294534344, "lat": 41.8923742, "lon": -87.6619407, "tags": {"addr:city": "Chicago", "addr:housenumber": "1363", "addr:postcode": "60642", "addr:state": "IL", "addr:street": "West Ohio Street", "amenity": "restaurant", "name": "Home Team Pizza", "phone": "+1-312-291-8666", "website": "http://www.hometeampizzachicago.us/"}}, {"type": "node", "id": 6298375107, "lat": 41.8895868, "lon": -87.6507598, "tags": {"addr:city": "Chicago", "addr:housenumber": "415", "addr:postcode": "60642", "addr:state": "IL", "addr:street": "North Sangamon Street", "amenity": "bar", "name": "Illuminated Brew Works", "website": "http://www.ibw-chicago.com/"}}, {"type": "node", "id": 6298799785, "lat": 41.89088, "lon": -87.6583534, "tags": {"addr:city": "Chicago", "addr:housenumber": "1223", "addr:postcode": "60642", "addr:state": "IL", "addr:street": "West Grand Avenue", "amenity": "cafe", "name": "Sip Coffee House & Garden", "phone": "+1-312-563-1123", "website": "http://www.sipcoffeehouse.com/"}}, {"type": "node", "id": 6300667059, "lat": 41.8963169, "lon": -87.6647172, "tags": {"addr:city": "Chicago", "addr:housenumber": "1458", "addr:postcode": "60642", "addr:state": "IL", "addr:street": "West Chicago Avenue", "amenity": "cafe", "name": "Standing Passengers", "phone": "+1-312-374-3177", "website": "https://www.standingpassengers.com/"}}, {"type": "node", "id": 6304001071, "lat": 41.8912668, "lon": -87.6618238, "tags": {"addr:city": "Chicago", "addr:housenumber": "1372", "addr:postcode": "60642", "addr:state": "IL", "addr:street": "West Grand Avenue", "amenity": "restaurant", "name": "Tempesta Market", "phone": "+1-312-929-2551", "website": "http://tempestamarket.com/"}}, {"type": "node", "id": 6307019781, "lat": 41.8913101, "lon": -87.6585687, "tags": {"addr:city": "Chicago", "addr:housenumber": "501", "addr:postcode": "60642", "addr:state": "IL", "addr:street": "North Ogden Avenue", "amenity": "restaurant", "name": "Twisted Spoke", "phone": "+1-312-666-1500", "website": "http://twistedspoke.com/"}}, {"type": "node", "id": 6315186963, "lat": 41.8989749, "lon": -87.6490724, "tags": {"addr:city": "Chicago", "addr:housenumber": "900", "addr:postcode": "60642", "addr:state": "IL", "addr:street": "North Branch Street", "amenity": "cafe", "name": "The Daily Grind", "phone": "+1-312-752-2000"}}, {"type": "node", "id": 6315603271, "lat": 41.8932944, "lon": -87.6620632, "tags": {"addr:city": "Chicago", "addr:housenumber": "1367", "addr:postcode": "60642", "addr:state": "IL", "addr:street": "West Erie Street", "amenity": "bar", "name": "The Irish Nobleman", "phone": "+1-312-374-3487", "website": "http://www.irishnobleman.com/"}}, {"type": "node", "id": 6315665345, "lat": 41.8957112, "lon": -87.6548491, "tags": {"addr:city": "Chicago", "addr:housenumber": "770", "addr:postcode": "60642", "addr:state": "IL", "addr:street": "North Milwaukee Avenue", "amenity": "bar", "name": "The Matchbox", "phone": "+1-312-666-9292"}}, {"type": "node", "id": 6319897991, "lat": 41.8963535, "lon": -87.6639632, "tags": {"addr:city": "Chicago", "addr:housenumber": "1438", "addr:postcode": "60642", "addr:state": "IL", "addr:street": "West Chicago Avenue", "amenity": "restaurant", "name": "La Calavera Chicago", "phone": "+1-312-255-7925", "website": "http://www.calaverachicago.com/"}}, {"type": "node", "id": 6323827056, "lat": 41.8913263, "lon": -87.6554785, "tags": {"addr:city": "Chicago", "addr:housenumber": "1118", "addr:postcode": "60642", "addr:state": "IL", "addr:street": "West Grand Avenue", "amenity": "restaurant", "name": "Oggi Trattoria", "phone": "+1-312-733-0442", "website": "http://www.oggitrattoria.org/"}}, {"type": "node", "id": 6324088187, "lat": 41.8959969, "lon": -87.6621632, "tags": {"addr:city": "Chicago", "addr:housenumber": "1371", "addr:postcode": "60642", "addr:state": "IL", "addr:street": "West Chicago Avenue", "amenity": "restaurant", "name": "Opart Thai House", "phone": "+1-312-988-0986", "website": "https://www.opartthai.com"}}, {"type": "node", "id": 6394391045, "lat": 41.889422, "lon": -87.6667839, "tags": {"addr:city": "Chicago", "addr:housenumber": "417", "addr:postcode": "60622", "addr:state": "IL", "addr:street": "North Ashland Avenue", "amenity": "bar", "brewery": "yes", "description": "District Brew Yards is a taproom for three breweries: Burnt City Brewing, Bold Dog Beer Co., Around the Bend Beer Co. ", "name": "District Brew Yards"}}, {"type": "node", "id": 6397120472, "lat": 41.8963061, "lon": -87.6648107, "tags": {"addr:city": "Chicago", "addr:housenumber": "1460", "addr:postcode": "60642", "addr:state": "IL", "addr:street": "West Chicago Avenue", "amenity": "restaurant", "cuisine": "asian;japanese", "name": "Jeong", "opening_hours": "Tu-Sa 17:00-22:00", "phone": "+1-312-877-5016", "website": "http://jeongchicago.com"}}, {"type": "node", "id": 6774960135, "lat": 41.8982361, "lon": -87.6584179}, {"type": "node", "id": 6936048967, "lat": 41.8892241, "lon": -87.6490881, "tags": {"addr:city": "Chicago", "addr:housenumber": "838", "addr:postcode": "60607", "addr:state": "IL", "addr:street": "West Kinzie Street", "amenity": "restaurant", "name": "Recess", "phone": "+1-312-801-1181", "website": "https://chicagoinrecess.com"}}, {"type": "node", "id": 6991303059, "lat": 41.8857352, "lon": -87.6323843, "tags": {"highway": "traffic_signals", "traffic_signals": "traffic_lights"}}, {"type": "node", "id": 6997474713, "lat": 41.8869631, "lon": -87.6505461, "tags": {"addr:city": "Chicago", "addr:housenumber": "916", "addr:postcode": "60607", "addr:state": "IL", "addr:street": "West Fulton Market", "amenity": "restaurant", "cuisine": "food_hall;cafeteria", "name": "Time Out Market Chicago", "phone": "+1-312-637-7888", "website": "https://www.timeout.com/chicago/time-out-market"}}, {"type": "node", "id": 7015621558, "lat": 41.8857268, "lon": -87.6381883}, {"type": "node", "id": 7073555751, "lat": 41.8942118, "lon": -87.6525505, "tags": {"addr:city": "Chicago", "addr:housenumber": "694", "addr:postcode": "60642", "addr:state": "IL", "addr:street": "North Milwaukee Avenue", "amenity": "bar", "name": "The Dandy Crown", "phone": "+1-312-846-6420", "website": "http://thedandycrown.com"}}, {"type": "node", "id": 7259838185, "lat": 41.891969, "lon": -87.6490538, "tags": {"addr:housenumber": "522", "addr:street": "North Milwaukee Avenue", "amenity": "restaurant", "name": "Stax Cafe", "opening_hours": "Mo-Fr 07:00-15:00; Sa-Su 07:00-15:30"}}, {"type": "node", "id": 7598304985, "lat": 41.8958747, "lon": -87.6667787, "tags": {"addr:housenumber": "1549", "amenity": "restaurant", "name": "Spicy Fingers Seafood Kitchen"}}, {"type": "node", "id": 7607793125, "lat": 41.8756808, "lon": -87.6306661, "tags": {"railway": "switch"}}, {"type": "node", "id": 7607793126, "lat": 41.8756222, "lon": -87.6304099, "tags": {"railway": "switch"}}, {"type": "node", "id": 7607793127, "lat": 41.8756193, "lon": -87.6306682, "tags": {"railway": "switch"}}, {"type": "node", "id": 7607793128, "lat": 41.8756833, "lon": -87.6304013, "tags": {"railway": "switch"}}, {"type": "node", "id": 7662839840, "lat": 41.885735, "lon": -87.6326313}, {"type": "node", "id": 7675964055, "lat": 41.8836614, "lon": -87.6295087}, {"type": "node", "id": 7676191090, "lat": 41.8922758, "lon": -87.6492293}, {"type": "node", "id": 7676191091, "lat": 41.8933257, "lon": -87.6508241}, {"type": "node", "id": 7676191092, "lat": 41.8959631, "lon": -87.654909}, {"type": "node", "id": 7676191093, "lat": 41.8965232, "lon": -87.655796}, {"type": "node", "id": 7676191096, "lat": 41.8975476, "lon": -87.6573753}, {"type": "node", "id": 7676191098, "lat": 41.8981388, "lon": -87.6582711}, {"type": "way", "id": 209846687, "nodes": [2200109452, 2200109752, 2200111113, 2200111013, 2200109452], "tags": {"addr:city": "Chicago", "addr:housenumber": "1072", "addr:postcode": "60642", "addr:state": "IL", "addr:street": "North Milwaukee Avenue", "addr:street:name": "Milwaukee", "addr:street:prefix": "North", "addr:street:type": "Avenue", "amenity": "restaurant", "building": "yes", "building:levels": "2", "chicago:building_id": "326171", "name": "The Frontier", "phone": "+1-773-772-4322", "website": "https://www.thefrontierchicago.com/", "wikidata": "Q16993845", "wikipedia": "en:Frontier (restaurant)"}}, {"type": "way", "id": 210269961, "nodes": [2203583502, 2203583715, 2203583724, 2203583591, 2203583587, 2203583552, 2203583549, 2203583453, 2203583448, 2203583502], "tags": {"addr:city": "Chicago", "addr:housenumber": "1321", "addr:postcode": "60642", "addr:street": "West Grand Avenue", "addr:street:name": "Grand", "addr:street:prefix": "West", "addr:street:type": "Avenue", "amenity": "restaurant", "building": "yes", "chicago:building_id": "348949", "cuisine": "pizza", "name": "Coalfire", "phone": "312.226.2625", "website": "http://coalfirechicago.com/"}}, {"type": "way", "id": 210270387, "nodes": [2203580648, 2203580768, 2203580772, 2203580662, 2203580648], "tags": {"addr:city": "Chicago", "addr:housenumber": "440", "addr:postcode": "60642", "addr:state": "IL", "addr:street": "North Aberdeen Street", "addr:street:name": "Aberdeen", "addr:street:prefix": "North", "addr:street:type": "Street", "amenity": "bar", "building": "yes", "chicago:building_id": "350040", "name": "The Aberdeen Tap", "opening_hours": "Su-Fr 11:00-02:00; Sa 11:00-03:00", "phone": "+1-312-929-3845", "website": "http://theaberdeentap.com/", "wheelchair": "limited"}}, {"type": "way", "id": 210270390, "nodes": [2203580582, 2203580748, 2203580750, 2203580583, 2203580582], "tags": {"addr:housenumber": "440", "addr:street": "North Racine Avenue", "addr:street:name": "Racine", "addr:street:prefix": "North", "addr:street:type": "Avenue", "amenity": "restaurant", "building": "yes", "chicago:building_id": "350062", "name": "Mart Anthony's"}}, {"type": "way", "id": 210270693, "nodes": [2203578606, 2203578494, 2203578493, 2203578659, 2203578661, 2203578606], "tags": {"addr:housenumber": "948-954", "addr:street": "West Fulton Market", "addr:street:name": "Fulton Market", "addr:street:prefix": "West", "amenity": "bar", "building": "yes", "building:levels": "2", "chicago:building_id": "879729"}}, {"type": "way", "id": 230398414, "nodes": [2389087654, 2389087661, 2389087641, 2389087647, 2389087653, 2389087619, 2389087638, 2389087645, 2389087622, 2389087640, 2389087646, 2389087620, 2389087659, 2389087652, 2389087642, 2389087648, 2389087635, 2389087644, 5272952065, 2389087623, 2389087643, 2389087631, 2389087651, 2389087660, 7675964055, 2389087649, 2389087628, 2389087658, 2389087637, 2389087625, 2389087650, 2389087636, 2389087633, 2389087627, 2389087639, 2389087629, 2389087657, 7607793128, 7607793125, 2389087624, 2389087626, 2389087632, 3188221401], "tags": {"electrified": "rail", "frequency": "0", "gauge": "1435", "layer": "-2", "level": "0", "name": "Dearborn Street Subway", "oneway": "yes", "operator": "Chicago Transit Authority", "railway": "subway", "tunnel": "yes", "voltage": "600"}}, {"type": "way", "id": 312901443, "nodes": [3188221400, 258281900, 258281901, 5272963174, 7607793127, 7607793126, 258957456, 1613640702, 258281903, 1613640678, 706968780, 1613640656, 706968781, 873051690, 5272959956, 5272959957, 5272952067, 258957458, 1606917431, 706968782, 258957459, 706968784, 5272952066, 6991303059, 258957340, 7662839840, 736637716, 7015621558, 258281905, 707905319, 707905321, 258281906, 365489352, 707905651, 258281907, 5272952064, 7676191090, 7676191091, 258281909, 7676191092, 5272957251, 7676191093, 7676191096, 7676191098, 6774960135, 365489153, 736035819, 736035820, 365489154, 736035821, 736035822, 258025450], "tags": {"electrified": "rail", "frequency": "0", "gauge": "1435", "layer": "-2", "level": "-1", "name": "Dearborn Street Subway", "oneway": "yes", "operator": "Chicago Transit Authority", "railway": "subway", "tunnel": "yes", "voltage": "600"}}]}