{"version": 0.6, "generator": "Overpass API 0.7.56.1004 6cd3eaec", "osm3s": {"timestamp_osm_base": "2020-07-22T04:08:03Z", "copyright": "The data included in this document is from www.openstreetmap.org. The data is made available under ODbL."}, "elements": [{"type": "node", "id": 370884554, "lat": 41.9469749, "lon": -87.6566688, "tags": {"amenity": "bar", "name": "Cubby Bear"}}, {"type": "node", "id": 370884874, "lat": 41.9501029, "lon": -87.6590892, "tags": {"addr:city": "Chicago", "addr:housenumber": "3740", "addr:postcode": "60613", "addr:state": "IL", "addr:street": "North Clark Street", "amenity": "bar", "name": "The Ginger Man Tavern", "phone": "+1-773-549-2050", "wifi": "free"}}, {"type": "node", "id": 378091335, "lat": 41.946303, "lon": -87.6560144, "tags": {"amenity": "bar", "name": "Wild Hare"}}, {"type": "node", "id": 503799637, "lat": 41.9439463, "lon": -87.6641268, "tags": {"amenity": "cafe", "name": "Ann Sather"}}, {"type": "node", "id": 662726461, "lat": 41.9437805, "lon": -87.6449908, "tags": {"addr:city": "Chicago", "addr:housenumber": "3415", "addr:postcode": "60657", "addr:state": "IL", "addr:street": "North Broadway", "amenity": "restaurant", "name": "Ann Sather", "phone": "+1-773-305-0024", "website": "http://annsather.com/"}}, {"type": "node", "id": 903249436, "lat": 41.9492099, "lon": -87.6497345, "tags": {"amenity": "restaurant", "cuisine": "american", "name": "Kit Kat Club"}}, {"type": "node", "id": 903249885, "lat": 41.9477497, "lon": -87.6473849, "tags": {"addr:city": "Chicago", "addr:country": "US", "addr:housenumber": "3617", "addr:postcode": "60613", "addr:state": "IL", "addr:street": "North Broadway", "amenity": "restaurant", "name": "Waffles"}}, {"type": "node", "id": 903251602, "lat": 41.9471033, "lon": -87.6469665, "tags": {"addr:city": "Chicago", "addr:housenumber": "3561", "addr:postcode": "60657", "addr:state": "IL", "addr:street": "North Broadway", "amenity": "restaurant", "cuisine": "italian", "name": "Angelina's Italian Restaurant", "phone": "+1-773-935-5933", "website": "http://www.angelinaristorante.com/"}}, {"type": "node", "id": 949089361, "lat": 41.9499295, "lon": -87.6490719, "tags": {"amenity": "bar", "name": "Charlie's Chicago"}}, {"type": "node", "id": 949092165, "lat": 41.9486448, "lon": -87.6493831, "tags": {"amenity": "bar", "name": "Circuit"}}, {"type": "node", "id": 949094037, "lat": 41.946246, "lon": -87.649292, "tags": {"addr:city": "Chicago", "addr:country": "US", "addr:housenumber": "3523", "addr:province": "IL", "addr:street": "North Halsted Street", "amenity": "restaurant", "name": "Las Mananitas", "phone": "+1-773-528-2109"}}, {"type": "node", "id": 949094860, "lat": 41.9453312, "lon": -87.6495882, "tags": {"amenity": "bar", "name": "Hydrate"}}, {"type": "node", "id": 949099772, "lat": 41.9435267, "lon": -87.6495172, "tags": {"amenity": "bar", "name": "Roscoe's Tavern & Cafe"}}, {"type": "node", "id": 949100448, "lat": 41.9435227, "lon": -87.6492449, "tags": {"amenity": "bar", "name": "Progress Bar Chicago"}}, {"type": "node", "id": 1239986384, "lat": 41.9501152, "lon": -87.649398, "tags": {"amenity": "bar", "name": "North End"}}, {"type": "node", "id": 1239986677, "lat": 41.9499795, "lon": -87.6494034, "tags": {"amenity": "bar", "name": "Bobby Love's"}}, {"type": "node", "id": 1700860713, "lat": 41.958567, "lon": -87.6534433, "tags": {"amenity": "bar", "name": "Bar On Buena"}}, {"type": "node", "id": 1707846189, "lat": 41.9486953, "lon": -87.6582381}, {"type": "node", "id": 1707846196, "lat": 41.9487477, "lon": -87.6582605}, {"type": "node", "id": 1707846198, "lat": 41.948767, "lon": -87.6581776}, {"type": "node", "id": 1707846203, "lat": 41.9488222, "lon": -87.6579582}, {"type": "node", "id": 1707846206, "lat": 41.9488702, "lon": -87.6582268}, {"type": "node", "id": 1707846207, "lat": 41.9488731, "lon": -87.6579926}, {"type": "node", "id": 1720016522, "lat": 41.9490961, "lon": -87.6582546, "tags": {"amenity": "restaurant", "cuisine": "burger", "name": "Rockit Burger Bar", "wifi": "no"}}, {"type": "node", "id": 1892429574, "lat": 41.9440434, "lon": -87.66374, "tags": {"amenity": "restaurant", "brand": "Noodles & Company", "brand:wikidata": "Q7049673", "brand:wikipedia": "en:Noodles & Company", "cuisine": "pasta", "name": "Noodles & Company"}}, {"type": "node", "id": 1892429616, "lat": 41.9441566, "lon": -87.6637577, "tags": {"amenity": "restaurant", "name": "Cooba", "wheelchair": "yes"}}, {"type": "node", "id": 1892450589, "lat": 41.9440789, "lon": -87.6641263, "tags": {"addr:housenumber": "3418", "addr:street": "North Southport Avenue", "amenity": "restaurant", "name": "Sopo Lounge & Grill"}}, {"type": "node", "id": 2009284043, "lat": 41.9455726, "lon": -87.6489875, "tags": {"amenity": "restaurant", "cuisine": "american", "name": "Taverna 750"}}, {"type": "node", "id": 2204119217, "lat": 41.945101, "lon": -87.6546797}, {"type": "node", "id": 2204119458, "lat": 41.9451573, "lon": -87.6547256}, {"type": "node", "id": 2204119487, "lat": 41.9451619, "lon": -87.6545486}, {"type": "node", "id": 2204119688, "lat": 41.9452169, "lon": -87.6547741}, {"type": "node", "id": 2204119738, "lat": 41.9452264, "lon": -87.6545696}, {"type": "node", "id": 2204120016, "lat": 41.9452968, "lon": -87.6545927}, {"type": "node", "id": 2204135999, "lat": 41.9509993, "lon": -87.6499852}, {"type": "node", "id": 2204136014, "lat": 41.9510034, "lon": -87.6497536}, {"type": "node", "id": 2204136027, "lat": 41.9510083, "lon": -87.6501285}, {"type": "node", "id": 2204136034, "lat": 41.9510102, "lon": -87.6499851}, {"type": "node", "id": 2204136136, "lat": 41.9510797, "lon": -87.6501295}, {"type": "node", "id": 2204136138, "lat": 41.9510857, "lon": -87.6497545}, {"type": "node", "id": 2204141516, "lat": 41.9542939, "lon": -87.6553395}, {"type": "node", "id": 2204141519, "lat": 41.9542963, "lon": -87.6552807}, {"type": "node", "id": 2204141590, "lat": 41.954358, "lon": -87.6552855}, {"type": "node", "id": 2204141593, "lat": 41.9543694, "lon": -87.6553461}, {"type": "node", "id": 2204141595, "lat": 41.9543718, "lon": -87.6552964}, {"type": "node", "id": 2204571338, "lat": 41.9585321, "lon": -87.6536806}, {"type": "node", "id": 2204571339, "lat": 41.9585321, "lon": -87.6536898}, {"type": "node", "id": 2204571340, "lat": 41.9585337, "lon": -87.6532633}, {"type": "node", "id": 2204571342, "lat": 41.958535, "lon": -87.6532504}, {"type": "node", "id": 2204571344, "lat": 41.9585351, "lon": -87.6532688}, {"type": "node", "id": 2204571348, "lat": 41.9585377, "lon": -87.6536971}, {"type": "node", "id": 2204571349, "lat": 41.9585391, "lon": -87.6532393}, {"type": "node", "id": 2204571351, "lat": 41.9585432, "lon": -87.6536988}, {"type": "node", "id": 2204571352, "lat": 41.9585459, "lon": -87.6536988}, {"type": "node", "id": 2204571353, "lat": 41.9585473, "lon": -87.6532319}, {"type": "node", "id": 2204571359, "lat": 41.9585569, "lon": -87.6532281}, {"type": "node", "id": 2204571363, "lat": 41.9585665, "lon": -87.6532317}, {"type": "node", "id": 2204571534, "lat": 41.9586557, "lon": -87.6536995}, {"type": "node", "id": 2204571535, "lat": 41.958656, "lon": -87.6535193}, {"type": "node", "id": 2204571929, "lat": 41.9589411, "lon": -87.6536983}, {"type": "node", "id": 2204571938, "lat": 41.9589467, "lon": -87.6534813}, {"type": "node", "id": 2262363338, "lat": 41.9440287, "lon": -87.6495776, "tags": {"addr:city": "Chicago", "addr:housenumber": "3404", "addr:postcode": "60657", "addr:state": "IL", "addr:street": "North Halsted Street", "amenity": "restaurant", "cuisine": "american", "name": "Home Bistro", "phone": "+1-773-661-0299", "website": "http://homebistrochicago.com/"}}, {"type": "node", "id": 2361072386, "lat": 41.946146, "lon": -87.6554126, "tags": {"addr:housenumber": "3515", "addr:postcode": "60657", "addr:street": "North Clark Street", "amenity": "restaurant", "cuisine": "pizza", "name": "Bacci Pizza on Clark"}}, {"type": "node", "id": 2761669109, "lat": 41.9511963, "lon": -87.659943, "tags": {"amenity": "restaurant", "name": "Uncommon Ground", "website": "https://www.uncommonground.com/"}}, {"type": "node", "id": 2868859570, "lat": 41.9579418, "lon": -87.6496329, "tags": {"addr:city": "Chicago", "addr:housenumber": "4181", "addr:postcode": "60613", "addr:state": "IL", "addr:street": "North Clarendon Avenue", "amenity": "cafe", "internet_access": "yes", "name": "Dollop Coffee", "opening_hours": "07:00-20:00", "phone": "+1-773-360-1366", "smoking": "outside", "website": "https://dollop.coffee/"}}, {"type": "node", "id": 3485449403, "lat": 41.9470511, "lon": -87.646931, "tags": {"addr:city": "Chicago", "addr:housenumber": "3555", "addr:postcode": "60657", "addr:state": "IL", "addr:street": "North Broadway", "amenity": "restaurant", "cuisine": "barbecue", "name": "Wrigley BBQ", "opening_hours": "Mo-Th 11:30-22:00; Fr-Sa 11:30-23:00; Su 11:30-21:30", "smoking": "no", "takeaway": "yes"}}, {"type": "node", "id": 3940894157, "lat": 41.945603, "lon": -87.6496353, "tags": {"addr:city": "Chicago", "addr:housenumber": "3500", "addr:postcode": "60657", "addr:state": "IL", "addr:street": "North Halsted Street", "amenity": "cafe", "atm": "no", "brand": "Peet's Coffee", "brand:wikidata": "Q1094101", "brand:wikipedia": "en:Peet's Coffee", "cuisine": "coffee_shop", "drive_through": "no", "internet_access": "wlan", "name": "Peet's Coffee", "opening_hours": "Mo-Sa 05:30-21:00; Su 06:00-20:00", "outdoor_seating": "yes", "phone": "+1-773-360-5280", "smoking": "no", "takeaway": "yes", "website": "https://www.peets.com/", "wheelchair": "yes"}}, {"type": "node", "id": 4366366759, "lat": 41.9581265, "lon": -87.649645, "tags": {"addr:city": "Chicago", "addr:country": "US", "addr:housenumber": "4185", "addr:postcode": "60613", "addr:state": "IL", "addr:street": "North Clarendon Avenue", "amenity": "restaurant", "cuisine": "pizza", "name": "Bojono's Pizzeria"}}, {"type": "node", "id": 4390711391, "lat": 41.9492375, "lon": -87.6491974, "tags": {"amenity": "restaurant", "name": "Panino's Pizzeria"}}, {"type": "node", "id": 4606797791, "lat": 41.9546187, "lon": -87.6547349, "tags": {"addr:city": "Chicago", "addr:country": "US", "addr:housenumber": "4000", "addr:postcode": "60613", "addr:state": "IL", "addr:street": "North Sheridan Road", "amenity": "bar", "name": "Holiday Club", "phone": "+1-773-348-9600", "website": "http://holidayclubchicago.com", "wheelchair": "yes"}}, {"type": "node", "id": 4726187690, "lat": 41.9493082, "lon": -87.6584942, "tags": {"addr:city": "Chicago", "addr:housenumber": "3710", "addr:postcode": "60613", "addr:state": "IL", "addr:street": "North Clark Street", "amenity": "restaurant", "cuisine": "american", "name": "Yak-Zies Wrigleyville", "opening_hours": "Mo-Su 10:00-02:00"}}, {"type": "node", "id": 5033308929, "lat": 41.9447083, "lon": -87.6540662, "tags": {"addr:city": "Chicago", "addr:housenumber": "3439", "addr:postcode": "60657", "addr:state": "IL", "addr:street": "North Sheffield Avenue", "amenity": "bar", "name": "Nisei Lounge", "phone": "+1-773-525-0557", "website": "https://niseiloungechicago.com/"}}, {"type": "node", "id": 5161385986, "lat": 41.9434096, "lon": -87.6543631, "tags": {"amenity": "bar", "name": "Redmonds"}}, {"type": "node", "id": 5252276976, "lat": 41.9434018, "lon": -87.6532551, "tags": {"amenity": "bar", "name": "Houndstooth"}}, {"type": "node", "id": 5252276977, "lat": 41.9458684, "lon": -87.6556246, "tags": {"amenity": "restaurant", "name": "Old Crow Smokehouse"}}, {"type": "node", "id": 5252276978, "lat": 41.9468383, "lon": -87.6564199, "tags": {"amenity": "bar", "name": "Vines on Clark"}}, {"type": "node", "id": 5356226639, "lat": 41.9568479, "lon": -87.6518177, "tags": {"addr:city": "Chicago", "addr:housenumber": "4091", "addr:postcode": "60613", "addr:state": "IL", "addr:street": "North Broadway", "amenity": "restaurant", "cuisine": "pizza;wings;italian_beef;burger;salad", "delivery": "yes", "name": "Michael's Original PIzzeria & Tavern", "opening_hours": "Mo-Fr 11:30-02:00; Sa 11:30-03:00; Su 11:30-00:00", "phone": "773-929-4149", "smoking": "outside", "takeaway": "yes", "website": "https://www.michaelspizzachicago.com/"}}, {"type": "node", "id": 5358482234, "lat": 41.958331, "lon": -87.6527624, "tags": {"addr:city": "Chicago", "addr:housenumber": "4155", "addr:postcode": "60613", "addr:state": "IL", "addr:street": "North Broadway", "amenity": "cafe", "name": "Klein's Bakery & Cafe", "phone": "+1-773-857-0525", "website": "https://www.kleinsbakerycafe.com/"}}, {"type": "node", "id": 5364425023, "lat": 41.944352, "lon": -87.6544113, "tags": {"amenity": "bar", "name": "Chicago's Blarney Stone"}}, {"type": "node", "id": 5364425025, "lat": 41.9447909, "lon": -87.6540921, "tags": {"addr:city": "Chicago", "addr:housenumber": "3441", "addr:postcode": "60657", "addr:state": "IL", "addr:street": "North Sheffield Avenue", "amenity": "bar", "name": "The Graystone Tavern", "phone": "+1-773-666-5450", "website": "https://www.graystonetavernchicago.com/"}}, {"type": "node", "id": 5364425026, "lat": 41.9454034, "lon": -87.6553501, "tags": {"amenity": "bar", "name": "Roundhouse 66"}}, {"type": "node", "id": 5364425027, "lat": 41.9453854, "lon": -87.6548619, "tags": {"amenity": "bar", "name": "The Sandlot Wrigley"}}, {"type": "node", "id": 5364425028, "lat": 41.9450004, "lon": -87.6549263, "tags": {"amenity": "bar", "name": "The Country Club"}}, {"type": "node", "id": 5364425029, "lat": 41.945142, "lon": -87.6550443, "tags": {"amenity": "bar", "name": "Lucky's Sandwich Co"}}, {"type": "node", "id": 5460774511, "lat": 41.9544928, "lon": -87.6643843, "tags": {"addr:city": "Chicago", "addr:housenumber": "4000", "addr:postcode": "60613", "addr:state": "IL", "addr:street": "North Southport Avenue", "amenity": "restaurant", "name": "Southport & Irving SIP", "phone": "+1-773-857-2890", "website": "http://www.southportandirving.com/"}}, {"type": "node", "id": 5462763915, "lat": 41.9503531, "lon": -87.6639084, "tags": {"amenity": "restaurant", "name": "Grassroots Restaurant"}}, {"type": "node", "id": 5548151032, "lat": 41.9472259, "lon": -87.6638154, "tags": {"addr:city": "Chicago", "addr:housenumber": "3601", "addr:postcode": "60613", "addr:state": "IL", "addr:street": "North Southport Avenue", "amenity": "cafe", "cuisine": "Austrian", "internet_access": "wlan", "internet_access:fee": "no", "name": "Julius Meinl", "opening_hours": "Mo-Su 07:00-20:00", "outdoor_seating": "yes", "phone": "+1-773-868-1857", "website": "http://www.meinlus.com/"}}, {"type": "node", "id": 5693947791, "lat": 41.9438463, "lon": -87.6453016, "tags": {"amenity": "restaurant", "name": "El Mariache Restaurant"}}, {"type": "node", "id": 5693947793, "lat": 41.9438117, "lon": -87.6453073, "tags": {"addr:city": "Chicago", "addr:housenumber": "3420", "addr:postcode": "60657", "addr:state": "Il", "addr:street": "North Broadway", "amenity": "bar", "name": "Jacquelines's", "phone": "+1-773-404-5149"}}, {"type": "node", "id": 5693947794, "lat": 41.9438949, "lon": -87.6453372, "tags": {"amenity": "restaurant", "name": "Shiawase Japanese Restaurant"}}, {"type": "node", "id": 5693948271, "lat": 41.9455874, "lon": -87.6463743, "tags": {"amenity": "restaurant", "name": "Tasty Asian Restaurant"}}, {"type": "node", "id": 5693977769, "lat": 41.9447676, "lon": -87.6492558, "tags": {"amenity": "bar", "name": "Replay"}}, {"type": "node", "id": 5693977770, "lat": 41.944889, "lon": -87.6492509, "tags": {"addr:city": "Chicago", "addr:housenumber": "3441", "addr:postcode": "60657", "addr:state": "IL", "addr:street": "North Halsted Street", "amenity": "bar", "name": "Lark", "phone": "+1-773-799-8968", "website": "https://www.larkchicago.com/"}}, {"type": "node", "id": 5694736438, "lat": 41.9436247, "lon": -87.644836, "tags": {"amenity": "restaurant", "name": "Milt's Barbecue for the Perplexed"}}, {"type": "node", "id": 5695506953, "lat": 41.9448988, "lon": -87.6544078, "tags": {"amenity": "restaurant", "name": "Cozy's Noodles and Rice"}}, {"type": "node", "id": 5791122717, "lat": 41.9447594, "lon": -87.6643524, "tags": {"addr:city": "Chicago", "addr:housenumber": "3446", "addr:postcode": "60657", "addr:state": "IL", "addr:street": "North Southport Avenue", "amenity": "restaurant", "name": "Corridor Brewery and Provisions", "phone": "+1-773-270-4272", "website": "https://www.corridorchicago.com/"}}, {"type": "node", "id": 5834769442, "lat": 41.9479341, "lon": -87.6573197, "tags": {"addr:city": "Chicago", "addr:housenumber": "3632", "addr:postcode": "60613", "addr:state": "IL", "addr:street": "North Clark Street", "amenity": "restaurant", "cuisine": "american", "name": "Mordecai", "phone": "+1-773-269-5410", "website": "https://www.mordecaichicago.com"}}, {"type": "node", "id": 5834769444, "lat": 41.9481236, "lon": -87.6574646, "tags": {"addr:city": "Chicago", "addr:housenumber": "3636", "addr:postcode": "60613", "addr:state": "IL", "addr:street": "North Clark Street", "amenity": "restaurant", "cuisine": "bbq;barbecue", "name": "Smoke Daddy BBQ - Wrigleyville", "phone": "+1-773-227-2583", "website": "https://www.thesmokedaddy.com/"}}, {"type": "node", "id": 5834769445, "lat": 41.9481784, "lon": -87.6575019, "tags": {"addr:city": "Chicago", "addr:housenumber": "3640", "addr:postcode": "60613", "addr:state": "IL", "addr:street": "North Clark Street", "amenity": "restaurant", "cuisine": "tacos", "name": "Big Star", "opening_hours": "24/7", "phone": "+1-773-857-7120"}}, {"type": "node", "id": 5834769446, "lat": 41.9476864, "lon": -87.6570759, "tags": {"addr:city": "Chicago", "addr:housenumber": "3626", "addr:postcode": "60613", "addr:state": "IL", "addr:street": "North Clark Street", "amenity": "cafe", "name": "West Town Bakery", "phone": "+1-773-269-5415", "shop": "bakery", "website": "https://www.westtownbakery.com/lakeview"}}, {"type": "node", "id": 5834769447, "lat": 41.9488178, "lon": -87.6568234, "tags": {"addr:city": "Chicago", "addr:housenumber": "1101", "addr:postcode": "60613", "addr:state": "IL", "addr:street": "West Waveland Avenue", "amenity": "bar", "brewery": "yes", "name": "Lucky Dorr", "outdoor_seating": "yes", "phone": "+1-773-388-8249", "website": "https://www.luckydorr.com/"}}, {"type": "node", "id": 5834769449, "lat": 41.9485577, "lon": -87.657448, "tags": {"addr:city": "Chicago", "addr:housenumber": "3647", "addr:postcode": "60613", "addr:state": "IL", "addr:street": "North Clark Street", "amenity": "restaurant", "name": "Brickhouse Tavern"}}, {"type": "node", "id": 5859460641, "lat": 41.9437201, "lon": -87.6539169, "tags": {"addr:city": "Chicago", "addr:housenumber": "3404", "addr:postcode": "60657", "addr:state": "IL", "addr:street": "North Clark Street", "amenity": "restaurant", "cuisine": "caribbean;jamaican", "description": "Jamaican fusion", "name": "Irie Jerk Bar and Grill", "phone": "+1-872-802-4999", "website": "http://iriejerkbargrill.comm/"}}, {"type": "node", "id": 5908462022, "lat": 41.9457315, "lon": -87.6551575, "tags": {"amenity": "restaurant", "cuisine": "american", "name": "Stretch", "website": "https://www.thestretchchicago.com/"}}, {"type": "node", "id": 6221650880, "lat": 41.9475676, "lon": -87.6569746, "tags": {"addr:city": "Chicago", "addr:housenumber": "3600", "addr:postcode": "60613", "addr:state": "IL", "addr:street": "North Clark Street", "amenity": "restaurant", "cuisine": "american", "name": "Dutch & Doc's", "opening_hours": "We-Th 17:00-21:00; Fr 17:00-22:00; Sa 10:00-22:00; Su 10:00-21:00", "phone": "+1-773-360-0207", "website": "https://www.dutchanddocs.com/"}}, {"type": "node", "id": 6268283674, "lat": 41.9505757, "lon": -87.6638791, "tags": {"addr:city": "Chicago", "addr:housenumber": "3755", "addr:postcode": "60613", "addr:state": "IL", "addr:street": "North Southport Avenue", "amenity": "restaurant", "name": "Bodega Sur", "phone": "+1-773- 904-8656", "website": "http://www.bodegasurchicago.com/"}}, {"type": "node", "id": 6269167678, "lat": 41.9486948, "lon": -87.6572351, "tags": {"addr:city": "Chicago", "addr:housenumber": "3647", "addr:postcode": "60613", "addr:state": "IL", "addr:street": "North Clark Street", "amenity": "bar", "name": "Budweiser Brickhouse Tavern", "phone": "+1-773-377-4770", "website": "https://www.brickhousetavernchi.com/"}}, {"type": "node", "id": 6269896115, "lat": 41.9475422, "lon": -87.664211, "tags": {"addr:city": "Chicago", "addr:housenumber": "3612", "addr:postcode": "60613", "addr:state": "IL", "addr:street": "North Southport Avenue", "amenity": "cafe", "name": "Cafe Tola", "phone": "+1-773-687-8428"}}, {"type": "node", "id": 6280486513, "lat": 41.9445167, "lon": -87.6637447, "tags": {"addr:city": "Chicago", "addr:housenumber": "3425", "addr:postcode": "60657", "addr:state": "IL", "addr:street": "North Southport Avenue", "amenity": "cafe", "name": "Capital One Caf\u00e9", "phone": "+1-312-279-8061", "website": "https://www.capitalone.com/local/chicago-southport"}}, {"type": "node", "id": 6282573940, "lat": 41.9450134, "lon": -87.6551173, "tags": {"addr:city": "Chicago", "addr:housenumber": "3462", "addr:postcode": "60657", "addr:state": "IL", "addr:street": "North Clark Street", "amenity": "bar", "name": "Christmas Club", "phone": "+1-773-975-2010", "website": "http://www.christmasclubchicago.com/"}}, {"type": "node", "id": 6283237814, "lat": 41.9504868, "lon": -87.6494162, "tags": {"addr:city": "Chicago", "addr:housenumber": "3752", "addr:postcode": "60613", "addr:state": "IL", "addr:street": "North Broadway", "amenity": "cafe", "name": "Coffee Tree & Tea Leaves", "phone": "+1-773-871-7818", "website": "http://www.coffeetreetealeaves.com/"}}, {"type": "node", "id": 6283857177, "lat": 41.9543869, "lon": -87.6526849, "tags": {"addr:city": "Chicago", "addr:housenumber": "909", "addr:postcode": "60613", "addr:state": "IL", "addr:street": "West Irving Park Road", "amenity": "cafe", "cuisine": "coffee_shop", "name": "Coronas Coffee Shop", "phone": "+1-773-529-1886", "website": "https://www.coronascoffeeshop.com/"}}, {"type": "node", "id": 6283974838, "lat": 41.9451152, "lon": -87.6637061, "tags": {"addr:city": "Chicago", "addr:housenumber": "3455", "addr:postcode": "60657", "addr:state": "IL", "addr:street": "North Southport Avenue", "amenity": "restaurant", "cuisine": "american", "name": "Crosby\u2019s Kitchen", "phone": "+1-773-883-2525", "website": "http://crosbyschicago.com/"}}, {"type": "node", "id": 6284192680, "lat": 41.9448556, "lon": -87.6540273, "tags": {"addr:city": "Chicago", "addr:housenumber": "3443", "addr:postcode": "60657", "addr:state": "IL", "addr:street": "North Sheffield Avenue", "amenity": "bar", "name": "Dark Horse Tap & Grille", "phone": "+1-773-248-4400", "website": "http://www.darkhorsechicago.com/"}}, {"type": "node", "id": 6284585245, "lat": 41.9469968, "lon": -87.6554665, "tags": {"addr:city": "Chicago", "addr:housenumber": "1027", "addr:postcode": "60613", "addr:state": "IL", "addr:street": "West Addison Street", "amenity": "cafe", "name": "Do-Rite Donuts & Chicken", "phone": "+1-773-977-7065", "website": "http://doritedonuts.com/"}}, {"type": "node", "id": 6286532079, "lat": 41.9452065, "lon": -87.6496265, "tags": {"addr:city": "Chicago", "addr:housenumber": "3452", "addr:postcode": "60657", "addr:state": "IL", "addr:street": "North Halsted Street", "amenity": "bar", "name": "Elixir Lounge", "phone": "+1-773-975-9244", "website": "https://www.elixirchicago.com/"}}, {"type": "node", "id": 6286580076, "lat": 41.9451277, "lon": -87.6634876, "tags": {"addr:city": "Chicago", "addr:housenumber": "1349", "addr:postcode": "60657", "addr:state": "IL", "addr:street": "West Cornelia Avenue", "amenity": "restaurant", "cuisine": "italian;mediterranean", "name": "Ella Elli", "phone": "+1-773-935-3552", "website": "http://www.ellaellichicago.com/"}}, {"type": "node", "id": 6286621640, "lat": 41.9537201, "lon": -87.6547576, "tags": {"addr:city": "Chicago", "addr:housenumber": "3938", "addr:postcode": "60613", "addr:state": "IL", "addr:street": "North Sheridan Road", "amenity": "cafe", "name": "Emerald City Coffee", "phone": "+1-773-857-3041", "website": "https://emeraldcitychicago.com/"}}, {"type": "node", "id": 6287095694, "lat": 41.9494171, "lon": -87.6483014, "tags": {"addr:city": "Chicago", "addr:housenumber": "3701", "addr:postcode": "60613", "addr:state": "IL", "addr:street": "North Broadway", "amenity": "bar", "name": "F. O\u2019Mahony\u2019s", "phone": "+1-773-549-0226", "website": "http://fomahonys.com/"}}, {"type": "node", "id": 6289265540, "lat": 41.9449947, "lon": -87.649237, "tags": {"addr:city": "Chicago", "addr:housenumber": "3445", "addr:postcode": "60657", "addr:state": "IL", "addr:street": "North Halsted Street", "amenity": "restaurant", "name": "D.S. Fajita Factory", "phone": "+1-773-770-4618", "website": "https://fajitame.com/"}}, {"type": "node", "id": 6292159426, "lat": 41.9473236, "lon": -87.6617604, "tags": {"addr:city": "Chicago", "addr:housenumber": "1300", "addr:postcode": "60613", "addr:state": "IL", "addr:street": "West Addison Street", "amenity": "bar", "name": "Guthries Tavern", "phone": "+1-773-477-2900", "website": "https://www.guthriestavern.com/"}}, {"type": "node", "id": 6297198431, "lat": 41.9488445, "lon": -87.6545581, "tags": {"addr:city": "Chicago", "addr:housenumber": "1049", "addr:postcode": "60613", "addr:state": "IL", "addr:street": "West Waveland Avenue", "amenity": "restaurant", "name": "Hot Doug\u2019s Wrigley Field"}}, {"type": "node", "id": 6298884587, "lat": 41.9498354, "lon": -87.6589084, "tags": {"addr:city": "Chicago", "addr:housenumber": "3730", "addr:postcode": "60613", "addr:state": "IL", "addr:street": "North Clark Street", "amenity": "bar", "name": "Smart Bar", "phone": "+1-773-549-4140", "website": "http://smartbarchicago.com/"}}, {"type": "node", "id": 6300768348, "lat": 41.9465696, "lon": -87.6563348, "tags": {"addr:city": "Chicago", "addr:housenumber": "3540", "addr:postcode": "60657", "addr:state": "IL", "addr:street": "North Clark Street", "amenity": "bar", "name": "Sluggers World Class Sports Bar", "phone": "+1-773-248-0055", "website": "sluggersbar.com"}}, {"type": "node", "id": 6300887613, "lat": 41.9458691, "lon": -87.646604, "tags": {"addr:city": "Chicago", "addr:housenumber": "3508", "addr:postcode": "60657", "addr:state": "IL", "addr:street": "North Broadway", "amenity": "cafe", "name": "Rewired Caf\u00e9- Lakeview", "phone": "+1-773-687-9719"}}, {"type": "node", "id": 6300944476, "lat": 41.945363, "lon": -87.6547607, "tags": {"addr:city": "Chicago", "addr:housenumber": "3435", "addr:postcode": "60657", "addr:state": "IL", "addr:street": "North Sheffield Avenue", "amenity": "restaurant", "name": "Rice\u2019N Bread", "phone": "+1-773-281-4452", "website": "http://www.ricenbread.com/"}}, {"type": "node", "id": 6301035834, "lat": 41.9486374, "lon": -87.6579243, "tags": {"addr:city": "Chicago", "addr:housenumber": "3658", "addr:postcode": "60613", "addr:state": "IL", "addr:street": "North Clark Street", "amenity": "bar", "name": "Rizzo\u2019s Bar & Inn", "phone": "+1-773-799-8161", "website": "https://rizzosbarandinn.com/"}}, {"type": "node", "id": 6301794398, "lat": 41.9457853, "lon": -87.6550852, "tags": {"addr:city": "Chicago", "addr:housenumber": "3485", "addr:postcode": "60657", "addr:state": "IL", "addr:street": "North Clark Street", "amenity": "bar", "name": "Stretch Bar & Grill", "phone": "+1-773-755-3980"}}, {"type": "node", "id": 6303094091, "lat": 41.9507638, "lon": -87.663924, "tags": {"addr:city": "Chicago", "addr:housenumber": "3763", "addr:postcode": "60613", "addr:state": "IL", "addr:street": "North Southport Avenue", "amenity": "restaurant", "name": "Tango Sur", "phone": "+1-773-477-5466", "website": "http://tangosurgrill.com/"}}, {"type": "node", "id": 6304575246, "lat": 41.9455007, "lon": -87.6547969, "tags": {"addr:city": "Chicago", "addr:housenumber": "3437", "addr:postcode": "60657", "addr:state": "IL", "addr:street": "North Clark Street", "amenity": "bar", "name": "Tinker to Evers, Wrigleyville", "phone": "+1-224-322-0100", "website": "http://unionpizza.com/tinker-to-evers/"}}, {"type": "node", "id": 6305246040, "lat": 41.9477863, "lon": -87.6572653, "tags": {"addr:city": "Chicago", "addr:housenumber": "3630", "addr:postcode": "60613", "addr:state": "IL", "addr:street": "North Clark Street", "amenity": "bar", "name": "The Bar at Hotel Zachary", "phone": "+1-773-302-2300", "website": "https://www.hotelzachary.com/cuisine-cocktails#the-bar-at-hotel-zachary"}}, {"type": "node", "id": 6305323576, "lat": 41.952445, "lon": -87.6637757, "tags": {"addr:city": "Chicago", "addr:housenumber": "3857", "addr:postcode": "60613", "addr:state": "IL", "addr:street": "North Southport Avenue", "amenity": "bar", "name": "Toons Bar & Grill", "phone": "+1-773-935-1919", "website": "https://www.chicagotoons.com/"}}, {"type": "node", "id": 6306522514, "lat": 41.9468004, "lon": -87.6637586, "tags": {"addr:city": "Chicago", "addr:housenumber": "3553", "addr:postcode": "60657", "addr:state": "IL", "addr:street": "North Southport Avenue", "amenity": "bar", "name": "The Butcher\u2019s Tap", "phone": "+1-773-325-0123", "website": "http://thebutcherstap.com/"}}, {"type": "node", "id": 6306543880, "lat": 41.9440209, "lon": -87.6491763, "tags": {"addr:city": "Chicago", "addr:housenumber": "3411", "addr:postcode": "60657", "addr:state": "IL", "addr:street": "North Halsted Street", "amenity": "restaurant", "diet:gluten_free": "yes", "diet:vegan": "yes", "diet:vegetarian": "only", "name": "The Chicago Diner", "phone": "+1-773-935-6696", "website": "http://www.veggiediner.com/"}}, {"type": "node", "id": 6307031974, "lat": 41.9433812, "lon": -87.6592419, "tags": {"addr:city": "Chicago", "addr:housenumber": "1201", "addr:postcode": "60657", "addr:state": "IL", "addr:street": "West Roscoe Street", "amenity": "cafe", "cuisine": "coffee_shop", "name": "Two Hearted Queen", "phone": "+1-773-360-8189", "website": "http://twoheartedqueen.com/"}}, {"type": "node", "id": 6315218733, "lat": 41.9478821, "lon": -87.6466169, "tags": {"addr:city": "Chicago", "addr:housenumber": "620", "addr:postcode": "60613", "addr:state": "IL", "addr:street": "West Addison Street", "amenity": "restaurant", "name": "The Flower Flat", "phone": "+1-773-697-3682", "website": "http://www.theflowerflat.com/http://www.theflowerflat.com/"}}, {"type": "node", "id": 6318928610, "lat": 41.9472229, "lon": -87.6470188, "tags": {"addr:city": "Chicago", "addr:housenumber": "3563", "addr:postcode": "60657", "addr:state": "IL", "addr:street": "North Broadway", "amenity": "bar", "name": "Joe\u2019s On Broadway", "phone": "+1-773-528-1054"}}, {"type": "node", "id": 6322005915, "lat": 41.9467598, "lon": -87.6642858, "tags": {"addr:city": "Chicago", "addr:housenumber": "3552", "addr:postcode": "60657", "addr:state": "IL", "addr:street": "North Southport Avenue", "amenity": "restaurant", "name": "Southport Grocery & Cafe", "phone": "+1-773-665-0100", "website": "https://southportgrocery.com/"}}, {"type": "node", "id": 6322972542, "lat": 41.9474494, "lon": -87.6539367, "tags": {"addr:city": "Chicago", "addr:housenumber": "950", "addr:postcode": "60613", "addr:state": "IL", "addr:street": "West Addison Street", "amenity": "bar", "name": "The Dugout Bar", "phone": "+1-773-661-6043", "website": "http://thedugoutpressbox.com"}}, {"type": "node", "id": 6323168600, "lat": 41.9457261, "lon": -87.655028, "tags": {"addr:city": "Chicago", "addr:housenumber": "3481", "addr:postcode": "60657", "addr:state": "IL", "addr:street": "North Clark Street", "amenity": "bar", "name": "Nola pub", "phone": "+1-773-661-1873", "website": "http://nolachicago.com/"}}, {"type": "node", "id": 6324383593, "lat": 41.9454037, "lon": -87.6641828, "tags": {"addr:city": "Chicago", "addr:housenumber": "3500", "addr:postcode": "60657", "addr:state": "IL", "addr:street": "North Southport Avenue", "amenity": "bar", "name": "Lange\u2019s Lounge", "phone": "+1-773-472-6030"}}, {"type": "node", "id": 6326510071, "lat": 41.9603226, "lon": -87.6474929, "tags": {"addr:city": "Chicago", "addr:housenumber": "4250", "addr:postcode": "60613", "addr:state": "IL", "addr:street": "North Marine Drive", "amenity": "cafe", "name": "Le Cafe", "phone": "+1-773-857-0224", "website": "http://lecafechicago.com/"}}, {"type": "node", "id": 6680245859, "lat": 41.9449518, "lon": -87.6550537, "tags": {"addr:city": "Chicago", "addr:housenumber": "3458", "addr:postcode": "60657", "addr:state": "IL", "addr:street": "North Clark Street", "amenity": "restaurant", "cuisine": "pizza", "name": "Happy Camper - Wrigleyville", "phone": "+1-312-872-5959"}}, {"type": "node", "id": 6742635969, "lat": 41.9446738, "lon": -87.6454546, "tags": {"addr:city": "Chicago", "addr:housenumber": "3443", "addr:postcode": "60657", "addr:state": "IL", "addr:street": "North Broadway", "amenity": "restaurant", "cuisine": "steak_house", "name": "Revoluci\u00f3n Steakhouse"}}, {"type": "node", "id": 6742635971, "lat": 41.9453023, "lon": -87.6458274, "tags": {"addr:city": "Chicago", "addr:housenumber": "3477", "addr:postcode": "60657", "addr:state": "IL", "addr:street": "North Broadway", "amenity": "restaurant", "cuisine": "pizza", "name": "Si-Pie Pizzeria"}}, {"type": "node", "id": 6975177633, "lat": 41.9433498, "lon": -87.6495032, "tags": {"amenity": "bar", "name": "D.S. Tequila Company"}}, {"type": "node", "id": 6975184603, "lat": 41.9457115, "lon": -87.6496251, "tags": {"amenity": "restaurant", "name": "Forever Yogurt"}}, {"type": "node", "id": 6975184604, "lat": 41.9455848, "lon": -87.6492845, "tags": {"amenity": "bar", "name": "Little Jim's Tavern"}}, {"type": "node", "id": 6975184605, "lat": 41.9456597, "lon": -87.6492885, "tags": {"amenity": "bar", "name": "Big Jim's"}}, {"type": "node", "id": 6975184606, "lat": 41.9457415, "lon": -87.6491812, "tags": {"amenity": "restaurant", "name": "Taco and Burrito Palace"}}, {"type": "node", "id": 7161087636, "lat": 41.9506255, "lon": -87.6430859, "tags": {"addr:city": "Chicago", "addr:housenumber": "3650", "addr:street": "North Recreation Drive", "amenity": "restaurant", "cuisine": "mexican", "name": "Two Wheel Tacos", "opening_hours": "\"seasonal\""}}, {"type": "node", "id": 7237325570, "lat": 41.9435413, "lon": -87.6641016, "tags": {"amenity": "cafe", "brand": "Starbucks", "brand:wikidata": "Q37158", "brand:wikipedia": "en:Starbucks", "cuisine": "coffee_shop", "name": "Starbucks", "official_name": "Starbucks Coffee", "takeaway": "yes"}}, {"type": "node", "id": 7237325573, "lat": 41.9436911, "lon": -87.6544873, "tags": {"amenity": "restaurant", "name": "Penny\u2019s Noodle Shop"}}, {"type": "node", "id": 7393995558, "lat": 41.9526131, "lon": -87.6494803, "tags": {"amenity": "cafe", "brand": "Starbucks", "brand:wikidata": "Q37158", "brand:wikipedia": "en:Starbucks", "cuisine": "coffee_shop", "name": "Starbucks", "official_name": "Starbucks Coffee", "takeaway": "yes"}}, {"type": "way", "id": 158622286, "nodes": [1707846189, 1707846196, 1707846198, 1707846206, 1707846207, 1707846203, 1707846189], "tags": {"addr:city": "Chicago", "addr:housenumber": "3664", "addr:postcode": "60613", "addr:state": "IL", "addr:street": "North Clark Street", "addr:street:name": "Clark", "addr:street:prefix": "North", "addr:street:type": "Street", "amenity": "bar", "building": "yes", "building:levels": "2", "chicago:building_id": "858483", "name": "Bernie's Tavern", "phone": "+1-773-525-1898", "website": "https://bernieschicago.com/"}}, {"type": "way", "id": 210328565, "nodes": [2204141516, 2204141593, 2204141595, 2204141590, 2204141519, 2204141516], "tags": {"addr:housenumber": "1017", "addr:street": "West Irving Park Road", "addr:street:name": "Irving Park", "addr:street:prefix": "West", "addr:street:type": "Road", "amenity": "restaurant", "building": "yes", "building:levels": "1", "chicago:building_id": "151584", "name": "Byron's Hot Dogs"}}, {"type": "way", "id": 210329583, "nodes": [2204119458, 2204119738, 2204119487, 2204119217, 2204119458], "tags": {"addr:housenumber": "3461", "addr:street": "North Clark Street", "addr:street:name": "Clark", "addr:street:prefix": "North", "addr:street:type": "Street", "amenity": "restaurant", "building": "yes", "chicago:building_id": "882929", "cuisine": "middle_eastern", "name": "Zam Zam", "website": "http://www.zamzammiddleeasterngrillil.com/"}}, {"type": "way", "id": 210329586, "nodes": [2204119738, 2204119458, 2204119688, 2204120016, 2204119738], "tags": {"addr:housenumber": "3463", "addr:street": "North Clark Street", "addr:street:name": "Clark", "addr:street:prefix": "North", "addr:street:type": "Street", "amenity": "restaurant", "building": "yes", "chicago:building_id": "882930", "cuisine": "pizza", "name": "Dimo's", "website": "https://dimospizza.com/"}}, {"type": "way", "id": 210330261, "nodes": [2204135999, 2204136034, 2204136027, 2204136136, 2204136138, 2204136014, 2204135999], "tags": {"addr:city": "Chicago", "addr:housenumber": "3760", "addr:postcode": "60613", "addr:state": "IL", "addr:street": "North Broadway", "addr:street:name": "Broadway", "addr:street:prefix": "North", "amenity": "restaurant", "brand": "IHOP", "brand:wikidata": "Q1185675", "brand:wikipedia": "en:IHOP", "building": "yes", "building:levels": "1", "chicago:building_id": "161117", "cuisine": "breakfast;pancake", "name": "IHOP"}}, {"type": "way", "id": 210381773, "nodes": [2204571338, 2204571339, 2204571348, 2204571351, 2204571352, 2204571534, 2204571535, 2204571929, 2204571938, 2204571363, 2204571359, 2204571353, 2204571349, 2204571342, 2204571340, 2204571344, 2204571338], "tags": {"addr:city": "Chicago", "addr:housenumber": "910", "addr:postcode": "60613", "addr:state": "IL", "addr:street": "West Buena Avenue", "addr:street:name": "Broadway", "addr:street:prefix": "North", "amenity": "bar", "building": "yes", "chicago:building_id": "136234", "name": "Bar on Buena", "phone": "+1-773-525-8665", "website": "https://www.baronbuena.com/"}}]}