{"version": 0.6, "generator": "Overpass API 0.7.56.1004 6cd3eaec", "osm3s": {"timestamp_osm_base": "2020-07-22T01:55:03Z", "copyright": "The data included in this document is from www.openstreetmap.org. The data is made available under ODbL."}, "elements": [{"type": "node", "id": 358581588, "lat": 42.0197963, "lon": -87.6906771}, {"type": "node", "id": 451938921, "lat": 42.0192038, "lon": -87.6896363, "tags": {"addr:city": "Chicago", "addr:housenumber": "2349", "addr:postcode": "60645", "addr:street": "West Howard Street", "amenity": "restaurant", "cuisine": "pizza", "name": "Tapia's Pizza", "website": "http://www.tapiaspizza.com/"}}, {"type": "node", "id": 1931094213, "lat": 42.0198127, "lon": -87.6906779}, {"type": "node", "id": 1931094243, "lat": 42.0198049, "lon": -87.6903393}, {"type": "node", "id": 1931094270, "lat": 42.0198119, "lon": -87.6907091}, {"type": "node", "id": 1931094275, "lat": 42.0198791, "lon": -87.6907122}, {"type": "node", "id": 1931094277, "lat": 42.0198885, "lon": -87.6903432}, {"type": "node", "id": 2197894646, "lat": 42.0169793, "lon": -87.6906052}, {"type": "node", "id": 2197894650, "lat": 42.0169819, "lon": -87.6905702}, {"type": "node", "id": 2197894673, "lat": 42.016986, "lon": -87.6903843}, {"type": "node", "id": 2197895015, "lat": 42.0170537, "lon": -87.6906055}, {"type": "node", "id": 2197895025, "lat": 42.0170585, "lon": -87.6903836}, {"type": "node", "id": 2197897472, "lat": 42.0174008, "lon": -87.6905432}, {"type": "node", "id": 2197897477, "lat": 42.0174008, "lon": -87.6905089}, {"type": "node", "id": 2197897495, "lat": 42.0173986, "lon": -87.6907555}, {"type": "node", "id": 2197897501, "lat": 42.0174009, "lon": -87.6903778}, {"type": "node", "id": 2197897507, "lat": 42.0173988, "lon": -87.6905584}, {"type": "node", "id": 2197898793, "lat": 42.0175109, "lon": -87.6905433}, {"type": "node", "id": 2197898796, "lat": 42.0175109, "lon": -87.6905586}, {"type": "node", "id": 2197899137, "lat": 42.0176065, "lon": -87.6903781}, {"type": "node", "id": 2197899171, "lat": 42.0176254, "lon": -87.690756}, {"type": "node", "id": 2197899227, "lat": 42.0176258, "lon": -87.6903981}, {"type": "node", "id": 2201099531, "lat": 42.0191354, "lon": -87.6773646}, {"type": "node", "id": 2201099535, "lat": 42.0191376, "lon": -87.6774989}, {"type": "node", "id": 2201099626, "lat": 42.0193083, "lon": -87.6773592}, {"type": "node", "id": 2201099627, "lat": 42.0193104, "lon": -87.6774935}, {"type": "node", "id": 2294091480, "lat": 42.0195987, "lon": -87.6793902, "tags": {"addr:city": "Evanston", "addr:housenumber": "623", "addr:postcode": "60202", "addr:state": "IL", "addr:street": "Howard Street", "addr:street:name": "Howard", "addr:street:type": "Street", "amenity": "restaurant", "cuisine": "pub", "name": "Peckish Pig", "phone": "+1-847-491-6778"}}, {"type": "node", "id": 2294091789, "lat": 42.0196361, "lon": -87.6810712, "tags": {"addr:city": "Evanston", "addr:housenumber": "711", "addr:postcode": "60202", "addr:street": "Howard Street", "addr:street:name": "Howard", "addr:street:type": "Street", "amenity": "restaurant", "cuisine": "jamaican", "name": "Good To Go", "website": "https://www.goodtogorestaurant.com/"}}, {"type": "node", "id": 2294092487, "lat": 42.0198035, "lon": -87.6848993, "tags": {"addr:city": "Evanston", "addr:housenumber": "951", "addr:postcode": "60202", "addr:state": "IL", "addr:street": "Howard Street", "addr:street:name": "Howard", "addr:street:type": "Street", "amenity": "restaurant", "brand": "Pizza Hut", "brand:wikidata": "Q191615", "brand:wikipedia": "en:Pizza Hut", "cuisine": "pizza", "name": "Pizza Hut"}}, {"type": "node", "id": 2990179090, "lat": 42.010791, "lon": -87.67421, "tags": {"amenity": "restaurant", "cuisine": "ice_cream", "name": "Something North"}}, {"type": "node", "id": 3226937301, "lat": 42.0084448, "lon": -87.6899119, "tags": {"addr:city": "Chicago", "addr:housenumber": "6977", "addr:postcode": "60645", "addr:state": "IL", "addr:street": "North Western Avenue", "amenity": "restaurant", "name": "Mike's Place"}}, {"type": "node", "id": 4069098504, "lat": 42.0124817, "lon": -87.6744293, "tags": {"addr:housenumber": "7137", "addr:street": "North Clark Street", "amenity": "restaurant", "contact:phone": "773-961-7676", "name": "Markello's Dining Restaurant", "website": "http://markellosonline.com/"}}, {"type": "node", "id": 6003901906, "lat": 42.019601, "lon": -87.6796746, "tags": {"addr:housenumber": "629", "addr:street": "Howard Street", "amenity": "bar", "description": "cocktail bar", "name": "Ward Eight", "opening_hours": "Su 17:00-23:00; Mo-Th 17:00-00:00; Fr,Sa 17:00-02:00", "website": "https://www.wardeight.com/"}}, {"type": "node", "id": 6261192011, "lat": 42.0194049, "lon": -87.689176, "tags": {"addr:city": "Chicago", "addr:housenumber": "2335", "addr:postcode": "60645", "addr:state": "IL", "addr:street": "West Howard Street", "amenity": "bar", "name": "American Ale House", "phone": "+1-773-743-1090"}}, {"type": "node", "id": 6298772685, "lat": 42.0099898, "lon": -87.6745597, "tags": {"addr:city": "Chicago", "addr:housenumber": "7030", "addr:postcode": "60626", "addr:state": "IL", "addr:street": "North Clark Street", "amenity": "bar", "name": "Silvana Bar", "phone": "+1-773-465-8590"}}, {"type": "node", "id": 6298916801, "lat": 42.0192074, "lon": -87.6720795, "tags": {"addr:city": "Chicago", "addr:housenumber": "1615", "addr:postcode": "60626", "addr:state": "IL", "addr:street": "West Howard Street", "amenity": "cafe", "name": "Sol Cafe", "phone": "+1-773-961-8289", "website": "http://www.solcafechi.com/"}}, {"type": "node", "id": 6300979402, "lat": 42.0116351, "lon": -87.6899226, "tags": {"addr:city": "Chicago", "addr:housenumber": "7121", "addr:postcode": "60645", "addr:state": "IL", "addr:street": "North Western Avenue", "amenity": "bar", "name": "Ricky G\u2019s", "phone": "+1-773-764-0322"}}, {"type": "node", "id": 6322803004, "lat": 42.0193059, "lon": -87.679579, "tags": {"addr:city": "Chicago", "addr:housenumber": "1951", "addr:postcode": "60626", "addr:state": "IL", "addr:street": "West Howard Street", "amenity": "bar", "name": "Monsen\u2019s Tally Ho Pub", "phone": "+1-773-508-6789"}}, {"type": "node", "id": 6412790908, "lat": 42.0097903, "lon": -87.6744103, "tags": {"addr:city": "Chicago", "addr:housenumber": "7024", "addr:postcode": "60626", "addr:state": "IL", "addr:street": "North Clark Street", "amenity": "restaurant", "cuisine": "mexican", "name": "Tamales Lo Mejor De Guerrero", "opening_hours": "Tu-Su 05:00-20:00", "phone": "+1-773-338-6450"}}, {"type": "node", "id": 6412790976, "lat": 42.0099178, "lon": -87.6739865, "tags": {"addr:city": "Chicago", "addr:housenumber": "7027", "addr:postcode": "60626", "addr:state": "IL", "addr:street": "North Clark Street", "amenity": "restaurant", "cuisine": "mexican", "name": "El Sabor Pobloano", "opening_hours": "Su-Mo 08:00-21:00; We-Th 08:00-21:00; Fr-Sa 08:00-22:00"}}, {"type": "node", "id": 6412792357, "lat": 42.0097145, "lon": -87.6744344, "tags": {"addr:city": "Chicago", "addr:housenumber": "7022", "addr:postcode": "60626", "addr:state": "IL", "addr:street": "North Clark Street", "amenity": "restaurant", "cuisine": "mexican", "name": "La Choza Mexican Grill", "phone": "+1-773-465-2162", "website": "Su-Th 10:00-00:00;Fr-Sa 10:00-02:00"}}, {"type": "node", "id": 6412795318, "lat": 42.0096687, "lon": -87.6739181, "tags": {"addr:city": "Chicago", "addr:housenumber": "7021", "addr:postcode": "60626", "addr:state": "IL", "addr:street": "North Clark Street", "amenity": "restaurant", "cuisine": "mexican", "name": "Birrier\u00eda Y Carnitas El Gallito", "opening_hours": "Mo-Su 09:00-21:00", "phone": "+1-773-901-9067", "website": "http://orderbirreriaycarnitaselgallito.com"}}, {"type": "node", "id": 6412805955, "lat": 42.015552, "lon": -87.6753864, "tags": {"addr:city": "Chicago", "addr:housenumber": "7360", "addr:postcode": "60626", "addr:state": "IL", "addr:street": "North Clark Street", "amenity": "restaurant", "cuisine": "mexican;tacos", "name": "Restaurante Cuetzala Gro", "phone": "+1-773-262-9417", "website": "http://www.restaurantcuetzala.com"}}, {"type": "node", "id": 6412813680, "lat": 42.0073012, "lon": -87.6738079, "tags": {"addr:city": "Chicago", "addr:housenumber": "6922", "addr:postcode": "60626", "addr:state": "IL", "addr:street": "North Clark Street", "amenity": "restaurant", "cuisine": "mexican", "name": "El Pecado Mexican Restaurant", "phone": "+1-773-681-0220", "website": "http://orderelpecadomexicanrestaurant.com/"}}, {"type": "node", "id": 6412822257, "lat": 42.0104528, "lon": -87.6740973, "tags": {"addr:city": "Chicago", "addr:housenumber": "7047", "addr:postcode": "60626", "addr:state": "IL", "addr:street": "North Clark Street", "amenity": "restaurant", "cuisine": "mexican", "name": "El Famous Burrito", "phone": "+1-773-465-0377"}}, {"type": "node", "id": 6412827080, "lat": 42.0103581, "lon": -87.674002, "tags": {"addr:city": "Chicago", "addr:housenumber": "7043", "addr:postcode": "60626", "addr:state": "IL", "addr:street": "North Clark Street", "amenity": "restaurant", "cuisine": "tacos;mexican", "name": "Rocky's Tacos", "phone": "+1-773-274-4555"}}, {"type": "node", "id": 6412828571, "lat": 42.0123579, "lon": -87.6749547, "tags": {"addr:city": "Chicago", "addr:housenumber": "7138", "addr:postcode": "60626", "addr:state": "IL", "addr:street": "North Clark Street", "amenity": "restaurant", "cuisine": "mexican", "name": "Su Taqueria El Rey Del Taco y Sus Mariscos", "phone": "+1-773-274-9004"}}, {"type": "node", "id": 6651820248, "lat": 42.0093864, "lon": -87.6730635, "tags": {"addr:city": "Chicago", "addr:housenumber": "1716", "addr:postcode": "60626", "addr:state": "IL", "addr:street": "West Lunt Avenue", "amenity": "restaurant", "cuisine": "indian;vegetarean", "name": "Krishna Lunch", "phone": "+1-773-973-0900", "website": "http://www.iskconchicago.com/programs/krishna-lunch/"}}, {"type": "node", "id": 6981473578, "lat": 42.015884, "lon": -87.6698798, "tags": {"addr:city": "Chicago", "addr:housenumber": "1547", "addr:postcode": "60626", "addr:state": "IL", "addr:street": "West Jarvis Avenue", "amenity": "restaurant", "description": "Relaxed, modern eatery offering Italian starters, salads, pasta & pizza slices over the counter.", "name": "Anto Pizza & Pasta Chicago", "opening_hours": "Mo-Th, Su 12:00-21:00; Fr, Sa 12:00-22:00", "phone": "+1 773-942-7427"}}, {"type": "way", "id": 182753442, "nodes": [358581588, 1931094213, 1931094270, 1931094275, 1931094277, 1931094243, 358581588], "tags": {"addr:city": "Evanston", "addr:housenumber": "100", "addr:postcode": "60202", "addr:state": "IL", "addr:street": "Asbury Avenue", "addr:street:name": "Asbury", "addr:street:type": "Avenue", "amenity": "restaurant", "brand": "IHOP", "brand:wikidata": "Q1185675", "brand:wikipedia": "en:IHOP", "building": "retail", "cuisine": "breakfast;pancake", "name": "IHOP", "opening_hours": "24/7", "website": "http://restaurants.ihop.com/il/evanston/1203/"}}, {"type": "way", "id": 209593070, "nodes": [2197895015, 2197895025, 2197894673, 2197894650, 2197894646, 2197895015], "tags": {"addr:city": "Chicago", "addr:housenumber": "7436", "addr:postcode": "60645", "addr:street": "North Western Avenue", "addr:street:name": "Western", "addr:street:prefix": "North", "addr:street:type": "Avenue", "amenity": "bar", "building": "yes", "building:levels": "1", "chicago:building_id": "841251", "name": "Mark II Lounge", "website": "http://www.mark2lounge.com/"}}, {"type": "way", "id": 209593268, "nodes": [2197897495, 2197899171, 2197899227, 2197899137, 2197897501, 2197897477, 2197897472, 2197898793, 2197898796, 2197897507, 2197897495], "tags": {"addr:city": "Chicago", "addr:housenumber": "7452", "addr:postcode": "60645", "addr:street": "North Western Avenue", "addr:street:name": "Western", "addr:street:prefix": "North", "addr:street:type": "Avenue", "amenity": "bar", "building": "yes", "building:levels": "1", "chicago:building_id": "841248", "cuisine": "pizza", "name": "Candelite", "website": "http://www.candlelitechicago.com/"}}, {"type": "way", "id": 209958942, "nodes": [2201099531, 2201099535, 2201099627, 2201099626, 2201099531], "tags": {"addr:city": "Chicago", "addr:housenumber": "1841", "addr:postcode": "60626", "addr:street": "West Howard Street", "addr:street:name": "Howard", "addr:street:prefix": "West", "addr:street:type": "Street", "amenity": "restaurant", "building": "yes", "building:levels": "1", "chicago:building_id": "440", "cuisine": "chicken", "name": "Buffalo Joe's"}}]}