{"version": 0.6, "generator": "Overpass API 0.7.56.1004 6cd3eaec", "osm3s": {"timestamp_osm_base": "2020-07-22T01:58:02Z", "copyright": "The data included in this document is from www.openstreetmap.org. The data is made available under ODbL."}, "elements": [{"type": "node", "id": 354268767, "lat": 41.8679269, "lon": -87.680254}, {"type": "node", "id": 961812116, "lat": 41.8691031, "lon": -87.6858588, "tags": {"addr:city": "Chicago", "addr:housenumber": "939", "addr:postcode": "60612", "addr:state": "IL", "addr:street": "South Western Avenue", "amenity": "bar", "name": "The Slide Bar", "phone": "1-312-421-4860", "website": "https://www.theslidebarchicago.com/"}}, {"type": "node", "id": 2200380931, "lat": 41.8714182, "lon": -87.6759677}, {"type": "node", "id": 2200380932, "lat": 41.867773, "lon": -87.6736339}, {"type": "node", "id": 2200380941, "lat": 41.8659414, "lon": -87.6729741}, {"type": "node", "id": 2200380949, "lat": 41.8683982, "lon": -87.6701205}, {"type": "node", "id": 2200380953, "lat": 41.8714981, "lon": -87.6714026}, {"type": "node", "id": 2200380956, "lat": 41.8676452, "lon": -87.6714453}, {"type": "node", "id": 2200380958, "lat": 41.8659819, "lon": -87.6702726}, {"type": "node", "id": 2200380963, "lat": 41.8715141, "lon": -87.6702975}, {"type": "node", "id": 2200380970, "lat": 41.8669681, "lon": -87.6695519}, {"type": "node", "id": 2200380989, "lat": 41.8669599, "lon": -87.6687265}, {"type": "node", "id": 2200380994, "lat": 41.8725103, "lon": -87.6707177}, {"type": "node", "id": 2200380995, "lat": 41.8666884, "lon": -87.6729976}, {"type": "node", "id": 2200381003, "lat": 41.8650845, "lon": -87.6694765}, {"type": "node", "id": 2200381004, "lat": 41.8676153, "lon": -87.6736235}, {"type": "node", "id": 2200381006, "lat": 41.867847, "lon": -87.6665964}, {"type": "node", "id": 2200381008, "lat": 41.871582, "lon": -87.6666929}, {"type": "node", "id": 2200381017, "lat": 41.8677391, "lon": -87.6761126}, {"type": "node", "id": 2200381020, "lat": 41.8669401, "lon": -87.6671862}, {"type": "node", "id": 2200381022, "lat": 41.8690733, "lon": -87.6759087}, {"type": "node", "id": 2200381031, "lat": 41.8683703, "lon": -87.671467}, {"type": "node", "id": 2200381045, "lat": 41.867841, "lon": -87.667202}, {"type": "node", "id": 2200381061, "lat": 41.8679892, "lon": -87.6761142}, {"type": "node", "id": 2200381064, "lat": 41.8667244, "lon": -87.6700722}, {"type": "node", "id": 2200381068, "lat": 41.8689974, "lon": -87.68027}, {"type": "node", "id": 2200381071, "lat": 41.8669361, "lon": -87.6673578}, {"type": "node", "id": 2200381078, "lat": 41.8727843, "lon": -87.6703405}, {"type": "node", "id": 2200381080, "lat": 41.8728263, "lon": -87.6704206}, {"type": "node", "id": 2200633104, "lat": 41.8724946, "lon": -87.6714394}, {"type": "node", "id": 2200633113, "lat": 41.8728197, "lon": -87.6707318}, {"type": "node", "id": 2468069259, "lat": 41.871623, "lon": -87.6703012}, {"type": "node", "id": 3264147413, "lat": 41.8650703, "lon": -87.6702447}, {"type": "node", "id": 5926633071, "lat": 41.8669451, "lon": -87.667873}, {"type": "node", "id": 5926633072, "lat": 41.8669575, "lon": -87.6685864}, {"type": "node", "id": 6285863501, "lat": 41.8625051, "lon": -87.6868715, "tags": {"addr:city": "Chicago", "addr:housenumber": "2419", "addr:postcode": "60608", "addr:state": "IL", "addr:street": "West 14th Street", "amenity": "restaurant", "cuisine": "american", "name": "EL Ideas", "phone": "+1-312-226-8144", "website": "http://www.elideas.com/"}}, {"type": "node", "id": 6306569202, "lat": 41.8664035, "lon": -87.6873129, "tags": {"addr:city": "Chicago", "addr:housenumber": "2431", "addr:postcode": "60608", "addr:state": "IL", "addr:street": "West Roosevelt Road", "amenity": "cafe", "name": "Chicago Hope Cafe", "phone": "+1-312-491-1600"}}, {"type": "node", "id": 6314890056, "lat": 41.8688898, "lon": -87.6833702, "tags": {"addr:city": "Chicago", "addr:housenumber": "2255", "addr:postcode": "60612", "addr:state": "IL", "addr:street": "West Taylor Street", "amenity": "restaurant", "name": "Jarabe- Mexican Street Food", "phone": "+1-312-725-0507", "website": "http://www.jarabechicago.com/"}}, {"type": "node", "id": 6316691060, "lat": 41.8627522, "lon": -87.6863494, "tags": {"addr:city": "Chicago", "addr:housenumber": "1400", "addr:postcode": "60608", "addr:state": "IL", "addr:street": "South Western Avenue", "amenity": "bar", "name": "Water Hole Lounge", "phone": "+1-312-243-7988", "website": "https://waterholechicago.wixsite.com/waterholechicago"}}, {"type": "node", "id": 6320625801, "lat": 41.8711143, "lon": -87.6743989, "tags": {"addr:city": "Chicago", "addr:housenumber": "818", "addr:postcode": "60612", "addr:state": "IL", "addr:street": "South Wolcott Avenue", "amenity": "restaurant", "name": "Lotus Banh Mi", "phone": "+1-312-733-7595", "website": "http://www.lotusbanhmi.com/"}}, {"type": "node", "id": 6572921976, "lat": 41.8688719, "lon": -87.6839294, "tags": {"addr:city": "Chicago", "addr:housenumber": "2301", "addr:postcode": "60612", "addr:state": "IL", "addr:street": "West Taylor Street", "amenity": "restaurant", "cuisine": "pizza", "name": "Bacci Pizzeria", "opening_hours": "Mo-Su 10:00-22:00", "phone": "+1-312-455-9000"}}, {"type": "node", "id": 6790723749, "lat": 41.8727532, "lon": -87.6768999, "tags": {"amenity": "cafe", "brand": "Starbucks", "brand:wikidata": "Q37158", "brand:wikipedia": "en:Starbucks", "cuisine": "coffee_shop", "name": "Starbucks", "official_name": "Starbucks Coffee", "takeaway": "yes"}}, {"type": "node", "id": 6883621708, "lat": 41.8703585, "lon": -87.675941}, {"type": "node", "id": 6883621709, "lat": 41.8701725, "lon": -87.6759364}, {"type": "way", "id": 209879618, "nodes": [354268767, 2200381068, 2200381022, 6883621709, 6883621708, 2200380931, 2200380953, 2200633104, 2200380994, 2200633113, 2200381080, 2200381078, 2468069259, 2200380963, 2200381008, 2200381006, 2200381045, 2200381020, 2200381071, 5926633071, 5926633072, 2200380989, 2200380970, 2200381003, 3264147413, 2200380958, 2200380941, 2200380995, 2200381064, 2200380949, 2200381031, 2200380956, 2200381004, 2200380932, 2200381017, 2200381061, 354268767], "tags": {"amenity": "university", "ele": "181", "gnis:county_id": "031", "gnis:created": "05/03/1999", "gnis:feature_id": "1837072", "gnis:state_id": "17", "name": "University of Illinois at Chicago West Campus"}}]}