{"version": 0.6, "generator": "Overpass API 0.7.56.3 eb200aeb", "osm3s": {"timestamp_osm_base": "2020-07-04T02:49:02Z", "copyright": "The data included in this document is from www.openstreetmap.org. The data is made available under ODbL."}, "elements": [{"type": "node", "id": 2196110741, "lat": 41.9030759, "lon": -87.6956077}, {"type": "node", "id": 2196110744, "lat": 41.9030768, "lon": -87.6955287}, {"type": "node", "id": 2196110833, "lat": 41.9031191, "lon": -87.6909479}, {"type": "node", "id": 2196110839, "lat": 41.9031207, "lon": -87.6908429}, {"type": "node", "id": 2196110988, "lat": 41.9032316, "lon": -87.6909483}, {"type": "node", "id": 2196111001, "lat": 41.9032332, "lon": -87.6908454}, {"type": "node", "id": 2196111201, "lat": 41.9033435, "lon": -87.6956142}, {"type": "node", "id": 2196111203, "lat": 41.9033444, "lon": -87.6955353}, {"type": "node", "id": 3570191046, "lat": 41.9128303, "lon": -87.6972374, "tags": {"amenity": "restaurant", "cuisine": "puerto_rican", "name": "El Nuevo Borinquen"}}, {"type": "node", "id": 3581811866, "lat": 41.9107207, "lon": -87.7070256, "tags": {"amenity": "restaurant", "cuisine": "sushi", "name": "Zoku Sushi"}}, {"type": "node", "id": 3659172691, "lat": 41.9100888, "lon": -87.6938521, "tags": {"addr:city": "Chicago", "addr:housenumber": "2465", "addr:postcode": "60622", "addr:state": "IL", "addr:street": "West North Avenue", "amenity": "bar", "name": "Boulevard Sports Lounge", "phone": "+1-773-687-8456", "website": "http://www.boulevardsportslounge.com/"}}, {"type": "node", "id": 3659172692, "lat": 41.910114, "lon": -87.6927745, "tags": {"amenity": "cafe", "name": "Se\u00f1or Pan Cafe"}}, {"type": "node", "id": 3660358397, "lat": 41.9101245, "lon": -87.6901188, "tags": {"amenity": "pub", "name": "West On North"}}, {"type": "node", "id": 3664687674, "lat": 41.9055766, "lon": -87.7006028, "tags": {"addr:city": "Chicago", "addr:housenumber": "1301", "addr:postcode": "60622", "addr:state": "IL", "addr:street": "North Humboldt Drive", "amenity": "cafe", "name": "The Boathouse Cafe", "phone": "+1-312-838-6205"}}, {"type": "node", "id": 3673559735, "lat": 41.9103602, "lon": -87.7013592, "tags": {"addr:city": "Chicago", "addr:housenumber": "2958", "addr:postcode": "60647", "addr:state": "IL", "addr:street": "West North Avenue", "amenity": "restaurant", "name": "Humboldt Haus", "phone": "+1-773-697-9590"}}, {"type": "node", "id": 3673564376, "lat": 41.9103428, "lon": -87.703029, "tags": {"addr:city": "Chicago", "addr:housenumber": "3018", "addr:postcode": "60647", "addr:state": "IL", "addr:street": "West North Avenue", "amenity": "bar", "name": "Humble Bar & Lounge", "phone": "+1-773-661-2419"}}, {"type": "node", "id": 4039273390, "lat": 41.9135894, "lon": -87.6972582, "tags": {"addr:city": "Chicago", "addr:country": "US", "addr:housenumber": "1752", "addr:postcode": "60647", "addr:state": "IL", "addr:street": "North California Avenue", "amenity": "cafe", "name": "Donut Delight"}}, {"type": "node", "id": 4363752189, "lat": 41.9023766, "lon": -87.6967084, "tags": {"addr:city": "Chicago", "addr:housenumber": "1143", "addr:postcode": "60622", "addr:state": "IL", "addr:street": "North California Avenue", "amenity": "restaurant", "cuisine": "american", "name": "Bullhead Cantina", "name:en": "Bullhead Cantina", "phone": "+1-773-250-0567", "website": "http://bullheadcantina.com/"}}, {"type": "node", "id": 4697800145, "lat": 41.9031227, "lon": -87.6935215, "tags": {"addr:city": "Chicago", "addr:housenumber": "2638", "addr:postcode": "60622", "addr:state": "IL", "addr:street": "West Division Street", "amenity": "cafe", "name": "Caf\u00e9 Colao", "phone": "+1-773-799-8454", "website": "https://www.cafecolaochicago.com/"}}, {"type": "node", "id": 5794904574, "lat": 41.909773, "lon": -87.7071905, "tags": {"addr:city": "Chicago", "addr:housenumber": "1552", "addr:postcode": "60651", "addr:state": "IL", "addr:street": "North Kedzie Avenue", "amenity": "restaurant", "cuisine": "colombian", "delivery": "yes", "name": "ArePA George", "opening_hours": "Tu-Fr 11:00-19:00; Sa 11:00-20:00; Su 11:00-16:00", "outdoor_seating": "no", "phone": "+1-773-969-7945", "smoking": "no", "takeaway": "yes"}}, {"type": "node", "id": 6249982165, "lat": 41.9101156, "lon": -87.6927943, "tags": {"addr:city": "Chicago", "addr:housenumber": "2615", "addr:postcode": "60647", "addr:state": "IL", "addr:street": "West North Avenue", "amenity": "restaurant", "cuisine": "cuban", "name": "1492 Cuban Fusion", "phone": "+1-773 227-9601", "website": "http://1492cubanfusion.com/"}}, {"type": "node", "id": 6269184366, "lat": 41.9100775, "lon": -87.6900295, "tags": {"addr:city": "Chicago", "addr:housenumber": "2507", "addr:postcode": "60647", "addr:state": "IL", "addr:street": "West North Avenue", "amenity": "restaurant", "name": "Bulerias Tapas Bar", "phone": "+1-773-404-2855", "website": "http://www.buleriastapas.com/"}}, {"type": "node", "id": 6294262005, "lat": 41.9027426, "lon": -87.6904806, "tags": {"addr:city": "Chicago", "addr:housenumber": "2525", "addr:postcode": "60622", "addr:state": "IL", "addr:street": "West Division Street", "amenity": "restaurant", "name": "The Chicago Teachers\u2019 Lounge & Eatery", "phone": "+1-773-366-8700", "website": "https://www.thechicagoteacherslounge.com/"}}, {"type": "node", "id": 6323063285, "lat": 41.9033048, "lon": -87.689323, "tags": {"addr:city": "Chicago", "addr:housenumber": "2458", "addr:postcode": "60622", "addr:state": "IL", "addr:street": "West Division Street", "amenity": "restaurant", "name": "Nellie\u2019s", "phone": "+1-773-252-5520", "website": "https://www.nelliesrestaurant.com/"}}, {"type": "node", "id": 6324324927, "lat": 41.902745, "lon": -87.6902284, "tags": {"addr:city": "Chicago", "addr:housenumber": "2517", "addr:postcode": "60622", "addr:state": "IL", "addr:street": "West Division Street", "amenity": "restaurant", "name": "Papa\u2019s Cache Sabroso", "phone": "+1-773-862-8313", "website": "http://www.papascache.com/"}}, {"type": "way", "id": 209390479, "nodes": [2196110833, 2196110988, 2196111001, 2196110839, 2196110833], "tags": {"addr:housenumber": "2534", "addr:street": "West Division Street", "addr:street:name": "Division", "addr:street:prefix": "West", "addr:street:type": "Street", "amenity": "restaurant", "building": "yes", "chicago:building_id": "860071", "cuisine": "pizza", "name": "Guerrero's Tacos and Pizza", "wheelchair": "yes"}}, {"type": "way", "id": 209391564, "nodes": [2196110741, 2196111201, 2196111203, 2196110744, 2196110741], "tags": {"addr:housenumber": "2726", "addr:street": "West Division Street", "addr:street:name": "Division", "addr:street:prefix": "West", "addr:street:type": "Street", "amenity": "restaurant", "building": "yes", "building:levels": "2", "chicago:building_id": "322673", "name": "La Bruquena", "wheelchair": "limited"}}]}