{"version": 0.6, "generator": "Overpass API 0.7.56.3 eb200aeb", "osm3s": {"timestamp_osm_base": "2020-07-21T19:57:03Z", "copyright": "The data included in this document is from www.openstreetmap.org. The data is made available under ODbL."}, "elements": [{"type": "node", "id": 2262363842, "lat": 41.968423, "lon": -87.7250172, "tags": {"addr:city": "Chicago", "addr:housenumber": "3914", "addr:postcode": "60625", "addr:state": "IL", "addr:street": "West Lawrence Avenue", "amenity": "restaurant", "cuisine": "sushi", "name": "Lawrence Fish Market", "phone": "+1-773-267-6838", "website": "https://drive.google.com/file/d/1fAi9C06HSz3wj7qBo7Pvrk6oEnyYUtuL/view"}}, {"type": "node", "id": 2297677072, "lat": 41.9681478, "lon": -87.7439183, "tags": {"addr:city": "Chicago", "addr:housenumber": "4624", "addr:postcode": "60630", "addr:street": "West Lawrence Avenue", "amenity": "restaurant", "cuisine": "middle_eastern", "name": "Hala In", "phone": "773-930-3612", "website": "http://www.hala-in.com/"}}, {"type": "node", "id": 2397800670, "lat": 41.9650696, "lon": -87.7444297, "tags": {"addr:city": "Chicago", "addr:housename": "Irish American Heritage Center", "addr:housenumber": "4626", "addr:postcode": "60630", "addr:street": "North Knox Avenue", "amenity": "bar", "name": "5th Province"}}, {"type": "node", "id": 6291740627, "lat": 41.9703599, "lon": -87.7283439, "tags": {"addr:city": "Chicago", "addr:housenumber": "4908", "addr:postcode": "60630", "addr:state": "IL", "addr:street": "North Pulaski Road", "amenity": "bar", "name": "Gamblers", "phone": "+1-773-545-3566", "website": "https://www.gamblerschicago.com/"}}, {"type": "node", "id": 6301096133, "lat": 41.9612494, "lon": -87.7221138, "tags": {"addr:city": "Chicago", "addr:housenumber": "3740", "addr:postcode": "60618", "addr:state": "IL", "addr:street": "West Montrose Avenue", "amenity": "restaurant", "name": "Ruby\u2019s Fast Food", "phone": "+1-773-539-2669"}}, {"type": "node", "id": 6301874985, "lat": 41.9708243, "lon": -87.7440371, "tags": {"addr:city": "Chicago", "addr:housenumber": "4953", "addr:postcode": "60630", "addr:state": "IL", "addr:street": "North Elston Avenue", "amenity": "bar", "name": "Sunnyday Tap", "phone": "+1-773-725-5080"}}, {"type": "node", "id": 6323628623, "lat": 41.9624699, "lon": -87.732191, "tags": {"addr:city": "Chicago", "addr:housenumber": "4500", "addr:postcode": "60630", "addr:state": "IL", "addr:street": "North Elston Avenue", "amenity": "bar", "name": "O\u2019Donnell\u2019s", "phone": "+1-773-282-0813"}}, {"type": "node", "id": 6968019524, "lat": 41.9611269, "lon": -87.7263816, "tags": {"addr:city": "Chicago", "addr:housenumber": "3930", "addr:state": "IL", "addr:street": "West Montrose Avenue", "amenity": "restaurant", "cuisine": "mexican", "name": "Taqueria La Fogata"}}]}