{"version": 0.6, "generator": "Overpass API 0.7.56.1004 6cd3eaec", "osm3s": {"timestamp_osm_base": "2020-07-22T00:58:02Z", "copyright": "The data included in this document is from www.openstreetmap.org. The data is made available under ODbL."}, "elements": [{"type": "node", "id": 346233089, "lat": 41.9612616, "lon": -87.6835267, "tags": {"amenity": "cafe", "cuisine": "coffee_shop", "name": "Julius Meinl"}}, {"type": "node", "id": 347301872, "lat": 41.9547023, "lon": -87.6789343, "tags": {"amenity": "cafe", "brand": "Starbucks", "brand:wikidata": "Q37158", "brand:wikipedia": "en:Starbucks", "cuisine": "coffee_shop", "name": "Starbucks", "official_name": "Starbucks Coffee", "takeaway": "yes"}}, {"type": "node", "id": 414253932, "lat": 41.9605249, "lon": -87.6836882}, {"type": "node", "id": 414253933, "lat": 41.9608674, "lon": -87.6836899}, {"type": "node", "id": 414253934, "lat": 41.9605679, "lon": -87.6833952}, {"type": "node", "id": 1317827212, "lat": 41.9616108, "lon": -87.6796436, "tags": {"amenity": "restaurant", "brand": "Giordano's Pizzeria", "brand:wikidata": "Q5563393", "brand:wikipedia": "en:Giordano's Pizzeria", "cuisine": "pizza", "name": "Giordano's Pizzeria"}}, {"type": "node", "id": 1317862227, "lat": 41.959724, "lon": -87.6828837, "tags": {"addr:city": "Chicago", "addr:housenumber": "4300", "addr:postcode": "60618", "addr:state": "IL", "addr:street": "North Lincoln Avenue", "amenity": "restaurant", "name": "The Bad Apple", "phone": "+1-773-360-8406", "website": "http://www.badapplebar.com/"}}, {"type": "node", "id": 1432788850, "lat": 41.9610993, "lon": -87.6839782, "tags": {"amenity": "bar", "name": "Tiny Lounge"}}, {"type": "node", "id": 1432788851, "lat": 41.961224, "lon": -87.6839822, "tags": {"amenity": "restaurant", "cuisine": "american", "name": "Monty Gael's"}}, {"type": "node", "id": 1557244581, "lat": 41.959466, "lon": -87.6826489, "tags": {"addr:city": "Chicago", "addr:housenumber": "4264", "addr:postcode": "60618", "addr:state": "IL", "addr:street": "North Lincoln Avenue", "amenity": "bar", "name": "Gannon\u2019s Pub", "phone": "+1-773-281-1007", "website": "http://www.gannonspub.com/"}}, {"type": "node", "id": 1557259859, "lat": 41.9612392, "lon": -87.6840893, "tags": {"amenity": "restaurant", "cuisine": "pizza", "name": "Apart Pizza"}}, {"type": "node", "id": 2196801934, "lat": 41.9479014, "lon": -87.6887666}, {"type": "node", "id": 2196801942, "lat": 41.9479059, "lon": -87.6885603}, {"type": "node", "id": 2196802912, "lat": 41.9479946, "lon": -87.6887051}, {"type": "node", "id": 2196802925, "lat": 41.9479123, "lon": -87.6885092}, {"type": "node", "id": 2196803265, "lat": 41.9483151, "lon": -87.6881156}, {"type": "node", "id": 2196803268, "lat": 41.9483155, "lon": -87.687941}, {"type": "node", "id": 2196803460, "lat": 41.948379, "lon": -87.6880139}, {"type": "node", "id": 2196803462, "lat": 41.94838, "lon": -87.6879422}, {"type": "node", "id": 2196803476, "lat": 41.9483851, "lon": -87.6881168}, {"type": "node", "id": 2196803481, "lat": 41.948386, "lon": -87.6880304}, {"type": "node", "id": 2196816832, "lat": 41.9536122, "lon": -87.6993319}, {"type": "node", "id": 2196816834, "lat": 41.9536144, "lon": -87.69924}, {"type": "node", "id": 2196816858, "lat": 41.9536295, "lon": -87.6992417}, {"type": "node", "id": 2196816860, "lat": 41.9536307, "lon": -87.6992104}, {"type": "node", "id": 2196817156, "lat": 41.9538331, "lon": -87.6993371}, {"type": "node", "id": 2196817161, "lat": 41.9538352, "lon": -87.6992158}, {"type": "node", "id": 2196852266, "lat": 41.9605686, "lon": -87.6831149}, {"type": "node", "id": 2196852275, "lat": 41.9605716, "lon": -87.6829126}, {"type": "node", "id": 2196852428, "lat": 41.9606238, "lon": -87.6831603}, {"type": "node", "id": 2196852486, "lat": 41.9606386, "lon": -87.6831178}, {"type": "node", "id": 2196852494, "lat": 41.9606407, "lon": -87.6829947}, {"type": "node", "id": 2196852573, "lat": 41.9606681, "lon": -87.6829944}, {"type": "node", "id": 2196852579, "lat": 41.960669, "lon": -87.6829153}, {"type": "node", "id": 2196853939, "lat": 41.9614408, "lon": -87.6909119, "tags": {"amenity": "restaurant", "name": "Cafe Lutz"}}, {"type": "node", "id": 2393667680, "lat": 41.9428218, "lon": -87.6908115}, {"type": "node", "id": 2393667751, "lat": 41.9438427, "lon": -87.6908432}, {"type": "node", "id": 2393685997, "lat": 41.9433922, "lon": -87.6922414}, {"type": "node", "id": 2393686008, "lat": 41.9435709, "lon": -87.6922429}, {"type": "node", "id": 2404188173, "lat": 41.9438372, "lon": -87.6914896}, {"type": "node", "id": 2601552510, "lat": 41.9407935, "lon": -87.6924228}, {"type": "node", "id": 2601552511, "lat": 41.9407937, "lon": -87.6925988}, {"type": "node", "id": 2601552512, "lat": 41.9407993, "lon": -87.6907578}, {"type": "node", "id": 2601552513, "lat": 41.9408234, "lon": -87.6927284}, {"type": "node", "id": 2601552514, "lat": 41.9409246, "lon": -87.6928977}, {"type": "node", "id": 2601552515, "lat": 41.9409972, "lon": -87.6929537}, {"type": "node", "id": 2601552516, "lat": 41.9414811, "lon": -87.6929985}, {"type": "node", "id": 2601552517, "lat": 41.9419666, "lon": -87.6907935}, {"type": "node", "id": 3011071566, "lat": 41.954188, "lon": -87.7017101, "tags": {"addr:city": "Chicago", "addr:housenumber": "2922", "addr:postcode": "60618", "addr:street": "West Irving Park Road", "amenity": "restaurant", "cuisine": "barbecue", "name": "PitchFork", "phone": "+1-773-866-2010", "website": "https://pitchforkchicago.com/"}}, {"type": "node", "id": 3011103181, "lat": 41.9546765, "lon": -87.6887215, "tags": {"addr:housenumber": "4018", "addr:street": "North Western Avenue", "amenity": "restaurant", "cuisine": "thai", "name": "Sticky Rice", "opening_hours": "Mo-Sa 11:30-23:00; Su 12:00-22:00", "website": "http://www.stickyricethai.com/"}}, {"type": "node", "id": 3015352445, "lat": 41.9465012, "lon": -87.7008527, "tags": {"amenity": "restaurant", "name": "Dapper's East Family Restaurant"}}, {"type": "node", "id": 3015667206, "lat": 41.9537838, "lon": -87.702057, "tags": {"addr:city": "Chicago", "addr:housenumber": "2933", "addr:postcode": "60618", "addr:state": "IL", "addr:street": "West Irving Park Road", "amenity": "cafe", "cuisine": "serbian", "internet_access": "wlan", "name": "Beograd Cafe", "phone": "+1-773-478-7575", "website": "http://beogradchicago.com/index.html"}}, {"type": "node", "id": 3015672019, "lat": 41.9536402, "lon": -87.6991711, "tags": {"amenity": "restaurant", "cuisine": "mexican", "name": "The Famous Taco Burrito"}}, {"type": "node", "id": 3015676165, "lat": 41.954379, "lon": -87.6986616, "tags": {"amenity": "restaurant", "cuisine": "chinese", "name": "Lo's China Kitchen"}}, {"type": "node", "id": 3555057608, "lat": 41.9426005, "lon": -87.6908138}, {"type": "node", "id": 3555057609, "lat": 41.9419597, "lon": -87.6930147}, {"type": "node", "id": 3555057610, "lat": 41.9421048, "lon": -87.6930373}, {"type": "node", "id": 3555057611, "lat": 41.942257, "lon": -87.6930804}, {"type": "node", "id": 3555057612, "lat": 41.9423871, "lon": -87.6931299}, {"type": "node", "id": 3555057613, "lat": 41.9425541, "lon": -87.6932184}, {"type": "node", "id": 3555057614, "lat": 41.9429017, "lon": -87.6934627}, {"type": "node", "id": 3555057622, "lat": 41.9433671, "lon": -87.6937835}, {"type": "node", "id": 3555057623, "lat": 41.9429584, "lon": -87.6935016}, {"type": "node", "id": 3567139344, "lat": 41.9433764, "lon": -87.6932131}, {"type": "node", "id": 3908971502, "lat": 41.9479967, "lon": -87.6885857}, {"type": "node", "id": 3908971503, "lat": 41.9478809, "lon": -87.68863}, {"type": "node", "id": 3908971505, "lat": 41.947906, "lon": -87.6886272}, {"type": "node", "id": 3908971506, "lat": 41.9479675, "lon": -87.6887728}, {"type": "node", "id": 3908971507, "lat": 41.9479696, "lon": -87.6887027}, {"type": "node", "id": 3908971508, "lat": 41.9479719, "lon": -87.6885784}, {"type": "node", "id": 3908971509, "lat": 41.9478839, "lon": -87.6885711}, {"type": "node", "id": 3908971510, "lat": 41.9479736, "lon": -87.6885143}, {"type": "node", "id": 4240308920, "lat": 41.9460107, "lon": -87.6877924, "tags": {"addr:city": "Chicago", "addr:housenumber": "3539", "addr:postcode": "60618", "addr:state": "IL", "addr:street": "North Western Avenue", "amenity": "restaurant", "cuisine": "mediterranean", "name": "Pi-Hi Cafe"}}, {"type": "node", "id": 4240308923, "lat": 41.9458554, "lon": -87.6877905, "tags": {"addr:city": "Chicago", "addr:housenumber": "3533", "addr:postcode": "60618", "addr:state": "IL", "addr:street": "North Western Avenue", "amenity": "restaurant", "cuisine": "chinese", "name": "New China 2"}}, {"type": "node", "id": 5460811043, "lat": 41.9543611, "lon": -87.6801982, "tags": {"addr:city": "Chicago", "addr:housenumber": "2034", "addr:postcode": "60618", "addr:state": "IL", "addr:street": "West Irving Park Road", "amenity": "bar", "name": "Resi\u2019s Bierstube Restaurant", "opening_hours": "Mo-Th 16:00-02:00; Fr 14:00-02:00; Sa 14:00-03:00; Su 14:00-01:00", "phone": "+1-773-472-1749"}}, {"type": "node", "id": 5861896117, "lat": 41.9608711, "lon": -87.6836122}, {"type": "node", "id": 5861896118, "lat": 41.9605287, "lon": -87.6835098}, {"type": "node", "id": 6280614231, "lat": 41.9538699, "lon": -87.6854312, "tags": {"addr:city": "Chicago", "addr:housenumber": "2245", "addr:postcode": "60618", "addr:state": "IL", "addr:street": "West Irving Park Road", "amenity": "restaurant", "name": "Chayhana", "phone": "+1-773-942-7720", "website": "http://chayhanachicago.com/"}}, {"type": "node", "id": 6283201843, "lat": 41.9539652, "lon": -87.6810058, "tags": {"addr:city": "Chicago", "addr:housenumber": "2059", "addr:postcode": "60618", "addr:state": "IL", "addr:street": "West Irving Park Road", "amenity": "cafe", "name": "Coffee Joint", "phone": "+1-773-629-1725", "website": "https://coffeejoint.com/"}}, {"type": "node", "id": 6294280332, "lat": 41.9476722, "lon": -87.6956965, "tags": {"addr:city": "Chicago", "addr:housenumber": "3626", "addr:postcode": "60618", "addr:state": "IL", "addr:street": "North Talman Avenue", "amenity": "bar", "name": "Heineken Pub97", "phone": "+1-773-944-1203", "website": "https://www.heinekenpub97.com/"}}, {"type": "node", "id": 6297627326, "lat": 41.9563958, "lon": -87.6799303, "tags": {"addr:city": "Chicago", "addr:housenumber": "4111", "addr:postcode": "60618", "addr:state": "IL", "addr:street": "North Lincoln Avenue", "amenity": "cafe", "name": "Savanna Restaurant", "phone": "+1-872-817-7340"}}, {"type": "node", "id": 6297629547, "lat": 41.9556851, "lon": -87.6801392, "tags": {"addr:city": "Chicago", "addr:housenumber": "4060", "addr:postcode": "60618", "addr:state": "IL", "addr:street": "North Lincoln Avenue", "amenity": "bar", "name": "Save More Lounge", "phone": "+1-773-281-1444"}}, {"type": "node", "id": 6300337645, "lat": 41.9575235, "lon": -87.6813429, "tags": {"addr:city": "Chicago", "addr:housenumber": "4160", "addr:postcode": "60618", "addr:state": "IL", "addr:street": "North Lincoln Avenue", "amenity": "restaurant", "name": "Square Biscuits", "phone": "+1-773-880-1100", "website": "https://www.squarebiscuits.com/"}}, {"type": "node", "id": 6300570350, "lat": 41.9542487, "lon": -87.7028442, "tags": {"addr:city": "Chicago", "addr:housenumber": "2958", "addr:postcode": "60618", "addr:state": "IL", "addr:street": "West Irving Park Road", "amenity": "restaurant", "name": "Raisu Japanese Fine Dining", "phone": "+1-773-961-7299", "website": "http://www.raisusushi.com/"}}, {"type": "node", "id": 6300622085, "lat": 41.9575579, "lon": -87.6814389, "tags": {"addr:city": "Chicago", "addr:housenumber": "4164", "addr:postcode": "60618", "addr:state": "IL", "addr:street": "North Lincoln Avenue", "amenity": "cafe", "name": "Red Eyes Coffee", "phone": "+1-773-327-9478"}}, {"type": "node", "id": 6301050172, "lat": 41.9466297, "lon": -87.6832356, "tags": {"addr:city": "Chicago", "addr:housenumber": "2159", "addr:postcode": "60618", "addr:state": "IL", "addr:street": "West Addison Street", "amenity": "bar", "name": "Roscoe Village Pub", "phone": "+1-773-472-6160", "website": "https://www.roscoevillagepub.com/"}}, {"type": "node", "id": 6301759131, "lat": 41.9546735, "lon": -87.6887916, "tags": {"addr:city": "Chicago", "addr:housenumber": "4018", "addr:postcode": "60618", "addr:state": "IL", "addr:street": "North Western Avenue", "amenity": "restaurant", "name": "Sticky Rice", "phone": "+1-773-588-0133", "website": "http://stickyricethai.com/index10.php"}}, {"type": "node", "id": 6304278992, "lat": 41.9594754, "lon": -87.6821871, "tags": {"addr:city": "Chicago", "addr:housenumber": "4265", "addr:postcode": "60618", "addr:state": "IL", "addr:street": "North Lincoln Avenue", "amenity": "bar", "name": "The Wild Goose Bar & Grill", "phone": "+1-773-281-7112", "website": "https://www.wildgoosebar.com/"}}, {"type": "node", "id": 6307008790, "lat": 41.9609809, "lon": -87.7018042, "tags": {"addr:city": "Chicago", "addr:housenumber": "2925", "addr:postcode": "60618", "addr:state": "Il", "addr:street": "West Montrose Avenue", "amenity": "bar", "name": "Twisted Hippo", "phone": "+1-708-844-7768", "website": "http://www.twistedhippo.com/"}}, {"type": "node", "id": 6317045353, "lat": 41.9616864, "lon": -87.680248, "tags": {"addr:city": "Chicago", "addr:housenumber": "2030-32", "addr:postcode": "60618", "addr:state": "IL", "addr:street": "West Montrose Avenue", "amenity": "restaurant", "name": "XOchimilco Mexican Restaurant", "phone": "+1-773-661-1534", "website": "https://xochimilco-mexican-restaurant-restaurant.business.site/"}}, {"type": "node", "id": 6319357294, "lat": 41.9585383, "lon": -87.6815872, "tags": {"addr:city": "Chicago", "addr:housenumber": "4229", "addr:postcode": "60618", "addr:state": "IL", "addr:street": "North Lincoln Avenue", "amenity": "restaurant", "name": "Kitsune", "phone": "+1-773-687-9179", "website": "https://www.kitsunerestaurant.com/"}}, {"type": "node", "id": 6322817723, "lat": 41.9610702, "lon": -87.7023111, "tags": {"addr:city": "Chicago", "addr:housenumber": "2933", "addr:postcode": "60618", "addr:state": "Il", "addr:street": "West Montrose Avenue", "amenity": "bar", "name": "Montrose Saloon", "phone": "+1-773-463-7663", "website": "https://www.montrosesaloon.com/"}}, {"type": "node", "id": 6323640782, "lat": 41.9544889, "lon": -87.6814266, "tags": {"addr:city": "Chicago", "addr:housenumber": "2100", "addr:postcode": "60618", "addr:state": "IL", "addr:street": "West Irving Park Road", "amenity": "bar", "name": "O\u2019Donovan\u2019s", "phone": "+1-773-478-2100", "website": "http://odonovansbar.com/"}}, {"type": "node", "id": 6476673188, "lat": 41.9480241, "lon": -87.6877664, "tags": {"addr:housenumber": "3643", "amenity": "restaurant", "name": "MOD Pizza", "opening_hours": "Mo-Th 10:00-21:00; Fr 10:00-22:00; Sa 10:30-22:00; Su 10:30-21:00"}}, {"type": "node", "id": 6721955008, "lat": 41.9612586, "lon": -87.6843625, "tags": {"addr:city": "Chicago", "addr:housenumber": "2213", "addr:postcode": "60618", "addr:state": "IL", "addr:street": "West Montrose Avenue", "amenity": "restaurant", "cuisine": "mexican", "name": "Taqueria El Asadero", "phone": "+1-773-583-5563"}}, {"type": "node", "id": 6955522307, "lat": 41.9427233, "lon": -87.6933402}, {"type": "node", "id": 6955522338, "lat": 41.944547, "lon": -87.6914964}, {"type": "node", "id": 6955522339, "lat": 41.9445432, "lon": -87.6921235}, {"type": "node", "id": 6955522345, "lat": 41.9436637, "lon": -87.6921836}, {"type": "node", "id": 6955522346, "lat": 41.9438043, "lon": -87.6920938}, {"type": "node", "id": 6955522589, "lat": 41.9433808, "lon": -87.6929422}, {"type": "node", "id": 6970050101, "lat": 41.9426566, "lon": -87.6932905}, {"type": "node", "id": 6970050102, "lat": 41.9417606, "lon": -87.6930081}, {"type": "node", "id": 6970050103, "lat": 41.9417148, "lon": -87.6930102}, {"type": "node", "id": 6970050104, "lat": 41.9416698, "lon": -87.6930058}, {"type": "node", "id": 6970050106, "lat": 41.9407922, "lon": -87.6922262}, {"type": "node", "id": 6970050107, "lat": 41.9408668, "lon": -87.6928247}, {"type": "node", "id": 6970050108, "lat": 41.9410748, "lon": -87.6929849}, {"type": "node", "id": 6970050109, "lat": 41.9426895, "lon": -87.693315}, {"type": "node", "id": 6970050125, "lat": 41.9425108, "lon": -87.6908109}, {"type": "node", "id": 6970050126, "lat": 41.9407985, "lon": -87.6909445}, {"type": "node", "id": 6970050143, "lat": 41.9407926, "lon": -87.6921474}, {"type": "node", "id": 6970050165, "lat": 41.9420199, "lon": -87.6930241}, {"type": "node", "id": 6970050176, "lat": 41.9425245, "lon": -87.6932027}, {"type": "node", "id": 6970050178, "lat": 41.9426245, "lon": -87.6932679}, {"type": "node", "id": 7283923834, "lat": 41.9612491, "lon": -87.6842016, "tags": {"addr:city": "Chicago", "addr:housenumber": "2207", "addr:postcode": "60618", "addr:state": "IL", "addr:street": "West Montrose Ave", "amenity": "restaurant", "description": "Ramen", "name": "Menya Goku", "phone": "773-227-8180"}}, {"type": "way", "id": 35341584, "nodes": [414253932, 414253933, 5861896117, 414253934, 5861896118, 414253932], "tags": {"addr:city": "Chicago", "addr:housenumber": "4340", "addr:postcode": "60618", "addr:street": "North Lincoln Avenue", "amenity": "restaurant", "brand": "Lou Malnati's Pizzeria", "brand:wikidata": "Q6685628", "brand:wikipedia": "en:Lou Malnati's Pizzeria", "building": "yes", "cuisine": "pizza", "name": "Lou Malnati's Pizzeria", "website": "https://www.loumalnatis.com/chicago-lincoln-square-north-center"}}, {"type": "way", "id": 209464598, "nodes": [2196816832, 2196817156, 2196817161, 2196816860, 2196816858, 2196816834, 2196816832], "tags": {"addr:city": "Chicago", "addr:housenumber": "2825", "addr:postcode": "60618", "addr:state": "IL", "addr:street": "West Irving Park Road", "addr:street:name": "Irving Park", "addr:street:prefix": "West", "addr:street:type": "Road", "amenity": "bar", "building": "yes", "chicago:building_id": "153642", "name": "Pete\u2019s Place"}}, {"type": "way", "id": 209465538, "nodes": [2196801934, 3908971506, 3908971507, 2196802912, 3908971502, 3908971508, 3908971510, 2196802925, 2196801942, 3908971509, 3908971503, 3908971505, 2196801934], "tags": {"addr:city": "Chicago", "addr:housenumber": "3640", "addr:postcode": "60618", "addr:state": "IL", "addr:street": "North Western Avenue", "addr:street:name": "Western", "addr:street:prefix": "North", "addr:street:type": "Avenue", "amenity": "cafe", "building": "yes", "chicago:building_id": "174417", "cuisine": "coffee_shop", "name": "Starbucks"}}, {"type": "way", "id": 209465693, "nodes": [2196803265, 2196803476, 2196803481, 2196803460, 2196803462, 2196803268, 2196803265], "tags": {"addr:city": "Chicago", "addr:housenumber": "3655", "addr:postcode": "60618", "addr:state": "IL", "addr:street": "North Western Avenue", "addr:street:name": "Western", "addr:street:prefix": "North", "addr:street:type": "Avenue", "amenity": "restaurant", "building": "yes", "building:levels": "2", "chicago:building_id": "173601", "name": "Reclaimed Bar and Restaurant", "phone": "+1-773-857-0943", "website": "https://www.reclaimedbarandrestaurant.com/"}}, {"type": "way", "id": 209477174, "nodes": [2196852266, 2196852428, 2196852486, 2196852494, 2196852573, 2196852579, 2196852275, 2196852266], "tags": {"addr:city": "Chicago", "addr:housenumber": "4337", "addr:postcode": "60618", "addr:state": "IL", "addr:street": "North Lincoln Avenue", "amenity": "bar", "cuisine": "burger", "name": "The Northman", "phone": "+1-773-935-2255", "website": "https://thenorthman.com/"}}, {"type": "way", "id": 254362318, "nodes": [2393685997, 6955522589, 3567139344, 3555057622, 3555057623, 3555057614, 6955522307, 6970050109, 6970050101, 6970050178, 3555057613, 6970050176, 3555057612, 3555057611, 3555057610, 6970050165, 3555057609, 6970050102, 6970050103, 6970050104, 2601552516, 6970050108, 2601552515, 2601552514, 6970050107, 2601552513, 2601552511, 2601552510, 6970050106, 6970050143, 6970050126, 2601552512, 2601552517, 6970050125, 3555057608, 2393667680, 2393667751, 2404188173, 6955522338, 6955522339, 6955522346, 6955522345, 2393686008, 2393685997], "tags": {"alt_name": "DeVry University Chicago Campus", "amenity": "university", "brand": "DeVry University", "brand:wikidata": "Q3298441", "brand:wikipedia": "en:DeVry University", "ele": "181", "gnis:county_id": "031", "gnis:created": "04/01/1999", "gnis:feature_id": "1826161", "gnis:state_id": "17", "name": "DeVry University", "short_name": "DeVry", "website": "https://www.devry.edu/about/campus-locations/illinois/chicago.html"}}]}