{"version": 0.6, "generator": "Overpass API 0.7.56.3 eb200aeb", "osm3s": {"timestamp_osm_base": "2020-07-17T21:20:03Z", "copyright": "The data included in this document is from www.openstreetmap.org. The data is made available under ODbL."}, "elements": [{"type": "node", "id": 318276729, "lat": 41.9208448, "lon": -87.6332051, "tags": {"amenity": "cafe", "name": "Park Place Cafe"}}, {"type": "node", "id": 347159885, "lat": 41.9112846, "lon": -87.6348689, "tags": {"addr:city": "Chicago", "addr:country": "US", "addr:housenumber": "210", "addr:postcode": "60610", "addr:state": "IL", "addr:street": "West North Avenue", "amenity": "cafe", "brand": "Starbucks", "brand:wikidata": "Q37158", "brand:wikipedia": "en:Starbucks", "cuisine": "coffee_shop", "entrance": "yes", "name": "Starbucks", "official_name": "Starbucks Coffee", "takeaway": "yes"}}, {"type": "node", "id": 347160446, "lat": 41.9127223, "lon": -87.638378, "tags": {"addr:city": "Chicago", "addr:housenumber": "1655", "addr:postcode": "60614", "addr:state": "IL", "addr:street": "North Sedgwick Street", "amenity": "restaurant", "cuisine": "american;ribs", "name": "Twin Anchors Restaurant & Tavern", "opening_hours": "Mo-Tu 17:00-22:30; We-Th 17:00-23:00; Fr 17:00-00:00; Sa 12:00-00:00; Su 12:00-22:30", "phone": "+1-312-266-1616", "website": "https://twinanchorsribs.com/"}}, {"type": "node", "id": 477087140, "lat": 41.9233904, "lon": -87.6460993, "tags": {"addr:city": "Chicago", "addr:housenumber": "2274", "addr:postcode": "60614", "addr:state": "IL", "addr:street": "North Lincoln Avenue", "amenity": "bar", "name": "Halligan Bar", "phone": "+1-773-472-7940", "website": "https://halliganbarchicago.com/"}}, {"type": "node", "id": 1349879445, "lat": 41.9251559, "lon": -87.6399232, "tags": {"amenity": "restaurant", "cuisine": "thai", "name": "Nine", "takeaway": "yes"}}, {"type": "node", "id": 1349879616, "lat": 41.9261777, "lon": -87.6405454, "tags": {"addr:city": "Chicago", "addr:housenumber": "2423", "addr:postcode": "60614", "addr:state": "IL", "addr:street": "North Clark Street", "amenity": "restaurant", "name": "Drawl Southern Cook House & Whiskey Room", "phone": "+1-773-687-8111", "website": "https://www.drawlchicago.com/"}}, {"type": "node", "id": 1349879617, "lat": 41.9258684, "lon": -87.6408981, "tags": {"amenity": "restaurant", "cuisine": "international", "name": "Tapas Restarurant/Bar"}}, {"type": "node", "id": 1724441444, "lat": 41.9106374, "lon": -87.6345311, "tags": {"addr:city": "Chicago", "addr:housename": "1551", "addr:housenumber": "1551", "addr:postcode": "60610", "addr:state": "IL", "addr:street": "North Wells Street", "amenity": "restaurant", "cuisine": "pizza;italian", "name": "Dinotto", "opening_hours": "Tu-Th 16:30-22:00; Fr-Sa 12:00-22:00; Su 16:00-22:00", "phone": "+1-312-202-0302", "website": "https://dinotto.business.site/"}}, {"type": "node", "id": 1724441449, "lat": 41.9105842, "lon": -87.6345302, "tags": {"addr:city": "Chicago", "addr:country": "US", "addr:housenumber": "1549", "addr:state": "IL", "addr:street": "North Wells Street", "amenity": "restaurant", "cuisine": "sandwich", "name": "Einstein Bagels"}}, {"type": "node", "id": 2086708645, "lat": 41.9115662, "lon": -87.6345885}, {"type": "node", "id": 2086708647, "lat": 41.9115704, "lon": -87.6342839}, {"type": "node", "id": 2086708649, "lat": 41.9116319, "lon": -87.6345901}, {"type": "node", "id": 2086708650, "lat": 41.9116361, "lon": -87.6342855}, {"type": "node", "id": 2166039854, "lat": 41.9106416, "lon": -87.6351225}, {"type": "node", "id": 2166039855, "lat": 41.9106425, "lon": -87.635053}, {"type": "node", "id": 2166039857, "lat": 41.9106453, "lon": -87.6348451}, {"type": "node", "id": 2166039861, "lat": 41.9106971, "lon": -87.6351239}, {"type": "node", "id": 2166039862, "lat": 41.9107008, "lon": -87.6348464}, {"type": "node", "id": 2203998741, "lat": 41.9104459, "lon": -87.6436874}, {"type": "node", "id": 2203998747, "lat": 41.9104492, "lon": -87.6435478}, {"type": "node", "id": 2203998749, "lat": 41.9104542, "lon": -87.6436892}, {"type": "node", "id": 2203998788, "lat": 41.9105184, "lon": -87.6436407}, {"type": "node", "id": 2203998793, "lat": 41.9105206, "lon": -87.6435507}, {"type": "node", "id": 2204034445, "lat": 41.9230531, "lon": -87.6459254}, {"type": "node", "id": 2204034519, "lat": 41.9230715, "lon": -87.6459558}, {"type": "node", "id": 2204034575, "lat": 41.9230861, "lon": -87.6459754}, {"type": "node", "id": 2204034779, "lat": 41.9231343, "lon": -87.6458217}, {"type": "node", "id": 2204034784, "lat": 41.9231356, "lon": -87.6458033}, {"type": "node", "id": 2204035015, "lat": 41.9232155, "lon": -87.6458109}, {"type": "node", "id": 2204035410, "lat": 41.9233282, "lon": -87.6456194}, {"type": "node", "id": 2204035573, "lat": 41.9233681, "lon": -87.645674}, {"type": "node", "id": 2204035943, "lat": 41.9234782, "lon": -87.6455002}, {"type": "node", "id": 2204036024, "lat": 41.9234865, "lon": -87.6455203}, {"type": "node", "id": 2204036056, "lat": 41.9234904, "lon": -87.6454853}, {"type": "node", "id": 2204036147, "lat": 41.9235015, "lon": -87.6454999}, {"type": "node", "id": 2204036210, "lat": 41.9235131, "lon": -87.6453767}, {"type": "node", "id": 2204036347, "lat": 41.9235532, "lon": -87.6454314}, {"type": "node", "id": 2204047387, "lat": 41.9264871, "lon": -87.641602}, {"type": "node", "id": 2204047439, "lat": 41.9265006, "lon": -87.6415578}, {"type": "node", "id": 2204047720, "lat": 41.9265733, "lon": -87.6413291}, {"type": "node", "id": 2204047724, "lat": 41.9265738, "lon": -87.6416507}, {"type": "node", "id": 2204047824, "lat": 41.9265941, "lon": -87.6415898}, {"type": "node", "id": 2204047916, "lat": 41.9266147, "lon": -87.6413691}, {"type": "node", "id": 2204047937, "lat": 41.9266201, "lon": -87.6413544}, {"type": "node", "id": 2204048116, "lat": 41.9266634, "lon": -87.6413965}, {"type": "node", "id": 2207637696, "lat": 41.9090034, "lon": -87.6341272}, {"type": "node", "id": 2207637705, "lat": 41.909016, "lon": -87.6341274}, {"type": "node", "id": 2207637706, "lat": 41.909016, "lon": -87.6341331}, {"type": "node", "id": 2207637782, "lat": 41.9090487, "lon": -87.6342489}, {"type": "node", "id": 2207637785, "lat": 41.909049, "lon": -87.6342002}, {"type": "node", "id": 2207637813, "lat": 41.9090601, "lon": -87.6344978}, {"type": "node", "id": 2207637819, "lat": 41.9090613, "lon": -87.634249}, {"type": "node", "id": 2207637826, "lat": 41.9090661, "lon": -87.6342003}, {"type": "node", "id": 2207637827, "lat": 41.9090665, "lon": -87.6341336}, {"type": "node", "id": 2207638564, "lat": 41.9094986, "lon": -87.6384087}, {"type": "node", "id": 2207638569, "lat": 41.9095013, "lon": -87.6380817}, {"type": "node", "id": 2207638657, "lat": 41.9095425, "lon": -87.6384094}, {"type": "node", "id": 2207638661, "lat": 41.9095453, "lon": -87.6380823}, {"type": "node", "id": 2207638953, "lat": 41.9097401, "lon": -87.6345198}, {"type": "node", "id": 2207638957, "lat": 41.9097469, "lon": -87.6342361}, {"type": "node", "id": 2207638967, "lat": 41.9097543, "lon": -87.6339208}, {"type": "node", "id": 2207638968, "lat": 41.9097544, "lon": -87.6339318}, {"type": "node", "id": 2207639299, "lat": 41.9099564, "lon": -87.6345238}, {"type": "node", "id": 2207639310, "lat": 41.9099639, "lon": -87.6339253}, {"type": "node", "id": 2207640348, "lat": 41.9107678, "lon": -87.634064}, {"type": "node", "id": 2207640351, "lat": 41.9107718, "lon": -87.6338215}, {"type": "node", "id": 2207640358, "lat": 41.9107802, "lon": -87.6340786}, {"type": "node", "id": 2207640378, "lat": 41.9108036, "lon": -87.6340783}, {"type": "node", "id": 2207640380, "lat": 41.9108046, "lon": -87.6340214}, {"type": "node", "id": 2207640484, "lat": 41.911042, "lon": -87.634028}, {"type": "node", "id": 2207640485, "lat": 41.9110449, "lon": -87.6338295}, {"type": "node", "id": 2207658045, "lat": 41.9243235, "lon": -87.6402119}, {"type": "node", "id": 2207658053, "lat": 41.9243479, "lon": -87.6402288}, {"type": "node", "id": 2207658054, "lat": 41.9243549, "lon": -87.6402415}, {"type": "node", "id": 2207658059, "lat": 41.9243595, "lon": -87.6400908}, {"type": "node", "id": 2207658063, "lat": 41.9243637, "lon": -87.6401073}, {"type": "node", "id": 2207658068, "lat": 41.9243769, "lon": -87.6402523}, {"type": "node", "id": 2207658069, "lat": 41.9243875, "lon": -87.6401953}, {"type": "node", "id": 2207658070, "lat": 41.9243929, "lon": -87.6401823}, {"type": "node", "id": 2207658071, "lat": 41.9243931, "lon": -87.6399857}, {"type": "node", "id": 2207658073, "lat": 41.9243958, "lon": -87.6402025}, {"type": "node", "id": 2207658074, "lat": 41.9244039, "lon": -87.6401767}, {"type": "node", "id": 2207658084, "lat": 41.924428, "lon": -87.6400754}, {"type": "node", "id": 2207658086, "lat": 41.9244309, "lon": -87.6400992}, {"type": "node", "id": 2207658094, "lat": 41.9244468, "lon": -87.6400182}, {"type": "node", "id": 2262364827, "lat": 41.9113354, "lon": -87.6356269, "tags": {"addr:housenumber": "230", "addr:postcode": "60614", "addr:street": "West North Avenue", "amenity": "bar", "name": "UP Comedy Club", "source": "312-664-4032", "website": "http://www.upcomedyclub.com/"}}, {"type": "node", "id": 2393465770, "lat": 41.912499, "lon": -87.6345793, "tags": {"addr:city": "Chicago", "addr:country": "US", "addr:housenumber": "1647", "addr:state": "IL", "addr:street": "North Wells Street", "amenity": "bar", "entrance": "yes"}}, {"type": "node", "id": 2393465775, "lat": 41.9096394, "lon": -87.6348401, "tags": {"addr:city": "Chicago", "addr:country": "US", "addr:housenumber": "1514", "addr:postcode": "60610", "addr:state": "IL", "addr:street": "North Wells Street", "amenity": "restaurant", "cuisine": "italian", "name": "Topo Gigio Ristorante", "opening_hours": "Mo-Sa 11:30-22:30; Su 16:00-21:30", "phone": "+1-312-266-9355", "website": "https://www.topogigiochicago.com/"}}, {"type": "node", "id": 2393465796, "lat": 41.9090017, "lon": -87.6344973}, {"type": "node", "id": 2393465797, "lat": 41.9090029, "lon": -87.6342414}, {"type": "node", "id": 2399641191, "lat": 41.9172647, "lon": -87.6370796, "tags": {"addr:housenumber": "1925", "addr:street": "North Lincoln Avenue", "addr:street:name": "Lincoln", "addr:street:prefix": "North", "addr:street:type": "Avenue", "amenity": "restaurant", "cuisine": "pizza", "name": "Rocco Ranalli's"}}, {"type": "node", "id": 2479668242, "lat": 41.9089305, "lon": -87.6383817}, {"type": "node", "id": 2479668243, "lat": 41.9089363, "lon": -87.6380474}, {"type": "node", "id": 2479668244, "lat": 41.9089981, "lon": -87.6383838}, {"type": "node", "id": 2479668245, "lat": 41.909004, "lon": -87.6380495}, {"type": "node", "id": 2521766275, "lat": 41.911036, "lon": -87.6327641, "tags": {"addr:city": "Chicago", "addr:country": "US", "addr:housenumber": "129", "addr:street": "West North Avenue", "amenity": "restaurant", "cuisine": "chinese", "name": "Peking Chinese Restaurant"}}, {"type": "node", "id": 2607221649, "lat": 41.9229445, "lon": -87.6449862, "tags": {"addr:city": "Chicago", "addr:country": "US", "addr:housenumber": "2245", "addr:street": "North Lincoln Avenue", "amenity": "restaurant", "cuisine": "pizza", "name": "Lincoln Park Pizza"}}, {"type": "node", "id": 2607221651, "lat": 41.9235545, "lon": -87.6458622, "tags": {"amenity": "cafe", "brand": "Starbucks", "brand:wikidata": "Q37158", "brand:wikipedia": "en:Starbucks", "cuisine": "coffee_shop", "name": "Starbucks", "official_name": "Starbucks Coffee", "takeaway": "yes"}}, {"type": "node", "id": 2607221928, "lat": 41.923172, "lon": -87.6457498}, {"type": "node", "id": 2624050329, "lat": 41.9180886, "lon": -87.6471654, "tags": {"addr:city": "Chicago", "addr:housenumber": "732", "addr:postcode": "60614", "addr:street": "West Armitage Avenue", "amenity": "restaurant", "cuisine": "fast_food", "name": "Brothers Beef"}}, {"type": "node", "id": 2673655700, "lat": 41.9187003, "lon": -87.6366459, "tags": {"addr:city": "Chicago", "addr:housenumber": "2020", "addr:postcode": "60614", "addr:state": "IL", "addr:street": "North Lincoln Park West", "amenity": "restaurant", "brand": "The Original Pancake House", "brand:wikidata": "Q7755384", "brand:wikipedia": "en:The Original Pancake House", "cuisine": "breakfast;pancake", "name": "The Original Pancake House"}}, {"type": "node", "id": 2870579423, "lat": 41.910905, "lon": -87.6408852, "tags": {"amenity": "bar", "name": "Old Town Social"}}, {"type": "node", "id": 2946725325, "lat": 41.9169091, "lon": -87.6366164, "tags": {"amenity": "restaurant", "cuisine": "italian", "name": "Brick's"}}, {"type": "node", "id": 2988737657, "lat": 41.9180298, "lon": -87.6386499, "tags": {"addr:city": "Chicago", "addr:housenumber": "1970", "addr:postcode": "60614", "addr:state": "IL", "addr:street": "North Lincoln Avenue", "amenity": "restaurant", "entrance": "yes", "name": "Stanley's Kitchen and Tap"}}, {"type": "node", "id": 3269064603, "lat": 41.9181092, "lon": -87.6465719, "tags": {"amenity": "restaurant", "cuisine": "pizza", "name": "Armitage Pizza", "takeaway": "yes"}}, {"type": "node", "id": 4045036123, "lat": 41.9233231, "lon": -87.6455687, "tags": {"addr:city": "Chicago", "addr:housenumber": "2265", "addr:postcode": "60614", "addr:state": "IL", "addr:street": "North Lincoln Avenue", "amenity": "bar", "name": "Kelsey's", "phone": "+1-773-348-1666", "website": "http://kelseysbar.com/"}}, {"type": "node", "id": 4045036124, "lat": 41.9232814, "lon": -87.6454858, "tags": {"addr:city": "Chicago", "addr:housenumber": "2263", "addr:postcode": "60614", "addr:state": "IL", "addr:street": "North Lincoln Avenue", "amenity": "bar", "name": "Lincoln Avenue Social", "phone": "+1-773-348-7200", "website": "https://lincolnavenuesocial.com/"}}, {"type": "node", "id": 4045036125, "lat": 41.9231514, "lon": -87.645214, "tags": {"amenity": "bar", "name": "The Apartment"}}, {"type": "node", "id": 4100246313, "lat": 41.9200447, "lon": -87.6366013, "tags": {"addr:city": "Chicago", "addr:housenumber": "2056", "addr:postcode": "60614", "addr:state": "IL", "addr:street": "Lincoln Park West", "amenity": "restaurant", "name": "RJ Grunts", "opening_hours": "Mo-Fr 11:30-23:00; Sa 10:00-23:00; Su 10:00-21:00", "phone": "+1-773-929-5363", "website": "http://www.rjgruntschicago.com/"}}, {"type": "node", "id": 4188110370, "lat": 41.9200282, "lon": -87.6369267, "tags": {"amenity": "cafe", "brand": "Starbucks", "brand:wikidata": "Q37158", "brand:wikipedia": "en:Starbucks", "cuisine": "coffee_shop", "name": "Starbucks", "official_name": "Starbucks Coffee", "takeaway": "yes"}}, {"type": "node", "id": 4191676729, "lat": 41.9109799, "lon": -87.6349566, "tags": {"addr:city": "Chicago", "addr:housenumber": "1562", "addr:postcode": "60610", "addr:state": "IL", "addr:street": "North Wells Street", "amenity": "cafe", "brand": "Le Pain Quotidien", "brand:wikidata": "Q2046903", "brand:wikipedia": "en:Le Pain Quotidien", "cuisine": "coffee_shop", "name": "Le Pain Quotidien", "phone": "+1-312-281-6775", "takeaway": "yes", "website": "https://www1.lepainquotidien.com/us/en/locations/605/1562-n-wells-st"}}, {"type": "node", "id": 4191676733, "lat": 41.9114966, "lon": -87.6387692, "tags": {"amenity": "bar", "name": "Sedgwick Stop"}}, {"type": "node", "id": 4191676734, "lat": 41.9176173, "lon": -87.6386253, "tags": {"amenity": "bar", "name": "Sedgwick's"}}, {"type": "node", "id": 4191676735, "lat": 41.9109006, "lon": -87.6404783, "tags": {"amenity": "restaurant", "cuisine": "japanese", "name": "Shiso"}}, {"type": "node", "id": 4191676737, "lat": 41.9234681, "lon": -87.6393605, "tags": {"amenity": "restaurant", "cuisine": "sushi", "name": "Sushi Para II"}}, {"type": "node", "id": 4196277890, "lat": 41.9109839, "lon": -87.635275, "tags": {"addr:city": "Chicago", "addr:country": "US", "addr:postcode": "60614", "addr:state": "IL", "amenity": "restaurant", "building": "entrance", "cuisine": "mexican", "name": "Adobo Grill"}}, {"type": "node", "id": 4214191957, "lat": 41.9100021, "lon": -87.6343992, "tags": {"amenity": "restaurant", "cuisine": "mexican", "name": "Buzz Bait Tacos - PERMANENTLY CLOSED"}}, {"type": "node", "id": 4372831552, "lat": 41.9239848, "lon": -87.6469762, "tags": {"addr:city": "Chicago", "addr:country": "US", "addr:housenumber": "2312", "addr:postcode": "60614", "addr:state": "IL", "addr:street": "North Lincoln Avenue", "amenity": "restaurant", "cuisine": "international", "name": "Rickshaw Republic", "phone": "+1-773-697-4750", "website": "http://rickshawrepublic.com/", "wheelchair": "no"}}, {"type": "node", "id": 4564443501, "lat": 41.9208033, "lon": -87.6373192, "tags": {"addr:postcode": "60614", "amenity": "restaurant", "cuisine": "pizza", "name": "Chicago Pizza and Oven Grinder Co.", "opening_hours": "Mo-Th 16:00-23:00; Fr 16:00-00:00; Sa 11:30-00:00; Su 11:30-23:00", "phone": "7732482570", "website": "http://chicagopizzaandovengrinder.com"}}, {"type": "node", "id": 4726115309, "lat": 41.9259491, "lon": -87.6409341, "tags": {"addr:city": "Chicago", "addr:housenumber": "444", "addr:postcode": "60614", "addr:state": "IL", "addr:street": "West Fullerton Parkway", "amenity": "restaurant", "cuisine": "pizza", "name": "Casati's Pizza Vino", "phone": "+1-773-857-1237", "website": "https://www.cpvino.com/"}}, {"type": "node", "id": 5092612001, "lat": 41.9207184, "lon": -87.6373313, "tags": {"addr:city": "Chicago", "addr:housenumber": "2119", "addr:postcode": "60614", "addr:state": "IL", "addr:street": "North Clark Street", "amenity": "restaurant", "name": "Riccardo Trattoria", "phone": "+1-773-549-0038", "website": "http://www.riccardotrattoria.com/"}}, {"type": "node", "id": 5092612002, "lat": 41.920646, "lon": -87.6376583, "tags": {"addr:city": "Chicago", "addr:housenumber": "2116", "addr:postcode": "60614", "addr:state": "IL", "addr:street": "North Clark Street", "amenity": "restaurant", "name": "Riccardo Enoteca", "phone": "+1-773-549-5010", "website": "http://www.riccardoenoteca.com/"}}, {"type": "node", "id": 5460880257, "lat": 41.9153668, "lon": -87.6345049, "tags": {"addr:city": "Chicago", "addr:housenumber": "1800", "addr:postcode": "60614", "addr:state": "IL", "addr:street": "North Lincoln Avenue", "amenity": "restaurant", "cuisine": "american", "name": "The Kennison", "opening_hours": "Su-Th 17:00-22:00; Fr-Sa 17:00-23:00; Sa-Su 09:00-14:00", "phone": "+1-312-981-7070", "website": "https://www.thekennison.com/"}}, {"type": "node", "id": 5688396721, "lat": 41.9153381, "lon": -87.6344171, "tags": {"addr:city": "Chicago", "addr:housenumber": "1816", "addr:postcode": "60614", "addr:state": "IL", "addr:street": "North Clark Street", "addr:unit": "13", "amenity": "bar", "name": "The J Parker", "opening_hours": "Mo-Th 17:00-00:00; Fr 15:00-02:00; Sa 14:00-02:00; Su 14:00-00:00", "phone": "+1-312-254-4747", "website": "https://www.jparkerchicago.com/"}}, {"type": "node", "id": 6081060319, "lat": 41.9090489, "lon": -87.6342218}, {"type": "node", "id": 6081060321, "lat": 41.9090608, "lon": -87.6343593}, {"type": "node", "id": 6191165327, "lat": 41.9109366, "lon": -87.6358742, "tags": {"addr:city": "Chicago", "addr:housenumber": "227", "addr:postcode": "60610", "addr:state": "IL", "addr:street": "West North Avenue", "amenity": "restaurant", "cuisine": "seafood", "name": "Two Lights Seafood & Oyster", "opening_hours": "Mo-Fr 17:00-22:00; Sa 17:00-23:00; Su 17:00-21:00", "phone": "+1-312-929-3091", "website": "twolightschicago.com"}}, {"type": "node", "id": 6221691717, "lat": 41.9152622, "lon": -87.6343853, "tags": {"addr:city": "Chicago", "addr:housenumber": "1816", "addr:postcode": "60614", "addr:state": "IL", "addr:street": "North Clark Street", "amenity": "cafe", "cuisine": "breakfast", "name": "Elaine's Coffee Call", "opening_hours": "Mo-Su 06:30-17:00", "phone": "+1-312-254-4665", "website": "https://www.bokagrp.com/elaines.php"}}, {"type": "node", "id": 6256206803, "lat": 41.9225682, "lon": -87.6443899, "tags": {"addr:city": "Chicago", "addr:housenumber": "2221", "addr:postcode": "60614", "addr:state": "IL", "addr:street": "North Lincoln Avenue", "amenity": "restaurant", "name": "7 Plates Cafe", "phone": "+1-773-687-8817", "website": "https://www.sevenplatescafe.com/"}}, {"type": "node", "id": 6256290024, "lat": 41.9093, "lon": -87.6348661, "tags": {"addr:city": "Chicago", "addr:housenumber": "1500", "addr:postcode": "60610", "addr:state": "IL", "addr:street": "North Wells Street", "amenity": "bar", "name": "80 Proof", "phone": "+1-773-966-0404", "website": "https://80proofchi.com/"}}, {"type": "node", "id": 6261014453, "lat": 41.91169, "lon": -87.6344514, "tags": {"addr:city": "Chicago", "addr:housenumber": "1617", "addr:postcode": "60614", "addr:state": "IL", "addr:street": "North Wells Street", "amenity": "restaurant", "cuisine": "pub;american", "name": "Wells On Wells", "opening_hours": "Mo 17:00-00:00; Tu-Fr 11:30-02:00; Sa 10:30-03:00; Su 10:30-02:00", "phone": "+1-312-944-1617", "website": "https://wellsonwells.com/"}}, {"type": "node", "id": 6261017458, "lat": 41.9113447, "lon": -87.6353526, "tags": {"addr:city": "Chicago", "addr:housenumber": "230", "addr:postcode": "60610", "addr:state": "IL", "addr:street": "West North Avenue", "addr:unit": "2nd Floor", "amenity": "restaurant", "cuisine": "pub;american", "name": "1959 Kitchen & Bar", "opening_hours": "Mo-Th 17:00-00:00; Fr-Sa 17:00-02:00; Su 16:00-00:00", "phone": "+1-312-337-3992", "website": "https://www.secondcity.com/1959"}}, {"type": "node", "id": 6261019535, "lat": 41.9109894, "lon": -87.635527, "tags": {"addr:city": "Chicago", "addr:housenumber": "219", "addr:postcode": "60610", "addr:state": "IL", "addr:street": "West North Avenue", "amenity": "bar", "name": "Old Town Ale House", "opening_hours": "Mo-Fr 15:00-04:00; Sa 12:00-05:00; Su 12:00-04:00", "phone": "+1-312-944-7020", "website": "http://www.theoldtownalehouse.com"}}, {"type": "node", "id": 6261025487, "lat": 41.9090121, "lon": -87.63492, "tags": {"addr:city": "Chicago", "addr:housenumber": "1446", "addr:postcode": "60610", "addr:state": "IL", "addr:street": "North Wells Street", "amenity": "bar", "name": "SUITE Lounge", "phone": "+1-312-787-6103", "website": "http://www.suite-lounge.com"}}, {"type": "node", "id": 6261028501, "lat": 41.909098, "lon": -87.6348744, "tags": {"addr:city": "Chicago", "addr:housenumber": "1448", "addr:postcode": "60610", "addr:state": "IL", "addr:street": "North Wells Street", "amenity": "restaurant", "cuisine": "barbecue;bbq;american;southern", "name": "The Fireplace Inn", "opening_hours": "Tu-Th 16:30-00:00; Fr 11:00-02:00; Sa 11:00-03:00; Su 11:00-00:00", "phone": "+1-312-664-5264", "website": "https://fireplaceinn.com"}}, {"type": "node", "id": 6261029018, "lat": 41.9095177, "lon": -87.6349428, "tags": {"addr:city": "Chicago", "addr:housenumber": "1510", "addr:postcode": "60610", "addr:state": "IL", "addr:street": "North Wells Street", "amenity": "restaurant", "cuisine": "bar;grill", "name": "Benchmark", "opening_hours": "Mo-Fr 17:00-02:00; Sa 10:00-03:00; Su 10:00-02:00", "phone": "+1-312-649-9640", "website": "https://benchmarkchicago.com"}}, {"type": "node", "id": 6272419651, "lat": 41.9100648, "lon": -87.6343821, "tags": {"addr:city": "Chicago", "addr:housenumber": "1531", "addr:postcode": "60610", "addr:state": "IL", "addr:street": "North Wells Street", "amenity": "bar", "name": "BATSU! Chicago", "phone": "+1-312-664-3663", "website": "http://batsuchicago.com/"}}, {"type": "node", "id": 6280558497, "lat": 41.9180485, "lon": -87.6456973, "tags": {"addr:city": "Chicago", "addr:housenumber": "655", "addr:postcode": "60614", "addr:state": "IL", "addr:street": "West Armitage Avenue", "amenity": "restaurant", "name": "Cedar Palace", "phone": "+1-312-643-0933", "website": "https://www.cedarpalacechicago.com/"}}, {"type": "node", "id": 6282812182, "lat": 41.9199493, "lon": -87.6418258, "tags": {"addr:city": "Chicago", "addr:housenumber": "507", "addr:postcode": "60614", "addr:state": "IL", "addr:street": "West Dickens Avenue", "amenity": "cafe", "name": "CityGrounds Coffee Bar"}}, {"type": "node", "id": 6283111502, "lat": 41.9126714, "lon": -87.6345196, "tags": {"addr:city": "Chicago", "addr:housenumber": "1651", "addr:postcode": "60614", "addr:state": "IL", "addr:street": "North Wells Street", "amenity": "cafe", "name": "Cocoa + Co.", "phone": "+1-312-624-8540", "website": "https://cocoaandco.com/"}}, {"type": "node", "id": 6284902474, "lat": 41.9092439, "lon": -87.6475313, "tags": {"addr:city": "Chicago", "addr:housenumber": "1538", "addr:postcode": "60642", "addr:state": "IL", "addr:street": "North Clybourn Avenue", "amenity": "restaurant", "cuisine": "american", "name": "Earls Kitchen + Bar", "phone": "+1-312-929-3952", "website": "https://earls.ca/locations/lincoln-park"}}, {"type": "node", "id": 6291060942, "lat": 41.9109045, "lon": -87.6405716, "tags": {"addr:city": "Chicago", "addr:housenumber": "449", "addr:postcode": "60610", "addr:state": "IL", "addr:street": "West North Avenue", "amenity": "restaurant", "name": "Forastero", "phone": "+1-312-265-0322", "website": "https://forastero-llc.mycloveronline.com/"}}, {"type": "node", "id": 6291750700, "lat": 41.9182088, "lon": -87.6383858, "tags": {"addr:city": "Chicago", "addr:housenumber": "345", "addr:postcode": "60614", "addr:state": "IL", "addr:street": "West Armitage Avenue", "amenity": "bar", "name": "Gamekeepers Tavern & Grill", "phone": "+1-773-549-0400", "website": "http://gamekeeperschicago.com/"}}, {"type": "node", "id": 6291773197, "lat": 41.918593, "lon": -87.6380077, "tags": {"addr:city": "Chicago", "addr:housenumber": "340", "addr:postcode": "60614", "addr:state": "IL", "addr:street": "West Armitage Avenue", "amenity": "restaurant", "name": "Geja\u2019s Cafe", "phone": "+1-773-281-9101", "website": "https://gejascafe.com/"}}, {"type": "node", "id": 6291778778, "lat": 41.9199929, "lon": -87.6408687, "tags": {"addr:city": "Chicago", "addr:housenumber": "2075", "addr:postcode": "60614", "addr:state": "IL", "addr:street": "North Lincoln Avenue", "amenity": "restaurant", "name": "Gemini", "phone": "+1-773-525-2522", "website": "http://www.geminichicago.com/"}}, {"type": "node", "id": 6292415386, "lat": 41.9239642, "lon": -87.6368939, "tags": {"amenity": "restaurant", "cuisine": "japanese", "email": "nnerone@leye.com", "internet_access": "wlan", "name": "Naoki Sushi", "opening_hours": "Su 17:00-21:00; Mo-Th 17:30-21:00; Fr-Sa 17:30-22:00", "phone": "7738680002", "website": "http://naoki-sushi.com/"}}, {"type": "node", "id": 6294526485, "lat": 41.9108805, "lon": -87.6393364, "tags": {"addr:city": "Chicago", "addr:housenumber": "417", "addr:postcode": "60610", "addr:state": "IL", "addr:street": "West North Avenue", "amenity": "restaurant", "name": "Hom Mali Thai and Sushi on North Ave", "phone": "+1-312-664-3400", "website": "https://www.hommalichicago.com/"}}, {"type": "node", "id": 6294616307, "lat": 41.9233475, "lon": -87.6460503, "tags": {"addr:city": "Chicago", "addr:housenumber": "2270", "addr:postcode": "60614", "addr:state": "IL", "addr:street": "North Lincoln Avenue", "amenity": "bar", "name": "Hook and Ladder", "phone": "+1-773-857-0546", "website": "http://www.hookandladderchicago.com/"}}, {"type": "node", "id": 6299322085, "lat": 41.9185326, "lon": -87.6373677, "tags": {"addr:city": "Chicago", "addr:housenumber": "322", "addr:postcode": "60614", "addr:state": "IL", "addr:street": "West Armitage Avenue", "amenity": "bar", "name": "Park West", "phone": "+1-773-929-1322", "website": "https://parkwestchicago.com/"}}, {"type": "node", "id": 6300413145, "lat": 41.9257267, "lon": -87.6477665, "tags": {"addr:city": "Chicago", "addr:housenumber": "734", "addr:postcode": "60614", "addr:state": "IL", "addr:street": "West Fullerton Avenue", "amenity": "restaurant", "name": "Philly Bros", "phone": "+1-773-278-2767", "website": "https://www.phillybros.com/"}}, {"type": "node", "id": 6301020113, "lat": 41.9181487, "lon": -87.6398708, "tags": {"addr:city": "Chicago", "addr:housenumber": "425", "addr:postcode": "60614", "addr:state": "IL", "addr:street": "West Armitage Avenue", "amenity": "bar", "name": "River Shannon", "phone": "+1-312-944-5087", "website": "https://therivershannon.com/"}}, {"type": "node", "id": 6304176252, "lat": 41.9099123, "lon": -87.6344869, "tags": {"addr:city": "Chicago", "addr:housenumber": "1527", "addr:postcode": "60610", "addr:state": "IL", "addr:street": "North Wells Street", "amenity": "restaurant", "name": "The VIG Chicago", "phone": "+1-312-982-2186", "website": "http://www.thevigchicago.com/"}}, {"type": "node", "id": 6305147152, "lat": 41.9230946, "lon": -87.6451223, "tags": {"addr:city": "Chicago", "addr:housenumber": "2249", "addr:postcode": "60614", "addr:state": "IL", "addr:street": "North Lincoln Avenue", "amenity": "bar", "name": "Tobacco Road Tap Room", "phone": "+1-773-661-6416", "website": "https://www.tobaccoroadchi.com/"}}, {"type": "node", "id": 6315204690, "lat": 41.9169023, "lon": -87.6365441, "tags": {"addr:city": "Chicago", "addr:housenumber": "1909", "addr:postcode": "60614", "addr:state": "IL", "addr:street": "North Lincoln Avenue", "amenity": "bar", "name": "The Drop Lounge", "phone": "+1-312-574-0898", "website": "http://www.thedropchicago.com/"}}, {"type": "node", "id": 6315684067, "lat": 41.9264033, "lon": -87.6413997, "tags": {"addr:city": "Chicago", "addr:housenumber": "2436", "addr:postcode": "60614", "addr:state": "IL", "addr:street": "North Clark Street", "amenity": "bar", "name": "The Other Side Bar", "phone": "+1-773-525-8238"}}, {"type": "node", "id": 6315689961, "lat": 41.9263714, "lon": -87.6414025, "tags": {"addr:city": "Chicago", "addr:housenumber": "2434", "addr:postcode": "60614", "addr:state": "IL", "addr:street": "North Clark Street", "amenity": "restaurant", "name": "The Pasta Bowl", "phone": "+1-773-525-2695", "website": "https://www.pastabowl.com/"}}, {"type": "node", "id": 6315706586, "lat": 41.9190822, "lon": -87.6337461, "tags": {"addr:city": "Chicago", "addr:housenumber": "2021", "addr:postcode": "60614", "addr:state": "IL", "addr:street": "North Stockton Drive", "amenity": "cafe", "name": "The Patio at Caf\u00e9 Brauer", "phone": "+1-312-742-2400", "website": "https://www.lpzoo.org/dining/patio-cafe-brauer"}}, {"type": "node", "id": 6318364009, "lat": 41.909856, "lon": -87.634225, "tags": {"addr:city": "Chicago", "addr:housenumber": "1525", "addr:postcode": "60610", "addr:state": "IL", "addr:street": "North Wells Street", "amenity": "bar", "name": "LG\u2019s Bar", "phone": "+1-312-888-9368", "website": "https://ladygregorys.com/"}}, {"type": "node", "id": 6319154670, "lat": 41.9100715, "lon": -87.6344749, "tags": {"addr:city": "Chicago", "addr:housenumber": "1531", "addr:postcode": "60610", "addr:state": "IL", "addr:street": "North Wells Street", "amenity": "restaurant", "name": "Kamehachi", "phone": "+1-312-664-3663", "website": "http://www.kamehachi.com/"}}, {"type": "node", "id": 6319691545, "lat": 41.9094212, "lon": -87.6478311, "tags": {"addr:city": "Chicago", "addr:housenumber": "1538", "addr:postcode": "60610", "addr:state": "IL", "addr:street": "North Clybourn Avenue", "amenity": "restaurant", "name": "Kizuki Ramen & Izakaya", "phone": "+1-312-631-3165", "website": "https://www.kizuki.com/"}}, {"type": "node", "id": 6321478798, "lat": 41.9145918, "lon": -87.6389496, "tags": {"addr:city": "Chicago", "addr:housenumber": "1758", "addr:postcode": "60614", "addr:state": "IL", "addr:street": "North Sedgwick Street", "amenity": "bar", "name": "Marge\u2019s Still", "phone": "+1-312-664-9775", "website": "http://www.margeschicago.com/"}}, {"type": "node", "id": 6322787575, "lat": 41.9242236, "lon": -87.637024, "tags": {"addr:city": "Chicago", "addr:housenumber": "2300", "addr:postcode": "60614", "addr:state": "IL", "addr:street": "North Lincoln Park West", "amenity": "restaurant", "name": "Mon Ami Gabi", "phone": "+1-773-348-8886", "website": "http://www.monamigabi.com/chicago/", "wikidata": "Q6456854", "wikipedia": "en:L2O"}}, {"type": "node", "id": 6323140931, "lat": 41.9235791, "lon": -87.6457972, "tags": {"addr:city": "Chicago", "addr:housenumber": "2273", "addr:postcode": "60614", "addr:state": "IL", "addr:street": "North Lincoln Avenue", "amenity": "cafe", "name": "Nighthawk AM", "phone": "+1-773-697-8899", "website": "https://www.nighthawkam.com/"}}, {"type": "node", "id": 6323193150, "lat": 41.9142731, "lon": -87.6349799, "tags": {"addr:city": "Chicago", "addr:housenumber": "1746", "addr:postcode": "60614", "addr:state": "IL", "addr:street": "North Wells Street", "amenity": "restaurant", "name": "Nookies", "phone": "+1-312-337-2454", "website": "http://www.nookieschicago.com/"}}, {"type": "node", "id": 6324352337, "lat": 41.9169476, "lon": -87.6365562, "tags": {"addr:city": "Chicago", "addr:housenumber": "1909", "addr:postcode": "60614", "addr:state": "IL", "addr:street": "North Lincoln Avenue", "amenity": "restaurant", "name": "La Roccia", "phone": "+1-312-255-0851", "website": "https://www.larocciapizza.com/"}}, {"type": "node", "id": 6325995436, "lat": 41.9102129, "lon": -87.6344, "tags": {"addr:city": "Chicago", "addr:housenumber": "1535", "addr:postcode": "60610", "addr:state": "IL", "addr:street": "North Wells Street", "amenity": "restaurant", "name": "Woodie\u2019s Flat", "phone": "+1-312-643-0093", "website": "https://www.woodieschicago.com/"}}, {"type": "node", "id": 6326168644, "lat": 41.912159, "lon": -87.6313931, "tags": {"addr:city": "Chicago", "addr:housenumber": "1601", "addr:postcode": "60614", "addr:state": "IL", "addr:street": "North Clark Street", "amenity": "cafe", "name": "North and Clark Caf\u00e9", "phone": "+1-312-799-2121", "website": "https://www.chicagohistory.org/visit/north-clark-cafe/"}}, {"type": "node", "id": 6407268648, "lat": 41.9100061, "lon": -87.6344756, "tags": {"addr:city": "Chicago", "addr:housenumber": "1529", "addr:postcode": "60610", "addr:state": "IL", "addr:street": "North Wells Street", "amenity": "restaurant", "cuisine": "sandwich;dessert", "name": "Bombobar - Old Town", "opening_hours": "Mo-We 08:00-22:00; Fr 08:00-02:30; Sa 09:00-03:30; Su 09:00-22:00", "phone": "+1-312-549-8433", "website": "https://www.bombobar.com"}}, {"type": "node", "id": 6757774710, "lat": 41.9113754, "lon": -87.6349829, "tags": {"addr:city": "Chicago", "addr:housenumber": "1608", "addr:postcode": "60614", "addr:state": "IL", "addr:street": "North Wells Street", "amenity": "bar", "name": "Utopian Tailgate", "phone": "+1-312-210-7799", "website": "https://www.utopiantailgate.com"}}, {"type": "node", "id": 7070671349, "lat": 41.9241862, "lon": -87.6344252, "tags": {"amenity": "cafe", "name": "Safari Cafe"}}, {"type": "node", "id": 7081204126, "lat": 41.9219136, "lon": -87.6342484, "tags": {"amenity": "cafe", "name": "Eadie Levy's Landmark Caf\u00e9"}}, {"type": "way", "id": 198549082, "nodes": [2086708649, 2086708645, 2086708647, 2086708650, 2086708649], "tags": {"addr:city": "Chicago", "addr:country": "US", "addr:housenumber": "1615", "addr:postcode": "60614", "addr:state": "IL", "addr:street": "North Wells Street", "addr:street:name": "Wells", "addr:street:prefix": "North", "addr:street:type": "Street", "amenity": "bar", "building": "yes", "building:levels": "3", "chicago:building_id": "301050", "name": "Corcoran's Grill & Pub", "opening_hours": "Mo-Fr 11:00-01:30; Sa 10:30-02:30; Su 10:30-01:30", "phone": "+1-312-440-0885", "source": "Bing 2012", "website": "https://www.corcoransoldtown.com/", "wheelchair": "no"}}, {"type": "way", "id": 206585437, "nodes": [2166039857, 2166039862, 2166039861, 2166039854, 2166039855, 2166039857], "tags": {"addr:city": "Chicago", "addr:country": "US", "addr:housenumber": "1552", "addr:postcode": "60610", "addr:state": "IL", "addr:street": "North Wells Street", "addr:street:name": "Wells", "addr:street:prefix": "North", "addr:street:type": "Street", "amenity": "cafe", "building": "yes", "building:levels": "2", "chicago:building_id": "304450", "name": "Kanela Breakfast Club", "phone": "+1-312-255-1206", "source": "Bing 2012", "website": "http://kanelacafe.com/"}}, {"type": "way", "id": 210315354, "nodes": [2203998741, 2203998749, 2203998788, 2203998793, 2203998747, 2203998741], "tags": {"addr:housenumber": "1548", "addr:street": "North Larrabee Street", "addr:street:name": "Larrabee", "addr:street:prefix": "North", "addr:street:type": "Street", "amenity": "restaurant", "building": "yes", "building:levels": "1", "chicago:building_id": "305179", "cuisine": "burger"}}, {"type": "way", "id": 210318212, "nodes": [2204034784, 2204034779, 2204034445, 2204034519, 2204034575, 2204035015, 2607221928, 2204034784], "tags": {"addr:housenumber": "2254-2264", "addr:street": "North Lincoln Avenue", "addr:street:name": "Lincoln", "addr:street:prefix": "North", "addr:street:type": "Avenue", "amenity": "cafe", "building": "yes", "chicago:building_id": "851014", "name": "Countryside Cafe"}}, {"type": "way", "id": 210318223, "nodes": [2204035573, 2204036024, 2204035943, 2204036056, 2204036147, 2204036347, 2204036210, 2204035410, 2204035573], "tags": {"addr:city": "Chicago", "addr:country": "US", "addr:housenumber": "2269", "addr:postcode": "60614", "addr:street": "North Lincoln Avenue", "addr:street:name": "Lincoln", "addr:street:prefix": "North", "addr:street:type": "Avenue", "amenity": "restaurant", "building": "yes", "chicago:building_id": "851040", "cuisine": "vietnamese", "name": "Simply it", "smoking": "no", "website": "http://www.chicagosimplyit.com/"}}, {"type": "way", "id": 210321426, "nodes": [2204047724, 2204047824, 2204048116, 2204047916, 2204047937, 2204047720, 2204047439, 2204047387, 2204047724], "tags": {"addr:city": "Chicago", "addr:housenumber": "2442", "addr:postcode": "60614", "addr:state": "IL", "addr:street": "North Clark Street", "addr:street:name": "Clark", "addr:street:prefix": "North", "addr:street:type": "Street", "amenity": "bar", "building": "yes", "chicago:building_id": "850323", "name": "Galway Arms", "opening_hours": "Mo-Fr 12:00-02:00; Sa 11:00-03:00; Su 11:00-01:00", "phone": "+1-773-472-5555", "website": "http://www.galwayarms.com/"}}, {"type": "way", "id": 210684661, "nodes": [2393465796, 2207637813, 6081060321, 2207637819, 2207637782, 6081060319, 2207637785, 2207637826, 2207637827, 2207637706, 2207637705, 2207637696, 2393465797, 2393465796], "tags": {"addr:city": "Chicago", "addr:housenumber": "1447", "addr:postcode": "60610", "addr:state": "IL", "addr:street": "North Wells Street", "addr:street:name": "Wells", "addr:street:prefix": "North", "addr:street:type": "Street", "amenity": "bar", "building": "yes", "building:levels": "3", "chicago:building_id": "309192", "name": "Burton Place", "phone": "+1-312-664-4699"}}, {"type": "way", "id": 210684734, "nodes": [2207638564, 2207638657, 2207638661, 2207638569, 2207638564], "tags": {"addr:housenumber": "1507", "addr:street": "North Sedgwick Street", "addr:street:name": "Sedgwick", "addr:street:prefix": "North", "addr:street:type": "Street", "amenity": "restaurant", "building": "yes", "building:levels": "1", "chicago:building_id": "815577", "cuisine": "chinese", "name": "Lan's China Bistro"}}, {"type": "way", "id": 210684816, "nodes": [2207639310, 2207638967, 2207638968, 2207638957, 2207638953, 2207639299, 2207639310], "tags": {"addr:housenumber": "1525-1527", "addr:street": "North Wells Street", "addr:street:name": "Wells", "addr:street:prefix": "North", "addr:street:type": "Street", "amenity": "bar", "building": "yes", "building:levels": "1", "chicago:building_id": "815256"}}, {"type": "way", "id": 210684908, "nodes": [2207640485, 2207640351, 2207640348, 2207640358, 2207640378, 2207640380, 2207640484, 2207640485], "tags": {"addr:housenumber": "157", "addr:street": "West North Avenue", "addr:street:name": "North", "addr:street:prefix": "West", "addr:street:type": "Avenue", "amenity": "restaurant", "building": "yes", "building:levels": "2", "chicago:building_id": "815206"}}, {"type": "way", "id": 210686862, "nodes": [2207658071, 2207658059, 2207658063, 2207658045, 2207658053, 2207658054, 2207658068, 2207658073, 2207658069, 2207658070, 2207658074, 2207658086, 2207658084, 2207658094, 2207658071], "tags": {"addr:city": "Chicago", "addr:housenumber": "2326", "addr:postcode": "60614", "addr:state": "IL", "addr:street": "North Clark Street", "addr:street:name": "Clark", "addr:street:prefix": "North", "addr:street:type": "Street", "amenity": "bar", "building": "yes", "building:levels": "3", "chicago:building_id": "866325", "name": "Ravens", "phone": "+1-773-348-1774", "website": "ravenschicago.com"}}, {"type": "way", "id": 240217310, "nodes": [2479668244, 2479668242, 2479668243, 2479668245, 2479668244], "tags": {"addr:city": "Chicago", "addr:housenumber": "1447", "addr:postcode": "60610", "addr:state": "IL", "addr:street": "North Sedgwick Street", "addr:street:name": "Sedgwick", "addr:street:prefix": "North", "addr:street:type": "Street", "amenity": "cafe", "building": "yes", "name": "Eva's Cafe", "phone": "+1-312-280-8900", "website": "https://evascafeoldtown.com/"}}]}