{"version": 0.6, "generator": "Overpass API 0.7.56.1004 6cd3eaec", "osm3s": {"timestamp_osm_base": "2020-07-22T03:19:02Z", "copyright": "The data included in this document is from www.openstreetmap.org. The data is made available under ODbL."}, "elements": [{"type": "node", "id": 261137171, "lat": 41.789634, "lon": -87.5947984}, {"type": "node", "id": 261139500, "lat": 41.7896618, "lon": -87.5915553}, {"type": "node", "id": 261139501, "lat": 41.7896475, "lon": -87.593169}, {"type": "node", "id": 261192510, "lat": 41.7932495, "lon": -87.5981069}, {"type": "node", "id": 261192511, "lat": 41.7914254, "lon": -87.5980749}, {"type": "node", "id": 261202782, "lat": 41.7914457, "lon": -87.59646, "tags": {"highway": "traffic_signals"}}, {"type": "node", "id": 1569129786, "lat": 41.7923579, "lon": -87.5980945}, {"type": "node", "id": 1587772175, "lat": 41.7886413, "lon": -87.5915309}, {"type": "node", "id": 1674040525, "lat": 41.7896504, "lon": -87.5928392}, {"type": "node", "id": 1685262396, "lat": 41.7904707, "lon": -87.5956245}, {"type": "node", "id": 1685262407, "lat": 41.7896407, "lon": -87.5939861}, {"type": "node", "id": 1685262428, "lat": 41.7896269, "lon": -87.5956037}, {"type": "node", "id": 1685262461, "lat": 41.7914529, "lon": -87.5956491}, {"type": "node", "id": 1685296310, "lat": 41.7914355, "lon": -87.5972717}, {"type": "node", "id": 1888650523, "lat": 41.79522, "lon": -87.5969439, "tags": {"addr:city": "Chicago", "addr:housenumber": "1172", "addr:postcode": "60615", "addr:state": "IL", "addr:street": "East 55th Street", "amenity": "bar", "name": "Woodlawn Tap", "phone": "+1-773-643-5516"}}, {"type": "node", "id": 1924565982, "lat": 41.7966977, "lon": -87.5996599}, {"type": "node", "id": 1924566154, "lat": 41.7954267, "lon": -87.5996308}, {"type": "node", "id": 1925417584, "lat": 41.7966019, "lon": -87.5981729}, {"type": "node", "id": 1925417585, "lat": 41.7954409, "lon": -87.5981418}, {"type": "node", "id": 2269174583, "lat": 41.7965929, "lon": -87.5988896}, {"type": "node", "id": 2269174586, "lat": 41.7967123, "lon": -87.5988965}, {"type": "node", "id": 2269174589, "lat": 41.796076, "lon": -87.5981588}, {"type": "node", "id": 2361072387, "lat": 41.8091967, "lon": -87.6200842, "tags": {"addr:housenumber": "225", "addr:street": "East 47th Street", "amenity": "restaurant", "cuisine": "chinese", "name": "Dragon Express"}}, {"type": "node", "id": 2380367815, "lat": 41.7877878, "lon": -87.6059295}, {"type": "node", "id": 2380367821, "lat": 41.7912756, "lon": -87.606037}, {"type": "node", "id": 2530062637, "lat": 41.7952204, "lon": -87.5971259, "tags": {"addr:city": "Chicago", "addr:housenumber": "1162", "addr:state": "IL", "addr:street": "East 55th Street", "amenity": "restaurant", "cuisine": "kebab;middle_eastern", "name": "Nile Restaurant"}}, {"type": "node", "id": 3259301888, "lat": 41.7949312, "lon": -87.5981693}, {"type": "node", "id": 5045399746, "lat": 41.7952195, "lon": -87.5970509, "tags": {"addr:city": "Chicago", "addr:housenumber": "1164", "addr:postcode": "60615", "addr:street": "East 55th Street", "amenity": "restaurant", "cuisine": "asian;latin_american", "name": "Saucy Porka", "phone": "+1 773 891 0429"}}, {"type": "node", "id": 5322743176, "lat": 41.7925886, "lon": -87.6060695}, {"type": "node", "id": 5526420067, "lat": 41.7958829, "lon": -87.5985012, "tags": {"amenity": "restaurant", "name": "LSTC Refectory"}}, {"type": "node", "id": 5545781672, "lat": 41.7879529, "lon": -87.5902808}, {"type": "node", "id": 5545781673, "lat": 41.7884906, "lon": -87.5915292}, {"type": "node", "id": 5545781674, "lat": 41.7885077, "lon": -87.5902419}, {"type": "node", "id": 5545781677, "lat": 41.788231, "lon": -87.5902281}, {"type": "node", "id": 5545781678, "lat": 41.7882433, "lon": -87.589449}, {"type": "node", "id": 5546046954, "lat": 41.7884909, "lon": -87.5915063}, {"type": "node", "id": 5546046956, "lat": 41.7879605, "lon": -87.5894438}, {"type": "node", "id": 5546076600, "lat": 41.7905388, "lon": -87.5956262}, {"type": "node", "id": 5622914298, "lat": 41.794856, "lon": -87.6060849}, {"type": "node", "id": 5773775704, "lat": 41.7948754, "lon": -87.5987636, "tags": {"addr:city": "Chicago", "addr:housenumber": "1125", "addr:postcode": "60637", "addr:state": "IL", "addr:street": "East 55th Street", "amenity": "restaurant", "cuisine": "pizza;italian", "name": "Nella Pizza e Pasta"}}, {"type": "node", "id": 5885767564, "lat": 41.7949763, "lon": -87.5981734}, {"type": "node", "id": 6282277094, "lat": 41.8099623, "lon": -87.5996723, "tags": {"addr:city": "Chicago", "addr:housenumber": "1060", "addr:postcode": "60653", "addr:state": "IL", "addr:street": "East 47th Street", "addr:unit": "FL 1", "amenity": "cafe", "name": "Carver 47 Cafe", "phone": "+1-773-285-1211", "website": "https://littleblackpearl.squarespace.com/carver-47/"}}, {"type": "node", "id": 6300738093, "lat": 41.8095528, "lon": -87.6159933, "tags": {"addr:city": "Chicago", "addr:housenumber": "4655", "addr:postcode": "60653", "addr:state": "IL", "addr:street": "South Doctor Martin Luther King Junior Drive", "amenity": "cafe", "name": "Spoken Word Cafe", "outdoor_seating": "yes", "phone": "+1-773-373-2233"}}, {"type": "node", "id": 6301077864, "lat": 41.8099311, "lon": -87.6161107, "tags": {"addr:city": "Chicago", "addr:housenumber": "464", "addr:postcode": "60653", "addr:state": "IL", "addr:street": "South Doctor Martin Luther King Junior Drive", "amenity": "bar", "name": "Renaissance Bronzeville", "phone": "+1-773-690-5416", "website": "http://www.renaissancebronzeville.com/"}}, {"type": "node", "id": 6303886441, "lat": 41.7948785, "lon": -87.5989799, "tags": {"addr:city": "Chicago", "addr:housenumber": "1115", "addr:postcode": "60615", "addr:state": "IL", "addr:street": "East 55th Street", "amenity": "cafe", "name": "Te\u2019amo Boba Bar", "phone": "+1-773-947-6547", "website": "http://teamobobabar.com/"}}, {"type": "node", "id": 6328357234, "lat": 41.802335, "lon": -87.6192115, "tags": {"addr:city": "Chicago", "addr:housenumber": "5059", "addr:postcode": "60615", "addr:state": "IL", "addr:street": "South Prairie Avenue", "amenity": "restaurant", "cuisine": "belgian", "name": "Friistyle"}}, {"type": "node", "id": 6328357236, "lat": 41.8019361, "lon": -87.6196353, "tags": {"addr:city": "Chicago", "addr:housenumber": "235", "addr:postcode": "60615", "addr:state": "IL", "addr:street": "East 51st Street", "amenity": "restaurant", "name": "Skidoe's Caf\u00e9 & Grill"}}, {"type": "node", "id": 6632496503, "lat": 41.7948858, "lon": -87.5991911, "tags": {"addr:city": "Chicago", "addr:housenumber": "1105", "addr:postcode": "60637", "addr:state": "IL", "addr:street": "East 55th Street", "amenity": "cafe", "brand": "Insomnia", "brand:wikidata": "Q6038271", "brand:wikipedia": "en:Insomnia Coffee Company", "cuisine": "coffee_shop", "name": "Insomnia", "takeaway": "yes"}}, {"type": "node", "id": 7244535738, "lat": 41.7889594, "lon": -87.5915385}, {"type": "way", "id": 145510728, "nodes": [5885767564, 5622914298, 5322743176, 2380367821, 2380367815, 5545781672, 5546046956, 5545781678, 5545781677, 5545781674, 5546046954, 5545781673, 1587772175, 7244535738, 261139500, 1674040525, 261139501, 1685262407, 261137171, 1685262428, 1685262396, 5546076600, 1685262461, 261202782, 1685296310, 261192511, 1569129786, 261192510, 3259301888, 5885767564], "tags": {"addr:city": "Chicago", "addr:housenumber": "5801", "addr:postcode": "60637", "addr:state": "IL", "addr:street": "South Ellis Avenue", "amenity": "university", "name": "The University of Chicago", "phone": "+1 773.702.1234", "website": "https://uchicago.edu", "wikidata": "Q131252", "wikipedia": "en:University of Chicago"}}, {"type": "way", "id": 182197318, "nodes": [1925417584, 2269174589, 1925417585, 1924566154, 1924565982, 2269174586, 2269174583, 1925417584], "tags": {"amenity": "university", "name": "Lutheran School of Theology", "wikidata": "Q6705732", "wikipedia": "en:Lutheran School of Theology at Chicago"}}]}