{"version": 0.6, "generator": "Overpass API 0.7.56.3 eb200aeb", "osm3s": {"timestamp_osm_base": "2020-07-04T02:26:03Z", "copyright": "The data included in this document is from www.openstreetmap.org. The data is made available under ODbL."}, "elements": [{"type": "node", "id": 261137171, "lat": 41.789634, "lon": -87.5947984}, {"type": "node", "id": 261139500, "lat": 41.7896618, "lon": -87.5915553}, {"type": "node", "id": 261139501, "lat": 41.7896475, "lon": -87.593169}, {"type": "node", "id": 261192510, "lat": 41.7932495, "lon": -87.5981069}, {"type": "node", "id": 261192511, "lat": 41.7914254, "lon": -87.5980749}, {"type": "node", "id": 261202782, "lat": 41.7914457, "lon": -87.59646, "tags": {"highway": "traffic_signals"}}, {"type": "node", "id": 1569129786, "lat": 41.7923579, "lon": -87.5980945}, {"type": "node", "id": 1580841427, "lat": 41.7916052, "lon": -87.5895793}, {"type": "node", "id": 1580841441, "lat": 41.7918567, "lon": -87.589585}, {"type": "node", "id": 1585474916, "lat": 41.7975164, "lon": -87.5862893}, {"type": "node", "id": 1585474940, "lat": 41.7980385, "lon": -87.584779}, {"type": "node", "id": 1585474960, "lat": 41.7980323, "lon": -87.5852705}, {"type": "node", "id": 1585474992, "lat": 41.7979862, "lon": -87.5862996}, {"type": "node", "id": 1585475024, "lat": 41.7974893, "lon": -87.5856813}, {"type": "node", "id": 1585475035, "lat": 41.7977617, "lon": -87.5852644}, {"type": "node", "id": 1585475082, "lat": 41.7977814, "lon": -87.5850681}, {"type": "node", "id": 1585475087, "lat": 41.7977832, "lon": -87.584921}, {"type": "node", "id": 1585475095, "lat": 41.7980331, "lon": -87.5856924}, {"type": "node", "id": 1585475102, "lat": 41.7977665, "lon": -87.5849206}, {"type": "node", "id": 1585475106, "lat": 41.7977641, "lon": -87.5850678}, {"type": "node", "id": 1585475108, "lat": 41.7980256, "lon": -87.5861959}, {"type": "node", "id": 1585475144, "lat": 41.7977683, "lon": -87.5847729}, {"type": "node", "id": 1585475146, "lat": 41.7979853, "lon": -87.5863437}, {"type": "node", "id": 1585475185, "lat": 41.7974812, "lon": -87.5862891}, {"type": "node", "id": 1585475193, "lat": 41.7976977, "lon": -87.5856854}, {"type": "node", "id": 1585475198, "lat": 41.7975158, "lon": -87.5863348}, {"type": "node", "id": 1585475202, "lat": 41.7980284, "lon": -87.5860522}, {"type": "node", "id": 1585475206, "lat": 41.7976977, "lon": -87.5856794}, {"type": "node", "id": 1585475229, "lat": 41.7980242, "lon": -87.5863015}, {"type": "node", "id": 1585475236, "lat": 41.7976093, "lon": -87.585684}, {"type": "node", "id": 1585475260, "lat": 41.7980317, "lon": -87.585821}, {"type": "node", "id": 1585475262, "lat": 41.7976093, "lon": -87.585678}, {"type": "node", "id": 1587772175, "lat": 41.7886413, "lon": -87.5915309}, {"type": "node", "id": 1630678799, "lat": 41.791168, "lon": -87.5937938}, {"type": "node", "id": 1630678824, "lat": 41.7912689, "lon": -87.5936997}, {"type": "node", "id": 1630678853, "lat": 41.7913847, "lon": -87.5938005}, {"type": "node", "id": 1630678855, "lat": 41.7913861, "lon": -87.5937022}, {"type": "node", "id": 1633485069, "lat": 41.7910104, "lon": -87.5937895}, {"type": "node", "id": 1633485070, "lat": 41.7910118, "lon": -87.5936927}, {"type": "node", "id": 1674040525, "lat": 41.7896504, "lon": -87.5928392}, {"type": "node", "id": 1685262396, "lat": 41.7904707, "lon": -87.5956245}, {"type": "node", "id": 1685262407, "lat": 41.7896407, "lon": -87.5939861}, {"type": "node", "id": 1685262428, "lat": 41.7896269, "lon": -87.5956037}, {"type": "node", "id": 1685262461, "lat": 41.7914529, "lon": -87.5956491}, {"type": "node", "id": 1685296310, "lat": 41.7914355, "lon": -87.5972717}, {"type": "node", "id": 1888612339, "lat": 41.7993839, "lon": -87.5889162, "tags": {"amenity": "restaurant", "cuisine": "italian", "name": "Pizza Capri"}}, {"type": "node", "id": 1888621190, "lat": 41.7996938, "lon": -87.5886587, "tags": {"amenity": "restaurant", "cuisine": "american", "name": "Mellow Yellow"}}, {"type": "node", "id": 1888626512, "lat": 41.7996838, "lon": -87.5883288, "tags": {"amenity": "restaurant", "cuisine": "american", "name": "Valois"}}, {"type": "node", "id": 2212461863, "lat": 41.7990502, "lon": -87.5903004}, {"type": "node", "id": 2212461871, "lat": 41.7990532, "lon": -87.5901225}, {"type": "node", "id": 2212461882, "lat": 41.7990601, "lon": -87.5901224}, {"type": "node", "id": 2212461885, "lat": 41.7990612, "lon": -87.5900912}, {"type": "node", "id": 2212462061, "lat": 41.7991828, "lon": -87.5903036}, {"type": "node", "id": 2212462065, "lat": 41.7991859, "lon": -87.5900953}, {"type": "node", "id": 2355622331, "lat": 41.7913847, "lon": -87.5937733, "tags": {"entrance": "main"}}, {"type": "node", "id": 2356542022, "lat": 41.7913357, "lon": -87.5938479, "tags": {"addr:city": "Chicago", "addr:housenumber": "1323", "addr:postcode": "60637", "addr:state": "IL", "addr:street": "East 57th Street", "amenity": "cafe", "cuisine": "sandwich", "name": "TrueNorth Cafe Hyde Park", "phone": "+1-773-538-7372", "website": "http://www.zhmarketcafe.com"}}, {"type": "node", "id": 2356542034, "lat": 41.791333, "lon": -87.5934223, "tags": {"addr:city": "Chicago", "addr:housenumber": "1333", "addr:postcode": "60637", "addr:state": "IL", "addr:street": "East 57th Street", "amenity": "restaurant", "cuisine": "asian", "name": "Noodles Etc", "website": "http://noodlesetc.com"}}, {"type": "node", "id": 2380367815, "lat": 41.7877878, "lon": -87.6059295}, {"type": "node", "id": 2380367821, "lat": 41.7912756, "lon": -87.606037}, {"type": "node", "id": 2625982794, "lat": 41.7949324, "lon": -87.5878505, "tags": {"addr:city": "Chicago", "addr:housenumber": "5506", "addr:postcode": "60637", "addr:state": "IL", "addr:street": "South Lake Park Avenue", "amenity": "restaurant", "cuisine": "mexican", "name": "Maravilla's"}}, {"type": "node", "id": 2625982796, "lat": 41.7998148, "lon": -87.5876046, "tags": {"addr:city": "Chicago", "addr:housenumber": "1530", "addr:postcode": "60615", "addr:state": "IL", "addr:street": "East 53rd Street", "amenity": "cafe", "brand": "Starbucks", "brand:wikidata": "Q37158", "brand:wikipedia": "en:Starbucks", "cuisine": "coffee_shop", "name": "Starbucks", "official_name": "Starbucks Coffee", "takeaway": "yes"}}, {"type": "node", "id": 2630670022, "lat": 41.7947524, "lon": -87.5806979, "tags": {"addr:city": "Chicago", "addr:housenumber": "5500", "addr:postcode": "60637", "addr:street": "South Shore Drive", "amenity": "restaurant", "name": "Bar Louie", "opening_hours": "Su-Th 11:00-01:00, Fr-Sa 11:00-02:00", "phone": "+1-773-363-5300", "website": "https://www.barlouie.com/locations/states/illinois/hyde-park-chicago"}}, {"type": "node", "id": 2968215000, "lat": 41.7951291, "lon": -87.584784, "tags": {"addr:city": "Chicago", "addr:housenumber": "1649", "addr:postcode": "60615", "addr:street": "East 55th Street", "amenity": "restaurant", "cuisine": "thai", "name": "The Snail", "smoking": "no"}}, {"type": "node", "id": 3218813269, "lat": 41.79896, "lon": -87.5876687, "tags": {"addr:city": "Chicago", "addr:housenumber": "5311", "addr:postcode": "60615", "addr:state": "IL", "addr:street": "South Lake Park Avenue West", "amenity": "restaurant", "bar": "yes", "name": "The Promontory", "outdoor_seating": "yes", "phone": "+1-312-801-2100", "website": "https://www.promontorychicago.com/"}}, {"type": "node", "id": 3259301888, "lat": 41.7949312, "lon": -87.5981693}, {"type": "node", "id": 4114593395, "lat": 41.7916126, "lon": -87.5901224, "tags": {"addr:city": "Chicago", "addr:housenumber": "1440", "addr:postcode": "60637", "addr:state": "IL", "addr:street": "East 57th Street", "amenity": "restaurant", "name": "Salonica"}}, {"type": "node", "id": 4114640708, "lat": 41.799405, "lon": -87.5899259, "tags": {"addr:city": "Chicago", "addr:housenumber": "1447", "addr:postcode": "60615", "addr:state": "IL", "addr:street": "East 53rd Street", "amenity": "restaurant", "brand": "Nando's", "brand:wikidata": "Q3472954", "brand:wikipedia": "en:Nando's", "cuisine": "chicken;portuguese", "name": "Nando's"}}, {"type": "node", "id": 4114640709, "lat": 41.799425, "lon": -87.5895057, "tags": {"addr:city": "Chicago", "addr:housenumber": "1459", "addr:postcode": "60615", "addr:state": "IL", "addr:street": "East 53rd Street", "amenity": "restaurant", "cuisine": "indian", "name": "Rajun Cajun"}}, {"type": "node", "id": 4114640710, "lat": 41.799426, "lon": -87.5886398, "tags": {"addr:city": "Chicago", "addr:housenumber": "1509", "addr:postcode": "60615", "addr:state": "IL", "addr:street": "East 53rd Street", "amenity": "restaurant", "cuisine": "asian", "name": "Chant"}}, {"type": "node", "id": 4114655789, "lat": 41.793528, "lon": -87.5851621, "tags": {"addr:city": "Chicago", "addr:housenumber": "1642", "addr:postcode": "60637", "addr:state": "IL", "addr:street": "East 56th Street", "amenity": "restaurant", "cuisine": "italian", "name": "Piccolo Mondo"}}, {"type": "node", "id": 4114655790, "lat": 41.7950891, "lon": -87.5865743, "tags": {"addr:city": "Chicago", "addr:housenumber": "1601", "addr:postcode": "60615", "addr:state": "IL", "addr:street": "East 55th Street", "amenity": "restaurant", "cuisine": "japanese", "description": "BYOB", "name": "Kikuya Japanese Restaurant"}}, {"type": "node", "id": 4114697507, "lat": 41.8004149, "lon": -87.5881445, "tags": {"addr:city": "Chicago", "addr:housenumber": "1518", "addr:postcode": "60615", "addr:state": "IL", "addr:street": "East Harper Court", "amenity": "restaurant", "diet:vegan": "yes", "name": "Native Foods Cafe"}}, {"type": "node", "id": 5313943420, "lat": 41.7916042, "lon": -87.5896553}, {"type": "node", "id": 5313945121, "lat": 41.7918562, "lon": -87.5896587}, {"type": "node", "id": 5322743176, "lat": 41.7925886, "lon": -87.6060695}, {"type": "node", "id": 5526428402, "lat": 41.7955036, "lon": -87.5886172, "tags": {"amenity": "restaurant", "cuisine": "french", "name": "La Petit Folie"}}, {"type": "node", "id": 5526430160, "lat": 41.7953364, "lon": -87.5841852, "tags": {"addr:housenumber": "1660", "addr:street": "East 55th Street", "amenity": "restaurant", "name": "Litehouse Whole Food Grill", "opening_hours": "Su-Th 11:00-22:00, Fr 11:00-(sunset-00:30), Sa (sunset+00:30)-00:00", "phone": "1-773-633-2587", "website": "http://litehousewholefoodgrill.com/"}}, {"type": "node", "id": 5545781672, "lat": 41.7879529, "lon": -87.5902808}, {"type": "node", "id": 5545781673, "lat": 41.7884906, "lon": -87.5915292}, {"type": "node", "id": 5545781674, "lat": 41.7885077, "lon": -87.5902419}, {"type": "node", "id": 5545781677, "lat": 41.788231, "lon": -87.5902281}, {"type": "node", "id": 5545781678, "lat": 41.7882433, "lon": -87.589449}, {"type": "node", "id": 5546046954, "lat": 41.7884909, "lon": -87.5915063}, {"type": "node", "id": 5546046956, "lat": 41.7879605, "lon": -87.5894438}, {"type": "node", "id": 5546076600, "lat": 41.7905388, "lon": -87.5956262}, {"type": "node", "id": 5622914298, "lat": 41.794856, "lon": -87.6060849}, {"type": "node", "id": 5706244256, "lat": 41.7996677, "lon": -87.5893002, "tags": {"addr:city": "Chicago", "addr:housenumber": "1462", "addr:postcode": "60615", "addr:state": "IL", "addr:street": "East 53rd Street", "amenity": "restaurant", "cuisine": "southern", "name": "Virtue", "phone": "+1-773-947-8831", "website": "https://www.virtuerestaurant.com"}}, {"type": "node", "id": 5706732631, "lat": 41.7950937, "lon": -87.5865266, "tags": {"amenity": "restaurant", "cuisine": "korean", "name": "Cafe Corea"}}, {"type": "node", "id": 5774169246, "lat": 41.795126, "lon": -87.5849544, "tags": {"addr:city": "Chicago", "addr:housenumber": "1639", "addr:state": "IL", "addr:street": "East 55th Street", "amenity": "restaurant", "cuisine": "thai", "name": "Siam Thai Cuisine"}}, {"type": "node", "id": 5873884645, "lat": 41.7991037, "lon": -87.5838597, "tags": {"addr:city": "Chicago", "addr:housenumber": "5319", "addr:postcode": "60615", "addr:state": "IL", "addr:street": "South Hyde Park Boulevard", "amenity": "restaurant", "cuisine": "burger", "name": "Mikkey's Retro Grill", "opening_hours": "Su-Th 11:00-00:00, Fr 11:00-(sunset-00:30), Sa (sunset+00:30)-02:00", "phone": "(773) 675-8525", "website": "http://mikkeys.com/"}}, {"type": "node", "id": 5873900689, "lat": 41.7994936, "lon": -87.5838694, "tags": {"addr:city": "Chicago", "addr:housenumber": "5301", "addr:postcode": "60615", "addr:state": "IL", "addr:street": "South Hyde Park Boulevard", "amenity": "cafe", "cuisine": "coffee_shop", "name": "Sip & Savor", "phone": "+1-773-952-4532", "website": "http://www.sipandsavorchicago.com/"}}, {"type": "node", "id": 5885767564, "lat": 41.7949763, "lon": -87.5981734}, {"type": "node", "id": 5973273795, "lat": 41.7993786, "lon": -87.591926, "tags": {"addr:city": "Chicago", "addr:housenumber": "5300", "addr:postcode": "60615", "addr:state": "IL", "addr:street": "South Dorchester Avenue", "amenity": "restaurant", "cuisine": "mexican", "name": "Hyde Park Taco Station", "website": "http://hptacostation.com/"}}, {"type": "node", "id": 6272547623, "lat": 41.7997751, "lon": -87.5848676, "tags": {"addr:city": "Chicago", "addr:housenumber": "1644", "addr:postcode": "60615", "addr:state": "IL", "addr:street": "East 53rd Street", "amenity": "restaurant", "name": "Bibliophile", "phone": "+1-872-244-3704", "website": "https://www.bibliophile.us"}}, {"type": "node", "id": 6289300231, "lat": 41.7993946, "lon": -87.5861891, "tags": {"addr:city": "Chicago", "addr:housenumber": "1601", "addr:postcode": "60615", "addr:state": "IL", "addr:street": "East 53rd Street", "amenity": "bar", "name": "Falcon Inn"}}, {"type": "node", "id": 6297644045, "lat": 41.801484, "lon": -87.5889339, "tags": {"addr:city": "Chicago", "addr:housenumber": "5121", "addr:postcode": "60615", "addr:state": "IL", "addr:street": "South Harper Avenue", "amenity": "bar", "name": "The Hyde"}}, {"type": "node", "id": 6306619050, "lat": 41.7954569, "lon": -87.5819295, "tags": {"addr:city": "Chicago", "addr:housenumber": "1750", "addr:postcode": "60615", "addr:state": "IL", "addr:street": "East 55th Street", "amenity": "bar", "name": "The Cove Lounge", "phone": "+1-773-684-1013", "website": "https://thecovelounge.com/"}}, {"type": "node", "id": 6314468408, "lat": 41.7996538, "lon": -87.5924057, "tags": {"addr:city": "Chicago", "addr:housenumber": "1368", "addr:postcode": "60615", "addr:state": "IL", "addr:street": "East 53rd Street", "amenity": "restaurant", "cuisine": "soul", "name": "The Soul Shack"}}, {"type": "node", "id": 6314861224, "lat": 41.8005317, "lon": -87.5885893, "tags": {"addr:city": "Chicago", "addr:housenumber": "1510", "addr:postcode": "60615", "addr:state": "IL", "addr:street": "East Harper Court", "amenity": "bar", "name": "Ja\u2019 Grill Hyde Park", "phone": "+1-773-752-5375", "website": "http://jagrill.com/"}}, {"type": "node", "id": 6322586993, "lat": 41.7992767, "lon": -87.5915431, "tags": {"addr:city": "Chicago", "addr:housenumber": "1411", "addr:postcode": "60615", "addr:state": "IL", "addr:street": "East 53rd Street", "amenity": "bar", "name": "Mesler Kitchen | Bar | Lounge", "phone": "+1-773-289-1005", "website": "https://sophyhotel.com/mesler-kitchen"}}, {"type": "node", "id": 6456320998, "lat": 41.7918066, "lon": -87.5796738, "tags": {"amenity": "cafe", "cuisine": "american", "name": "Beach cafe", "opening_hours": "Jun-Aug open \"Only open in summer\"", "outdoor_seating": "yes", "takeaway": "only"}}, {"type": "node", "id": 6848164610, "lat": 41.8022989, "lon": -87.5894227, "tags": {"addr:city": "Chicago", "addr:housenumber": "1461", "addr:postcode": "60615", "addr:state": "IL", "addr:street": "East Hyde Park Boulevard", "amenity": "restaurant", "cuisine": "chicken;caribbean", "name": "Uncle Joe's Jerk Chieken", "phone": "773-241-5550"}}, {"type": "node", "id": 6904052969, "lat": 41.7913352, "lon": -87.5939424, "tags": {"addr:city": "Chicago", "addr:housenumber": "1321", "addr:postcode": "60637", "addr:state": "IL", "addr:street": "East 57th Street", "amenity": "restaurant", "cuisine": "korean;mexican", "name": "Seoul Taco", "website": "https://www.seoultaco.com"}}, {"type": "node", "id": 7244535738, "lat": 41.7889594, "lon": -87.5915385}, {"type": "way", "id": 145096460, "nodes": [1585474960, 1585474940, 1585475144, 1585475102, 1585475087, 1585475082, 1585475106, 1585475035, 1585474960], "tags": {"addr:city": "Chicago", "addr:housenumber": "5401", "addr:postcode": "60615", "addr:street": "South Cornell Avenue", "addr:street:name": "Cornell", "addr:street:prefix": "South", "addr:street:type": "Avenue", "amenity": "university", "building": "university", "building:levels": "9", "chicago:building_id": "468675", "denomination": "catholic", "name": "Residence Hall - Catholic Theological Union", "religion": "christian"}}, {"type": "way", "id": 145096478, "nodes": [1585475108, 1585475229, 1585474992, 1585475146, 1585475198, 1585474916, 1585475185, 1585475024, 1585475236, 1585475262, 1585475206, 1585475193, 1585475095, 1585475260, 1585475202, 1585475108], "tags": {"addr:city": "Chicago", "addr:housenumber": "5416", "addr:postcode": "60615", "addr:state": "IL", "addr:street": "South Cornell Avenue", "addr:street:name": "Cornell", "addr:street:prefix": "South", "addr:street:type": "Avenue", "amenity": "university", "building": "university", "chicago:building_id": "837688", "denomination": "catholic", "name": "Academic Conference Center - Catholic Theological Union", "religion": "christian"}}, {"type": "way", "id": 145510728, "nodes": [5885767564, 5622914298, 5322743176, 2380367821, 2380367815, 5545781672, 5546046956, 5545781678, 5545781677, 5545781674, 5546046954, 5545781673, 1587772175, 7244535738, 261139500, 1674040525, 261139501, 1685262407, 261137171, 1685262428, 1685262396, 5546076600, 1685262461, 261202782, 1685296310, 261192511, 1569129786, 261192510, 3259301888, 5885767564], "tags": {"addr:city": "Chicago", "addr:housenumber": "5801", "addr:postcode": "60637", "addr:state": "IL", "addr:street": "South Ellis Avenue", "amenity": "university", "name": "The University of Chicago", "phone": "+1 773.702.1234", "website": "https://uchicago.edu", "wikidata": "Q131252", "wikipedia": "en:University of Chicago"}}, {"type": "way", "id": 211224886, "nodes": [2212462061, 2212462065, 2212461885, 2212461882, 2212461871, 2212461863, 2212462061], "tags": {"addr:city": "Chicago", "addr:housenumber": "5311", "addr:postcode": "60615", "addr:state": "IL", "addr:street": "South Blackstone Avenue", "addr:street:name": "Blackstone", "addr:street:prefix": "South", "addr:street:type": "Avenue", "amenity": "restaurant", "brand": "Giordano's Pizzeria", "brand:wikidata": "Q5563393", "brand:wikipedia": "en:Giordano's Pizzeria", "building": "retail", "building:levels": "1", "chicago:building_id": "867937", "cuisine": "pizza", "name": "Giordano's Pizzeria"}}, {"type": "way", "id": 226829154, "nodes": [1630678853, 2355622331, 1630678855, 1630678824, 1633485070, 1633485069, 1630678799, 1630678853], "tags": {"addr:city": "Chicago", "addr:housenumber": "1327", "addr:postcode": "60637", "addr:state": "IL", "addr:street": "East 57th Street", "addr:street:name": "57th", "addr:street:prefix": "East", "addr:street:type": "Street", "amenity": "restaurant", "building": "retail", "building:levels": "2", "chicago:building_id": "491744", "name": "Medici on 57th", "website": "http://www.medici57.com", "wheelchair": "limited"}}, {"type": "way", "id": 550162345, "nodes": [5313945121, 1580841441, 1580841427, 5313943420, 5313945121], "tags": {"addr:city": "Chicago", "addr:housenumber": "1450", "addr:postcode": "60637", "addr:state": "IL", "addr:street": "East 57th Street", "amenity": "restaurant", "building": "yes", "diet:gluten_free": "only", "diet:raw": "yes", "diet:vegan": "only", "name": "B'Gabs Goodies", "website": "https://www.bgabsgoodies.com/"}}]}