{"version": 0.6, "generator": "Overpass API 0.7.56.1004 6cd3eaec", "osm3s": {"timestamp_osm_base": "2020-07-22T00:28:03Z", "copyright": "The data included in this document is from www.openstreetmap.org. The data is made available under ODbL."}, "elements": [{"type": "node", "id": 306743175, "lat": 41.8814867, "lon": -87.6264274, "tags": {"amenity": "restaurant", "name": "Ada's Famous Deli & Restaurant"}}, {"type": "node", "id": 306744471, "lat": 41.8843674, "lon": -87.626481, "tags": {"amenity": "cafe", "brand": "Starbucks", "brand:wikidata": "Q37158", "brand:wikipedia": "en:Starbucks", "cuisine": "coffee_shop", "name": "Starbucks", "official_name": "Starbucks Coffee", "takeaway": "yes"}}, {"type": "node", "id": 306744602, "lat": 41.8831644, "lon": -87.6263353, "tags": {"amenity": "cafe", "brand": "Starbucks", "brand:wikidata": "Q37158", "brand:wikipedia": "en:Starbucks", "cuisine": "coffee_shop", "name": "Starbucks", "official_name": "Starbucks Coffee", "takeaway": "yes"}}, {"type": "node", "id": 310690817, "lat": 41.8770433, "lon": -87.6274643}, {"type": "node", "id": 310690820, "lat": 41.8777003, "lon": -87.6263143}, {"type": "node", "id": 310690823, "lat": 41.8782472, "lon": -87.6258953}, {"type": "node", "id": 310690824, "lat": 41.8782311, "lon": -87.6269547}, {"type": "node", "id": 310690825, "lat": 41.8786521, "lon": -87.6269691}, {"type": "node", "id": 310690826, "lat": 41.8786439, "lon": -87.6275052}, {"type": "node", "id": 318274065, "lat": 41.8819671, "lon": -87.6255232, "tags": {"amenity": "restaurant", "cuisine": "pizza;pasta", "name": "Pizano's Pizza & Pasta"}}, {"type": "node", "id": 354128581, "lat": 41.8761445, "lon": -87.6251612, "tags": {"addr:city": "Chicago", "addr:housenumber": "430", "addr:postcode": "60605", "addr:state": "IL", "addr:street": "South Michigan Avenue", "amenity": "university", "ele": "180", "gnis:county_id": "031", "gnis:created": "01/15/1980", "gnis:feature_id": "416929", "gnis:state_id": "17", "name": "Roosevelt University", "website": "https://www.roosevelt.edu/", "wikidata": "Q2124886", "wikipedia": "en:Roosevelt University"}}, {"type": "node", "id": 357046400, "lat": 41.8687459, "lon": -87.62632, "tags": {"amenity": "restaurant", "name": "Eleven City Diner", "url": "http://www.elevencitydiner.com/"}}, {"type": "node", "id": 368064192, "lat": 41.879264, "lon": -87.6284211, "tags": {"addr:city": "Chicago", "addr:housenumber": "17", "addr:postcode": "60603", "addr:state": "IL", "addr:street": "West Adams Street", "amenity": "restaurant", "ele": "182", "gnis:county_name": "Cook", "gnis:feature_id": "1825882", "gnis:import_uuid": "57871b70-0100-4405-bb30-88b2e001a944", "gnis:reviewed": "no", "name": "The Berghoff Restaurant", "opening_hours": "Mo-Fr 11:00-21:00; Sa 11:30-21:00", "phone": "+1-312-427-3170", "source": "USGS Geonames", "website": "https://www.theberghoff.com/", "wikidata": "Q7716549", "wikipedia": "en:The Berghoff (restaurant)"}}, {"type": "node", "id": 394818567, "lat": 41.8799913, "lon": -87.6294973, "tags": {"amenity": "cafe", "name": "Corner Bakery Cafe", "opening_hours": "Mo-Fr 6:30-17:30", "phone": "(312) 920-9100", "url": "http://www.cornerbakerycafe.com", "website": "https://www.cornerbakerycafe.com/"}}, {"type": "node", "id": 417255753, "lat": 41.8777196, "lon": -87.6252855}, {"type": "node", "id": 417255755, "lat": 41.8786184, "lon": -87.6252568}, {"type": "node", "id": 417255756, "lat": 41.8786095, "lon": -87.6259019}, {"type": "node", "id": 417255758, "lat": 41.8783458, "lon": -87.62525}, {"type": "node", "id": 417255759, "lat": 41.8783369, "lon": -87.6258951}, {"type": "node", "id": 417255762, "lat": 41.8770525, "lon": -87.626933}, {"type": "node", "id": 566504090, "lat": 41.8725708, "lon": -87.6289165, "tags": {"amenity": "restaurant", "cuisine": "western", "name": "Hackney's", "phone": "(312)-1116", "source:name": "local_knowledge", "website": "http://www.hackneysprintersrow.net/"}}, {"type": "node", "id": 872697084, "lat": 41.8775142, "lon": -87.6286154}, {"type": "node", "id": 872697087, "lat": 41.8775162, "lon": -87.6282707}, {"type": "node", "id": 873087094, "lat": 41.8774321, "lon": -87.6286141}, {"type": "node", "id": 873087096, "lat": 41.8774341, "lon": -87.6282695}, {"type": "node", "id": 878223676, "lat": 41.8758557, "lon": -87.6335148}, {"type": "node", "id": 878223677, "lat": 41.8758597, "lon": -87.633146}, {"type": "node", "id": 878226185, "lat": 41.8757715, "lon": -87.633146}, {"type": "node", "id": 878226189, "lat": 41.8757888, "lon": -87.6335135}, {"type": "node", "id": 878233833, "lat": 41.8757898, "lon": -87.6334813}, {"type": "node", "id": 878233845, "lat": 41.8757739, "lon": -87.6334813}, {"type": "node", "id": 878233847, "lat": 41.8757739, "lon": -87.6334625}, {"type": "node", "id": 878233852, "lat": 41.8757669, "lon": -87.6334625}, {"type": "node", "id": 1233948945, "lat": 41.8720597, "lon": -87.6288064, "tags": {"amenity": "restaurant", "name": "Bar Louie"}}, {"type": "node", "id": 1233963027, "lat": 41.8729565, "lon": -87.6271894, "tags": {"amenity": "restaurant", "name": "South Loop Club"}}, {"type": "node", "id": 1308260687, "lat": 41.8843548, "lon": -87.625863, "tags": {"addr:city": "Chicago", "addr:housenumber": "53", "addr:postcode": "60601", "addr:state": "IL", "addr:street": "East Randolph Street", "amenity": "cafe", "cuisine": "coffee_shop", "name": "Intelligentsia Coffee", "phone": "+1-312-920-9332", "website": "https://www.intelligentsiacoffee.com/millennium-park-coffeebar", "wheelchair": "yes"}}, {"type": "node", "id": 1388390051, "lat": 41.8777084, "lon": -87.6258865}, {"type": "node", "id": 1388390121, "lat": 41.8801089, "lon": -87.6301844}, {"type": "node", "id": 1388390184, "lat": 41.8806167, "lon": -87.6301987}, {"type": "node", "id": 1407580195, "lat": 41.8781757, "lon": -87.6252389}, {"type": "node", "id": 1448920554, "lat": 41.8795688, "lon": -87.6288735, "tags": {"amenity": "cafe", "cuisine": "sandwich", "name": "Hannah's Bretzel"}}, {"type": "node", "id": 1448920557, "lat": 41.879552, "lon": -87.6297946, "tags": {"amenity": "restaurant", "cuisine": "diner", "name": "Marquette Inn"}}, {"type": "node", "id": 1448920558, "lat": 41.8793064, "lon": -87.6309801, "tags": {"amenity": "cafe", "brand": "Starbucks", "brand:wikidata": "Q37158", "brand:wikipedia": "en:Starbucks", "cuisine": "coffee_shop", "name": "Starbucks", "official_name": "Starbucks Coffee", "takeaway": "yes"}}, {"type": "node", "id": 1468261385, "lat": 41.884655, "lon": -87.6285672, "tags": {"addr:city": "Chicago", "addr:housenumber": "16", "addr:postcode": "60601", "addr:state": "IL", "addr:street": "West Randolph Street", "amenity": "cafe", "contact:website": "http://www.argotea.com", "name": "Argo Tea", "phone": "+1-312-324-3899", "source": "survey", "website": "https://www.argotea.com/"}}, {"type": "node", "id": 1586352084, "lat": 41.8783225, "lon": -87.6269578}, {"type": "node", "id": 1586352086, "lat": 41.8783139, "lon": -87.6274957}, {"type": "node", "id": 1589049102, "lat": 41.8770602, "lon": -87.6262954}, {"type": "node", "id": 1606983510, "lat": 41.8801106, "lon": -87.6300759}, {"type": "node", "id": 1606983511, "lat": 41.880142, "lon": -87.6300768}, {"type": "node", "id": 1606983512, "lat": 41.8806184, "lon": -87.6300903}, {"type": "node", "id": 1612636747, "lat": 41.8811917, "lon": -87.6272512}, {"type": "node", "id": 1612636775, "lat": 41.8810857, "lon": -87.6263381}, {"type": "node", "id": 1612636786, "lat": 41.8812031, "lon": -87.6263407}, {"type": "node", "id": 1612636787, "lat": 41.8811947, "lon": -87.6270076}, {"type": "node", "id": 1612636792, "lat": 41.8810744, "lon": -87.6272486}, {"type": "node", "id": 1619741021, "lat": 41.8782768, "lon": -87.6384828, "tags": {"amenity": "cafe", "name": "Corner Bakery"}}, {"type": "node", "id": 1623625816, "lat": 41.8728973, "lon": -87.6261378}, {"type": "node", "id": 1623626008, "lat": 41.8730251, "lon": -87.6261415}, {"type": "node", "id": 1623626170, "lat": 41.8728877, "lon": -87.6267382}, {"type": "node", "id": 1623626541, "lat": 41.8730156, "lon": -87.6267419}, {"type": "node", "id": 1699207181, "lat": 41.8731754, "lon": -87.6289521, "tags": {"addr:city": "Chicago", "addr:housenumber": "701", "addr:postcode": "60605", "addr:state": "IL", "addr:street": "South Dearborn Street", "amenity": "bar", "name": "Kasey's Tavern", "phone": "+1-312-427-7992", "website": "http://kaseystavern.com/"}}, {"type": "node", "id": 1699221031, "lat": 41.8801234, "lon": -87.6376582, "tags": {"amenity": "restaurant", "name": "Pazzo's"}}, {"type": "node", "id": 1699222242, "lat": 41.8795166, "lon": -87.6340258, "tags": {"amenity": "cafe", "brand": "Starbucks", "brand:wikidata": "Q37158", "brand:wikipedia": "en:Starbucks", "cuisine": "coffee_shop", "name": "Starbucks", "official_name": "Starbucks Coffee", "takeaway": "yes"}}, {"type": "node", "id": 1830940583, "lat": 41.8846515, "lon": -87.6237671, "tags": {"amenity": "restaurant", "name": "Market Creations"}}, {"type": "node", "id": 1951914730, "lat": 41.8779796, "lon": -87.6347084, "tags": {"amenity": "restaurant", "brand:wikidata": "Q5563393", "brand:wikipedia": "en:Giordano's Pizzeria", "cuisine": "pizza", "name": "Giordanos", "name:ko": "\uc9c0\uc624\ub2e4\ub178\uc2a4", "opening_hours": "Mo-Th 11:00-22:00;Fr-Sa 11:00-23:00;Su 11:00-22:00", "phone": "(312) 583-9400", "source": "survey", "website": "https://giordanos.com/locations/downtown-central-loop"}}, {"type": "node", "id": 2095093507, "lat": 41.8800158, "lon": -87.6223457, "tags": {"amenity": "restaurant", "cuisine": "italian", "name": "Terzo Piano"}}, {"type": "node", "id": 2143100432, "lat": 41.8781253, "lon": -87.6274891}, {"type": "node", "id": 2180600329, "lat": 41.8770544, "lon": -87.6267784}, {"type": "node", "id": 2180600337, "lat": 41.8781403, "lon": -87.6252378}, {"type": "node", "id": 2180600349, "lat": 41.8778542, "lon": -87.6252934}, {"type": "node", "id": 2180600354, "lat": 41.8770594, "lon": -87.6263654}, {"type": "node", "id": 2180600356, "lat": 41.8778553, "lon": -87.6252292}, {"type": "node", "id": 2180600367, "lat": 41.8770569, "lon": -87.6265692}, {"type": "node", "id": 2206240972, "lat": 41.867171, "lon": -87.6261731}, {"type": "node", "id": 2206240974, "lat": 41.867172, "lon": -87.6260095}, {"type": "node", "id": 2206240981, "lat": 41.8672087, "lon": -87.6261735}, {"type": "node", "id": 2206240982, "lat": 41.8672081, "lon": -87.6262677}, {"type": "node", "id": 2206240987, "lat": 41.867267, "lon": -87.6262684}, {"type": "node", "id": 2206240988, "lat": 41.8672686, "lon": -87.6260106}, {"type": "node", "id": 2206240989, "lat": 41.8674262, "lon": -87.6389038}, {"type": "node", "id": 2206240990, "lat": 41.8674239, "lon": -87.6390264}, {"type": "node", "id": 2206241002, "lat": 41.8676265, "lon": -87.6390334}, {"type": "node", "id": 2206241005, "lat": 41.8676342, "lon": -87.6390307}, {"type": "node", "id": 2206241006, "lat": 41.8676473, "lon": -87.639013}, {"type": "node", "id": 2206241007, "lat": 41.8676477, "lon": -87.6389178}, {"type": "node", "id": 2206241008, "lat": 41.8676487, "lon": -87.6390015}, {"type": "node", "id": 2207543668, "lat": 41.8846143, "lon": -87.6251813}, {"type": "node", "id": 2207543680, "lat": 41.8846211, "lon": -87.6247295}, {"type": "node", "id": 2207543684, "lat": 41.884682, "lon": -87.6248133}, {"type": "node", "id": 2207543732, "lat": 41.8847487, "lon": -87.6247189}, {"type": "node", "id": 2207543820, "lat": 41.8850246, "lon": -87.6251878}, {"type": "node", "id": 2207543823, "lat": 41.88503, "lon": -87.6247286}, {"type": "node", "id": 2308952640, "lat": 41.8798703, "lon": -87.6264312, "tags": {"addr:city": "Chicago", "addr:housenumber": "134", "addr:postcode": "60603", "addr:state": "IL", "addr:street": "South Wabash Avenue", "amenity": "restaurant", "contact:website": "http://millerspub.com", "name": "Miller\u2019s Pub", "phone": "+1-312-263-4988", "website": "http://millerspub.com/"}}, {"type": "node", "id": 2311635023, "lat": 41.8790994, "lon": -87.6362226, "tags": {"amenity": "cafe", "brand": "Starbucks", "brand:wikidata": "Q37158", "brand:wikipedia": "en:Starbucks", "cuisine": "coffee_shop", "name": "Starbucks", "official_name": "Starbucks Coffee", "opening_hours": "Mo-Fr 05:30-18:00", "takeaway": "yes"}}, {"type": "node", "id": 2339738578, "lat": 41.88236, "lon": -87.6247282, "tags": {"amenity": "cafe", "brand": "Starbucks", "brand:wikidata": "Q37158", "brand:wikipedia": "en:Starbucks", "cuisine": "coffee_shop", "name": "Starbucks", "official_name": "Starbucks Coffee", "takeaway": "yes"}}, {"type": "node", "id": 2353611001, "lat": 41.8678267, "lon": -87.6264154}, {"type": "node", "id": 2353611003, "lat": 41.8675921, "lon": -87.6264795}, {"type": "node", "id": 2353611004, "lat": 41.867594, "lon": -87.6264441, "tags": {"entrance": "main"}}, {"type": "node", "id": 2353611005, "lat": 41.8678254, "lon": -87.6264851}, {"type": "node", "id": 2353611006, "lat": 41.8675927, "lon": -87.6264087}, {"type": "node", "id": 2353615733, "lat": 41.8677461, "lon": -87.626052, "tags": {"addr:housenumber": "1150", "addr:postcode": "60605", "addr:street": "South Wabash Avenue", "amenity": "restaurant", "cuisine": "sandwich", "name": "Artists cafe", "website": "http://www.artists-cafe.com"}}, {"type": "node", "id": 2354819233, "lat": 41.8715417, "lon": -87.6271677, "tags": {"addr:city": "Chicago", "addr:housenumber": "805", "addr:postcode": "60605", "addr:state": "IL", "addr:street": "South State Street", "amenity": "restaurant", "name": "Lou Malnati's Pizzeria", "phone": "+1-312-786-1000", "website": "https://www.loumalnatis.com/"}}, {"type": "node", "id": 2356511944, "lat": 41.8676519, "lon": -87.6260638, "tags": {"addr:city": "Chicago", "addr:housenumber": "1152", "addr:postcode": "60605", "addr:state": "IL", "addr:street": "South Wabash Avenue", "amenity": "restaurant", "name": "The Bongo Room", "phone": "+1-312-291-0100", "website": "http://thebongoroom.com"}}, {"type": "node", "id": 2356511947, "lat": 41.8676105, "lon": -87.6263471, "tags": {"addr:housenumber": "28", "addr:postcode": "60605", "addr:street": "East Roosevelt Road", "amenity": "restaurant", "cuisine": "chinese", "name": "Yang", "website": "http://www.yangrestaurant.com"}}, {"type": "node", "id": 2356511949, "lat": 41.8688239, "lon": -87.6246198, "tags": {"addr:city": "Chicago", "addr:housenumber": "1120", "addr:postcode": "60605", "addr:state": "IL", "addr:street": "South Michigan Avenue", "amenity": "restaurant", "cuisine": "breakfast", "name": "Yolk - South Loop", "phone": "+1-312-789-9655", "website": "https://eatyolk.com/"}}, {"type": "node", "id": 2356514770, "lat": 41.8695069, "lon": -87.627184, "tags": {"addr:city": "Chicago", "addr:housenumber": "1023", "addr:postcode": "60605", "addr:state": "IL", "addr:street": "South State Street", "amenity": "bar", "name": "Tantrum", "phone": "+1-312-939-9160", "website": "http://www.tantrumsouthloop.com"}}, {"type": "node", "id": 2356515318, "lat": 41.8733556, "lon": -87.6245716, "tags": {"amenity": "restaurant", "name": "Mercat a La Plaxa"}}, {"type": "node", "id": 2356821098, "lat": 41.8677039, "lon": -87.6265356, "tags": {"addr:city": "Chicago", "addr:housenumber": "22", "addr:postcode": "60605", "addr:state": "IL", "addr:street": "East Roosevelt Road", "amenity": "cafe", "cuisine": "sandwich", "name": "Butterfield Kitchen", "website": "http://butterfield-kitchen.com"}}, {"type": "node", "id": 2391131209, "lat": 41.8848636, "lon": -87.6247229, "tags": {"entrance": "yes"}}, {"type": "node", "id": 2397703811, "lat": 41.8846699, "lon": -87.6247967}, {"type": "node", "id": 2397703812, "lat": 41.8846191, "lon": -87.6248592}, {"type": "node", "id": 2397703813, "lat": 41.88462, "lon": -87.6248016, "tags": {"entrance": "yes"}}, {"type": "node", "id": 2423436407, "lat": 41.8810621, "lon": -87.630568, "tags": {"addr:housenumber": "47", "addr:postcode": "60603", "addr:street": "South Clark Street", "amenity": "restaurant", "brand": "Noodles & Company", "brand:wikidata": "Q7049673", "brand:wikipedia": "en:Noodles & Company", "cuisine": "pasta", "name": "Noodles & Company", "website": "https://www.noodles.com/"}}, {"type": "node", "id": 2427403731, "lat": 41.8844733, "lon": -87.6238606, "tags": {"amenity": "cafe", "brand": "Starbucks", "brand:wikidata": "Q37158", "brand:wikipedia": "en:Starbucks", "cuisine": "coffee_shop", "layer": "-1", "level": "-1", "name": "Starbucks", "official_name": "Starbucks Coffee", "takeaway": "yes"}}, {"type": "node", "id": 2427546347, "lat": 41.8846595, "lon": -87.6241745, "tags": {"addr:city": "Chicago", "addr:housenumber": "151", "addr:postcode": "60601", "addr:state": "IL", "addr:street": "North Michigan Avenue", "amenity": "bar", "layer": "-1", "level": "+1-312-929-3080", "name": "M Bar", "website": "http://mbarchicago.com/"}}, {"type": "node", "id": 2446587867, "lat": 41.880571, "lon": -87.6285479, "tags": {"amenity": "restaurant", "name": "Grill Room"}}, {"type": "node", "id": 2481236973, "lat": 41.8817605, "lon": -87.6350799, "tags": {"addr:city": "Chicago", "addr:housenumber": "1", "addr:postcode": "60606", "addr:state": "IL", "addr:street": "South Franklin Street", "amenity": "cafe", "name": "Argo Tea Cafe", "website": "https://www.argotea.com/"}}, {"type": "node", "id": 2481236977, "lat": 41.8814763, "lon": -87.6350605, "tags": {"amenity": "restaurant", "brand": "Noodles & Company", "brand:wikidata": "Q7049673", "brand:wikipedia": "en:Noodles & Company", "cuisine": "pasta", "name": "Noodles & Company"}}, {"type": "node", "id": 2481236983, "lat": 41.8817746, "lon": -87.6355264, "tags": {"amenity": "cafe", "brand": "Starbucks", "brand:wikidata": "Q37158", "brand:wikipedia": "en:Starbucks", "cuisine": "coffee_shop", "name": "Starbucks", "official_name": "Starbucks Coffee", "takeaway": "yes", "website": "https://www.starbucks.com/"}}, {"type": "node", "id": 2485000319, "lat": 41.8846116, "lon": -87.6373395, "tags": {"amenity": "cafe", "brand": "Starbucks", "brand:wikidata": "Q37158", "brand:wikipedia": "en:Starbucks", "cuisine": "coffee_shop", "name": "Starbucks", "official_name": "Starbucks Coffee", "takeaway": "yes"}}, {"type": "node", "id": 2485002533, "lat": 41.8827411, "lon": -87.6365963, "tags": {"amenity": "restaurant", "name": "Taco Fresco"}}, {"type": "node", "id": 2485002923, "lat": 41.8804491, "lon": -87.6377508, "tags": {"amenity": "bar", "name": "South Branch"}}, {"type": "node", "id": 2485002926, "lat": 41.8804904, "lon": -87.6375454, "tags": {"amenity": "cafe", "brand": "Starbucks", "brand:wikidata": "Q37158", "brand:wikipedia": "en:Starbucks", "cuisine": "coffee_shop", "name": "Starbucks", "official_name": "Starbucks Coffee", "takeaway": "yes"}}, {"type": "node", "id": 2507409373, "lat": 41.8806717, "lon": -87.6266391, "tags": {"amenity": "restaurant", "brand": "Freshii", "brand:wikidata": "Q5503051", "brand:wikipedia": "en:Freshii", "cuisine": "salad", "name": "Freshii"}}, {"type": "node", "id": 2567367898, "lat": 41.8808772, "lon": -87.6266658, "tags": {"addr:city": "Chicago", "addr:country": "US", "addr:housenumber": "44", "addr:postcode": "60603", "addr:state": "IL", "addr:street": "South Wabash Avenue", "amenity": "restaurant", "brand": "Vapiano", "brand:wikidata": "Q506252", "brand:wikipedia": "en:Vapiano", "cuisine": "italian", "entrance": "yes", "name": "Vapiano"}}, {"type": "node", "id": 2633069904, "lat": 41.8670718, "lon": -87.6243199, "tags": {"addr:housenumber": "1250", "addr:street": "South Michigan Avenue", "amenity": "restaurant", "cuisine": "Comfort_Food", "name": "Crave Cafe and Lounge"}}, {"type": "node", "id": 2670170013, "lat": 41.8821639, "lon": -87.6399799, "tags": {"amenity": "restaurant", "cuisine": "thai", "name": "Thai Urban Kitchen", "website": "http://www.thaiurbankitchen.com/"}}, {"type": "node", "id": 2819241297, "lat": 41.8830968, "lon": -87.6255717, "tags": {"addr:city": "Chicago", "addr:housenumber": "55", "addr:postcode": "60602", "addr:state": "IL", "addr:street": "East Washington Street", "amenity": "cafe", "name": "Pittsfield Cafe", "phone": "+!-312-726-2020", "website": "https://pittsfieldcafe.com/"}}, {"type": "node", "id": 2819241298, "lat": 41.8827141, "lon": -87.6257155, "tags": {"addr:city": "Chicago", "addr:housenumber": "21", "addr:postcode": "60602", "addr:state": "IL", "addr:street": "North Wabash Avenue", "amenity": "restaurant", "cuisine": "mediterranean", "name": "Oasis Cafe", "phone": "+1-312-443-9534"}}, {"type": "node", "id": 2819245978, "lat": 41.8830642, "lon": -87.6264632, "tags": {"amenity": "cafe", "brand": "Starbucks", "brand:wikidata": "Q37158", "brand:wikipedia": "en:Starbucks", "cuisine": "coffee_shop", "name": "Starbucks", "official_name": "Starbucks Coffee", "takeaway": "yes"}}, {"type": "node", "id": 2819355816, "lat": 41.8830549, "lon": -87.6281296, "tags": {"addr:city": "Chicago", "addr:housenumber": "1", "addr:postcode": "60602", "addr:state": "IL", "addr:street": "West Washington Street", "amenity": "restaurant", "name": "Atwood", "phone": "+1-312-368-1900", "website": "https://atwoodrestaurant.com/"}}, {"type": "node", "id": 2819630141, "lat": 41.8707557, "lon": -87.6283739, "tags": {"amenity": "restaurant", "cuisine": "indian", "name": "Chicago Curry House"}}, {"type": "node", "id": 2882728188, "lat": 41.8821839, "lon": -87.6391068, "tags": {"amenity": "cafe", "brand": "Starbucks", "brand:wikidata": "Q37158", "brand:wikipedia": "en:Starbucks", "cuisine": "coffee_shop", "name": "Starbucks", "official_name": "Starbucks Coffee", "takeaway": "yes"}}, {"type": "node", "id": 2882732990, "lat": 41.8821849, "lon": -87.6388681, "tags": {"amenity": "restaurant", "cuisine": "mediterranean", "name": "Mezza Mediterranean Grill"}}, {"type": "node", "id": 2885201538, "lat": 41.8847203, "lon": -87.624759}, {"type": "node", "id": 2885201541, "lat": 41.8849433, "lon": -87.6251865}, {"type": "node", "id": 2950067046, "lat": 41.8726204, "lon": -87.627332, "tags": {"addr:housenumber": "719", "addr:street": "South State Street", "amenity": "restaurant", "cuisine": "pizza", "name": "Pauly's Pizza-Ria", "phone": "+1-312-957-1111"}}, {"type": "node", "id": 2950067047, "lat": 41.8711564, "lon": -87.6272616, "tags": {"addr:city": "Chicago", "addr:housenumber": "825", "addr:postcode": "60605", "addr:state": "IL", "addr:street": "South State Street", "amenity": "restaurant", "cuisine": "italian", "name": "Pazzo's"}}, {"type": "node", "id": 3131681676, "lat": 41.8716589, "lon": -87.6262014, "tags": {"addr:city": "Chicago", "addr:housenumber": "41", "addr:postcode": "60605", "addr:state": "IL", "addr:street": "East 8th Street", "amenity": "cafe", "brand": "Peet's Coffee", "brand:wikidata": "Q1094101", "brand:wikipedia": "en:Peet's Coffee", "cuisine": "coffee_shop", "name": "Peet's Coffee", "phone": "+1-312-489-5097", "takeaway": "yes", "website": "https://www.peets.com/"}}, {"type": "node", "id": 3131705137, "lat": 41.8734221, "lon": -87.6304581, "tags": {"addr:city": "Chicago", "addr:housenumber": "643", "addr:postcode": "60605", "addr:state": "IL", "addr:street": "South Clark Street", "amenity": "bar", "name": "First Draft", "phone": "+1-312-461-1062", "website": "http://www.firstdraftchicago.com/"}}, {"type": "node", "id": 3217035460, "lat": 41.8762035, "lon": -87.6272172, "tags": {"amenity": "university", "building": "school", "name": "Robert Morris University", "source": "http://www.robertmorris.edu/", "website": "https://robertmorris.edu/", "wikidata": "Q7347822"}}, {"type": "node", "id": 3238872061, "lat": 41.8776265, "lon": -87.6296654, "tags": {"addr:city": "Chicago", "addr:housenumber": "53", "addr:postcode": "60604", "addr:state": "IL", "addr:street": "West Jackson Boulevard", "amenity": "bar", "name": "Cavanaughs", "opening_hours": "Mo-Fr 11:00-22:00, Mo-Fr 11:00-20:00 \"kitchen\"", "phone": "+1 312 939 3125", "smoking": "no", "website": "www.cavanaughschicago.com"}}, {"type": "node", "id": 3263537492, "lat": 41.8739784, "lon": -87.6294588, "tags": {"amenity": "restaurant", "name": "Sofi Restaurant", "website": "http://sofirestaurantandbar.com"}}, {"type": "node", "id": 3407947954, "lat": 41.8790959, "lon": -87.6349928, "tags": {"amenity": "restaurant", "name": "Protein Bar"}}, {"type": "node", "id": 3427864969, "lat": 41.8801209, "lon": -87.6364832, "tags": {"addr:city": "Chicago", "addr:housenumber": "111", "addr:state": "IL", "addr:street": "South Wacker Drive", "amenity": "restaurant", "name": "Townhouse Restaurant & Wine Bar"}}, {"type": "node", "id": 3750517760, "lat": 41.8826848, "lon": -87.6235979, "tags": {"addr:housenumber": "11", "addr:street": "North Michigan Avenue", "addr:street:name": "Michigan", "addr:street:prefix": "North", "addr:street:type": "Avenue", "amenity": "restaurant", "name": "The Park Grill", "wikidata": "Q7137749", "wikipedia": "en:Park Grill"}}, {"type": "node", "id": 3797128684, "lat": 41.8833286, "lon": -87.6351431, "tags": {"addr:city": "Chicago", "addr:housenumber": "230", "addr:postcode": "60606", "addr:state": "Il", "addr:street": "West Washington Street", "amenity": "restaurant", "capacity": "50", "cuisine": "Sandwiches_and_Salads_(Breakfast_as_well)", "name": "Cosi", "opening_hours": "Mo-Fr 06:00-21:00, Sa-Su 07:00-21:00", "takeaway": "yes", "wheelchair": "yes"}}, {"type": "node", "id": 3919160343, "lat": 41.8678198, "lon": -87.6245541, "tags": {"addr:city": "Chicago", "addr:country": "US", "addr:housenumber": "1150", "addr:postcode": "60605", "addr:state": "IL", "addr:street": "South Michigan Avenue", "amenity": "restaurant", "cuisine": "burger", "name": "Burger Bar Chicago - South Loop", "phone": "+1-312-988-0162", "website": "http://burgerbarchicago.com/"}}, {"type": "node", "id": 4012075690, "lat": 41.8842961, "lon": -87.6291579, "tags": {"addr:city": "Chicago", "addr:country": "US", "addr:housenumber": "108", "addr:postcode": "60602", "addr:state": "IL", "addr:street": "North State Street", "amenity": "restaurant", "name": "Latinicity", "wheelchair": "yes"}}, {"type": "node", "id": 4035489532, "lat": 41.8693019, "lon": -87.6327753}, {"type": "node", "id": 4035489533, "lat": 41.8692285, "lon": -87.6327738}, {"type": "node", "id": 4035489534, "lat": 41.8691608, "lon": -87.6327707}, {"type": "node", "id": 4035489535, "lat": 41.8691688, "lon": -87.6326444}, {"type": "node", "id": 4035489536, "lat": 41.8693111, "lon": -87.6326706}, {"type": "node", "id": 4035489537, "lat": 41.8693042, "lon": -87.6326937}, {"type": "node", "id": 4035489538, "lat": 41.8693019, "lon": -87.6327245}, {"type": "node", "id": 4035489539, "lat": 41.8693076, "lon": -87.6327461}, {"type": "node", "id": 4130928515, "lat": 41.8817549, "lon": -87.6248548, "tags": {"addr:city": "Chicago", "addr:housenumber": "12", "addr:postcode": "60603", "addr:state": "IL", "addr:street": "South Michigan Avenue", "amenity": "bar", "name": "Milk Room", "phone": "+1-312-792-3535", "website": "http://www.lsdatcaa.com/milk-room/#openModal"}}, {"type": "node", "id": 4196289893, "lat": 41.882473, "lon": -87.6296562, "tags": {"amenity": "restaurant", "cuisine": "italian", "diet:vegetarian": "yes", "name": "Sopraffina", "opening_hours": "Mo-Fr 11:00-16:00"}}, {"type": "node", "id": 4217607951, "lat": 41.8822802, "lon": -87.6317017, "tags": {"addr:city": "Chicago", "addr:housenumber": "120", "addr:postcode": "60602", "addr:state": "IL", "addr:street": "West Madison Street", "amenity": "restaurant", "name": "Cousins Subs", "phone": "+1-312-872-5826", "website": "https://www.cousinssubs.com/"}}, {"type": "node", "id": 4236743390, "lat": 41.8842027, "lon": -87.6292577, "tags": {"addr:city": "Chicago", "addr:housenumber": "145", "addr:postcode": "60602", "addr:state": "IL", "addr:street": "North Dearborn Street", "amenity": "restaurant", "cuisine": "american", "name": "The Dearborn", "opening_hours": "Mo 11:00-22:00; Tu-Th 11:00-23:00; Fr 11:00-00:00; Sa 10:00-00:00; Su 10:00-22:00", "phone": "+1-312-384-1242", "website": "https://www.thedearborntavern.com/"}}, {"type": "node", "id": 4238294020, "lat": 41.8779958, "lon": -87.6340388, "tags": {"amenity": "cafe", "brand": "Starbucks", "brand:wikidata": "Q37158", "brand:wikipedia": "en:Starbucks", "cuisine": "coffee_shop", "name": "Starbucks", "official_name": "Starbucks Coffee", "takeaway": "yes"}}, {"type": "node", "id": 4286834522, "lat": 41.8795744, "lon": -87.6279687, "tags": {"amenity": "cafe", "brand": "Starbucks", "brand:wikidata": "Q37158", "brand:wikipedia": "en:Starbucks", "cuisine": "coffee_shop", "name": "Starbucks", "official_name": "Starbucks Coffee", "takeaway": "yes"}}, {"type": "node", "id": 4298039815, "lat": 41.8682328, "lon": -87.626329, "tags": {"amenity": "restaurant", "name": "Belly Up Smokehouse & Saloon"}}, {"type": "node", "id": 4349951892, "lat": 41.8781043, "lon": -87.6258184, "tags": {"amenity": "cafe", "brand": "Starbucks", "brand:wikidata": "Q37158", "brand:wikipedia": "en:Starbucks", "cuisine": "coffee_shop", "name": "Starbucks Reserve", "official_name": "Starbucks Coffee", "takeaway": "yes"}}, {"type": "node", "id": 4448346511, "lat": 41.8803535, "lon": -87.6270098, "tags": {"amenity": "cafe", "brand": "Starbucks", "brand:wikidata": "Q37158", "brand:wikipedia": "en:Starbucks", "cuisine": "coffee_shop", "level": "2", "name": "Starbucks", "official_name": "Starbucks Coffee", "takeaway": "yes"}}, {"type": "node", "id": 4458262089, "lat": 41.8804276, "lon": -87.6267482, "tags": {"addr:city": "Chicago", "addr:housenumber": "17", "addr:postcode": "60603", "addr:state": "IL", "addr:street": "East Monroe Street", "amenity": "bar", "name": "Lobby Bar at Palmer House", "note": "the_hotel_bar", "phone": "+1-312-726-7500", "website": "https://www.palmerhousehiltonhotel.com/hotel-amenities/restaurants-bars/#TheLobbyBar"}}, {"type": "node", "id": 4463574018, "lat": 41.8758177, "lon": -87.6263248, "tags": {"addr:city": "Chicago", "addr:housenumber": "26", "addr:postcode": "60605", "addr:state": "IL", "addr:street": "East Congress Plaza Drive", "amenity": "restaurant", "name": "Cafecito", "phone": "+1-312-922-2233", "website": "http://www.cafecitochicago.com/"}}, {"type": "node", "id": 4564288695, "lat": 41.8681043, "lon": -87.6389402, "tags": {"amenity": "cafe", "brand": "Starbucks", "brand:wikidata": "Q37158", "cuisine": "coffee_shop", "name": "Starbucks", "name:en": "Starbucks", "official_name": "Starbucks Coffee", "takeaway": "yes"}}, {"type": "node", "id": 4567467091, "lat": 41.8823318, "lon": -87.6336445, "tags": {"addr:city": "Chicago", "addr:housenumber": "7", "addr:postcode": "60602", "addr:state": "IL", "addr:street": "North Wells Street", "amenity": "cafe", "name": "Cafecito", "phone": "+1-312-263-4750", "website": "http://www.cafecitochicago.com/"}}, {"type": "node", "id": 4567644901, "lat": 41.8765854, "lon": -87.6332999, "tags": {"addr:city": "Chicago", "addr:housenumber": "400", "addr:postcode": "60605", "addr:state": "IL", "addr:street": "South Financial Place", "amenity": "cafe", "cuisine": "cafe", "name": "Saucy Porka", "phone": "+1-312-662-1351", "website": "http://saucyporka.com/"}}, {"type": "node", "id": 4728238863, "lat": 41.8814964, "lon": -87.6249771, "tags": {"addr:city": "Chicago", "addr:housenumber": "18", "addr:postcode": "60603", "addr:state": "IL", "addr:street": "South Michigan Avenue", "amenity": "restaurant", "name": "Acanto", "phone": "+1-312-578-0763", "website": "https://www.acantochicago.com/"}}, {"type": "node", "id": 4728599335, "lat": 41.8783951, "lon": -87.6250839, "tags": {"addr:housenumber": "130", "addr:street": "South Michigan Avenue", "amenity": "restaurant", "name": "Seven Lions", "website": "sevenlionschicago.com"}}, {"type": "node", "id": 4728600973, "lat": 41.8813094, "lon": -87.6250506, "tags": {"addr:city": "Chicago", "addr:housenumber": "24", "addr:postcode": "60603", "addr:state": "IL", "addr:street": "South Michigan Avenue", "amenity": "restaurant", "cuisine": "american", "name": "The Gage", "opening_hours": "Mo 11:00-00:00; Tu-We 11:00-02:00; Th 11:00-00:00; Fr 11:00-02:00; Sa 10:00-02:00; Su 10:00-00:00", "phone": "+1-312-372-4243", "website": "https://www.thegagechicago.com/"}}, {"type": "node", "id": 4729978589, "lat": 41.8814669, "lon": -87.6259549, "tags": {"addr:city": "Chicago", "addr:housenumber": "33", "addr:postcode": "60603", "addr:state": "IL", "addr:street": "South Wabash Avenue", "amenity": "cafe", "name": "Goddess and the Baker", "opening_hours": "Mo-Fr 07:00-20:00; Sa 08:00-20:00; Su 08:00-18:00", "phone": "+1-312-877-5176", "website": "http://goddessandthebaker.com/"}}, {"type": "node", "id": 4731347922, "lat": 41.8818133, "lon": -87.6286992, "tags": {"amenity": "restaurant", "name": "Rosebud Prime", "name:en": "Rosebud Prime"}}, {"type": "node", "id": 4799522642, "lat": 41.8793522, "lon": -87.6266976, "tags": {"addr:city": "Chicago", "addr:housenumber": "21", "addr:postcode": "60603", "addr:state": "IL", "addr:street": "East Adams Street", "amenity": "restaurant", "cuisine": "asian", "name": "Brightwok Kitchen", "opening_hours": "Mo-Fr 11:00-20:00; Sa 11:30-20:00", "phone": "+1-312-583-0729", "website": "https://brightwok.com/"}}, {"type": "node", "id": 4846501194, "lat": 41.8797797, "lon": -87.6305524, "tags": {"addr:city": "Chicago", "addr:housenumber": "125", "addr:postcode": "60603", "addr:state": "IL", "addr:street": "South Clark Street", "amenity": "restaurant", "cuisine": "pizza;burger;coffee_shop;sandwich;mexican;ice_cream;chicken;seafood;sushi;american", "diet:vegetarian": "yes", "name": "Revival Food Hall", "opening_hours": "Mo-Fr 07:00-19:00", "outdoor_seating": "no", "phone": "+1-773-999-9411", "website": "https://www.revivalfoodhall.com/"}}, {"type": "node", "id": 4856409372, "lat": 41.8827545, "lon": -87.6247213, "tags": {"addr:city": "Chicago", "addr:housenumber": "20", "addr:postcode": "60602", "addr:state": "IL", "addr:street": "North Michigan Avenue", "amenity": "restaurant", "cuisine": "steak_house;american", "name": "Remington\u2019s", "outdoor_seating": "yes", "phone": "+1-312-782-6000", "takeaway": "yes", "website": "http://remingtonschicago.com/"}}, {"type": "node", "id": 4925422113, "lat": 41.8822312, "lon": -87.625482, "tags": {"addr:city": "Chicago", "addr:housenumber": "62", "addr:postcode": "60602", "addr:state": "IL", "addr:street": "East Madison Street", "amenity": "restaurant", "cuisine": "sushi;japanese", "delivery": "yes", "name": "Ryo Sushi", "opening_hours": "Mo-Sa 10:00-22:00; Su 11:00-21:30", "outdoor_seating": "yes", "takeaway": "yes"}}, {"type": "node", "id": 5003149848, "lat": 41.8759361, "lon": -87.6322103, "tags": {"addr:city": "Chicago", "addr:housenumber": "440", "addr:postcode": "60605", "addr:state": "IL", "addr:street": "South LaSalle Street", "amenity": "restaurant", "cuisine": "french", "name": "Everest", "opening_hours": "Tu-Th 17:30-21:00; Fr 17:30-21:30; Sa 17:00-22:00", "phone": "+1-312-663-8920", "website": "http://www.everestrestaurant.com"}}, {"type": "node", "id": 5035879392, "lat": 41.8830226, "lon": -87.6343493, "tags": {"addr:city": "Chicago", "addr:housenumber": "219", "addr:postcode": "60606", "addr:state": "IL", "addr:street": "West Washington Street", "amenity": "restaurant", "cuisine": "mediterranean", "name": "Mediterranean Kitchen"}}, {"type": "node", "id": 5064396351, "lat": 41.879365, "lon": -87.6251023, "tags": {"addr:city": "Chicago", "addr:housenumber": "77", "addr:postcode": "60603", "addr:state": "IL", "addr:street": "East Adams Street", "amenity": "restaurant", "cuisine": "russian;tea", "name": "Russian Tea Time", "opening_hours": "Su-Th 11:00-21:00; Fr-Sa 11:00-23:00", "opening_hours:tea_service": "14:30-16:30", "phone": "+1-312-360-0000", "website": "https://www.russianteatime.com/", "website:menu": "https://www.allmenus.com/il/chicago/22201-russian-tea-time/menu/"}}, {"type": "node", "id": 5201061803, "lat": 41.8810615, "lon": -87.6349135, "tags": {"addr:city": "Chicago", "addr:housenumber": "230", "addr:postcode": "60606", "addr:state": "IL", "addr:street": "West Monroe Street", "amenity": "restaurant", "name": "Cosi", "phone": "+1-312-782-4755", "website": "https://www.getcosi.com/locations/west-monroe-119"}}, {"type": "node", "id": 5289801337, "lat": 41.8796455, "lon": -87.6302924, "tags": {"addr:city": "Chicago", "addr:housenumber": "125", "addr:state": "IL", "addr:street": "South Clark Street", "amenity": "restaurant", "cuisine": "bbq;barbecue", "name": "Smoque BBQ - Revival Food Hall", "phone": "+1- 773-770-6232", "website": "http://www.smoquebbq.com/"}}, {"type": "node", "id": 5289912854, "lat": 41.884622, "lon": -87.6342143, "tags": {"addr:city": "Chicago", "addr:housenumber": "200", "addr:postcode": "60606", "addr:state": "IL", "addr:street": "West Randolph Street", "amenity": "restaurant", "brand": "Freshii", "brand:wikidata": "Q5503051", "brand:wikipedia": "en:Freshii", "cuisine": "salad", "name": "Freshii"}}, {"type": "node", "id": 5295997074, "lat": 41.8812482, "lon": -87.637833, "tags": {"amenity": "restaurant", "name": "Rivers Restaurant"}}, {"type": "node", "id": 5295997075, "lat": 41.8815458, "lon": -87.6365206, "tags": {"amenity": "restaurant", "name": "Lloyd's Chicago"}}, {"type": "node", "id": 5295997076, "lat": 41.8823509, "lon": -87.6365945, "tags": {"amenity": "restaurant", "name": "One North Kitchen"}}, {"type": "node", "id": 5295997077, "lat": 41.8816879, "lon": -87.6377996, "tags": {"addr:city": "Chicago", "addr:housenumber": "10", "addr:postcode": "60606", "addr:state": "IL", "addr:street": "South Upper Wacker Drive", "amenity": "bar", "name": "Rittergut Wine Bar", "phone": "+1-779-216-5939", "website": "http://rittergutwinebar.com/"}}, {"type": "node", "id": 5348219721, "lat": 41.8754048, "lon": -87.6294315, "tags": {"amenity": "restaurant", "cuisine": "american;italian", "name": "Meli", "opening_hours": "Mo-Th 07:00-22:00; Fr-Sa 07:00-00:00; Su 07:00-22:00", "website": "https://www.melicafe.com/"}}, {"type": "node", "id": 5355148074, "lat": 41.8801296, "lon": -87.6325263, "tags": {"amenity": "cafe", "name": "Corner Bakery Cafe", "opening_hours": "Mo-Fr 6:30-17:30", "phone": "(312) 269-9100", "website": "https://www.cornerbakerycafe.com/location/south-lasalle"}}, {"type": "node", "id": 5355155941, "lat": 41.8795579, "lon": -87.6295357, "tags": {"addr:city": "Chicago", "addr:housenumber": "140", "addr:postcode": "60603", "addr:state": "IL", "addr:street": "South Dearborn Street", "amenity": "cafe", "name": "Argo Tea", "opening_hours": "Mo-Fr 6:30-18:30", "phone": "+1-773-663-4471", "website": "https://www.argotea.com/"}}, {"type": "node", "id": 5359347426, "lat": 41.872428, "lon": -87.6304237, "tags": {"addr:city": "Chicago", "addr:housenumber": "755", "addr:postcode": "60605", "addr:state": "IL", "addr:street": "South Clark Street", "amenity": "restaurant", "name": "Half Sour", "phone": "+1-312-224-1772", "website": "https://halfsourchicago.com/"}}, {"type": "node", "id": 5417352970, "lat": 41.8768441, "lon": -87.6187621}, {"type": "node", "id": 5417352971, "lat": 41.8768443, "lon": -87.6187353}, {"type": "node", "id": 5417352972, "lat": 41.8768602, "lon": -87.6187305}, {"type": "node", "id": 5417352973, "lat": 41.8768718, "lon": -87.6187169}, {"type": "node", "id": 5417352974, "lat": 41.8768745, "lon": -87.6186959}, {"type": "node", "id": 5417352975, "lat": 41.876872, "lon": -87.6186753}, {"type": "node", "id": 5417352976, "lat": 41.8768587, "lon": -87.6186593}, {"type": "node", "id": 5417352977, "lat": 41.8768447, "lon": -87.6186556}, {"type": "node", "id": 5417352978, "lat": 41.8768449, "lon": -87.6186256}, {"type": "node", "id": 5417352979, "lat": 41.8767264, "lon": -87.6186244}, {"type": "node", "id": 5417352980, "lat": 41.8767263, "lon": -87.6186565}, {"type": "node", "id": 5417352981, "lat": 41.8767079, "lon": -87.6186615}, {"type": "node", "id": 5417352982, "lat": 41.8767014, "lon": -87.6186741}, {"type": "node", "id": 5417352983, "lat": 41.8766955, "lon": -87.6186952}, {"type": "node", "id": 5417352984, "lat": 41.8767012, "lon": -87.6187157}, {"type": "node", "id": 5417352985, "lat": 41.876709, "lon": -87.6187278}, {"type": "node", "id": 5417352986, "lat": 41.8767258, "lon": -87.6187392}, {"type": "node", "id": 5417352987, "lat": 41.8767257, "lon": -87.618761}, {"type": "node", "id": 5460291293, "lat": 41.8840923, "lon": -87.6399867, "tags": {"addr:city": "Chicago", "addr:housenumber": "120", "addr:postcode": "60661", "addr:state": "IL", "addr:street": "North Canal Street", "amenity": "restaurant", "cuisine": "american", "name": "Ovie Bar & Grill", "opening_hours": "Mo-Th 11:00-22:00; Fr 11:00-23:00; Sa 19:00-02:30", "phone": "+1-312-902-1111", "website": "http://www.oviebarandgrill.com/"}}, {"type": "node", "id": 5460610494, "lat": 41.8842777, "lon": -87.6335418, "tags": {"addr:city": "Chicago", "addr:housenumber": "171", "addr:postcode": "60602", "addr:state": "IL", "addr:street": "West Randolph Street", "amenity": "bar", "name": "Bar Allegro", "opening_hours": "Su-Th 16:00-23:00; Fr-Sa 16:00-00:00", "phone": "+1-312-696-2420", "website": "https://www.allegrochicago.com/"}}, {"type": "node", "id": 5460611824, "lat": 41.8840102, "lon": -87.6329839, "tags": {"addr:city": "Chicago", "addr:housenumber": "134", "addr:postcode": "60602", "addr:state": "IL", "addr:street": "North LaSalle Drive", "amenity": "restaurant", "cuisine": "seafood;american", "name": "Luke's Lobster City Hall", "opening_hours": "Mo-Fr 11:00-21:00; Sa-Su 12:00-20:00", "phone": "+1-312-982-2977", "website": "https://www.lukeslobster.com/location/chicago/"}}, {"type": "node", "id": 5460658753, "lat": 41.880843, "lon": -87.6310495, "tags": {"addr:city": "Chicago", "addr:housenumber": "100", "addr:postcode": "60603", "addr:state": "IL", "addr:street": "West Monroe Street", "amenity": "restaurant", "cuisine": "french", "name": "Cochon Volant Brasserie", "opening_hours": "Mo-Fr 06:30-23:00; Sa-Su 07:30-23:00", "outdoor_seating": "no", "phone": "+1-312-754-6560", "website": "http://www.cochonvolantchicago.com/"}}, {"type": "node", "id": 5460770694, "lat": 41.8823378, "lon": -87.6403109, "tags": {"addr:city": "Chicago", "addr:housenumber": "500", "addr:postcode": "60661", "addr:state": "IL", "addr:street": "West Madison Street", "amenity": "restaurant", "cuisine": "brunch;breakfast;american;lunch", "name": "Yolk - West Loop", "opening_hours": "Mo-Fr 06:00-15:00; Sa-Su 07:00-15:00", "phone": "+1-312-454-9655", "website": "https://www.eatyolk.com/"}}, {"type": "node", "id": 5571123422, "lat": 41.8713931, "lon": -87.6272765, "tags": {"addr:housenumber": "823", "addr:street": "South State Street", "amenity": "restaurant", "name": "Taco Madre", "opening_hours": "Su-Th 11:00-23:00; Fr-Sa 11:00-01:00"}}, {"type": "node", "id": 5910392286, "lat": 41.8783854, "lon": -87.6268318, "tags": {"addr:city": "Chicago", "addr:housenumber": "22", "addr:postcode": "60604", "addr:state": "IL", "addr:street": "East Jackson Boulevard", "amenity": "cafe", "name": "HERO Coffee Bar", "phone": "+1-312-285-2786", "website": "https://www.herocoffeebars.com/"}}, {"type": "node", "id": 5912122886, "lat": 41.8820058, "lon": -87.6247903, "tags": {"addr:city": "Chicago", "addr:housenumber": "79", "addr:postcode": "60602", "addr:state": "IL", "addr:street": "East Madison Street", "amenity": "restaurant", "cuisine": "sushi", "email": "innerloopcaters@pokeworks.com", "name": "Pok\u00e9works", "opening_hours": "Mo-Su 11:00-21:00", "phone": "+1-312-868-0261"}}, {"type": "node", "id": 5913542435, "lat": 41.8676418, "lon": -87.6390257}, {"type": "node", "id": 5946317385, "lat": 41.8784036, "lon": -87.6246397, "tags": {"addr:city": "Chicago", "addr:housenumber": "224", "addr:postcode": "60604", "addr:state": "IL", "addr:street": "South Michigan Avenue", "amenity": "restaurant", "cuisine": "coffee_shop", "name": "Corner Bakery", "phone": "+1-312-431-7600", "website": "https://www.cornerbakerycafe.com/"}}, {"type": "node", "id": 6050592286, "lat": 41.8765959, "lon": -87.633868, "tags": {"addr:city": "Chicago", "addr:housenumber": "408", "addr:postcode": "60607", "addr:state": "IL", "addr:street": "South Wells Street", "amenity": "bar", "name": "Persona", "phone": "+1-312-285-2271", "website": "https://www.personachi.com/"}}, {"type": "node", "id": 6077923585, "lat": 41.874317, "lon": -87.6254568, "tags": {"addr:city": "Chicago", "addr:housenumber": "63", "addr:postcode": "60605", "addr:state": "IL", "addr:street": "East Harrison Street", "amenity": "cafe", "name": "LaSalle Cafe Luna", "phone": "+1-312-376-1487"}}, {"type": "node", "id": 6119880267, "lat": 41.8772103, "lon": -87.6294485, "tags": {"amenity": "cafe", "name": "Harry's Sandiwch Shop"}}, {"type": "node", "id": 6159637957, "lat": 41.884661, "lon": -87.6364377, "tags": {"addr:city": "Chicago", "addr:housenumber": "155", "addr:postcode": "60606", "addr:state": "IL", "addr:street": "North Upper Wacker Drive", "amenity": "restaurant", "name": "Beatrix Market", "outdoor_seating": "no", "phone": "+1 (312) 629-0025", "smoking": "no", "website": "http://beatrixrestaurants.com/beatrix-market/loop/"}}, {"type": "node", "id": 6193723672, "lat": 41.8833468, "lon": -87.6329005, "tags": {"addr:city": "Chicago", "addr:housenumber": "166", "addr:postcode": "60602", "addr:state": "IL", "addr:street": "West Washington Street", "amenity": "restaurant", "cuisine": "vietnamese", "delivery": "yes", "name": "Lotus Bahn Mi", "opening_hours": "Mo-Fr 11:00-15:00", "outdoor_seating": "no", "smoking": "no", "takeaway": "yes"}}, {"type": "node", "id": 6250120346, "lat": 41.8788515, "lon": -87.626458, "tags": {"addr:city": "Chicago", "addr:housenumber": "222", "addr:postcode": "60604", "addr:state": "IL", "addr:street": "South Wabash Avenue", "amenity": "bar", "name": "2Twenty2 Tavern", "phone": "+1-312-878-9994", "website": "https://www.2twenty2tavern.com/"}}, {"type": "node", "id": 6250175708, "lat": 41.8843286, "lon": -87.6327277, "tags": {"addr:city": "Chicago", "addr:housenumber": "136", "addr:postcode": "60602", "addr:state": "IL", "addr:street": "North LaSalle Street", "amenity": "restaurant", "cuisine": "american", "name": "312 Chicago", "phone": "+1-312-696-2420", "website": "https://312chicago.com/"}}, {"type": "node", "id": 6256247554, "lat": 41.8725283, "lon": -87.6245969, "tags": {"addr:city": "Chicago", "addr:housenumber": "720", "addr:postcode": "60605", "addr:state": "IL", "addr:street": "South Michigan Avenue", "amenity": "bar", "name": "720 South Bar & Grill", "phone": "+1-312-922-4400", "website": "https://www.hiltonchicagomeetings.com/hotel-information/hotel-amenities/restaurants-bars/720-south-bar-grill/"}}, {"type": "node", "id": 6261376991, "lat": 41.8797646, "lon": -87.6331918, "tags": {"addr:city": "Chicago", "addr:housenumber": "160", "addr:postcode": "60603", "addr:state": "IL", "addr:street": "West Adams Street", "amenity": "restaurant", "name": "Ara On", "phone": "+1-312-781-7300", "website": "http://www.ara-on.com/"}}, {"type": "node", "id": 6265180601, "lat": 41.8717813, "lon": -87.6290239, "tags": {"addr:city": "Chicago", "addr:housenumber": "47", "addr:postcode": "60605", "addr:state": "IL", "addr:street": "West Polk Street", "amenity": "bar", "name": "Bar Louie", "phone": "+1-312-347-0000", "website": "https://www.barlouie.com/locations/states/illinois/dearborn-station"}}, {"type": "node", "id": 6267152938, "lat": 41.8793502, "lon": -87.6264351, "tags": {"addr:city": "Chicago", "addr:housenumber": "29", "addr:postcode": "60603", "addr:state": "IL", "addr:street": "East Adams Street", "amenity": "restaurant", "cuisine": "venezuelan;small_plates", "name": "BienMeSabe Venezuelan Arepa Bar", "phone": "+1-312-285-2911", "website": "https://bienmesabechicago.com"}}, {"type": "node", "id": 6269041647, "lat": 41.8823506, "lon": -87.6404069, "tags": {"addr:city": "Chicago", "addr:housenumber": "500", "addr:postcode": "60661", "addr:state": "IL", "addr:street": "West Madison Street", "amenity": "restaurant", "name": "Boxcar Betty\u2019s", "website": "http://www.boxcarbetty.com/"}}, {"type": "node", "id": 6269042337, "lat": 41.8771699, "lon": -87.6290819, "tags": {"addr:city": "Chicago", "addr:housenumber": "343", "addr:postcode": "60604", "addr:state": "IL", "addr:street": "South Dearborn Street", "amenity": "bar", "name": "Brando\u2019s Speakeasy", "phone": "+1-773- 216-3213", "website": "https://brandoschicago.com/"}}, {"type": "node", "id": 6269164386, "lat": 41.8729704, "lon": -87.6263084, "tags": {"addr:city": "Chicago", "addr:housenumber": "700", "addr:postcode": "60605", "addr:state": "IL", "addr:street": "South Wabash Avenue", "amenity": "restaurant", "name": "Buddy Guy\u2019s Legends", "phone": "+1-312-427-1190", "website": "http://buddyguy.com/"}}, {"type": "node", "id": 6269753786, "lat": 41.8798388, "lon": -87.622138, "tags": {"addr:city": "Chicago", "addr:housenumber": "111", "addr:postcode": "60603", "addr:state": "IL", "addr:street": "South Michigan Avenue", "amenity": "restaurant", "name": "Cafe Moderno", "website": "http://www.cafe-moderno.com/"}}, {"type": "node", "id": 6273506440, "lat": 41.8808957, "lon": -87.6315865, "tags": {"addr:city": "Chicago", "addr:housenumber": "122", "addr:postcode": "60603", "addr:state": "IL", "addr:street": "West Monroe Street", "amenity": "restaurant", "name": "Boleo", "phone": "+1-312-750-9007", "website": "https://www.boleochicago.com/"}}, {"type": "node", "id": 6273533851, "lat": 41.8781293, "lon": -87.6250522, "tags": {"addr:city": "Chicago", "addr:housenumber": "73", "addr:postcode": "60604", "addr:state": "IL", "addr:street": "East Jackson Boulevard", "amenity": "cafe", "name": "Bridgeport Coffee", "phone": "+1-312-344-1163", "website": "https://bridgeportcoffee.net/"}}, {"type": "node", "id": 6273597435, "lat": 41.8809074, "lon": -87.636115, "tags": {"addr:city": "Chicago", "addr:housenumber": "71", "addr:postcode": "60606", "addr:state": "IL", "addr:street": "South Franklin Street", "amenity": "cafe", "name": "Caff\u00e8 R\u014dM", "phone": "+1-312-379-0291", "website": "http://www.cafferom.com/"}}, {"type": "node", "id": 6282394141, "lat": 41.8816702, "lon": -87.6250742, "tags": {"addr:city": "Chicago", "addr:housenumber": "12", "addr:postcode": "60603", "addr:state": "IL", "addr:street": "South Michigan Avenue", "amenity": "restaurant", "name": "Cherry Circle Room", "phone": "+1-312-792-3515", "website": "http://www.lsdatcaa.com/"}}, {"type": "node", "id": 6282530019, "lat": 41.8786314, "lon": -87.6389955, "tags": {"addr:city": "Chicago", "addr:housenumber": "225", "addr:postcode": "60606", "addr:state": "IL", "addr:street": "South Canal Street", "amenity": "bar", "name": "Chicago Union Station Metropolitan Lounge", "phone": "+1-312-544-5525", "website": "https://chicagounionstation.com/"}}, {"type": "node", "id": 6282783209, "lat": 41.8834428, "lon": -87.6326964, "tags": {"addr:city": "Chicago", "addr:housenumber": "120", "addr:postcode": "60602", "addr:state": "IL", "addr:street": "North LaSalle Street", "amenity": "restaurant", "name": "City Social", "phone": "+1-312-888-2968", "website": "https://www.citysocialchicago.com/"}}, {"type": "node", "id": 6283489636, "lat": 41.87877, "lon": -87.638697, "tags": {"addr:city": "Chicago", "addr:housenumber": "222", "addr:postcode": "60606", "addr:state": "IL", "addr:street": "South Riverside Plaza", "amenity": "cafe", "name": "Corner Bakery Cafe", "phone": "+1-312-441-0821", "website": "https://www.cornerbakerycafe.com/"}}, {"type": "node", "id": 6284415297, "lat": 41.879772, "lon": -87.6327771, "tags": {"addr:city": "Chicago", "addr:housenumber": "190", "addr:postcode": "60603", "addr:state": "IL", "addr:street": "South LaSalle Street", "amenity": "cafe", "name": "Department of Coffee and Social Affairs", "website": "https://www.departmentofcoffee.com/"}}, {"type": "node", "id": 6284650807, "lat": 41.8803085, "lon": -87.6298127, "tags": {"addr:city": "Chicago", "addr:housenumber": "55", "addr:postcode": "60606", "addr:state": "IL", "addr:street": "West Marble Place", "amenity": "cafe", "name": "Dollop Coffee Co.", "phone": "+1-312-837-3152", "website": "https://dollop.coffee/"}}, {"type": "node", "id": 6284683038, "lat": 41.8719638, "lon": -87.6333095, "tags": {"addr:city": "Chicago", "addr:housenumber": "801", "addr:postcode": "60607", "addr:state": "IL", "addr:street": "South Financial Place", "amenity": "cafe", "name": "Dollop Coffee Company", "phone": "+1-312-291-8357", "website": "https://dollop.coffee/"}}, {"type": "node", "id": 6284683583, "lat": 41.8771163, "lon": -87.6290762, "tags": {"addr:city": "Chicago", "addr:housenumber": "343", "addr:postcode": "60604", "addr:state": "IL", "addr:street": "South Dearborn Street", "amenity": "cafe", "name": "Dollop Coffee Company", "phone": "+1-312-846-6103", "website": "https://dollop.coffee/"}}, {"type": "node", "id": 6284753435, "lat": 41.8836131, "lon": -87.6393581, "tags": {"addr:city": "Chicago", "addr:housenumber": "111", "addr:postcode": "60606", "addr:state": "IL", "addr:street": "North Canal Street", "amenity": "cafe", "cuisine": "doughnut;doughnuts;american", "name": "Doughnut Vault - Canal St.", "phone": "+1-312-285-2830", "website": "http://doughnutvault.com/"}}, {"type": "node", "id": 6284779075, "lat": 41.8817616, "lon": -87.6247892, "tags": {"addr:city": "Chicago", "addr:housenumber": "12", "addr:postcode": "60603", "addr:state": "IL", "addr:street": "South Michigan Avenue", "addr:unit": "2", "amenity": "bar", "name": "Drawing Room"}}, {"type": "node", "id": 6284891836, "lat": 41.8763717, "lon": -87.6272188, "tags": {"addr:city": "Chicago", "addr:housenumber": "401", "addr:postcode": "60605", "addr:state": "IL", "addr:street": "South State Street", "amenity": "cafe", "name": "Eagles\u2019 Landing Cafe", "phone": "+1-312-935-2016"}}, {"type": "node", "id": 6287294806, "lat": 41.8819015, "lon": -87.6247854, "tags": {"addr:city": "Chicago", "addr:housenumber": "12", "addr:postcode": "60603", "addr:state": "IL", "addr:street": "South Michigan Avenue", "amenity": "cafe", "name": "Fairgrounds Coffee and Tea", "phone": "+1-312-448-9015", "website": "https://www.fairgrounds.cafe/"}}, {"type": "node", "id": 6290950496, "lat": 41.8811451, "lon": -87.6267921, "tags": {"addr:city": "Chicago", "addr:housenumber": "30", "addr:postcode": "60604", "addr:state": "IL", "addr:street": "South Wabash Avenue", "amenity": "restaurant", "name": "Flat Top Grill", "phone": "+1-312-726-8400", "website": "http://www.flattopgrill.com/"}}, {"type": "node", "id": 6291534077, "lat": 41.8784343, "lon": -87.6373523, "tags": {"addr:city": "Chicago", "addr:housenumber": "250", "addr:postcode": "60606", "addr:state": "IL", "addr:street": "South Upper Wacker Drive", "amenity": "bar", "name": "Fred & Adolph\u2019s Pub", "website": "https://www.millercoors.com/"}}, {"type": "node", "id": 6291747686, "lat": 41.8816934, "lon": -87.624929, "tags": {"addr:city": "Chicago", "addr:housenumber": "12", "addr:postcode": "60603", "addr:state": "IL", "addr:street": "South Michigan Avenue", "amenity": "bar", "name": "Game Room", "phone": "+1-312-792-3535", "website": "http://www.lsdatcaa.com/"}}, {"type": "node", "id": 6292047481, "lat": 41.8725775, "lon": -87.6288468, "tags": {"addr:city": "Chicago", "addr:housenumber": "729", "addr:postcode": "60605", "addr:state": "IL", "addr:street": "South Dearborn Street", "amenity": "cafe", "name": "Gordo\u2019s", "phone": "+1-312-461-1116", "website": "http://gordosicecream.com/"}}, {"type": "node", "id": 6292168198, "lat": 41.8796717, "lon": -87.6267428, "tags": {"addr:city": "Chicago", "addr:housenumber": "24", "addr:postcode": "60603", "addr:state": "IL", "addr:street": "East Adams Street", "amenity": "cafe", "name": "Haifa Cafe", "phone": "+1-312-821-4586"}}, {"type": "node", "id": 6294279410, "lat": 41.8835361, "lon": -87.6258705, "tags": {"addr:city": "Chicago", "addr:housenumber": "111", "addr:postcode": "60602", "addr:state": "IL", "addr:street": "North Wabash Avenue", "amenity": "restaurant", "cuisine": "cajun;breakfast;lunch;dinner;casual", "name": "Heaven on Seven", "phone": "+1-312-263-6443", "website": "https://www.heavenonseven.com/wabash.html"}}, {"type": "node", "id": 6294287447, "lat": 41.8725045, "lon": -87.6246394, "tags": {"addr:city": "Chicago", "addr:housenumber": "720", "addr:postcode": "60605", "addr:state": "IL", "addr:street": "South Michigan Avenue", "amenity": "cafe", "name": "Herb N\u2019 Kitchen"}}, {"type": "node", "id": 6294385835, "lat": 41.8759712, "lon": -87.6289904, "tags": {"addr:city": "Chicago", "addr:housenumber": "439", "addr:postcode": "60605", "addr:state": "IL", "addr:street": "South Dearborn Street", "amenity": "cafe", "name": "HERO Coffee Bar", "phone": "+1-312-631-3269", "website": "https://www.herocoffeebars.com/"}}, {"type": "node", "id": 6294469390, "lat": 41.8741022, "lon": -87.6262438, "tags": {"addr:city": "Chicago", "addr:housenumber": "606", "addr:postcode": "60605", "addr:state": "IL", "addr:street": "South Wabash Avenue", "amenity": "restaurant", "name": "Himalayan Restaurant", "phone": "+1-312-877-5999"}}, {"type": "node", "id": 6297773055, "lat": 41.880958, "lon": -87.6360198, "tags": {"addr:city": "Chicago", "addr:housenumber": "71", "addr:postcode": "60606", "addr:state": "IL", "addr:street": "South Upper Wacker Drive", "amenity": "cafe", "name": "HYATT Center"}}, {"type": "node", "id": 6298050969, "lat": 41.8839004, "lon": -87.6274021, "tags": {"addr:city": "Chicago", "addr:housenumber": "111", "addr:postcode": "60602", "addr:state": "IL", "addr:street": "North State Street", "amenity": "bar", "name": "Infield\u2019s", "phone": "+1-312-781-3192"}}, {"type": "node", "id": 6298900774, "lat": 41.8718652, "lon": -87.6309176, "tags": {"addr:city": "Chicago", "addr:housenumber": "800", "addr:postcode": "60605", "addr:state": "IL", "addr:street": "South Clark Street", "amenity": "restaurant", "name": "Sociale Chicago", "phone": "+1-312-588-1100", "website": "http://www.socialechicago.com/"}}, {"type": "node", "id": 6299484443, "lat": 41.8824296, "lon": -87.6247277, "tags": {"addr:city": "Chicago", "addr:housenumber": "20", "addr:postcode": "60602", "addr:state": "IL", "addr:street": "North Michigan Avenue", "amenity": "cafe", "brand": "Peet's Coffee", "brand:wikidata": "Q1094101", "brand:wikipedia": "en:Peet's Coffee", "cuisine": "coffee_shop", "name": "Peet's Coffee", "phone": "+1-312-489-5066", "takeaway": "yes", "website": "https://www.peets.com/"}}, {"type": "node", "id": 6300053565, "lat": 41.8779496, "lon": -87.6296439, "tags": {"addr:city": "Chicago", "addr:housenumber": "53", "addr:postcode": "60604", "addr:state": "IL", "addr:street": "West Jackson Boulevard", "amenity": "cafe", "name": "Intelligentsia Coffee", "phone": "+1-312-253-0594", "website": "https://www.intelligentsiacoffee.com/monadnock-coffeebar"}}, {"type": "node", "id": 6300331698, "lat": 41.877094, "lon": -87.6348597, "tags": {"addr:city": "Chicago", "addr:housenumber": "335", "addr:postcode": "60606", "addr:state": "IL", "addr:street": "South Franklin Street", "amenity": "restaurant", "name": "Spotted Monkey", "phone": "+1-312-285-2303", "website": "http://spottedmonkeyeatery.com/"}}, {"type": "node", "id": 6300352856, "lat": 41.8676726, "lon": -87.6264521, "tags": {"addr:city": "Chicago", "addr:housenumber": "26", "addr:postcode": "60605", "addr:state": "IL", "addr:street": "East Roosevelt Road", "amenity": "cafe", "name": "Stan\u2019s Donuts & Coffee", "phone": "+1-312-834-0700"}}, {"type": "node", "id": 6300473188, "lat": 41.8801106, "lon": -87.6265423, "tags": {"addr:city": "Chicago", "addr:housenumber": "118", "addr:postcode": "60603", "addr:state": "IL", "addr:street": "South Wabash Avenue", "amenity": "restaurant", "name": "Poke Pok\u00e9", "phone": "+1-312-631-3380", "website": "https://www.pokepokechi.com/"}}, {"type": "node", "id": 6300567230, "lat": 41.8823695, "lon": -87.6403648, "tags": {"addr:city": "Chicago", "addr:housenumber": "500", "addr:postcode": "60661", "addr:state": "IL", "addr:street": "West Madison Street", "amenity": "bar", "name": "Rail Club", "phone": "+1-312-906-3909"}}, {"type": "node", "id": 6300753400, "lat": 41.8738709, "lon": -87.6294661, "tags": {"addr:city": "Chicago", "addr:housenumber": "616", "addr:postcode": "60605", "addr:state": "IL", "addr:street": "South Dearborn Street", "amenity": "restaurant", "name": "Sofi Restaurant", "phone": "+1-312-753-5504", "website": "https://www.sofichicago.com/"}}, {"type": "node", "id": 6300809815, "lat": 41.8816626, "lon": -87.6321635, "tags": {"addr:city": "Chicago", "addr:housenumber": "11", "addr:postcode": "60603", "addr:state": "IL", "addr:street": "South LaSalle Street", "amenity": "restaurant", "name": "Roanoke Restaurant", "phone": "+1-312-940-3760", "website": "https://www.marriott.com/hotels/hotel-information/restaurant/chirl-residence-inn-chicago-downtown-loop/"}}, {"type": "node", "id": 6301024848, "lat": 41.8808104, "lon": -87.6376882, "tags": {"addr:city": "Chicago", "addr:housenumber": "30", "addr:postcode": "60606", "addr:state": "IL", "addr:street": "South Upper Wacker Drive", "amenity": "restaurant", "name": "Rivers", "phone": "+1-312-559-1515", "website": "http://www.riversrestaurant.com/"}}, {"type": "node", "id": 6301043909, "lat": 41.8818247, "lon": -87.6320023, "tags": {"addr:city": "Chicago", "addr:housenumber": "135", "addr:postcode": "60603", "addr:state": "IL", "addr:street": "West Madison Street", "amenity": "restaurant", "name": "Roanoke Restaurant", "phone": "+1-312-940-3760", "website": "https://www.theroanokerestaurant.com/"}}, {"type": "node", "id": 6301075866, "lat": 41.8829726, "lon": -87.6290966, "tags": {"addr:city": "Chicago", "addr:housenumber": "33", "addr:postcode": "60602", "addr:state": "IL", "addr:street": "North Dearborn Street", "amenity": "restaurant", "name": "Roti Modern Mediterranean", "phone": "+1-312-263-9000", "website": "https://roti.com/locations/"}}, {"type": "node", "id": 6301239848, "lat": 41.8815163, "lon": -87.6332822, "tags": {"addr:city": "Chicago", "addr:housenumber": "10", "addr:postcode": "60603", "addr:state": "IL", "addr:street": "South LaSalle Street", "amenity": "cafe", "brand": "Peet's Coffee", "brand:wikidata": "Q1094101", "brand:wikipedia": "en:Peet's Coffee", "cuisine": "coffee_shop", "name": "Peet's Coffee", "phone": "+1-312-489-5076", "takeaway": "yes", "website": "https://www.peets.com/?cm_mmc=yelp*peets*8_28_12_homepage*na"}}, {"type": "node", "id": 6301768213, "lat": 41.8822424, "lon": -87.6303602, "tags": {"addr:city": "Chicago", "addr:housenumber": "70", "addr:postcode": "60602", "addr:state": "IL", "addr:street": "West Madison Street", "amenity": "bar", "name": "Stock and Ledger Kitchen & Spirits", "phone": "+1-312-754-0395", "website": "https://www.stockandledger.com/"}}, {"type": "node", "id": 6301774271, "lat": 41.88294, "lon": -87.6340598, "tags": {"addr:city": "Chicago", "addr:housenumber": "40", "addr:postcode": "60606", "addr:state": "IL", "addr:street": "North Wells Street", "amenity": "bar", "name": "Stocks and Blondes", "phone": "+1-312-372-3725"}}, {"type": "node", "id": 6301872746, "lat": 41.8749127, "lon": -87.6399256, "tags": {"addr:city": "Chicago", "addr:housenumber": "506", "addr:postcode": "60607", "addr:state": "IL", "addr:street": "West Harrison Street", "amenity": "cafe", "name": "Sunny\u2019s Bar & Grill", "phone": "+1-312-506-5500", "website": "https://www.ihg.com/holidayinn/hotels/us/en/chicago/chiwh/hoteldetail/dining"}}, {"type": "node", "id": 6305411826, "lat": 41.8824695, "lon": -87.6298072, "tags": {"addr:city": "Chicago", "addr:housenumber": "10", "addr:postcode": "60602", "addr:state": "IL", "addr:street": "North Dearborn Street", "amenity": "restaurant", "name": "Trattoria No. 10", "phone": "+1-312-984-1718", "website": "http://www.trattoriaten.com/"}}, {"type": "node", "id": 6307076632, "lat": 41.8727705, "lon": -87.6308599, "tags": {"addr:city": "Chicago", "addr:housenumber": "730", "addr:postcode": "60605", "addr:state": "IL", "addr:street": "South Clark Street", "amenity": "restaurant", "name": "Umai", "phone": "+1-312-986-8888", "website": "https://www.umaichicago.com/"}}, {"type": "node", "id": 6315212585, "lat": 41.879186, "lon": -87.6304346, "tags": {"addr:city": "Chicago", "addr:housenumber": "77", "addr:postcode": "60601", "addr:state": "IL", "addr:street": "West Adams Street", "amenity": "restaurant", "name": "The Fat Shallot - Revival Food Hall", "phone": "+1-773-893-0826", "website": "http://thefatshallot.com/"}}, {"type": "node", "id": 6315213374, "lat": 41.8795763, "lon": -87.6374507, "tags": {"addr:city": "Chicago", "addr:housenumber": "150", "addr:postcode": "60606", "addr:state": "IL", "addr:street": "South Lower Wacker Drive", "amenity": "restaurant", "name": "The Fat Shallot Food Truck", "phone": "+1-773-893-0826", "website": "http://thefatshallot.com/"}}, {"type": "node", "id": 6315611570, "lat": 41.8805233, "lon": -87.6302679, "tags": {"addr:city": "Chicago", "addr:housenumber": "71", "addr:postcode": "60603", "addr:state": "IL", "addr:street": "West Monroe Street", "amenity": "restaurant", "name": "The Italian Village Restaurants", "phone": "+1-312-332-7005", "website": "https://italianvillage-chicago.com/"}}, {"type": "node", "id": 6315617879, "lat": 41.8786932, "lon": -87.6387649, "tags": {"addr:city": "Chicago", "addr:housenumber": "222", "addr:postcode": "60606", "addr:state": "IL", "addr:street": "South Riverside Plaza", "amenity": "bar", "name": "The Junction", "phone": "+1-312-775-9080"}}, {"type": "node", "id": 6315654639, "lat": 41.8797274, "lon": -87.6332456, "tags": {"addr:city": "Chicago", "addr:housenumber": "172", "addr:postcode": "60603", "addr:state": "IL", "addr:street": "West Adams Street", "amenity": "bar", "name": "The Living Room Bar W Chicago City Center", "phone": "+1-312-332-1200", "website": "https://www.marriott.com/hotels/hotel-information/restaurant/chiwc-w-chicago-city-center?program=spg"}}, {"type": "node", "id": 6315665442, "lat": 41.8795838, "lon": -87.6299397, "tags": {"addr:city": "Chicago", "addr:housenumber": "60", "addr:postcode": "60603", "addr:state": "IL", "addr:street": "West Adams Street", "amenity": "restaurant", "name": "The Marq", "phone": "+1-312-600-4434", "website": "https://www.themarqchicago.com/"}}, {"type": "node", "id": 6316598035, "lat": 41.8843022, "lon": -87.640161, "tags": {"addr:housenumber": "130", "addr:postcode": "60661", "addr:state": "IL", "addr:street": "North Canal Street", "amenity": "bar", "name": "Vinny\u2019s Pizza Bar", "outdoor_seating": "yes", "phone": "+1-312-902-1544", "website": "vinnysbar.com"}}, {"type": "node", "id": 6318200251, "lat": 41.8826022, "lon": -87.6247232, "tags": {"addr:city": "Chicago", "addr:housenumber": "3005", "addr:postcode": "60602", "addr:state": "IL", "addr:street": "North Michigan Avenue", "amenity": "cafe", "brand": "Le Pain Quotidien", "brand:wikidata": "Q2046903", "brand:wikipedia": "en:Le Pain Quotidien", "cuisine": "coffee_shop", "diet:vegan": "yes", "diet:vegetarian": "yes", "name": "Le Pain Quotidien", "opening_hours": "Mo-Su 07:00-19:00", "phone": "+1-312-488-1902", "takeaway": "yes", "website": "https://www1.lepainquotidien.com/us/en/locations/604/20-n-michigan-ave"}}, {"type": "node", "id": 6319119425, "lat": 41.8830036, "lon": -87.6291369, "tags": {"addr:city": "Chicago", "addr:housenumber": "27", "addr:postcode": "60602", "addr:state": "IL", "addr:street": "West Washington Street", "amenity": "cafe", "name": "Kafenio Lavazza", "phone": "+1-312-977-9971", "website": "http://www.lavazzaespression.com/"}}, {"type": "node", "id": 6319681793, "lat": 41.8725038, "lon": -87.6245667, "tags": {"addr:city": "Chicago", "addr:housenumber": "720", "addr:postcode": "60605", "addr:state": "IL", "addr:street": "South Michigan Avenue", "amenity": "bar", "name": "Kitty O\u2019Shea\u2019s", "phone": "+1-312-294-6860", "website": "http://hilton.com"}}, {"type": "node", "id": 6320572779, "lat": 41.8776048, "lon": -87.6385644, "tags": {"addr:city": "Chicago", "addr:housenumber": "300", "addr:postcode": "60606", "addr:state": "IL", "addr:street": "South Riverside Plaza", "amenity": "bar", "name": "Little Toasted", "phone": "+1-312-929-2706", "website": "https://littletoasted.com/"}}, {"type": "node", "id": 6320662138, "lat": 41.8682519, "lon": -87.6261541, "tags": {"addr:city": "Chicago", "addr:housenumber": "1132", "addr:postcode": "60605", "addr:state": "IL", "addr:street": "South Wabash Avenue", "amenity": "restaurant", "name": "Lowcountry South Loop", "phone": "+1-888-883-8375", "website": "https://www.lowcountrychicago.com/"}}, {"type": "node", "id": 6321371838, "lat": 41.8823099, "lon": -87.6404179, "tags": {"addr:city": "Chicago", "addr:housenumber": "500", "addr:postcode": "60661", "addr:state": "IL", "addr:street": "West Madison Street", "amenity": "bar", "name": "Madison Tavern", "phone": "+1-312-559-5101", "website": "madisontavern.com"}}, {"type": "node", "id": 6321527779, "lat": 41.8733337, "lon": -87.6247013, "tags": {"addr:city": "Chicago", "addr:housenumber": "636", "addr:postcode": "60605", "addr:state": "IL", "addr:street": "South Michigan Avenue", "amenity": "cafe", "name": "Market By The Blackstone", "phone": "+1-312-447-0955"}}, {"type": "node", "id": 6321985494, "lat": 41.8767589, "lon": -87.6310625, "tags": {"addr:city": "Chicago", "addr:housenumber": "105", "addr:postcode": "60605", "addr:state": "IL", "addr:street": "West Van Buren Street", "amenity": "bar", "name": "Sky-Ride Tap", "phone": "+1-312-939-3340"}}, {"type": "node", "id": 6322583240, "lat": 41.8732664, "lon": -87.6246842, "tags": {"addr:city": "Chicago", "addr:housenumber": "638", "addr:postcode": "60605", "addr:state": "IL", "addr:street": "South Michigan Avenue", "amenity": "restaurant", "name": "Mercat a la Planxa", "phone": "+1-312-765-0524", "website": "https://mercatchicago.com/"}}, {"type": "node", "id": 6322774469, "lat": 41.8789556, "lon": -87.6372277, "tags": {"addr:city": "Chicago", "addr:housenumber": "200", "addr:postcode": "60606", "addr:state": "IL", "addr:street": "South Lower Wacker Drive", "amenity": "cafe", "name": "Mojo Coffee", "phone": "+1-312-631-3881", "website": "https://us.mojo.coffee/"}}, {"type": "node", "id": 6323044230, "lat": 41.8789162, "lon": -87.6309807, "tags": {"addr:city": "Chicago", "addr:housenumber": "218", "addr:postcode": "60604", "addr:state": "IL", "addr:street": "South Clark Street", "amenity": "restaurant", "name": "Native Foods Cafe", "phone": "+1-312-332-6332", "website": "https://www.nativefoods.com/"}}, {"type": "node", "id": 6323164861, "lat": 41.8797785, "lon": -87.6255767, "tags": {"addr:city": "Chicago", "addr:housenumber": "60", "addr:postcode": "60603", "addr:state": "IL", "addr:street": "East Adams Street", "amenity": "cafe", "name": "Nilly Cafe", "phone": "+1-312-358-1470", "website": "http://www.nillycafe.com/"}}, {"type": "node", "id": 6323177663, "lat": 41.8707401, "lon": -87.6245518, "tags": {"addr:city": "Chicago", "addr:housenumber": "888", "addr:postcode": "60605", "addr:state": "IL", "addr:street": "South Michigan Avenue", "amenity": "restaurant", "name": "Niu B", "phone": "+1-312-922-1127", "website": "https://www.niubchicago.com/"}}, {"type": "node", "id": 6326048107, "lat": 41.8778971, "lon": -87.6311319, "tags": {"addr:city": "Chicago", "addr:housenumber": "111", "addr:postcode": "60604", "addr:state": "IL", "addr:street": "West Jackson Boulevard", "amenity": "cafe", "name": "Mojo coffee", "phone": "+1-312-631 3881", "website": "https://us.mojo.coffee/collections/locations/products/111-west-jackson"}}, {"type": "node", "id": 6326131418, "lat": 41.8826204, "lon": -87.6394162, "tags": {"addr:city": "Chicago", "addr:housenumber": "2", "addr:postcode": "60606", "addr:state": "IL", "addr:street": "North Riverside Plaza", "amenity": "cafe", "name": "Nestle Toll House Cafe", "phone": "+1-312-655-9131", "website": "https://nestlecafe.com/"}}, {"type": "node", "id": 6326180396, "lat": 41.8764183, "lon": -87.6333904, "tags": {"addr:city": "Chicago", "addr:housenumber": "411", "addr:postcode": "60607", "addr:state": "IL", "addr:street": "South Wells Street", "amenity": "bar", "name": "O\u2019Neil\u2019s on Wells", "phone": "+1-312-922-1778", "website": "https://oneilsonwells.com/"}}, {"type": "node", "id": 6326241834, "lat": 41.8839109, "lon": -87.6283762, "tags": {"addr:city": "Chicago", "addr:housenumber": "108", "addr:postcode": "60602", "addr:state": "IL", "addr:street": "North State Street", "addr:unit": "4", "amenity": "bar", "name": "MacGuffins Bar & Lounge", "website": "https://www.amctheatres.com/food-and-drink/macguffins"}}, {"type": "node", "id": 6326504062, "lat": 41.8829799, "lon": -87.6291674, "tags": {"addr:city": "Chicago", "addr:housenumber": "27", "addr:postcode": "60602", "addr:state": "IL", "addr:street": "West Washington Street", "amenity": "cafe", "name": "Lavazza Espression"}}, {"type": "node", "id": 6407790985, "lat": 41.8808285, "lon": -87.6315066, "tags": {"addr:city": "Chicago", "addr:housenumber": "120", "addr:postcode": "60603", "addr:state": "IL", "addr:street": "West Monroe Street", "amenity": "restaurant", "cuisine": "american;new_american;american_new", "name": "Steadfast at the Gray", "opening_hours": "Mo 09:00-18:00; Tu-Sa 07:00-22:00; Su 07:00-15:30", "phone": "+1-312-801-8899", "website": "https://www.steadfastchicago.com"}}, {"type": "node", "id": 6651809301, "lat": 41.8766373, "lon": -87.6333261, "tags": {"addr:city": "Chicago", "addr:housenumber": "400", "addr:postcode": "60605", "addr:state": "IL", "addr:street": "South Financial Place", "amenity": "restaurant", "cuisine": "indian", "name": "Tikka N Curry", "phone": "+1- 312-877-5722", "website": "http://www.tikkancurry.com/"}}, {"type": "node", "id": 6651809302, "lat": 41.8799031, "lon": -87.630505, "tags": {"addr:city": "Chicago", "addr:housenumber": "125", "addr:postcode": "60603", "addr:state": "IL", "addr:street": "South Clark Street", "amenity": "restaurant", "cuisine": "american", "name": "TOMI", "phone": "+1-718-287-3848"}}, {"type": "node", "id": 6651810650, "lat": 41.8766992, "lon": -87.6332724, "tags": {"addr:city": "Chicago", "addr:housenumber": "400", "addr:postcode": "60605", "addr:state": "IL", "addr:street": "South Financial Place", "amenity": "restaurant", "cuisine": "asian", "name": "Chicago Lunchbox", "phone": "+1-773-696-0144", "website": "http://chicagolunchbox.com/"}}, {"type": "node", "id": 6651820282, "lat": 41.8796479, "lon": -87.6303626, "tags": {"addr:city": "Chicago", "addr:housenumber": "125", "addr:postcode": "60603", "addr:state": "IL", "addr:street": "South Clark Street", "amenity": "restaurant", "cuisine": "sandwich", "name": "Danke", "phone": "+1-312-783-4084", "website": "http://www.dankechicago.com/"}}, {"type": "node", "id": 6651839435, "lat": 41.8769761, "lon": -87.6343021, "tags": {"addr:city": "Chicago", "addr:housenumber": "212", "addr:postcode": "60607", "addr:state": "IL", "addr:street": "West Van Buren Street", "amenity": "restaurant", "cuisine": "isreali;middle_eastern;mediterranean", "name": "BenjYehuda - Van Buren", "phone": "+1-312-408-2365", "website": "https://www.benjyehuda.com/"}}, {"type": "node", "id": 6651885854, "lat": 41.8839064, "lon": -87.6274973, "tags": {"addr:city": "Chicago", "addr:housenumber": "111", "addr:postcode": "60602", "addr:state": "IL", "addr:street": "North State Street", "amenity": "restaurant", "cuisine": "mexican", "name": "Frontera Fresco", "phone": "+1-312-781-2955", "website": "https://www.rickbayless.com/restaurants/frontera-fresco/"}}, {"type": "node", "id": 6651931687, "lat": 41.8772913, "lon": -87.6246238, "tags": {"addr:city": "Chicago", "addr:housenumber": "332", "addr:postcode": "60604", "addr:state": "IL", "addr:street": "South Michigan Avenue", "amenity": "restaurant", "cuisine": "pizza;subs;sandwich", "name": "Fontano's Pizza and Subs", "phone": "+1-312-663-3061", "website": "https://fontanosonmichigan.com/"}}, {"type": "node", "id": 6651934923, "lat": 41.8766742, "lon": -87.6333697, "tags": {"addr:city": "Chicago", "addr:housenumber": "400", "addr:postcode": "60605", "addr:state": "IL", "addr:street": "South Financial Place", "amenity": "restaurant", "cuisine": "chicken", "name": "The Roost Carolina Kitchen", "phone": "+1-312-285-2207", "website": "https://www.theroostcarolinakitchen.com/"}}, {"type": "node", "id": 6651949788, "lat": 41.8798256, "lon": -87.6305014, "tags": {"addr:city": "Chicago", "addr:housenumber": "125", "addr:postcode": "60603", "addr:state": "IL", "addr:street": "South Clark Street", "amenity": "restaurant", "cuisine": "mexican;tacos", "name": "Antique Taco Chiquito", "phone": "+1-773-770-6195", "website": "http://www.antiquetaco.com/"}}, {"type": "node", "id": 6651956671, "lat": 41.8840766, "lon": -87.6282032, "tags": {"addr:city": "Chicago", "addr:housenumber": "108", "addr:postcode": "60602", "addr:state": "IL", "addr:street": "North State Street", "amenity": "restaurant", "cuisine": "quick_bite;casual", "name": "Farmer's Fridge", "phone": "+1-312-229-0099"}}, {"type": "node", "id": 6920818833, "lat": 41.8683843, "lon": -87.6310303, "tags": {"addr:city": "Chicago", "addr:housenumber": "1154", "addr:postcode": "60605", "addr:state": "IL", "addr:street": "South Clark Street", "amenity": "cafe", "brand": "Starbucks", "brand:wikidata": "Q37158", "brand:wikipedia": "en:Starbucks", "cuisine": "coffee_shop", "name": "Starbucks", "official_name": "Starbucks Coffee", "takeaway": "yes"}}, {"type": "node", "id": 6966999056, "lat": 41.8747058, "lon": -87.6289464, "tags": {"addr:city": "Chicago", "addr:housenumber": "555", "addr:postcode": "60605", "addr:state": "IL", "addr:street": "South Dearborn Street", "amenity": "cafe", "brand": "Starbucks", "brand:wikidata": "Q37158", "brand:wikipedia": "en:Starbucks", "cuisine": "coffee_shop", "internet_access": "wlan", "internet_access:fee": "no", "name": "Starbucks", "official_name": "Starbucks Coffee", "outdoor_seating": "yes", "takeaway": "yes"}}, {"type": "way", "id": 28292665, "nodes": [417255758, 417255755, 417255756, 417255759, 310690823, 310690824, 1586352084, 310690825, 310690826, 1586352086, 2143100432, 310690817, 417255762, 2180600329, 2180600367, 2180600354, 1589049102, 310690820, 1388390051, 417255753, 2180600349, 2180600356, 2180600337, 1407580195, 417255758], "tags": {"amenity": "university", "name": "DePaul University (the Loop Campus)", "wheelchair": "yes"}}, {"type": "way", "id": 73747639, "nodes": [873087094, 872697084, 872697087, 873087096, 873087094], "tags": {"addr:city": "Chicago", "addr:housenumber": "327", "addr:postcode": "60604", "addr:state": "IL", "addr:street": "South Plymouth Court", "addr:street:name": "Plymouth", "addr:street:prefix": "South", "addr:street:type": "Court", "amenity": "restaurant", "building": "yes", "building:levels": "3", "chicago:building_id": "814820", "name": "Plymouth Rooftop Bar & Grill", "phone": "+1-312-362-1212", "website": "http://plymouthgrill.com/"}}, {"type": "way", "id": 74269722, "nodes": [878226185, 878223677, 878223676, 878226189, 878233833, 878233845, 878233847, 878233852, 878226185], "tags": {"addr:city": "Chicago", "addr:housenumber": "501", "addr:postcode": "60607", "addr:state": "IL", "addr:street": "South Wells Street", "amenity": "restaurant", "building": "yes", "cuisine": "italian", "name": "Tutto Italiano"}}, {"type": "way", "id": 147482998, "nodes": [1388390184, 1606983512, 1606983511, 1606983510, 1388390121, 1388390184], "tags": {"addr:housenumber": "71", "addr:postcode": "60603", "addr:street": "West Monroe Street", "addr:street:name": "Monroe", "addr:street:prefix": "West", "addr:street:type": "Street", "amenity": "restaurant", "building": "retail", "building:levels": "3", "chicago:building_id": "814640", "name": "Italian VIllage"}}, {"type": "way", "id": 148164102, "nodes": [1612636787, 1612636786, 1612636775, 1612636792, 1612636747, 1612636787], "tags": {"addr:housenumber": "30", "addr:postcode": "60603", "addr:street": "South Wabash Avenue", "addr:street:name": "Monroe", "addr:street:prefix": "East", "addr:street:type": "Street", "amenity": "restaurant", "building": "office", "chicago:building_id": "880580", "name": "Flat Top Grill"}}, {"type": "way", "id": 149372353, "nodes": [1623626541, 1623626008, 1623625816, 1623626170, 1623626541], "tags": {"addr:housenumber": "700", "addr:postcode": "60605", "addr:street": "South Wabash Avenue", "addr:street:name": "Wabash", "addr:street:prefix": "South", "addr:street:type": "Avenue", "amenity": "bar", "building": "yes", "building:levels": "1", "chicago:building_id": "365890", "name": "Buddy Guy's Legends"}}, {"type": "way", "id": 210541840, "nodes": [2206241002, 2206241005, 5913542435, 2206241006, 2206241008, 2206241007, 2206240989, 2206240990, 2206241002], "tags": {"addr:city": "Chicago", "addr:housenumber": "1159", "addr:postcode": "60607", "addr:street": "South Canal Street", "addr:street:name": "Canal", "addr:street:prefix": "South", "addr:street:type": "Street", "amenity": "restaurant", "building": "yes", "chicago:building_id": "834523", "cuisine": "diner", "name": "White Palace Grill"}}, {"type": "way", "id": 210671717, "nodes": [2207543668, 2885201541, 2207543820, 2207543823, 2391131209, 2207543732, 2885201538, 2207543684, 2397703811, 2207543680, 2397703813, 2397703812, 2207543668], "tags": {"addr:housenumber": "150", "addr:street": "North Michigan Avenue", "addr:street:name": "Michigan", "addr:street:prefix": "North", "addr:street:type": "Avenue", "amenity": "cafe", "building": "yes", "chicago:building_id": "353775", "name": "Crain Communications Building", "old_name": "Smurfit-Stone Building", "start_date": "1984", "wikidata": "Q2444330", "wikipedia": "en:Crain Communications Building"}}, {"type": "way", "id": 226825895, "nodes": [2353611003, 2353611005, 2353611001, 2353611006, 2353611004, 2353611003], "tags": {"addr:housenumber": "26", "addr:postcode": "60605", "addr:street": "East Roosevelt Road", "amenity": "restaurant", "building": "yes", "cuisine": "donut", "name": "Stan's Donuts"}}, {"type": "way", "id": 226885912, "nodes": [2206240988, 2206240974, 2206240972, 2206240981, 2206240982, 2206240987, 2206240988], "tags": {"addr:housenumber": "31", "addr:postcode": "60605", "addr:street": "East Roosevelt Road", "amenity": "cafe", "brand": "Starbucks", "brand:wikidata": "Q37158", "brand:wikipedia": "en:Starbucks", "building": "yes", "building:levels": "1", "chicago:building_id": "843355", "cuisine": "coffee_shop", "name": "Starbucks", "takeaway": "yes", "website": "https://www.starbucks.com/"}}, {"type": "way", "id": 401086007, "nodes": [4035489532, 4035489533, 4035489534, 4035489535, 4035489536, 4035489537, 4035489538, 4035489539, 4035489532], "tags": {"amenity": "cafe", "building": "yes", "name": "Bridgeport Coffee"}}, {"type": "way", "id": 561883764, "nodes": [5417352970, 5417352971, 5417352972, 5417352973, 5417352974, 5417352975, 5417352976, 5417352977, 5417352978, 5417352979, 5417352980, 5417352981, 5417352982, 5417352983, 5417352984, 5417352985, 5417352986, 5417352987, 5417352970], "tags": {"amenity": "cafe", "building": "yes", "building:levels": "1", "name": "Fountain Cafe"}}]}