{"version": 0.6, "generator": "Overpass API 0.7.56.3 eb200aeb", "osm3s": {"timestamp_osm_base": "2020-07-17T21:20:03Z", "copyright": "The data included in this document is from www.openstreetmap.org. The data is made available under ODbL."}, "elements": [{"type": "node", "id": 533979379, "lat": 41.9980101, "lon": -87.6815509, "tags": {"addr:city": "Chicago", "addr:housenumber": "2032", "addr:postcode": "60659", "addr:state": "IL", "addr:street": "West Devon Avenue", "amenity": "restaurant", "cuisine": "indian", "name": "Ghareeb Nawaz", "opening_hours": "24/7", "phone": "+1-773-761-5300", "website": "https://ghareebnawazonline.com/"}}, {"type": "node", "id": 938829350, "lat": 42.0073549, "lon": -87.6662451, "tags": {"addr:city": "Chicago", "addr:housenumber": "6920", "addr:postcode": "60626", "addr:state": "IL", "addr:street": "North Glenwood Avenue", "amenity": "bar", "name": "Rogers Park Social", "phone": "+1-773-791-1419", "website": "http://www.rogersparksocial.com/"}}, {"type": "node", "id": 1288454599, "lat": 42.0076938, "lon": -87.6680759, "tags": {"addr:city": "Chicago", "addr:housenumber": "1501", "addr:postcode": "60626", "addr:state": "IL", "addr:street": "West Morse Avenue", "amenity": "cafe", "cuisine": "coffee_shop", "name": "Common Cup", "phone": "+1-773-338-0256", "website": "http://www.commoncupchicago.com"}}, {"type": "node", "id": 2201030508, "lat": 41.9978624, "lon": -87.6656802}, {"type": "node", "id": 2201030512, "lat": 41.9978655, "lon": -87.6655109}, {"type": "node", "id": 2201030565, "lat": 41.9979026, "lon": -87.6657515}, {"type": "node", "id": 2201030572, "lat": 41.9979049, "lon": -87.6656816}, {"type": "node", "id": 2201030631, "lat": 41.9979329, "lon": -87.6657769}, {"type": "node", "id": 2201030633, "lat": 41.9979342, "lon": -87.665753}, {"type": "node", "id": 2201030690, "lat": 41.997981, "lon": -87.6657801}, {"type": "node", "id": 2201030691, "lat": 41.9979822, "lon": -87.6657562}, {"type": "node", "id": 2201030750, "lat": 41.9980412, "lon": -87.6657574}, {"type": "node", "id": 2201030763, "lat": 41.9980467, "lon": -87.6655182}, {"type": "node", "id": 2201050025, "lat": 42.0038979, "lon": -87.672981}, {"type": "node", "id": 2201050058, "lat": 42.003902, "lon": -87.6727382}, {"type": "node", "id": 2201050259, "lat": 42.0039527, "lon": -87.6729565}, {"type": "node", "id": 2201050275, "lat": 42.0039534, "lon": -87.6728462}, {"type": "node", "id": 2201050278, "lat": 42.0039556, "lon": -87.6729823}, {"type": "node", "id": 2201050282, "lat": 42.0039568, "lon": -87.6729565}, {"type": "node", "id": 2201050342, "lat": 42.0039643, "lon": -87.672835}, {"type": "node", "id": 2201050356, "lat": 42.0039652, "lon": -87.6727577}, {"type": "node", "id": 2201072801, "lat": 42.0080084, "lon": -87.6664311}, {"type": "node", "id": 2201072810, "lat": 42.0080123, "lon": -87.6662492}, {"type": "node", "id": 2201072880, "lat": 42.0080363, "lon": -87.6649399}, {"type": "node", "id": 2201072894, "lat": 42.0080393, "lon": -87.6647606}, {"type": "node", "id": 2201073213, "lat": 42.0082034, "lon": -87.6648987}, {"type": "node", "id": 2201073217, "lat": 42.0082054, "lon": -87.6647644}, {"type": "node", "id": 2201073451, "lat": 42.0083044, "lon": -87.6649481}, {"type": "node", "id": 2201073453, "lat": 42.008305, "lon": -87.6649014}, {"type": "node", "id": 2201074220, "lat": 42.0084739, "lon": -87.666445}, {"type": "node", "id": 2201074224, "lat": 42.0084776, "lon": -87.6662665}, {"type": "node", "id": 2990179090, "lat": 42.010791, "lon": -87.67421, "tags": {"amenity": "restaurant", "cuisine": "ice_cream", "name": "Something North"}}, {"type": "node", "id": 3731938758, "lat": 42.007634, "lon": -87.6662684, "tags": {"addr:city": "Chicago", "addr:housenumber": "6928", "addr:postcode": "60626", "addr:state": "IL", "addr:street": "North Glenwood Avenue", "amenity": "bar", "name": "Rogers Park Provisions"}}, {"type": "node", "id": 3896765000, "lat": 41.9980464, "lon": -87.6628636, "tags": {"amenity": "cafe", "name": "Coffee Shop (generic)"}}, {"type": "node", "id": 4069098504, "lat": 42.0124817, "lon": -87.6744293, "tags": {"addr:housenumber": "7137", "addr:street": "North Clark Street", "amenity": "restaurant", "contact:phone": "773-961-7676", "name": "Markello's Dining Restaurant", "website": "http://markellosonline.com/"}}, {"type": "node", "id": 4317787389, "lat": 41.9975418, "lon": -87.6858292, "tags": {"amenity": "restaurant", "name": "Hyderabad house"}}, {"type": "node", "id": 4905131954, "lat": 41.9983048, "lon": -87.6708927, "tags": {"addr:housenumber": "6404", "addr:street": "North Clark Street", "amenity": "restaurant", "description": "Authentic, tasty Mexican joint.", "name": "Taqueria El Chorrito", "phone": "(773) 381-0902", "website": "https://www.elchorrito.com/"}}, {"type": "node", "id": 5839209831, "lat": 41.9979862, "lon": -87.668527, "tags": {"addr:housenumber": "1515", "addr:street": "West Devon Avenue", "amenity": "restaurant", "description": "Cuban, Colombian, and Mexican food. Also Latin American grocery.", "name": "La Unica Food Mart", "opening_hours": "Mo-Sa 08:30-21:00; Su 08:30-17:00", "phone": "773 274 7788", "website": "www.launicafoodmart.us"}}, {"type": "node", "id": 6262091501, "lat": 42.001557, "lon": -87.6620025, "tags": {"addr:city": "Chicago", "addr:housenumber": "1228", "addr:postcode": "60626", "addr:state": "IL", "addr:street": "West Loyola Avenue", "amenity": "cafe", "name": "Archie\u2019s Cafe", "phone": "+1-773-856-0899"}}, {"type": "node", "id": 6284018111, "lat": 41.9982845, "lon": -87.6665475, "tags": {"addr:city": "Chicago", "addr:housenumber": "1424", "addr:postcode": "60626", "addr:state": "IL", "addr:street": "West Devon Avenue", "amenity": "bar", "name": "Cunneen\u2019s", "phone": "+1-773-274-9317", "website": "http://cunneensbarchicago.com/"}}, {"type": "node", "id": 6286592668, "lat": 41.9980374, "lon": -87.6627724, "tags": {"addr:city": "Chicago", "addr:housenumber": "1259", "addr:postcode": "60660", "addr:state": "IL", "addr:street": "West Devon Avenue", "amenity": "cafe", "name": "Ellipsis Coffeehouse", "phone": "+1-773-654-1589", "website": "https://www.ellipsiscoffeehouse.com/"}}, {"type": "node", "id": 6291637578, "lat": 42.00826, "lon": -87.6665329, "tags": {"addr:city": "Chicago", "addr:housenumber": "1412", "addr:postcode": "60626", "addr:state": "IL", "addr:street": "West Morse Avenue", "amenity": "bar", "name": "Fudy T\u2019s", "phone": "+1-773-856-0328", "website": "http://fudytultrabar.com/"}}, {"type": "node", "id": 6297613251, "lat": 41.9975635, "lon": -87.6707493, "tags": {"addr:city": "Chicago", "addr:housenumber": "6338", "addr:postcode": "60660", "addr:state": "IL", "addr:street": "North Clark Street", "amenity": "restaurant", "name": "Sauce And Bread Kitchen", "phone": "+1-773-942-6384", "website": "http://sauceandbread.com/"}}, {"type": "node", "id": 6297696580, "lat": 42.0039382, "lon": -87.6728635, "tags": {"addr:city": "Chicago", "addr:housenumber": "6712", "addr:postcode": "60626", "addr:state": "IL", "addr:street": "North Clark Street", "amenity": "cafe", "name": "Sebastian\u2019s Coffee & Bakery", "phone": "+1-773-942-6749"}}, {"type": "node", "id": 6298772685, "lat": 42.0099898, "lon": -87.6745597, "tags": {"addr:city": "Chicago", "addr:housenumber": "7030", "addr:postcode": "60626", "addr:state": "IL", "addr:street": "North Clark Street", "amenity": "bar", "name": "Silvana Bar", "phone": "+1-773-465-8590"}}, {"type": "node", "id": 6298857498, "lat": 42.0074054, "lon": -87.6662642, "tags": {"addr:city": "Chicago", "addr:housenumber": "6920", "addr:postcode": "60626", "addr:state": "IL", "addr:street": "North Glenwood Avenue", "amenity": "cafe", "name": "Smack Dab", "phone": "+1-872-241-9111", "website": "https://www.smackdabchicago.com/"}}, {"type": "node", "id": 6300638640, "lat": 41.9979515, "lon": -87.6692998, "tags": {"addr:city": "Chicago", "addr:housenumber": "1535", "addr:postcode": "60631", "addr:state": "IL", "addr:street": "West Devon Avenue", "amenity": "cafe", "name": "Red Rover Caf\u00e9", "phone": "+1-773-262-2666", "website": "http://www.redrovercafechicago.com/"}}, {"type": "node", "id": 6303787394, "lat": 42.0013884, "lon": -87.6712636, "tags": {"addr:city": "Chicago", "addr:housenumber": "6545", "addr:postcode": "60626", "addr:state": "IL", "addr:street": "North Clark Street", "amenity": "restaurant", "cuisine": "peruvian", "name": "Taste of Peru", "phone": "+1-773-381-4540", "website": "https://tasteofperu.com/"}}, {"type": "node", "id": 6315237873, "lat": 42.0083767, "lon": -87.6663564, "tags": {"addr:city": "Chicago", "addr:housenumber": "6962", "addr:postcode": "60626", "addr:state": "IL", "addr:street": "North Glenwood Avenue", "amenity": "bar", "name": "The Glenwood", "phone": "+1-773-764-7363", "website": "http://www.theglenwoodbar.com/cgi-sys/suspendedpage.cgi"}}, {"type": "node", "id": 6315674821, "lat": 41.997511, "lon": -87.6706958, "tags": {"addr:city": "Chicago", "addr:housenumber": "6334", "addr:postcode": "60660", "addr:state": "IL", "addr:street": "North Clark Street", "amenity": "bar", "name": "The Norse Bar", "phone": "+1-773-942-6344", "website": "http://norsebar.com/odin/"}}, {"type": "node", "id": 6317044756, "lat": 42.0089187, "lon": -87.6617454, "tags": {"addr:city": "Chicago", "addr:housenumber": "6977", "addr:postcode": "60626", "addr:state": "IL", "addr:street": "North Sheridan Road", "amenity": "cafe", "name": "XO Marshmallow", "phone": "+1-872-484-0011", "website": "https://www.xomarshmallow.com/"}}, {"type": "node", "id": 6318237820, "lat": 42.0087285, "lon": -87.6663449, "tags": {"addr:city": "Chicago", "addr:housenumber": "6970", "addr:postcode": "60626", "addr:state": "IL", "addr:street": "North Glenwood Avenue", "amenity": "bar", "name": "Le Piano", "phone": "+1-773-209-7631", "website": "https://www.lepianochicago.com/"}}, {"type": "node", "id": 6412790908, "lat": 42.0097903, "lon": -87.6744103, "tags": {"addr:city": "Chicago", "addr:housenumber": "7024", "addr:postcode": "60626", "addr:state": "IL", "addr:street": "North Clark Street", "amenity": "restaurant", "cuisine": "mexican", "name": "Tamales Lo Mejor De Guerrero", "opening_hours": "Tu-Su 05:00-20:00", "phone": "+1-773-338-6450"}}, {"type": "node", "id": 6412790976, "lat": 42.0099178, "lon": -87.6739865, "tags": {"addr:city": "Chicago", "addr:housenumber": "7027", "addr:postcode": "60626", "addr:state": "IL", "addr:street": "North Clark Street", "amenity": "restaurant", "cuisine": "mexican", "name": "El Sabor Pobloano", "opening_hours": "Su-Mo 08:00-21:00; We-Th 08:00-21:00; Fr-Sa 08:00-22:00"}}, {"type": "node", "id": 6412792357, "lat": 42.0097145, "lon": -87.6744344, "tags": {"addr:city": "Chicago", "addr:housenumber": "7022", "addr:postcode": "60626", "addr:state": "IL", "addr:street": "North Clark Street", "amenity": "restaurant", "cuisine": "mexican", "name": "La Choza Mexican Grill", "phone": "+1-773-465-2162", "website": "Su-Th 10:00-00:00;Fr-Sa 10:00-02:00"}}, {"type": "node", "id": 6412795318, "lat": 42.0096687, "lon": -87.6739181, "tags": {"addr:city": "Chicago", "addr:housenumber": "7021", "addr:postcode": "60626", "addr:state": "IL", "addr:street": "North Clark Street", "amenity": "restaurant", "cuisine": "mexican", "name": "Birrier\u00eda Y Carnitas El Gallito", "opening_hours": "Mo-Su 09:00-21:00", "phone": "+1-773-901-9067", "website": "http://orderbirreriaycarnitaselgallito.com"}}, {"type": "node", "id": 6412805048, "lat": 42.002297, "lon": -87.6718007, "tags": {"addr:city": "Chicago", "addr:housenumber": "6619", "addr:postcode": "60626", "addr:state": "IL", "addr:street": "North Clark Street", "amenity": "restaurant", "cuisine": "mexican", "name": "El Pulpo Loco Restaurant", "phone": "+1-773-274-2241", "website": "https://el-pulpo-loco-restaurant.business.site"}}, {"type": "node", "id": 6412813680, "lat": 42.0073012, "lon": -87.6738079, "tags": {"addr:city": "Chicago", "addr:housenumber": "6922", "addr:postcode": "60626", "addr:state": "IL", "addr:street": "North Clark Street", "amenity": "restaurant", "cuisine": "mexican", "name": "El Pecado Mexican Restaurant", "phone": "+1-773-681-0220", "website": "http://orderelpecadomexicanrestaurant.com/"}}, {"type": "node", "id": 6412818878, "lat": 42.002762, "lon": -87.6720083, "tags": {"addr:city": "Chicago", "addr:housenumber": "6635", "addr:postcode": "60626", "addr:state": "IL", "addr:street": "North Clark Street", "amenity": "restaurant", "cuisine": "eritrean", "name": "Denden Restaurant", "phone": "+1-773-973-4752"}}, {"type": "node", "id": 6412819890, "lat": 42.0075405, "lon": -87.6662899, "tags": {"addr:city": "Chicago", "addr:housenumber": "6930", "addr:postcode": "60626", "addr:state": "IL", "addr:street": "North Glenwood Avenue", "amenity": "restaurant", "cuisine": "american", "name": "Noon Hour Grill", "phone": "+1-773-338-9494"}}, {"type": "node", "id": 6412822104, "lat": 42.0080429, "lon": -87.6667483, "tags": {"addr:city": "Chicago", "addr:housenumber": "1416", "addr:postcode": "60626", "addr:state": "IL", "addr:street": "West Morse Avenue", "amenity": "restaurant", "cuisine": "mexican", "name": "South Of The Border Restaurant & Bar", "phone": "+1-773-856-0427"}}, {"type": "node", "id": 6412822257, "lat": 42.0104528, "lon": -87.6740973, "tags": {"addr:city": "Chicago", "addr:housenumber": "7047", "addr:postcode": "60626", "addr:state": "IL", "addr:street": "North Clark Street", "amenity": "restaurant", "cuisine": "mexican", "name": "El Famous Burrito", "phone": "+1-773-465-0377"}}, {"type": "node", "id": 6412827080, "lat": 42.0103581, "lon": -87.674002, "tags": {"addr:city": "Chicago", "addr:housenumber": "7043", "addr:postcode": "60626", "addr:state": "IL", "addr:street": "North Clark Street", "amenity": "restaurant", "cuisine": "tacos;mexican", "name": "Rocky's Tacos", "phone": "+1-773-274-4555"}}, {"type": "node", "id": 6412828571, "lat": 42.0123579, "lon": -87.6749547, "tags": {"addr:city": "Chicago", "addr:housenumber": "7138", "addr:postcode": "60626", "addr:state": "IL", "addr:street": "North Clark Street", "amenity": "restaurant", "cuisine": "mexican", "name": "Su Taqueria El Rey Del Taco y Sus Mariscos", "phone": "+1-773-274-9004"}}, {"type": "node", "id": 6651820248, "lat": 42.0093864, "lon": -87.6730635, "tags": {"addr:city": "Chicago", "addr:housenumber": "1716", "addr:postcode": "60626", "addr:state": "IL", "addr:street": "West Lunt Avenue", "amenity": "restaurant", "cuisine": "indian;vegetarean", "name": "Krishna Lunch", "phone": "+1-773-973-0900", "website": "http://www.iskconchicago.com/programs/krishna-lunch/"}}, {"type": "way", "id": 209951195, "nodes": [2201030508, 2201030572, 2201030565, 2201030633, 2201030631, 2201030690, 2201030691, 2201030750, 2201030763, 2201030512, 2201030508], "tags": {"addr:housenumber": "1401", "addr:street": "West Devon Avenue", "addr:street:name": "Devon", "addr:street:prefix": "West", "addr:street:type": "Avenue", "amenity": "restaurant", "building": "yes", "building:levels": "1", "chicago:building_id": "25057", "name": "Uncommon Ground"}}, {"type": "way", "id": 209953665, "nodes": [2201050025, 2201050278, 2201050282, 2201050259, 2201050275, 2201050342, 2201050356, 2201050058, 2201050025], "tags": {"addr:housenumber": "6712", "addr:street": "North Clark Street", "addr:street:name": "Clark", "addr:street:prefix": "North", "addr:street:type": "Street", "amenity": "restaurant", "building": "yes", "building:levels": "2", "capacity": "50", "chicago:building_id": "16630", "cuisine": "bakery;coffee", "name": "Sebastian\u2019s Coffee and Bakery", "opening_hours": "Mo-Su 6:00-18:00"}}, {"type": "way", "id": 209956969, "nodes": [2201073451, 2201073453, 2201073213, 2201073217, 2201072894, 2201072880, 2201073451], "tags": {"addr:city": "Chicago", "addr:housenumber": "1326", "addr:postcode": "60626", "addr:street": "West Morse Avenue", "addr:street:name": "Morse", "addr:street:prefix": "West", "addr:street:type": "Avenue", "amenity": "restaurant", "building": "yes", "building:levels": "1", "chicago:building_id": "842453", "cuisine": "pizza", "name": "J.B. Alberto's", "phone": "017739731700", "website": "http://jbalbertos.com"}}, {"type": "way", "id": 209957070, "nodes": [2201074220, 2201074224, 2201072810, 2201072801, 2201074220], "tags": {"addr:city": "Chicago", "addr:housenumber": "1406", "addr:postcode": "60626", "addr:state": "IL", "addr:street": "West Morse Avenue", "addr:street:name": "Morse", "addr:street:prefix": "West", "addr:street:type": "Avenue", "amenity": "bar", "building": "yes", "building:levels": "1", "chicago:building_id": "842438", "name": "Pub 626", "phone": "+1-773-764-0626", "website": "http://www.pub626.com/"}}]}