{"version": 0.6, "generator": "Overpass API 0.7.56.3 eb200aeb", "osm3s": {"timestamp_osm_base": "2020-07-04T01:14:02Z", "copyright": "The data included in this document is from www.openstreetmap.org. The data is made available under ODbL."}, "elements": [{"type": "node", "id": 371266619, "lat": 41.9371493, "lon": -87.6481922, "tags": {"addr:city": "Chicago", "addr:housenumber": "3025", "addr:postcode": "60657", "addr:state": "IL", "addr:street": "North Clark Street", "amenity": "cafe", "brand": "Peet's Coffee", "brand:wikidata": "Q1094101", "brand:wikipedia": "en:Peet's Coffee", "cuisine": "coffee_shop", "name": "Peet's Coffee", "phone": "+1-773-360-5558", "takeaway": "yes", "website": "https://www.peets.com/"}}, {"type": "node", "id": 419481655, "lat": 41.9403568, "lon": -87.6403725, "tags": {"amenity": "pub", "name": "Bridget McNeill's", "website": "http://www.bridgetmcneillspub.com/"}}, {"type": "node", "id": 662726457, "lat": 41.9377792, "lon": -87.6444705, "tags": {"amenity": "restaurant", "name": "Stella's Diner"}}, {"type": "node", "id": 662726461, "lat": 41.9437805, "lon": -87.6449908, "tags": {"addr:city": "Chicago", "addr:housenumber": "3415", "addr:postcode": "60657", "addr:state": "IL", "addr:street": "North Broadway", "amenity": "restaurant", "name": "Ann Sather", "phone": "+1-773-305-0024", "website": "http://annsather.com/"}}, {"type": "node", "id": 662726462, "lat": 41.9367975, "lon": -87.6444222, "tags": {"amenity": "pub", "name": "Friar Tuck", "url": "http://www.friartuck3010.com"}}, {"type": "node", "id": 903249885, "lat": 41.9477497, "lon": -87.6473849, "tags": {"addr:city": "Chicago", "addr:country": "US", "addr:housenumber": "3617", "addr:postcode": "60613", "addr:state": "IL", "addr:street": "North Broadway", "amenity": "restaurant", "name": "Waffles"}}, {"type": "node", "id": 903251602, "lat": 41.9471033, "lon": -87.6469665, "tags": {"addr:city": "Chicago", "addr:housenumber": "3561", "addr:postcode": "60657", "addr:state": "IL", "addr:street": "North Broadway", "amenity": "restaurant", "cuisine": "italian", "name": "Angelina's Italian Restaurant", "phone": "+1-773-935-5933", "website": "http://www.angelinaristorante.com/"}}, {"type": "node", "id": 903259931, "lat": 41.9450605, "lon": -87.645679, "tags": {"amenity": "pub", "name": "Rock's", "wheelchair": "yes"}}, {"type": "node", "id": 903262989, "lat": 41.9409507, "lon": -87.6441233, "tags": {"addr:city": "Chicago", "addr:housenumber": "3233", "addr:postcode": "60657", "addr:state": "IL", "addr:street": "North Broadway", "amenity": "restaurant", "cuisine": "diner", "name": "Eggsperience Pancakes & Cafe", "opening_hours": "Mo-Su 09:00-21:00"}}, {"type": "node", "id": 903263931, "lat": 41.942036, "lon": -87.6446812, "tags": {"addr:city": "Chicago", "addr:housenumber": "3300", "addr:postcode": "60657", "addr:state": "IL", "addr:street": "North Broadway", "amenity": "cafe", "name": "Stan\u2019s Donuts & Coffee", "phone": "+1-773-883-4764", "website": "http://www.stansdonutschicago.com/"}}, {"type": "node", "id": 903264793, "lat": 41.9423073, "lon": -87.6446598, "tags": {"amenity": "restaurant", "name": "Ping Pong Asian-Thai", "wheelchair": "yes"}}, {"type": "node", "id": 1673554503, "lat": 41.9382563, "lon": -87.6441813, "tags": {"addr:city": "Chicago", "addr:housenumber": "3123", "addr:postcode": "60657", "addr:state": "IL", "addr:street": "North Broadway", "amenity": "cafe", "cuisine": "coffee_shop", "internet_access": "wlan", "name": "Intelligentsia", "phone": "+1-773-348-8058", "source": "Bing", "website": "https://www.intelligentsiacoffee.com/"}}, {"type": "node", "id": 1939836286, "lat": 41.9374071, "lon": -87.6484086, "tags": {"addr:housenumber": "3037", "addr:postcode": "60657", "addr:street": "North Clark Street", "amenity": "restaurant", "cuisine": "sandwich", "name": "Sandwich Me In", "website": "http://sandwichmeinchicago.com/"}}, {"type": "node", "id": 2204091506, "lat": 41.9385872, "lon": -87.6451669}, {"type": "node", "id": 2204091513, "lat": 41.9385878, "lon": -87.6449831}, {"type": "node", "id": 2204091519, "lat": 41.9385889, "lon": -87.6449831}, {"type": "node", "id": 2204091542, "lat": 41.9385956, "lon": -87.6444681}, {"type": "node", "id": 2204091829, "lat": 41.9386737, "lon": -87.6451678}, {"type": "node", "id": 2204091836, "lat": 41.938675, "lon": -87.6449344}, {"type": "node", "id": 2204092025, "lat": 41.9387461, "lon": -87.6449358}, {"type": "node", "id": 2204092036, "lat": 41.9387521, "lon": -87.6444705}, {"type": "node", "id": 2274337309, "lat": 41.9423948, "lon": -87.6442641, "tags": {"addr:city": "Chicago", "addr:housenumber": "3311", "addr:postcode": "60657", "addr:state": "IL", "addr:street": "North Broadway", "amenity": "cafe", "name": "The Coffee & Tea Exchange", "phone": "+1-773-528-2241", "website": "https://coffeeandtea.com/"}}, {"type": "node", "id": 2282741031, "lat": 41.9426831, "lon": -87.6443288, "tags": {"addr:housenumber": "3257", "addr:street": "North Broadway", "amenity": "restaurant", "cuisine": "asian", "name": "Joy's Noodles & Rice"}}, {"type": "node", "id": 2359667303, "lat": 41.9359579, "lon": -87.644101, "tags": {"addr:city": "Chicago", "addr:housenumber": "2933", "addr:postcode": "60657", "addr:street": "North Broadway", "amenity": "restaurant", "cuisine": "mexican", "name": "Janitzio Burritos Y Tagueria"}}, {"type": "node", "id": 2447746288, "lat": 41.9393077, "lon": -87.644226, "tags": {"addr:city": "Chicago", "addr:housenumber": "3155", "addr:postcode": "60657", "addr:state": "IL", "addr:street": "North Broadway", "amenity": "pub", "microbrewery": "yes", "name": "DryHop Brewers", "phone": "+1-773-857-3155", "website": "https://dryhopchicago.com/"}}, {"type": "node", "id": 3485449403, "lat": 41.9470511, "lon": -87.646931, "tags": {"addr:city": "Chicago", "addr:housenumber": "3555", "addr:postcode": "60657", "addr:state": "IL", "addr:street": "North Broadway", "amenity": "restaurant", "cuisine": "barbecue", "name": "Wrigley BBQ", "opening_hours": "Mo-Th 11:30-22:00; Fr-Sa 11:30-23:00; Su 11:30-21:30", "smoking": "no", "takeaway": "yes"}}, {"type": "node", "id": 4704620392, "lat": 41.9425068, "lon": -87.6442948, "tags": {"amenity": "bar", "name": "The Closet", "name:en": "The Closet"}}, {"type": "node", "id": 5002004773, "lat": 41.9361201, "lon": -87.6444045, "tags": {"addr:housenumber": "2940", "addr:street": "North Broadway", "amenity": "restaurant", "name": "Crisp Korean Restaurant", "phone": "773 697 7610", "website": "http://www.crisponline.com/crisp.aspx"}}, {"type": "node", "id": 5168219465, "lat": 41.9384653, "lon": -87.6445563, "tags": {"addr:city": "Chicago", "addr:housenumber": "3124", "addr:postcode": "60657", "addr:state": "IL", "addr:street": "North Broadway", "amenity": "restaurant", "description": "Bib Gourmand recommendation", "name": "Ceres' Table", "phone": "+1-773-922-4020", "website": "https://www.cerestable.com/"}}, {"type": "node", "id": 5693947791, "lat": 41.9438463, "lon": -87.6453016, "tags": {"amenity": "restaurant", "name": "El Mariache Restaurant"}}, {"type": "node", "id": 5693947793, "lat": 41.9438117, "lon": -87.6453073, "tags": {"addr:city": "Chicago", "addr:housenumber": "3420", "addr:postcode": "60657", "addr:state": "Il", "addr:street": "North Broadway", "amenity": "bar", "name": "Jacquelines's", "phone": "+1-773-404-5149"}}, {"type": "node", "id": 5693947794, "lat": 41.9438949, "lon": -87.6453372, "tags": {"amenity": "restaurant", "name": "Shiawase Japanese Restaurant"}}, {"type": "node", "id": 5693948271, "lat": 41.9455874, "lon": -87.6463743, "tags": {"amenity": "restaurant", "name": "Tasty Asian Restaurant"}}, {"type": "node", "id": 5694736438, "lat": 41.9436247, "lon": -87.644836, "tags": {"amenity": "restaurant", "name": "Milt's Barbecue for the Perplexed"}}, {"type": "node", "id": 6258078468, "lat": 41.9360857, "lon": -87.6477688, "tags": {"addr:city": "Chicago", "addr:housenumber": "2942", "addr:postcode": "60657", "addr:state": "IL", "addr:street": "North Clark Street", "amenity": "cafe", "name": "Aje Cafe", "phone": "+1-773-472-2233", "website": "https://ajecafechicago.wixsite.com/mysite"}}, {"type": "node", "id": 6265193537, "lat": 41.9363269, "lon": -87.6441062, "tags": {"addr:city": "Chicago", "addr:housenumber": "2947", "addr:postcode": "60657", "addr:state": "IL", "addr:street": "North Broadway", "amenity": "restaurant", "name": "Bar Pastoral", "phone": "+1-773-472-4781", "website": "https://www.pastoralartisan.com/barpastoral"}}, {"type": "node", "id": 6269048738, "lat": 41.9402531, "lon": -87.6445602, "tags": {"addr:city": "Chicago", "addr:housenumber": "3204", "addr:postcode": "60657", "addr:state": "IL", "addr:street": "North Broadway", "amenity": "restaurant", "name": "Brazilian Bowl", "phone": "+1-773- 857-2002", "website": "https://brazilianbowl2go.com/"}}, {"type": "node", "id": 6284775973, "lat": 41.9377382, "lon": -87.6444991, "tags": {"addr:city": "Chicago", "addr:housenumber": "3040", "addr:postcode": "60657", "addr:state": "IL", "addr:street": "North Broadway", "amenity": "bar", "name": "Dram Shop", "phone": "+1-773-549-4401"}}, {"type": "node", "id": 6287095694, "lat": 41.9494171, "lon": -87.6483014, "tags": {"addr:city": "Chicago", "addr:housenumber": "3701", "addr:postcode": "60613", "addr:state": "IL", "addr:street": "North Broadway", "amenity": "bar", "name": "F. O\u2019Mahony\u2019s", "phone": "+1-773-549-0226", "website": "http://fomahonys.com/"}}, {"type": "node", "id": 6291549885, "lat": 41.9368175, "lon": -87.6445689, "tags": {"addr:city": "Chicago", "addr:housenumber": "3010", "addr:postcode": "60657", "addr:state": "IL", "addr:street": "North Broadway", "amenity": "bar", "name": "Friar Tuck", "phone": "+1-773-327-5101"}}, {"type": "node", "id": 6294397336, "lat": 41.9358429, "lon": -87.639797, "tags": {"addr:city": "Chicago", "addr:housenumber": "2950", "addr:postcode": "60657", "addr:state": "IL", "addr:street": "North Sheridan Road", "amenity": "cafe", "name": "HERO Coffee Bar", "phone": "+1-773-661-1254", "website": "https://www.herocoffeebars.com/"}}, {"type": "node", "id": 6300887613, "lat": 41.9458691, "lon": -87.646604, "tags": {"addr:city": "Chicago", "addr:housenumber": "3508", "addr:postcode": "60657", "addr:state": "IL", "addr:street": "North Broadway", "amenity": "cafe", "name": "Rewired Caf\u00e9- Lakeview", "phone": "+1-773-687-9719"}}, {"type": "node", "id": 6301829167, "lat": 41.935976, "lon": -87.6444108, "tags": {"addr:city": "Chicago", "addr:housenumber": "2936", "addr:postcode": "60657", "addr:state": "IL", "addr:street": "North Broadway", "amenity": "restaurant", "name": "Sumo Sushi and Hibachi", "phone": "+1-773-477-8510", "website": "http://www.sumosushichicago.com/"}}, {"type": "node", "id": 6306635320, "lat": 41.9357688, "lon": -87.6445452, "tags": {"addr:city": "Chicago", "addr:housenumber": "2928", "addr:postcode": "60657", "addr:state": "IL", "addr:street": "North Broadway", "amenity": "restaurant", "name": "The Crepe Shop", "phone": "+1-773-857-0018", "website": "https://www.thecrepeshopchicago.com/"}}, {"type": "node", "id": 6314880236, "lat": 41.9357245, "lon": -87.6475622, "tags": {"addr:city": "Chicago", "addr:housenumber": "2932", "addr:postcode": "60657", "addr:state": "IL", "addr:street": "North Clark Street", "amenity": "bar", "name": "Jake\u2019s Pub", "phone": "+1-773-248-3318", "website": "http://www.jakespub.net/"}}, {"type": "node", "id": 6315218733, "lat": 41.9478821, "lon": -87.6466169, "tags": {"addr:city": "Chicago", "addr:housenumber": "620", "addr:postcode": "60613", "addr:state": "IL", "addr:street": "West Addison Street", "amenity": "restaurant", "name": "The Flower Flat", "phone": "+1-773-697-3682", "website": "http://www.theflowerflat.com/http://www.theflowerflat.com/"}}, {"type": "node", "id": 6315756742, "lat": 41.9413636, "lon": -87.6442012, "tags": {"addr:city": "Chicago", "addr:housenumber": "3243", "addr:postcode": "60657", "addr:state": "IL", "addr:street": "North Broadway", "amenity": "cafe", "name": "Vanille Patisserie", "phone": "+1-773-868-4574", "website": "http://www.vanillepatisserie.com/"}}, {"type": "node", "id": 6316678035, "lat": 41.9425564, "lon": -87.6443063, "tags": {"addr:city": "Chicago", "addr:housenumber": "3317", "addr:postcode": "60657", "addr:state": "IL", "addr:street": "North Broadway", "amenity": "bar", "name": "Wang\u2019s", "phone": "+1-773-296-6800", "website": "http://www.wangslive.com/"}}, {"type": "node", "id": 6316911957, "lat": 41.9387153, "lon": -87.644825, "tags": {"addr:city": "Chicago", "addr:housenumber": "3130", "addr:postcode": "60657", "addr:state": "IL", "addr:street": "North Broadway", "amenity": "restaurant", "name": "Wilde Bar & Restaurant", "phone": "+1-773-244-0404", "website": "https://wildechicago.com/restaurant/wilde"}}, {"type": "node", "id": 6318928610, "lat": 41.9472229, "lon": -87.6470188, "tags": {"addr:city": "Chicago", "addr:housenumber": "3563", "addr:postcode": "60657", "addr:state": "IL", "addr:street": "North Broadway", "amenity": "bar", "name": "Joe\u2019s On Broadway", "phone": "+1-773-528-1054"}}, {"type": "node", "id": 6320659647, "lat": 41.9396984, "lon": -87.6442135, "tags": {"addr:city": "Chicago", "addr:housenumber": "3169", "addr:postcode": "60657", "addr:state": "IL", "addr:street": "West Belmont Avenue", "amenity": "bar", "name": "Lower Broadway", "phone": "+1-312-985-6190"}}, {"type": "node", "id": 6321416056, "lat": 41.9382059, "lon": -87.6446069, "tags": {"addr:city": "Chicago", "addr:housenumber": "3114", "addr:postcode": "60657", "addr:state": "IL", "addr:street": "North Broadway", "amenity": "cafe", "name": "Maison Marcel", "phone": "+1-773-661-6942", "website": "https://www.maison-marcel.com/"}}, {"type": "node", "id": 6322807372, "lat": 41.9371372, "lon": -87.6441059, "tags": {"addr:city": "Chicago", "addr:housenumber": "3019", "addr:postcode": "60657", "addr:state": "IL", "addr:street": "North Broadway", "amenity": "bar", "name": "Monsignor Murphys", "phone": "+1-773-348-7285", "website": "https://www.hugedomains.com/domain_profile.cfm?d=monsignormurphys&e=com"}}, {"type": "node", "id": 6326075700, "lat": 41.942959, "lon": -87.6443966, "tags": {"addr:city": "Chicago", "addr:housenumber": "3343", "addr:postcode": "60657", "addr:state": "IL", "addr:street": "North Broadway", "amenity": "restaurant", "name": "Ms. T\u2019s Southern Fried Chicken", "phone": "+1-773-728-2500", "website": "http://mstssouthernfriedchicken.com/"}}, {"type": "node", "id": 6326154015, "lat": 41.9373423, "lon": -87.6447076, "tags": {"addr:city": "Chicago", "addr:housenumber": "3030", "addr:postcode": "60657", "addr:state": "IL", "addr:street": "North Broadway", "amenity": "bar", "name": "Nob\u2019s Wine Bar"}}, {"type": "node", "id": 6737957050, "lat": 41.9407147, "lon": -87.6442732, "tags": {"addr:city": "Chicago", "addr:housenumber": "3219", "addr:postcode": "60657", "addr:state": "IL", "addr:street": "North Broadway", "amenity": "restaurant", "cuisine": "sushi", "name": "Sushi + Rotary Sushi Bar"}}, {"type": "node", "id": 6742635969, "lat": 41.9446738, "lon": -87.6454546, "tags": {"addr:city": "Chicago", "addr:housenumber": "3443", "addr:postcode": "60657", "addr:state": "IL", "addr:street": "North Broadway", "amenity": "restaurant", "cuisine": "steak_house", "name": "Revoluci\u00f3n Steakhouse"}}, {"type": "node", "id": 6742635971, "lat": 41.9453023, "lon": -87.6458274, "tags": {"addr:city": "Chicago", "addr:housenumber": "3477", "addr:postcode": "60657", "addr:state": "IL", "addr:street": "North Broadway", "amenity": "restaurant", "cuisine": "pizza", "name": "Si-Pie Pizzeria"}}, {"type": "node", "id": 6744908257, "lat": 41.9401879, "lon": -87.6447197, "tags": {"addr:city": "Chicago", "addr:housenumber": "604", "addr:postcode": "60657", "addr:state": "IL", "addr:street": "West Belmont Avenue", "amenity": "restaurant", "cuisine": "noodle", "name": "Kameya Ramen & Sushi"}}, {"type": "node", "id": 7330251139, "lat": 41.9393947, "lon": -87.6442304, "tags": {"addr:city": "Chicago", "addr:housenumber": "315", "addr:postcode": "60657", "addr:state": "IL", "addr:street": "North Broadway", "amenity": "restaurant", "cuisine": "pizza", "name": "Roebuck", "phone": "+1-773-857-2229", "website": "https://www.roebuckpizza.com/"}}, {"type": "node", "id": 7393995551, "lat": 41.9368071, "lon": -87.6475997, "tags": {"amenity": "restaurant", "brand": "Pizza Hut", "brand:wikidata": "Q191615", "brand:wikipedia": "en:Pizza Hut", "cuisine": "pizza", "name": "Pizza Hut"}}, {"type": "way", "id": 210326253, "nodes": [2204091829, 2204091836, 2204092025, 2204092036, 2204091542, 2204091513, 2204091519, 2204091506, 2204091829], "tags": {"addr:city": "Chicago", "addr:housenumber": "3132", "addr:postcode": "60657", "addr:state": "IL", "addr:street": "North Broadway", "addr:street:name": "Broadway", "addr:street:prefix": "North", "amenity": "restaurant", "building": "yes", "building:levels": "2", "chicago:building_id": "848730", "name": "Kitchen 17", "phone": "+1-312-391-8654", "website": "https://www.kitchen17.com/"}}]}