{"version": 0.6, "generator": "Overpass API 0.7.56.3 eb200aeb", "osm3s": {"timestamp_osm_base": "2020-07-04T01:27:02Z", "copyright": "The data included in this document is from www.openstreetmap.org. The data is made available under ODbL."}, "elements": [{"type": "node", "id": 34877706, "lat": 41.9420321, "lon": -87.7149228}, {"type": "node", "id": 34877708, "lat": 41.9204448, "lon": -87.694344}, {"type": "node", "id": 34877709, "lat": 41.918438, "lon": -87.6910759}, {"type": "node", "id": 34877711, "lat": 41.9159812, "lon": -87.6870645, "tags": {"name": "Western", "network": "CTA", "operator": "Chicago Transit Authority", "public_transport": "stop_position", "railway": "stop", "subway": "yes"}}, {"type": "node", "id": 258282963, "lat": 41.9277023, "lon": -87.7056926}, {"type": "node", "id": 258282964, "lat": 41.927352, "lon": -87.7053031}, {"type": "node", "id": 258282965, "lat": 41.9268359, "lon": -87.7047012}, {"type": "node", "id": 258282966, "lat": 41.9264062, "lon": -87.7041267}, {"type": "node", "id": 258282968, "lat": 41.9258971, "lon": -87.7033574}, {"type": "node", "id": 258282969, "lat": 41.9253248, "lon": -87.7024136}, {"type": "node", "id": 258282970, "lat": 41.9242887, "lon": -87.7007116}, {"type": "node", "id": 258284108, "lat": 41.9417264, "lon": -87.7143213}, {"type": "node", "id": 258284109, "lat": 41.9405094, "lon": -87.7127549}, {"type": "node", "id": 308439083, "lat": 41.9362157, "lon": -87.7124384}, {"type": "node", "id": 308439353, "lat": 41.9413194, "lon": -87.7135488}, {"type": "node", "id": 308439354, "lat": 41.9409403, "lon": -87.7130338}, {"type": "node", "id": 369650955, "lat": 41.9324964, "lon": -87.7123526}, {"type": "node", "id": 369650956, "lat": 41.9319658, "lon": -87.7120584}, {"type": "node", "id": 369650957, "lat": 41.9317581, "lon": -87.7118}, {"type": "node", "id": 736035833, "lat": 41.9261827, "lon": -87.7037642}, {"type": "node", "id": 736035866, "lat": 41.927104, "lon": -87.7050232}, {"type": "node", "id": 736035867, "lat": 41.9266356, "lon": -87.7044475}, {"type": "node", "id": 736037253, "lat": 41.9399108, "lon": -87.7126047}, {"type": "node", "id": 736037262, "lat": 41.9322091, "lon": -87.7122345}, {"type": "node", "id": 736037263, "lat": 41.9283499, "lon": -87.7064678}, {"type": "node", "id": 1130094835, "lat": 41.922644, "lon": -87.697483, "tags": {"addr:city": "Chicago", "addr:housenumber": "2230", "addr:postcode": "60647", "addr:street": "North California Avenue", "amenity": "bar", "food": "yes", "name": "Logan Bar", "outdoor_seating": "yes", "phone": "+1-773-252-1110", "website": "loganchicago.com", "wheelchair": "yes"}}, {"type": "node", "id": 1262344985, "lat": 41.923586, "lon": -87.6981447, "tags": {"addr:city": "Chicago", "addr:housenumber": "2323", "addr:postcode": "60647", "addr:state": "IL", "addr:street": "North Milwaukee Avenue", "amenity": "pub", "food": "yes", "microbrewery": "yes", "name": "Revolution Brewing", "outdoor_seating": "no", "phone": "+1-773-227-2739", "smoking": "no", "twitter": "revbrewchicago", "website": "https://revbrew.com/", "wheelchair": "yes"}}, {"type": "node", "id": 1262345400, "lat": 41.923399, "lon": -87.698384, "tags": {"addr:city": "Chicago", "addr:housenumber": "2320", "addr:postcode": "60647", "addr:street": "North Milwaukee Avenue", "amenity": "restaurant", "cuisine": "mexican", "name": "2 Amigos", "smoking": "no", "takeaway": "yes"}}, {"type": "node", "id": 1262346097, "lat": 41.9236445, "lon": -87.6988013, "tags": {"addr:city": "Chicago", "addr:housenumber": "2338", "addr:postcode": "60647", "addr:street": "North Milwaukee Avenue", "amenity": "bar", "atm": "yes", "food": "no", "name": "Cole's Bar", "outdoor_seating": "no", "smoking": "no"}}, {"type": "node", "id": 1262347995, "lat": 41.924953, "lon": -87.700966, "tags": {"addr:city": "Chicago", "addr:housenumber": "2410", "addr:postcode": "60647", "addr:state": "IL", "addr:street": "North Milwaukee Avenue", "amenity": "restaurant", "cuisine": "ramen;asian;japanese", "name": "Furious Spoon - Logan Square", "opening_hours": "Su-Th 11:00-01:00; Fr 11:00-02:00; Sa 11:00-03:00", "phone": "+1-773-770-3559", "website": "http://furiousramen.com"}}, {"type": "node", "id": 1262354575, "lat": 41.9221011, "lon": -87.6975093, "tags": {"addr:city": "Chicago", "addr:housenumber": "2210", "addr:postcode": "60647", "addr:street": "North California Avenue", "amenity": "pub", "atm": "yes", "cuisine": "pizza", "food": "yes", "name": "The Boiler Room", "outdoor_seating": "yes", "wheelchair": "yes"}}, {"type": "node", "id": 1282296244, "lat": 41.9216326, "lon": -87.6962535}, {"type": "node", "id": 1282296250, "lat": 41.9162829, "lon": -87.6874563}, {"type": "node", "id": 1282296271, "lat": 41.9266117, "lon": -87.704335}, {"type": "node", "id": 1282296292, "lat": 41.9221445, "lon": -87.6970834, "tags": {"name": "California", "network": "CTA", "operator": "Chicago Transit Authority", "public_transport": "stop_position", "railway": "stop", "subway": "yes"}}, {"type": "node", "id": 1282296303, "lat": 41.9248197, "lon": -87.7015347}, {"type": "node", "id": 1282296339, "lat": 41.9256878, "lon": -87.702967}, {"type": "node", "id": 1282296350, "lat": 41.9168846, "lon": -87.6884461}, {"type": "node", "id": 1282296364, "lat": 41.9184433, "lon": -87.6910232}, {"type": "node", "id": 1282296366, "lat": 41.9268691, "lon": -87.7046649}, {"type": "node", "id": 1282296369, "lat": 41.9220155, "lon": -87.6969301, "tags": {"name": "California", "network": "CTA", "operator": "Chicago Transit Authority", "public_transport": "stop_position", "railway": "stop", "subway": "yes"}}, {"type": "node", "id": 1282296375, "lat": 41.9175991, "lon": -87.6896231}, {"type": "node", "id": 1282296381, "lat": 41.9206427, "lon": -87.6946254}, {"type": "node", "id": 1282296410, "lat": 41.9259235, "lon": -87.7033303}, {"type": "node", "id": 1282296412, "lat": 41.9273102, "lon": -87.705172}, {"type": "node", "id": 1282296415, "lat": 41.9241411, "lon": -87.7004082}, {"type": "node", "id": 1282296431, "lat": 41.9154908, "lon": -87.6862997}, {"type": "node", "id": 1282296434, "lat": 41.9262625, "lon": -87.7038173}, {"type": "node", "id": 1282296435, "lat": 41.9233189, "lon": -87.6990483}, {"type": "node", "id": 1700855285, "lat": 41.9278084, "lon": -87.7065469, "tags": {"addr:housenumber": "CLOSED", "amenity": "pub", "name": "Dunlay's on the Square"}}, {"type": "node", "id": 1700855295, "lat": 41.927807, "lon": -87.706844, "tags": {"addr:city": "Chicago", "addr:housenumber": "2545", "addr:postcode": "60647", "addr:state": "IL", "addr:street": "North Kedzie Boulevard", "amenity": "bar", "drive_through": "no", "internet_access": "no", "name": "Young American", "outdoor_seating": "no", "phone": "+1-773-687-8385", "website": "https://www.youngamericanbar.com"}}, {"type": "node", "id": 1700855300, "lat": 41.927684, "lon": -87.706813, "tags": {"addr:city": "Chicago", "addr:housenumber": "2537", "addr:postcode": "60647", "addr:state": "IL", "addr:street": "North Kedzie Boulevard", "amenity": "restaurant", "name": "Lula Cafe", "outdoor_seating": "yes", "phone": "+1-773-489-9554", "smoking": "no", "website": "http://lulacafe.com/"}}, {"type": "node", "id": 1700855310, "lat": 41.9279155, "lon": -87.7051197, "tags": {"addr:city": "Chicago", "addr:housenumber": "2557", "addr:postcode": "60618", "addr:street": "North Milwaukee Avenue", "amenity": "cafe", "atm": "yes", "drive_through": "no", "internet_access": "wlan", "name": "New Wave Coffee", "outdoor_seating": "yes", "phone": "+1-773-489-0646", "smoking": "no", "takeaway": "yes", "website": "http://newwavecoffee.com/", "wheelchair": "no", "wheelchair:description": "accessible toilets but one step at the entrance"}}, {"type": "node", "id": 1700855329, "lat": 41.9274808, "lon": -87.7044772, "tags": {"addr:city": "Chicago", "addr:housenumber": "2535", "addr:postcode": "60647", "addr:state": "IL", "addr:street": "North Milwaukee Avenue", "amenity": "bar", "name": "Rocking Horse", "phone": "+1-773-486-0011", "website": "https://www.rockinghorsechicago.com/"}}, {"type": "node", "id": 2075140759, "lat": 41.9166407, "lon": -87.688114}, {"type": "node", "id": 2090182927, "lat": 41.9160063, "lon": -87.6870338, "tags": {"name": "Western", "network": "CTA", "operator": "Chicago Transit Authority", "public_transport": "stop_position", "railway": "stop", "subway": "yes"}}, {"type": "node", "id": 2166647920, "lat": 41.9142308, "lon": -87.6843331}, {"type": "node", "id": 2166647923, "lat": 41.9142442, "lon": -87.6842874}, {"type": "node", "id": 2196212544, "lat": 41.9199429, "lon": -87.693305}, {"type": "node", "id": 2196212651, "lat": 41.9199844, "lon": -87.6933707}, {"type": "node", "id": 2196213642, "lat": 41.9201501, "lon": -87.6930714}, {"type": "node", "id": 2196213756, "lat": 41.9201916, "lon": -87.6931372}, {"type": "node", "id": 2196219001, "lat": 41.9215776, "lon": -87.6956256}, {"type": "node", "id": 2196219109, "lat": 41.9216007, "lon": -87.6955813}, {"type": "node", "id": 2196219159, "lat": 41.9216076, "lon": -87.6955922}, {"type": "node", "id": 2196219243, "lat": 41.9216164, "lon": -87.6956877}, {"type": "node", "id": 2196219263, "lat": 41.9216286, "lon": -87.6956595}, {"type": "node", "id": 2196219376, "lat": 41.9216341, "lon": -87.6956673}, {"type": "node", "id": 2196219430, "lat": 41.9216422, "lon": -87.6956433}, {"type": "node", "id": 2196219524, "lat": 41.9216498, "lon": -87.6955275}, {"type": "node", "id": 2196219791, "lat": 41.9216762, "lon": -87.6955934}, {"type": "node", "id": 2196219836, "lat": 41.9216817, "lon": -87.6956007}, {"type": "node", "id": 2196219846, "lat": 41.9216844, "lon": -87.6955841}, {"type": "node", "id": 2196223815, "lat": 41.9222373, "lon": -87.6970668}, {"type": "node", "id": 2196224182, "lat": 41.92233, "lon": -87.6972055}, {"type": "node", "id": 2196224337, "lat": 41.9223909, "lon": -87.6970506}, {"type": "node", "id": 2196224360, "lat": 41.9224214, "lon": -87.6970962}, {"type": "node", "id": 2196224379, "lat": 41.9224336, "lon": -87.6968315}, {"type": "node", "id": 2196224793, "lat": 41.9224959, "lon": -87.6969228}, {"type": "node", "id": 2196231356, "lat": 41.9236958, "lon": -87.6970468}, {"type": "node", "id": 2196231359, "lat": 41.9236974, "lon": -87.6970927}, {"type": "node", "id": 2196231368, "lat": 41.9237006, "lon": -87.6971772}, {"type": "node", "id": 2196231378, "lat": 41.9237018, "lon": -87.6971441}, {"type": "node", "id": 2196231381, "lat": 41.9237024, "lon": -87.6970063}, {"type": "node", "id": 2196231382, "lat": 41.9237024, "lon": -87.6972562}, {"type": "node", "id": 2196231383, "lat": 41.9237026, "lon": -87.6970394}, {"type": "node", "id": 2196231387, "lat": 41.9237034, "lon": -87.697179}, {"type": "node", "id": 2196231402, "lat": 41.9237112, "lon": -87.6971054}, {"type": "node", "id": 2196231405, "lat": 41.9237114, "lon": -87.6971348}, {"type": "node", "id": 2196231455, "lat": 41.9237299, "lon": -87.6972578}, {"type": "node", "id": 2196231485, "lat": 41.9237354, "lon": -87.6972669}, {"type": "node", "id": 2196231530, "lat": 41.9237436, "lon": -87.6970077}, {"type": "node", "id": 2196231531, "lat": 41.9237438, "lon": -87.6970463}, {"type": "node", "id": 2196231640, "lat": 41.9237547, "lon": -87.6972685}, {"type": "node", "id": 2196231710, "lat": 41.9237601, "lon": -87.6972593}, {"type": "node", "id": 2196231762, "lat": 41.923767, "lon": -87.6972611}, {"type": "node", "id": 2196231771, "lat": 41.9237699, "lon": -87.6970479}, {"type": "node", "id": 2196695425, "lat": 41.9241082, "lon": -87.6991295}, {"type": "node", "id": 2196695561, "lat": 41.9241487, "lon": -87.6991953}, {"type": "node", "id": 2196695766, "lat": 41.9241913, "lon": -87.6992647}, {"type": "node", "id": 2196696161, "lat": 41.9242805, "lon": -87.69941}, {"type": "node", "id": 2196696257, "lat": 41.9242987, "lon": -87.6989277}, {"type": "node", "id": 2196696452, "lat": 41.924335, "lon": -87.6989873}, {"type": "node", "id": 2196696471, "lat": 41.9243377, "lon": -87.6989917}, {"type": "node", "id": 2196697224, "lat": 41.92441, "lon": -87.6989119}, {"type": "node", "id": 2196697314, "lat": 41.9244147, "lon": -87.6989119}, {"type": "node", "id": 2196697466, "lat": 41.9244412, "lon": -87.6989855}, {"type": "node", "id": 2196697468, "lat": 41.9244412, "lon": -87.6989892}, {"type": "node", "id": 2196697476, "lat": 41.924442, "lon": -87.6989891}, {"type": "node", "id": 2196697718, "lat": 41.9244864, "lon": -87.6991699}, {"type": "node", "id": 2196697732, "lat": 41.9244891, "lon": -87.6991698}, {"type": "node", "id": 2196698996, "lat": 41.9246571, "lon": -87.6991752}, {"type": "node", "id": 2196699000, "lat": 41.9246591, "lon": -87.6990002}, {"type": "node", "id": 2196700902, "lat": 41.9250337, "lon": -87.6882088}, {"type": "node", "id": 2196700904, "lat": 41.9250341, "lon": -87.6880416}, {"type": "node", "id": 2196701484, "lat": 41.9252423, "lon": -87.6882104}, {"type": "node", "id": 2196701487, "lat": 41.9252432, "lon": -87.688135}, {"type": "node", "id": 2196702206, "lat": 41.9254038, "lon": -87.6881371}, {"type": "node", "id": 2196702217, "lat": 41.9254046, "lon": -87.688047}, {"type": "node", "id": 2196706116, "lat": 41.9257969, "lon": -87.6882581}, {"type": "node", "id": 2196706176, "lat": 41.925807, "lon": -87.6878611}, {"type": "node", "id": 2196706393, "lat": 41.9258614, "lon": -87.6882611}, {"type": "node", "id": 2196706420, "lat": 41.9258701, "lon": -87.6878641}, {"type": "node", "id": 2196712373, "lat": 41.9264617, "lon": -87.7029669}, {"type": "node", "id": 2196712999, "lat": 41.9265416, "lon": -87.7025251}, {"type": "node", "id": 2196713072, "lat": 41.9265503, "lon": -87.7031057}, {"type": "node", "id": 2196713167, "lat": 41.926573, "lon": -87.7024881}, {"type": "node", "id": 2196713554, "lat": 41.9265922, "lon": -87.7024952}, {"type": "node", "id": 2196713586, "lat": 41.9266717, "lon": -87.7027297}, {"type": "node", "id": 2196713835, "lat": 41.9267998, "lon": -87.7028203}, {"type": "node", "id": 2196726093, "lat": 41.9304316, "lon": -87.6889427}, {"type": "node", "id": 2196726113, "lat": 41.9304346, "lon": -87.6884961}, {"type": "node", "id": 2196726256, "lat": 41.9304671, "lon": -87.6889074}, {"type": "node", "id": 2196726258, "lat": 41.9304673, "lon": -87.6889423}, {"type": "node", "id": 2196726343, "lat": 41.9304931, "lon": -87.6889072}, {"type": "node", "id": 2196726355, "lat": 41.9304963, "lon": -87.6884955}, {"type": "node", "id": 2196733822, "lat": 41.9318866, "lon": -87.7023824}, {"type": "node", "id": 2196733857, "lat": 41.9318937, "lon": -87.7019377}, {"type": "node", "id": 2196733985, "lat": 41.9319497, "lon": -87.7023855}, {"type": "node", "id": 2196734001, "lat": 41.931962, "lon": -87.7023854}, {"type": "node", "id": 2196734010, "lat": 41.9319648, "lon": -87.7023872}, {"type": "node", "id": 2196734021, "lat": 41.9319703, "lon": -87.7023871}, {"type": "node", "id": 2196734025, "lat": 41.9319729, "lon": -87.7023595}, {"type": "node", "id": 2196734036, "lat": 41.9319758, "lon": -87.7023871}, {"type": "node", "id": 2196734040, "lat": 41.9319784, "lon": -87.702365}, {"type": "node", "id": 2196734041, "lat": 41.9319785, "lon": -87.7023815}, {"type": "node", "id": 2196734045, "lat": 41.9319798, "lon": -87.7023687}, {"type": "node", "id": 2196734046, "lat": 41.9319798, "lon": -87.702376}, {"type": "node", "id": 2196734049, "lat": 41.9319802, "lon": -87.7019405}, {"type": "node", "id": 2196734852, "lat": 41.9321972, "lon": -87.6982412}, {"type": "node", "id": 2196734859, "lat": 41.932198, "lon": -87.6981512}, {"type": "node", "id": 2196735073, "lat": 41.9322589, "lon": -87.6982425}, {"type": "node", "id": 2196735074, "lat": 41.932259, "lon": -87.6982572}, {"type": "node", "id": 2196735080, "lat": 41.9322625, "lon": -87.6885421}, {"type": "node", "id": 2196735084, "lat": 41.9322662, "lon": -87.6882296}, {"type": "node", "id": 2196735239, "lat": 41.9323201, "lon": -87.6885433}, {"type": "node", "id": 2196735242, "lat": 41.9323209, "lon": -87.6884386}, {"type": "node", "id": 2196735244, "lat": 41.9323211, "lon": -87.6882309}, {"type": "node", "id": 2196735246, "lat": 41.9323214, "lon": -87.6882805}, {"type": "node", "id": 2196735348, "lat": 41.9323701, "lon": -87.6982432}, {"type": "node", "id": 2196735349, "lat": 41.9323701, "lon": -87.6982597}, {"type": "node", "id": 2196735356, "lat": 41.9323721, "lon": -87.6882819}, {"type": "node", "id": 2196735382, "lat": 41.9323813, "lon": -87.6884398}, {"type": "node", "id": 2196735386, "lat": 41.9323832, "lon": -87.6882964}, {"type": "node", "id": 2196735588, "lat": 41.9324743, "lon": -87.6982458}, {"type": "node", "id": 2196735590, "lat": 41.9324752, "lon": -87.6981558}, {"type": "node", "id": 2403040378, "lat": 41.924632, "lon": -87.699928, "tags": {"addr:city": "Chicago", "addr:housenumber": "2385", "addr:postcode": "60647", "addr:street": "North Milwaukee Avenue", "amenity": "cafe", "drive_through": "no", "internet_access": "wlan", "name": "Gaslight Coffee Roasters", "outdoor_seating": "no", "smoking": "no", "takeaway": "yes", "wheelchair": "yes"}}, {"type": "node", "id": 2422425841, "lat": 41.92796, "lon": -87.697351, "tags": {"addr:city": "Chicago", "addr:housenumber": "2543", "addr:postcode": "60618", "addr:street": "North California Avenue", "amenity": "cafe", "brand": "Starbucks", "brand:wikidata": "Q37158", "brand:wikipedia": "en:Starbucks", "cuisine": "coffee_shop", "drive_through": "no", "name": "Starbucks", "official_name": "Starbucks Coffee", "outdoor_seating": "yes", "takeaway": "yes"}}, {"type": "node", "id": 2443252531, "lat": 41.9299174, "lon": -87.7087118, "tags": {"name": "Logan Square", "network": "CTA", "operator": "Chicago Transit Authority", "public_transport": "stop_position", "railway": "stop", "subway": "yes"}}, {"type": "node", "id": 2443252534, "lat": 41.9277311, "lon": -87.7056492}, {"type": "node", "id": 2443252540, "lat": 41.9399169, "lon": -87.7125472}, {"type": "node", "id": 2443252544, "lat": 41.9325033, "lon": -87.7122947}, {"type": "node", "id": 2443252547, "lat": 41.9391243, "lon": -87.7124596, "tags": {"name": "Belmont", "network": "CTA", "operator": "Chicago Transit Authority", "public_transport": "stop_position", "railway": "stop", "subway": "yes"}}, {"type": "node", "id": 2443252554, "lat": 41.9362165, "lon": -87.7123804}, {"type": "node", "id": 2443252559, "lat": 41.9317895, "lon": -87.71176}, {"type": "node", "id": 2443252562, "lat": 41.9409658, "lon": -87.7129858}, {"type": "node", "id": 2443252568, "lat": 41.9283802, "lon": -87.7064263}, {"type": "node", "id": 2443252572, "lat": 41.9413526, "lon": -87.7135114}, {"type": "node", "id": 2443252575, "lat": 41.9319912, "lon": -87.7120108}, {"type": "node", "id": 2443252578, "lat": 41.9420655, "lon": -87.7148849}, {"type": "node", "id": 2443252582, "lat": 41.940523, "lon": -87.7126992}, {"type": "node", "id": 2443252585, "lat": 41.9322259, "lon": -87.7121807}, {"type": "node", "id": 2443252588, "lat": 41.9417619, "lon": -87.7142881}, {"type": "node", "id": 2461374190, "lat": 41.922552, "lon": -87.697519, "tags": {"addr:city": "Chicago", "addr:housenumber": "2226", "addr:postcode": "60647", "addr:state": "IL", "addr:street": "North California Avenue", "amenity": "restaurant", "cuisine": "mexican", "name": "Taqueria Moran", "phone": "+1-773-235-2663", "wheelchair": "limited"}}, {"type": "node", "id": 2495670456, "lat": 41.931995, "lon": -87.698314, "tags": {"addr:city": "Chicago", "addr:housenumber": "2815", "addr:postcode": "60618", "addr:street": "West Diversey Parkway", "amenity": "restaurant", "cuisine": "mexican", "name": "L'Patron", "outdoor_seating": "no", "takeaway": "yes"}}, {"type": "node", "id": 2612365316, "lat": 41.9319208, "lon": -87.7002647, "tags": {"addr:city": "Chicago", "addr:housenumber": "2901", "addr:postcode": "60618", "addr:state": "IL", "addr:street": "West Diversey Parkway", "amenity": "restaurant", "cuisine": "Tequila_Bar", "name": "Masa Azul", "phone": "(773) 687-0300", "website": "http://www.masaazul.com/"}}, {"type": "node", "id": 2732205615, "lat": 41.9233284, "lon": -87.6978085, "tags": {"addr:city": "Chicago", "addr:housenumber": "2313", "addr:postcode": "60647", "addr:state": "IL", "addr:street": "North Milwaukee Avenue", "amenity": "cafe", "name": "Cafe Mustache", "phone": "+1-773-687-9063", "website": "http://www.cafemustache.com/"}}, {"type": "node", "id": 2761642364, "lat": 41.9253484, "lon": -87.7010478, "tags": {"addr:city": "Chicago", "addr:housenumber": "2421", "addr:postcode": "60647", "addr:state": "IL", "addr:street": "North Milwaukee Avenue", "amenity": "bar", "name": "The Whistler", "phone": "+1-773-227-3530", "website": "https://whistlerchicago.com/", "wheelchair": "yes"}}, {"type": "node", "id": 2761648471, "lat": 41.9237455, "lon": -87.6983641, "tags": {"addr:city": "Chicago", "addr:housenumber": "2333", "addr:postcode": "60647", "addr:state": "IL", "addr:street": "North Milwaukee Avenue", "amenity": "restaurant", "name": "The Chicago Diner", "phone": "+1-773-252-3211", "website": "http://www.veggiediner.com/", "wheelchair:description": "they have a ramp to get over the small entrance step"}}, {"type": "node", "id": 2761689189, "lat": 41.921848, "lon": -87.6974778, "tags": {"amenity": "bar", "name": "Township"}}, {"type": "node", "id": 2904923307, "lat": 41.9275368, "lon": -87.6976401, "tags": {"addr:housenumber": "2528", "addr:street": "North California Avenue", "amenity": "restaurant", "name": "The General", "source:name": "survey"}}, {"type": "node", "id": 3232688564, "lat": 41.9207316, "lon": -87.6940506, "tags": {"addr:city": "Chicago", "addr:housenumber": "2200", "addr:state": "IL", "addr:street": "North Milwaukee Avenue", "amenity": "pub", "cuisine": "pizza;burger", "name": "Madison Public House"}}, {"type": "node", "id": 3232688565, "lat": 41.9220029, "lon": -87.6974958, "tags": {"amenity": "restaurant", "name": "Masada"}}, {"type": "node", "id": 3430976823, "lat": 41.9289586, "lon": -87.7069536, "tags": {"addr:city": "Chicago", "addr:housenumber": "2610", "addr:postcode": "60647", "addr:state": "IL", "addr:street": "North Milwaukee Avenue", "amenity": "bar", "name": "Webster's Wine Bar"}}, {"type": "node", "id": 3551784838, "lat": 41.9275483, "lon": -87.7046187, "tags": {"addr:city": "Chicago", "addr:housenumber": "2539", "addr:postcode": "60647", "addr:state": "IL", "addr:street": "North Milwaukee Avenue", "amenity": "restaurant", "cuisine": "thai", "name": "Trike"}}, {"type": "node", "id": 3552123092, "lat": 41.9277148, "lon": -87.6973415, "tags": {"addr:city": "Chicago", "addr:housenumber": "2535", "addr:postcode": "60647", "addr:state": "IL", "addr:street": "North California Avenue", "amenity": "restaurant", "name": "Buona Terra", "phone": "+1-773-289-3800", "website": "http://www.buona-terra.com/"}}, {"type": "node", "id": 3552123473, "lat": 41.9276449, "lon": -87.6976526, "tags": {"amenity": "restaurant", "cuisine": "thai", "name": "Anong"}}, {"type": "node", "id": 3552127034, "lat": 41.9271765, "lon": -87.69713, "tags": {"addr:city": "Chicago", "addr:housenumber": "2515", "addr:postcode": "60647", "addr:state": "IL", "addr:street": "North California Avenue", "amenity": "restaurant", "cuisine": "korean", "name": "Gosu", "phone": "+1-773-276-7330", "website": "http://www.gosuchicago.com/"}}, {"type": "node", "id": 3552127994, "lat": 41.9273063, "lon": -87.6972986, "tags": {"amenity": "restaurant", "cuisine": "sushi", "name": "Hachi's Kitchen"}}, {"type": "node", "id": 3570237498, "lat": 41.9239504, "lon": -87.6994139, "tags": {"addr:city": "Chicago", "addr:housenumber": "2354", "addr:postcode": "60647", "addr:state": "IL", "addr:street": "North Milwaukee Avenue", "amenity": "bar", "name": "East Room", "phone": "+1-773-698-8774", "website": "http://www.eastroomchicago.com/"}}, {"type": "node", "id": 3572607693, "lat": 41.924661, "lon": -87.6962247, "tags": {"amenity": "restaurant", "cuisine": "argentinian", "name": "El \u00d1and\u00fa"}}, {"type": "node", "id": 3572607694, "lat": 41.924667, "lon": -87.6960476, "tags": {"amenity": "restaurant", "cuisine": "peruvian", "name": "4 Suyos"}}, {"type": "node", "id": 3572612795, "lat": 41.9250721, "lon": -87.6885267, "tags": {"addr:city": "Chicago", "addr:housenumber": "2420", "addr:postcode": "60647", "addr:state": "IL", "addr:street": "West Fullerton Avenue", "amenity": "restaurant", "cuisine": "puerto_rican", "name": "La Cocina Boricua de la Familia Galarza", "phone": "+1-773-235-7377"}}, {"type": "node", "id": 3572612796, "lat": 41.9250781, "lon": -87.6884409, "tags": {"amenity": "restaurant", "cuisine": "chinese", "name": "Blue Willow"}}, {"type": "node", "id": 3572612797, "lat": 41.9250761, "lon": -87.6878723, "tags": {"amenity": "restaurant", "name": "Fullerton Restaurant", "opening_hours": "Mo-Su 05:30-16:00"}}, {"type": "node", "id": 3572965495, "lat": 41.930495, "lon": -87.6884158}, {"type": "node", "id": 3572965496, "lat": 41.9304414, "lon": -87.6884153}, {"type": "node", "id": 3572965497, "lat": 41.9304429, "lon": -87.6880311}, {"type": "node", "id": 3572965498, "lat": 41.9305022, "lon": -87.6880326}, {"type": "node", "id": 3574954894, "lat": 41.9322163, "lon": -87.7014748, "tags": {"addr:city": "Chicago", "addr:housenumber": "2934", "addr:postcode": "60647", "addr:state": "IL", "addr:street": "West Diversey Avenue", "amenity": "restaurant", "name": "Son of a Butcher by Whisk", "phone": "+1-773-687-9709", "website": "https://sobutcher.com/"}}, {"type": "node", "id": 3575150418, "lat": 41.9201039, "lon": -87.687727, "tags": {"amenity": "restaurant", "cuisine": "pizza", "name": "John's Pizzeria"}}, {"type": "node", "id": 3575150420, "lat": 41.9226026, "lon": -87.6877914, "tags": {"amenity": "restaurant", "cuisine": "mexican", "name": "Birrieria Estilo Jalisco"}}, {"type": "node", "id": 3575152789, "lat": 41.9222677, "lon": -87.6877992, "tags": {"addr:city": "Chicago", "addr:housenumber": "2218", "addr:postcode": "60647", "addr:state": "IL", "addr:street": "North Western Avenue", "amenity": "bar", "name": "Tap Room", "phone": "+1-773-489-3622"}}, {"type": "node", "id": 3814460048, "lat": 41.9319324, "lon": -87.7035762, "tags": {"amenity": "cafe", "name": "Cellar Door Provisions"}}, {"type": "node", "id": 3815731446, "lat": 41.9277537, "lon": -87.7067896, "tags": {"amenity": "cafe", "name": "Johnny's Grill"}}, {"type": "node", "id": 3819127811, "lat": 41.9319651, "lon": -87.7003362, "tags": {"amenity": "restaurant", "cuisine": "mexican", "name": "Las Islas Marias"}}, {"type": "node", "id": 3819140676, "lat": 41.9319622, "lon": -87.701037, "tags": {"amenity": "restaurant", "cuisine": "ecuadorean", "name": "Restaurant Ecuador"}}, {"type": "node", "id": 3819197957, "lat": 41.924249, "lon": -87.6988885, "tags": {"addr:city": "Chicago", "addr:housenumber": "2357", "addr:postcode": "60647", "addr:state": "IL", "addr:street": "North Milwaukee Avenue", "addr:unit": "2", "amenity": "bar", "name": "The Heavy Feather", "website": "https://www.heavyfeatherchicago.com/"}}, {"type": "node", "id": 3819197958, "lat": 41.9246316, "lon": -87.6994251, "tags": {"amenity": "cafe", "name": "DAS"}}, {"type": "node", "id": 3847814498, "lat": 41.9254204, "lon": -87.7016774, "tags": {"amenity": "bar", "name": "Black Lion"}}, {"type": "node", "id": 3863354241, "lat": 41.9322534, "lon": -87.6925875, "tags": {"amenity": "restaurant", "name": "Ceviche Peruvian Restaurant"}}, {"type": "node", "id": 3863354248, "lat": 41.9320502, "lon": -87.6886082, "tags": {"amenity": "restaurant", "name": "Lee's Chop Suey"}}, {"type": "node", "id": 3882461187, "lat": 41.9247152, "lon": -87.6902194, "tags": {"amenity": "restaurant", "cuisine": "sushi", "name": "S@kura"}}, {"type": "node", "id": 4303032344, "lat": 41.9319581, "lon": -87.70231, "tags": {"addr:city": "Chicago", "addr:housenumber": "2957", "addr:postcode": "60647", "addr:state": "IL", "addr:street": "West Diversey Avenue", "amenity": "bar", "name": "The Ladies Room", "phone": "+1-773-661-9170", "website": "http://www.eatfatrice.com/"}}, {"type": "node", "id": 4354344660, "lat": 41.9257031, "lon": -87.7021781, "tags": {"addr:city": "Chicago", "addr:housenumber": "2450", "addr:postcode": "60647", "addr:state": "IL", "addr:street": "North Milwaukee Avenue", "amenity": "bar", "name": "Estereo", "opening_hours": "Mo-Su 12:00-02:00", "phone": "+1-773-360-8363", "website": "https://www.estereochicago.com"}}, {"type": "node", "id": 4743569594, "lat": 41.9249893, "lon": -87.6972462, "tags": {"addr:city": "Chicago", "addr:housenumber": "2758", "addr:postcode": "60647", "addr:state": "IL", "addr:street": "West Fullerton Avenue", "amenity": "bar", "name": "Spilt Milk", "phone": "+1-773-413-8440", "website": "https://www.yelp.com/biz/spilt-milk-chicago-5?osq=Bars"}}, {"type": "node", "id": 4886579356, "lat": 41.9207382, "lon": -87.693428, "tags": {"addr:city": "Chicago", "addr:housenumber": "2169", "addr:postcode": "60647", "addr:state": "IL", "addr:street": "North Milwaukee Avenue", "amenity": "restaurant", "name": "Serai", "phone": "+1-872-206-8368", "website": "http://www.seraichicago.com/"}}, {"type": "node", "id": 4940842327, "lat": 41.9250994, "lon": -87.7012599, "tags": {"addr:city": "Chicago", "addr:housenumber": "2412", "addr:postcode": "60647", "addr:state": "IL", "addr:street": "North Milwaukee Avenue", "amenity": "bar", "name": "Deadbolt Bar", "opening_hours": "Mo-Fr 17:00-02:00; Sa 17:00-03:00; Su 17:00-02:00;", "outdoor_seating": "no", "phone": "+1-773-698-6101", "smoking": "no", "website": "https://www.deadboltbar.com/"}}, {"type": "node", "id": 5171385697, "lat": 41.9209586, "lon": -87.6938554, "tags": {"addr:city": "Chicago", "addr:housenumber": "2211", "addr:postcode": "60647", "addr:state": "IL", "addr:street": "North Milwaukee Avenue", "amenity": "bar", "name": "Navigator Taproom", "phone": "+1-773-687-9135", "smoking": "no", "website": "https://www.navigatortaproom.com/"}}, {"type": "node", "id": 5272957250, "lat": 41.9388473, "lon": -87.7125224, "tags": {"name": "Belmont", "network": "CTA", "operator": "Chicago Transit Authority", "public_transport": "stop_position", "railway": "stop", "subway": "yes"}}, {"type": "node", "id": 5272959958, "lat": 41.9295311, "lon": -87.7082428, "tags": {"name": "Logan Square", "network": "CTA", "operator": "Chicago Transit Authority", "public_transport": "stop_position", "railway": "stop", "subway": "yes"}}, {"type": "node", "id": 5723926330, "lat": 41.9251531, "lon": -87.7012931, "tags": {"addr:city": "Chicago", "addr:housenumber": "2414", "addr:postcode": "60647", "addr:state": "IL", "addr:street": "North Milwaukee Avenue", "amenity": "restaurant", "cuisine": "wisconsin", "name": "The Pink Squirrel", "opening_hours": "Su-Fr 17:00-02:00; Sa 17:00-03:00", "outdoor_seating": "no"}}, {"type": "node", "id": 5871141430, "lat": 41.9271493, "lon": -87.7040125, "tags": {"addr:city": "Chicago", "addr:housenumber": "2515", "addr:postcode": "60647", "addr:state": "IL", "addr:street": "North Milwaukee Avenue", "amenity": "restaurant", "description": "The kitchen is open until 1 a.m. daily.", "name": "Bixi Beer", "opening_hours": "Mo-Su 16:00-02:00", "outdoor_seating": "yes", "phone": "+1-773-904-7368", "smoking": "no", "website": "https://www.bixi.beer/"}}, {"type": "node", "id": 5916842248, "lat": 41.9322708, "lon": -87.7035248, "tags": {"addr:city": "Chicago", "addr:housenumber": "3022", "addr:postcode": "60647", "addr:state": "IL", "addr:street": "West Diversey Avenue", "amenity": "cafe", "name": "Four Letter Word", "phone": "+1-773-360-8932", "website": "http://www.4lwcoffee.com/"}}, {"type": "node", "id": 5931489285, "lat": 41.9273867, "lon": -87.7042553, "tags": {"addr:city": "Chicago", "addr:housenumber": "2529", "addr:postcode": "60647", "addr:state": "IL", "addr:street": "North Milwaukee Avenue", "amenity": "restaurant", "cuisine": "cuban", "name": "Taste of Havana", "phone": "+1-312-273-1774", "website": "http://www.tasteofhavana.net"}}, {"type": "node", "id": 6052896090, "lat": 41.9251582, "lon": -87.7025343, "tags": {"addr:city": "Chicago", "addr:housenumber": "3000", "addr:postcode": "60647", "addr:state": "IL", "addr:street": "West Fullerton Avenue", "amenity": "restaurant", "name": "BIG & little\u2019s Restaurant & Bar", "outdoor_seating": "yes", "phone": "+1-773-687-9033", "website": "https://www.bigandlittleschicago.com/"}}, {"type": "node", "id": 6251978296, "lat": 41.9254643, "lon": -87.7012475, "tags": {"addr:city": "Chicago", "addr:housenumber": "2427", "addr:postcode": "60647", "addr:state": "IL", "addr:street": "North Milwaukee Avenue", "amenity": "restaurant", "name": "The Whale"}}, {"type": "node", "id": 6262050399, "lat": 41.9315661, "lon": -87.6921939, "tags": {"addr:city": "Chicago", "addr:housenumber": "2545", "addr:postcode": "60647", "addr:state": "IL", "addr:street": "West Diversey Avenue", "amenity": "restaurant", "cuisine": "american", "name": "Arbor", "phone": "+1-312-866-0795", "website": "http://www.arborprojects.com/"}}, {"type": "node", "id": 6267271605, "lat": 41.9277357, "lon": -87.7065045, "tags": {"addr:city": "Chicago", "addr:housenumber": "3143", "addr:postcode": "60647", "addr:state": "IL", "addr:street": "West Logan Boulevard", "amenity": "bar", "name": "Billy Sunday", "phone": "+1-773-661-2485", "website": "https://www.billy-sunday.com/"}}, {"type": "node", "id": 6268240223, "lat": 41.9246574, "lon": -87.6930068, "tags": {"addr:city": "Chicago", "addr:housenumber": "2069", "addr:postcode": "60647", "addr:state": "IL", "addr:street": "North Rockwell Street", "amenity": "bar", "name": "Bob Inn", "website": "https://myspace.com/24939439"}}, {"type": "node", "id": 6269892237, "lat": 41.9267506, "lon": -87.7032326, "tags": {"addr:city": "Chicago", "addr:housenumber": "2489", "addr:postcode": "60647", "addr:state": "IL", "addr:street": "North Milwaukee Avenue", "amenity": "cafe", "name": "Caf\u00e9 Tola", "phone": "+1-773-687-9310"}}, {"type": "node", "id": 6280584751, "lat": 41.9319324, "lon": -87.7035762, "tags": {"addr:city": "Chicago", "addr:housenumber": "3025", "addr:postcode": "60647", "addr:state": "IL", "addr:street": "West Diversey Avenue", "amenity": "restaurant", "name": "Cellar Door Provisions", "phone": "+1-773-697-8337", "website": "https://www.cellardoorprovisions.com/"}}, {"type": "node", "id": 6280739326, "lat": 41.9251527, "lon": -87.6911495, "tags": {"addr:city": "Chicago", "addr:housenumber": "2524", "addr:postcode": "60647", "addr:state": "IL", "addr:street": "West Fullerton Avenue", "amenity": "cafe", "cuisine": "coffee_shop", "name": "Cherubs", "phone": "+1-773-235-8103"}}, {"type": "node", "id": 6283266140, "lat": 41.9222963, "lon": -87.6958529, "tags": {"addr:city": "Chicago", "addr:housenumber": "2261", "addr:postcode": "60647", "addr:state": "IL", "addr:street": "North Milwaukee Avenue", "amenity": "cafe", "name": "Colectivo Coffee", "phone": "+1-773-799-8557", "website": "http://colectivocoffee.com/cafes/logan-square/"}}, {"type": "node", "id": 6284066021, "lat": 41.9273063, "lon": -87.7041162, "tags": {"addr:city": "Chicago", "addr:housenumber": "2523", "addr:postcode": "60647", "addr:state": "IL", "addr:street": "North Milwaukee Avenue", "amenity": "restaurant", "name": "Daisies", "phone": "+1-773-661-1671", "website": "https://www.daisieschicago.com/"}}, {"type": "node", "id": 6286662313, "lat": 41.9242728, "lon": -87.6990832, "tags": {"addr:city": "Chicago", "addr:housenumber": "2363", "addr:postcode": "60647", "addr:state": "IL", "addr:street": "North Milwaukee Avenue", "amenity": "bar", "name": "Emporium - Logan Square", "phone": "+1-773-360-8774", "website": "https://emporiumchicago.com/"}}, {"type": "node", "id": 6291502402, "lat": 41.9342762, "lon": -87.6905784, "tags": {"addr:city": "Chicago", "addr:housenumber": "290", "addr:postcode": "60618", "addr:state": "IL", "addr:street": "North Elston Avenue", "amenity": "bar", "name": "Frank and Mary\u2019s Tavern", "phone": "+1-773-463-8179"}}, {"type": "node", "id": 6298802685, "lat": 41.9244457, "lon": -87.7039141, "tags": {"addr:city": "Chicago", "addr:housenumber": "3039", "addr:postcode": "60647", "addr:state": "IL", "addr:street": "West Fullerton Avenue", "amenity": "cafe", "name": "Sip of Hope", "phone": "+1-773-661-6986", "website": "https://sipofhope.com/"}}, {"type": "node", "id": 6298848604, "lat": 41.9242137, "lon": -87.6989691, "tags": {"addr:city": "Chicago", "addr:housenumber": "2357", "addr:postcode": "60647", "addr:state": "IL", "addr:street": "North Milwaukee Avenue", "amenity": "bar", "name": "Slippery Slope", "phone": "+1-773-799-8504", "website": "http://www.slipperyslopechicago.com/"}}, {"type": "node", "id": 6299456746, "lat": 41.925907, "lon": -87.7017482, "tags": {"addr:city": "Chicago", "addr:housenumber": "2451", "addr:postcode": "60647", "addr:state": "IL", "addr:street": "North Milwaukee Avenue", "amenity": "restaurant", "cuisine": "pizza", "name": "Paulie Gee's", "phone": "+1-773-360-1072", "website": "https://pauliegee.com/"}}, {"type": "node", "id": 6300841827, "lat": 41.9226924, "lon": -87.6878062, "tags": {"addr:city": "Chicago", "addr:housenumber": "2234", "addr:postcode": "60647", "addr:state": "IL", "addr:street": "North Western Avenue", "amenity": "restaurant", "cuisine": "mexican", "name": "Restaurante El Comalito", "phone": "+1-773-666-5558"}}, {"type": "node", "id": 6306627384, "lat": 41.9274189, "lon": -87.7041962, "tags": {"addr:city": "Chicago", "addr:housenumber": "2529", "addr:postcode": "60647", "addr:state": "IL", "addr:street": "North Milwaukee Avenue", "amenity": "restaurant", "name": "The Crab Pad", "phone": "+1-773-360-8332", "website": "https://www.thecrabpad.com/"}}, {"type": "node", "id": 6306928757, "lat": 41.9258426, "lon": -87.7016794, "tags": {"addr:city": "Chicago", "addr:housenumber": "2445", "addr:postcode": "60647", "addr:state": "IL", "addr:street": "North Milwaukee Avenue", "amenity": "restaurant", "name": "Twain", "phone": "+1-773-697-8463", "website": "https://www.twainchicago.com/"}}, {"type": "node", "id": 6315665351, "lat": 41.925319, "lon": -87.7008542, "tags": {"addr:city": "Chicago", "addr:housenumber": "2417", "addr:postcode": "60647", "addr:state": "IL", "addr:street": "North Milwaukee Avenue", "amenity": "bar", "name": "The Native", "phone": "+1-872-206-5526", "website": "https://www.thenativechicago.com/"}}, {"type": "node", "id": 6315688215, "lat": 41.9273281, "lon": -87.7039893, "tags": {"addr:city": "Chicago", "addr:housenumber": "2521", "addr:postcode": "60647", "addr:state": "IL", "addr:street": "North Milwaukee Avenue", "amenity": "bar", "name": "The Owl", "phone": "+1-773-235-5300", "website": "http://owlbarchicago.com/"}}, {"type": "node", "id": 6319886955, "lat": 41.9277512, "lon": -87.706066, "tags": {"addr:city": "Chicago", "addr:housenumber": "3129", "addr:postcode": "60647", "addr:state": "IL", "addr:street": "West Logan Boulevard", "amenity": "restaurant", "name": "La Boulangerie", "phone": "+1-773-666-5880", "website": "http://www.laboulangeriechicago.com/"}}, {"type": "node", "id": 6321460385, "lat": 41.9308446, "lon": -87.6911398, "tags": {"addr:city": "Chicago", "addr:housenumber": "2717", "addr:postcode": "60647", "addr:state": "IL", "addr:street": "North Maplewood Avenue", "amenity": "bar", "name": "Maplewood Brewery & Distillery", "phone": "+1-773-270-1061", "website": "http://www.maplewoodbrew.com/"}}, {"type": "node", "id": 6322584582, "lat": 41.9277163, "lon": -87.706427, "tags": {"addr:city": "Chicago", "addr:housenumber": "3137", "addr:postcode": "60647", "addr:state": "IL", "addr:street": "West Logan Boulevard", "amenity": "restaurant", "cuisine": "american", "name": "Merchant", "phone": "+1-773-687-8822", "website": "https://www.merchantchicago.com/"}}, {"type": "node", "id": 6322602685, "lat": 41.9289091, "lon": -87.6977086, "tags": {"addr:city": "Chicago", "addr:housenumber": "2800", "addr:postcode": "60647", "addr:state": "IL", "addr:street": "West Logan Boulevard", "amenity": "restaurant", "cuisine": "mexican", "name": "Mi Tocaya Antojer\u00eda", "opening_hours": "Tu-Th 17:00-22:00; Fr-Sa 17:00-23:00; Su 17:00-21:00", "phone": "+1-872-315-3947", "website": "http://www.mitocaya.com"}}, {"type": "node", "id": 6324263888, "lat": 41.9231811, "lon": -87.6879259, "tags": {"addr:city": "Chicago", "addr:housenumber": "2252", "addr:postcode": "60647", "addr:state": "IL", "addr:street": "North Western Avenue", "amenity": "restaurant", "cuisine": "cuban", "name": "Paladar", "phone": "+1-773-252-4747", "website": "http://paladarchicago.com/"}}, {"type": "node", "id": 6324382907, "lat": 41.9276471, "lon": -87.6977733, "tags": {"addr:city": "Chicago", "addr:housenumber": "2532", "addr:postcode": "60647", "addr:state": "IL", "addr:street": "North California Avenue", "amenity": "restaurant", "name": "Landbirds", "phone": "+1-773-697-7107", "website": "http://www.landbirdschicago.com/"}}, {"type": "node", "id": 6324391369, "lat": 41.9245086, "lon": -87.6995198, "tags": {"addr:city": "Chicago", "addr:housenumber": "2375", "addr:postcode": "60647", "addr:state": "IL", "addr:street": "North Milwaukee Avenue", "amenity": "restaurant", "name": "The Radler", "phone": "+1-773-276-0270", "website": "https://www.dasradler.com/"}}, {"type": "node", "id": 6407204547, "lat": 41.9279706, "lon": -87.7047558, "tags": {"addr:city": "Chicago", "addr:housenumber": "3057", "addr:postcode": "60647", "addr:state": "IL", "addr:street": "West Logan Boulevard", "amenity": "restaurant", "name": "Mini Mott", "opening_hours": "Tu-Su 11:00-22:00", "website": "https://www.minimott.com/"}}, {"type": "node", "id": 6610493967, "lat": 41.9319096, "lon": -87.7048257, "tags": {"addr:city": "Chicago", "addr:housenumber": "3059", "addr:postcode": "60647", "addr:state": "IL", "addr:street": "West Diversey Avenue", "amenity": "restaurant", "cuisine": "indian", "name": "Superkhana International", "phone": "+1-773-661-9028", "website": "https://superkhanachicago.com"}}, {"type": "node", "id": 6842444175, "lat": 41.9308301, "lon": -87.7102272}, {"type": "node", "id": 6842444176, "lat": 41.924633, "lon": -87.6989436, "tags": {"addr:city": "Chicago", "addr:housenumber": "2839", "addr:postcode": "60647", "addr:state": "IL", "addr:street": "West Fullerton Avenue", "amenity": "cafe", "brand": "La Colombe Coffee Roasters", "brand:wikidata": "Q23461663", "brand:wikipedia": "en:La Colombe Coffee Roasters", "cuisine": "coffee_shop", "name": "La Colombe Coffee Roasters", "short_name": "La Colombe", "takeaway": "yes"}}, {"type": "node", "id": 7676120924, "lat": 41.9289022, "lon": -87.7071437}, {"type": "node", "id": 7676120925, "lat": 41.9292607, "lon": -87.707653}, {"type": "node", "id": 7676120928, "lat": 41.9303783, "lon": -87.7095961}, {"type": "way", "id": 23825783, "nodes": [34877706, 258284108, 308439353, 308439354, 258284109, 736037253, 5272957250, 308439083, 369650955, 736037262, 369650956, 369650957, 7676120928, 5272959958, 736037263, 258282963], "tags": {"electrified": "rail", "frequency": "0", "gauge": "1435", "layer": "-5", "name": "O'Hare Branch", "operator": "Chicago Transit Authority", "railway": "subway", "tunnel": "yes", "voltage": "600"}}, {"type": "way", "id": 23825786, "nodes": [258282963, 258282964, 736035866, 258282965, 736035867, 258282966], "tags": {"electrified": "rail", "frequency": "0", "gauge": "1435", "name": "O'Hare Branch", "oneway": "yes", "operator": "Chicago Transit Authority", "railway": "subway", "voltage": "600"}}, {"type": "way", "id": 59343236, "nodes": [258282966, 736035833, 258282968], "tags": {"electrified": "rail", "frequency": "0", "gauge": "1435", "name": "O'Hare Branch", "oneway": "yes", "operator": "Chicago Transit Authority", "railway": "subway", "voltage": "600"}}, {"type": "way", "id": 59343237, "nodes": [258282968, 258282969, 258282970, 1282296369, 34877708, 34877709, 2075140759, 34877711, 1282296431, 2166647920], "tags": {"bridge": "yes", "electrified": "rail", "frequency": "0", "gauge": "1435", "layer": "2", "name": "O'Hare Branch", "old_name": "Logan Square Branch", "oneway": "yes", "operator": "Chicago Transit Authority", "railway": "subway", "voltage": "600"}}, {"type": "way", "id": 112926174, "nodes": [2166647923, 2090182927, 1282296250, 1282296350, 1282296375, 1282296364, 1282296381, 1282296244, 1282296292, 1282296435, 1282296415, 1282296303, 1282296339, 1282296410], "tags": {"bridge": "yes", "electrified": "rail", "frequency": "0", "gauge": "1435", "name": "O'Hare Branch", "oneway": "yes", "operator": "Chicago Transit Authority", "railway": "subway", "voltage": "600"}}, {"type": "way", "id": 209404317, "nodes": [2196212544, 2196212651, 2196213756, 2196213642, 2196212544], "tags": {"addr:housenumber": "2148", "addr:street": "North Milwaukee Avenue", "addr:street:name": "Milwaukee", "addr:street:prefix": "North", "addr:street:type": "Avenue", "amenity": "restaurant", "building": "yes", "building:levels": "1", "chicago:building_id": "278149", "cuisine": "mexican", "name": "Taqueria Los Comales #11"}}, {"type": "way", "id": 209404898, "nodes": [2196219001, 2196219243, 2196219376, 2196219263, 2196219430, 2196219836, 2196219791, 2196219846, 2196219524, 2196219109, 2196219159, 2196219001], "tags": {"addr:housenumber": "2246", "addr:street": "North Milwaukee Avenue", "addr:street:name": "Milwaukee", "addr:street:prefix": "North", "addr:street:type": "Avenue", "amenity": "restaurant", "building": "yes", "building:levels": "1", "chicago:building_id": "273261", "cuisine": "american", "name": "Victory Grill", "takeaway": "only"}}, {"type": "way", "id": 209404946, "nodes": [2196223815, 2196224182, 2196224360, 2196224337, 2196224793, 2196224379, 2196223815], "tags": {"addr:city": "Chicago", "addr:housenumber": "2294", "addr:postcode": "60647", "addr:state": "IL", "addr:street": "North Milwaukee Avenue", "addr:street:name": "Milwaukee", "addr:street:prefix": "North", "addr:street:type": "Avenue", "amenity": "restaurant", "building": "retail", "building:levels": "1", "chicago:building_id": "270777", "name": "Cozy Corner Diner", "phone": "+1-773-276-2215", "website": "http://www.cozycornerrestaurant.com/cozy-corner-logan-square/"}}, {"type": "way", "id": 209405301, "nodes": [2196231356, 2196231359, 2196231402, 2196231405, 2196231378, 2196231368, 2196231387, 2196231382, 2196231455, 2196231485, 2196231640, 2196231710, 2196231762, 2196231771, 2196231531, 2196231530, 2196231381, 2196231383, 2196231356], "tags": {"addr:housenumber": "2331", "addr:street": "North California Avenue", "addr:street:name": "California", "addr:street:prefix": "North", "addr:street:type": "Avenue", "amenity": "restaurant", "building": "yes", "building:levels": "3", "chicago:building_id": "267027", "cuisine": "mexican", "name": "Don Chema"}}, {"type": "way", "id": 209454050, "nodes": [2196695766, 2196697466, 2196697314, 2196697224, 2196696471, 2196696452, 2196696257, 2196695425, 2196695561, 2196695766], "tags": {"addr:housenumber": "2359-2361", "addr:street": "North Milwaukee Avenue", "addr:street:name": "Milwaukee", "addr:street:prefix": "North", "addr:street:type": "Avenue", "amenity": "bar", "building": "yes", "building:levels": "1", "chicago:building_id": "850887", "name": "Chicago Distilling Company"}}, {"type": "way", "id": 209454070, "nodes": [2196700902, 2196701484, 2196701487, 2196702206, 2196702217, 2196700904, 2196700902], "tags": {"addr:housenumber": "2410", "addr:street": "West Fullerton Avenue", "addr:street:name": "Fullerton", "addr:street:prefix": "West", "addr:street:type": "Avenue", "amenity": "bar", "building": "yes", "building:levels": "2", "chicago:building_id": "262840", "name": "Logan Arcade"}}, {"type": "way", "id": 209454109, "nodes": [2196726093, 2196726258, 2196726256, 2196726343, 2196726355, 2196726113, 2196726093], "tags": {"addr:city": "Chicago", "addr:housenumber": "2416-2422", "addr:postcode": "60647", "addr:state": "IL", "addr:street": "West Schubert Avenue", "addr:street:name": "Schubert", "addr:street:prefix": "West", "addr:street:type": "Avenue", "amenity": "restaurant", "building": "yes", "building:levels": "1", "chicago:building_id": "246789", "cuisine": "barbecue", "name": "Fat Willy\u2019s Rib Shack", "phone": "+1-773-782-1800", "website": "https://www.fatwillys.com/"}}, {"type": "way", "id": 209454230, "nodes": [2196706116, 2196706393, 2196706420, 2196706176, 2196706116], "tags": {"addr:housenumber": "2428", "addr:street": "North Western Avenue", "addr:street:name": "Western", "addr:street:prefix": "North", "addr:street:type": "Avenue", "amenity": "bar", "building": "yes", "building:levels": "1", "chicago:building_id": "261401", "name": "The Mutiny"}}, {"type": "way", "id": 209454505, "nodes": [2196712373, 2196713072, 2196713835, 2196713554, 2196713167, 2196712999, 2196713586, 2196712373], "tags": {"addr:city": "Chicago", "addr:housenumber": "2475", "addr:postcode": "60618", "addr:street": "North Milwaukee Avenue", "addr:street:name": "Milwaukee", "addr:street:prefix": "North", "addr:street:type": "Avenue", "amenity": "restaurant", "building": "yes", "building:levels": "1", "chicago:building_id": "258658", "cuisine": "italian", "name": "Marcello's Father & Son Restaurant", "outdoor_seating": "no", "smoking": "no", "takeaway": "yes"}}, {"type": "way", "id": 209455839, "nodes": [2196733822, 2196733985, 2196734001, 2196734010, 2196734021, 2196734036, 2196734041, 2196734046, 2196734045, 2196734040, 2196734025, 2196734049, 2196733857, 2196733822], "tags": {"addr:city": "Chicago", "addr:housenumber": "2957", "addr:postcode": "60647", "addr:state": "IL", "addr:street": "West Diversey Avenue", "addr:street:name": "Sacramento", "addr:street:prefix": "North", "addr:street:type": "Avenue", "amenity": "restaurant", "building": "yes", "chicago:building_id": "242498", "cuisine": "asian", "name": "Fat Rice", "phone": "+1-773-661-9170", "website": "http://www.eatfatrice.com"}}, {"type": "way", "id": 209455856, "nodes": [2196735080, 2196735239, 2196735242, 2196735382, 2196735386, 2196735356, 2196735246, 2196735244, 2196735084, 2196735080], "tags": {"addr:city": "Chicago", "addr:housenumber": "2406", "addr:postcode": "60618", "addr:state": "IL", "addr:street": "West Diversey Parkway", "addr:street:name": "Western", "addr:street:prefix": "North", "addr:street:type": "Avenue", "amenity": "restaurant", "building": "yes", "building:levels": "1", "chicago:building_id": "240885", "cuisine": "breakfast;american", "name": "Golden Nugget"}}, {"type": "way", "id": 209455931, "nodes": [2196734852, 2196735073, 2196735074, 2196735349, 2196735348, 2196735588, 2196735590, 2196734859, 2196734852], "tags": {"addr:city": "Chicago", "addr:housenumber": "2818", "addr:street": "West Diversey Avenue", "addr:street:name": "Diversey", "addr:street:prefix": "West", "addr:street:type": "Avenue", "amenity": "restaurant", "brand": "IHOP", "brand:wikidata": "Q1185675", "brand:wikipedia": "en:IHOP", "building": "yes", "building:levels": "1", "chicago:building_id": "240772", "cuisine": "breakfast;pancake", "delivery": "no", "name": "IHOP"}}, {"type": "way", "id": 209456231, "nodes": [2196696161, 2196697718, 2196697732, 2196698996, 2196699000, 2196697476, 2196697468, 2196695766, 2196696161], "tags": {"addr:housenumber": "2841-2843", "addr:street": "West Fullerton Avenue", "addr:street:name": "Fullerton", "addr:street:prefix": "West", "addr:street:type": "Avenue", "amenity": "bar", "building": "yes", "building:levels": "1", "chicago:building_id": "850893", "name": "Emporium Logan Square"}}, {"type": "way", "id": 236279633, "nodes": [2443252534, 2443252568, 7676120924, 7676120925, 2443252531, 6842444175, 2443252559, 2443252575, 2443252585, 2443252544, 2443252554, 2443252547, 2443252540, 2443252582, 2443252562, 2443252572, 2443252588, 2443252578], "tags": {"electrified": "rail", "frequency": "0", "gauge": "1435", "layer": "-5", "name": "O'Hare Branch", "operator": "Chicago Transit Authority", "railway": "subway", "tunnel": "yes", "voltage": "600"}}, {"type": "way", "id": 236279642, "nodes": [1282296410, 1282296434, 1282296271, 1282296366, 1282296412, 2443252534], "tags": {"electrified": "rail", "frequency": "0", "gauge": "1435", "name": "O'Hare Branch", "oneway": "yes", "operator": "Chicago Transit Authority", "railway": "subway", "voltage": "600"}}, {"type": "way", "id": 351505403, "nodes": [3572965495, 3572965496, 3572965497, 3572965498, 3572965495], "tags": {"addr:city": "Chicago", "addr:housenumber": "2700", "addr:postcode": "60647", "addr:state": "IL", "addr:street": "North Western Avenue", "amenity": "restaurant", "building": "yes", "cuisine": "british", "name": "Owen & Engine", "phone": "+1-773-235-2930", "website": "https://www.owenandengine.com"}}]}