{"version": 0.6, "generator": "Overpass API 0.7.56.3 eb200aeb", "osm3s": {"timestamp_osm_base": "2020-07-04T01:19:02Z", "copyright": "The data included in this document is from www.openstreetmap.org. The data is made available under ODbL."}, "elements": [{"type": "node", "id": 252643585, "lat": 42.0044077, "lon": -87.6650714}, {"type": "node", "id": 252643586, "lat": 42.0031378, "lon": -87.6639585}, {"type": "node", "id": 252643587, "lat": 42.0026834, "lon": -87.66336}, {"type": "node", "id": 252643588, "lat": 42.0025286, "lon": -87.6631199}, {"type": "node", "id": 252643589, "lat": 42.0017779, "lon": -87.6618328}, {"type": "node", "id": 389153650, "lat": 42.001126, "lon": -87.6609307}, {"type": "node", "id": 389153651, "lat": 42.0009105, "lon": -87.6609135}, {"type": "node", "id": 389153653, "lat": 42.001624, "lon": -87.6618495}, {"type": "node", "id": 389154477, "lat": 42.0024072, "lon": -87.6631698}, {"type": "node", "id": 389154495, "lat": 42.0040331, "lon": -87.6648167}, {"type": "node", "id": 389154496, "lat": 42.0036059, "lon": -87.6644625}, {"type": "node", "id": 389154519, "lat": 42.0027261, "lon": -87.6636505}, {"type": "node", "id": 389154520, "lat": 42.0030642, "lon": -87.6640968}, {"type": "node", "id": 389154521, "lat": 42.0034787, "lon": -87.664526}, {"type": "node", "id": 389154522, "lat": 42.0039762, "lon": -87.6649379}, {"type": "node", "id": 389154525, "lat": 42.0042934, "lon": -87.665169}, {"type": "node", "id": 533979379, "lat": 41.9980101, "lon": -87.6815509, "tags": {"addr:city": "Chicago", "addr:housenumber": "2032", "addr:postcode": "60659", "addr:state": "IL", "addr:street": "West Devon Avenue", "amenity": "restaurant", "cuisine": "indian", "name": "Ghareeb Nawaz", "opening_hours": "24/7", "phone": "+1-773-761-5300", "website": "https://ghareebnawazonline.com/"}}, {"type": "node", "id": 735213933, "lat": 42.0081716, "lon": -87.6660123}, {"type": "node", "id": 735213940, "lat": 42.0076454, "lon": -87.6659962}, {"type": "node", "id": 735213967, "lat": 42.0088652, "lon": -87.6660377}, {"type": "node", "id": 735213978, "lat": 42.0092458, "lon": -87.6660485}, {"type": "node", "id": 735214003, "lat": 42.0102214, "lon": -87.6660592}, {"type": "node", "id": 735214006, "lat": 42.0094302, "lon": -87.6660525}, {"type": "node", "id": 735214020, "lat": 42.0104635, "lon": -87.6660661}, {"type": "node", "id": 735214077, "lat": 42.0055816, "lon": -87.6656582}, {"type": "node", "id": 735214095, "lat": 42.0058188, "lon": -87.6657467}, {"type": "node", "id": 735214103, "lat": 42.0059902, "lon": -87.6658017}, {"type": "node", "id": 735214110, "lat": 42.0061267, "lon": -87.6658339}, {"type": "node", "id": 735214117, "lat": 42.0062942, "lon": -87.6658594}, {"type": "node", "id": 735214134, "lat": 42.0064357, "lon": -87.6658714}, {"type": "node", "id": 735214141, "lat": 42.0065881, "lon": -87.6658782}, {"type": "node", "id": 735214197, "lat": 42.0055757, "lon": -87.6657226}, {"type": "node", "id": 735214206, "lat": 42.0053375, "lon": -87.6656247}, {"type": "node", "id": 735214219, "lat": 42.0065931, "lon": -87.6659439}, {"type": "node", "id": 735214220, "lat": 42.0064028, "lon": -87.6659291}, {"type": "node", "id": 735214222, "lat": 42.0062144, "lon": -87.665909}, {"type": "node", "id": 735214225, "lat": 42.006057, "lon": -87.6658808}, {"type": "node", "id": 735214230, "lat": 42.0058965, "lon": -87.6658352}, {"type": "node", "id": 735214239, "lat": 42.005755, "lon": -87.6657829}, {"type": "node", "id": 735214288, "lat": 42.0068183, "lon": -87.6659546}, {"type": "node", "id": 735214370, "lat": 42.0088652, "lon": -87.6659433}, {"type": "node", "id": 735214383, "lat": 42.0092498, "lon": -87.6659573}, {"type": "node", "id": 735214477, "lat": 42.0081786, "lon": -87.6659184}, {"type": "node", "id": 735214507, "lat": 42.0076514, "lon": -87.665905}, {"type": "node", "id": 735214522, "lat": 42.0068271, "lon": -87.6658909}, {"type": "node", "id": 735214527, "lat": 42.0072638, "lon": -87.6658929}, {"type": "node", "id": 735214600, "lat": 42.0102274, "lon": -87.6661115}, {"type": "node", "id": 735214610, "lat": 42.0092438, "lon": -87.6660994}, {"type": "node", "id": 735214633, "lat": 42.0104665, "lon": -87.6661205}, {"type": "node", "id": 735214653, "lat": 42.0104665, "lon": -87.6660096}, {"type": "node", "id": 735214657, "lat": 42.0108372, "lon": -87.6660243}, {"type": "node", "id": 735214664, "lat": 42.011446, "lon": -87.6660429}, {"type": "node", "id": 735214716, "lat": 42.0102363, "lon": -87.6660002}, {"type": "node", "id": 735214787, "lat": 42.0095617, "lon": -87.6659707}, {"type": "node", "id": 735214852, "lat": 42.0055806, "lon": -87.6656032}, {"type": "node", "id": 735214913, "lat": 42.0058437, "lon": -87.6657051}, {"type": "node", "id": 735214922, "lat": 42.0060091, "lon": -87.6657575}, {"type": "node", "id": 735214932, "lat": 42.0061526, "lon": -87.6657896}, {"type": "node", "id": 735214943, "lat": 42.0063101, "lon": -87.6658098}, {"type": "node", "id": 735214951, "lat": 42.0064676, "lon": -87.6658205}, {"type": "node", "id": 735214962, "lat": 42.0065891, "lon": -87.6658258}, {"type": "node", "id": 735215016, "lat": 42.0076463, "lon": -87.6660441}, {"type": "node", "id": 735215025, "lat": 42.0068164, "lon": -87.6660059}, {"type": "node", "id": 735215069, "lat": 42.0081707, "lon": -87.6660627}, {"type": "node", "id": 735215102, "lat": 42.0088662, "lon": -87.6660874}, {"type": "node", "id": 735215180, "lat": 42.0088672, "lon": -87.6659037}, {"type": "node", "id": 735215186, "lat": 42.0092478, "lon": -87.665917}, {"type": "node", "id": 735215245, "lat": 42.0081726, "lon": -87.6658768}, {"type": "node", "id": 735215311, "lat": 42.0076494, "lon": -87.6658612}, {"type": "node", "id": 735215357, "lat": 42.0068134, "lon": -87.6658339}, {"type": "node", "id": 735215359, "lat": 42.007478, "lon": -87.6658554}, {"type": "node", "id": 735215403, "lat": 42.0065931, "lon": -87.6659935}, {"type": "node", "id": 735215407, "lat": 42.0064177, "lon": -87.6659854}, {"type": "node", "id": 735215411, "lat": 42.0062971, "lon": -87.6659747}, {"type": "node", "id": 735215417, "lat": 42.0061497, "lon": -87.6659506}, {"type": "node", "id": 735215422, "lat": 42.0060361, "lon": -87.6659251}, {"type": "node", "id": 735215426, "lat": 42.0059135, "lon": -87.6658929}, {"type": "node", "id": 735215435, "lat": 42.0057859, "lon": -87.665854}, {"type": "node", "id": 735215446, "lat": 42.0056524, "lon": -87.6658004}, {"type": "node", "id": 735215449, "lat": 42.0055687, "lon": -87.6657655}, {"type": "node", "id": 735215505, "lat": 42.0104645, "lon": -87.6659613}, {"type": "node", "id": 735215511, "lat": 42.0108601, "lon": -87.6659761}, {"type": "node", "id": 735215515, "lat": 42.011445, "lon": -87.6659944}, {"type": "node", "id": 735215524, "lat": 42.0102314, "lon": -87.6659526}, {"type": "node", "id": 735215541, "lat": 42.0095637, "lon": -87.6659278}, {"type": "node", "id": 735215650, "lat": 42.0053345, "lon": -87.6656676}, {"type": "node", "id": 735215702, "lat": 42.011449, "lon": -87.6660941}, {"type": "node", "id": 735215708, "lat": 42.0108372, "lon": -87.6660766}, {"type": "node", "id": 735216321, "lat": 42.011452, "lon": -87.6661491}, {"type": "node", "id": 735216326, "lat": 42.0108711, "lon": -87.6661356}, {"type": "node", "id": 735217625, "lat": 42.0053365, "lon": -87.6655657}, {"type": "node", "id": 735217637, "lat": 42.0053335, "lon": -87.6655134}, {"type": "node", "id": 938829350, "lat": 42.0073549, "lon": -87.6662451, "tags": {"addr:city": "Chicago", "addr:housenumber": "6920", "addr:postcode": "60626", "addr:state": "IL", "addr:street": "North Glenwood Avenue", "amenity": "bar", "name": "Rogers Park Social", "phone": "+1-773-791-1419", "website": "http://www.rogersparksocial.com/"}}, {"type": "node", "id": 1288454599, "lat": 42.0076938, "lon": -87.6680759, "tags": {"addr:city": "Chicago", "addr:housenumber": "1501", "addr:postcode": "60626", "addr:state": "IL", "addr:street": "West Morse Avenue", "amenity": "cafe", "cuisine": "coffee_shop", "name": "Common Cup", "phone": "+1-773-338-0256", "website": "http://www.commoncupchicago.com"}}, {"type": "node", "id": 2022160039, "lat": 42.0043095, "lon": -87.6651262}, {"type": "node", "id": 2022160040, "lat": 42.0028585, "lon": -87.6636805}, {"type": "node", "id": 2022160041, "lat": 42.0019345, "lon": -87.6621865, "tags": {"railway": "switch"}}, {"type": "node", "id": 2022160042, "lat": 42.0037574, "lon": -87.6647239}, {"type": "node", "id": 2022160044, "lat": 42.0045388, "lon": -87.6652657}, {"type": "node", "id": 2022160049, "lat": 42.0039149, "lon": -87.66485}, {"type": "node", "id": 2022160050, "lat": 42.0021331, "lon": -87.6624551, "tags": {"railway": "switch"}}, {"type": "node", "id": 2022160052, "lat": 42.001613, "lon": -87.6615746}, {"type": "node", "id": 2022160054, "lat": 42.0032691, "lon": -87.6641767}, {"type": "node", "id": 2022160057, "lat": 42.0050204, "lon": -87.6655011}, {"type": "node", "id": 2022160061, "lat": 42.0033776, "lon": -87.6642253}, {"type": "node", "id": 2022160063, "lat": 42.0047401, "lon": -87.665373}, {"type": "node", "id": 2022160064, "lat": 42.00418, "lon": -87.6649733}, {"type": "node", "id": 2022160066, "lat": 42.0045812, "lon": -87.6653326}, {"type": "node", "id": 2022160067, "lat": 42.0023104, "lon": -87.6629295}, {"type": "node", "id": 2022160068, "lat": 42.0009648, "lon": -87.6609223}, {"type": "node", "id": 2022160069, "lat": 42.0027688, "lon": -87.6636483}, {"type": "node", "id": 2022160070, "lat": 42.0025356, "lon": -87.6632004}, {"type": "node", "id": 2022160073, "lat": 42.0026931, "lon": -87.6634338}, {"type": "node", "id": 2022160074, "lat": 42.0012946, "lon": -87.6611739}, {"type": "node", "id": 2022160077, "lat": 42.001618, "lon": -87.661786, "tags": {"name": "Loyola", "network": "CTA", "operator": "Chicago Transit Authority", "public_transport": "stop_position", "railway": "stop", "subway": "yes"}}, {"type": "node", "id": 2022160078, "lat": 42.0035721, "lon": -87.664563}, {"type": "node", "id": 2022160079, "lat": 42.0025316, "lon": -87.663297}, {"type": "node", "id": 2022160080, "lat": 42.0049246, "lon": -87.6655051}, {"type": "node", "id": 2022160088, "lat": 42.0016888, "lon": -87.6617504}, {"type": "node", "id": 2022160089, "lat": 42.0045348, "lon": -87.665196}, {"type": "node", "id": 2022160090, "lat": 42.0035143, "lon": -87.6644262}, {"type": "node", "id": 2022160091, "lat": 42.0034106, "lon": -87.664402}, {"type": "node", "id": 2022160094, "lat": 42.003012, "lon": -87.6639648}, {"type": "node", "id": 2022160096, "lat": 42.0032332, "lon": -87.6642196}, {"type": "node", "id": 2022160100, "lat": 42.0013842, "lon": -87.6614308}, {"type": "node", "id": 2022160101, "lat": 42.005041, "lon": -87.6654481}, {"type": "node", "id": 2022160103, "lat": 42.001096, "lon": -87.6609254}, {"type": "node", "id": 2022160104, "lat": 42.0011593, "lon": -87.6611432}, {"type": "node", "id": 2022160107, "lat": 42.0014117, "lon": -87.6612832}, {"type": "node", "id": 2022160108, "lat": 42.004752, "lon": -87.6653193}, {"type": "node", "id": 2022160111, "lat": 42.0030439, "lon": -87.6639112}, {"type": "node", "id": 2022160115, "lat": 42.0037834, "lon": -87.6646756}, {"type": "node", "id": 2022160118, "lat": 42.0014847, "lon": -87.6614339}, {"type": "node", "id": 2022160121, "lat": 42.0041162, "lon": -87.6649975}, {"type": "node", "id": 2022160122, "lat": 42.0028869, "lon": -87.6636316}, {"type": "node", "id": 2022178579, "lat": 42.0013431, "lon": -87.6614365}, {"type": "node", "id": 2023169768, "lat": 42.008247, "lon": -87.666015, "tags": {"name": "Morse", "network": "CTA", "operator": "Chicago Transit Authority", "public_transport": "stop_position", "railway": "stop", "subway": "yes"}}, {"type": "node", "id": 2023169775, "lat": 42.008249, "lon": -87.665921, "tags": {"name": "Morse", "network": "CTA", "operator": "Chicago Transit Authority", "public_transport": "stop_position", "railway": "stop", "subway": "yes"}}, {"type": "node", "id": 2023183643, "lat": 42.0011436, "lon": -87.6611813}, {"type": "node", "id": 2023183644, "lat": 42.0018176, "lon": -87.6621091}, {"type": "node", "id": 2023183651, "lat": 42.0046637, "lon": -87.6652141}, {"type": "node", "id": 2023183689, "lat": 42.0049194, "lon": -87.6653436}, {"type": "node", "id": 2201030508, "lat": 41.9978624, "lon": -87.6656802}, {"type": "node", "id": 2201030512, "lat": 41.9978655, "lon": -87.6655109}, {"type": "node", "id": 2201030565, "lat": 41.9979026, "lon": -87.6657515}, {"type": "node", "id": 2201030572, "lat": 41.9979049, "lon": -87.6656816}, {"type": "node", "id": 2201030631, "lat": 41.9979329, "lon": -87.6657769}, {"type": "node", "id": 2201030633, "lat": 41.9979342, "lon": -87.665753}, {"type": "node", "id": 2201030690, "lat": 41.997981, "lon": -87.6657801}, {"type": "node", "id": 2201030691, "lat": 41.9979822, "lon": -87.6657562}, {"type": "node", "id": 2201030750, "lat": 41.9980412, "lon": -87.6657574}, {"type": "node", "id": 2201030763, "lat": 41.9980467, "lon": -87.6655182}, {"type": "node", "id": 2201050025, "lat": 42.0038979, "lon": -87.672981}, {"type": "node", "id": 2201050058, "lat": 42.003902, "lon": -87.6727382}, {"type": "node", "id": 2201050259, "lat": 42.0039527, "lon": -87.6729565}, {"type": "node", "id": 2201050275, "lat": 42.0039534, "lon": -87.6728462}, {"type": "node", "id": 2201050278, "lat": 42.0039556, "lon": -87.6729823}, {"type": "node", "id": 2201050282, "lat": 42.0039568, "lon": -87.6729565}, {"type": "node", "id": 2201050342, "lat": 42.0039643, "lon": -87.672835}, {"type": "node", "id": 2201050356, "lat": 42.0039652, "lon": -87.6727577}, {"type": "node", "id": 2201072801, "lat": 42.0080084, "lon": -87.6664311}, {"type": "node", "id": 2201072810, "lat": 42.0080123, "lon": -87.6662492}, {"type": "node", "id": 2201074220, "lat": 42.0084739, "lon": -87.666445}, {"type": "node", "id": 2201074224, "lat": 42.0084776, "lon": -87.6662665}, {"type": "node", "id": 2990179090, "lat": 42.010791, "lon": -87.67421, "tags": {"amenity": "restaurant", "cuisine": "ice_cream", "name": "Something North"}}, {"type": "node", "id": 3731938758, "lat": 42.007634, "lon": -87.6662684, "tags": {"addr:city": "Chicago", "addr:housenumber": "6928", "addr:postcode": "60626", "addr:state": "IL", "addr:street": "North Glenwood Avenue", "amenity": "bar", "name": "Rogers Park Provisions"}}, {"type": "node", "id": 4905131954, "lat": 41.9983048, "lon": -87.6708927, "tags": {"addr:housenumber": "6404", "addr:street": "North Clark Street", "amenity": "restaurant", "description": "Authentic, tasty Mexican joint.", "name": "Taqueria El Chorrito", "phone": "(773) 381-0902", "website": "https://www.elchorrito.com/"}}, {"type": "node", "id": 5839209831, "lat": 41.9979862, "lon": -87.668527, "tags": {"addr:housenumber": "1515", "addr:street": "West Devon Avenue", "amenity": "restaurant", "description": "Cuban, Colombian, and Mexican food. Also Latin American grocery.", "name": "La Unica Food Mart", "opening_hours": "Mo-Sa 08:30-21:00; Su 08:30-17:00", "phone": "773 274 7788", "website": "www.launicafoodmart.us"}}, {"type": "node", "id": 6284018111, "lat": 41.9982845, "lon": -87.6665475, "tags": {"addr:city": "Chicago", "addr:housenumber": "1424", "addr:postcode": "60626", "addr:state": "IL", "addr:street": "West Devon Avenue", "amenity": "bar", "name": "Cunneen\u2019s", "phone": "+1-773-274-9317", "website": "http://cunneensbarchicago.com/"}}, {"type": "node", "id": 6291637578, "lat": 42.00826, "lon": -87.6665329, "tags": {"addr:city": "Chicago", "addr:housenumber": "1412", "addr:postcode": "60626", "addr:state": "IL", "addr:street": "West Morse Avenue", "amenity": "bar", "name": "Fudy T\u2019s", "phone": "+1-773-856-0328", "website": "http://fudytultrabar.com/"}}, {"type": "node", "id": 6297613251, "lat": 41.9975635, "lon": -87.6707493, "tags": {"addr:city": "Chicago", "addr:housenumber": "6338", "addr:postcode": "60660", "addr:state": "IL", "addr:street": "North Clark Street", "amenity": "restaurant", "name": "Sauce And Bread Kitchen", "phone": "+1-773-942-6384", "website": "http://sauceandbread.com/"}}, {"type": "node", "id": 6297696580, "lat": 42.0039382, "lon": -87.6728635, "tags": {"addr:city": "Chicago", "addr:housenumber": "6712", "addr:postcode": "60626", "addr:state": "IL", "addr:street": "North Clark Street", "amenity": "cafe", "name": "Sebastian\u2019s Coffee & Bakery", "phone": "+1-773-942-6749"}}, {"type": "node", "id": 6298772685, "lat": 42.0099898, "lon": -87.6745597, "tags": {"addr:city": "Chicago", "addr:housenumber": "7030", "addr:postcode": "60626", "addr:state": "IL", "addr:street": "North Clark Street", "amenity": "bar", "name": "Silvana Bar", "phone": "+1-773-465-8590"}}, {"type": "node", "id": 6298857498, "lat": 42.0074054, "lon": -87.6662642, "tags": {"addr:city": "Chicago", "addr:housenumber": "6920", "addr:postcode": "60626", "addr:state": "IL", "addr:street": "North Glenwood Avenue", "amenity": "cafe", "name": "Smack Dab", "phone": "+1-872-241-9111", "website": "https://www.smackdabchicago.com/"}}, {"type": "node", "id": 6300638640, "lat": 41.9979515, "lon": -87.6692998, "tags": {"addr:city": "Chicago", "addr:housenumber": "1535", "addr:postcode": "60631", "addr:state": "IL", "addr:street": "West Devon Avenue", "amenity": "cafe", "name": "Red Rover Caf\u00e9", "phone": "+1-773-262-2666", "website": "http://www.redrovercafechicago.com/"}}, {"type": "node", "id": 6303787394, "lat": 42.0013884, "lon": -87.6712636, "tags": {"addr:city": "Chicago", "addr:housenumber": "6545", "addr:postcode": "60626", "addr:state": "IL", "addr:street": "North Clark Street", "amenity": "restaurant", "cuisine": "peruvian", "name": "Taste of Peru", "phone": "+1-773-381-4540", "website": "https://tasteofperu.com/"}}, {"type": "node", "id": 6315237873, "lat": 42.0083767, "lon": -87.6663564, "tags": {"addr:city": "Chicago", "addr:housenumber": "6962", "addr:postcode": "60626", "addr:state": "IL", "addr:street": "North Glenwood Avenue", "amenity": "bar", "name": "The Glenwood", "phone": "+1-773-764-7363", "website": "http://www.theglenwoodbar.com/cgi-sys/suspendedpage.cgi"}}, {"type": "node", "id": 6315674821, "lat": 41.997511, "lon": -87.6706958, "tags": {"addr:city": "Chicago", "addr:housenumber": "6334", "addr:postcode": "60660", "addr:state": "IL", "addr:street": "North Clark Street", "amenity": "bar", "name": "The Norse Bar", "phone": "+1-773-942-6344", "website": "http://norsebar.com/odin/"}}, {"type": "node", "id": 6318237820, "lat": 42.0087285, "lon": -87.6663449, "tags": {"addr:city": "Chicago", "addr:housenumber": "6970", "addr:postcode": "60626", "addr:state": "IL", "addr:street": "North Glenwood Avenue", "amenity": "bar", "name": "Le Piano", "phone": "+1-773-209-7631", "website": "https://www.lepianochicago.com/"}}, {"type": "node", "id": 6412790908, "lat": 42.0097903, "lon": -87.6744103, "tags": {"addr:city": "Chicago", "addr:housenumber": "7024", "addr:postcode": "60626", "addr:state": "IL", "addr:street": "North Clark Street", "amenity": "restaurant", "cuisine": "mexican", "name": "Tamales Lo Mejor De Guerrero", "opening_hours": "Tu-Su 05:00-20:00", "phone": "+1-773-338-6450"}}, {"type": "node", "id": 6412790976, "lat": 42.0099178, "lon": -87.6739865, "tags": {"addr:city": "Chicago", "addr:housenumber": "7027", "addr:postcode": "60626", "addr:state": "IL", "addr:street": "North Clark Street", "amenity": "restaurant", "cuisine": "mexican", "name": "El Sabor Pobloano", "opening_hours": "Su-Mo 08:00-21:00; We-Th 08:00-21:00; Fr-Sa 08:00-22:00"}}, {"type": "node", "id": 6412792357, "lat": 42.0097145, "lon": -87.6744344, "tags": {"addr:city": "Chicago", "addr:housenumber": "7022", "addr:postcode": "60626", "addr:state": "IL", "addr:street": "North Clark Street", "amenity": "restaurant", "cuisine": "mexican", "name": "La Choza Mexican Grill", "phone": "+1-773-465-2162", "website": "Su-Th 10:00-00:00;Fr-Sa 10:00-02:00"}}, {"type": "node", "id": 6412795318, "lat": 42.0096687, "lon": -87.6739181, "tags": {"addr:city": "Chicago", "addr:housenumber": "7021", "addr:postcode": "60626", "addr:state": "IL", "addr:street": "North Clark Street", "amenity": "restaurant", "cuisine": "mexican", "name": "Birrier\u00eda Y Carnitas El Gallito", "opening_hours": "Mo-Su 09:00-21:00", "phone": "+1-773-901-9067", "website": "http://orderbirreriaycarnitaselgallito.com"}}, {"type": "node", "id": 6412805048, "lat": 42.002297, "lon": -87.6718007, "tags": {"addr:city": "Chicago", "addr:housenumber": "6619", "addr:postcode": "60626", "addr:state": "IL", "addr:street": "North Clark Street", "amenity": "restaurant", "cuisine": "mexican", "name": "El Pulpo Loco Restaurant", "phone": "+1-773-274-2241", "website": "https://el-pulpo-loco-restaurant.business.site"}}, {"type": "node", "id": 6412813680, "lat": 42.0073012, "lon": -87.6738079, "tags": {"addr:city": "Chicago", "addr:housenumber": "6922", "addr:postcode": "60626", "addr:state": "IL", "addr:street": "North Clark Street", "amenity": "restaurant", "cuisine": "mexican", "name": "El Pecado Mexican Restaurant", "phone": "+1-773-681-0220", "website": "http://orderelpecadomexicanrestaurant.com/"}}, {"type": "node", "id": 6412818878, "lat": 42.002762, "lon": -87.6720083, "tags": {"addr:city": "Chicago", "addr:housenumber": "6635", "addr:postcode": "60626", "addr:state": "IL", "addr:street": "North Clark Street", "amenity": "restaurant", "cuisine": "eritrean", "name": "Denden Restaurant", "phone": "+1-773-973-4752"}}, {"type": "node", "id": 6412819890, "lat": 42.0075405, "lon": -87.6662899, "tags": {"addr:city": "Chicago", "addr:housenumber": "6930", "addr:postcode": "60626", "addr:state": "IL", "addr:street": "North Glenwood Avenue", "amenity": "restaurant", "cuisine": "american", "name": "Noon Hour Grill", "phone": "+1-773-338-9494"}}, {"type": "node", "id": 6412822104, "lat": 42.0080429, "lon": -87.6667483, "tags": {"addr:city": "Chicago", "addr:housenumber": "1416", "addr:postcode": "60626", "addr:state": "IL", "addr:street": "West Morse Avenue", "amenity": "restaurant", "cuisine": "mexican", "name": "South Of The Border Restaurant & Bar", "phone": "+1-773-856-0427"}}, {"type": "node", "id": 6412822257, "lat": 42.0104528, "lon": -87.6740973, "tags": {"addr:city": "Chicago", "addr:housenumber": "7047", "addr:postcode": "60626", "addr:state": "IL", "addr:street": "North Clark Street", "amenity": "restaurant", "cuisine": "mexican", "name": "El Famous Burrito", "phone": "+1-773-465-0377"}}, {"type": "node", "id": 6412827080, "lat": 42.0103581, "lon": -87.674002, "tags": {"addr:city": "Chicago", "addr:housenumber": "7043", "addr:postcode": "60626", "addr:state": "IL", "addr:street": "North Clark Street", "amenity": "restaurant", "cuisine": "tacos;mexican", "name": "Rocky's Tacos", "phone": "+1-773-274-4555"}}, {"type": "node", "id": 6651820248, "lat": 42.0093864, "lon": -87.6730635, "tags": {"addr:city": "Chicago", "addr:housenumber": "1716", "addr:postcode": "60626", "addr:state": "IL", "addr:street": "West Lunt Avenue", "amenity": "restaurant", "cuisine": "indian;vegetarean", "name": "Krishna Lunch", "phone": "+1-773-973-0900", "website": "http://www.iskconchicago.com/programs/krishna-lunch/"}}, {"type": "way", "id": 59243917, "nodes": [735217625, 735214077], "tags": {"bridge": "yes", "electrified": "rail", "gauge": "1435", "layer": "1", "name": "North Side Main Line", "oneway": "yes", "operator": "Chicago Transit Authority", "railway": "subway", "voltage": "600"}}, {"type": "way", "id": 59293780, "nodes": [735213933, 735213940], "tags": {"bridge": "yes", "electrified": "rail", "gauge": "1435", "layer": "1", "name": "North Side Main Line", "oneway": "yes", "operator": "Chicago Transit Authority", "railway": "subway", "voltage": "600"}}, {"type": "way", "id": 59293781, "nodes": [735213967, 2023169768, 735213933], "tags": {"electrified": "rail", "gauge": "1435", "name": "North Side Main Line", "oneway": "yes", "operator": "Chicago Transit Authority", "railway": "subway", "voltage": "600"}}, {"type": "way", "id": 59293782, "nodes": [735213978, 735213967], "tags": {"bridge": "yes", "electrified": "rail", "gauge": "1435", "layer": "1", "name": "North Side Main Line", "oneway": "yes", "operator": "Chicago Transit Authority", "railway": "subway", "voltage": "600"}}, {"type": "way", "id": 59293783, "nodes": [735214003, 735214006, 735213978], "tags": {"electrified": "rail", "gauge": "1435", "name": "North Side Main Line", "oneway": "yes", "operator": "Chicago Transit Authority", "railway": "subway", "voltage": "600"}}, {"type": "way", "id": 59293784, "nodes": [735214020, 735214003], "tags": {"bridge": "yes", "electrified": "rail", "gauge": "1435", "layer": "1", "name": "North Side Main Line", "oneway": "yes", "operator": "Chicago Transit Authority", "railway": "subway", "voltage": "600"}}, {"type": "way", "id": 59293785, "nodes": [735214077, 735214095, 735214103, 735214110, 735214117, 735214134, 735214141], "tags": {"electrified": "rail", "gauge": "1435", "name": "North Side Main Line", "oneway": "yes", "operator": "Chicago Transit Authority", "railway": "subway", "voltage": "600"}}, {"type": "way", "id": 59293786, "nodes": [735214197, 735214206], "tags": {"bridge": "yes", "electrified": "rail", "gauge": "1435", "layer": "1", "name": "North Side Main Line", "oneway": "yes", "operator": "Chicago Transit Authority", "railway": "subway", "voltage": "600"}}, {"type": "way", "id": 59293787, "nodes": [735214219, 735214220, 735214222, 735214225, 735214230, 735214239, 735214197], "tags": {"electrified": "rail", "gauge": "1435", "name": "North Side Main Line", "oneway": "yes", "operator": "Chicago Transit Authority", "railway": "subway", "voltage": "600"}}, {"type": "way", "id": 59293788, "nodes": [735214288, 735214219], "tags": {"bridge": "yes", "electrified": "rail", "gauge": "1435", "layer": "1", "name": "North Side Main Line", "oneway": "yes", "operator": "Chicago Transit Authority", "railway": "subway", "voltage": "600"}}, {"type": "way", "id": 59293789, "nodes": [735213940, 735214288], "tags": {"electrified": "rail", "gauge": "1435", "name": "North Side Main Line", "oneway": "yes", "operator": "Chicago Transit Authority", "railway": "subway", "voltage": "600"}}, {"type": "way", "id": 59293790, "nodes": [735214370, 735214383], "tags": {"bridge": "yes", "electrified": "rail", "gauge": "1435", "layer": "1", "name": "North Side Main Line", "oneway": "yes", "operator": "Chicago Transit Authority", "railway": "subway", "voltage": "600"}}, {"type": "way", "id": 59293792, "nodes": [735214477, 2023169775, 735214370], "tags": {"electrified": "rail", "gauge": "1435", "name": "North Side Main Line", "oneway": "yes", "operator": "Chicago Transit Authority", "railway": "subway", "voltage": "600"}}, {"type": "way", "id": 59293798, "nodes": [735214507, 735214477], "tags": {"bridge": "yes", "electrified": "rail", "gauge": "1435", "layer": "1", "name": "North Side Main Line", "oneway": "yes", "operator": "Chicago Transit Authority", "railway": "subway", "voltage": "600"}}, {"type": "way", "id": 59293811, "nodes": [735214522, 735214527, 735214507], "tags": {"electrified": "rail", "gauge": "1435", "name": "North Side Main Line", "oneway": "yes", "operator": "Chicago Transit Authority", "railway": "subway", "voltage": "600"}}, {"type": "way", "id": 59293814, "nodes": [735214141, 735214522], "tags": {"bridge": "yes", "electrified": "rail", "gauge": "1435", "layer": "1", "name": "North Side Main Line", "oneway": "yes", "operator": "Chicago Transit Authority", "railway": "subway", "voltage": "600"}}, {"type": "way", "id": 59293815, "nodes": [735214600, 735214610], "tags": {"electrified": "rail", "frequency": "0", "gauge": "1435", "name": "North Side Main Line", "oneway": "yes", "operator": "Chicago Transit Authority", "railway": "subway", "voltage": "600"}}, {"type": "way", "id": 59293816, "nodes": [735214633, 735214600], "tags": {"bridge": "yes", "electrified": "rail", "frequency": "0", "gauge": "1435", "layer": "1", "name": "North Side Main Line", "oneway": "yes", "operator": "Chicago Transit Authority", "railway": "subway", "voltage": "600"}}, {"type": "way", "id": 59293819, "nodes": [735214653, 735214657, 735214664], "tags": {"electrified": "rail", "gauge": "1435", "name": "North Side Main Line", "oneway": "yes", "operator": "Chicago Transit Authority", "railway": "subway", "voltage": "600"}}, {"type": "way", "id": 59293821, "nodes": [735214716, 735214653], "tags": {"bridge": "yes", "electrified": "rail", "gauge": "1435", "layer": "1", "name": "North Side Main Line", "oneway": "yes", "operator": "Chicago Transit Authority", "railway": "subway", "voltage": "600"}}, {"type": "way", "id": 59293824, "nodes": [735214383, 735214787, 735214716], "tags": {"electrified": "rail", "gauge": "1435", "name": "North Side Main Line", "oneway": "yes", "operator": "Chicago Transit Authority", "railway": "subway", "voltage": "600"}}, {"type": "way", "id": 59293827, "nodes": [735214852, 735214913, 735214922, 735214932, 735214943, 735214951, 735214962], "tags": {"electrified": "rail", "frequency": "0", "gauge": "1435", "name": "North Side Main Line", "oneway": "yes", "operator": "Chicago Transit Authority", "railway": "subway", "voltage": "600"}}, {"type": "way", "id": 59293828, "nodes": [735215016, 735215025], "tags": {"electrified": "rail", "frequency": "0", "gauge": "1435", "name": "North Side Main Line", "oneway": "yes", "operator": "Chicago Transit Authority", "railway": "subway", "voltage": "600"}}, {"type": "way", "id": 59293831, "nodes": [735215069, 735215016], "tags": {"bridge": "yes", "electrified": "rail", "frequency": "0", "gauge": "1435", "layer": "1", "name": "North Side Main Line", "oneway": "yes", "operator": "Chicago Transit Authority", "railway": "subway", "voltage": "600"}}, {"type": "way", "id": 59293837, "nodes": [735215102, 735215069], "tags": {"electrified": "rail", "frequency": "0", "gauge": "1435", "name": "North Side Main Line", "oneway": "yes", "operator": "Chicago Transit Authority", "railway": "subway", "voltage": "600"}}, {"type": "way", "id": 59293842, "nodes": [735214610, 735215102], "tags": {"bridge": "yes", "electrified": "rail", "frequency": "0", "gauge": "1435", "layer": "1", "name": "North Side Main Line", "oneway": "yes", "operator": "Chicago Transit Authority", "railway": "subway", "voltage": "600"}}, {"type": "way", "id": 59293862, "nodes": [735215180, 735215186], "tags": {"bridge": "yes", "electrified": "rail", "frequency": "0", "gauge": "1435", "layer": "1", "name": "North Side Main Line", "oneway": "yes", "operator": "Chicago Transit Authority", "railway": "subway", "voltage": "600"}}, {"type": "way", "id": 59293875, "nodes": [735215245, 735215180], "tags": {"electrified": "rail", "frequency": "0", "gauge": "1435", "name": "North Side Main Line", "oneway": "yes", "operator": "Chicago Transit Authority", "railway": "subway", "voltage": "600"}}, {"type": "way", "id": 59293878, "nodes": [735215311, 735215245], "tags": {"bridge": "yes", "electrified": "rail", "frequency": "0", "gauge": "1435", "layer": "1", "name": "North Side Main Line", "oneway": "yes", "operator": "Chicago Transit Authority", "railway": "subway", "voltage": "600"}}, {"type": "way", "id": 59293880, "nodes": [735215357, 735215359, 735215311], "tags": {"electrified": "rail", "frequency": "0", "gauge": "1435", "name": "North Side Main Line", "oneway": "yes", "operator": "Chicago Transit Authority", "railway": "subway", "voltage": "600"}}, {"type": "way", "id": 59293881, "nodes": [735214962, 735215357], "tags": {"bridge": "yes", "electrified": "rail", "frequency": "0", "gauge": "1435", "layer": "1", "name": "North Side Main Line", "oneway": "yes", "operator": "Chicago Transit Authority", "railway": "subway", "voltage": "600"}}, {"type": "way", "id": 59293883, "nodes": [735215403, 735215407, 735215411, 735215417, 735215422, 735215426, 735215435, 735215446, 735215449], "tags": {"electrified": "rail", "frequency": "0", "gauge": "1435", "name": "North Side Main Line", "oneway": "yes", "operator": "Chicago Transit Authority", "railway": "subway", "voltage": "600"}}, {"type": "way", "id": 59293884, "nodes": [735215025, 735215403], "tags": {"bridge": "yes", "electrified": "rail", "frequency": "0", "gauge": "1435", "layer": "1", "name": "North Side Main Line", "oneway": "yes", "operator": "Chicago Transit Authority", "railway": "subway", "voltage": "600"}}, {"type": "way", "id": 59293885, "nodes": [735215505, 735215511, 735215515], "tags": {"electrified": "rail", "frequency": "0", "gauge": "1435", "name": "North Side Main Line", "oneway": "yes", "operator": "Chicago Transit Authority", "railway": "subway", "voltage": "600"}}, {"type": "way", "id": 59293886, "nodes": [735215524, 735215505], "tags": {"bridge": "yes", "electrified": "rail", "frequency": "0", "gauge": "1435", "layer": "1", "name": "North Side Main Line", "oneway": "yes", "operator": "Chicago Transit Authority", "railway": "subway", "voltage": "600"}}, {"type": "way", "id": 59293887, "nodes": [735215186, 735215541, 735215524], "tags": {"electrified": "rail", "frequency": "0", "gauge": "1435", "name": "North Side Main Line", "oneway": "yes", "operator": "Chicago Transit Authority", "railway": "subway", "voltage": "600"}}, {"type": "way", "id": 59293895, "nodes": [735215449, 735215650], "tags": {"bridge": "yes", "electrified": "rail", "frequency": "0", "gauge": "1435", "layer": "1", "name": "North Side Main Line", "oneway": "yes", "operator": "Chicago Transit Authority", "railway": "subway", "voltage": "600"}}, {"type": "way", "id": 59293897, "nodes": [735215702, 735215708, 735214020], "tags": {"electrified": "rail", "gauge": "1435", "name": "North Side Main Line", "oneway": "yes", "operator": "Chicago Transit Authority", "railway": "subway", "voltage": "600"}}, {"type": "way", "id": 59293932, "nodes": [735216321, 735216326, 735214633], "tags": {"electrified": "rail", "frequency": "0", "gauge": "1435", "name": "North Side Main Line", "oneway": "yes", "operator": "Chicago Transit Authority", "railway": "subway", "voltage": "600"}}, {"type": "way", "id": 59294002, "nodes": [735217637, 735214852], "tags": {"bridge": "yes", "electrified": "rail", "frequency": "0", "gauge": "1435", "layer": "1", "name": "North Side Main Line", "oneway": "yes", "operator": "Chicago Transit Authority", "railway": "subway", "voltage": "600"}}, {"type": "way", "id": 59294003, "nodes": [735215650, 2022160080, 2022160066, 389154525, 389154522, 389154521, 389154520, 389154519, 389154477, 389153653, 2022178579, 2023183643, 389153651], "tags": {"electrified": "rail", "frequency": "0", "gauge": "1435", "layer": "1", "name": "North Side Main Line", "oneway": "yes", "operator": "Chicago Transit Authority", "railway": "subway", "voltage": "600"}}, {"type": "way", "id": 109972138, "nodes": [389153650, 2022160107, 2022160052, 252643589, 2022160050, 252643588, 252643587, 2022160122, 252643586, 2022160061, 389154496, 389154495, 252643585, 2023183651, 2023183689, 735217637], "tags": {"electrified": "rail", "frequency": "0", "gauge": "1435", "layer": "1", "name": "North Side Main Line", "oneway": "yes", "operator": "Chicago Transit Authority", "railway": "subway", "voltage": "600"}}, {"type": "way", "id": 191633807, "nodes": [735214206, 2022160057, 2022160063, 2022160044, 2022160039, 2022160121, 2022160049, 2022160042, 2022160078, 2022160091, 2022160096, 2022160094, 2022160069, 2022160079, 2022160067, 2023183644, 2022160077, 2022160100, 2022160104, 2022160068], "tags": {"electrified": "rail", "gauge": "1435", "layer": "1", "name": "North Side Main Line", "oneway": "yes", "operator": "Chicago Transit Authority", "railway": "subway", "voltage": "600"}}, {"type": "way", "id": 191738092, "nodes": [2022160103, 2022160074, 2022160118, 2022160088, 2022160041, 2022160070, 2022160073, 2022160040, 2022160111, 2022160054, 2022160090, 2022160115, 2022160064, 2022160089, 2022160108, 2022160101, 735217625], "tags": {"electrified": "rail", "gauge": "1435", "layer": "1", "name": "North Side Main Line", "oneway": "yes", "operator": "Chicago Transit Authority", "railway": "subway", "voltage": "600"}}, {"type": "way", "id": 209951195, "nodes": [2201030508, 2201030572, 2201030565, 2201030633, 2201030631, 2201030690, 2201030691, 2201030750, 2201030763, 2201030512, 2201030508], "tags": {"addr:housenumber": "1401", "addr:street": "West Devon Avenue", "addr:street:name": "Devon", "addr:street:prefix": "West", "addr:street:type": "Avenue", "amenity": "restaurant", "building": "yes", "building:levels": "1", "chicago:building_id": "25057", "name": "Uncommon Ground"}}, {"type": "way", "id": 209953665, "nodes": [2201050025, 2201050278, 2201050282, 2201050259, 2201050275, 2201050342, 2201050356, 2201050058, 2201050025], "tags": {"addr:housenumber": "6712", "addr:street": "North Clark Street", "addr:street:name": "Clark", "addr:street:prefix": "North", "addr:street:type": "Street", "amenity": "restaurant", "building": "yes", "building:levels": "2", "capacity": "50", "chicago:building_id": "16630", "cuisine": "bakery;coffee", "name": "Sebastian\u2019s Coffee and Bakery", "opening_hours": "Mo-Su 6:00-18:00"}}, {"type": "way", "id": 209957070, "nodes": [2201074220, 2201074224, 2201072810, 2201072801, 2201074220], "tags": {"addr:city": "Chicago", "addr:housenumber": "1406", "addr:postcode": "60626", "addr:state": "IL", "addr:street": "West Morse Avenue", "addr:street:name": "Morse", "addr:street:prefix": "West", "addr:street:type": "Avenue", "amenity": "bar", "building": "yes", "building:levels": "1", "chicago:building_id": "842438", "name": "Pub 626", "phone": "+1-773-764-0626", "website": "http://www.pub626.com/"}}]}