{"version": 0.6, "generator": "Overpass API 0.7.56.3 eb200aeb", "osm3s": {"timestamp_osm_base": "2020-07-04T00:02:03Z", "copyright": "The data included in this document is from www.openstreetmap.org. The data is made available under ODbL."}, "elements": [{"type": "node", "id": 1888612339, "lat": 41.7993839, "lon": -87.5889162, "tags": {"amenity": "restaurant", "cuisine": "italian", "name": "Pizza Capri"}}, {"type": "node", "id": 1888621190, "lat": 41.7996938, "lon": -87.5886587, "tags": {"amenity": "restaurant", "cuisine": "american", "name": "Mellow Yellow"}}, {"type": "node", "id": 1888626512, "lat": 41.7996838, "lon": -87.5883288, "tags": {"amenity": "restaurant", "cuisine": "american", "name": "Valois"}}, {"type": "node", "id": 2212461863, "lat": 41.7990502, "lon": -87.5903004}, {"type": "node", "id": 2212461871, "lat": 41.7990532, "lon": -87.5901225}, {"type": "node", "id": 2212461882, "lat": 41.7990601, "lon": -87.5901224}, {"type": "node", "id": 2212461885, "lat": 41.7990612, "lon": -87.5900912}, {"type": "node", "id": 2212462061, "lat": 41.7991828, "lon": -87.5903036}, {"type": "node", "id": 2212462065, "lat": 41.7991859, "lon": -87.5900953}, {"type": "node", "id": 2625982796, "lat": 41.7998148, "lon": -87.5876046, "tags": {"addr:city": "Chicago", "addr:housenumber": "1530", "addr:postcode": "60615", "addr:state": "IL", "addr:street": "East 53rd Street", "amenity": "cafe", "brand": "Starbucks", "brand:wikidata": "Q37158", "brand:wikipedia": "en:Starbucks", "cuisine": "coffee_shop", "name": "Starbucks", "official_name": "Starbucks Coffee", "takeaway": "yes"}}, {"type": "node", "id": 3218813269, "lat": 41.79896, "lon": -87.5876687, "tags": {"addr:city": "Chicago", "addr:housenumber": "5311", "addr:postcode": "60615", "addr:state": "IL", "addr:street": "South Lake Park Avenue West", "amenity": "restaurant", "bar": "yes", "name": "The Promontory", "outdoor_seating": "yes", "phone": "+1-312-801-2100", "website": "https://www.promontorychicago.com/"}}, {"type": "node", "id": 4114640708, "lat": 41.799405, "lon": -87.5899259, "tags": {"addr:city": "Chicago", "addr:housenumber": "1447", "addr:postcode": "60615", "addr:state": "IL", "addr:street": "East 53rd Street", "amenity": "restaurant", "brand": "Nando's", "brand:wikidata": "Q3472954", "brand:wikipedia": "en:Nando's", "cuisine": "chicken;portuguese", "name": "Nando's"}}, {"type": "node", "id": 4114640709, "lat": 41.799425, "lon": -87.5895057, "tags": {"addr:city": "Chicago", "addr:housenumber": "1459", "addr:postcode": "60615", "addr:state": "IL", "addr:street": "East 53rd Street", "amenity": "restaurant", "cuisine": "indian", "name": "Rajun Cajun"}}, {"type": "node", "id": 4114640710, "lat": 41.799426, "lon": -87.5886398, "tags": {"addr:city": "Chicago", "addr:housenumber": "1509", "addr:postcode": "60615", "addr:state": "IL", "addr:street": "East 53rd Street", "amenity": "restaurant", "cuisine": "asian", "name": "Chant"}}, {"type": "node", "id": 4114697507, "lat": 41.8004149, "lon": -87.5881445, "tags": {"addr:city": "Chicago", "addr:housenumber": "1518", "addr:postcode": "60615", "addr:state": "IL", "addr:street": "East Harper Court", "amenity": "restaurant", "diet:vegan": "yes", "name": "Native Foods Cafe"}}, {"type": "node", "id": 4119093893, "lat": 41.8032008, "lon": -87.5866903, "tags": {"addr:city": "Chicago", "addr:housenumber": "5030", "addr:postcode": "60615", "addr:state": "IL", "addr:street": "South Cornell Avenue", "amenity": "cafe", "internet_access": "wlan", "name": "Bridgeport Coffee", "opening_hours": "Mo-Fr 06:00-20:00; Sa-Su 07:00-20:00", "phone": "+1 773-947-0348", "website": "https://bridgeportcoffee.net/"}}, {"type": "node", "id": 5706244256, "lat": 41.7996677, "lon": -87.5893002, "tags": {"addr:city": "Chicago", "addr:housenumber": "1462", "addr:postcode": "60615", "addr:state": "IL", "addr:street": "East 53rd Street", "amenity": "restaurant", "cuisine": "southern", "name": "Virtue", "phone": "+1-773-947-8831", "website": "https://www.virtuerestaurant.com"}}, {"type": "node", "id": 5873884645, "lat": 41.7991037, "lon": -87.5838597, "tags": {"addr:city": "Chicago", "addr:housenumber": "5319", "addr:postcode": "60615", "addr:state": "IL", "addr:street": "South Hyde Park Boulevard", "amenity": "restaurant", "cuisine": "burger", "name": "Mikkey's Retro Grill", "opening_hours": "Su-Th 11:00-00:00, Fr 11:00-(sunset-00:30), Sa (sunset+00:30)-02:00", "phone": "(773) 675-8525", "website": "http://mikkeys.com/"}}, {"type": "node", "id": 5873900689, "lat": 41.7994936, "lon": -87.5838694, "tags": {"addr:city": "Chicago", "addr:housenumber": "5301", "addr:postcode": "60615", "addr:state": "IL", "addr:street": "South Hyde Park Boulevard", "amenity": "cafe", "cuisine": "coffee_shop", "name": "Sip & Savor", "phone": "+1-773-952-4532", "website": "http://www.sipandsavorchicago.com/"}}, {"type": "node", "id": 5973273795, "lat": 41.7993786, "lon": -87.591926, "tags": {"addr:city": "Chicago", "addr:housenumber": "5300", "addr:postcode": "60615", "addr:state": "IL", "addr:street": "South Dorchester Avenue", "amenity": "restaurant", "cuisine": "mexican", "name": "Hyde Park Taco Station", "website": "http://hptacostation.com/"}}, {"type": "node", "id": 6272547623, "lat": 41.7997751, "lon": -87.5848676, "tags": {"addr:city": "Chicago", "addr:housenumber": "1644", "addr:postcode": "60615", "addr:state": "IL", "addr:street": "East 53rd Street", "amenity": "restaurant", "name": "Bibliophile", "phone": "+1-872-244-3704", "website": "https://www.bibliophile.us"}}, {"type": "node", "id": 6289300231, "lat": 41.7993946, "lon": -87.5861891, "tags": {"addr:city": "Chicago", "addr:housenumber": "1601", "addr:postcode": "60615", "addr:state": "IL", "addr:street": "East 53rd Street", "amenity": "bar", "name": "Falcon Inn"}}, {"type": "node", "id": 6297644045, "lat": 41.801484, "lon": -87.5889339, "tags": {"addr:city": "Chicago", "addr:housenumber": "5121", "addr:postcode": "60615", "addr:state": "IL", "addr:street": "South Harper Avenue", "amenity": "bar", "name": "The Hyde"}}, {"type": "node", "id": 6314468408, "lat": 41.7996538, "lon": -87.5924057, "tags": {"addr:city": "Chicago", "addr:housenumber": "1368", "addr:postcode": "60615", "addr:state": "IL", "addr:street": "East 53rd Street", "amenity": "restaurant", "cuisine": "soul", "name": "The Soul Shack"}}, {"type": "node", "id": 6314861224, "lat": 41.8005317, "lon": -87.5885893, "tags": {"addr:city": "Chicago", "addr:housenumber": "1510", "addr:postcode": "60615", "addr:state": "IL", "addr:street": "East Harper Court", "amenity": "bar", "name": "Ja\u2019 Grill Hyde Park", "phone": "+1-773-752-5375", "website": "http://jagrill.com/"}}, {"type": "node", "id": 6322586993, "lat": 41.7992767, "lon": -87.5915431, "tags": {"addr:city": "Chicago", "addr:housenumber": "1411", "addr:postcode": "60615", "addr:state": "IL", "addr:street": "East 53rd Street", "amenity": "bar", "name": "Mesler Kitchen | Bar | Lounge", "phone": "+1-773-289-1005", "website": "https://sophyhotel.com/mesler-kitchen"}}, {"type": "node", "id": 6848164610, "lat": 41.8022989, "lon": -87.5894227, "tags": {"addr:city": "Chicago", "addr:housenumber": "1461", "addr:postcode": "60615", "addr:state": "IL", "addr:street": "East Hyde Park Boulevard", "amenity": "restaurant", "cuisine": "chicken;caribbean", "name": "Uncle Joe's Jerk Chieken", "phone": "773-241-5550"}}, {"type": "way", "id": 211224886, "nodes": [2212462061, 2212462065, 2212461885, 2212461882, 2212461871, 2212461863, 2212462061], "tags": {"addr:city": "Chicago", "addr:housenumber": "5311", "addr:postcode": "60615", "addr:state": "IL", "addr:street": "South Blackstone Avenue", "addr:street:name": "Blackstone", "addr:street:prefix": "South", "addr:street:type": "Avenue", "amenity": "restaurant", "brand": "Giordano's Pizzeria", "brand:wikidata": "Q5563393", "brand:wikipedia": "en:Giordano's Pizzeria", "building": "retail", "building:levels": "1", "chicago:building_id": "867937", "cuisine": "pizza", "name": "Giordano's Pizzeria"}}]}