{"version": 0.6, "generator": "Overpass API 0.7.56.3 eb200aeb", "osm3s": {"timestamp_osm_base": "2020-07-17T21:20:03Z", "copyright": "The data included in this document is from www.openstreetmap.org. The data is made available under ODbL."}, "elements": [{"type": "node", "id": 261137171, "lat": 41.789634, "lon": -87.5947984}, {"type": "node", "id": 261139500, "lat": 41.7896618, "lon": -87.5915553}, {"type": "node", "id": 261139501, "lat": 41.7896475, "lon": -87.593169}, {"type": "node", "id": 261148611, "lat": 41.7858999, "lon": -87.6028092}, {"type": "node", "id": 261148612, "lat": 41.7840862, "lon": -87.6027672}, {"type": "node", "id": 261157995, "lat": 41.7858843, "lon": -87.6044301}, {"type": "node", "id": 261157996, "lat": 41.7840685, "lon": -87.6043879}, {"type": "node", "id": 261176766, "lat": 41.7859156, "lon": -87.6011868}, {"type": "node", "id": 261176767, "lat": 41.7841039, "lon": -87.6011387}, {"type": "node", "id": 261192484, "lat": 41.7859533, "lon": -87.5979528}, {"type": "node", "id": 261192485, "lat": 41.7841392, "lon": -87.5979008}, {"type": "node", "id": 261192510, "lat": 41.7932495, "lon": -87.5981069}, {"type": "node", "id": 261192511, "lat": 41.7914254, "lon": -87.5980749}, {"type": "node", "id": 261202782, "lat": 41.7914457, "lon": -87.59646, "tags": {"highway": "traffic_signals"}}, {"type": "node", "id": 261217408, "lat": 41.7841214, "lon": -87.599535}, {"type": "node", "id": 261217409, "lat": 41.7841567, "lon": -87.5962901, "tags": {"highway": "traffic_signals"}}, {"type": "node", "id": 261266040, "lat": 41.7858705, "lon": -87.6058578}, {"type": "node", "id": 261266042, "lat": 41.7860071, "lon": -87.5963328}, {"type": "node", "id": 1395196786, "lat": 41.7859795, "lon": -87.596604}, {"type": "node", "id": 1563365772, "lat": 41.7912668, "lon": -87.6019066}, {"type": "node", "id": 1563365773, "lat": 41.7907559, "lon": -87.6021386}, {"type": "node", "id": 1563365774, "lat": 41.790491, "lon": -87.6035521}, {"type": "node", "id": 1563365775, "lat": 41.7911119, "lon": -87.6019441}, {"type": "node", "id": 1563365776, "lat": 41.7908269, "lon": -87.6019709}, {"type": "node", "id": 1563365777, "lat": 41.7912539, "lon": -87.6026039}, {"type": "node", "id": 1563365778, "lat": 41.7912829, "lon": -87.6026066}, {"type": "node", "id": 1563365779, "lat": 41.7907419, "lon": -87.6020997}, {"type": "node", "id": 1563365780, "lat": 41.7909869, "lon": -87.6032222}, {"type": "node", "id": 1563365781, "lat": 41.7907679, "lon": -87.6021171}, {"type": "node", "id": 1563365782, "lat": 41.7907469, "lon": -87.6019951}, {"type": "node", "id": 1563365783, "lat": 41.7912419, "lon": -87.6035762}, {"type": "node", "id": 1563365784, "lat": 41.7910189, "lon": -87.6031927}, {"type": "node", "id": 1563365785, "lat": 41.7912869, "lon": -87.6023947}, {"type": "node", "id": 1563365786, "lat": 41.7912492, "lon": -87.6019069}, {"type": "node", "id": 1563365787, "lat": 41.790495, "lon": -87.6032101}, {"type": "node", "id": 1563365788, "lat": 41.7910179, "lon": -87.6025972}, {"type": "node", "id": 1563365789, "lat": 41.7910299, "lon": -87.602384}, {"type": "node", "id": 1563365790, "lat": 41.7908263, "lon": -87.6019971}, {"type": "node", "id": 1563365791, "lat": 41.7912619, "lon": -87.6023947}, {"type": "node", "id": 1563365792, "lat": 41.791113, "lon": -87.6018713}, {"type": "node", "id": 1563365793, "lat": 41.7912499, "lon": -87.6018755}, {"type": "node", "id": 1563365794, "lat": 41.7909879, "lon": -87.6031927}, {"type": "node", "id": 1563365795, "lat": 41.7909642, "lon": -87.601974}, {"type": "node", "id": 1563365796, "lat": 41.7909989, "lon": -87.6023827}, {"type": "node", "id": 1563365797, "lat": 41.7909959, "lon": -87.6025959}, {"type": "node", "id": 1563365798, "lat": 41.7910289, "lon": -87.6023693}, {"type": "node", "id": 1563365799, "lat": 41.7909652, "lon": -87.6019406}, {"type": "node", "id": 1563375944, "lat": 41.7908254, "lon": -87.6021973}, {"type": "node", "id": 1569129786, "lat": 41.7923579, "lon": -87.5980945}, {"type": "node", "id": 1587772175, "lat": 41.7886413, "lon": -87.5915309}, {"type": "node", "id": 1587883237, "lat": 41.7859329, "lon": -87.5995821, "tags": {"crossing": "no", "highway": "crossing"}}, {"type": "node", "id": 1589258704, "lat": 41.7840598, "lon": -87.6051872}, {"type": "node", "id": 1589258737, "lat": 41.7852525, "lon": -87.605859}, {"type": "node", "id": 1589258757, "lat": 41.7852666, "lon": -87.6051983}, {"type": "node", "id": 1589300557, "lat": 41.7851017, "lon": -87.5963123}, {"type": "node", "id": 1611230374, "lat": 41.7912446, "lon": -87.603355}, {"type": "node", "id": 1630678799, "lat": 41.791168, "lon": -87.5937938}, {"type": "node", "id": 1630678824, "lat": 41.7912689, "lon": -87.5936997}, {"type": "node", "id": 1630678853, "lat": 41.7913847, "lon": -87.5938005}, {"type": "node", "id": 1630678855, "lat": 41.7913861, "lon": -87.5937022}, {"type": "node", "id": 1633485069, "lat": 41.7910104, "lon": -87.5937895}, {"type": "node", "id": 1633485070, "lat": 41.7910118, "lon": -87.5936927}, {"type": "node", "id": 1658287430, "lat": 41.7852235, "lon": -87.5963152}, {"type": "node", "id": 1674040525, "lat": 41.7896504, "lon": -87.5928392}, {"type": "node", "id": 1678655361, "lat": 41.7859378, "lon": -87.5992842}, {"type": "node", "id": 1678655478, "lat": 41.7859433, "lon": -87.5988461}, {"type": "node", "id": 1685262396, "lat": 41.7904707, "lon": -87.5956245}, {"type": "node", "id": 1685262407, "lat": 41.7896407, "lon": -87.5939861}, {"type": "node", "id": 1685262428, "lat": 41.7896269, "lon": -87.5956037}, {"type": "node", "id": 1685262461, "lat": 41.7914529, "lon": -87.5956491}, {"type": "node", "id": 1685296310, "lat": 41.7914355, "lon": -87.5972717}, {"type": "node", "id": 1929835281, "lat": 41.784095, "lon": -87.6019586}, {"type": "node", "id": 1929835313, "lat": 41.7841481, "lon": -87.5970796}, {"type": "node", "id": 1929835332, "lat": 41.7841125, "lon": -87.6003491}, {"type": "node", "id": 1929835339, "lat": 41.7840772, "lon": -87.6035912}, {"type": "node", "id": 1929835452, "lat": 41.7841303, "lon": -87.5987184}, {"type": "node", "id": 2355622331, "lat": 41.7913847, "lon": -87.5937733, "tags": {"entrance": "main"}}, {"type": "node", "id": 2372687526, "lat": 41.7858798, "lon": -87.6048969}, {"type": "node", "id": 2372687562, "lat": 41.7858803, "lon": -87.6048432}, {"type": "node", "id": 2380367815, "lat": 41.7877878, "lon": -87.6059295}, {"type": "node", "id": 2380367821, "lat": 41.7912756, "lon": -87.606037}, {"type": "node", "id": 2406147378, "lat": 41.7859199, "lon": -87.6008144}, {"type": "node", "id": 3034950802, "lat": 41.7803531, "lon": -87.5965069, "tags": {"addr:city": "Chicago", "addr:housenumber": "6300", "addr:postcode": "60637", "addr:street": "South Woodlawn Avenue", "amenity": "cafe", "cuisine": "coffee_shop", "name": "Robust Coffee Lounge", "phone": "+1-773-891-4240", "website": "http://robustcoffeelounge.com/", "wifi": "free"}}, {"type": "node", "id": 3235484969, "lat": 41.7858833, "lon": -87.6045285, "tags": {"highway": "crossing"}}, {"type": "node", "id": 3235484971, "lat": 41.7859502, "lon": -87.5982298, "tags": {"crossing": "no", "highway": "crossing"}}, {"type": "node", "id": 3259301888, "lat": 41.7949312, "lon": -87.5981693}, {"type": "node", "id": 3378979829, "lat": 41.78597, "lon": -87.5962725}, {"type": "node", "id": 3378979830, "lat": 41.78423, "lon": -87.5962296}, {"type": "node", "id": 3378979831, "lat": 41.78427, "lon": -87.5923243}, {"type": "node", "id": 3378979832, "lat": 41.784272, "lon": -87.5922693}, {"type": "node", "id": 3378979833, "lat": 41.78433, "lon": -87.5922184}, {"type": "node", "id": 3378979834, "lat": 41.784916, "lon": -87.5922291}, {"type": "node", "id": 3378979835, "lat": 41.784924, "lon": -87.5914862}, {"type": "node", "id": 3378979837, "lat": 41.786016, "lon": -87.591513}, {"type": "node", "id": 3378979838, "lat": 41.785984, "lon": -87.5945519}, {"type": "node", "id": 3378979839, "lat": 41.785972, "lon": -87.5959225}, {"type": "node", "id": 3378983526, "lat": 41.786014, "lon": -87.5913604}, {"type": "node", "id": 3378983527, "lat": 41.786034, "lon": -87.5894292}, {"type": "node", "id": 3378983528, "lat": 41.78461, "lon": -87.5897511}, {"type": "node", "id": 3378983529, "lat": 41.783746, "lon": -87.5899764}, {"type": "node", "id": 3378983530, "lat": 41.78343, "lon": -87.5900622}, {"type": "node", "id": 3378983531, "lat": 41.783426, "lon": -87.5902124}, {"type": "node", "id": 3378983532, "lat": 41.784654, "lon": -87.5902553}, {"type": "node", "id": 3378983533, "lat": 41.784514, "lon": -87.5904645}, {"type": "node", "id": 3378983534, "lat": 41.784492, "lon": -87.590482}, {"type": "node", "id": 3378983535, "lat": 41.78437, "lon": -87.5907368}, {"type": "node", "id": 3378983536, "lat": 41.784256, "lon": -87.5911257}, {"type": "node", "id": 3378983537, "lat": 41.78425, "lon": -87.5913644}, {"type": "node", "id": 3378983538, "lat": 41.7853, "lon": -87.5913859}, {"type": "node", "id": 3378983539, "lat": 41.786016, "lon": -87.5913939}, {"type": "node", "id": 4047380721, "lat": 41.7841023, "lon": -87.6012858}, {"type": "node", "id": 4047380722, "lat": 41.7841053, "lon": -87.6010158}, {"type": "node", "id": 4047380730, "lat": 41.7859146, "lon": -87.6012933, "tags": {"highway": "crossing"}}, {"type": "node", "id": 4047380731, "lat": 41.7859169, "lon": -87.6010783, "tags": {"highway": "crossing"}}, {"type": "node", "id": 4047380732, "lat": 41.785994, "lon": -87.5964417, "tags": {"highway": "crossing"}}, {"type": "node", "id": 4706138495, "lat": 41.7842732, "lon": -87.6051945}, {"type": "node", "id": 4729938691, "lat": 41.7900203, "lon": -87.5961366, "tags": {"addr:city": "Chicago", "addr:housenumber": "5751", "addr:postcode": "60637", "addr:state": "IL", "addr:street": "South Woodlawn Avenue", "amenity": "cafe", "name": "Plein Air Cafe", "opening_hours": "Mo-Fr 07:00-20:00; Sa-Su 08:00-18:00", "phone": "+1-773-966-7531", "website": "http://www.pleinaircafe.co/"}}, {"type": "node", "id": 4925403556, "lat": 41.7912072, "lon": -87.6039887, "tags": {"addr:city": "Chicago", "addr:housenumber": "5700", "addr:postcode": "60637", "addr:state": "IL", "addr:street": "South Drexel Avenue", "amenity": "cafe", "brand": "Starbucks", "brand:wikidata": "Q37158", "brand:wikipedia": "en:Starbucks", "cuisine": "coffee_shop", "name": "Starbucks", "official_name": "Starbucks Coffee", "opening_hours": "Mo-Fr 06:00-21:00; Sa-Su 07:00-15:00", "outdoor_seating": "no", "takeaway": "yes"}}, {"type": "node", "id": 5243143548, "lat": 41.7897081, "lon": -87.6017075, "tags": {"addr:city": "Chicago", "addr:housenumber": "970", "addr:postcode": "60637", "addr:state": "IL", "addr:street": "East 58th Street", "amenity": "cafe", "brand": "Starbucks", "brand:wikidata": "Q37158", "brand:wikipedia": "en:Starbucks", "cuisine": "coffee_shop", "name": "Starbucks", "official_name": "Starbucks Coffee", "operator": "Starbucks", "takeaway": "yes", "website": "https://www.starbucks.com/"}}, {"type": "node", "id": 5322743176, "lat": 41.7925886, "lon": -87.6060695}, {"type": "node", "id": 5394546338, "lat": 41.7859224, "lon": -87.5963316, "tags": {"highway": "crossing"}}, {"type": "node", "id": 5545781672, "lat": 41.7879529, "lon": -87.5902808}, {"type": "node", "id": 5545781673, "lat": 41.7884906, "lon": -87.5915292}, {"type": "node", "id": 5545781674, "lat": 41.7885077, "lon": -87.5902419}, {"type": "node", "id": 5545781677, "lat": 41.788231, "lon": -87.5902281}, {"type": "node", "id": 5545781678, "lat": 41.7882433, "lon": -87.589449}, {"type": "node", "id": 5546046954, "lat": 41.7884909, "lon": -87.5915063}, {"type": "node", "id": 5546046956, "lat": 41.7879605, "lon": -87.5894438}, {"type": "node", "id": 5546076600, "lat": 41.7905388, "lon": -87.5956262}, {"type": "node", "id": 5622914298, "lat": 41.794856, "lon": -87.6060849}, {"type": "node", "id": 5773699078, "lat": 41.7889997, "lon": -87.5999703, "tags": {"addr:city": "Chicago", "addr:housenumber": "1025", "addr:postcode": "60637", "addr:state": "IL", "addr:street": "East 58th Street", "addr:unit": "basement", "amenity": "cafe", "cuisine": "coffee_shop;sandwich", "name": "Grounds of Being"}}, {"type": "node", "id": 5773800133, "lat": 41.7912253, "lon": -87.5987741, "tags": {"addr:city": "Chicago", "addr:housenumber": "5706", "addr:postcode": "60637", "addr:state": "IL", "addr:street": "South University Avenue", "amenity": "restaurant", "cuisine": "pizza;mexican;asian;indian", "name": "Hutchinson Commons Food Court"}}, {"type": "node", "id": 5827271177, "lat": 41.7859429, "lon": -87.5988791, "tags": {"bus": "yes", "local_ref": "17057", "name": "1111 E 60th Street", "network": "CTA", "operator": "Chicago Transit Authority", "public_transport": "stop_position"}}, {"type": "node", "id": 5827271178, "lat": 41.7859201, "lon": -87.6007936, "tags": {"bus": "yes", "local_ref": "14019", "name": "60th Street & Ellis", "network": "CTA", "operator": "Chicago Transit Authority", "public_transport": "stop_position"}}, {"type": "node", "id": 5827271179, "lat": 41.7859174, "lon": -87.6010195, "tags": {"bus": "yes", "local_ref": "14032", "name": "60th Street & Ellis", "network": "CTA", "operator": "Chicago Transit Authority", "public_transport": "stop_position"}}, {"type": "node", "id": 5827271180, "lat": 41.785893, "lon": -87.6035227, "tags": {"bus": "yes", "local_ref": "18050", "name": "915 E 60th Street", "network": "CTA", "operator": "Chicago Transit Authority", "public_transport": "stop_position"}}, {"type": "node", "id": 5827286705, "lat": 41.7859636, "lon": -87.5972658, "tags": {"bus": "yes", "local_ref": "14020", "name": "60th Street & University", "network": "CTA", "operator": "Chicago Transit Authority", "public_transport": "stop_position"}}, {"type": "node", "id": 5827286706, "lat": 41.7859506, "lon": -87.5981978, "tags": {"bus": "yes", "local_ref": "17903", "name": "60th Street & University", "network": "CTA", "operator": "Chicago Transit Authority", "public_transport": "stop_position"}}, {"type": "node", "id": 5827302680, "lat": 41.7859877, "lon": -87.5965023, "tags": {"bus": "yes", "local_ref": "15433", "name": "60th Street & Woodlawn", "network": "CTA", "operator": "Chicago Transit Authority", "public_transport": "stop_position"}}, {"type": "node", "id": 5885767564, "lat": 41.7949763, "lon": -87.5981734}, {"type": "node", "id": 5935554925, "lat": 41.780531, "lon": -87.6056016, "tags": {"addr:city": "Chicago", "addr:housenumber": "800", "addr:postcode": "60637", "addr:street": "East 63rd Street", "amenity": "restaurant", "cuisine": "american", "name": "Daley's Restaurant", "website": "https://www.daleysrestaurant.com/"}}, {"type": "node", "id": 6294166287, "lat": 41.7879781, "lon": -87.5992704, "tags": {"addr:city": "Chicago", "addr:housenumber": "1116", "addr:postcode": "60637", "addr:state": "IL", "addr:street": "East 59th Street", "amenity": "cafe", "name": "Harper Cafe", "phone": "+1-773-702-8787"}}, {"type": "node", "id": 6324493740, "lat": 41.7880323, "lon": -87.5955645, "tags": {"addr:city": "Chicago", "addr:housenumber": "1212", "addr:postcode": "60637", "addr:state": "IL", "addr:street": "East 59th Street", "amenity": "bar", "name": "The University of Chicago Pub", "phone": "+1-773-702-9737", "website": "http://uofcpub.com/"}}, {"type": "node", "id": 6682404925, "lat": 41.785917, "lon": -87.6010719}, {"type": "node", "id": 7211503770, "lat": 41.7851116, "lon": -87.5963125}, {"type": "node", "id": 7244535738, "lat": 41.7889594, "lon": -87.5915385}, {"type": "way", "id": 142870150, "nodes": [1563365787, 1563365774, 1563365783, 1611230374, 1563365777, 1563365778, 1563365785, 1563365791, 1563365772, 1563365786, 1563365793, 1563365792, 1563365775, 1563365799, 1563365795, 1563365776, 1563365790, 1563365782, 1563365779, 1563365781, 1563365773, 1563375944, 1563365798, 1563365789, 1563365796, 1563365797, 1563365788, 1563365784, 1563365794, 1563365780, 1563365787], "tags": {"addr:city": "Chicago", "addr:housenumber": "929", "addr:postcode": "60637", "addr:state": "IL", "addr:street": "East 57th Street", "amenity": "university", "building": "yes", "building:id": "A86", "building:levels": "4", "chicago:building_id": "815133", "name": "Gordon Center for Integrative Science"}}, {"type": "way", "id": 145510717, "nodes": [261266042, 4047380732, 5827302680, 1395196786, 5827286705, 261192484, 5827286706, 3235484971, 1678655478, 5827271177, 1678655361, 1587883237, 5827271178, 2406147378, 5827271179, 6682404925, 4047380731, 261176766, 4047380730, 261148611, 5827271180, 261157995, 3235484969, 2372687562, 2372687526, 261266040, 1589258737, 1589258757, 4706138495, 1589258704, 261157996, 1929835339, 261148612, 1929835281, 4047380721, 261176767, 4047380722, 1929835332, 261217408, 1929835452, 261192485, 1929835313, 261217409, 1589300557, 7211503770, 1658287430, 5394546338, 261266042], "tags": {"addr:city": "Chicago", "addr:housenumber": "5801", "addr:postcode": "60637", "addr:state": "IL", "addr:street": "South Ellis Avenue", "amenity": "university", "name": "The University of Chicago", "website": "https://uchicago.edu", "wheelchair": "limited"}}, {"type": "way", "id": 145510728, "nodes": [5885767564, 5622914298, 5322743176, 2380367821, 2380367815, 5545781672, 5546046956, 5545781678, 5545781677, 5545781674, 5546046954, 5545781673, 1587772175, 7244535738, 261139500, 1674040525, 261139501, 1685262407, 261137171, 1685262428, 1685262396, 5546076600, 1685262461, 261202782, 1685296310, 261192511, 1569129786, 261192510, 3259301888, 5885767564], "tags": {"addr:city": "Chicago", "addr:housenumber": "5801", "addr:postcode": "60637", "addr:state": "IL", "addr:street": "South Ellis Avenue", "amenity": "university", "name": "The University of Chicago", "phone": "+1 773.702.1234", "website": "https://uchicago.edu", "wikidata": "Q131252", "wikipedia": "en:University of Chicago"}}, {"type": "way", "id": 226829154, "nodes": [1630678853, 2355622331, 1630678855, 1630678824, 1633485070, 1633485069, 1630678799, 1630678853], "tags": {"addr:city": "Chicago", "addr:housenumber": "1327", "addr:postcode": "60637", "addr:state": "IL", "addr:street": "East 57th Street", "addr:street:name": "57th", "addr:street:prefix": "East", "addr:street:type": "Street", "amenity": "restaurant", "building": "retail", "building:levels": "2", "chicago:building_id": "491744", "name": "Medici on 57th", "website": "http://www.medici57.com", "wheelchair": "limited"}}, {"type": "way", "id": 330872732, "nodes": [3378979829, 3378979830, 3378979831, 3378979832, 3378979833, 3378979834, 3378979835, 3378979837, 3378979838, 3378979839, 3378979829], "tags": {"addr:city": "Chicago", "addr:housenumber": "5801", "addr:postcode": "60637", "addr:state": "IL", "addr:street": "South Ellis Avenue", "amenity": "university", "name": "The University of Chicago", "website": "https://uchicago.edu", "wikidata": "Q131252", "wikipedia": "en:University of Chicago"}}, {"type": "way", "id": 330872770, "nodes": [3378983526, 3378983527, 3378983528, 3378983529, 3378983530, 3378983531, 3378983532, 3378983533, 3378983534, 3378983535, 3378983536, 3378983537, 3378983538, 3378983539, 3378983526], "tags": {"addr:city": "Chicago", "addr:housenumber": "5801", "addr:postcode": "60637", "addr:state": "IL", "addr:street": "South Ellis Avenue", "amenity": "university", "name": "The University of Chicago", "website": "https://uchicago.edu", "wikidata": "Q131252", "wikipedia": "en:University of Chicago"}}]}