{"version": 0.6, "generator": "Overpass API 0.7.56.1004 6cd3eaec", "osm3s": {"timestamp_osm_base": "2020-07-21T23:46:02Z", "copyright": "The data included in this document is from www.openstreetmap.org. The data is made available under ODbL."}, "elements": [{"type": "node", "id": 1370035488, "lat": 41.9692506, "lon": -87.6600193, "tags": {"addr:city": "Chicago", "addr:housenumber": "4802", "addr:postcode": "60640", "addr:state": "IL", "addr:street": "North Broadway", "amenity": "bar", "name": "Green Mill Cocktail Lounge", "phone": "+1-773-878-5552", "website": "http://www.greenmilljazz.com/"}}, {"type": "node", "id": 1719743446, "lat": 41.9669515, "lon": -87.6672606, "tags": {"amenity": "cafe", "cuisine": "coffee_shop", "name": "Ch'ava... a cafe"}}, {"type": "node", "id": 1719743519, "lat": 41.9653337, "lon": -87.6727215, "tags": {"amenity": "restaurant", "cuisine": "sushi", "name": "Fin"}}, {"type": "node", "id": 2200917080, "lat": 41.9686022, "lon": -87.6713361}, {"type": "node", "id": 2200917091, "lat": 41.9686053, "lon": -87.6711669}, {"type": "node", "id": 2200917193, "lat": 41.9686489, "lon": -87.6713375}, {"type": "node", "id": 2200917194, "lat": 41.9686491, "lon": -87.6713706}, {"type": "node", "id": 2200917340, "lat": 41.9687287, "lon": -87.6713734}, {"type": "node", "id": 2200917344, "lat": 41.9687298, "lon": -87.6713385}, {"type": "node", "id": 2200917381, "lat": 41.9687463, "lon": -87.6713401}, {"type": "node", "id": 2200917392, "lat": 41.9687494, "lon": -87.6711709}, {"type": "node", "id": 2200948353, "lat": 41.9776534, "lon": -87.6679122}, {"type": "node", "id": 2200948373, "lat": 41.9776608, "lon": -87.6682413}, {"type": "node", "id": 2200948910, "lat": 41.9777809, "lon": -87.6679072}, {"type": "node", "id": 2200948926, "lat": 41.9777883, "lon": -87.6682345}, {"type": "node", "id": 2200949127, "lat": 41.9778561, "lon": -87.6679947}, {"type": "node", "id": 2200949157, "lat": 41.9778624, "lon": -87.6682337}, {"type": "node", "id": 2200949338, "lat": 41.9779324, "lon": -87.6682311}, {"type": "node", "id": 2200949352, "lat": 41.9779354, "lon": -87.6679909}, {"type": "node", "id": 2200954935, "lat": 41.9792686, "lon": -87.6677207}, {"type": "node", "id": 2200954996, "lat": 41.9792794, "lon": -87.668173}, {"type": "node", "id": 2200955527, "lat": 41.9794003, "lon": -87.6677157}, {"type": "node", "id": 2200955575, "lat": 41.9794111, "lon": -87.6681679}, {"type": "node", "id": 2200965036, "lat": 41.980442, "lon": -87.6687052}, {"type": "node", "id": 2200965045, "lat": 41.9804438, "lon": -87.6685581}, {"type": "node", "id": 2200965051, "lat": 41.9804446, "lon": -87.668444}, {"type": "node", "id": 2200965282, "lat": 41.9804831, "lon": -87.6687103}, {"type": "node", "id": 2200965299, "lat": 41.9804847, "lon": -87.668736}, {"type": "node", "id": 2200965387, "lat": 41.9804976, "lon": -87.668598}, {"type": "node", "id": 2200965399, "lat": 41.9804988, "lon": -87.6685704}, {"type": "node", "id": 2200965486, "lat": 41.9805108, "lon": -87.6687394}, {"type": "node", "id": 2200965994, "lat": 41.9805111, "lon": -87.6685574}, {"type": "node", "id": 2200965996, "lat": 41.9805112, "lon": -87.6685721}, {"type": "node", "id": 2200965999, "lat": 41.9805113, "lon": -87.6685978}, {"type": "node", "id": 2200966017, "lat": 41.9805132, "lon": -87.6684525}, {"type": "node", "id": 2204584122, "lat": 41.9683778, "lon": -87.6602536}, {"type": "node", "id": 2204584132, "lat": 41.9683841, "lon": -87.6597836}, {"type": "node", "id": 2204584187, "lat": 41.9684294, "lon": -87.6602531}, {"type": "node", "id": 2204584189, "lat": 41.9684313, "lon": -87.6601133}, {"type": "node", "id": 2204584285, "lat": 41.9684918, "lon": -87.6601421}, {"type": "node", "id": 2204584287, "lat": 41.968493, "lon": -87.6601127}, {"type": "node", "id": 2204584306, "lat": 41.9685179, "lon": -87.6601444}, {"type": "node", "id": 2204584311, "lat": 41.9685199, "lon": -87.659787}, {"type": "node", "id": 2204658434, "lat": 41.97982, "lon": -87.6552711}, {"type": "node", "id": 2204658435, "lat": 41.9798212, "lon": -87.6552269}, {"type": "node", "id": 2204658446, "lat": 41.9798366, "lon": -87.6555136}, {"type": "node", "id": 2204658451, "lat": 41.979841, "lon": -87.6553279}, {"type": "node", "id": 2204658457, "lat": 41.9798504, "lon": -87.6553002}, {"type": "node", "id": 2204658458, "lat": 41.9798506, "lon": -87.6553278}, {"type": "node", "id": 2204658461, "lat": 41.9798559, "lon": -87.655302}, {"type": "node", "id": 2204658463, "lat": 41.9798571, "lon": -87.6552725}, {"type": "node", "id": 2204658469, "lat": 41.9798631, "lon": -87.6555961}, {"type": "node", "id": 2204658471, "lat": 41.979864, "lon": -87.6555152}, {"type": "node", "id": 2204658501, "lat": 41.9798847, "lon": -87.655298}, {"type": "node", "id": 2204658502, "lat": 41.9798857, "lon": -87.6552299}, {"type": "node", "id": 2204658532, "lat": 41.9799414, "lon": -87.6556008}, {"type": "node", "id": 2204658535, "lat": 41.9799436, "lon": -87.6555125}, {"type": "node", "id": 2204658536, "lat": 41.9799452, "lon": -87.6553268}, {"type": "node", "id": 2204658538, "lat": 41.9799464, "lon": -87.655301}, {"type": "node", "id": 2204658544, "lat": 41.9799518, "lon": -87.6555143}, {"type": "node", "id": 2204658545, "lat": 41.9799562, "lon": -87.6553266}, {"type": "node", "id": 2204658551, "lat": 41.9800661, "lon": -87.6597738}, {"type": "node", "id": 2204658552, "lat": 41.9800688, "lon": -87.6595384}, {"type": "node", "id": 2204658553, "lat": 41.9800758, "lon": -87.6597866}, {"type": "node", "id": 2204658611, "lat": 41.9801905, "lon": -87.6596953}, {"type": "node", "id": 2204658617, "lat": 41.9801923, "lon": -87.6595408}, {"type": "node", "id": 2204658629, "lat": 41.9801998, "lon": -87.659789}, {"type": "node", "id": 2204658633, "lat": 41.9802028, "lon": -87.659697}, {"type": "node", "id": 2274368662, "lat": 41.9651576, "lon": -87.6620866, "tags": {"addr:city": "Chicago", "addr:housenumber": "1265", "addr:street": "West Wilson Avenue", "amenity": "restaurant", "brand": "Godfather's Pizza", "brand:wikidata": "Q5576353", "brand:wikipedia": "en:Godfather's Pizza", "cuisine": "pizza", "name": "Godfather's Pizza", "phone": "773-878-8600", "website": "http://www.thegodfatherspizza.com/"}}, {"type": "node", "id": 2323580274, "lat": 41.9760684, "lon": -87.6688893, "tags": {"addr:city": "Chicago", "addr:housenumber": "1509", "addr:state": "IL", "addr:street": "West Foster Avenue", "amenity": "restaurant", "cuisine": "lebanese;middle_eastern", "name": "Taste of Lebanon", "phone": "+1-773-334-1600"}}, {"type": "node", "id": 2458242043, "lat": 41.9700956, "lon": -87.6599579, "tags": {"addr:city": "Chicago", "addr:housenumber": "4840", "addr:postcode": "60640", "addr:state": "IL", "addr:street": "North Broadway", "amenity": "bar", "name": "Fat Cat", "phone": "+1-773-506-3100", "website": "https://www.fatcatbar.com"}}, {"type": "node", "id": 2641611905, "lat": 41.9727857, "lon": -87.6595045, "tags": {"amenity": "restaurant", "cuisine": "vietnamese;noodle", "name": "Ph\u1edf Vi\u1ec7t", "name:vi": "Ph\u1edf Vi\u1ec7t"}}, {"type": "node", "id": 2843123447, "lat": 41.9747719, "lon": -87.660074, "tags": {"amenity": "restaurant", "name": "Pho Lily", "source": "local_knowledge"}}, {"type": "node", "id": 2969794936, "lat": 41.9779031, "lon": -87.6685295, "tags": {"amenity": "restaurant", "name": "Lady Gregory's", "smoking": "no", "wheelchair": "yes"}}, {"type": "node", "id": 2969794937, "lat": 41.9781363, "lon": -87.6685161, "tags": {"amenity": "cafe", "brand": "Starbucks", "brand:wikidata": "Q37158", "brand:wikipedia": "en:Starbucks", "cuisine": "coffee_shop", "name": "Starbucks", "official_name": "Starbucks Coffee", "takeaway": "yes"}}, {"type": "node", "id": 3015681544, "lat": 41.9783825, "lon": -87.6684939, "tags": {"amenity": "restaurant", "name": "Acre"}}, {"type": "node", "id": 3015683269, "lat": 41.9764623, "lon": -87.6685637, "tags": {"amenity": "restaurant", "cuisine": "thai", "name": "Polygon Cafe"}}, {"type": "node", "id": 3015683270, "lat": 41.9765959, "lon": -87.668561, "tags": {"addr:city": "Chicago", "addr:housenumber": "5210", "addr:postcode": "60640", "addr:state": "IL", "addr:street": "North Clark Street", "amenity": "bar", "name": "Simon's Tavern", "phone": "+1-773-878-0894"}}, {"type": "node", "id": 3015683272, "lat": 41.9772838, "lon": -87.6685369, "tags": {"addr:city": "Chicago", "addr:housenumber": "5236", "addr:postcode": "60640", "addr:state": "IL", "addr:street": "North Clark Street", "amenity": "restaurant", "name": "Svea Restaurant", "phone": "+1-773-275-7738"}}, {"type": "node", "id": 3015695204, "lat": 41.9781128, "lon": -87.6688473, "tags": {"amenity": "restaurant", "cuisine": "pizza", "name": "Ranalli's"}}, {"type": "node", "id": 3021698643, "lat": 41.9691952, "lon": -87.6591845, "tags": {"addr:city": "Chicago", "addr:housenumber": "1136", "addr:postcode": "60640", "addr:state": "IL", "addr:street": "West Lawrence Avenue", "amenity": "bar", "name": "Uptown Lounge", "phone": "+1-773-878-1136", "website": "https://uptownlounge.net/"}}, {"type": "node", "id": 3076192233, "lat": 41.973984, "lon": -87.6552843, "tags": {"addr:city": "Chicago", "addr:housenumber": "5020", "addr:postcode": "60640", "addr:state": "IL", "addr:street": "North Sheridan Road", "amenity": "restaurant", "name": "Tweet", "payment:cash": "yes", "phone": "+1-773-728-5576", "website": "http://tweet.biz/"}}, {"type": "node", "id": 3523827330, "lat": 41.9760509, "lon": -87.668588, "tags": {"addr:city": "Chicago", "addr:housenumber": "5158", "addr:postcode": "60640", "addr:state": "IL", "addr:street": "North Clark Street", "amenity": "cafe", "cuisine": "coffee_shop", "internet_access": "wlan", "name": "La Colombe Coffee", "phone": "+1-773-942-7090", "smoking": "no", "website": "https://www.lacolombe.com/"}}, {"type": "node", "id": 3778783072, "lat": 41.966979, "lon": -87.6665877, "tags": {"addr:city": "Chicago", "addr:housenumber": "1463", "addr:postcode": "60640", "addr:state": "IL", "addr:street": "West Leland Avenue", "amenity": "restaurant", "capacity": "55", "cuisine": "Traditional_Catering", "name": "Brix Catering", "website": "http://www.brixcatering.com/"}}, {"type": "node", "id": 3784144930, "lat": 41.968987, "lon": -87.6733021, "tags": {"amenity": "restaurant", "cuisine": "mexican", "name": "Garcia's Restaurant", "takeaway": "yes"}}, {"type": "node", "id": 3891833604, "lat": 41.9766514, "lon": -87.6685596, "tags": {"addr:housenumber": "5212", "addr:postcode": "60640", "addr:street": "North Clark Street", "amenity": "restaurant", "cuisine": "french", "name": "Pastoral", "opening_hours": "Mo-Sa 11:00-21:00; Su 11:00-18:00"}}, {"type": "node", "id": 4069272054, "lat": 41.9669571, "lon": -87.6669218, "tags": {"addr:city": "Chicago", "addr:housenumber": "4659", "addr:postcode": "60640", "addr:state": "IL", "addr:street": "North Clark Street", "amenity": "bar", "name": "Carol's Pub", "phone": "+1-773-754-8000", "source": "http://www.yelp.com/biz/carols-pub-chicago", "website": "https://carolschicago.com/"}}, {"type": "node", "id": 4533253072, "lat": 41.9804744, "lon": -87.6681411, "tags": {"addr:city": "Chicago", "addr:country": "US", "addr:housenumber": "5419", "addr:postcode": "60640", "addr:state": "IL", "addr:street": "North Clark Street", "amenity": "restaurant", "cuisine": "sandwich", "name": "Jerry's Sandwiches", "wheelchair": "yes"}}, {"type": "node", "id": 4726171693, "lat": 41.9676883, "lon": -87.6578892, "tags": {"addr:street": "North Broadway", "amenity": "restaurant", "cuisine": "japanese;sushi", "name": "Agami", "name:en": "Agami", "opening_hours": "Mo-Su 16:00-23:00"}}, {"type": "node", "id": 4729742490, "lat": 41.9651973, "lon": -87.6633434, "tags": {"addr:city": "Chicago", "addr:housenumber": "1325", "addr:postcode": "60640", "addr:state": "IL", "addr:street": "West Wilson Avenue", "amenity": "cafe", "name": "Heritage Outpost", "opening_hours": "Su-Th 07:00-19:00; Fr-Sa 07:00-21:00", "phone": "+1-872-806-0639", "website": "https://www.heritagebicycles.com/pages/heritage-outpost"}}, {"type": "node", "id": 4729744589, "lat": 41.9691981, "lon": -87.6559084, "tags": {"addr:city": "Chicago", "addr:housenumber": "1020", "addr:postcode": "60640", "addr:state": "IL", "addr:street": "West Lawrence Avenue", "amenity": "cafe", "name": "Heritage Outpost", "opening_hours": "Mo-Su 07:00-19:00", "phone": "+1-773-961-7583", "website": "https://www.heritagebicycles.com/"}}, {"type": "node", "id": 4837409787, "lat": 41.9797035, "lon": -87.6603305, "tags": {"addr:city": "Chicago", "addr:housenumber": "5352", "addr:postcode": "60640", "addr:state": "IL", "addr:street": "North Broadway", "amenity": "restaurant", "name": "Pearl's Southern Comfort", "opening_hours": "Mo-Th 17:00-23:00, 09:00-18:00; Fr 17:00-00:00; Sa 11:00-00:00; Su 22:00-21:00", "phone": "+1-773-754-7419", "website": "https://www.pearlschicago.com/"}}, {"type": "node", "id": 4932746033, "lat": 41.9739542, "lon": -87.659058, "tags": {"addr:city": "Chicago", "addr:housenumber": "5041", "addr:postcode": "60640", "addr:state": "IL", "addr:street": "North Broadway", "amenity": "restaurant", "cuisine": "chinese;bbq;barbecue;barbeque", "name": "Sun Wah Bar-B-Que", "opening_hours": "Su-We 09:00-21:00; Fr-Sa 09:00-22:00", "phone": "+1-773-769-1254", "website": "http://sunwahbbq.com/"}}, {"type": "node", "id": 5168249136, "lat": 41.9807643, "lon": -87.6603949, "tags": {"addr:city": "Chicago", "addr:housenumber": "5424", "addr:postcode": "60640", "addr:state": "IL", "addr:street": "North Broadway", "amenity": "restaurant", "description": "Bib Gourmand recommendation", "name": "Herb Restaurant", "opening_hours": "Th-Su 17:00-22:00", "phone": "+1-773-944-9050", "website": "https://www.herbrestaurant.com/"}}, {"type": "node", "id": 5330560153, "lat": 41.9692952, "lon": -87.6557443, "tags": {"addr:city": "Chicago", "addr:housenumber": "1020", "addr:postcode": "60640", "addr:state": "IL", "addr:street": "West Lawrence Avenue", "amenity": "bar", "name": "Larry's", "phone": "+1-312-841-7149", "website": "https://www.larryschicago.com/"}}, {"type": "node", "id": 5347947503, "lat": 41.9691683, "lon": -87.659429, "tags": {"addr:city": "Chicago", "addr:housenumber": "4801", "addr:postcode": "60640", "addr:state": "IL", "addr:street": "North Broadway", "amenity": "restaurant", "name": "Demera Ethiopian Restaurant", "phone": "+1-773-334-8787", "website": "http://demerachicago.com/"}}, {"type": "node", "id": 5559919114, "lat": 41.9655203, "lon": -87.6586425, "tags": {"addr:city": "Chicago", "addr:housenumber": "1122", "addr:postcode": "60640", "addr:state": "IL", "addr:street": "West Wilson Avenue", "amenity": "cafe", "cuisine": "donut", "name": "Uptown Donuts"}}, {"type": "node", "id": 5916831322, "lat": 41.9650574, "lon": -87.6538162, "tags": {"addr:city": "Chicago", "addr:housenumber": "93", "addr:postcode": "60640", "addr:state": "IL", "addr:street": "West Wilson Avenue", "amenity": "cafe", "name": "Everybody's Coffee", "phone": "+1-773-303-6220", "website": "https://everybodyscoffee.com/"}}, {"type": "node", "id": 5975176873, "lat": 41.9693272, "lon": -87.6598903, "tags": {"addr:city": "Chicago", "addr:housenumber": "4806", "addr:postcode": "60640", "addr:state": "IL", "addr:street": "North Broadway", "amenity": "restaurant", "name": "Fiesta Mexicana Restaurant", "opening_hours": "Mo-Th,Su 10:00-00:00; Fr-Sa 10:00-02:00", "phone": "773-769-4244", "website": "https://www.fiestamexicanachicago.com/"}}, {"type": "node", "id": 6177109638, "lat": 41.9740482, "lon": -87.6551479, "tags": {"addr:city": "Chicago", "addr:housenumber": "5024", "addr:postcode": "60640", "addr:state": "IL", "addr:street": "North Sheridan Road", "amenity": "bar", "brewery": "yes", "name": "Big Chicks", "outdoor_seating": "yes", "phone": "+1-773-728-5511", "smoking": "no", "website": "http://www.bigchicks.com/"}}, {"type": "node", "id": 6177109651, "lat": 41.9750311, "lon": -87.6554727, "tags": {"addr:city": "Chicago", "addr:housenumber": "5060", "addr:postcode": "60640", "addr:state": "IL", "addr:street": "North Sheridan Road", "amenity": "restaurant", "cuisine": "indian;pakistani", "name": "Shan Food"}}, {"type": "node", "id": 6261223616, "lat": 41.9801614, "lon": -87.6684822, "tags": {"addr:city": "Chicago", "addr:housenumber": "5402", "addr:postcode": "60640", "addr:state": "IL", "addr:street": "North Clark Street", "amenity": "bar", "name": "Andersonville Brewing Co", "phone": "+1-773-784-6969", "website": "http://andersonvillebrewing.com"}}, {"type": "node", "id": 6265061933, "lat": 41.9730443, "lon": -87.6600792, "tags": {"addr:city": "Chicago", "addr:housenumber": "5010", "addr:postcode": "60640", "addr:state": "IL", "addr:street": "North Broadway", "alt_name": "Bamb\u016b", "amenity": "cafe", "brand": "Bambu", "brand:wikidata": "Q83437245", "cuisine": "vietnamese;bubble_tea", "disused:office": "estate_agent", "name": "Bambu", "old_name": "Pacific Realty, Incorporated", "phone": "+1-773-293-7234"}}, {"type": "node", "id": 6265199894, "lat": 41.9745124, "lon": -87.6680529, "tags": {"addr:city": "Chicago", "addr:housenumber": "5101", "addr:postcode": "60640", "addr:state": "IL", "addr:street": "North Clark Street", "amenity": "bar", "name": "Bar Roma", "phone": "+1-773-942-7572", "website": "https://www.barromachicago.com/"}}, {"type": "node", "id": 6267247639, "lat": 41.9794434, "lon": -87.6679813, "tags": {"addr:city": "Chicago", "addr:housenumber": "5347", "addr:postcode": "60640", "addr:state": "IL", "addr:street": "North Clark Street", "amenity": "restaurant", "cuisine": "southern", "name": "Big Jones", "phone": "+1-773-275-5725", "website": "https://bigjoneschicago.com"}}, {"type": "node", "id": 6269046562, "lat": 41.9668838, "lon": -87.6587377, "tags": {"addr:city": "Chicago", "addr:housenumber": "4663", "addr:postcode": "60640", "addr:state": "IL", "addr:street": "North Broadway", "amenity": "restaurant", "name": "Brass Heart", "phone": "+1-773-564-9680", "website": "https://brassheartrestaurant.com/"}}, {"type": "node", "id": 6269353288, "lat": 41.9801437, "lon": -87.659778, "tags": {"addr:city": "Chicago", "addr:housenumber": "5401", "addr:postcode": "60640", "addr:state": "IL", "addr:street": "North Broadway", "amenity": "bar", "name": "Burke\u2019s Public House", "phone": "+1-773-944-1109", "website": "http://www.burkespublichouse.com/"}}, {"type": "node", "id": 6282458559, "lat": 41.9670373, "lon": -87.6664264, "tags": {"addr:city": "Chicago", "addr:housenumber": "1465", "addr:postcode": "60640", "addr:state": "IL", "addr:street": "West Leland Avenue", "amenity": "restaurant", "name": "Chicago Grilled Cheese & Mac Factory", "phone": "+1-773-253-5322"}}, {"type": "node", "id": 6282468962, "lat": 41.9779652, "lon": -87.6602233, "tags": {"addr:city": "Chicago", "addr:housenumber": "5256", "addr:postcode": "60640", "addr:state": "IL", "addr:street": "North Broadway", "amenity": "cafe", "name": "Chicago Grind", "phone": "+1-773-784-1305", "website": "https://www.chicagogrind.com/"}}, {"type": "node", "id": 6286620875, "lat": 41.9655242, "lon": -87.6605853, "tags": {"addr:city": "Chicago", "addr:housenumber": "1224", "addr:postcode": "60640", "addr:state": "IL", "addr:street": "West Wilson Avenue", "amenity": "cafe", "name": "Emerald City Coffee", "phone": "+1-773-944-0227", "website": "https://emeraldcitychicago.com/"}}, {"type": "node", "id": 6289073098, "lat": 41.9734577, "lon": -87.6552722, "tags": {"addr:city": "Chicago", "addr:housenumber": "1002", "addr:postcode": "60640", "addr:state": "IL", "addr:street": "West Argyle Street", "amenity": "restaurant", "cuisine": "fine_dining;european", "name": "Rhapsody on Argyle", "old_name": "Masala", "opening_hours": "Tu-Th 17:00-21:00; Fr-Sa 17:00-22:00; Su 10:00-14:00; 17:00-21:00", "phone": "+1-773-769-5555", "website": "https://www.rhapsodyonargyle.com/"}}, {"type": "node", "id": 6289447621, "lat": 41.9774135, "lon": -87.6685818, "tags": {"addr:city": "Chicago", "addr:housenumber": "5240", "addr:postcode": "60640", "addr:state": "IL", "addr:street": "North Clark Street", "amenity": "bar", "name": "Farraguts", "phone": "+1-773-728-4903"}}, {"type": "node", "id": 6290101163, "lat": 41.9731287, "lon": -87.65722, "tags": {"addr:city": "Chicago", "addr:housenumber": "1057", "addr:postcode": "60640", "addr:state": "IL", "addr:street": "West Argyle Street", "amenity": "cafe", "name": "First Sip Cafe", "website": "https://www.firstsip.cafe/"}}, {"type": "node", "id": 6290121597, "lat": 41.979712, "lon": -87.6693329, "tags": {"addr:city": "Chicago", "addr:housenumber": "5357", "addr:postcode": "60640", "addr:state": "IL", "addr:street": "North Ashland Avenue", "amenity": "cafe", "name": "First Slice Pie Cafe", "phone": "+1-773-275-4297", "website": "http://firstslice.org/"}}, {"type": "node", "id": 6291660216, "lat": 41.9660702, "lon": -87.6576166, "tags": {"addr:city": "Chicago", "addr:housenumber": "4621", "addr:postcode": "60640", "addr:state": "IL", "addr:street": "North Broadway", "amenity": "restaurant", "name": "Futatsuki Ramen", "phone": "+1-773-561-9999"}}, {"type": "node", "id": 6297203326, "lat": 41.9728441, "lon": -87.6677597, "tags": {"addr:city": "Chicago", "addr:housenumber": "5009", "addr:postcode": "60640", "addr:state": "IL", "addr:street": "North Clark Street", "amenity": "restaurant", "name": "Hot\u201dG\u201dDog", "phone": "+1-773-209-3360", "website": "http://www.hotgdog.com/"}}, {"type": "node", "id": 6300884673, "lat": 41.9780262, "lon": -87.6580726, "tags": {"addr:city": "Chicago", "addr:housenumber": "1107", "addr:postcode": "60640", "addr:state": "IL", "addr:street": "West Berwyn Avenue", "amenity": "cafe", "name": "Rewired caf\u00e9- Edgewater"}}, {"type": "node", "id": 6300986791, "lat": 41.9687678, "lon": -87.6677665, "tags": {"addr:city": "Chicago", "addr:housenumber": "4758", "addr:postcode": "60640", "addr:state": "IL", "addr:street": "North Clark Street", "amenity": "cafe", "name": "Ridman\u2019s Coffee", "phone": "+1-773-293-6033", "website": "https://www.ridmanscoffee.com/"}}, {"type": "node", "id": 6303095843, "lat": 41.9731106, "lon": -87.6595055, "tags": {"addr:city": "Chicago", "addr:housenumber": "4953", "addr:postcode": "60640", "addr:state": "IL", "addr:street": "North Broadway", "amenity": "restaurant", "cuisine": "vietnamese;noodle", "name": "Ph\u1edf Xe T\u0103ng;Tank Noodle", "name:en": "Tank Noodle", "name:vi": "Ph\u1edf Xe T\u0103ng", "phone": "+1-773-878-2253", "website": "https://www.tank-noodle.com/"}}, {"type": "node", "id": 6304582828, "lat": 41.9662225, "lon": -87.6666746, "tags": {"addr:city": "Chicago", "addr:housenumber": "4631", "addr:postcode": "60640", "addr:state": "IL", "addr:street": "North Clark Street", "amenity": "restaurant", "name": "Tiztal Cafe", "phone": "+1-773-271-4631"}}, {"type": "node", "id": 6305280634, "lat": 41.9731844, "lon": -87.668386, "tags": {"addr:city": "Chicago", "addr:housenumber": "5022", "addr:postcode": "60640", "addr:state": "IL", "addr:street": "North Clark Street", "amenity": "restaurant", "name": "The Bongo Room", "phone": "+1-773-728-7900", "website": "http://thebongoroom.com/"}}, {"type": "node", "id": 6315657963, "lat": 41.9700598, "lon": -87.6601561, "tags": {"addr:city": "Chicago", "addr:housenumber": "4830", "addr:postcode": "60640", "addr:state": "IL", "addr:street": "North Broadway", "amenity": "bar", "name": "Uptown Arcade", "phone": "+1-312-219-2699", "website": "http://www.uptownarcadechicago.com/"}}, {"type": "node", "id": 6315669443, "lat": 41.973745, "lon": -87.6551533, "tags": {"addr:city": "Chicago", "addr:housenumber": "5019", "addr:postcode": "60640", "addr:state": "IL", "addr:street": "North Sheridan Road", "amenity": "cafe", "name": "Uptown Cafe & Gallery", "phone": "+1-773-828-9829", "website": "http://uptowncafechicago.com/"}}, {"type": "node", "id": 6315730325, "lat": 41.9734441, "lon": -87.6555499, "tags": {"addr:city": "Chicago", "addr:housenumber": "1010", "addr:postcode": "60640", "addr:state": "IL", "addr:street": "West Argyle Street", "amenity": "restaurant", "cuisine": "vietnamese;noodle", "name": "Uptown Ph\u1edf", "old_name": "Ph\u1edf T\u00e0u Bay", "old_name:vi": "Ph\u1edf T\u00e0u Bay", "phone": "+1-773-878-8820"}}, {"type": "node", "id": 6319191938, "lat": 41.9803189, "lon": -87.6679841, "tags": {"addr:city": "Chicago", "addr:housenumber": "5413", "addr:postcode": "60640", "addr:state": "IL", "addr:street": "North Clark Street", "amenity": "cafe", "name": "Kanela Breakfast Club", "phone": "+1-773-594-2874", "website": "http://www.kanelabreakfastclub.com/"}}, {"type": "node", "id": 6319786871, "lat": 41.9786069, "lon": -87.6680331, "tags": {"addr:city": "Chicago", "addr:housenumber": "1553", "addr:postcode": "60640", "addr:state": "IL", "addr:street": "North Clark Street", "amenity": "cafe", "name": "Kopi Travelers Cafe", "phone": "+1-773-989-5674", "website": "https://www.kopicafechicago.com/"}}, {"type": "node", "id": 6320619992, "lat": 41.9786276, "lon": -87.6685919, "tags": {"addr:city": "Chicago", "addr:housenumber": "5318", "addr:postcode": "60640", "addr:state": "IL", "addr:street": "North Clark Street", "amenity": "cafe", "name": "Lost Larson Bakery", "phone": "+1-773-944-0587", "website": "https://www.lostlarson.com/"}}, {"type": "node", "id": 6321566926, "lat": 41.9797016, "lon": -87.6687391, "tags": {"addr:city": "Chicago", "addr:housenumber": "1511", "addr:postcode": "60640", "addr:state": "IL", "addr:street": "West Balmoral Avenue", "amenity": "bar", "name": "Marty\u2019s Martini Bar", "phone": "+1-773-944-0082"}}, {"type": "node", "id": 6321606369, "lat": 41.9659551, "lon": -87.6666497, "tags": {"addr:city": "Chicago", "addr:housenumber": "4621", "addr:postcode": "60640", "addr:state": "IL", "addr:street": "North Clark Street", "amenity": "bar", "name": "Max\u2019s Place", "phone": "+1-773-784-3864"}}, {"type": "node", "id": 6321694983, "lat": 41.9796867, "lon": -87.6686245, "tags": {"addr:city": "Chicago", "addr:housenumber": "5358", "addr:postcode": "60640", "addr:state": "IL", "addr:street": "North Clark Street", "amenity": "bar", "name": "Replay - Andersonville", "phone": "+1-773-654-1369", "website": "https://www.replayandersonville.com/"}}, {"type": "node", "id": 6322575080, "lat": 41.9732346, "lon": -87.6678071, "tags": {"addr:city": "Chicago", "addr:housenumber": "5025", "addr:postcode": "60640", "addr:state": "IL", "addr:street": "North Clark Street", "amenity": "bar", "name": "Meeting House Tavern", "phone": "+1-773-696-4211", "website": "http://www.meetinghousetavern.com/"}}, {"type": "node", "id": 6322931178, "lat": 41.978024, "lon": -87.6583541, "tags": {"addr:city": "Chicago", "addr:housenumber": "1115", "addr:postcode": "60640", "addr:state": "IL", "addr:street": "West Berwyn Avenue", "amenity": "bar", "name": "The Boxcar", "phone": "+1-773-649-3186", "website": "https://steeptheatre.com/boxcar"}}, {"type": "node", "id": 6323105767, "lat": 41.9734458, "lon": -87.6561749, "tags": {"addr:city": "Chicago", "addr:housenumber": "1032", "addr:postcode": "60640", "addr:state": "IL", "addr:street": "West Argyle Street", "amenity": "restaurant", "cuisine": "vietnamese", "name": "Nh\u00e0 H\u00e0ng Vi\u1ec7t Nam", "name:vi": "Nh\u00e0 H\u00e0ng Vi\u1ec7t Nam", "phone": "+1-773-878-8895"}}, {"type": "node", "id": 6323134767, "lat": 41.9655042, "lon": -87.6592494, "tags": {"addr:city": "Chicago", "addr:housenumber": "1140", "addr:postcode": "60640", "addr:state": "IL", "addr:street": "West Wilson Avenue", "amenity": "bar", "name": "Nick\u2019s on Wilson", "phone": "+1-773-681-0705"}}, {"type": "node", "id": 6400751278, "lat": 41.9692177, "lon": -87.6556814, "tags": {"amenity": "restaurant", "name": "Three Squares Diner"}}, {"type": "node", "id": 6401443304, "lat": 41.965196, "lon": -87.6627771, "tags": {"addr:housenumber": "1309", "addr:street": "West Wilson Avenue", "amenity": "restaurant", "name": "Longacre Pizza Squared", "phone": "7732937413"}}, {"type": "node", "id": 7152419159, "lat": 41.9734505, "lon": -87.6572817, "tags": {"amenity": "restaurant", "cuisine": "chinese", "name": "Hon Kee Restaurant"}}, {"type": "node", "id": 7152419169, "lat": 41.9734853, "lon": -87.658375, "tags": {"amenity": "restaurant", "cuisine": "vietnamese;noodle", "name": "Ph\u1edf Loan"}}, {"type": "node", "id": 7152419170, "lat": 41.9731084, "lon": -87.6583026, "tags": {"amenity": "restaurant", "cuisine": "vietnamese", "disused:cuisine": "barbecue;chinese", "name": "H\u1ed3ng Ng\u1ef1", "old_name": "Vinh Phat Express"}}, {"type": "node", "id": 7152419173, "lat": 41.9731205, "lon": -87.6574145, "tags": {"amenity": "restaurant", "cuisine": "vietnamese;noodle", "name": "Ph\u1edf 777", "name:vi": "Ph\u1edf 777", "strapline": "The House of Noodle"}}, {"type": "node", "id": 7152419174, "lat": 41.9731255, "lon": -87.6573399, "tags": {"amenity": "restaurant", "cuisine": "chinese", "name": "Double Happiness"}}, {"type": "node", "id": 7152419178, "lat": 41.9734545, "lon": -87.6568042, "tags": {"amenity": "restaurant", "cuisine": "chinese", "name": "Chinese Lanterns"}}, {"type": "node", "id": 7152419181, "lat": 41.9734795, "lon": -87.6560137, "tags": {"amenity": "restaurant", "cuisine": "vietnamese;thai", "disused:amenity": "fast_food", "name": "Cafe Hoang", "old_name": "VN Tofu & Fast Food", "website": "https://www.cafehoang.com/"}}, {"type": "node", "id": 7152419184, "lat": 41.9731624, "lon": -87.655488, "tags": {"amenity": "restaurant", "cuisine": "chinese", "name": "Garden"}}, {"type": "node", "id": 7152419386, "lat": 41.9731565, "lon": -87.6558058, "tags": {"amenity": "restaurant", "cuisine": "chinese;coffee_shop", "name": "New Chinatown Restaurant & Coffee Shop"}}, {"type": "node", "id": 7152419387, "lat": 41.9731624, "lon": -87.6558768, "tags": {"amenity": "restaurant", "cuisine": "vietnamese;noodle", "name": "Ph\u1edf Xe L\u1eeda", "name:vi": "Ph\u1edf Xe L\u1eeda"}}, {"type": "node", "id": 7152419393, "lat": 41.9731016, "lon": -87.6589634, "tags": {"amenity": "restaurant", "cuisine": "vietnamese", "disused:cuisine": "thai;noodle", "name": "Miss Saigon", "old_name": "King of Thai Noodles & Bar"}}, {"type": "node", "id": 7152419396, "lat": 41.9731085, "lon": -87.6592439, "tags": {"amenity": "restaurant", "cuisine": "vietnamese;noodle", "name": "Ph\u1edf 888"}}, {"type": "node", "id": 7152419398, "lat": 41.9734255, "lon": -87.6591527, "tags": {"amenity": "restaurant", "name": "Qideas"}}, {"type": "node", "id": 7152419401, "lat": 41.9736487, "lon": -87.6575408, "tags": {"amenity": "restaurant", "cuisine": "chinese;barbecue", "name": "Hon Kee Restaurant"}}, {"type": "node", "id": 7152419402, "lat": 41.9731315, "lon": -87.6571222, "tags": {"amenity": "restaurant", "cuisine": "vietnamese;chinese", "name": "H\u1ea3i Y\u1ebfn", "name:vi": "H\u1ea3i Y\u1ebfn"}}, {"type": "node", "id": 7152419417, "lat": 41.973034, "lon": -87.6594993, "tags": {"amenity": "restaurant", "cuisine": "thai", "name": "Thai Avenue"}}, {"type": "node", "id": 7152419422, "lat": 41.9722461, "lon": -87.6594706, "tags": {"addr:housenumber": "4925", "addr:street": "North Broadway", "addr:street:name": "Broadway", "addr:street:prefix": "North", "amenity": "restaurant", "chicago:building_id": "853681", "cuisine": "thai", "name": "Thai Pastry Restaurant", "phone": "+1-773-784-5399", "website": "https://www.thaipastry.com/"}}, {"type": "node", "id": 7152419424, "lat": 41.9723827, "lon": -87.6594867, "tags": {"amenity": "restaurant", "cuisine": "vietnamese;noodle", "name": "L\u00ea\u2019s Ph\u1edf"}}, {"type": "node", "id": 7317268752, "lat": 41.9688999, "lon": -87.6593933, "tags": {"addr:city": "Chicago", "addr:housenumber": "4753", "addr:postcode": "60640", "addr:state": "IL", "addr:street": "North Broadway", "amenity": "cafe", "brand": "Starbucks", "brand:wikidata": "Q37158", "brand:wikipedia": "en:Starbucks", "cuisine": "coffee_shop", "name": "Starbucks", "official_name": "Starbucks Coffee", "takeaway": "yes"}}, {"type": "node", "id": 7376139385, "lat": 41.9794962, "lon": -87.6548297, "tags": {"addr:city": "Chicago", "addr:housenumber": "5335", "addr:postcode": "60640", "addr:state": "IL", "addr:street": "North Sheridan Road", "amenity": "restaurant", "cuisine": "pizza", "name": "Tedino's Pizzeria & Restaurant", "website": "http://www.tedinos.com/"}}, {"type": "node", "id": 7387891262, "lat": 41.9648383, "lon": -87.6568564, "tags": {"addr:city": "Chicago", "addr:housenumber": "4543", "addr:postcode": "60640", "addr:state": "IL", "addr:street": "North Broadway", "amenity": "restaurant", "cuisine": "ethiopian", "name": "Selam Ethiopian Kitchen", "website": "https://www.selamkitchen.com/"}}, {"type": "way", "id": 209938702, "nodes": [2200917080, 2200917193, 2200917194, 2200917340, 2200917344, 2200917381, 2200917392, 2200917091, 2200917080], "tags": {"addr:housenumber": "1701", "addr:street": "West Lawrence Avenue", "addr:street:name": "Lawrence", "addr:street:prefix": "West", "addr:street:type": "Avenue", "amenity": "restaurant", "building": "yes", "building:levels": "1", "chicago:building_id": "103739", "cuisine": "burger", "name": "Byron's Hotdogs"}}, {"type": "way", "id": 209943131, "nodes": [2200948353, 2200948373, 2200948926, 2200948910, 2200948353], "tags": {"addr:housenumber": "5251-5253", "addr:street": "North Clark Street", "addr:street:name": "Clark", "addr:street:prefix": "North", "addr:street:type": "Street", "amenity": "restaurant", "building": "yes", "building:levels": "1", "chicago:building_id": "71536", "cuisine": "mediterranean", "name": "Andie's"}}, {"type": "way", "id": 209943148, "nodes": [2200949127, 2200949157, 2200949338, 2200949352, 2200949127], "tags": {"addr:housenumber": "5259", "addr:street": "North Clark Street", "addr:street:name": "Clark", "addr:street:prefix": "North", "addr:street:type": "Street", "amenity": "restaurant", "building": "yes", "building:levels": "3", "chicago:building_id": "854995", "cuisine": "mediterranean", "name": "Reza's", "wheelchair": "yes"}}, {"type": "way", "id": 209943301, "nodes": [2200954935, 2200954996, 2200955575, 2200955527, 2200954935], "tags": {"addr:housenumber": "5343", "addr:street": "North Clark Street", "addr:street:name": "Clark", "addr:street:prefix": "North", "addr:street:type": "Street", "amenity": "restaurant", "building": "yes", "building:levels": "1", "chicago:building_id": "66552", "cuisine": "italian", "description": "Italian fine dining.", "name": "Calo Ristorante", "opening_hours": "Mo-Th 11:00-23:00; Fr,Sa 11:00-00:00; Su 14:00-22:00", "phone": "(773) 271-7782", "website": "https://calorestaurant.com"}}, {"type": "way", "id": 209946592, "nodes": [2200965036, 2200965282, 2200965299, 2200965486, 2200965999, 2200965387, 2200965399, 2200965996, 2200965994, 2200966017, 2200965051, 2200965045, 2200965036], "tags": {"addr:city": "Chicago", "addr:housenumber": "5420", "addr:postcode": "60640", "addr:state": "IL", "addr:street": "North Clark Street", "addr:street:name": "Clark", "addr:street:prefix": "North", "addr:street:type": "Street", "amenity": "restaurant", "building": "yes", "building:levels": "2", "chicago:building_id": "63565", "cuisine": "korean", "name": "Passerotto", "phone": "+1-708-607-2102", "website": "https://www.passerottochicago.com"}}, {"type": "way", "id": 210382262, "nodes": [2204584306, 2204584311, 2204584132, 2204584122, 2204584187, 2204584189, 2204584287, 2204584285, 2204584306], "tags": {"addr:housenumber": "4744", "addr:street": "North Racine Avenue", "addr:street:name": "Racine", "addr:street:prefix": "North", "addr:street:type": "Avenue", "amenity": "restaurant", "building": "yes", "chicago:building_id": "839422", "cuisine": "diner", "name": "Golden House Restaurant"}}, {"type": "way", "id": 210391661, "nodes": [2204658434, 2204658463, 2204658461, 2204658457, 2204658458, 2204658451, 2204658446, 2204658471, 2204658469, 2204658532, 2204658535, 2204658544, 2204658545, 2204658536, 2204658538, 2204658501, 2204658502, 2204658435, 2204658434], "tags": {"addr:city": "Chicago", "addr:housenumber": "5356", "addr:postcode": "60640", "addr:street": "North Sheridan Road", "addr:street:name": "Sheridan", "addr:street:prefix": "North", "addr:street:type": "Road", "amenity": "restaurant", "building": "retail", "building:levels": "2", "chicago:building_id": "64897", "cuisine": "chinese", "name": "Wing Hoe Restaurant", "website": "https://www.winghoerestaurant.com/"}}, {"type": "way", "id": 210391701, "nodes": [2204658629, 2204658633, 2204658611, 2204658617, 2204658552, 2204658551, 2204658553, 2204658629], "tags": {"addr:housenumber": "5401-5403", "addr:street": "North Broadway", "addr:street:name": "Broadway", "addr:street:prefix": "North", "amenity": "bar", "building": "apartments", "building:levels": "3", "chicago:building_id": "855023"}}]}