{"version": 0.6, "generator": "Overpass API 0.7.56.3 eb200aeb", "osm3s": {"timestamp_osm_base": "2020-07-04T01:34:03Z", "copyright": "The data included in this document is from www.openstreetmap.org. The data is made available under ODbL."}, "elements": [{"type": "node", "id": 34877706, "lat": 41.9420321, "lon": -87.7149228}, {"type": "node", "id": 258282963, "lat": 41.9277023, "lon": -87.7056926}, {"type": "node", "id": 258284108, "lat": 41.9417264, "lon": -87.7143213}, {"type": "node", "id": 258284109, "lat": 41.9405094, "lon": -87.7127549}, {"type": "node", "id": 308439083, "lat": 41.9362157, "lon": -87.7124384}, {"type": "node", "id": 308439353, "lat": 41.9413194, "lon": -87.7135488}, {"type": "node", "id": 308439354, "lat": 41.9409403, "lon": -87.7130338}, {"type": "node", "id": 369650955, "lat": 41.9324964, "lon": -87.7123526}, {"type": "node", "id": 369650956, "lat": 41.9319658, "lon": -87.7120584}, {"type": "node", "id": 369650957, "lat": 41.9317581, "lon": -87.7118}, {"type": "node", "id": 736037253, "lat": 41.9399108, "lon": -87.7126047}, {"type": "node", "id": 736037262, "lat": 41.9322091, "lon": -87.7122345}, {"type": "node", "id": 736037263, "lat": 41.9283499, "lon": -87.7064678}, {"type": "node", "id": 1700855278, "lat": 41.9244862, "lon": -87.7112831, "tags": {"amenity": "cafe", "name": "Cafe Bella"}}, {"type": "node", "id": 1700855339, "lat": 41.9244801, "lon": -87.713164, "tags": {"addr:city": "Chicago", "addr:housenumber": "3425", "addr:postcode": "60647", "addr:state": "IL", "addr:street": "West Fullerton Avenue", "amenity": "bar", "name": "The Burlington", "phone": "+1-773-384-3243", "website": "theburlingtonbar.com"}}, {"type": "node", "id": 1742945208, "lat": 41.9241249, "lon": -87.7282033}, {"type": "node", "id": 1742945214, "lat": 41.9241258, "lon": -87.7281059}, {"type": "node", "id": 1742945497, "lat": 41.9243138, "lon": -87.7281078}, {"type": "node", "id": 1742945503, "lat": 41.9243294, "lon": -87.7282069}, {"type": "node", "id": 1742945505, "lat": 41.9243304, "lon": -87.7281315}, {"type": "node", "id": 1743245275, "lat": 41.9313728, "lon": -87.7267107}, {"type": "node", "id": 1743245279, "lat": 41.9313746, "lon": -87.7265398}, {"type": "node", "id": 1743245610, "lat": 41.9316212, "lon": -87.7267157}, {"type": "node", "id": 1743245611, "lat": 41.931623, "lon": -87.7265448}, {"type": "node", "id": 1755554091, "lat": 41.9224754, "lon": -87.7168095}, {"type": "node", "id": 1755554092, "lat": 41.9224763, "lon": -87.7167176}, {"type": "node", "id": 1755555028, "lat": 41.9226314, "lon": -87.7167216}, {"type": "node", "id": 1755555031, "lat": 41.9226318, "lon": -87.7168135}, {"type": "node", "id": 1755555286, "lat": 41.922684, "lon": -87.7168148}, {"type": "node", "id": 1755555306, "lat": 41.9226862, "lon": -87.7167229}, {"type": "node", "id": 1755605926, "lat": 41.9243256, "lon": -87.7148772}, {"type": "node", "id": 1755605929, "lat": 41.9243266, "lon": -87.7148037}, {"type": "node", "id": 1755606003, "lat": 41.92439, "lon": -87.7148619}, {"type": "node", "id": 1755606004, "lat": 41.9243901, "lon": -87.7148784}, {"type": "node", "id": 1755606044, "lat": 41.9244117, "lon": -87.7148065}, {"type": "node", "id": 1755606047, "lat": 41.9244133, "lon": -87.7148635}, {"type": "node", "id": 1755606048, "lat": 41.9244134, "lon": -87.71488}, {"type": "node", "id": 1755606062, "lat": 41.9244171, "lon": -87.7147955}, {"type": "node", "id": 1755606103, "lat": 41.9244445, "lon": -87.714797}, {"type": "node", "id": 1755606122, "lat": 41.9244514, "lon": -87.7148043}, {"type": "node", "id": 1755606174, "lat": 41.9244917, "lon": -87.7148829}, {"type": "node", "id": 1755606176, "lat": 41.9244926, "lon": -87.7148058}, {"type": "node", "id": 1755606480, "lat": 41.9248142, "lon": -87.7110913}, {"type": "node", "id": 1755606493, "lat": 41.9248186, "lon": -87.7108946}, {"type": "node", "id": 1755606514, "lat": 41.9248268, "lon": -87.7108853}, {"type": "node", "id": 1755606745, "lat": 41.9249033, "lon": -87.7110775}, {"type": "node", "id": 1755606747, "lat": 41.9249034, "lon": -87.7110941}, {"type": "node", "id": 1755606882, "lat": 41.9249582, "lon": -87.7110788}, {"type": "node", "id": 1755606888, "lat": 41.9249591, "lon": -87.7109833}, {"type": "node", "id": 1755640402, "lat": 41.9326003, "lon": -87.7130001}, {"type": "node", "id": 1755640571, "lat": 41.9326391, "lon": -87.7130659}, {"type": "node", "id": 1755641653, "lat": 41.9328554, "lon": -87.7127349}, {"type": "node", "id": 1755641768, "lat": 41.9328928, "lon": -87.7128007}, {"type": "node", "id": 1755651481, "lat": 41.9353526, "lon": -87.7183265}, {"type": "node", "id": 1755651625, "lat": 41.9353913, "lon": -87.7183904}, {"type": "node", "id": 1755651879, "lat": 41.9354689, "lon": -87.7182702}, {"type": "node", "id": 1755651931, "lat": 41.9354812, "lon": -87.7182573}, {"type": "node", "id": 1755651933, "lat": 41.9354814, "lon": -87.7182922}, {"type": "node", "id": 1755651980, "lat": 41.935495, "lon": -87.7182792}, {"type": "node", "id": 1755652034, "lat": 41.9355108, "lon": -87.7181559}, {"type": "node", "id": 1755652178, "lat": 41.9355496, "lon": -87.7182198}, {"type": "node", "id": 1780015409, "lat": 41.9243305, "lon": -87.7259629, "tags": {"amenity": "restaurant", "cuisine": "mexican", "name": "Burrito Joint"}}, {"type": "node", "id": 2285171996, "lat": 41.936156, "lon": -87.7193663, "tags": {"addr:city": "Chicago", "addr:housenumber": "3030", "addr:postcode": "60618", "addr:state": "IL", "addr:street": "North Milwaukee Avenue", "amenity": "restaurant", "name": "Staropolska Restaurant", "phone": "+1-773-342-0779", "website": "http://www.staropolskarestaurant.com/"}}, {"type": "node", "id": 2443252531, "lat": 41.9299174, "lon": -87.7087118, "tags": {"name": "Logan Square", "network": "CTA", "operator": "Chicago Transit Authority", "public_transport": "stop_position", "railway": "stop", "subway": "yes"}}, {"type": "node", "id": 2443252534, "lat": 41.9277311, "lon": -87.7056492}, {"type": "node", "id": 2443252540, "lat": 41.9399169, "lon": -87.7125472}, {"type": "node", "id": 2443252544, "lat": 41.9325033, "lon": -87.7122947}, {"type": "node", "id": 2443252547, "lat": 41.9391243, "lon": -87.7124596, "tags": {"name": "Belmont", "network": "CTA", "operator": "Chicago Transit Authority", "public_transport": "stop_position", "railway": "stop", "subway": "yes"}}, {"type": "node", "id": 2443252554, "lat": 41.9362165, "lon": -87.7123804}, {"type": "node", "id": 2443252559, "lat": 41.9317895, "lon": -87.71176}, {"type": "node", "id": 2443252562, "lat": 41.9409658, "lon": -87.7129858}, {"type": "node", "id": 2443252568, "lat": 41.9283802, "lon": -87.7064263}, {"type": "node", "id": 2443252572, "lat": 41.9413526, "lon": -87.7135114}, {"type": "node", "id": 2443252575, "lat": 41.9319912, "lon": -87.7120108}, {"type": "node", "id": 2443252578, "lat": 41.9420655, "lon": -87.7148849}, {"type": "node", "id": 2443252582, "lat": 41.940523, "lon": -87.7126992}, {"type": "node", "id": 2443252585, "lat": 41.9322259, "lon": -87.7121807}, {"type": "node", "id": 2443252588, "lat": 41.9417619, "lon": -87.7142881}, {"type": "node", "id": 3534333527, "lat": 41.9249621, "lon": -87.7108901}, {"type": "node", "id": 3551875830, "lat": 41.9248555, "lon": -87.7111412, "tags": {"addr:city": "Chicago", "addr:housenumber": "3306", "addr:postcode": "60647", "addr:state": "IL", "addr:street": "West Fullerton Avenue", "amenity": "restaurant", "cuisine": "thai", "name": "Dena Kitchen", "phone": "+1-773-697-3504"}}, {"type": "node", "id": 3551892777, "lat": 41.9343813, "lon": -87.7158349, "tags": {"amenity": "restaurant", "cuisine": "mexican", "name": "Tacos Tequilas"}}, {"type": "node", "id": 3551896302, "lat": 41.9337049, "lon": -87.7152636, "tags": {"amenity": "restaurant", "cuisine": "thai", "name": "The Spice"}}, {"type": "node", "id": 3551904715, "lat": 41.9333478, "lon": -87.713791, "tags": {"amenity": "restaurant", "brand": "Giordano's Pizzeria", "brand:wikidata": "Q5563393", "brand:wikipedia": "en:Giordano's Pizzeria", "cuisine": "pizza", "name": "Giordano's Pizzeria"}}, {"type": "node", "id": 3563909260, "lat": 41.931975, "lon": -87.7223584, "tags": {"amenity": "restaurant", "cuisine": "salvadoran", "name": "El Guanaco"}}, {"type": "node", "id": 3574942642, "lat": 41.924331, "lon": -87.7155481, "tags": {"addr:city": "Chicago", "addr:housenumber": "3545", "addr:postcode": "60647", "addr:state": "IL", "addr:street": "West Fullerton Avenue", "amenity": "bar", "name": "The Double Urban Tavern", "phone": "+1-773-772-7000", "website": "http://www.thedoubletavern.com/"}}, {"type": "node", "id": 3575010907, "lat": 41.9325834, "lon": -87.7134313, "tags": {"amenity": "restaurant", "cuisine": "chinese", "name": "Friendship Chinese"}}, {"type": "node", "id": 3627809229, "lat": 41.9345296, "lon": -87.7174228, "tags": {"amenity": "bar", "name": "Podhale"}}, {"type": "node", "id": 3627809230, "lat": 41.93435, "lon": -87.7174148, "tags": {"amenity": "bar", "name": "Podlasie Club"}}, {"type": "node", "id": 3627809231, "lat": 41.9354831, "lon": -87.7219538, "tags": {"amenity": "bar", "name": "Ski's Lounge"}}, {"type": "node", "id": 3629730354, "lat": 41.9247459, "lon": -87.7185896, "tags": {"amenity": "restaurant", "cuisine": "mexican", "name": "Raymond's Tacos"}}, {"type": "node", "id": 3629730355, "lat": 41.9247518, "lon": -87.7187854, "tags": {"amenity": "restaurant", "cuisine": "pizza", "name": "Vito & Angelo Pizzeria"}}, {"type": "node", "id": 3641096467, "lat": 41.9247881, "lon": -87.7159408, "tags": {"amenity": "restaurant", "cuisine": "mexican", "name": "El Pacifico"}}, {"type": "node", "id": 3641114043, "lat": 41.931781, "lon": -87.7192571, "tags": {"amenity": "pub", "name": "Bialystok Pub"}}, {"type": "node", "id": 3649631221, "lat": 41.9316589, "lon": -87.7124643, "tags": {"amenity": "restaurant", "cuisine": "chinese", "name": "Van Phat"}}, {"type": "node", "id": 3649643207, "lat": 41.9325547, "lon": -87.7128675, "tags": {"amenity": "restaurant", "cuisine": "pizza", "name": "Dante's Pizzeria"}}, {"type": "node", "id": 3659153796, "lat": 41.9248341, "lon": -87.7122744, "tags": {"addr:city": "Chicago", "addr:housenumber": "3400", "addr:postcode": "60647", "addr:state": "IL", "addr:street": "West Fullerton Avenue", "amenity": "restaurant", "cuisine": "puerto_rican", "name": "Jibaritos y Mas", "phone": "+1-773-799-8601", "website": "https://www.orderjibaritosymas.com"}}, {"type": "node", "id": 3882069859, "lat": 41.9244787, "lon": -87.7134416, "tags": {"amenity": "bar", "name": "Acapulco Night Club"}}, {"type": "node", "id": 3882086458, "lat": 41.9244563, "lon": -87.7140572, "tags": {"amenity": "restaurant", "cuisine": "puerto_rican", "name": "Cafeteria Marcela's"}}, {"type": "node", "id": 4741715729, "lat": 41.9242272, "lon": -87.7143073, "tags": {"addr:city": "Chicago", "addr:housenumber": "3509", "addr:postcode": "60647", "addr:state": "IL", "addr:street": "West Fullerton Avenue", "amenity": "restaurant", "name": "Park & Field", "outdoor_seating": "yes", "phone": "+1-765-426-6657", "smoking": "no", "website": "http://parkandfieldchicago.com/"}}, {"type": "node", "id": 5272957250, "lat": 41.9388473, "lon": -87.7125224, "tags": {"name": "Belmont", "network": "CTA", "operator": "Chicago Transit Authority", "public_transport": "stop_position", "railway": "stop", "subway": "yes"}}, {"type": "node", "id": 5272959958, "lat": 41.9295311, "lon": -87.7082428, "tags": {"name": "Logan Square", "network": "CTA", "operator": "Chicago Transit Authority", "public_transport": "stop_position", "railway": "stop", "subway": "yes"}}, {"type": "node", "id": 6280505896, "lat": 41.9244495, "lon": -87.7110497, "tags": {"addr:city": "Chicago", "addr:housenumber": "3311", "addr:postcode": "60647", "addr:state": "IL", "addr:street": "West Fullerton Avenue", "amenity": "cafe", "name": "Caribella", "phone": "+1-773-360-8873", "website": "https://caribellachicago.com/"}}, {"type": "node", "id": 6282566260, "lat": 41.931393, "lon": -87.7115622, "tags": {"addr:city": "Chicago", "addr:housenumber": "2770", "addr:postcode": "60647", "addr:state": "IL", "addr:street": "North Milwaukee Avenue", "amenity": "restaurant", "name": "Chiya Chai Cafe", "phone": "+1-773-360-7541", "website": "https://www.chiyachai.com/"}}, {"type": "node", "id": 6294625891, "lat": 41.9312206, "lon": -87.7113891, "tags": {"addr:city": "Chicago", "addr:housenumber": "2760", "addr:postcode": "60647", "addr:state": "IL", "addr:street": "North Milwaukee Avenue", "amenity": "bar", "name": "Hopewell Brewing Company", "phone": "+1-773-698-6178", "website": "http://www.hopewellbrewing.com/"}}, {"type": "node", "id": 6300387387, "lat": 41.9244367, "lon": -87.7109014, "tags": {"addr:city": "Chicago", "addr:housenumber": "3039", "addr:postcode": "60647", "addr:state": "IL", "addr:street": "West Fullerton Avenue", "amenity": "restaurant", "name": "Penumbra Restaurant & Wine Bar", "phone": "+1-773-772-2343", "website": "https://www.penumbrawinebar.com/"}}, {"type": "node", "id": 6301180417, "lat": 41.9313998, "lon": -87.7114512, "tags": {"addr:city": "Chicago", "addr:housenumber": "2766", "addr:postcode": "60647", "addr:state": "IL", "addr:street": "North Milwaukee Avenue", "amenity": "restaurant", "name": "RYUU Asian BBQ & Sushi", "phone": "+1-773-661-1919", "website": "https://www.ryuubbq.com/"}}, {"type": "node", "id": 6315650619, "lat": 41.9243426, "lon": -87.7196926, "tags": {"addr:city": "Chicago", "addr:housenumber": "3703", "addr:postcode": "60647", "addr:state": "IL", "addr:street": "West Fullerton Avenue", "amenity": "restaurant", "name": "The Little Pickle", "phone": "+1-312-270-4538", "website": "https://www.thelittlepicklechicago.com/"}}, {"type": "node", "id": 6319244927, "lat": 41.9345972, "lon": -87.7168267, "tags": {"addr:city": "Chicago", "addr:housenumber": "2934", "addr:postcode": "60618", "addr:state": "IL", "addr:street": "North Milwaukee Avenue", "amenity": "cafe", "name": "Kerelys Cuban Cafe & Pizzeria", "phone": "+1-773-394-4040", "website": "https://www.kerelysmenu.com/"}}, {"type": "node", "id": 6319849466, "lat": 41.9243634, "lon": -87.7213646, "tags": {"addr:city": "Chicago", "addr:housenumber": "3749", "addr:postcode": "60647", "addr:state": "IL", "addr:street": "West Fullerton Avenue", "amenity": "restaurant", "cuisine": "mexican", "name": "L\u2019 Patron Tacos", "phone": "+1-773-799-8066"}}, {"type": "node", "id": 6322769552, "lat": 41.934803, "lon": -87.7164307, "tags": {"addr:city": "Chicago", "addr:housenumber": "2937", "addr:postcode": "60618", "addr:state": "IL", "addr:street": "North Milwaukee Avenue", "amenity": "bar", "name": "Moe\u2019s Tavern", "phone": "+1-773-227-2937"}}, {"type": "node", "id": 6324278875, "lat": 41.9249315, "lon": -87.720486, "tags": {"addr:city": "Chicago", "addr:housenumber": "3724", "addr:postcode": "60647", "addr:state": "IL", "addr:street": "West Fullerton Avenue", "amenity": "cafe", "name": "Pan Artesanal", "phone": "+1-312-286-5265", "website": "https://www.panartesanalbakery.com/"}}, {"type": "node", "id": 6459337926, "lat": 41.9248691, "lon": -87.7155809, "tags": {"addr:city": "Chicago", "addr:housenumber": "3524", "addr:postcode": "60647", "addr:state": "IL", "addr:street": "West Fullerton Avenue", "amenity": "restaurant", "cuisine": "american", "name": "Flat & Point", "phone": "+1-773-904-7152", "website": "https://www.flatandpoint.com"}}, {"type": "node", "id": 6842444175, "lat": 41.9308301, "lon": -87.7102272}, {"type": "node", "id": 7442864166, "lat": 41.9243876, "lon": -87.7203158, "tags": {"addr:city": "Chicago", "addr:housenumber": "3721", "addr:postcode": "60647", "addr:state": "IL", "addr:street": "West Fullerton Avenue", "amenity": "restaurant", "cuisine": "mexican", "name": "Gabriela\u2019s Carnitas"}}, {"type": "node", "id": 7676120924, "lat": 41.9289022, "lon": -87.7071437}, {"type": "node", "id": 7676120925, "lat": 41.9292607, "lon": -87.707653}, {"type": "node", "id": 7676120928, "lat": 41.9303783, "lon": -87.7095961}, {"type": "way", "id": 23825783, "nodes": [34877706, 258284108, 308439353, 308439354, 258284109, 736037253, 5272957250, 308439083, 369650955, 736037262, 369650956, 369650957, 7676120928, 5272959958, 736037263, 258282963], "tags": {"electrified": "rail", "frequency": "0", "gauge": "1435", "layer": "-5", "name": "O'Hare Branch", "operator": "Chicago Transit Authority", "railway": "subway", "tunnel": "yes", "voltage": "600"}}, {"type": "way", "id": 162390785, "nodes": [1742945208, 1742945503, 1742945505, 1742945497, 1742945214, 1742945208], "tags": {"addr:city": "Chicago", "addr:housenumber": "4035", "addr:postcode": "60639", "addr:state": "IL", "addr:street": "West Fullerton Avenue", "addr:street:name": "Fullerton", "addr:street:prefix": "West", "addr:street:type": "Avenue", "amenity": "bar", "building": "yes", "name": "The Levee", "phone": "+1-773-342-2808", "website": "http://daleveechicago.com/"}}, {"type": "way", "id": 162436410, "nodes": [1743245275, 1743245610, 1743245611, 1743245279, 1743245275], "tags": {"addr:city": "Chicago", "addr:housenumber": "3959", "addr:postcode": "60647", "addr:street": "West Diversey Avenue", "addr:street:name": "Diversey", "addr:street:prefix": "West", "addr:street:type": "Avenue", "amenity": "restaurant", "building": "yes", "building:levels": "1", "chicago:building_id": "244081", "cuisine": "american", "name": "Golden Nugget Pancake House", "website": "https://www.goldennuggetpancake.com/"}}, {"type": "way", "id": 163886441, "nodes": [1755554091, 1755555031, 1755555286, 1755555306, 1755555028, 1755554092, 1755554091], "tags": {"addr:city": "Chicago", "addr:housenumber": "3581", "addr:postcode": "60647", "addr:state": "IL", "addr:street": "West Belden Avenue", "addr:street:name": "Belden", "addr:street:prefix": "West", "addr:street:type": "Avenue", "amenity": "restaurant", "building": "yes", "building:levels": "1", "construction": "restaurant", "cuisine": "american", "name": "Wyler Road", "phone": "+1-773-661-0675", "website": "http://www.wylerroad.com/"}}, {"type": "way", "id": 163893589, "nodes": [1755640402, 1755640571, 1755641768, 1755641653, 1755640402], "tags": {"addr:housenumber": "2829", "addr:street": "North Milwaukee Avenue", "addr:street:name": "Milwaukee", "addr:street:prefix": "North", "addr:street:type": "Avenue", "amenity": "restaurant", "building": "yes", "building:levels": "1", "chicago:building_id": "239526", "cuisine": "mexican", "name": "Taqueria El Ranchito"}}, {"type": "way", "id": 163894553, "nodes": [1755651481, 1755651625, 1755651933, 1755651879, 1755651931, 1755651980, 1755652178, 1755652034, 1755651481], "tags": {"addr:housenumber": "2988", "addr:street": "North Milwaukee Avenue", "addr:street:name": "Milwaukee", "addr:street:prefix": "North", "addr:street:type": "Avenue", "amenity": "bar", "building": "yes", "building:levels": "3", "chicago:building_id": "228506", "name": "Regina & Joe Tap"}}, {"type": "way", "id": 163896559, "nodes": [1755605926, 1755606004, 1755606003, 1755606047, 1755606048, 1755606174, 1755606176, 1755606122, 1755606103, 1755606062, 1755606044, 1755605929, 1755605926], "tags": {"addr:housenumber": "3525", "addr:postcode": "60647", "addr:street": "West Fullerton Avenue", "addr:street:name": "Fullerton", "addr:street:prefix": "West", "addr:street:type": "Avenue", "amenity": "restaurant", "building": "yes", "chicago:building_id": "265636", "cuisine": "pizza", "name": "Festa Pizzeria"}}, {"type": "way", "id": 236279633, "nodes": [2443252534, 2443252568, 7676120924, 7676120925, 2443252531, 6842444175, 2443252559, 2443252575, 2443252585, 2443252544, 2443252554, 2443252547, 2443252540, 2443252582, 2443252562, 2443252572, 2443252588, 2443252578], "tags": {"electrified": "rail", "frequency": "0", "gauge": "1435", "layer": "-5", "name": "O'Hare Branch", "operator": "Chicago Transit Authority", "railway": "subway", "tunnel": "yes", "voltage": "600"}}, {"type": "way", "id": 346991085, "nodes": [1755606882, 1755606745, 1755606747, 1755606480, 1755606493, 1755606514, 3534333527, 1755606888, 1755606882], "tags": {"addr:city": "Chicago", "addr:housenumber": "3300", "addr:postcode": "60647", "addr:state": "IL", "addr:street": "West Fullerton Avenue", "amenity": "restaurant", "building": "yes", "capacity": "25", "cuisine": "mexican", "delivery": "no", "name": "El Habanero", "opening_hours": "11:00-21:00", "phone": "+1-773-227-9225", "smoking": "no", "takeaway": "yes"}}]}