{"version": 0.6, "generator": "Overpass API 0.7.56.3 eb200aeb", "osm3s": {"timestamp_osm_base": "2020-07-17T21:20:03Z", "copyright": "The data included in this document is from www.openstreetmap.org. The data is made available under ODbL."}, "elements": [{"type": "node", "id": 2213369742, "lat": 41.6492648, "lon": -87.5466753}, {"type": "node", "id": 2213369744, "lat": 41.6492652, "lon": -87.5467338}, {"type": "node", "id": 2213369872, "lat": 41.6493151, "lon": -87.5467991}, {"type": "node", "id": 2213369893, "lat": 41.6493211, "lon": -87.5466746}, {"type": "node", "id": 2213369897, "lat": 41.6493217, "lon": -87.5465648}, {"type": "node", "id": 2213369913, "lat": 41.6493233, "lon": -87.546799}, {"type": "node", "id": 2213369915, "lat": 41.6493234, "lon": -87.5468172}, {"type": "node", "id": 2213369934, "lat": 41.6493304, "lon": -87.5468263}, {"type": "node", "id": 2213369935, "lat": 41.6493304, "lon": -87.5468318}, {"type": "node", "id": 2213370042, "lat": 41.6493876, "lon": -87.546564}, {"type": "node", "id": 2213370045, "lat": 41.6493884, "lon": -87.5466829}, {"type": "node", "id": 2213370068, "lat": 41.6494028, "lon": -87.5465913}, {"type": "node", "id": 2213370070, "lat": 41.6494035, "lon": -87.5466827}, {"type": "node", "id": 2213370074, "lat": 41.6494056, "lon": -87.5465894}, {"type": "node", "id": 2213370103, "lat": 41.6494247, "lon": -87.5465727}, {"type": "node", "id": 2213370117, "lat": 41.6494301, "lon": -87.5469586}, {"type": "node", "id": 2213370134, "lat": 41.6494356, "lon": -87.5465707}, {"type": "node", "id": 2213370221, "lat": 41.6494521, "lon": -87.5465705}, {"type": "node", "id": 2213370229, "lat": 41.6494548, "lon": -87.5469583}, {"type": "node", "id": 2213371124, "lat": 41.6500491, "lon": -87.5475951}, {"type": "node", "id": 2213371125, "lat": 41.65005, "lon": -87.5473133}, {"type": "node", "id": 2213371147, "lat": 41.6501123, "lon": -87.5475943}, {"type": "node", "id": 2213371156, "lat": 41.6501131, "lon": -87.5473144}, {"type": "node", "id": 2213375030, "lat": 41.6519339, "lon": -87.5373286}, {"type": "node", "id": 2213375031, "lat": 41.6519344, "lon": -87.5370157}, {"type": "node", "id": 2213375096, "lat": 41.6519549, "lon": -87.5369935}, {"type": "node", "id": 2213375099, "lat": 41.651955, "lon": -87.5370155}, {"type": "node", "id": 2213375128, "lat": 41.6519686, "lon": -87.5369933}, {"type": "node", "id": 2213375129, "lat": 41.6519688, "lon": -87.537019}, {"type": "node", "id": 2213375162, "lat": 41.6519891, "lon": -87.5371852}, {"type": "node", "id": 2213375164, "lat": 41.6519893, "lon": -87.5370205}, {"type": "node", "id": 2213375165, "lat": 41.6519894, "lon": -87.5372218}, {"type": "node", "id": 2213375167, "lat": 41.6519901, "lon": -87.5373279}, {"type": "node", "id": 2213375237, "lat": 41.6520138, "lon": -87.5371849}, {"type": "node", "id": 2213375239, "lat": 41.6520141, "lon": -87.5372215}, {"type": "node", "id": 2213376126, "lat": 41.6523586, "lon": -87.5470108}, {"type": "node", "id": 2213376127, "lat": 41.652359, "lon": -87.5468663}, {"type": "node", "id": 2213376145, "lat": 41.6523681, "lon": -87.546793}, {"type": "node", "id": 2213376153, "lat": 41.6523686, "lon": -87.5468662}, {"type": "node", "id": 2213376234, "lat": 41.6523997, "lon": -87.5467926}, {"type": "node", "id": 2213376235, "lat": 41.6524002, "lon": -87.5468621}, {"type": "node", "id": 2213376301, "lat": 41.6524204, "lon": -87.5470101}, {"type": "node", "id": 2213376302, "lat": 41.6524207, "lon": -87.5468619}, {"type": "node", "id": 2213377740, "lat": 41.6525631, "lon": -87.5470065}, {"type": "node", "id": 2213377754, "lat": 41.6525636, "lon": -87.5468913}, {"type": "node", "id": 2213377814, "lat": 41.6525724, "lon": -87.5467686}, {"type": "node", "id": 2213377827, "lat": 41.6525731, "lon": -87.5468674}, {"type": "node", "id": 2213378067, "lat": 41.6526156, "lon": -87.546865}, {"type": "node", "id": 2213378070, "lat": 41.6526157, "lon": -87.5468797}, {"type": "node", "id": 2213378197, "lat": 41.6526252, "lon": -87.5468649}, {"type": "node", "id": 2213378210, "lat": 41.6526259, "lon": -87.5467698}, {"type": "node", "id": 2213378222, "lat": 41.6526276, "lon": -87.5470076}, {"type": "node", "id": 2213378232, "lat": 41.6526281, "lon": -87.5468795}, {"type": "node", "id": 2213379690, "lat": 41.6528382, "lon": -87.5473051}, {"type": "node", "id": 2213379693, "lat": 41.6528384, "lon": -87.5477442}, {"type": "node", "id": 2213380053, "lat": 41.6528985, "lon": -87.5473043}, {"type": "node", "id": 2213380054, "lat": 41.6528988, "lon": -87.5477453}, {"type": "node", "id": 2213381701, "lat": 41.6533836, "lon": -87.5457982}, {"type": "node", "id": 2213381703, "lat": 41.6533837, "lon": -87.545617}, {"type": "node", "id": 2213381711, "lat": 41.6533878, "lon": -87.545617}, {"type": "node", "id": 2213381718, "lat": 41.6533886, "lon": -87.5455273}, {"type": "node", "id": 2213381763, "lat": 41.6534102, "lon": -87.5454813}, {"type": "node", "id": 2213381764, "lat": 41.6534105, "lon": -87.5455271}, {"type": "node", "id": 2213381826, "lat": 41.6534398, "lon": -87.5457975}, {"type": "node", "id": 2213381830, "lat": 41.6534404, "lon": -87.545481}, {"type": "node", "id": 2213388951, "lat": 41.6552875, "lon": -87.5473009}, {"type": "node", "id": 2213388955, "lat": 41.6552888, "lon": -87.5476997}, {"type": "node", "id": 2213389091, "lat": 41.6553475, "lon": -87.5466561}, {"type": "node", "id": 2213389092, "lat": 41.6553485, "lon": -87.5469983}, {"type": "node", "id": 2213389289, "lat": 41.655402, "lon": -87.5469976}, {"type": "node", "id": 2213389307, "lat": 41.6554096, "lon": -87.5472994}, {"type": "node", "id": 2213389308, "lat": 41.6554096, "lon": -87.5477001}, {"type": "node", "id": 2213389328, "lat": 41.6554148, "lon": -87.5466553}, {"type": "node", "id": 2213389331, "lat": 41.6554156, "lon": -87.5469828}, {"type": "node", "id": 6282931538, "lat": 41.6556304, "lon": -87.5370391, "tags": {"addr:city": "Chicago", "addr:housenumber": "13157", "addr:postcode": "60633", "addr:state": "IL", "addr:street": "South Avenue M", "amenity": "bar", "name": "Club 81 Too", "phone": "+1-773-646-4292"}}, {"type": "node", "id": 6298941830, "lat": 41.6480074, "lon": -87.5450356, "tags": {"addr:city": "Chicago", "addr:housenumber": "13611", "addr:postcode": "60633", "addr:state": "IL", "addr:street": "South Brainard Avenue", "amenity": "bar", "name": "South Shore Inn", "phone": "+1-773-646-0350"}}, {"type": "way", "id": 211325544, "nodes": [2213388955, 2213389308, 2213389307, 2213388951, 2213388955], "tags": {"addr:city": "Chicago", "addr:housenumber": "13200-13202", "addr:postcode": "60633", "addr:state": "IL", "addr:street": "South Baltimore Avenue", "addr:street:name": "Baltimore", "addr:street:prefix": "South", "addr:street:type": "Avenue", "amenity": "bar", "building": "yes", "building:levels": "2", "chicago:building_id": "807542", "name": "Steve's Lounge", "opening_hours": "Tu-Su 08:00-24:00", "outdoor_seating": "no", "phone": "(773) 646-1071", "website": "http://cateringbysteve.com"}}, {"type": "way", "id": 211325547, "nodes": [2213389092, 2213389289, 2213389331, 2213389328, 2213389091, 2213389092], "tags": {"addr:city": "Chicago", "addr:housenumber": "13201", "addr:postcode": "60633", "addr:street": "South Baltimore Avenue", "addr:street:name": "Baltimore", "addr:street:prefix": "South", "addr:street:type": "Avenue", "amenity": "restaurant", "building": "yes", "building:levels": "2", "chicago:building_id": "807533", "cuisine": "pizza", "name": "Doreen's Pizzeria", "website": "https://www.doreenspizzeria.com/"}}, {"type": "way", "id": 211326034, "nodes": [2213381701, 2213381826, 2213381830, 2213381763, 2213381764, 2213381718, 2213381711, 2213381703, 2213381701], "tags": {"addr:city": "Chicago", "addr:housenumber": "13307", "addr:postcode": "60633", "addr:state": "IL", "addr:street": "South Brandon Avenue", "addr:street:name": "Brandon", "addr:street:prefix": "South", "addr:street:type": "Avenue", "amenity": "restaurant", "building": "yes", "building:levels": "2", "chicago:building_id": "808830", "cuisine": "mexican", "name": "Taquaria el Taquin", "opening_hours": "Mo-Su 09:00-22:00", "phone": "(312) 714-9295"}}, {"type": "way", "id": 211326145, "nodes": [2213379693, 2213380054, 2213380053, 2213379690, 2213379693], "tags": {"addr:city": "Chicago", "addr:housenumber": "13328", "addr:postcode": "60633", "addr:state": "IL", "addr:street": "South Baltimore Avenue", "addr:street:name": "Baltimore", "addr:street:prefix": "South", "addr:street:type": "Avenue", "amenity": "restaurant", "building": "yes", "building:levels": "1", "chicago:building_id": "809237", "cuisine": "chinese", "name": "China Garden", "phone": "(773) 646-3826", "website": "https://www.chinagardenil.net/"}}, {"type": "way", "id": 211326220, "nodes": [2213377740, 2213378222, 2213378232, 2213378070, 2213378067, 2213378197, 2213378210, 2213377814, 2213377827, 2213377754, 2213377740], "tags": {"addr:city": "Chicago", "addr:housenumber": "13335", "addr:postcode": "60633", "addr:state": "IL", "addr:street": "South Baltimore Avenue", "addr:street:name": "Baltimore", "addr:street:prefix": "South", "addr:street:type": "Avenue", "amenity": "bar", "building": "yes", "building:levels": "2", "chicago:building_id": "809430", "name": "Wendol's", "outdoor_seating": "no", "phone": "(773) 646-4580"}}, {"type": "way", "id": 211326268, "nodes": [2213376126, 2213376301, 2213376302, 2213376235, 2213376234, 2213376145, 2213376153, 2213376127, 2213376126], "tags": {"addr:city": "Chicago", "addr:housenumber": "13343", "addr:postcode": "60633", "addr:state": "IL", "addr:street": "South Baltimore Avenue", "addr:street:name": "Baltimore", "addr:street:prefix": "South", "addr:street:type": "Avenue", "amenity": "restaurant", "building": "yes", "building:levels": "1", "chicago:building_id": "809584", "cuisine": "mexican", "name": "Los Cantaritos", "phone": "(773) 646-4015"}}, {"type": "way", "id": 211326340, "nodes": [2213375030, 2213375167, 2213375165, 2213375239, 2213375237, 2213375162, 2213375164, 2213375129, 2213375128, 2213375096, 2213375099, 2213375031, 2213375030], "tags": {"addr:city": "Chicago", "addr:housenumber": "13359", "addr:postcode": "60633", "addr:state": "IL", "addr:street": "South Avenue M", "addr:street:name": "Avenue M", "addr:street:prefix": "South", "amenity": "bar", "building": "yes", "building:levels": "2", "chicago:building_id": "809800", "name": "Uncle Bobby's", "outdoor_seating": "no", "phone": "(773) 646-1524", "website": "https://georges-tavern.business.site/"}}, {"type": "way", "id": 211326673, "nodes": [2213371124, 2213371147, 2213371156, 2213371125, 2213371124], "tags": {"addr:city": "Chicago", "addr:housenumber": "13460", "addr:postcode": "60633", "addr:state": "IL", "addr:street": "South Baltimore Avenue", "addr:street:name": "Baltimore", "addr:street:prefix": "South", "addr:street:type": "Avenue", "amenity": "restaurant", "building": "yes", "building:levels": "2", "chicago:building_id": "810760", "cuisine": "pizza", "name": "Pudgy's Pizza", "website": "http://www.hegewisch.net/pudgys/"}}, {"type": "way", "id": 211326696, "nodes": [2213369742, 2213369744, 2213369872, 2213369913, 2213369915, 2213369934, 2213369935, 2213370117, 2213370229, 2213370221, 2213370134, 2213370103, 2213370074, 2213370068, 2213370070, 2213370045, 2213370042, 2213369897, 2213369893, 2213369742], "tags": {"addr:city": "Chicago", "addr:housenumber": "13507", "addr:postcode": "60633", "addr:state": "IL", "addr:street": "South Brainard Avenue", "addr:street:name": "Brainard", "addr:street:prefix": "South", "addr:street:type": "Avenue", "amenity": "restaurant", "building": "yes", "chicago:building_id": "811018", "cuisine": "mexican", "name": "Gorditas Adrian's", "opening_hours": "Mo-Su 09:00-18:00", "phone": "(872) 666-5704"}}]}