{"version": 0.6, "generator": "Overpass API 0.7.56.3 eb200aeb", "osm3s": {"timestamp_osm_base": "2020-07-04T04:23:02Z", "copyright": "The data included in this document is from www.openstreetmap.org. The data is made available under ODbL."}, "elements": [{"type": "node", "id": 2266364425, "lat": 41.9555586, "lon": -87.804199}, {"type": "node", "id": 2266364492, "lat": 41.9556716, "lon": -87.8046402}, {"type": "node", "id": 2266364512, "lat": 41.9554174, "lon": -87.8045412}, {"type": "node", "id": 2266364529, "lat": 41.9556624, "lon": -87.8045782}, {"type": "node", "id": 2266364535, "lat": 41.9556441, "lon": -87.8046166}, {"type": "node", "id": 2266364550, "lat": 41.9556472, "lon": -87.8046914}, {"type": "node", "id": 2266364580, "lat": 41.9556122, "lon": -87.8046614}, {"type": "node", "id": 2266364630, "lat": 41.9553904, "lon": -87.8046503}, {"type": "node", "id": 2266364641, "lat": 41.9554005, "lon": -87.8046003}, {"type": "node", "id": 2266364757, "lat": 41.9554102, "lon": -87.8046086}, {"type": "node", "id": 2266364903, "lat": 41.9554759, "lon": -87.804418}, {"type": "node", "id": 2266364932, "lat": 41.9558014, "lon": -87.8044144}, {"type": "node", "id": 2266365058, "lat": 41.9556188, "lon": -87.8040763}, {"type": "node", "id": 2266365061, "lat": 41.9555517, "lon": -87.8047888}, {"type": "node", "id": 2266365072, "lat": 41.9554254, "lon": -87.804548}, {"type": "node", "id": 2266365101, "lat": 41.9558616, "lon": -87.8042918}, {"type": "node", "id": 3630426293, "lat": 41.9528814, "lon": -87.8107707, "tags": {"addr:city": "Norridge", "addr:housenumber": "7230", "addr:postcode": "60706", "addr:street": "West Irving Park Road", "amenity": "bar", "name": "City Tap & Grill", "wheelchair": "yes"}}, {"type": "node", "id": 6306488458, "lat": 41.9503507, "lon": -87.8075249, "tags": {"addr:city": "Chicago", "addr:housenumber": "3848", "addr:postcode": "60634", "addr:state": "IL", "addr:street": "North Harlem Avenue", "amenity": "bar", "name": "The Brewery", "phone": "+1-773-625-7818", "website": "https://the-brewery-bar-and-grill.business.site/"}}, {"type": "node", "id": 6315673013, "lat": 41.9525251, "lon": -87.7985204, "tags": {"addr:city": "Chicago", "addr:housenumber": "6859", "addr:postcode": "60634", "addr:state": "IL", "addr:street": "West Irving Park Road", "amenity": "bar", "name": "The Nest Bar & Eatery", "phone": "+1-773-685-7155", "website": "https://thenestbarandeatery.com//"}}, {"type": "node", "id": 7456841260, "lat": 41.9563305, "lon": -87.8066337, "tags": {"amenity": "restaurant", "brand": "Noodles & Company", "brand:wikidata": "Q7049673", "brand:wikipedia": "en:Noodles & Company", "cuisine": "pasta", "name": "Noodles & Company"}}, {"type": "node", "id": 7456841267, "lat": 41.9566975, "lon": -87.8049224, "tags": {"amenity": "restaurant", "brand": "IHOP", "brand:wikidata": "Q1185675", "brand:wikipedia": "en:IHOP", "cuisine": "breakfast;pancake", "name": "IHOP"}}, {"type": "node", "id": 7456841276, "lat": 41.954635, "lon": -87.8087311, "tags": {"amenity": "cafe", "brand": "Starbucks", "brand:wikidata": "Q37158", "brand:wikipedia": "en:Starbucks", "cuisine": "coffee_shop", "name": "Starbucks", "official_name": "Starbucks Coffee", "takeaway": "yes"}}, {"type": "way", "id": 217364120, "nodes": [2266364425, 2266365058, 2266365101, 2266364932, 2266364425], "tags": {"addr:city": "Norridge", "addr:housenumber": "7060", "addr:postcode": "60706", "addr:state": "IL", "addr:street": "West Forest Preserve Drive", "amenity": "restaurant", "brand": "Pizza Hut", "brand:wikidata": "Q191615", "brand:wikipedia": "en:Pizza Hut", "building": "yes", "cuisine": "pizza", "name": "Pizza Hut"}}, {"type": "way", "id": 217364141, "nodes": [2266364641, 2266365072, 2266364512, 2266364903, 2266364529, 2266364535, 2266364492, 2266364550, 2266364580, 2266365061, 2266364630, 2266364757, 2266364641], "tags": {"addr:city": "Norridge", "addr:housenumber": "7070", "addr:postcode": "60706", "addr:state": "IL", "addr:street": "West Forest Preserve Drive", "amenity": "restaurant", "brand": "LongHorn Steakhouse", "brand:wikidata": "Q3259007", "brand:wikipedia": "en:LongHorn Steakhouse", "building": "yes", "cuisine": "steak_house", "name": "LongHorn Steakhouse"}}]}