{"version": 0.6, "generator": "Overpass API 0.7.56.3 eb200aeb", "osm3s": {"timestamp_osm_base": "2020-07-04T04:10:03Z", "copyright": "The data included in this document is from www.openstreetmap.org. The data is made available under ODbL."}, "elements": [{"type": "node", "id": 34877708, "lat": 41.9204448, "lon": -87.694344}, {"type": "node", "id": 34877709, "lat": 41.918438, "lon": -87.6910759}, {"type": "node", "id": 34877711, "lat": 41.9159812, "lon": -87.6870645, "tags": {"name": "Western", "network": "CTA", "operator": "Chicago Transit Authority", "public_transport": "stop_position", "railway": "stop", "subway": "yes"}}, {"type": "node", "id": 34877713, "lat": 41.9117017, "lon": -87.6804428}, {"type": "node", "id": 258282968, "lat": 41.9258971, "lon": -87.7033574}, {"type": "node", "id": 258282969, "lat": 41.9253248, "lon": -87.7024136}, {"type": "node", "id": 258282970, "lat": 41.9242887, "lon": -87.7007116}, {"type": "node", "id": 736035799, "lat": 41.9073321, "lon": -87.6737319}, {"type": "node", "id": 736035834, "lat": 41.910777, "lon": -87.6789671}, {"type": "node", "id": 736035835, "lat": 41.9105003, "lon": -87.6785423}, {"type": "node", "id": 736035836, "lat": 41.9103713, "lon": -87.6783655}, {"type": "node", "id": 736035837, "lat": 41.910279, "lon": -87.6782669}, {"type": "node", "id": 736035838, "lat": 41.9101991, "lon": -87.6781624}, {"type": "node", "id": 736035839, "lat": 41.9101331, "lon": -87.6780606}, {"type": "node", "id": 736035840, "lat": 41.9098778, "lon": -87.6776609, "tags": {"name": "Damen", "public_transport": "stop_position", "railway": "stop", "subway": "yes"}}, {"type": "node", "id": 736035841, "lat": 41.9092997, "lon": -87.6767619}, {"type": "node", "id": 736035842, "lat": 41.9077195, "lon": -87.6742936}, {"type": "node", "id": 1282296225, "lat": 41.9080662, "lon": -87.6747824}, {"type": "node", "id": 1282296244, "lat": 41.9216326, "lon": -87.6962535}, {"type": "node", "id": 1282296250, "lat": 41.9162829, "lon": -87.6874563}, {"type": "node", "id": 1282296257, "lat": 41.9126241, "lon": -87.6818499}, {"type": "node", "id": 1282296292, "lat": 41.9221445, "lon": -87.6970834, "tags": {"name": "California", "network": "CTA", "operator": "Chicago Transit Authority", "public_transport": "stop_position", "railway": "stop", "subway": "yes"}}, {"type": "node", "id": 1282296294, "lat": 41.9101887, "lon": -87.6780816}, {"type": "node", "id": 1282296296, "lat": 41.9108408, "lon": -87.6790096}, {"type": "node", "id": 1282296303, "lat": 41.9248197, "lon": -87.7015347}, {"type": "node", "id": 1282296314, "lat": 41.9103498, "lon": -87.6782854}, {"type": "node", "id": 1282296316, "lat": 41.9073615, "lon": -87.6737116}, {"type": "node", "id": 1282296339, "lat": 41.9256878, "lon": -87.702967}, {"type": "node", "id": 1282296350, "lat": 41.9168846, "lon": -87.6884461}, {"type": "node", "id": 1282296353, "lat": 41.9076841, "lon": -87.6741852}, {"type": "node", "id": 1282296364, "lat": 41.9184433, "lon": -87.6910232}, {"type": "node", "id": 1282296369, "lat": 41.9220155, "lon": -87.6969301, "tags": {"name": "California", "network": "CTA", "operator": "Chicago Transit Authority", "public_transport": "stop_position", "railway": "stop", "subway": "yes"}}, {"type": "node", "id": 1282296370, "lat": 41.9104235, "lon": -87.6783703}, {"type": "node", "id": 1282296375, "lat": 41.9175991, "lon": -87.6896231}, {"type": "node", "id": 1282296381, "lat": 41.9206427, "lon": -87.6946254}, {"type": "node", "id": 1282296384, "lat": 41.9131622, "lon": -87.682601}, {"type": "node", "id": 1282296389, "lat": 41.9102919, "lon": -87.6782263}, {"type": "node", "id": 1282296410, "lat": 41.9259235, "lon": -87.7033303}, {"type": "node", "id": 1282296415, "lat": 41.9241411, "lon": -87.7004082}, {"type": "node", "id": 1282296418, "lat": 41.9093677, "lon": -87.6768128}, {"type": "node", "id": 1282296426, "lat": 41.9069209, "lon": -87.6730341}, {"type": "node", "id": 1282296431, "lat": 41.9154908, "lon": -87.6862997}, {"type": "node", "id": 1282296435, "lat": 41.9233189, "lon": -87.6990483}, {"type": "node", "id": 1282296436, "lat": 41.910242, "lon": -87.6781593}, {"type": "node", "id": 1585389610, "lat": 41.9165513, "lon": -87.6876454, "tags": {"addr:city": "Chicago", "addr:housenumber": "2403", "addr:postcode": "60647", "addr:state": "IL", "addr:street": "West Homer Street", "amenity": "bar", "name": "Green Eye Lounge", "phone": "+1-773-227-8851", "website": "https://greeneyelounge.com/"}}, {"type": "node", "id": 1585392218, "lat": 41.9162779, "lon": -87.6876159, "tags": {"addr:housenumber": "1912", "addr:postcode": "60647", "addr:street": "North Western Avenue", "amenity": "restaurant", "delivery": "yes", "name": "Belly Shack", "phone": "773-252-1414", "takeaway": "yes", "website": "http://www.bellyshack.com/", "wheelchair": "yes"}}, {"type": "node", "id": 1585419572, "lat": 41.9212374, "lon": -87.67314, "tags": {"addr:city": "Chicago", "addr:housenumber": "1809", "addr:postcode": "60614", "addr:state": "IL", "addr:street": "West Webster Avenue", "amenity": "cafe", "cuisine": "coffee_shop", "name": "Little Beans", "phone": "+1-773-251-1025", "website": "https://littlebeanscafe.com/"}}, {"type": "node", "id": 1585420540, "lat": 41.9220517, "lon": -87.6734351, "tags": {"addr:housenumber": "2222", "addr:postcode": "60614", "addr:street": "North Elston Avenue", "amenity": "restaurant", "cuisine": "sandwich", "name": "The Goddess and Grocer", "website": "http://www.goddessandgrocer.com/elston.php"}}, {"type": "node", "id": 1585423403, "lat": 41.9212295, "lon": -87.6779251, "tags": {"addr:housenumber": "2158", "addr:street": "North Damen Avenue", "amenity": "cafe", "cuisine": "coffee_shop", "name": "Bucktown Beanery", "wifi": "free"}}, {"type": "node", "id": 1585425015, "lat": 41.9250199, "lon": -87.6874251, "tags": {"addr:city": "Chicago", "addr:housenumber": "2401", "addr:postcode": "60647", "addr:street": "North Western Avenue", "amenity": "bar", "name": "Quenchers"}}, {"type": "node", "id": 1685093555, "lat": 41.9198795, "lon": -87.6804824, "tags": {"addr:city": "Chicago", "addr:housenumber": "2076", "addr:postcode": "60647", "addr:state": "IL", "addr:street": "North Hoyne Avenue", "amenity": "bar", "name": "Charleston", "phone": "+1-773-489-4757", "website": "https://www.charlestonchicago.com/"}}, {"type": "node", "id": 1699464559, "lat": 41.9178252, "lon": -87.6795216, "tags": {"amenity": "restaurant", "name": "Jack & Ginger's"}}, {"type": "node", "id": 1699464583, "lat": 41.9175667, "lon": -87.677763, "tags": {"addr:city": "Chicago", "addr:housenumber": "1958", "addr:postcode": "60647", "addr:state": "IL", "addr:street": "North Damen Avenue", "amenity": "restaurant", "cuisine": "french", "name": "Le Bouchon", "phone": "+1-773-862-6600", "website": "http://www.lebouchonofchicago.com/"}}, {"type": "node", "id": 1699464827, "lat": 41.9175758, "lon": -87.6802739, "tags": {"amenity": "cafe", "brand": "Starbucks", "brand:wikidata": "Q37158", "brand:wikipedia": "en:Starbucks", "cuisine": "coffee_shop", "name": "Starbucks", "takeaway": "yes"}}, {"type": "node", "id": 1700855290, "lat": 41.9174886, "lon": -87.6851722, "tags": {"addr:city": "Chicago", "addr:housenumber": "1944", "addr:postcode": "60647", "addr:state": "IL", "addr:street": "North Oakley Avenue", "amenity": "bar", "name": "Floyd's Pub", "phone": "+1-773-276-6060", "website": "http://floydspub.net/"}}, {"type": "node", "id": 1888714216, "lat": 41.9103282, "lon": -87.6783226}, {"type": "node", "id": 1888714574, "lat": 41.910236, "lon": -87.6782116}, {"type": "node", "id": 1888714639, "lat": 41.9104235, "lon": -87.6784235}, {"type": "node", "id": 1888715009, "lat": 41.9103848, "lon": -87.6783263}, {"type": "node", "id": 2075140757, "lat": 41.9139307, "lon": -87.6838647}, {"type": "node", "id": 2075140759, "lat": 41.9166407, "lon": -87.688114}, {"type": "node", "id": 2075147078, "lat": 41.9117225, "lon": -87.6803994}, {"type": "node", "id": 2090176575, "lat": 41.9096328, "lon": -87.6772433, "tags": {"name": "Damen", "network": "CTA", "operator": "Chicago Transit Authority", "public_transport": "stop_position", "railway": "stop", "subway": "yes"}}, {"type": "node", "id": 2090182927, "lat": 41.9160063, "lon": -87.6870338, "tags": {"name": "Western", "network": "CTA", "operator": "Chicago Transit Authority", "public_transport": "stop_position", "railway": "stop", "subway": "yes"}}, {"type": "node", "id": 2166647858, "lat": 41.9137167, "lon": -87.6835347}, {"type": "node", "id": 2166647859, "lat": 41.9137443, "lon": -87.6835083}, {"type": "node", "id": 2166647920, "lat": 41.9142308, "lon": -87.6843331}, {"type": "node", "id": 2166647923, "lat": 41.9142442, "lon": -87.6842874}, {"type": "node", "id": 2196191472, "lat": 41.9153855, "lon": -87.6850008}, {"type": "node", "id": 2196191717, "lat": 41.9155028, "lon": -87.6850109}, {"type": "node", "id": 2196191866, "lat": 41.9155111, "lon": -87.6851987}, {"type": "node", "id": 2196192238, "lat": 41.9155961, "lon": -87.6850155}, {"type": "node", "id": 2196192241, "lat": 41.9155966, "lon": -87.6850963}, {"type": "node", "id": 2196192517, "lat": 41.9156236, "lon": -87.6850152}, {"type": "node", "id": 2196192520, "lat": 41.9156252, "lon": -87.6850648}, {"type": "node", "id": 2196193268, "lat": 41.9159196, "lon": -87.6867571}, {"type": "node", "id": 2196193451, "lat": 41.9159617, "lon": -87.6868213}, {"type": "node", "id": 2196193545, "lat": 41.915989, "lon": -87.6867898}, {"type": "node", "id": 2196193552, "lat": 41.9159898, "lon": -87.6867913}, {"type": "node", "id": 2196194592, "lat": 41.9161233, "lon": -87.6865173}, {"type": "node", "id": 2196194760, "lat": 41.916162, "lon": -87.6865768}, {"type": "node", "id": 2196202677, "lat": 41.9176383, "lon": -87.691975}, {"type": "node", "id": 2196202683, "lat": 41.9176422, "lon": -87.6917584}, {"type": "node", "id": 2196202720, "lat": 41.9176585, "lon": -87.6872249}, {"type": "node", "id": 2196202730, "lat": 41.9176651, "lon": -87.6869235}, {"type": "node", "id": 2196202833, "lat": 41.917758, "lon": -87.6917659}, {"type": "node", "id": 2196202841, "lat": 41.9177261, "lon": -87.6872275}, {"type": "node", "id": 2196202858, "lat": 41.9177353, "lon": -87.6869261}, {"type": "node", "id": 2196202906, "lat": 41.9177593, "lon": -87.6918226}, {"type": "node", "id": 2196202907, "lat": 41.9177896, "lon": -87.6918307}, {"type": "node", "id": 2196202979, "lat": 41.9177639, "lon": -87.6918958}, {"type": "node", "id": 2196202980, "lat": 41.9177911, "lon": -87.6918836}, {"type": "node", "id": 2196203152, "lat": 41.9178575, "lon": -87.6872324}, {"type": "node", "id": 2196203213, "lat": 41.9178665, "lon": -87.6869311}, {"type": "node", "id": 2196206485, "lat": 41.9187496, "lon": -87.6872131}, {"type": "node", "id": 2196206495, "lat": 41.9187509, "lon": -87.6870606}, {"type": "node", "id": 2196206652, "lat": 41.9188065, "lon": -87.6872141}, {"type": "node", "id": 2196206656, "lat": 41.9188078, "lon": -87.6870616}, {"type": "node", "id": 2196211921, "lat": 41.9197956, "lon": -87.6878427}, {"type": "node", "id": 2196211927, "lat": 41.9197964, "lon": -87.6877379}, {"type": "node", "id": 2196212294, "lat": 41.9198464, "lon": -87.687844}, {"type": "node", "id": 2196212302, "lat": 41.9198486, "lon": -87.6877393}, {"type": "node", "id": 2196700902, "lat": 41.9250337, "lon": -87.6882088}, {"type": "node", "id": 2196700904, "lat": 41.9250341, "lon": -87.6880416}, {"type": "node", "id": 2196701484, "lat": 41.9252423, "lon": -87.6882104}, {"type": "node", "id": 2196701487, "lat": 41.9252432, "lon": -87.688135}, {"type": "node", "id": 2196702206, "lat": 41.9254038, "lon": -87.6881371}, {"type": "node", "id": 2196702217, "lat": 41.9254046, "lon": -87.688047}, {"type": "node", "id": 2196706116, "lat": 41.9257969, "lon": -87.6882581}, {"type": "node", "id": 2196706176, "lat": 41.925807, "lon": -87.6878611}, {"type": "node", "id": 2196706393, "lat": 41.9258614, "lon": -87.6882611}, {"type": "node", "id": 2196706420, "lat": 41.9258701, "lon": -87.6878641}, {"type": "node", "id": 2200219542, "lat": 41.9136457, "lon": -87.6774098}, {"type": "node", "id": 2200219565, "lat": 41.9136529, "lon": -87.6769799}, {"type": "node", "id": 2200219709, "lat": 41.9137061, "lon": -87.677411}, {"type": "node", "id": 2200219736, "lat": 41.9137132, "lon": -87.6769811}, {"type": "node", "id": 2200226517, "lat": 41.9151977, "lon": -87.6779157}, {"type": "node", "id": 2200226541, "lat": 41.9152021, "lon": -87.6777246}, {"type": "node", "id": 2200226949, "lat": 41.9152554, "lon": -87.6779187}, {"type": "node", "id": 2200226977, "lat": 41.9152584, "lon": -87.6777258}, {"type": "node", "id": 2200230349, "lat": 41.9156231, "lon": -87.6762322}, {"type": "node", "id": 2200230367, "lat": 41.9156253, "lon": -87.6761477}, {"type": "node", "id": 2200231880, "lat": 41.9158522, "lon": -87.6762391}, {"type": "node", "id": 2200232041, "lat": 41.9158741, "lon": -87.6762168}, {"type": "node", "id": 2200232050, "lat": 41.9158751, "lon": -87.6761543}, {"type": "node", "id": 2200242724, "lat": 41.9182738, "lon": -87.682951}, {"type": "node", "id": 2200242734, "lat": 41.918279, "lon": -87.6826497}, {"type": "node", "id": 2200242950, "lat": 41.9183383, "lon": -87.6829522}, {"type": "node", "id": 2200243001, "lat": 41.9183448, "lon": -87.6826527}, {"type": "node", "id": 2665801433, "lat": 41.917717, "lon": -87.6919771}, {"type": "node", "id": 2665801438, "lat": 41.9177654, "lon": -87.6919791}, {"type": "node", "id": 2671405828, "lat": 41.9175718, "lon": -87.680526, "tags": {"amenity": "restaurant", "cuisine": "cuban", "name": "Cafe Laguardia"}}, {"type": "node", "id": 3563902071, "lat": 41.9196387, "lon": -87.691747, "tags": {"amenity": "restaurant", "brand": "Wasabi", "brand:wikidata": "Q23891278", "brand:wikipedia": "en:Wasabi (restaurant)", "cuisine": "japanese", "name": "Wasabi"}}, {"type": "node", "id": 3570187860, "lat": 41.915257, "lon": -87.6847129, "tags": {"addr:city": "Chicago", "addr:housenumber": "1861", "addr:postcode": "60647", "addr:state": "IL", "addr:street": "North Milwaukee Avenue", "amenity": "bar", "name": "Red & White Wine Bar", "opening_hours": "Mo-We 12:00-21:00; Th-Sa 12:00-22:00; Su 12:00-19:00", "phone": "+1-773-486-4769", "website": "https://www.redandwhitewineschicago.com/"}}, {"type": "node", "id": 3570188608, "lat": 41.9149624, "lon": -87.6847822, "tags": {"addr:city": "Chicago", "addr:housenumber": "1846", "addr:postcode": "60647", "addr:state": "Il", "addr:street": "North Milwaukee Avenue", "amenity": "restaurant", "cuisine": "thai", "name": "Silom 12", "phone": "+1-773-489-1212", "website": "http://www.silom12chicago.com/"}}, {"type": "node", "id": 3570207893, "lat": 41.9152965, "lon": -87.6777367, "tags": {"addr:city": "Chicago", "addr:housenumber": "1850", "addr:postcode": "60647", "addr:state": "IL", "addr:street": "North Damen Avenue", "amenity": "bar", "name": "Lemming\u2019s Tavern", "phone": "+1-773-862-1688", "website": "http://www.lemmingstavern.com/"}}, {"type": "node", "id": 3572612795, "lat": 41.9250721, "lon": -87.6885267, "tags": {"addr:city": "Chicago", "addr:housenumber": "2420", "addr:postcode": "60647", "addr:state": "IL", "addr:street": "West Fullerton Avenue", "amenity": "restaurant", "cuisine": "puerto_rican", "name": "La Cocina Boricua de la Familia Galarza", "phone": "+1-773-235-7377"}}, {"type": "node", "id": 3572612796, "lat": 41.9250781, "lon": -87.6884409, "tags": {"amenity": "restaurant", "cuisine": "chinese", "name": "Blue Willow"}}, {"type": "node", "id": 3572612797, "lat": 41.9250761, "lon": -87.6878723, "tags": {"amenity": "restaurant", "name": "Fullerton Restaurant", "opening_hours": "Mo-Su 05:30-16:00"}}, {"type": "node", "id": 3575036693, "lat": 41.9182746, "lon": -87.6851707, "tags": {"addr:city": "Chicago", "addr:housenumber": "2020", "addr:postcode": "60647", "addr:state": "IL", "addr:street": "North Oakley Avenue", "amenity": "bar", "name": "The Gallery Cabaret", "phone": "+1-773-489-5471", "website": "https://www.gallerycabaret.com/"}}, {"type": "node", "id": 3575150416, "lat": 41.918645, "lon": -87.6872335, "tags": {"addr:city": "Chicago", "addr:housenumber": "2035", "addr:postcode": "60647", "addr:state": "IL", "addr:street": "North Western Avenue", "amenity": "cafe", "cuisine": "coffee_shop", "name": "Ipsento", "phone": "+1-773-904-8177", "website": "http://ipsento.com/"}}, {"type": "node", "id": 3575150418, "lat": 41.9201039, "lon": -87.687727, "tags": {"amenity": "restaurant", "cuisine": "pizza", "name": "John's Pizzeria"}}, {"type": "node", "id": 3575150419, "lat": 41.9227343, "lon": -87.6873596, "tags": {"amenity": "restaurant", "cuisine": "mexican", "name": "Quesadilla la Reyna del Sur"}}, {"type": "node", "id": 3575150420, "lat": 41.9226026, "lon": -87.6877914, "tags": {"amenity": "restaurant", "cuisine": "mexican", "name": "Birrieria Estilo Jalisco"}}, {"type": "node", "id": 3575152789, "lat": 41.9222677, "lon": -87.6877992, "tags": {"addr:city": "Chicago", "addr:housenumber": "2218", "addr:postcode": "60647", "addr:state": "IL", "addr:street": "North Western Avenue", "amenity": "bar", "name": "Tap Room", "phone": "+1-773-489-3622"}}, {"type": "node", "id": 3575496169, "lat": 41.9150958, "lon": -87.6777415, "tags": {"addr:city": "Chicago", "addr:housenumber": "1840", "addr:postcode": "60647", "addr:state": "IL", "addr:street": "North Damen Avenue", "amenity": "restaurant", "cuisine": "korean", "name": "En Hakkore", "phone": "+1-773-772-9880", "website": "http://www.enhakkorechicago.com/"}}, {"type": "node", "id": 3575496170, "lat": 41.9153652, "lon": -87.6777415, "tags": {"amenity": "restaurant", "cuisine": "pizza", "name": "Sarpino's"}}, {"type": "node", "id": 3575496171, "lat": 41.9176357, "lon": -87.6778131, "tags": {"addr:city": "Chicago", "addr:housenumber": "1960", "addr:postcode": "60647", "addr:state": "IL", "addr:street": "North Damen Avenue", "amenity": "restaurant", "cuisine": "japanese", "name": "Izakaya Mita", "phone": "+1-773-799-8677", "website": "http://www.izakayamita.com/"}}, {"type": "node", "id": 3575497026, "lat": 41.9137424, "lon": -87.6773235, "tags": {"amenity": "restaurant", "name": "Presidio"}}, {"type": "node", "id": 3660929470, "lat": 41.9250279, "lon": -87.687063, "tags": {"addr:city": "Chicago", "addr:housenumber": "2346", "addr:postcode": "60647", "addr:state": "IL", "addr:street": "West Fullerton Avenue", "amenity": "restaurant", "name": "Estrella Negra", "phone": "+1-773-227-5993", "website": "http://estrellanegra.com/"}}, {"type": "node", "id": 3660929473, "lat": 41.9257822, "lon": -87.6874761, "tags": {"amenity": "restaurant", "name": "Sonny's Pizza"}}, {"type": "node", "id": 3791781401, "lat": 41.9212458, "lon": -87.6745362}, {"type": "node", "id": 3791781402, "lat": 41.9212687, "lon": -87.6745054}, {"type": "node", "id": 3791781403, "lat": 41.9213604, "lon": -87.6745054}, {"type": "node", "id": 3791781404, "lat": 41.9213833, "lon": -87.6735657}, {"type": "node", "id": 3791781405, "lat": 41.9209615, "lon": -87.6735626}, {"type": "node", "id": 3791781406, "lat": 41.9209615, "lon": -87.6736334}, {"type": "node", "id": 3791781407, "lat": 41.9209088, "lon": -87.6736797}, {"type": "node", "id": 3791781408, "lat": 41.9208881, "lon": -87.6736396}, {"type": "node", "id": 3791781409, "lat": 41.9207941, "lon": -87.6737351}, {"type": "node", "id": 3863476802, "lat": 41.9215071, "lon": -87.6788359, "tags": {"addr:city": "Chicago", "addr:housenumber": "2026", "addr:postcode": "60647", "addr:state": "IL", "addr:street": "West Webster Avenue", "amenity": "bar", "name": "Burke\u2019s Web Pub", "phone": "+1-773-276-3411"}}, {"type": "node", "id": 3863476803, "lat": 41.9220332, "lon": -87.6828391, "tags": {"addr:city": "Chicago", "addr:housenumber": "2224", "addr:postcode": "60647", "addr:state": "IL", "addr:street": "North Leavitt Street", "amenity": "bar", "name": "The Corner Bar", "website": "http://cornerbarchicago.com/"}}, {"type": "node", "id": 3882461187, "lat": 41.9247152, "lon": -87.6902194, "tags": {"amenity": "restaurant", "cuisine": "sushi", "name": "S@kura"}}, {"type": "node", "id": 4718913030, "lat": 41.9160583, "lon": -87.6875926, "tags": {"addr:city": "Chicago", "addr:housenumber": "1904", "addr:postcode": "60647", "addr:state": "IL", "addr:street": "North Western Avenue", "amenity": "restaurant", "cuisine": "italian", "name": "Animale", "opening_hours": "Su 12:00-21:00; Mo-Sa 12:00-22:00", "website": "http://www.animalechicago.com/"}}, {"type": "node", "id": 5025496847, "lat": 41.9144268, "lon": -87.6832788, "tags": {"addr:city": "Chicago", "addr:housenumber": "1813", "addr:postcode": "60647", "addr:state": "IL", "addr:street": "North Milwaukee Avenue", "amenity": "cafe", "cuisine": "coffee_shop", "name": "Ipsento 606", "phone": "+1-872-206-8697", "website": "http://ipsento.com/"}}, {"type": "node", "id": 5597509522, "lat": 41.9143219, "lon": -87.6838026, "tags": {"addr:city": "Chicago", "addr:housenumber": "1812", "addr:postcode": "60647", "addr:state": "IL", "addr:street": "North Milwaukee Avenue", "amenity": "restaurant", "cuisine": "pizza;burger;american", "name": "The Stop Along", "phone": "1+773-394-4694", "website": "https://www.thestopalong.com/"}}, {"type": "node", "id": 6258328991, "lat": 41.9169917, "lon": -87.6774345, "tags": {"addr:city": "Chicago", "addr:housenumber": "1935", "addr:postcode": "60647", "addr:state": "IL", "addr:street": "North Damen Avenue", "amenity": "restaurant", "name": "6 Degrees", "phone": "+1-773-904-8812", "website": "https://www.6degreesbucktown.com/"}}, {"type": "node", "id": 6280739326, "lat": 41.9251527, "lon": -87.6911495, "tags": {"addr:city": "Chicago", "addr:housenumber": "2524", "addr:postcode": "60647", "addr:state": "IL", "addr:street": "West Fullerton Avenue", "amenity": "cafe", "cuisine": "coffee_shop", "name": "Cherubs", "phone": "+1-773-235-8103"}}, {"type": "node", "id": 6282647776, "lat": 41.925444, "lon": -87.6792724, "tags": {"addr:city": "Chicago", "addr:housenumber": "2444", "addr:postcode": "60647", "addr:state": "IL", "addr:street": "North Elston Avenue", "amenity": "cafe", "name": "Chromium", "phone": "+1-773-235-2300", "website": "https://www.midtown.com/chicago"}}, {"type": "node", "id": 6283090050, "lat": 41.9189969, "lon": -87.6773565, "tags": {"addr:city": "Chicago", "addr:housenumber": "2045", "addr:postcode": "60647", "addr:state": "IL", "addr:street": "North Damen Avenue", "amenity": "restaurant", "name": "Coast Sushi Bar", "phone": "+1-773-235-5775", "website": "http://www.coastsushi.net/"}}, {"type": "node", "id": 6284097746, "lat": 41.9194305, "lon": -87.6772409, "tags": {"addr:city": "Chicago", "addr:housenumber": "1951", "addr:postcode": "60647", "addr:state": "IL", "addr:street": "West Dickens Avenue", "amenity": "bar", "name": "Danny\u2019s Tavern", "phone": "+1-773-489-6457"}}, {"type": "node", "id": 6284196705, "lat": 41.9155759, "lon": -87.6876655, "tags": {"addr:city": "Chicago", "addr:housenumber": "1856", "addr:postcode": "60647", "addr:state": "IL", "addr:street": "North Western Avenue", "amenity": "cafe", "cuisine": "coffee_shop", "name": "Dark Matter Coffee - Electric Mud Coffee Bar", "phone": "+1-773-698-6086", "website": "https://www.darkmattercoffee.com/"}}, {"type": "node", "id": 6285013873, "lat": 41.9179598, "lon": -87.6789791, "tags": {"addr:city": "Chicago", "addr:housenumber": "2032", "addr:postcode": "60647", "addr:state": "IL", "addr:street": "West Armitage Avenue", "amenity": "bar", "name": "Ed and Jean\u2019s Tavern", "phone": "+1-773-851-8054", "website": "http://www.edandjeanstavern.com/"}}, {"type": "node", "id": 6291799872, "lat": 41.9179762, "lon": -87.6773811, "tags": {"addr:city": "Chicago", "addr:housenumber": "1954", "addr:postcode": "60622", "addr:state": "IL", "addr:street": "West Armitage Avenue", "amenity": "bar", "name": "Gigi\u2019s Kitchen", "phone": "+1-773-799-8290", "website": "https://www.gigischicago.com/"}}, {"type": "node", "id": 6300575607, "lat": 41.9195848, "lon": -87.6915995, "tags": {"addr:city": "Chicago", "addr:housenumber": "2101", "addr:postcode": "60647", "addr:state": "IL", "addr:street": "North Milwaukee Avenue", "amenity": "restaurant", "name": "Ramen Wasabi", "phone": "+1-773-227-8180", "website": "http://www.wasabichicago.com/"}}, {"type": "node", "id": 6300841827, "lat": 41.9226924, "lon": -87.6878062, "tags": {"addr:city": "Chicago", "addr:housenumber": "2234", "addr:postcode": "60647", "addr:state": "IL", "addr:street": "North Western Avenue", "amenity": "restaurant", "cuisine": "mexican", "name": "Restaurante El Comalito", "phone": "+1-773-666-5558"}}, {"type": "node", "id": 6300965222, "lat": 41.920137, "lon": -87.6779363, "tags": {"addr:city": "Chicago", "addr:housenumber": "2118", "addr:postcode": "60647", "addr:state": "IL", "addr:street": "North Damen Avenue", "amenity": "restaurant", "name": "The Royal Grocer & Co", "phone": "+1-773-904-7805", "website": "http://www.royalgrocer.com/"}}, {"type": "node", "id": 6305261850, "lat": 41.9178287, "lon": -87.6843751, "tags": {"addr:city": "Chicago", "addr:housenumber": "2246", "addr:postcode": "60647", "addr:state": "IL", "addr:street": "West Armitage Avenue", "amenity": "restaurant", "name": "The Bento Box", "phone": "+1-773-278-3932"}}, {"type": "node", "id": 6306494893, "lat": 41.9210516, "lon": -87.6779871, "tags": {"addr:city": "Chicago", "addr:housenumber": "2152", "addr:postcode": "60647", "addr:state": "IL", "addr:street": "North Damen Avenue", "amenity": "restaurant", "name": "The Bristol", "phone": "+1-773-862-5555", "website": "http://www.thebristolchicago.com/"}}, {"type": "node", "id": 6306837969, "lat": 41.9185363, "lon": -87.6905608, "tags": {"addr:city": "Chicago", "addr:housenumber": "2050", "addr:postcode": "60647", "addr:state": "IL", "addr:street": "North Milwaukee Avenue", "amenity": "restaurant", "name": "Turbo Tacos", "phone": "+1-773-360-8892"}}, {"type": "node", "id": 6315663847, "lat": 41.917591, "lon": -87.6798155, "tags": {"addr:city": "Chicago", "addr:housenumber": "1949", "addr:postcode": "60647", "addr:state": "IL", "addr:street": "North Hoyne Avenue", "amenity": "bar", "name": "The Map Room", "phone": "+1-773-252-7636", "website": "http://www.maproom.com/"}}, {"type": "node", "id": 6317085920, "lat": 41.9136888, "lon": -87.6820343, "tags": {"addr:city": "Chicago", "addr:housenumber": "1767", "addr:postcode": "60647", "addr:state": "IL", "addr:street": "North Milwaukee Avenue", "amenity": "restaurant", "name": "Yolk Test Kitchen - Bucktown", "phone": "(312) 348-1333", "website": "https://www.eatyolk.com/"}}, {"type": "node", "id": 6319024840, "lat": 41.9161269, "lon": -87.6778008, "tags": {"addr:city": "Chicago", "addr:housenumber": "1880", "addr:postcode": "60647", "addr:state": "IL", "addr:street": "North Damen Avenue", "amenity": "restaurant", "name": "JuiceRx", "phone": "+1-312-252-4938", "website": "https://drinkjuicerx.com/"}}, {"type": "node", "id": 6320623852, "lat": 41.9157481, "lon": -87.6761961, "tags": {"addr:city": "Chicago", "addr:housenumber": "1925", "addr:postcode": "60647", "addr:state": "IL", "addr:street": "West Cortland Street", "amenity": "bar", "name": "Lottie\u2019s Pub", "phone": "+1-773-489-0738", "website": "http://www.lottiespub.com/"}}, {"type": "node", "id": 6321781325, "lat": 41.9162275, "lon": -87.6737745, "tags": {"addr:city": "Chicago", "addr:housenumber": "1824", "addr:postcode": "60647", "addr:state": "IL", "addr:street": "West Cortland Street", "amenity": "bar", "name": "Rory Lake\u2019s Karaoke Dreams", "phone": "+1-773-278-0093", "website": "http://www.rorylakepresents.com/"}}, {"type": "node", "id": 6323737136, "lat": 41.9189197, "lon": -87.6877538, "tags": {"addr:city": "Chicago", "addr:housenumber": "2044", "addr:postcode": "60647", "addr:state": "IL", "addr:street": "North Western Avenue", "amenity": "bar", "name": "O\u2019s Tap", "phone": "+1-773-850-5451"}}, {"type": "node", "id": 6324263888, "lat": 41.9231811, "lon": -87.6879259, "tags": {"addr:city": "Chicago", "addr:housenumber": "2252", "addr:postcode": "60647", "addr:state": "IL", "addr:street": "North Western Avenue", "amenity": "restaurant", "cuisine": "cuban", "name": "Paladar", "phone": "+1-773-252-4747", "website": "http://paladarchicago.com/"}}, {"type": "node", "id": 6324384805, "lat": 41.9160456, "lon": -87.6876461, "tags": {"addr:city": "Chicago", "addr:housenumber": "1904", "addr:postcode": "60647", "addr:state": "IL", "addr:street": "North Western Avenue", "amenity": "restaurant", "name": "Langhe Market", "phone": "+1-872-315-3912", "website": "http://langhemarket.com/"}}, {"type": "node", "id": 6842444182, "lat": 41.9144405, "lon": -87.6839628, "tags": {"addr:city": "Chicago", "addr:housenumber": "1818", "addr:street": "North Milwaukee Avenue", "amenity": "cafe", "name": "Easthill Tea"}}, {"type": "node", "id": 7185921676, "lat": 41.9174218, "lon": -87.6879726, "tags": {"addr:city": "Chicago", "addr:housenumber": "1965", "addr:postcode": "60647", "addr:state": "IL", "addr:street": "North Milwaukee Avenue", "amenity": "cafe", "name": "Chicago Board Game Cafe", "phone": "+1-(224) 208-5346", "website": "https://www.chicagogamecafe.com"}}, {"type": "node", "id": 7411640772, "lat": 41.9212534, "lon": -87.6731346, "tags": {"amenity": "cafe", "name": "Little Beans Cafe & Playspace"}}, {"type": "way", "id": 59343237, "nodes": [258282968, 258282969, 258282970, 1282296369, 34877708, 34877709, 2075140759, 34877711, 1282296431, 2166647920], "tags": {"bridge": "yes", "electrified": "rail", "frequency": "0", "gauge": "1435", "layer": "2", "name": "O'Hare Branch", "old_name": "Logan Square Branch", "oneway": "yes", "operator": "Chicago Transit Authority", "railway": "subway", "voltage": "600"}}, {"type": "way", "id": 112926174, "nodes": [2166647923, 2090182927, 1282296250, 1282296350, 1282296375, 1282296364, 1282296381, 1282296244, 1282296292, 1282296435, 1282296415, 1282296303, 1282296339, 1282296410], "tags": {"bridge": "yes", "electrified": "rail", "frequency": "0", "gauge": "1435", "name": "O'Hare Branch", "oneway": "yes", "operator": "Chicago Transit Authority", "railway": "subway", "voltage": "600"}}, {"type": "way", "id": 206629205, "nodes": [1282296426, 1282296316, 1282296353, 1282296225, 1282296418, 2090176575, 1282296294, 1282296436, 1282296389, 1282296314, 1888715009, 1282296370, 1282296296, 2075147078, 1282296384, 2166647859], "tags": {"bridge": "yes", "electrified": "rail", "frequency": "0", "gauge": "1435", "name": "O'Hare Branch", "oneway": "yes", "operator": "Chicago Transit Authority", "railway": "subway", "voltage": "600"}}, {"type": "way", "id": 206629206, "nodes": [2166647858, 1282296257, 34877713, 736035834, 736035835, 1888714639, 736035836, 1888714216, 736035837, 1888714574, 736035838, 736035839, 736035840, 736035841, 736035842, 736035799], "tags": {"bridge": "yes", "electrified": "rail", "frequency": "0", "gauge": "1435", "layer": "2", "name": "O'Hare Branch", "old_name": "Logan Square Branch", "oneway": "yes", "operator": "Chicago Transit Authority", "railway": "subway", "voltage": "600"}}, {"type": "way", "id": 206629207, "nodes": [2166647923, 2166647859], "tags": {"bridge": "yes", "electrified": "rail", "frequency": "0", "gauge": "1435", "layer": "2", "name": "O'Hare Branch", "operator": "Chicago Transit Authority", "railway": "subway", "voltage": "600"}}, {"type": "way", "id": 206629208, "nodes": [2166647920, 2075140757, 2166647858], "tags": {"bridge": "yes", "electrified": "rail", "frequency": "0", "gauge": "1435", "layer": "2", "name": "O'Hare Branch", "old_name": "Logan Square Branch", "operator": "Chicago Transit Authority", "railway": "subway", "voltage": "600"}}, {"type": "way", "id": 209403314, "nodes": [2196191472, 2196191866, 2196192241, 2196192520, 2196192517, 2196192238, 2196191717, 2196191472], "tags": {"addr:housenumber": "1865", "addr:street": "North Milwaukee Avenue", "addr:street:name": "Milwaukee", "addr:street:prefix": "North", "addr:street:type": "Avenue", "amenity": "restaurant", "building": "yes", "building:levels": "1", "chicago:building_id": "291593", "cuisine": "costa_rican", "description": "Costa Rican restaurant, BYOB", "name": "Irazu", "opening_hours": "Mo-Sa 11:30-21:30", "phone": "+1 773-252-5687", "website": "http://www.irazuchicago.com/phone/index.html"}}, {"type": "way", "id": 209403393, "nodes": [2196193451, 2196193545, 2196193552, 2196194760, 2196194592, 2196193268, 2196193451], "tags": {"addr:city": "Chicago", "addr:housenumber": "1910", "addr:postcode": "60647", "addr:state": "IL", "addr:street": "North Milwaukee Avenue", "addr:street:name": "Milwaukee", "addr:street:prefix": "North", "addr:street:type": "Avenue", "amenity": "bar", "building": "yes", "building:levels": "2", "chicago:building_id": "843412", "name": "Remedy", "phone": "+1-773-698-7715", "website": "http://remedybarchicago.com/"}}, {"type": "way", "id": 209403724, "nodes": [2196202841, 2196202858, 2196202730, 2196202720, 2196202841], "tags": {"addr:housenumber": "2001", "addr:street": "North Western Avenue", "addr:street:name": "Western", "addr:street:prefix": "North", "addr:street:type": "Avenue", "amenity": "restaurant", "building": "yes", "building:levels": "1", "chicago:building_id": "831855", "cuisine": "mexican", "name": "Arturo's Tacos"}}, {"type": "way", "id": 209403727, "nodes": [2196203152, 2196203213, 2196202858, 2196202841, 2196203152], "tags": {"addr:housenumber": "2003", "addr:street": "North Western Avenue", "addr:street:name": "Western", "addr:street:prefix": "North", "addr:street:type": "Avenue", "amenity": "restaurant", "building": "yes", "building:levels": "1", "chicago:building_id": "831857", "cuisine": "mexican", "name": "Lazo's"}}, {"type": "way", "id": 209403858, "nodes": [2196206485, 2196206652, 2196206656, 2196206495, 2196206485], "tags": {"addr:housenumber": "2041", "addr:postcode": "60647", "addr:street": "North Western Avenue", "addr:street:name": "Western", "addr:street:prefix": "North", "addr:street:type": "Avenue", "amenity": "restaurant", "building": "yes", "building:levels": "2", "chicago:building_id": "282784", "cuisine": "chicken", "name": "The Art of Chicken"}}, {"type": "way", "id": 209404000, "nodes": [2196211921, 2196212294, 2196212302, 2196211927, 2196211921], "tags": {"addr:housenumber": "2072-2076", "addr:street": "North Western Avenue", "addr:street:name": "Western", "addr:street:prefix": "North", "addr:street:type": "Avenue", "amenity": "restaurant", "building": "yes", "building:levels": "1", "chicago:building_id": "279088", "cuisine": "Hot_dog,Polish sausage,Fried shrimp", "name": "Red Hot Ranch", "note": "Cash only.  There is an atm outside."}}, {"type": "way", "id": 209405949, "nodes": [2196202677, 2665801433, 2665801438, 2196202979, 2196202980, 2196202907, 2196202906, 2196202833, 2196202683, 2196202677], "tags": {"addr:city": "Chicago", "addr:housenumber": "2540", "addr:postcode": "60647", "addr:state": "IL", "addr:street": "West Armitage Avenue", "addr:street:name": "Armitage", "addr:street:prefix": "West", "addr:street:type": "Avenue", "amenity": "restaurant", "building": "yes", "building:levels": "1", "chicago:building_id": "286278", "cuisine": "Hispanic,_Cuban", "name": "90 Miles Cuban Cafe", "phone": "+1-773-227-2822", "website": "https://www.90milescubancafe.com/"}}, {"type": "way", "id": 209454070, "nodes": [2196700902, 2196701484, 2196701487, 2196702206, 2196702217, 2196700904, 2196700902], "tags": {"addr:housenumber": "2410", "addr:street": "West Fullerton Avenue", "addr:street:name": "Fullerton", "addr:street:prefix": "West", "addr:street:type": "Avenue", "amenity": "bar", "building": "yes", "building:levels": "2", "chicago:building_id": "262840", "name": "Logan Arcade"}}, {"type": "way", "id": 209454230, "nodes": [2196706116, 2196706393, 2196706420, 2196706176, 2196706116], "tags": {"addr:housenumber": "2428", "addr:street": "North Western Avenue", "addr:street:name": "Western", "addr:street:prefix": "North", "addr:street:type": "Avenue", "amenity": "bar", "building": "yes", "building:levels": "1", "chicago:building_id": "261401", "name": "The Mutiny"}}, {"type": "way", "id": 209866943, "nodes": [2200219542, 2200219709, 2200219736, 2200219565, 2200219542], "tags": {"addr:city": "Chicago", "addr:housenumber": "1747", "addr:postcode": "60647", "addr:state": "IL", "addr:street": "North Damen Avenue", "addr:street:type": "Avenue", "amenity": "restaurant", "name": "Mindy's Hot Chocolate", "phone": "+1-773-489-1747", "website": "http://www.hotchocolatechicago.com/"}}, {"type": "way", "id": 209867401, "nodes": [2200226517, 2200226949, 2200226977, 2200226541, 2200226517], "tags": {"addr:housenumber": "1846", "addr:street": "North Damen Avenue", "addr:street:name": "Damen", "addr:street:prefix": "North", "addr:street:type": "Avenue", "amenity": "restaurant", "building": "yes", "building:levels": "2", "chicago:building_id": "292431", "cuisine": "ice_cream", "name": "Miko's Italian Ice"}}, {"type": "way", "id": 209867804, "nodes": [2200230349, 2200231880, 2200232041, 2200232050, 2200230367, 2200230349], "tags": {"addr:city": "Chicago", "addr:housenumber": "1925", "addr:postcode": "60647", "addr:state": "IL", "addr:street": "West Cortland Street", "addr:street:name": "Cortland", "addr:street:prefix": "West", "addr:street:type": "Street", "amenity": "bar", "building": "yes", "building:levels": "1", "chicago:building_id": "290841", "name": "Lottie's Pub", "phone": "+1-773-489-0738", "website": "http://www.lottiespub.com/"}}, {"type": "way", "id": 209868352, "nodes": [2200242724, 2200242950, 2200243001, 2200242734, 2200242724], "tags": {"addr:city": "Chicago", "addr:housenumber": "2020", "addr:postcode": "60647", "addr:state": "IL", "addr:street": "North Leavitt Street", "addr:street:name": "Leavitt", "addr:street:prefix": "North", "addr:street:type": "Street", "amenity": "cafe", "building": "yes", "building:levels": "2", "chicago:building_id": "284167", "name": "Red June", "phone": "+1-773-227-2600", "website": "http://www.redjunecafe.com/"}}, {"type": "way", "id": 375835721, "nodes": [3791781401, 3791781402, 3791781403, 3791781404, 3791781405, 3791781406, 3791781407, 3791781408, 3791781409, 3791781401], "tags": {"amenity": "bar", "building": "yes", "building:levels": "2", "name": "WhirlyBall"}}]}