{"version": 0.6, "generator": "Overpass API 0.7.56.3 eb200aeb", "osm3s": {"timestamp_osm_base": "2020-07-04T01:09:02Z", "copyright": "The data included in this document is from www.openstreetmap.org. The data is made available under ODbL."}, "elements": [{"type": "node", "id": 2207604483, "lat": 41.9016614, "lon": -87.6281971}, {"type": "node", "id": 2207604487, "lat": 41.9016647, "lon": -87.6281282}, {"type": "node", "id": 2207604511, "lat": 41.9017061, "lon": -87.6282009}, {"type": "node", "id": 2207604513, "lat": 41.9017093, "lon": -87.628132}, {"type": "node", "id": 2207605389, "lat": 41.9025321, "lon": -87.6286255}, {"type": "node", "id": 2207605390, "lat": 41.9025322, "lon": -87.628642}, {"type": "node", "id": 2207605395, "lat": 41.902528, "lon": -87.6291447}, {"type": "node", "id": 2207605398, "lat": 41.902532, "lon": -87.6285681}, {"type": "node", "id": 2207605614, "lat": 41.9027025, "lon": -87.6291512}, {"type": "node", "id": 2207605631, "lat": 41.902705, "lon": -87.6289318}, {"type": "node", "id": 2207605641, "lat": 41.9027089, "lon": -87.6286203}, {"type": "node", "id": 2207607263, "lat": 41.9039337, "lon": -87.6361013}, {"type": "node", "id": 2207607264, "lat": 41.9039326, "lon": -87.6362491}, {"type": "node", "id": 2207607343, "lat": 41.9040848, "lon": -87.6361034}, {"type": "node", "id": 2207607348, "lat": 41.9040836, "lon": -87.6362512}, {"type": "node", "id": 2207608395, "lat": 41.9050307, "lon": -87.6350389}, {"type": "node", "id": 2207608406, "lat": 41.9050381, "lon": -87.634666}, {"type": "node", "id": 2207608564, "lat": 41.9050966, "lon": -87.6350233}, {"type": "node", "id": 2207608565, "lat": 41.9050962, "lon": -87.6350412}, {"type": "node", "id": 2207608584, "lat": 41.9051036, "lon": -87.6346683}, {"type": "node", "id": 2207608926, "lat": 41.9052211, "lon": -87.6348978}, {"type": "node", "id": 2207608949, "lat": 41.9052256, "lon": -87.6346727}, {"type": "node", "id": 2207609009, "lat": 41.9052681, "lon": -87.6348995}, {"type": "node", "id": 2207609010, "lat": 41.9052679, "lon": -87.6349087}, {"type": "node", "id": 2207609030, "lat": 41.9052784, "lon": -87.6348583}, {"type": "node", "id": 2207609040, "lat": 41.905282, "lon": -87.6346747}, {"type": "node", "id": 2207609057, "lat": 41.9052917, "lon": -87.6348588}, {"type": "node", "id": 2207609060, "lat": 41.9052907, "lon": -87.6349095}, {"type": "node", "id": 2207609172, "lat": 41.9053678, "lon": -87.6350447}, {"type": "node", "id": 2207609174, "lat": 41.9053698, "lon": -87.6349183}, {"type": "node", "id": 2207609177, "lat": 41.9053694, "lon": -87.6349183}, {"type": "node", "id": 2207609180, "lat": 41.9053714, "lon": -87.6347878}, {"type": "node", "id": 2207609186, "lat": 41.9053717, "lon": -87.6347592}, {"type": "node", "id": 2207609188, "lat": 41.9053728, "lon": -87.6346746}, {"type": "node", "id": 2207609269, "lat": 41.9054415, "lon": -87.6350463}, {"type": "node", "id": 2207609270, "lat": 41.9054429, "lon": -87.6349285}, {"type": "node", "id": 2207609278, "lat": 41.9054461, "lon": -87.6346763}, {"type": "node", "id": 2465890859, "lat": 41.9037941, "lon": -87.6301786, "tags": {"amenity": "cafe", "brand": "Starbucks", "brand:wikidata": "Q37158", "brand:wikipedia": "en:Starbucks", "cuisine": "coffee_shop", "name": "Starbucks", "official_name": "Starbucks Coffee", "takeaway": "yes"}}, {"type": "node", "id": 2480059861, "lat": 41.9048924, "lon": -87.6390534, "tags": {"amenity": "cafe", "brand": "Starbucks", "brand:wikidata": "Q37158", "brand:wikipedia": "en:Starbucks", "cuisine": "coffee_shop", "name": "Starbucks", "official_name": "Starbucks Coffee", "takeaway": "yes"}}, {"type": "node", "id": 2480104438, "lat": 41.9040444, "lon": -87.6346483, "tags": {"addr:city": "Chicago", "addr:housenumber": "1202", "addr:postcode": "60610", "addr:state": "IL", "addr:street": "North Wells Street", "amenity": "restaurant", "cuisine": "english", "name": "Glunz Tavern", "opening_hours": "Tu-Th 17:00-00:00; Fr 12:00-02:00; Sa 10:00-02:00; Su 10:00-23:00", "phone": "+1-312-642-3001", "website": "http://www.glunztavern.com"}}, {"type": "node", "id": 3076177733, "lat": 41.9017806, "lon": -87.628498, "tags": {"amenity": "restaurant", "name": "Dublins Bar and Grill"}}, {"type": "node", "id": 3076179333, "lat": 41.8993192, "lon": -87.6280903, "tags": {"addr:city": "Chicago", "addr:housenumber": "10", "addr:postcode": "60611", "addr:state": "IL", "addr:street": "East Delaware Place", "amenity": "cafe", "brand": "Le Pain Quotidien", "brand:wikidata": "Q2046903", "brand:wikipedia": "en:Le Pain Quotidien", "cuisine": "coffee_shop", "name": "Le Pain Quotidien", "phone": "+1-312-380-6665", "takeaway": "yes", "website": "https://www1.lepainquotidien.com/us/en/locations/603/10-e-delaware-pl"}}, {"type": "node", "id": 3076179433, "lat": 41.8984675, "lon": -87.6280907, "tags": {"addr:city": "Chicago", "addr:housenumber": "6", "addr:postcode": "60611", "addr:state": "IL", "addr:street": "East Chestnut Street", "amenity": "cafe", "name": "Tempo Cafe", "phone": "+1-312-943-4373", "website": "http://www.tempochicago.com/"}}, {"type": "node", "id": 3114037604, "lat": 41.9003844, "lon": -87.6377709, "tags": {"amenity": "restaurant", "cuisine": "kyrgyz", "name": "Dastorkon"}}, {"type": "node", "id": 3926278417, "lat": 41.9022222, "lon": -87.628503, "tags": {"addr:city": "Chicago", "addr:country": "US", "addr:housenumber": "1110", "addr:postcode": "60610", "addr:state": "IL", "addr:street": "North State Street", "amenity": "restaurant", "cuisine": "mexican", "name": "Velvet Taco", "takeaway": "yes", "wheelchair": "yes"}}, {"type": "node", "id": 4006777056, "lat": 41.9027749, "lon": -87.6283042, "tags": {"addr:city": "Chicago", "addr:housenumber": "1131", "addr:postcode": "60610", "addr:state": "IL", "addr:street": "North State Street", "amenity": "restaurant", "cuisine": "french", "delivery": "no", "name": "Bistrot Zinc", "phone": "(312) 337-1131", "takeaway": "no", "website": "bistrotzinc.com"}}, {"type": "node", "id": 4431654562, "lat": 41.9025298, "lon": -87.6290791}, {"type": "node", "id": 4726228300, "lat": 41.9029694, "lon": -87.628362, "tags": {"amenity": "restaurant", "name": "RA Sushi Bar", "opening_hours": "Mo-Su 11:00-01:00"}}, {"type": "node", "id": 5310397019, "lat": 41.8983773, "lon": -87.6374532, "tags": {"addr:city": "Chicago", "addr:housenumber": "860", "addr:postcode": "60610", "addr:state": "IL", "addr:street": "North Orleans Street", "amenity": "restaurant", "cuisine": "american", "description": "Hot dogs and fast food. Featured on Diners, Drive Ins, and Dives.", "name": "BIG & little's Restaurant", "opening_hours": "Mo-Fr 11:00-21:00; Sa 12:00-21:00; Su 12:00-20:00", "phone": "+1-312-943-0000", "website": "https://www.bigandlittleschicago.com/"}}, {"type": "node", "id": 5460859747, "lat": 41.9033294, "lon": -87.6306073, "tags": {"addr:city": "Chicago", "addr:housenumber": "52", "addr:postcode": "60610", "addr:state": "IL", "addr:street": "West Elm Street", "amenity": "restaurant", "cuisine": "american", "name": "Blue Door Kitchen & Garden", "opening_hours": "Mo-Th 11:00-22:00; Fr 11:00-23:00; Sa 09:00-23:00; Su 09:00-22:00", "phone": "+1-312-573-4000", "website": "https://bluedoorkitchenchicago.com/"}}, {"type": "node", "id": 6221682531, "lat": 41.9023751, "lon": -87.6288081, "tags": {"addr:city": "Chicago", "addr:housenumber": "1112", "addr:postcode": "60610", "addr:state": "IL", "addr:street": "North State Street", "amenity": "restaurant", "name": "Somerset", "phone": "+1-312-586-2150", "website": "https://www.somersetchicago.com/"}}, {"type": "node", "id": 6221707063, "lat": 41.902338, "lon": -87.6288061, "tags": {"addr:city": "Chicago", "addr:housenumber": "1112", "addr:postcode": "60610", "addr:state": "IL", "addr:street": "North State Street", "amenity": "restaurant", "cuisine": "tapas;cocktail", "name": "Devereaux", "opening_hours": "Su-Th 16:00-23:00; Fr 12:00-14:00, 16:00-02:00; Sa 16:00-00:00", "operator": "Boka Restaurant Group", "phone": "+1-312-586-2160", "website": "https://www.devereauxchicago.com/"}}, {"type": "node", "id": 6226279492, "lat": 41.9041723, "lon": -87.6347462, "tags": {"addr:city": "Chicago", "addr:housenumber": "1208", "addr:postcode": "60610", "addr:state": "IL", "addr:street": "North Wells Street", "amenity": "bar", "name": "The Rabbit Hole", "phone": "+1-312-274-1824", "website": "https://www.therabbitholechicago.com/"}}, {"type": "node", "id": 6237287435, "lat": 41.9059085, "lon": -87.6304864, "tags": {"addr:city": "Chicago", "addr:housenumber": "1300", "addr:postcode": "60610", "addr:state": "IL", "addr:street": "North Dearborn Parkway", "amenity": "restaurant", "cuisine": "american", "name": "3 Arts Club Caf\u00e9", "opening_hours": "Mo-Sa 10:00-20:00; Su 11:00-18:00", "phone": "+1-312-475-9116", "website": "3artsclubcafe.com"}}, {"type": "node", "id": 6238840231, "lat": 41.9019662, "lon": -87.6287408, "tags": {"addr:city": "Chicago", "addr:housenumber": "8", "addr:postcode": "60610", "addr:state": "IL", "addr:street": "West Maple Street", "amenity": "restaurant", "cuisine": "american", "name": "Maple & Ash", "opening_hours": "Mo-Th 17:00-22:00; Fr 17:00-23:00; Sa 16:30-23:00; Su 10:00-14:00, 17:00-22:00", "phone": "+1-312-944-8888", "website": "https://www.mapleandash.com/"}}, {"type": "node", "id": 6250192785, "lat": 41.9056759, "lon": -87.6303029, "tags": {"addr:city": "Chicago", "addr:housenumber": "1260", "addr:postcode": "60610", "addr:state": "IL", "addr:street": "North Dearborn Parkway", "amenity": "restaurant", "name": "3rd Coast Cafe", "phone": "+1-312-649-0730", "website": "https://www.3rdcoastcafe.com/"}}, {"type": "node", "id": 6269017070, "lat": 41.9060351, "lon": -87.6284881, "tags": {"addr:city": "Chicago", "addr:housenumber": "1301", "addr:postcode": "60610", "addr:state": "IL", "addr:street": "North State Parkway", "amenity": "restaurant", "name": "Booth One", "phone": "+1-312- 649-0535", "website": "http://boothone.com/"}}, {"type": "node", "id": 6269380246, "lat": 41.9041965, "lon": -87.6296419, "tags": {"addr:city": "Chicago", "addr:housenumber": "20", "addr:postcode": "60610", "addr:state": "IL", "addr:street": "West Division Street", "amenity": "bar", "name": "Butch McGuire\u2019s", "phone": "+1-312- 337-9080", "website": "https://butchmcguires.com/"}}, {"type": "node", "id": 6280019306, "lat": 41.9042068, "lon": -87.6342984, "tags": {"addr:city": "Chicago", "addr:housenumber": "1209", "addr:postcode": "60610", "addr:state": "IL", "addr:street": "North Wells Street", "amenity": "restaurant", "cuisine": "pizza", "name": "Happy Camper Pizzeria", "opening_hours": "Mo-We 16:00-02:00; Th 16:00-02:00; Fr 11:00-02:00; Sa 10:30-03:00; Su 10:30-00:00", "phone": "+1-312-344-1634", "website": "http://www.happycamperchicago.com"}}, {"type": "node", "id": 6282313992, "lat": 41.9044119, "lon": -87.6326293, "tags": {"addr:city": "Chicago", "addr:housenumber": "12111", "addr:postcode": "60610", "addr:state": "IL", "addr:street": "North LaSalle Boulevard", "addr:unit": "CU", "amenity": "cafe", "name": "Cassava Cafe", "phone": "+1-312-487-2888", "website": "http://cassava.cafe/"}}, {"type": "node", "id": 6282505580, "lat": 41.9036152, "lon": -87.6304189, "tags": {"addr:city": "Chicago", "addr:housenumber": "1160", "addr:postcode": "60610", "addr:state": "IL", "addr:street": "North Dearborn Street", "amenity": "restaurant", "name": "Chicago Q", "phone": "+1-312-642-1160", "website": "https://chicagoqrestaurant.com/"}}, {"type": "node", "id": 6283146876, "lat": 41.9037986, "lon": -87.6292569, "tags": {"addr:city": "Chicago", "addr:housenumber": "13", "addr:postcode": "60610", "addr:state": "IL", "addr:street": "West Division Street", "amenity": "bar", "name": "Coconutz", "phone": "+1-312-266-0944", "website": "https://coconutzchicago.com/"}}, {"type": "node", "id": 6284483101, "lat": 41.9041397, "lon": -87.6317688, "tags": {"addr:city": "Chicago", "addr:housenumber": "102", "addr:postcode": "60610", "addr:state": "IL", "addr:street": "West Division Street", "addr:unit": "2", "amenity": "bar", "name": "Division on the Rocks"}}, {"type": "node", "id": 6284805617, "lat": 41.8986009, "lon": -87.6364088, "tags": {"addr:city": "Chicago", "addr:housenumber": "312", "addr:postcode": "60610", "addr:state": "IL", "addr:street": "West Chestnut Street", "amenity": "cafe", "cuisine": "coffee_shop;sandwiches;sandwich;empanada", "name": "DropShot Coffee & Snack Bar", "phone": "+1-312-496-3014", "website": "https://fieldhousejones.com/"}}, {"type": "node", "id": 6284848609, "lat": 41.901576, "lon": -87.628962, "tags": {"addr:city": "Chicago", "addr:housenumber": "1050", "addr:postcode": "60610", "addr:state": "IL", "addr:street": "North State Street", "amenity": "bar", "name": "Dublin Bar & Grill", "phone": "+1-312-266-6340"}}, {"type": "node", "id": 6285850463, "lat": 41.9021359, "lon": -87.6287498, "tags": {"addr:city": "Chicago", "addr:housenumber": "8", "addr:postcode": "60610", "addr:state": "IL", "addr:street": "West Maple Street", "amenity": "bar", "name": "Eight Bar and Patio", "phone": "+1-312-944-8888", "website": "https://www.eightbarchicago.com/"}}, {"type": "node", "id": 6286959503, "lat": 41.9003849, "lon": -87.6376591, "tags": {"addr:city": "Chicago", "addr:housenumber": "351", "addr:postcode": "60610", "addr:state": "IL", "addr:street": "West Oak Street", "addr:unit": "1", "amenity": "restaurant", "name": "EuroAsia Restaurant", "phone": "+1-312-988-0662", "website": "http://euroasiaca.com/"}}, {"type": "node", "id": 6300071822, "lat": 41.9049988, "lon": -87.6341556, "tags": {"addr:city": "Chicago", "addr:housenumber": "1233", "addr:postcode": "60610", "addr:state": "IL", "addr:street": "North Wells Street", "amenity": "cafe", "name": "Intelligentsia Coffee", "phone": "+1-312-229-1400", "website": "https://www.intelligentsiacoffee.com/old-town-coffeebar"}}, {"type": "node", "id": 6300287486, "lat": 41.9033723, "lon": -87.6290617, "tags": {"addr:city": "Chicago", "addr:housenumber": "12", "addr:postcode": "60610", "addr:state": "IL", "addr:street": "West Elm Street", "amenity": "bar", "name": "Sparrow", "phone": "+1-312-725-0732", "website": "http://www.sparrowchicago.com/"}}, {"type": "node", "id": 6301862903, "lat": 41.9015004, "lon": -87.6316474, "tags": {"addr:city": "Chicago", "addr:housenumber": "1028", "addr:postcode": "60610", "addr:state": "IL", "addr:street": "North Clark Street", "amenity": "restaurant", "name": "Sunny Side Up", "phone": "+1-312-967-0777", "website": "https://www.chicagosunnysideup.com/"}}, {"type": "node", "id": 6315254173, "lat": 41.9033279, "lon": -87.6292502, "tags": {"addr:city": "Chicago", "addr:housenumber": "14", "addr:postcode": "60610", "addr:state": "IL", "addr:street": "West Elm Street", "amenity": "bar", "name": "The Hangge-Uppe", "phone": "+1-312-337-0561", "website": "https://hanggeuppe.com/"}}, {"type": "node", "id": 6315657599, "lat": 41.9037631, "lon": -87.6295523, "tags": {"addr:city": "Chicago", "addr:housenumber": "21", "addr:postcode": "60610", "addr:state": "IL", "addr:street": "West Division Street", "amenity": "bar", "name": "The Lodge Tavern", "phone": "+1-312-642-4406", "website": "https://lodgetavern.com/"}}, {"type": "node", "id": 6317115432, "lat": 41.90453, "lon": -87.629156, "tags": {"addr:city": "Chicago", "addr:housenumber": "1220", "addr:postcode": "60610", "addr:state": "IL", "addr:street": "North State Parkway", "amenity": "bar", "name": "Zebra Lounge", "phone": "+1-312-642-5140", "website": "https://www.thezebralounge.net/"}}, {"type": "node", "id": 6319246272, "lat": 41.8993026, "lon": -87.6361223, "tags": {"addr:city": "Chicago", "addr:housenumber": "900", "addr:postcode": "60610", "addr:state": "IL", "addr:street": "North Franklin Street", "amenity": "restaurant", "name": "Kiki\u2019s Bistro", "phone": "+1-312-335-5454", "website": "https://www.kikisbistro.com/"}}, {"type": "node", "id": 6319999085, "lat": 41.903348, "lon": -87.6284873, "tags": {"addr:city": "Chicago", "addr:housenumber": "4", "addr:postcode": "60610", "addr:state": "IL", "addr:street": "East Elm Street", "amenity": "cafe", "name": "La Colombe Coffee", "phone": "+1-773-295-9279", "website": "https://www.lacolombe.com/"}}, {"type": "node", "id": 6320642353, "lat": 41.9025995, "lon": -87.6288738, "tags": {"addr:city": "Chicago", "addr:housenumber": "1120", "addr:postcode": "60610", "addr:state": "IL", "addr:street": "North State Street", "amenity": "restaurant", "brand": "Lou Malnati's Pizzeria", "brand:wikidata": "Q6685628", "brand:wikipedia": "en:Lou Malnati's Pizzeria", "cuisine": "pizza", "name": "Lou Malnati's Pizzeria", "phone": "+1-312-725-7777", "website": "https://www.loumalnatis.com/chicago-gold-coast"}}, {"type": "node", "id": 6322771416, "lat": 41.8998396, "lon": -87.63707, "tags": {"addr:city": "Chicago", "addr:housenumber": "931", "addr:postcode": "60610", "addr:state": "IL", "addr:street": "North Orleans Street", "amenity": "restaurant", "name": "Mogadishu Restaurant", "phone": "+1-312-265-1850"}}, {"type": "node", "id": 6323965477, "lat": 41.9069115, "lon": -87.634332, "tags": {"addr:city": "Chicago", "addr:housenumber": "1339", "addr:postcode": "60610", "addr:state": "IL", "addr:street": "North Wells Street", "amenity": "bar", "name": "Old Town Pub", "phone": "+1-312-266-6789", "website": "otpchicago.com"}}, {"type": "node", "id": 6324357300, "lat": 41.9034592, "lon": -87.6302929, "tags": {"addr:city": "Chicago", "addr:housenumber": "1154", "addr:postcode": "60610", "addr:state": "IL", "addr:street": "North Dearborn Street", "amenity": "restaurant", "name": "La Storia", "phone": "+1-312-915-5950", "website": "https://lastoriachicago.com/"}}, {"type": "node", "id": 6324371956, "lat": 41.9037963, "lon": -87.6305393, "tags": {"addr:city": "Chicago", "addr:housenumber": "49", "addr:postcode": "60610", "addr:state": "IL", "addr:street": "West Division Street", "amenity": "restaurant", "name": "The Halal Guys", "phone": "+1-312-877-5575", "website": "https://westdivisionstreetchicagoil.thehalalguys.com/"}}, {"type": "node", "id": 6410347902, "lat": 41.8986768, "lon": -87.6364137, "tags": {"addr:city": "Chicago", "addr:housenumber": "312", "addr:postcode": "60610", "addr:state": "IL", "addr:street": "West Chestnut Street", "amenity": "bar", "name": "Janitor's Closet"}}, {"type": "node", "id": 6425689677, "lat": 41.9068335, "lon": -87.6347845, "tags": {"addr:city": "Chicago", "addr:housenumber": "1342", "addr:postcode": "60610", "addr:state": "IL", "addr:street": "North Wells Street", "amenity": "restaurant", "cuisine": "sushi;japanese", "name": "Cafe Sushi", "opening_hours": "Mo-Th 17:00-22:30; Fr-Sa 17:00-23:30; Su 16:00-21:30", "phone": "+1-312-337-0700", "website": "http://www.cafesushiwells.com/"}}, {"type": "node", "id": 6468314518, "lat": 41.8994168, "lon": -87.6285324, "tags": {"addr:city": "Chicago", "addr:housenumber": "912", "addr:postcode": "60610", "addr:state": "IL", "addr:street": "North State Street", "amenity": "restaurant", "cuisine": "american", "name": "Walton Street Kitchen + Bar", "phone": "+1- 773-570-3525", "website": "http://www.waltonstreetchicago.com/"}}, {"type": "way", "id": 210679261, "nodes": [2207605390, 4431654562, 2207605395, 2207605614, 2207605631, 2207605641, 2207605398, 2207605389, 2207605390], "tags": {"addr:housenumber": "1118-1120", "addr:street": "North State Street", "addr:street:name": "State", "addr:street:prefix": "North", "addr:street:type": "Street", "amenity": "restaurant", "building": "yes", "chicago:building_id": "878127", "cuisine": "pizza", "name": "Lou Malnati's", "opening_hours": "Mo-Fr 11:00-00:00; Sa,Su 00:00-01:00,11:00-00:00", "website": "https://www.loumalnatis.com/chicago-gold-coast"}}, {"type": "way", "id": 210679421, "nodes": [2207608584, 2207608406, 2207608395, 2207608565, 2207608564, 2207608584], "tags": {"addr:housenumber": "1240", "addr:street": "North Wells Street", "addr:street:name": "Wells", "addr:street:prefix": "North", "addr:street:type": "Street", "amenity": "bar", "building": "yes", "building:levels": "3", "chicago:building_id": "815408", "name": "Declan's"}}, {"type": "way", "id": 210679437, "nodes": [2207608926, 2207609009, 2207609010, 2207609060, 2207609057, 2207609030, 2207609040, 2207608949, 2207608926], "tags": {"addr:housenumber": "1246", "addr:street": "North Wells Street", "addr:street:name": "Wells", "addr:street:prefix": "North", "addr:street:type": "Street", "amenity": "restaurant", "building": "yes", "building:levels": "3", "chicago:building_id": "317889", "cuisine": "chinese", "name": "China Doll"}}, {"type": "way", "id": 210679449, "nodes": [2207609278, 2207609188, 2207609186, 2207609180, 2207609174, 2207609177, 2207609172, 2207609269, 2207609270, 2207609278], "tags": {"addr:housenumber": "1252", "addr:street": "North Wells Street", "addr:street:name": "Wells", "addr:street:prefix": "North", "addr:street:type": "Street", "amenity": "restaurant", "building": "yes", "building:levels": "3", "chicago:building_id": "815387", "cuisine": "mexican", "name": "Salpicon"}}, {"type": "way", "id": 210679752, "nodes": [2207607263, 2207607264, 2207607348, 2207607343, 2207607263], "tags": {"addr:housenumber": "238", "addr:street": "West Division Street", "addr:street:name": "Division", "addr:street:prefix": "West", "addr:street:type": "Street", "amenity": "restaurant", "building": "yes", "building:levels": "1", "chicago:building_id": "320662", "cuisine": "pizza", "name": "Sammy's Red Hots", "opening_hours": "09:00-02:00", "phone": "312-266-7290", "website": "http://sammysredhotschicago.com/"}}, {"type": "way", "id": 210680452, "nodes": [2207604483, 2207604511, 2207604513, 2207604487, 2207604483], "tags": {"amenity": "cafe", "building": "roof", "chicago:building_id": "324968", "name": "Bow Truss Coffee Roasters"}}]}