{"version": 0.6, "generator": "Overpass API 0.7.56.1004 6cd3eaec", "osm3s": {"timestamp_osm_base": "2020-07-22T05:29:02Z", "copyright": "The data included in this document is from www.openstreetmap.org. The data is made available under ODbL."}, "elements": [{"type": "node", "id": 495655717, "lat": 41.9376211, "lon": -87.6660205, "tags": {"addr:housenumber": "3045", "addr:street": "North Greenview Avenue", "amenity": "cafe", "brand": "Starbucks", "brand:wikidata": "Q37158", "brand:wikipedia": "en:Starbucks", "cuisine": "coffee_shop", "name": "Starbucks", "official_name": "Starbucks Coffee", "takeaway": "yes"}}, {"type": "node", "id": 1585425015, "lat": 41.9250199, "lon": -87.6874251, "tags": {"addr:city": "Chicago", "addr:housenumber": "2401", "addr:postcode": "60647", "addr:street": "North Western Avenue", "amenity": "bar", "name": "Quenchers"}}, {"type": "node", "id": 2167184271, "lat": 41.9278273, "lon": -87.6636143, "tags": {"addr:city": "Chicago", "addr:housenumber": "2524", "addr:postcode": "60614", "addr:street": "North Southport Avenue", "amenity": "restaurant", "name": "The Monkey's Paw", "smoking": "no"}}, {"type": "node", "id": 2196751322, "lat": 41.9379343, "lon": -87.6857706}, {"type": "node", "id": 2196751467, "lat": 41.9379874, "lon": -87.6857021}, {"type": "node", "id": 2196751525, "lat": 41.938002, "lon": -87.6858673}, {"type": "node", "id": 2196751704, "lat": 41.9380552, "lon": -87.685797}, {"type": "node", "id": 2196787631, "lat": 41.940921, "lon": -87.6878998}, {"type": "node", "id": 2196787638, "lat": 41.9409229, "lon": -87.6877546}, {"type": "node", "id": 2196787640, "lat": 41.9409233, "lon": -87.6878208}, {"type": "node", "id": 2196787647, "lat": 41.9409272, "lon": -87.6875359}, {"type": "node", "id": 2196787651, "lat": 41.9409301, "lon": -87.6878115}, {"type": "node", "id": 2196787653, "lat": 41.9409312, "lon": -87.6877545}, {"type": "node", "id": 2196787746, "lat": 41.9409828, "lon": -87.6879029}, {"type": "node", "id": 2196787752, "lat": 41.9409859, "lon": -87.6878367}, {"type": "node", "id": 2196787760, "lat": 41.9409906, "lon": -87.6875371}, {"type": "node", "id": 2200342512, "lat": 41.9248385, "lon": -87.6640738}, {"type": "node", "id": 2200342513, "lat": 41.9248405, "lon": -87.6639918}, {"type": "node", "id": 2200342626, "lat": 41.9248526, "lon": -87.6641558}, {"type": "node", "id": 2200342628, "lat": 41.9248537, "lon": -87.6640849}, {"type": "node", "id": 2200342663, "lat": 41.9250315, "lon": -87.6640901}, {"type": "node", "id": 2200342664, "lat": 41.9250329, "lon": -87.6640901}, {"type": "node", "id": 2200342676, "lat": 41.9250497, "lon": -87.6641561}, {"type": "node", "id": 2200342678, "lat": 41.9250498, "lon": -87.664169}, {"type": "node", "id": 2200342680, "lat": 41.9251254, "lon": -87.6640834}, {"type": "node", "id": 2200342682, "lat": 41.9251254, "lon": -87.6639971}, {"type": "node", "id": 2200342730, "lat": 41.9251129, "lon": -87.664172}, {"type": "node", "id": 2200342732, "lat": 41.9251152, "lon": -87.6640948}, {"type": "node", "id": 2200343250, "lat": 41.9257322, "lon": -87.668746}, {"type": "node", "id": 2200343251, "lat": 41.925733, "lon": -87.6686339}, {"type": "node", "id": 2200343272, "lat": 41.9257412, "lon": -87.6686338}, {"type": "node", "id": 2200343276, "lat": 41.925745, "lon": -87.6683509}, {"type": "node", "id": 2200343368, "lat": 41.9257995, "lon": -87.668749}, {"type": "node", "id": 2200343378, "lat": 41.925804, "lon": -87.6683521}, {"type": "node", "id": 2200344091, "lat": 41.9260067, "lon": -87.6687597}, {"type": "node", "id": 2200344094, "lat": 41.9260088, "lon": -87.6686403}, {"type": "node", "id": 2200344103, "lat": 41.9260117, "lon": -87.6684344}, {"type": "node", "id": 2200344106, "lat": 41.9260127, "lon": -87.6683609}, {"type": "node", "id": 2200344121, "lat": 41.9260156, "lon": -87.6686402}, {"type": "node", "id": 2200344140, "lat": 41.9260186, "lon": -87.6684344}, {"type": "node", "id": 2200344284, "lat": 41.9260712, "lon": -87.6687609}, {"type": "node", "id": 2200344309, "lat": 41.9260772, "lon": -87.6683621}, {"type": "node", "id": 2200366030, "lat": 41.9329518, "lon": -87.6641628}, {"type": "node", "id": 2200366044, "lat": 41.9329587, "lon": -87.6637242}, {"type": "node", "id": 2200366395, "lat": 41.933012, "lon": -87.6641645}, {"type": "node", "id": 2200366402, "lat": 41.933019, "lon": -87.663726}, {"type": "node", "id": 2200369775, "lat": 41.9343189, "lon": -87.6682783}, {"type": "node", "id": 2200369788, "lat": 41.934323, "lon": -87.6680339}, {"type": "node", "id": 2200369846, "lat": 41.9343503, "lon": -87.6680042}, {"type": "node", "id": 2200369850, "lat": 41.9343505, "lon": -87.6680354}, {"type": "node", "id": 2200370017, "lat": 41.9343903, "lon": -87.6682813}, {"type": "node", "id": 2200370036, "lat": 41.9343942, "lon": -87.6680056}, {"type": "node", "id": 2200375034, "lat": 41.9361355, "lon": -87.6682595}, {"type": "node", "id": 2200375035, "lat": 41.9361356, "lon": -87.6682833}, {"type": "node", "id": 2200375051, "lat": 41.9361415, "lon": -87.6683494}, {"type": "node", "id": 2200375055, "lat": 41.9361423, "lon": -87.6682484}, {"type": "node", "id": 2200375056, "lat": 41.9361426, "lon": -87.6682943}, {"type": "node", "id": 2200375058, "lat": 41.9361475, "lon": -87.6679543}, {"type": "node", "id": 2200375143, "lat": 41.9361938, "lon": -87.664126}, {"type": "node", "id": 2200375144, "lat": 41.936194, "lon": -87.6641535}, {"type": "node", "id": 2200375147, "lat": 41.9361955, "lon": -87.664646}, {"type": "node", "id": 2200375151, "lat": 41.9361974, "lon": -87.6640304}, {"type": "node", "id": 2200375152, "lat": 41.9361975, "lon": -87.6640451}, {"type": "node", "id": 2200375154, "lat": 41.9361976, "lon": -87.6643042}, {"type": "node", "id": 2200375165, "lat": 41.9362006, "lon": -87.6641167}, {"type": "node", "id": 2200375167, "lat": 41.9362009, "lon": -87.6641627}, {"type": "node", "id": 2200375169, "lat": 41.9362014, "lon": -87.6640193}, {"type": "node", "id": 2200375170, "lat": 41.9362016, "lon": -87.6640542}, {"type": "node", "id": 2200375176, "lat": 41.9362035, "lon": -87.6643354}, {"type": "node", "id": 2200375179, "lat": 41.9362045, "lon": -87.6643041}, {"type": "node", "id": 2200375183, "lat": 41.936206, "lon": -87.6683506}, {"type": "node", "id": 2200375192, "lat": 41.9362096, "lon": -87.6640137}, {"type": "node", "id": 2200375200, "lat": 41.936212, "lon": -87.6679573}, {"type": "node", "id": 2200375224, "lat": 41.9362178, "lon": -87.6640118}, {"type": "node", "id": 2200375246, "lat": 41.9362261, "lon": -87.6640135}, {"type": "node", "id": 2200375257, "lat": 41.9362302, "lon": -87.6640172}, {"type": "node", "id": 2200375268, "lat": 41.9362344, "lon": -87.6640245}, {"type": "node", "id": 2200375269, "lat": 41.9362344, "lon": -87.6640355}, {"type": "node", "id": 2200375272, "lat": 41.9362354, "lon": -87.6643365}, {"type": "node", "id": 2200375315, "lat": 41.9362442, "lon": -87.6647131}, {"type": "node", "id": 2200375475, "lat": 41.9362842, "lon": -87.6642816}, {"type": "node", "id": 2200375703, "lat": 41.9363444, "lon": -87.6642042}, {"type": "node", "id": 2200375720, "lat": 41.9363501, "lon": -87.6641967}, {"type": "node", "id": 2200376304, "lat": 41.9364942, "lon": -87.664397}, {"type": "node", "id": 2200391526, "lat": 41.9391951, "lon": -87.6830711}, {"type": "node", "id": 2200391530, "lat": 41.939196, "lon": -87.6829902}, {"type": "node", "id": 2200391693, "lat": 41.9392513, "lon": -87.6830724}, {"type": "node", "id": 2200391751, "lat": 41.9392596, "lon": -87.6830833}, {"type": "node", "id": 2200391864, "lat": 41.9392788, "lon": -87.6830831}, {"type": "node", "id": 2200391876, "lat": 41.9392824, "lon": -87.682993}, {"type": "node", "id": 2200391880, "lat": 41.9392843, "lon": -87.683072}, {"type": "node", "id": 2200391887, "lat": 41.939288, "lon": -87.6830003}, {"type": "node", "id": 2200391936, "lat": 41.9393099, "lon": -87.6830019}, {"type": "node", "id": 2200391950, "lat": 41.9393167, "lon": -87.6829927}, {"type": "node", "id": 2200391982, "lat": 41.9393322, "lon": -87.6782272}, {"type": "node", "id": 2200391984, "lat": 41.9393333, "lon": -87.6781739}, {"type": "node", "id": 2200391989, "lat": 41.9393344, "lon": -87.6781409}, {"type": "node", "id": 2200392020, "lat": 41.9393552, "lon": -87.6829941}, {"type": "node", "id": 2200392021, "lat": 41.9393552, "lon": -87.6829996}, {"type": "node", "id": 2200392173, "lat": 41.9393689, "lon": -87.6829903}, {"type": "node", "id": 2200392174, "lat": 41.9393689, "lon": -87.6830013}, {"type": "node", "id": 2200392234, "lat": 41.9393968, "lon": -87.6830746}, {"type": "node", "id": 2200392245, "lat": 41.9394037, "lon": -87.6830837}, {"type": "node", "id": 2200392290, "lat": 41.9394188, "lon": -87.6830854}, {"type": "node", "id": 2200392308, "lat": 41.9394241, "lon": -87.6830449}, {"type": "node", "id": 2200392311, "lat": 41.9394251, "lon": -87.6829916}, {"type": "node", "id": 2200392339, "lat": 41.939431, "lon": -87.683054}, {"type": "node", "id": 2200392341, "lat": 41.9394311, "lon": -87.6830724}, {"type": "node", "id": 2200392508, "lat": 41.9394845, "lon": -87.678233}, {"type": "node", "id": 2200392513, "lat": 41.9394854, "lon": -87.6781467}, {"type": "node", "id": 2200392514, "lat": 41.9394856, "lon": -87.6781724}, {"type": "node", "id": 2200517049, "lat": 41.9408113, "lon": -87.6698575}, {"type": "node", "id": 2200517060, "lat": 41.9408122, "lon": -87.6697748}, {"type": "node", "id": 2200517417, "lat": 41.9408416, "lon": -87.6698811}, {"type": "node", "id": 2200517588, "lat": 41.9408703, "lon": -87.6696235}, {"type": "node", "id": 2200518044, "lat": 41.9409295, "lon": -87.6696615}, {"type": "node", "id": 3660922643, "lat": 41.9252887, "lon": -87.6678214, "tags": {"amenity": "cafe", "name": "Nada Tea & Coffee"}}, {"type": "node", "id": 3660929434, "lat": 41.9249859, "lon": -87.6706571, "tags": {"addr:city": "Chicago", "addr:housenumber": "1665", "addr:street": "West Fullerton Avenue", "amenity": "bar", "name": "Liars Club", "opening_hours": "Su-Fr 20:00-04:00; Sa 20:00-03:00", "phone": "+1-773-665-1110"}}, {"type": "node", "id": 3660929470, "lat": 41.9250279, "lon": -87.687063, "tags": {"addr:city": "Chicago", "addr:housenumber": "2346", "addr:postcode": "60647", "addr:state": "IL", "addr:street": "West Fullerton Avenue", "amenity": "restaurant", "name": "Estrella Negra", "phone": "+1-773-227-5993", "website": "http://estrellanegra.com/"}}, {"type": "node", "id": 3660929473, "lat": 41.9257822, "lon": -87.6874761, "tags": {"amenity": "restaurant", "name": "Sonny's Pizza"}}, {"type": "node", "id": 3863402374, "lat": 41.9310911, "lon": -87.6850726, "tags": {"amenity": "restaurant", "brand": "Pei Wei", "brand:wikidata": "Q7160898", "brand:wikipedia": "en:Pei Wei Asian Diner", "cuisine": "asian", "name": "Pei Wei"}}, {"type": "node", "id": 4049483564, "lat": 41.9368582, "lon": -87.6650564, "tags": {"amenity": "restaurant", "cuisine": "american", "level": "0", "name": "Grand River"}}, {"type": "node", "id": 5092756819, "lat": 41.925504, "lon": -87.6723414, "tags": {"amenity": "cafe", "brand": "Starbucks", "brand:wikidata": "Q37158", "brand:wikipedia": "en:Starbucks", "cuisine": "coffee_shop", "name": "Starbucks", "official_name": "Starbucks Coffee", "takeaway": "yes"}}, {"type": "node", "id": 5460785521, "lat": 41.9395264, "lon": -87.6636243, "tags": {"addr:city": "Chicago", "addr:housenumber": "3157", "addr:postcode": "60657", "addr:state": "IL", "addr:street": "North Southport Avenue", "amenity": "restaurant", "cuisine": "american;new_american;american_new", "name": "Tied House", "opening_hours": "Su-Th 16:30-23:00; Fr-Sa 16:30-00:00", "phone": "+1-773-697-4632", "website": "https://www.tiedhousechicago.com"}}, {"type": "node", "id": 5460886933, "lat": 41.9398722, "lon": -87.6696522, "tags": {"addr:city": "Chicago", "addr:housenumber": "1622", "addr:postcode": "60657", "addr:state": "IL", "addr:street": "West Belmont Avenue", "amenity": "restaurant", "cuisine": "american;pub", "name": "Flagship Tavern and Grill", "opening_hours": "Mo-Th 17:00-02:00; Fr 15:00-02:00; Sa 11:00-03:00; Su 11:00-02:00", "phone": "+1-773-281-3805", "website": "https://www.flagshipchicago.com/"}}, {"type": "node", "id": 5567717002, "lat": 41.9403305, "lon": -87.6785481, "tags": {"amenity": "restaurant", "cuisine": "burger;hot_dogs", "name": "Man Jo Vin's", "outdoor_seating": "no", "smoking": "no", "takeaway": "yes"}}, {"type": "node", "id": 5651992039, "lat": 41.9396498, "lon": -87.6636315, "tags": {"amenity": "bar", "name": "Schuba's"}}, {"type": "node", "id": 6263471199, "lat": 41.9286184, "lon": -87.6715995, "tags": {"addr:city": "Chicago", "addr:housenumber": "1721", "addr:postcode": "60614", "addr:state": "IL", "addr:street": "West Wrightwood Avenue", "amenity": "bar", "name": "Augie\u2019s", "phone": "+1-773-296-0018", "website": "http://augiesbooze.homestead.com/"}}, {"type": "node", "id": 6269118585, "lat": 41.9284536, "lon": -87.6636452, "tags": {"addr:city": "Chicago", "addr:housenumber": "2548", "addr:postcode": "60614", "addr:state": "IL", "addr:street": "North Southport Avenue", "amenity": "bar", "name": "Broken Barrel Bar", "phone": "+1-773-327-4900", "website": "https://www.brokenbarrelbar.com/"}}, {"type": "node", "id": 6270078272, "lat": 41.9253339, "lon": -87.6667824, "tags": {"addr:city": "Chicago", "addr:housenumber": "1524", "addr:postcode": "60614", "addr:state": "IL", "addr:street": "West Fullerton Avenue", "amenity": "restaurant", "name": "Cairo Kebab", "phone": "+1-773-687-8413"}}, {"type": "node", "id": 6282433414, "lat": 41.9385233, "lon": -87.6675367, "tags": {"addr:city": "Chicago", "addr:housenumber": "3134", "addr:postcode": "60657", "addr:state": "IL", "addr:street": "North Lincoln Avenue", "amenity": "cafe", "cuisine": "coffee_shop", "name": "Chicago Diplomat Cafe", "phone": "+1-773-262-2722", "website": "https://chicago-diplomat-cafe.business.site/"}}, {"type": "node", "id": 6282647776, "lat": 41.925444, "lon": -87.6792724, "tags": {"addr:city": "Chicago", "addr:housenumber": "2444", "addr:postcode": "60647", "addr:state": "IL", "addr:street": "North Elston Avenue", "amenity": "cafe", "name": "Chromium", "phone": "+1-773-235-2300", "website": "https://www.midtown.com/chicago"}}, {"type": "node", "id": 6283178216, "lat": 41.938034, "lon": -87.6709073, "tags": {"addr:city": "Chicago", "addr:housenumber": "1658", "addr:postcode": "60657", "addr:state": "IL", "addr:street": "West Barry Avenue", "amenity": "bar", "name": "Cody\u2019s Public House", "phone": "+1-773-528-4050"}}, {"type": "node", "id": 6289909793, "lat": 41.9398986, "lon": -87.6707542, "tags": {"addr:city": "Chicago", "addr:housenumber": "1652", "addr:postcode": "60657", "addr:state": "IL", "addr:street": "West Belmont Avenue", "amenity": "restaurant", "name": "Fennel & Iris", "phone": "+1-773-687-8442", "website": "http://fennelandiris.com/"}}, {"type": "node", "id": 6291153865, "lat": 41.9322813, "lon": -87.6687371, "tags": {"addr:city": "Chicago", "addr:housenumber": "2758", "addr:postcode": "60657", "addr:state": "IL", "addr:street": "North Ashland Avenue", "amenity": "bar", "name": "Four Shadows", "phone": "+1-773-248-9160", "website": "http://fourshadows.net/"}}, {"type": "node", "id": 6292131019, "lat": 41.9250291, "lon": -87.6640426, "tags": {"addr:city": "Chicago", "addr:housenumber": "1417", "addr:postcode": "60614", "addr:state": "IL", "addr:street": "West Fullerton Avenue", "amenity": "restaurant", "name": "Grand Trunk Road", "phone": "+1-773-857-1269", "website": "https://www.grandtrunkroad.co/"}}, {"type": "node", "id": 6297537502, "lat": 41.9335076, "lon": -87.6638856, "tags": {"addr:city": "Chicago", "addr:housenumber": "2834", "addr:postcode": "60657", "addr:state": "IL", "addr:street": "North Southport Avenue", "amenity": "restaurant", "name": "Sal\u2019s Trattoria", "phone": "+1-773-857-1401", "website": "http://salstrattoria.com/"}}, {"type": "node", "id": 6297566248, "lat": 41.9362512, "lon": -87.6641824, "tags": {"addr:city": "Chicago", "addr:housenumber": "3000", "addr:postcode": "60657", "addr:state": "IL", "addr:street": "North Lincoln Avenue", "amenity": "restaurant", "name": "Sam & George\u2019s", "phone": "+1-773-935-4025", "website": "http://www.sandg-chicago.com/"}}, {"type": "node", "id": 6297644135, "lat": 41.9250705, "lon": -87.6650212, "tags": {"addr:city": "Chicago", "addr:housenumber": "1443", "addr:postcode": "60614", "addr:state": "IL", "addr:street": "West Fullerton Avenue", "amenity": "restaurant", "name": "Jumbo Crab"}}, {"type": "node", "id": 6297771040, "lat": 41.9393248, "lon": -87.6864334, "tags": {"addr:city": "Chicago", "addr:housenumber": "2319", "addr:postcode": "60618", "addr:state": "IL", "addr:street": "West Belmont Avenue", "amenity": "bar", "name": "Hungry Brain", "phone": "+1-773-687-8230", "website": "http://www.hungrybrainchicago.com/"}}, {"type": "node", "id": 6297827190, "lat": 41.9344543, "lon": -87.6658815, "tags": {"addr:city": "Chicago", "addr:housenumber": "1456", "addr:postcode": "60657", "addr:state": "IL", "addr:street": "West George Street", "amenity": "bar", "name": "Side Street Saloon", "phone": "+1-773-327-1127"}}, {"type": "node", "id": 6304074588, "lat": 41.9371009, "lon": -87.6681753, "tags": {"addr:city": "Chicago", "addr:housenumber": "3033", "addr:postcode": "60657", "addr:state": "IL", "addr:street": "North Ashland Avenue", "amenity": "restaurant", "name": "The Art of Pizza", "phone": "+1-773-327-5600", "website": "http://www.artofpizzachicago.com/"}}, {"type": "node", "id": 6304238326, "lat": 41.9250423, "lon": -87.664123, "tags": {"addr:city": "Chicago", "addr:housenumber": "1419", "addr:postcode": "60614", "addr:state": "IL", "addr:street": "West Fullerton Avenue", "amenity": "bar", "name": "The Warehouse Bar & Pizzeria Chicago", "phone": "+1-(773) 661-6454", "website": "https://www.thewarehousechicago.com/"}}, {"type": "node", "id": 6306915776, "lat": 41.9343553, "lon": -87.6681643, "tags": {"addr:city": "Chicago", "addr:housenumber": "2901", "addr:postcode": "60657", "addr:state": "IL", "addr:street": "North Ashland Avenue", "amenity": "restaurant", "name": "Tutto Fresco", "phone": "+1-773-661-9009", "website": "http://www.tuttofrescochicago.com/"}}, {"type": "node", "id": 6315194719, "lat": 41.934158, "lon": -87.6639155, "tags": {"addr:city": "Chicago", "addr:housenumber": "2856", "addr:postcode": "60657", "addr:state": "IL", "addr:street": "North Southport Avenue", "amenity": "bar", "name": "The Diag", "phone": "+1-773-404-8400", "website": "https://www.diagchicago.com/"}}, {"type": "node", "id": 6315632339, "lat": 41.9367992, "lon": -87.6649701, "tags": {"addr:city": "Chicago", "addr:housenumber": "3032", "addr:postcode": "60657", "addr:state": "IL", "addr:street": "North Lincoln Avenue", "amenity": "bar", "name": "The Land on Lincoln", "phone": "+1-872-802-0111", "website": "https://www.thelandonlincoln.com/"}}, {"type": "node", "id": 6315711823, "lat": 41.9398934, "lon": -87.6701961, "tags": {"addr:city": "Chicago", "addr:housenumber": "1638", "addr:postcode": "60657", "addr:state": "IL", "addr:street": "West Belmont Avenue", "amenity": "bar", "name": "The Pony Inn", "phone": "+1-312-453-9397", "website": "http://theponychicago.com/"}}, {"type": "node", "id": 6318428983, "lat": 41.9363406, "lon": -87.6643657, "tags": {"addr:city": "Chicago", "addr:housenumber": "3010", "addr:postcode": "60657", "addr:state": "IL", "addr:street": "North Lincoln Avenue", "amenity": "bar", "name": "Lincoln Tap Room", "phone": "+1-773-868-0060", "website": "https://www.lincolntaproom.com/"}}, {"type": "node", "id": 7182570708, "lat": 41.9325338, "lon": -87.6789663, "tags": {"addr:city": "Chicago", "addr:housenumber": "2000", "addr:postcode": "60614", "addr:state": "IL", "addr:street": "West Diversey Parkway", "amenity": "cafe", "name": "Hexe Coffee Co.", "website": "https://www.hexecoffee.com"}}, {"type": "way", "id": 209457311, "nodes": [2196751322, 2196751525, 2196751704, 2196751467, 2196751322], "tags": {"addr:city": "Chicago", "addr:housenumber": "3101", "addr:postcode": "60618", "addr:state": "IL", "addr:street": "North Clybourn Avenue", "addr:street:name": "Clybourn", "addr:street:prefix": "North", "addr:street:type": "Avenue", "amenity": "restaurant", "building": "yes", "building:levels": "1", "chicago:building_id": "217146", "cuisine": "Cuban", "name": "90 Miles"}}, {"type": "way", "id": 209464798, "nodes": [2196787752, 2196787760, 2196787647, 2196787638, 2196787653, 2196787651, 2196787640, 2196787631, 2196787746, 2196787752], "tags": {"addr:city": "Chicago", "addr:housenumber": "3251", "addr:postcode": "60618", "addr:state": "IL", "addr:street": "North Western Avenue", "addr:street:name": "Western", "addr:street:prefix": "North", "addr:street:type": "Avenue", "amenity": "bar", "building": "yes", "building:levels": "2", "chicago:building_id": "857907", "name": "Blue Light", "phone": "+1-773-755-5875", "website": "bluelightchicago.com"}}, {"type": "way", "id": 209880419, "nodes": [2200342680, 2200342682, 2200342513, 2200342512, 2200342680], "tags": {"addr:housenumber": "1417", "addr:street": "West Fullerton Avenue", "addr:street:name": "Fullerton", "addr:street:prefix": "West", "addr:street:type": "Avenue", "amenity": "restaurant", "building": "yes", "chicago:building_id": "850942", "name": "Knife & Tine"}}, {"type": "way", "id": 209880429, "nodes": [2200342626, 2200342676, 2200342678, 2200342730, 2200342732, 2200342664, 2200342663, 2200342628, 2200342626], "tags": {"addr:housenumber": "1419", "addr:street": "West Fullerton Avenue", "addr:street:name": "Fullerton", "addr:street:prefix": "West", "addr:street:type": "Avenue", "amenity": "restaurant", "building": "yes", "building:levels": "1", "chicago:building_id": "263304", "name": "Warehouse"}}, {"type": "way", "id": 209882061, "nodes": [2200391982, 2200392508, 2200392514, 2200392513, 2200391989, 2200391984, 2200391982], "tags": {"addr:city": "Chicago", "addr:housenumber": "1957", "addr:street": "West Belmont Avenue", "addr:street:name": "Belmont", "addr:street:prefix": "West", "addr:street:type": "Avenue", "amenity": "restaurant", "building": "yes", "building:levels": "3", "chicago:building_id": "211256", "cuisine": "mexican", "name": "Tony's Burrito Mex"}}, {"type": "way", "id": 209882840, "nodes": [2200343250, 2200343368, 2200343378, 2200343276, 2200343272, 2200343251, 2200343250], "tags": {"addr:housenumber": "2418", "addr:postcode": "60614", "addr:street": "North Ashland Avenue", "addr:street:name": "Ashland", "addr:street:prefix": "North", "addr:street:type": "Avenue", "amenity": "restaurant", "building": "yes", "building:levels": "1", "chicago:building_id": "261255", "name": "The Squared Circle"}}, {"type": "way", "id": 209882878, "nodes": [2200344091, 2200344284, 2200344309, 2200344106, 2200344103, 2200344140, 2200344121, 2200344094, 2200344091], "tags": {"addr:city": "Chicago", "addr:housenumber": "2428", "addr:postcode": "60614", "addr:state": "IL", "addr:street": "North Ashland Avenue", "addr:street:name": "Ashland", "addr:street:prefix": "North", "addr:street:type": "Avenue", "amenity": "restaurant", "building": "yes", "building:levels": "2", "chicago:building_id": "260281", "name": "Asian Cajun", "phone": "+1-773-828-5642", "website": "https://asiancajunrestaurant.com/"}}, {"type": "way", "id": 209884980, "nodes": [2200366030, 2200366395, 2200366402, 2200366044, 2200366030], "tags": {"addr:housenumber": "2814", "addr:street": "North Southport Avenue", "addr:street:name": "Southport", "addr:street:prefix": "North", "addr:street:type": "Avenue", "amenity": "restaurant", "building": "yes", "building:levels": "2", "chicago:building_id": "238031", "cuisine": "mexican", "name": "Que Rico"}}, {"type": "way", "id": 209885154, "nodes": [2200369775, 2200370017, 2200370036, 2200369846, 2200369850, 2200369788, 2200369775], "tags": {"addr:housenumber": "2901", "addr:street": "North Ashland Avenue", "addr:street:name": "Ashland", "addr:street:prefix": "North", "addr:street:type": "Avenue", "amenity": "restaurant", "building": "yes", "building:levels": "1", "chicago:building_id": "232184", "cuisine": "latin", "name": "Flo", "opening_hours": "Tu-Fr 17:00-22:00; Sa 09:00-23:00; Su 09:00-15:00; PH off", "outdoor_seating": "no", "smoking": "no"}}, {"type": "way", "id": 209885452, "nodes": [2200375176, 2200375272, 2200375475, 2200375703, 2200375720, 2200375269, 2200375268, 2200375257, 2200375246, 2200375224, 2200375192, 2200375169, 2200375151, 2200375152, 2200375170, 2200375165, 2200375143, 2200375144, 2200375167, 2200375154, 2200375179, 2200375176], "tags": {"addr:housenumber": "3000-3004", "addr:street": "North Lincoln Avenue", "addr:street:name": "Lincoln", "addr:street:prefix": "North", "addr:street:type": "Avenue", "amenity": "restaurant", "building": "yes", "building:levels": "3", "chicago:building_id": "853921", "cuisine": "american", "level": "0", "name": "S&G Restaurant"}}, {"type": "way", "id": 209885453, "nodes": [2200375034, 2200375035, 2200375056, 2200375051, 2200375183, 2200375200, 2200375058, 2200375055, 2200375034], "tags": {"addr:city": "Chicago", "addr:housenumber": "3001", "addr:postcode": "60657", "addr:state": "IL", "addr:street": "North Ashland Avenue", "addr:street:name": "Ashland", "addr:street:prefix": "North", "addr:street:type": "Avenue", "amenity": "restaurant", "building": "yes", "building:levels": "2", "chicago:building_id": "224618", "name": "Breakfast House", "phone": "+1-773-666-5522", "website": "http://www.breakfast-house.com/index.html"}}, {"type": "way", "id": 209885467, "nodes": [2200375720, 2200375703, 2200375475, 2200375272, 2200375176, 2200375147, 2200375315, 2200376304, 2200375720], "tags": {"addr:housenumber": "3008-3012", "addr:street": "North Lincoln Avenue", "addr:street:name": "Lincoln", "addr:street:prefix": "North", "addr:street:type": "Avenue", "amenity": "restaurant", "building": "yes", "building:levels": "2", "chicago:building_id": "882783"}}, {"type": "way", "id": 209885839, "nodes": [2200391526, 2200391693, 2200391751, 2200391864, 2200391880, 2200392234, 2200392245, 2200392290, 2200392341, 2200392339, 2200392308, 2200392311, 2200392173, 2200392174, 2200392021, 2200392020, 2200391950, 2200391936, 2200391887, 2200391876, 2200391530, 2200391526], "tags": {"addr:housenumber": "3155-3159", "addr:street": "North Leavitt Street", "addr:street:name": "Leavitt", "addr:street:prefix": "North", "addr:street:type": "Street", "amenity": "cafe", "brand": "Starbucks", "brand:wikidata": "Q37158", "brand:wikipedia": "en:Starbucks", "building": "yes", "building:levels": "2", "chicago:building_id": "211602", "cuisine": "coffee_shop", "name": "Starbucks", "official_name": "Starbucks Coffee", "takeaway": "yes"}}, {"type": "way", "id": 209895909, "nodes": [2200517049, 2200517417, 2200518044, 2200517588, 2200517060, 2200517049], "tags": {"addr:housenumber": "3244", "addr:street": "North Lincoln Avenue", "addr:street:name": "Lincoln", "addr:street:prefix": "North", "addr:street:type": "Avenue", "amenity": "bar", "building": "yes", "chicago:building_id": "204563", "name": "Northdown Taproom"}}]}