{"version": 0.6, "generator": "Overpass API 0.7.56.3 eb200aeb", "osm3s": {"timestamp_osm_base": "2020-07-21T20:40:03Z", "copyright": "The data included in this document is from www.openstreetmap.org. The data is made available under ODbL."}, "elements": [{"type": "node", "id": 2190367670, "lat": 41.9842875, "lon": -87.6691213, "tags": {"addr:city": "Chicago", "addr:housenumber": "5628", "addr:postcode": "60660", "addr:state": "IL", "addr:street": "North Clark Street", "amenity": "cafe", "cuisine": "coffee_shop", "internet_access": "wlan", "name": "The Coffee Studio", "phone": "+1-773-271-7881", "website": "https://www.thecoffeestudio.com/"}}, {"type": "node", "id": 2200925529, "lat": 41.9718151, "lon": -87.6791283}, {"type": "node", "id": 2200925539, "lat": 41.9718192, "lon": -87.6788873}, {"type": "node", "id": 2200925875, "lat": 41.9719742, "lon": -87.6791321}, {"type": "node", "id": 2200925896, "lat": 41.9719784, "lon": -87.6788912}, {"type": "node", "id": 2200940301, "lat": 41.9756343, "lon": -87.6792399}, {"type": "node", "id": 2200940309, "lat": 41.9756351, "lon": -87.6791425}, {"type": "node", "id": 2200940323, "lat": 41.9756387, "lon": -87.6790597}, {"type": "node", "id": 2200940325, "lat": 41.9756389, "lon": -87.6790873}, {"type": "node", "id": 2200940338, "lat": 41.9756474, "lon": -87.6791424}, {"type": "node", "id": 2200940339, "lat": 41.9756485, "lon": -87.6790872}, {"type": "node", "id": 2200940433, "lat": 41.9756732, "lon": -87.6790869}, {"type": "node", "id": 2200940436, "lat": 41.9756744, "lon": -87.6790612}, {"type": "node", "id": 2200940455, "lat": 41.9756794, "lon": -87.6789802}, {"type": "node", "id": 2200940488, "lat": 41.9756849, "lon": -87.678743}, {"type": "node", "id": 2200940770, "lat": 41.9757594, "lon": -87.6790456}, {"type": "node", "id": 2200940772, "lat": 41.9757604, "lon": -87.6789831}, {"type": "node", "id": 2200940775, "lat": 41.9757632, "lon": -87.6787458}, {"type": "node", "id": 2200940780, "lat": 41.9757641, "lon": -87.6789132}, {"type": "node", "id": 2200940781, "lat": 41.9757642, "lon": -87.6786815}, {"type": "node", "id": 2200940784, "lat": 41.9757663, "lon": -87.6788138}, {"type": "node", "id": 2200940901, "lat": 41.9758005, "lon": -87.679047}, {"type": "node", "id": 2200940905, "lat": 41.9758008, "lon": -87.6790911}, {"type": "node", "id": 2200941207, "lat": 41.9759087, "lon": -87.67925}, {"type": "node", "id": 2200941229, "lat": 41.9759151, "lon": -87.678919}, {"type": "node", "id": 2200941235, "lat": 41.9759159, "lon": -87.6788197}, {"type": "node", "id": 2200941244, "lat": 41.9759192, "lon": -87.6786872}, {"type": "node", "id": 2200942025, "lat": 41.9761688, "lon": -87.6755422}, {"type": "node", "id": 2200942034, "lat": 41.9761715, "lon": -87.6755219}, {"type": "node", "id": 2200942037, "lat": 41.9761734, "lon": -87.6756193}, {"type": "node", "id": 2200942038, "lat": 41.9761744, "lon": -87.675555}, {"type": "node", "id": 2200942069, "lat": 41.9761851, "lon": -87.6755089}, {"type": "node", "id": 2200942079, "lat": 41.9761961, "lon": -87.6755088}, {"type": "node", "id": 2200942087, "lat": 41.976203, "lon": -87.6755179}, {"type": "node", "id": 2200942145, "lat": 41.9762324, "lon": -87.6756206}, {"type": "node", "id": 2200942172, "lat": 41.9762433, "lon": -87.6756094}, {"type": "node", "id": 2200942190, "lat": 41.9762584, "lon": -87.6756111}, {"type": "node", "id": 2200942197, "lat": 41.9762667, "lon": -87.6756221}, {"type": "node", "id": 2200942315, "lat": 41.9763271, "lon": -87.6756233}, {"type": "node", "id": 2200942320, "lat": 41.9763292, "lon": -87.6755221}, {"type": "node", "id": 2200948353, "lat": 41.9776534, "lon": -87.6679122}, {"type": "node", "id": 2200948373, "lat": 41.9776608, "lon": -87.6682413}, {"type": "node", "id": 2200948910, "lat": 41.9777809, "lon": -87.6679072}, {"type": "node", "id": 2200948926, "lat": 41.9777883, "lon": -87.6682345}, {"type": "node", "id": 2200949127, "lat": 41.9778561, "lon": -87.6679947}, {"type": "node", "id": 2200949157, "lat": 41.9778624, "lon": -87.6682337}, {"type": "node", "id": 2200949338, "lat": 41.9779324, "lon": -87.6682311}, {"type": "node", "id": 2200949352, "lat": 41.9779354, "lon": -87.6679909}, {"type": "node", "id": 2200949373, "lat": 41.9779451, "lon": -87.6792843}, {"type": "node", "id": 2200949385, "lat": 41.9779483, "lon": -87.6791243}, {"type": "node", "id": 2200949394, "lat": 41.9779535, "lon": -87.6793026}, {"type": "node", "id": 2200949437, "lat": 41.9779686, "lon": -87.6793098}, {"type": "node", "id": 2200949760, "lat": 41.9781141, "lon": -87.6793157}, {"type": "node", "id": 2200949768, "lat": 41.9781171, "lon": -87.6791299}, {"type": "node", "id": 2200954935, "lat": 41.9792686, "lon": -87.6677207}, {"type": "node", "id": 2200954996, "lat": 41.9792794, "lon": -87.668173}, {"type": "node", "id": 2200955527, "lat": 41.9794003, "lon": -87.6677157}, {"type": "node", "id": 2200955575, "lat": 41.9794111, "lon": -87.6681679}, {"type": "node", "id": 2200965036, "lat": 41.980442, "lon": -87.6687052}, {"type": "node", "id": 2200965045, "lat": 41.9804438, "lon": -87.6685581}, {"type": "node", "id": 2200965051, "lat": 41.9804446, "lon": -87.668444}, {"type": "node", "id": 2200965282, "lat": 41.9804831, "lon": -87.6687103}, {"type": "node", "id": 2200965299, "lat": 41.9804847, "lon": -87.668736}, {"type": "node", "id": 2200965387, "lat": 41.9804976, "lon": -87.668598}, {"type": "node", "id": 2200965399, "lat": 41.9804988, "lon": -87.6685704}, {"type": "node", "id": 2200965486, "lat": 41.9805108, "lon": -87.6687394}, {"type": "node", "id": 2200965994, "lat": 41.9805111, "lon": -87.6685574}, {"type": "node", "id": 2200965996, "lat": 41.9805112, "lon": -87.6685721}, {"type": "node", "id": 2200965999, "lat": 41.9805113, "lon": -87.6685978}, {"type": "node", "id": 2200966017, "lat": 41.9805132, "lon": -87.6684525}, {"type": "node", "id": 2303382277, "lat": 41.9770576, "lon": -87.6792537, "tags": {"addr:city": "Chicago", "addr:housenumber": "5233", "addr:postcode": "60640", "addr:state": "Illinois", "addr:street": "North Damen Avenue", "amenity": "bar", "name": "Leadway Bar & Grill", "phone": "+1-773-728-2663", "website": "http://www.leadwaybar.com/"}}, {"type": "node", "id": 2323580274, "lat": 41.9760684, "lon": -87.6688893, "tags": {"addr:city": "Chicago", "addr:housenumber": "1509", "addr:state": "IL", "addr:street": "West Foster Avenue", "amenity": "restaurant", "cuisine": "lebanese;middle_eastern", "name": "Taste of Lebanon", "phone": "+1-773-334-1600"}}, {"type": "node", "id": 2969794936, "lat": 41.9779031, "lon": -87.6685295, "tags": {"amenity": "restaurant", "name": "Lady Gregory's", "smoking": "no", "wheelchair": "yes"}}, {"type": "node", "id": 2969794937, "lat": 41.9781363, "lon": -87.6685161, "tags": {"amenity": "cafe", "brand": "Starbucks", "brand:wikidata": "Q37158", "brand:wikipedia": "en:Starbucks", "cuisine": "coffee_shop", "name": "Starbucks", "official_name": "Starbucks Coffee", "takeaway": "yes"}}, {"type": "node", "id": 3015681544, "lat": 41.9783825, "lon": -87.6684939, "tags": {"amenity": "restaurant", "name": "Acre"}}, {"type": "node", "id": 3015683269, "lat": 41.9764623, "lon": -87.6685637, "tags": {"amenity": "restaurant", "cuisine": "thai", "name": "Polygon Cafe"}}, {"type": "node", "id": 3015683270, "lat": 41.9765959, "lon": -87.668561, "tags": {"addr:city": "Chicago", "addr:housenumber": "5210", "addr:postcode": "60640", "addr:state": "IL", "addr:street": "North Clark Street", "amenity": "bar", "name": "Simon's Tavern", "phone": "+1-773-878-0894"}}, {"type": "node", "id": 3015683272, "lat": 41.9772838, "lon": -87.6685369, "tags": {"addr:city": "Chicago", "addr:housenumber": "5236", "addr:postcode": "60640", "addr:state": "IL", "addr:street": "North Clark Street", "amenity": "restaurant", "name": "Svea Restaurant", "phone": "+1-773-275-7738"}}, {"type": "node", "id": 3015695204, "lat": 41.9781128, "lon": -87.6688473, "tags": {"amenity": "restaurant", "cuisine": "pizza", "name": "Ranalli's"}}, {"type": "node", "id": 3015697002, "lat": 41.9856401, "lon": -87.6690982, "tags": {"addr:city": "Chicago", "addr:housenumber": "5707", "addr:postcode": "60660", "addr:state": "IL", "addr:street": "North Clark Street", "amenity": "restaurant", "name": "M Henry", "phone": "+1-773-561-1600", "website": "https://www.mhenry.net/"}}, {"type": "node", "id": 3409239467, "lat": 41.9719499, "lon": -87.6790776, "tags": {"addr:city": "Chicago", "addr:housenumber": "4947", "addr:postcode": "60625", "addr:state": "IL", "addr:street": "North Damen Avenue", "amenity": "restaurant", "cuisine": "coffee_shop", "name": "Bang Bang Pie & Biscuits", "phone": "+1-312-644-3524", "website": "https://banderarestaurants.com"}}, {"type": "node", "id": 3409239468, "lat": 41.9718542, "lon": -87.6790803, "tags": {"addr:city": "Chicago", "addr:housenumber": "4943", "addr:postcode": "60625", "addr:state": "IL", "addr:street": "North Damen Avenue", "amenity": "restaurant", "cuisine": "american", "name": "Over Easy Cafe", "phone": "+1-773-506-2605", "website": "https://www.overeasycafechicago.com/"}}, {"type": "node", "id": 3523827330, "lat": 41.9760509, "lon": -87.668588, "tags": {"addr:city": "Chicago", "addr:housenumber": "5158", "addr:postcode": "60640", "addr:state": "IL", "addr:street": "North Clark Street", "amenity": "cafe", "cuisine": "coffee_shop", "internet_access": "wlan", "name": "La Colombe Coffee", "phone": "+1-773-942-7090", "smoking": "no", "website": "https://www.lacolombe.com/"}}, {"type": "node", "id": 3891833604, "lat": 41.9766514, "lon": -87.6685596, "tags": {"addr:housenumber": "5212", "addr:postcode": "60640", "addr:street": "North Clark Street", "amenity": "restaurant", "cuisine": "french", "name": "Pastoral", "opening_hours": "Mo-Sa 11:00-21:00; Su 11:00-18:00"}}, {"type": "node", "id": 4388631689, "lat": 41.9861299, "lon": -87.6692351, "tags": {"addr:city": "Chicago", "addr:housenumber": "5721", "addr:postcode": "60660", "addr:state": "IL", "addr:street": "North Clark Street", "amenity": "restaurant", "disused:amenity": "restaurant", "name": "Stone Fox", "outdoor_seating": "yes"}}, {"type": "node", "id": 4533253072, "lat": 41.9804744, "lon": -87.6681411, "tags": {"addr:city": "Chicago", "addr:country": "US", "addr:housenumber": "5419", "addr:postcode": "60640", "addr:state": "IL", "addr:street": "North Clark Street", "amenity": "restaurant", "cuisine": "sandwich", "name": "Jerry's Sandwiches", "wheelchair": "yes"}}, {"type": "node", "id": 5143534457, "lat": 41.9799271, "lon": -87.6814957, "tags": {"addr:city": "Chicago", "addr:housenumber": "2050", "addr:postcode": "60625", "addr:state": "IL", "addr:street": "West Balmoral Avenue", "amenity": "cafe", "description": "entrance is one block north on Rancher, through the parking lot", "name": "Half Acre Beer Co. Balmoral Tap Room & Garden", "opening_hours": "Th 16:00-23:00; Fr,Sa 11:00-00:00; Su 11:00-22:00", "phone": "+1-773-754-8488", "website": "https://www.halfacrebeer.com/balmoral-brewery/"}}, {"type": "node", "id": 5692134731, "lat": 41.9851351, "lon": -87.668934, "tags": {"addr:city": "Chicago", "addr:housenumber": "5663", "addr:postcode": "60660", "addr:state": "IL", "addr:street": "North Clark Street", "amenity": "restaurant", "cuisine": "pizza;italian", "disused:amenity": "restaurant", "name": "Antica Pizzeria"}}, {"type": "node", "id": 5714334046, "lat": 41.9862289, "lon": -87.6743927, "tags": {"addr:housenumber": "5739", "addr:street": "North Ravenswood Avenue", "amenity": "restaurant", "name": "Fireside", "phone": "773 561 7433", "website": "https://firesidechicago.com/"}}, {"type": "node", "id": 6006397414, "lat": 41.9758946, "lon": -87.6766423, "tags": {"addr:city": "Chicago", "addr:housenumber": "1905", "addr:postcode": "60640", "addr:state": "IL", "addr:street": "West Foster Avenue", "amenity": "restaurant", "cuisine": "mexican", "name": "El Catrin", "outdoor_seating": "yes"}}, {"type": "node", "id": 6261223616, "lat": 41.9801614, "lon": -87.6684822, "tags": {"addr:city": "Chicago", "addr:housenumber": "5402", "addr:postcode": "60640", "addr:state": "IL", "addr:street": "North Clark Street", "amenity": "bar", "name": "Andersonville Brewing Co", "phone": "+1-773-784-6969", "website": "http://andersonvillebrewing.com"}}, {"type": "node", "id": 6265199894, "lat": 41.9745124, "lon": -87.6680529, "tags": {"addr:city": "Chicago", "addr:housenumber": "5101", "addr:postcode": "60640", "addr:state": "IL", "addr:street": "North Clark Street", "amenity": "bar", "name": "Bar Roma", "phone": "+1-773-942-7572", "website": "https://www.barromachicago.com/"}}, {"type": "node", "id": 6267247639, "lat": 41.9794434, "lon": -87.6679813, "tags": {"addr:city": "Chicago", "addr:housenumber": "5347", "addr:postcode": "60640", "addr:state": "IL", "addr:street": "North Clark Street", "amenity": "restaurant", "cuisine": "southern", "name": "Big Jones", "phone": "+1-773-275-5725", "website": "https://bigjoneschicago.com"}}, {"type": "node", "id": 6289447621, "lat": 41.9774135, "lon": -87.6685818, "tags": {"addr:city": "Chicago", "addr:housenumber": "5240", "addr:postcode": "60640", "addr:state": "IL", "addr:street": "North Clark Street", "amenity": "bar", "name": "Farraguts", "phone": "+1-773-728-4903"}}, {"type": "node", "id": 6290121597, "lat": 41.979712, "lon": -87.6693329, "tags": {"addr:city": "Chicago", "addr:housenumber": "5357", "addr:postcode": "60640", "addr:state": "IL", "addr:street": "North Ashland Avenue", "amenity": "cafe", "name": "First Slice Pie Cafe", "phone": "+1-773-275-4297", "website": "http://firstslice.org/"}}, {"type": "node", "id": 6297203326, "lat": 41.9728441, "lon": -87.6677597, "tags": {"addr:city": "Chicago", "addr:housenumber": "5009", "addr:postcode": "60640", "addr:state": "IL", "addr:street": "North Clark Street", "amenity": "restaurant", "name": "Hot\u201dG\u201dDog", "phone": "+1-773-209-3360", "website": "http://www.hotgdog.com/"}}, {"type": "node", "id": 6300307387, "lat": 41.9798668, "lon": -87.6806858, "tags": {"addr:city": "Chicago", "addr:housenumber": "2024", "addr:postcode": "60625", "addr:state": "IL", "addr:street": "West Balmoral Avenue", "amenity": "bar", "name": "Spiteful Brewing", "website": "http://www.spitefulbrewing.com/"}}, {"type": "node", "id": 6303029665, "lat": 41.9758238, "lon": -87.6789867, "tags": {"addr:city": "Chicago", "addr:housenumber": "5131", "addr:postcode": "60625", "addr:state": "IL", "addr:street": "North Damen Avenue", "amenity": "restaurant", "name": "Sweet Virginia\u2019s Kitchen", "phone": "+1-773-654-3223", "website": "https://www.sweetvirginiaskitchen.com/"}}, {"type": "node", "id": 6305280634, "lat": 41.9731844, "lon": -87.668386, "tags": {"addr:city": "Chicago", "addr:housenumber": "5022", "addr:postcode": "60640", "addr:state": "IL", "addr:street": "North Clark Street", "amenity": "restaurant", "name": "The Bongo Room", "phone": "+1-773-728-7900", "website": "http://thebongoroom.com/"}}, {"type": "node", "id": 6306743430, "lat": 41.9820144, "lon": -87.6680113, "tags": {"addr:city": "Chicago", "addr:housenumber": "5507", "addr:postcode": "60640", "addr:state": "IL", "addr:street": "North Clark Street", "amenity": "cafe", "name": "TrueNorth", "phone": "+1-773-754-7550", "website": "https://www.truenorthchicago.com/"}}, {"type": "node", "id": 6319191938, "lat": 41.9803189, "lon": -87.6679841, "tags": {"addr:city": "Chicago", "addr:housenumber": "5413", "addr:postcode": "60640", "addr:state": "IL", "addr:street": "North Clark Street", "amenity": "cafe", "name": "Kanela Breakfast Club", "phone": "+1-773-594-2874", "website": "http://www.kanelabreakfastclub.com/"}}, {"type": "node", "id": 6319786871, "lat": 41.9786069, "lon": -87.6680331, "tags": {"addr:city": "Chicago", "addr:housenumber": "1553", "addr:postcode": "60640", "addr:state": "IL", "addr:street": "North Clark Street", "amenity": "cafe", "name": "Kopi Travelers Cafe", "phone": "+1-773-989-5674", "website": "https://www.kopicafechicago.com/"}}, {"type": "node", "id": 6320619992, "lat": 41.9786276, "lon": -87.6685919, "tags": {"addr:city": "Chicago", "addr:housenumber": "5318", "addr:postcode": "60640", "addr:state": "IL", "addr:street": "North Clark Street", "amenity": "cafe", "name": "Lost Larson Bakery", "phone": "+1-773-944-0587", "website": "https://www.lostlarson.com/"}}, {"type": "node", "id": 6320700067, "lat": 41.9833736, "lon": -87.6690501, "tags": {"addr:city": "Chicago", "addr:housenumber": "1541", "addr:postcode": "60660", "addr:state": "IL", "addr:street": "West Bryn Mawr Avenue", "amenity": "restaurant", "name": "Little Bad Wolf", "phone": "+1-773-942-6399", "website": "http://www.littlebadwolfchicago.com/"}}, {"type": "node", "id": 6321566926, "lat": 41.9797016, "lon": -87.6687391, "tags": {"addr:city": "Chicago", "addr:housenumber": "1511", "addr:postcode": "60640", "addr:state": "IL", "addr:street": "West Balmoral Avenue", "amenity": "bar", "name": "Marty\u2019s Martini Bar", "phone": "+1-773-944-0082"}}, {"type": "node", "id": 6321694983, "lat": 41.9796867, "lon": -87.6686245, "tags": {"addr:city": "Chicago", "addr:housenumber": "5358", "addr:postcode": "60640", "addr:state": "IL", "addr:street": "North Clark Street", "amenity": "bar", "name": "Replay - Andersonville", "phone": "+1-773-654-1369", "website": "https://www.replayandersonville.com/"}}, {"type": "node", "id": 6322575080, "lat": 41.9732346, "lon": -87.6678071, "tags": {"addr:city": "Chicago", "addr:housenumber": "5025", "addr:postcode": "60640", "addr:state": "IL", "addr:street": "North Clark Street", "amenity": "bar", "name": "Meeting House Tavern", "phone": "+1-773-696-4211", "website": "http://www.meetinghousetavern.com/"}}, {"type": "way", "id": 209939969, "nodes": [2200925529, 2200925875, 2200925896, 2200925539, 2200925529], "tags": {"addr:city": "Chicago", "addr:housenumber": "4947", "addr:postcode": "9020", "addr:state": "IL", "addr:street": "North Damen Avenue", "addr:street:name": "Damen", "addr:street:prefix": "North", "addr:street:type": "Avenue", "amenity": "restaurant", "building": "yes", "building:levels": "1", "chicago:building_id": "91201", "name": "Bang Bang Pie & Biscuits", "phone": "+1-773-530-9020", "website": "http://www.bangbangpie.com/"}}, {"type": "way", "id": 209942402, "nodes": [2200942025, 2200942038, 2200942037, 2200942145, 2200942172, 2200942190, 2200942197, 2200942315, 2200942320, 2200942087, 2200942079, 2200942069, 2200942034, 2200942025], "tags": {"addr:city": "Chicago", "addr:housenumber": "1818", "addr:postcode": "60640", "addr:state": "IL", "addr:street": "West Foster Avenue", "addr:street:name": "Foster", "addr:street:prefix": "West", "addr:street:type": "Avenue", "amenity": "bar", "building": "yes", "building:levels": "2", "chicago:building_id": "76414", "name": "Big Joe\u2019s", "phone": "+1-773-784-8755"}}, {"type": "way", "id": 209942894, "nodes": [2200940301, 2200941207, 2200941229, 2200940780, 2200940784, 2200941235, 2200941244, 2200940781, 2200940775, 2200940488, 2200940455, 2200940772, 2200940770, 2200940901, 2200940905, 2200940433, 2200940436, 2200940323, 2200940325, 2200940339, 2200940338, 2200940309, 2200940301], "tags": {"addr:city": "Chicago", "addr:housenumber": "5131", "addr:postcode": "60625", "addr:state": "Illinois", "addr:street": "North Damen Avenue", "addr:street:name": "Damen", "addr:street:prefix": "North", "addr:street:type": "Avenue", "amenity": "cafe", "building": "yes", "chicago:building_id": "77752", "name": "Big E\u2019s Coffee Lounge", "phone": "+1-773-561-7008"}}, {"type": "way", "id": 209943131, "nodes": [2200948353, 2200948373, 2200948926, 2200948910, 2200948353], "tags": {"addr:housenumber": "5251-5253", "addr:street": "North Clark Street", "addr:street:name": "Clark", "addr:street:prefix": "North", "addr:street:type": "Street", "amenity": "restaurant", "building": "yes", "building:levels": "1", "chicago:building_id": "71536", "cuisine": "mediterranean", "name": "Andie's"}}, {"type": "way", "id": 209943148, "nodes": [2200949127, 2200949157, 2200949338, 2200949352, 2200949127], "tags": {"addr:housenumber": "5259", "addr:street": "North Clark Street", "addr:street:name": "Clark", "addr:street:prefix": "North", "addr:street:type": "Street", "amenity": "restaurant", "building": "yes", "building:levels": "3", "chicago:building_id": "854995", "cuisine": "mediterranean", "name": "Reza's", "wheelchair": "yes"}}, {"type": "way", "id": 209943162, "nodes": [2200949373, 2200949394, 2200949437, 2200949760, 2200949768, 2200949385, 2200949373], "tags": {"addr:city": "Chicago", "addr:housenumber": "5305", "addr:postcode": "60640", "addr:state": "Illinois", "addr:street": "North Damen Avenue", "addr:street:name": "Damen", "addr:street:prefix": "North", "addr:street:type": "Avenue", "amenity": "bar", "building": "yes", "chicago:building_id": "70707", "name": "Bobbie\u2019s Runaway", "phone": "+1-773-271-6488"}}, {"type": "way", "id": 209943301, "nodes": [2200954935, 2200954996, 2200955575, 2200955527, 2200954935], "tags": {"addr:housenumber": "5343", "addr:street": "North Clark Street", "addr:street:name": "Clark", "addr:street:prefix": "North", "addr:street:type": "Street", "amenity": "restaurant", "building": "yes", "building:levels": "1", "chicago:building_id": "66552", "cuisine": "italian", "description": "Italian fine dining.", "name": "Calo Ristorante", "opening_hours": "Mo-Th 11:00-23:00; Fr,Sa 11:00-00:00; Su 14:00-22:00", "phone": "(773) 271-7782", "website": "https://calorestaurant.com"}}, {"type": "way", "id": 209946592, "nodes": [2200965036, 2200965282, 2200965299, 2200965486, 2200965999, 2200965387, 2200965399, 2200965996, 2200965994, 2200966017, 2200965051, 2200965045, 2200965036], "tags": {"addr:city": "Chicago", "addr:housenumber": "5420", "addr:postcode": "60640", "addr:state": "IL", "addr:street": "North Clark Street", "addr:street:name": "Clark", "addr:street:prefix": "North", "addr:street:type": "Street", "amenity": "restaurant", "building": "yes", "building:levels": "2", "chicago:building_id": "63565", "cuisine": "korean", "name": "Passerotto", "phone": "+1-708-607-2102", "website": "https://www.passerottochicago.com"}}]}