{"version": 0.6, "generator": "Overpass API 0.7.56.3 eb200aeb", "osm3s": {"timestamp_osm_base": "2020-07-04T04:03:03Z", "copyright": "The data included in this document is from www.openstreetmap.org. The data is made available under ODbL."}, "elements": [{"type": "node", "id": 258282963, "lat": 41.9277023, "lon": -87.7056926}, {"type": "node", "id": 258282964, "lat": 41.927352, "lon": -87.7053031}, {"type": "node", "id": 258282965, "lat": 41.9268359, "lon": -87.7047012}, {"type": "node", "id": 258282966, "lat": 41.9264062, "lon": -87.7041267}, {"type": "node", "id": 258282968, "lat": 41.9258971, "lon": -87.7033574}, {"type": "node", "id": 736035833, "lat": 41.9261827, "lon": -87.7037642}, {"type": "node", "id": 736035866, "lat": 41.927104, "lon": -87.7050232}, {"type": "node", "id": 736035867, "lat": 41.9266356, "lon": -87.7044475}, {"type": "node", "id": 1282296271, "lat": 41.9266117, "lon": -87.704335}, {"type": "node", "id": 1282296366, "lat": 41.9268691, "lon": -87.7046649}, {"type": "node", "id": 1282296410, "lat": 41.9259235, "lon": -87.7033303}, {"type": "node", "id": 1282296412, "lat": 41.9273102, "lon": -87.705172}, {"type": "node", "id": 1282296434, "lat": 41.9262625, "lon": -87.7038173}, {"type": "node", "id": 1585431689, "lat": 41.9175173, "lon": -87.7092157, "tags": {"amenity": "restaurant", "cuisine": "mexican", "name": "Soul del Sur"}}, {"type": "node", "id": 1700855278, "lat": 41.9244862, "lon": -87.7112831, "tags": {"amenity": "cafe", "name": "Cafe Bella"}}, {"type": "node", "id": 1700855339, "lat": 41.9244801, "lon": -87.713164, "tags": {"addr:city": "Chicago", "addr:housenumber": "3425", "addr:postcode": "60647", "addr:state": "IL", "addr:street": "West Fullerton Avenue", "amenity": "bar", "name": "The Burlington", "phone": "+1-773-384-3243", "website": "theburlingtonbar.com"}}, {"type": "node", "id": 1700855342, "lat": 41.9248764, "lon": -87.7085532, "tags": {"amenity": "bar", "name": "The Whirl-A-Way"}}, {"type": "node", "id": 1755524965, "lat": 41.917421, "lon": -87.7128202}, {"type": "node", "id": 1755524994, "lat": 41.9174233, "lon": -87.7127375}, {"type": "node", "id": 1755525195, "lat": 41.9175015, "lon": -87.7127404}, {"type": "node", "id": 1755525196, "lat": 41.9175016, "lon": -87.7127569}, {"type": "node", "id": 1755525296, "lat": 41.9175495, "lon": -87.7127399}, {"type": "node", "id": 1755525297, "lat": 41.9175497, "lon": -87.7127601}, {"type": "node", "id": 1755525551, "lat": 41.9176282, "lon": -87.7128292}, {"type": "node", "id": 1755525555, "lat": 41.9176305, "lon": -87.7127428}, {"type": "node", "id": 1755554091, "lat": 41.9224754, "lon": -87.7168095}, {"type": "node", "id": 1755554092, "lat": 41.9224763, "lon": -87.7167176}, {"type": "node", "id": 1755555028, "lat": 41.9226314, "lon": -87.7167216}, {"type": "node", "id": 1755555031, "lat": 41.9226318, "lon": -87.7168135}, {"type": "node", "id": 1755555286, "lat": 41.922684, "lon": -87.7168148}, {"type": "node", "id": 1755555306, "lat": 41.9226862, "lon": -87.7167229}, {"type": "node", "id": 1755605926, "lat": 41.9243256, "lon": -87.7148772}, {"type": "node", "id": 1755605929, "lat": 41.9243266, "lon": -87.7148037}, {"type": "node", "id": 1755606003, "lat": 41.92439, "lon": -87.7148619}, {"type": "node", "id": 1755606004, "lat": 41.9243901, "lon": -87.7148784}, {"type": "node", "id": 1755606044, "lat": 41.9244117, "lon": -87.7148065}, {"type": "node", "id": 1755606047, "lat": 41.9244133, "lon": -87.7148635}, {"type": "node", "id": 1755606048, "lat": 41.9244134, "lon": -87.71488}, {"type": "node", "id": 1755606062, "lat": 41.9244171, "lon": -87.7147955}, {"type": "node", "id": 1755606103, "lat": 41.9244445, "lon": -87.714797}, {"type": "node", "id": 1755606122, "lat": 41.9244514, "lon": -87.7148043}, {"type": "node", "id": 1755606174, "lat": 41.9244917, "lon": -87.7148829}, {"type": "node", "id": 1755606176, "lat": 41.9244926, "lon": -87.7148058}, {"type": "node", "id": 1755606480, "lat": 41.9248142, "lon": -87.7110913}, {"type": "node", "id": 1755606493, "lat": 41.9248186, "lon": -87.7108946}, {"type": "node", "id": 1755606514, "lat": 41.9248268, "lon": -87.7108853}, {"type": "node", "id": 1755606745, "lat": 41.9249033, "lon": -87.7110775}, {"type": "node", "id": 1755606747, "lat": 41.9249034, "lon": -87.7110941}, {"type": "node", "id": 1755606882, "lat": 41.9249582, "lon": -87.7110788}, {"type": "node", "id": 1755606888, "lat": 41.9249591, "lon": -87.7109833}, {"type": "node", "id": 2443252534, "lat": 41.9277311, "lon": -87.7056492}, {"type": "node", "id": 2591867080, "lat": 41.917247, "lon": -87.7101436, "tags": {"addr:city": "Chicago", "addr:housenumber": "3281", "addr:postcode": "60647", "addr:state": "IL", "addr:street": "West Armitage Avenue", "amenity": "bar", "name": "Best Intentions", "phone": "+1-312-818-1254", "website": "http://www.bestintentionschicago.com/"}}, {"type": "node", "id": 3534333527, "lat": 41.9249621, "lon": -87.7108901}, {"type": "node", "id": 3536901255, "lat": 41.9170988, "lon": -87.7190481, "tags": {"addr:city": "Chicago", "addr:housenumber": "3659", "addr:postcode": "60647", "addr:state": "IL", "addr:street": "West Armitage Avenue", "amenity": "bar", "name": "Weegee's Lounge", "opening_hours": "17:00-02:00", "phone": "+1-773-384-0707", "smoking": "outside", "website": "http://weegeeslounge.com/"}}, {"type": "node", "id": 3551845150, "lat": 41.9172774, "lon": -87.7072038, "tags": {"addr:city": "Chicago", "addr:housenumber": "3201", "addr:postcode": "60647", "addr:state": "IL", "addr:street": "West Armitage Avenue", "amenity": "restaurant", "name": "Scofflaw", "phone": "+1-773-252-9700", "website": "https://www.scofflawchicago.com/"}}, {"type": "node", "id": 3551845848, "lat": 41.9172729, "lon": -87.7075819, "tags": {"amenity": "restaurant", "name": "Sink|Swim"}}, {"type": "node", "id": 3551863194, "lat": 41.9173772, "lon": -87.7195852, "tags": {"amenity": "restaurant", "cuisine": "puerto_rican", "name": "Juanita's Puerto Rican Cuisine"}}, {"type": "node", "id": 3551875830, "lat": 41.9248555, "lon": -87.7111412, "tags": {"addr:city": "Chicago", "addr:housenumber": "3306", "addr:postcode": "60647", "addr:state": "IL", "addr:street": "West Fullerton Avenue", "amenity": "restaurant", "cuisine": "thai", "name": "Dena Kitchen", "phone": "+1-773-697-3504"}}, {"type": "node", "id": 3572599403, "lat": 41.9248994, "lon": -87.7090217, "tags": {"amenity": "restaurant", "cuisine": "cuban", "name": "El Rinconcito Cubano"}}, {"type": "node", "id": 3574942642, "lat": 41.924331, "lon": -87.7155481, "tags": {"addr:city": "Chicago", "addr:housenumber": "3545", "addr:postcode": "60647", "addr:state": "IL", "addr:street": "West Fullerton Avenue", "amenity": "bar", "name": "The Double Urban Tavern", "phone": "+1-773-772-7000", "website": "http://www.thedoubletavern.com/"}}, {"type": "node", "id": 3574998907, "lat": 41.9172747, "lon": -87.7078352, "tags": {"amenity": "restaurant", "cuisine": "puerto_rican", "name": "La Bomba"}}, {"type": "node", "id": 3575000275, "lat": 41.9172369, "lon": -87.7108623, "tags": {"addr:city": "Chicago", "addr:country": "US", "addr:housenumber": "3313-3315", "addr:postcode": "60647", "addr:state": "IL", "addr:street": "West Armitage Avenue", "amenity": "restaurant", "cuisine": "vegetarian;vegan;american", "delivery": "yes", "diet:vegan": "yes", "diet:vegetarian": "only", "name": "Ground Control", "phone": "+1-773-772-9446", "website": "https://www.groundcontrolchicago.com/"}}, {"type": "node", "id": 3581811864, "lat": 41.917563, "lon": -87.703649, "tags": {"amenity": "restaurant", "cuisine": "pizza", "name": "Dante's Pizzeria"}}, {"type": "node", "id": 3629730354, "lat": 41.9247459, "lon": -87.7185896, "tags": {"amenity": "restaurant", "cuisine": "mexican", "name": "Raymond's Tacos"}}, {"type": "node", "id": 3629730355, "lat": 41.9247518, "lon": -87.7187854, "tags": {"amenity": "restaurant", "cuisine": "pizza", "name": "Vito & Angelo Pizzeria"}}, {"type": "node", "id": 3641096467, "lat": 41.9247881, "lon": -87.7159408, "tags": {"amenity": "restaurant", "cuisine": "mexican", "name": "El Pacifico"}}, {"type": "node", "id": 3659153796, "lat": 41.9248341, "lon": -87.7122744, "tags": {"addr:city": "Chicago", "addr:housenumber": "3400", "addr:postcode": "60647", "addr:state": "IL", "addr:street": "West Fullerton Avenue", "amenity": "restaurant", "cuisine": "puerto_rican", "name": "Jibaritos y Mas", "phone": "+1-773-799-8601", "website": "https://www.orderjibaritosymas.com"}}, {"type": "node", "id": 3659153798, "lat": 41.9248538, "lon": -87.7104754, "tags": {"amenity": "restaurant", "name": "Big Tony's Pizza"}}, {"type": "node", "id": 3659163381, "lat": 41.9171509, "lon": -87.7065151, "tags": {"addr:city": "Chicago", "addr:housenumber": "3129", "addr:postcode": "60647", "addr:state": "IL", "addr:street": "West Armitage Avenue", "amenity": "restaurant", "name": "Logan Eats", "phone": "+1-773-697-7330", "website": "https://www.loganeats.com/"}}, {"type": "node", "id": 3659163383, "lat": 41.9175442, "lon": -87.70471, "tags": {"amenity": "restaurant", "name": "Cheng Chopsticks"}}, {"type": "node", "id": 3882069859, "lat": 41.9244787, "lon": -87.7134416, "tags": {"amenity": "bar", "name": "Acapulco Night Club"}}, {"type": "node", "id": 3882086458, "lat": 41.9244563, "lon": -87.7140572, "tags": {"amenity": "restaurant", "cuisine": "puerto_rican", "name": "Cafeteria Marcela's"}}, {"type": "node", "id": 4072448988, "lat": 41.9172859, "lon": -87.7074829, "tags": {"addr:city": "Chicago", "addr:housenumber": "3209", "addr:postcode": "60647", "addr:state": "IL", "addr:street": "West Armitage Avenue", "amenity": "restaurant", "cuisine": "american;american_new;new_american", "name": "Giant", "phone": "+1-773-252-0997", "website": "http://www.giantrestaurant.com"}}, {"type": "node", "id": 4541895189, "lat": 41.9171209, "lon": -87.711505, "tags": {"addr:city": "Chicago", "addr:country": "US", "addr:housenumber": "3327", "addr:postcode": "60647", "addr:state": "IL", "addr:street": "West Armitage Avenue", "amenity": "restaurant", "cuisine": "mexican", "name": "Tacos Garcias"}}, {"type": "node", "id": 4676051017, "lat": 41.9172177, "lon": -87.7110484, "tags": {"addr:city": "Chicago", "addr:country": "US", "addr:housenumber": "3317", "addr:postcode": "60647", "addr:state": "IL", "addr:street": "West Armitage Avenue", "amenity": "cafe", "name": "Damn Fine Coffee Bar", "phone": "+1-773-904-7051", "website": "http://www.damnfinechicago.com/"}}, {"type": "node", "id": 4741715729, "lat": 41.9242272, "lon": -87.7143073, "tags": {"addr:city": "Chicago", "addr:housenumber": "3509", "addr:postcode": "60647", "addr:state": "IL", "addr:street": "West Fullerton Avenue", "amenity": "restaurant", "name": "Park & Field", "outdoor_seating": "yes", "phone": "+1-765-426-6657", "smoking": "no", "website": "http://parkandfieldchicago.com/"}}, {"type": "node", "id": 5340079272, "lat": 41.9211195, "lon": -87.7121435, "tags": {"addr:city": "Chicago", "addr:housenumber": "2200", "addr:postcode": "60647", "addr:state": "IL", "addr:street": "North Kimball Avenue", "amenity": "restaurant", "cuisine": "dominican", "entrance": "yes", "name": "Punta Cana Restaurant", "phone": "+1-773-292-7400", "website": "http://www.puntacanadominicanrestaurant.com/"}}, {"type": "node", "id": 5718019379, "lat": 41.9175048, "lon": -87.708007, "tags": {"addr:city": "Chicago", "addr:housenumber": "3222", "addr:postcode": "60647", "addr:state": "IL", "addr:street": "West Armitage Avenue", "amenity": "restaurant", "cuisine": "mexican", "name": "El Heredero", "outdoor_seating": "no", "smoking": "no", "takeaway": "yes"}}, {"type": "node", "id": 5769288152, "lat": 41.9177215, "lon": -87.7072785, "tags": {"addr:city": "Chicago", "addr:housenumber": "3204", "addr:postcode": "60647", "addr:state": "IL", "addr:street": "West Armitage Avenue", "amenity": "bar", "name": "The Moonlighter", "operator": "Scofflaw Group", "outdoor_seating": "yes"}}, {"type": "node", "id": 6280505896, "lat": 41.9244495, "lon": -87.7110497, "tags": {"addr:city": "Chicago", "addr:housenumber": "3311", "addr:postcode": "60647", "addr:state": "IL", "addr:street": "West Fullerton Avenue", "amenity": "cafe", "name": "Caribella", "phone": "+1-773-360-8873", "website": "https://caribellachicago.com/"}}, {"type": "node", "id": 6280541276, "lat": 41.9249421, "lon": -87.7102153, "tags": {"addr:city": "Chicago", "addr:housenumber": "3268", "addr:postcode": "60647", "addr:state": "IL", "addr:street": "West Fullerton Avenue", "amenity": "restaurant", "cuisine": "latin_american", "name": "Casa Yari", "phone": "+1-773-661-9546", "website": "https://www.facebook.com/casayari2013"}}, {"type": "node", "id": 6291889411, "lat": 41.9172303, "lon": -87.7078513, "tags": {"addr:city": "Chicago", "addr:housenumber": "3219", "addr:postcode": "60647", "addr:state": "IL", "addr:street": "West Armitage Avenue", "amenity": "bar", "name": "Go Tavern and Liquors", "phone": "+1-773-227-4052", "website": "https://www.gotavern.com/"}}, {"type": "node", "id": 6298802685, "lat": 41.9244457, "lon": -87.7039141, "tags": {"addr:city": "Chicago", "addr:housenumber": "3039", "addr:postcode": "60647", "addr:state": "IL", "addr:street": "West Fullerton Avenue", "amenity": "cafe", "name": "Sip of Hope", "phone": "+1-773-661-6986", "website": "https://sipofhope.com/"}}, {"type": "node", "id": 6300387387, "lat": 41.9244367, "lon": -87.7109014, "tags": {"addr:city": "Chicago", "addr:housenumber": "3039", "addr:postcode": "60647", "addr:state": "IL", "addr:street": "West Fullerton Avenue", "amenity": "restaurant", "name": "Penumbra Restaurant & Wine Bar", "phone": "+1-773-772-2343", "website": "https://www.penumbrawinebar.com/"}}, {"type": "node", "id": 6303119987, "lat": 41.9175485, "lon": -87.7079694, "tags": {"addr:city": "Chicago", "addr:housenumber": "3222", "addr:postcode": "60647", "addr:state": "IL", "addr:street": "West Armitage Avenue", "amenity": "restaurant", "name": "Taqueria El Heredero", "phone": "+1-312-267-2431", "website": "http://taqueriaelheredero.com/"}}, {"type": "node", "id": 6315650619, "lat": 41.9243426, "lon": -87.7196926, "tags": {"addr:city": "Chicago", "addr:housenumber": "3703", "addr:postcode": "60647", "addr:state": "IL", "addr:street": "West Fullerton Avenue", "amenity": "restaurant", "name": "The Little Pickle", "phone": "+1-312-270-4538", "website": "https://www.thelittlepicklechicago.com/"}}, {"type": "node", "id": 6315668706, "lat": 41.9175996, "lon": -87.7073905, "tags": {"addr:city": "Chicago", "addr:housenumber": "3204", "addr:postcode": "60647", "addr:state": "IL", "addr:street": "West Armitage Avenue", "amenity": "restaurant", "name": "The Moonlighter", "phone": "+1-773-360-8896", "website": "https://www.themoonlighterchicago.com/"}}, {"type": "node", "id": 6316862751, "lat": 41.9249895, "lon": -87.7085876, "tags": {"addr:city": "Chicago", "addr:housenumber": "3224", "addr:postcode": "60647", "addr:state": "IL", "addr:street": "West Fullerton Avenue", "amenity": "bar", "name": "Whirlaway Lounge", "phone": "+1-773-276-6809", "website": "http://www.whirlaway.net/"}}, {"type": "node", "id": 6319849466, "lat": 41.9243634, "lon": -87.7213646, "tags": {"addr:city": "Chicago", "addr:housenumber": "3749", "addr:postcode": "60647", "addr:state": "IL", "addr:street": "West Fullerton Avenue", "amenity": "restaurant", "cuisine": "mexican", "name": "L\u2019 Patron Tacos", "phone": "+1-773-799-8066"}}, {"type": "node", "id": 6324278875, "lat": 41.9249315, "lon": -87.720486, "tags": {"addr:city": "Chicago", "addr:housenumber": "3724", "addr:postcode": "60647", "addr:state": "IL", "addr:street": "West Fullerton Avenue", "amenity": "cafe", "name": "Pan Artesanal", "phone": "+1-312-286-5265", "website": "https://www.panartesanalbakery.com/"}}, {"type": "node", "id": 6459337926, "lat": 41.9248691, "lon": -87.7155809, "tags": {"addr:city": "Chicago", "addr:housenumber": "3524", "addr:postcode": "60647", "addr:state": "IL", "addr:street": "West Fullerton Avenue", "amenity": "restaurant", "cuisine": "american", "name": "Flat & Point", "phone": "+1-773-904-7152", "website": "https://www.flatandpoint.com"}}, {"type": "node", "id": 7442864166, "lat": 41.9243876, "lon": -87.7203158, "tags": {"addr:city": "Chicago", "addr:housenumber": "3721", "addr:postcode": "60647", "addr:state": "IL", "addr:street": "West Fullerton Avenue", "amenity": "restaurant", "cuisine": "mexican", "name": "Gabriela\u2019s Carnitas"}}, {"type": "way", "id": 23825786, "nodes": [258282963, 258282964, 736035866, 258282965, 736035867, 258282966], "tags": {"electrified": "rail", "frequency": "0", "gauge": "1435", "name": "O'Hare Branch", "oneway": "yes", "operator": "Chicago Transit Authority", "railway": "subway", "voltage": "600"}}, {"type": "way", "id": 59343236, "nodes": [258282966, 736035833, 258282968], "tags": {"electrified": "rail", "frequency": "0", "gauge": "1435", "name": "O'Hare Branch", "oneway": "yes", "operator": "Chicago Transit Authority", "railway": "subway", "voltage": "600"}}, {"type": "way", "id": 163885473, "nodes": [1755524965, 1755525551, 1755525555, 1755525296, 1755525297, 1755525196, 1755525195, 1755524994, 1755524965], "tags": {"addr:city": "Chicago", "addr:housenumber": "3420", "addr:postcode": "60647", "addr:street": "West Armitage Avenue", "addr:street:name": "Armitage", "addr:street:prefix": "West", "addr:street:type": "Avenue", "amenity": "bar", "building": "yes", "building:levels": "2", "name": "Rosa's Lounge", "phone": "+1 773-342-0452", "smoking": "no", "website": "http://rosaslounge.com/"}}, {"type": "way", "id": 163886441, "nodes": [1755554091, 1755555031, 1755555286, 1755555306, 1755555028, 1755554092, 1755554091], "tags": {"addr:city": "Chicago", "addr:housenumber": "3581", "addr:postcode": "60647", "addr:state": "IL", "addr:street": "West Belden Avenue", "addr:street:name": "Belden", "addr:street:prefix": "West", "addr:street:type": "Avenue", "amenity": "restaurant", "building": "yes", "building:levels": "1", "construction": "restaurant", "cuisine": "american", "name": "Wyler Road", "phone": "+1-773-661-0675", "website": "http://www.wylerroad.com/"}}, {"type": "way", "id": 163896559, "nodes": [1755605926, 1755606004, 1755606003, 1755606047, 1755606048, 1755606174, 1755606176, 1755606122, 1755606103, 1755606062, 1755606044, 1755605929, 1755605926], "tags": {"addr:housenumber": "3525", "addr:postcode": "60647", "addr:street": "West Fullerton Avenue", "addr:street:name": "Fullerton", "addr:street:prefix": "West", "addr:street:type": "Avenue", "amenity": "restaurant", "building": "yes", "chicago:building_id": "265636", "cuisine": "pizza", "name": "Festa Pizzeria"}}, {"type": "way", "id": 236279642, "nodes": [1282296410, 1282296434, 1282296271, 1282296366, 1282296412, 2443252534], "tags": {"electrified": "rail", "frequency": "0", "gauge": "1435", "name": "O'Hare Branch", "oneway": "yes", "operator": "Chicago Transit Authority", "railway": "subway", "voltage": "600"}}, {"type": "way", "id": 346991085, "nodes": [1755606882, 1755606745, 1755606747, 1755606480, 1755606493, 1755606514, 3534333527, 1755606888, 1755606882], "tags": {"addr:city": "Chicago", "addr:housenumber": "3300", "addr:postcode": "60647", "addr:state": "IL", "addr:street": "West Fullerton Avenue", "amenity": "restaurant", "building": "yes", "capacity": "25", "cuisine": "mexican", "delivery": "no", "name": "El Habanero", "opening_hours": "11:00-21:00", "phone": "+1-773-227-9225", "smoking": "no", "takeaway": "yes"}}]}