{"version": 0.6, "generator": "Overpass API 0.7.56.3 eb200aeb", "osm3s": {"timestamp_osm_base": "2020-07-04T01:57:02Z", "copyright": "The data included in this document is from www.openstreetmap.org. The data is made available under ODbL."}, "elements": [{"type": "node", "id": 27607190, "lat": 41.8398095, "lon": -87.6642607}, {"type": "node", "id": 27607193, "lat": 41.8379647, "lon": -87.6676974}, {"type": "node", "id": 27607194, "lat": 41.836095, "lon": -87.6703737}, {"type": "node", "id": 705666451, "lat": 41.8389697, "lon": -87.6659653}, {"type": "node", "id": 705666876, "lat": 41.8358901, "lon": -87.6706708}, {"type": "node", "id": 705666893, "lat": 41.83774, "lon": -87.6680244}, {"type": "node", "id": 705667011, "lat": 41.8383708, "lon": -87.6670875}, {"type": "node", "id": 705667015, "lat": 41.8385237, "lon": -87.6668253}, {"type": "node", "id": 738165251, "lat": 41.842008, "lon": -87.6598177}, {"type": "node", "id": 738165252, "lat": 41.8417512, "lon": -87.6603407}, {"type": "node", "id": 738165253, "lat": 41.8414875, "lon": -87.6608906}, {"type": "node", "id": 738165254, "lat": 41.8410209, "lon": -87.6618454}, {"type": "node", "id": 738165255, "lat": 41.8421736, "lon": -87.6594733}, {"type": "node", "id": 738165256, "lat": 41.8456596, "lon": -87.6511367}, {"type": "node", "id": 738165257, "lat": 41.8455727, "lon": -87.651464}, {"type": "node", "id": 738165258, "lat": 41.8454338, "lon": -87.6520138}, {"type": "node", "id": 738165259, "lat": 41.845295, "lon": -87.6525744}, {"type": "node", "id": 738165260, "lat": 41.8451881, "lon": -87.6529579}, {"type": "node", "id": 738165261, "lat": 41.8451052, "lon": -87.6532221}, {"type": "node", "id": 738165262, "lat": 41.8450122, "lon": -87.6534917}, {"type": "node", "id": 738165263, "lat": 41.8449173, "lon": -87.6537412}, {"type": "node", "id": 738165264, "lat": 41.8448074, "lon": -87.6540094}, {"type": "node", "id": 738165265, "lat": 41.8447105, "lon": -87.6542307}, {"type": "node", "id": 738165266, "lat": 41.8445976, "lon": -87.6544734}, {"type": "node", "id": 738165267, "lat": 41.8444528, "lon": -87.6547738}, {"type": "node", "id": 738165269, "lat": 41.8443359, "lon": -87.6550112}, {"type": "node", "id": 738165270, "lat": 41.844167, "lon": -87.6553679}, {"type": "node", "id": 738165271, "lat": 41.8438333, "lon": -87.6560505}, {"type": "node", "id": 738165272, "lat": 41.8435376, "lon": -87.6566621}, {"type": "node", "id": 738165273, "lat": 41.8432079, "lon": -87.6573434}, {"type": "node", "id": 738165274, "lat": 41.8427363, "lon": -87.6583157}, {"type": "node", "id": 738165275, "lat": 41.8426235, "lon": -87.6585463}, {"type": "node", "id": 738165315, "lat": 41.8456227, "lon": -87.6511112}, {"type": "node", "id": 738165316, "lat": 41.8425933, "lon": -87.6585203}, {"type": "node", "id": 738165317, "lat": 41.8427044, "lon": -87.6582929}, {"type": "node", "id": 738165318, "lat": 41.8444208, "lon": -87.654755}, {"type": "node", "id": 738165319, "lat": 41.8445677, "lon": -87.6544546}, {"type": "node", "id": 738165320, "lat": 41.8446856, "lon": -87.6541985}, {"type": "node", "id": 738165321, "lat": 41.8448014, "lon": -87.6539289}, {"type": "node", "id": 738165322, "lat": 41.8448924, "lon": -87.6537036}, {"type": "node", "id": 738165323, "lat": 41.8449873, "lon": -87.6534542}, {"type": "node", "id": 738165324, "lat": 41.8450802, "lon": -87.6531833}, {"type": "node", "id": 738165326, "lat": 41.8451711, "lon": -87.6528895}, {"type": "node", "id": 738165327, "lat": 41.845264, "lon": -87.6525503}, {"type": "node", "id": 738165328, "lat": 41.8453719, "lon": -87.6521238}, {"type": "node", "id": 738165329, "lat": 41.8454898, "lon": -87.6516437}, {"type": "node", "id": 738165330, "lat": 41.8455567, "lon": -87.6513701}, {"type": "node", "id": 738165331, "lat": 41.8443079, "lon": -87.654987}, {"type": "node", "id": 738165335, "lat": 41.8421709, "lon": -87.6593885}, {"type": "node", "id": 738165340, "lat": 41.841999, "lon": -87.6597386}, {"type": "node", "id": 738165342, "lat": 41.8429921, "lon": -87.6576988}, {"type": "node", "id": 738165343, "lat": 41.8432559, "lon": -87.6571569}, {"type": "node", "id": 738165344, "lat": 41.8435736, "lon": -87.6565065}, {"type": "node", "id": 738165345, "lat": 41.8438633, "lon": -87.655903}, {"type": "node", "id": 738165346, "lat": 41.8440701, "lon": -87.6554792}, {"type": "node", "id": 738165347, "lat": 41.8409077, "lon": -87.6620826}, {"type": "node", "id": 738165348, "lat": 41.840843, "lon": -87.6622183}, {"type": "node", "id": 738165352, "lat": 41.8390666, "lon": -87.665976}, {"type": "node", "id": 738165353, "lat": 41.8389377, "lon": -87.6662121}, {"type": "node", "id": 738165360, "lat": 41.8388078, "lon": -87.6664441}, {"type": "node", "id": 738165372, "lat": 41.840548, "lon": -87.6628836, "tags": {"railway": "switch"}}, {"type": "node", "id": 738165373, "lat": 41.840265, "lon": -87.6635243}, {"type": "node", "id": 738165374, "lat": 41.8401407, "lon": -87.6637949}, {"type": "node", "id": 738165375, "lat": 41.8400247, "lon": -87.6640412}, {"type": "node", "id": 738165376, "lat": 41.8399342, "lon": -87.6642311}, {"type": "node", "id": 738165377, "lat": 41.8403075, "lon": -87.6632308, "tags": {"railway": "switch"}}, {"type": "node", "id": 738165378, "lat": 41.8402236, "lon": -87.6634212}, {"type": "node", "id": 738165379, "lat": 41.8400041, "lon": -87.6640169}, {"type": "node", "id": 738165380, "lat": 41.8399259, "lon": -87.6642168}, {"type": "node", "id": 738165381, "lat": 41.8400461, "lon": -87.6637717, "tags": {"railway": "switch"}}, {"type": "node", "id": 738165382, "lat": 41.8401297, "lon": -87.6636157}, {"type": "node", "id": 738165383, "lat": 41.8403135, "lon": -87.6633188}, {"type": "node", "id": 738165384, "lat": 41.8404284, "lon": -87.6631168}, {"type": "node", "id": 738165385, "lat": 41.8398428, "lon": -87.6644123, "tags": {"railway": "switch"}}, {"type": "node", "id": 738165387, "lat": 41.8408111, "lon": -87.6621982}, {"type": "node", "id": 738165388, "lat": 41.8408774, "lon": -87.6620604}, {"type": "node", "id": 738165389, "lat": 41.8409918, "lon": -87.6618229}, {"type": "node", "id": 738165390, "lat": 41.8411927, "lon": -87.6614056}, {"type": "node", "id": 738165391, "lat": 41.8415504, "lon": -87.6606653}, {"type": "node", "id": 738165392, "lat": 41.8388208, "lon": -87.6662805}, {"type": "node", "id": 738165401, "lat": 41.8394284, "lon": -87.6652673, "tags": {"name": "Ashland", "public_transport": "stop_position", "railway": "stop", "subway": "yes"}}, {"type": "node", "id": 738165404, "lat": 41.8392434, "lon": -87.6656381}, {"type": "node", "id": 738165468, "lat": 41.8381979, "lon": -87.6673584}, {"type": "node", "id": 1282312584, "lat": 41.8377277, "lon": -87.6681072}, {"type": "node", "id": 1282312585, "lat": 41.8361468, "lon": -87.6703803}, {"type": "node", "id": 1282312588, "lat": 41.8373846, "lon": -87.6686016}, {"type": "node", "id": 1282312603, "lat": 41.8379635, "lon": -87.6677651}, {"type": "node", "id": 1282312621, "lat": 41.8367139, "lon": -87.6695547}, {"type": "node", "id": 1282312641, "lat": 41.8383978, "lon": -87.6671358}, {"type": "node", "id": 1282312660, "lat": 41.8386123, "lon": -87.6667759}, {"type": "node", "id": 2016975922, "lat": 41.8359427, "lon": -87.6706686}, {"type": "node", "id": 2016975924, "lat": 41.8393416, "lon": -87.6651967, "tags": {"name": "Ashland", "public_transport": "stop_position", "railway": "stop", "subway": "yes"}}, {"type": "node", "id": 2199087074, "lat": 41.8371522, "lon": -87.6659276}, {"type": "node", "id": 2199087087, "lat": 41.8372324, "lon": -87.6660167}, {"type": "node", "id": 2199087088, "lat": 41.8372324, "lon": -87.6660222}, {"type": "node", "id": 2199087089, "lat": 41.8372442, "lon": -87.6659248}, {"type": "node", "id": 2199087093, "lat": 41.8372531, "lon": -87.666044}, {"type": "node", "id": 2199087094, "lat": 41.83726, "lon": -87.6660439}, {"type": "node", "id": 2199087101, "lat": 41.8373207, "lon": -87.6661093}, {"type": "node", "id": 2199087102, "lat": 41.8373574, "lon": -87.6660502}, {"type": "node", "id": 3731227954, "lat": 41.838182, "lon": -87.6674577}, {"type": "node", "id": 3731308548, "lat": 41.8403736, "lon": -87.6632824}, {"type": "node", "id": 5745254806, "lat": 41.8401906, "lon": -87.6635107, "tags": {"railway": "railway_crossing"}}, {"type": "node", "id": 6256333210, "lat": 41.8309312, "lon": -87.6563758, "tags": {"addr:city": "Chicago", "addr:housenumber": "1200", "addr:postcode": "60609", "addr:state": "IL", "addr:street": "West 35th Street", "amenity": "cafe", "name": "8a5e", "phone": "+1-773-609-2347", "website": "http://8a5e.com/"}}, {"type": "node", "id": 6269079234, "lat": 41.841515, "lon": -87.6576937, "tags": {"addr:city": "Chicago", "addr:housenumber": "2901", "addr:postcode": "60608", "addr:state": "IL", "addr:street": "South Archer Avenue", "amenity": "bar", "name": "Bridgeport Inn", "phone": "+1-773-523-5468"}}, {"type": "node", "id": 6322975413, "lat": 41.8444039, "lon": -87.6600941, "tags": {"addr:city": "Chicago", "addr:housenumber": "2701", "addr:postcode": "60608", "addr:state": "IL", "addr:street": "South Eleanor Street", "amenity": "restaurant", "name": "The Duck Inn", "phone": "+1-312-724-8811", "website": "http://www.theduckinnchicago.com/"}}, {"type": "node", "id": 6325952104, "lat": 41.8366466, "lon": -87.6638963, "tags": {"addr:city": "Chicago", "addr:housenumber": "3145", "addr:postcode": "60608", "addr:state": "IL", "addr:street": "South Ashland Avenue", "amenity": "cafe", "name": "Vero Coffee & Gelato", "phone": "+1-773-247-3394", "website": "https://verocoffeeandgelato.com/"}}, {"type": "way", "id": 56180875, "nodes": [27607190, 738165381, 738165377, 738165387], "tags": {"electrified": "rail", "frequency": "0", "gauge": "1435", "name": "Orange Line", "oneway": "yes", "operator": "Chicago Transit Authority", "railway": "subway", "voltage": "600"}}, {"type": "way", "id": 56229011, "nodes": [705666451, 2016975924, 27607190], "tags": {"bridge": "yes", "electrified": "rail", "frequency": "0", "gauge": "1435", "layer": "1", "name": "Orange Line", "oneway": "yes", "operator": "Chicago Transit Authority", "railway": "subway", "voltage": "600"}}, {"type": "way", "id": 56229030, "nodes": [705666876, 27607194], "tags": {"bridge": "yes", "electrified": "rail", "frequency": "0", "gauge": "1435", "name": "Orange Line", "operator": "Chicago Transit Authority", "railway": "subway", "voltage": "600"}}, {"type": "way", "id": 56229031, "nodes": [27607194, 705666893], "tags": {"electrified": "rail", "frequency": "0", "gauge": "1435", "name": "Orange Line", "oneway": "yes", "operator": "Chicago Transit Authority", "railway": "subway", "voltage": "600"}}, {"type": "way", "id": 56229038, "nodes": [27607193, 738165468, 705667011, 705667015], "tags": {"electrified": "rail", "frequency": "0", "gauge": "1435", "name": "Orange Line", "operator": "Chicago Transit Authority", "railway": "subway", "voltage": "600"}}, {"type": "way", "id": 56229039, "nodes": [705666893, 27607193], "tags": {"bridge": "yes", "electrified": "rail", "frequency": "0", "gauge": "1435", "layer": "1", "name": "Orange Line", "operator": "Chicago Transit Authority", "railway": "subway", "voltage": "600"}}, {"type": "way", "id": 59520416, "nodes": [738165251, 738165252, 738165253, 738165254], "tags": {"electrified": "rail", "frequency": "0", "gauge": "1435", "name": "Orange Line", "old_railway_operator": "AT&SF", "oneway": "yes", "operator": "Chicago Transit Authority", "railway": "subway", "voltage": "600"}}, {"type": "way", "id": 59520419, "nodes": [738165255, 738165251], "tags": {"bridge": "yes", "electrified": "rail", "frequency": "0", "gauge": "1435", "layer": "1", "name": "Orange Line", "old_railway_operator": "AT&SF", "oneway": "yes", "operator": "Chicago Transit Authority", "railway": "subway", "voltage": "600"}}, {"type": "way", "id": 59520424, "nodes": [738165256, 738165257, 738165258, 738165259, 738165260, 738165261, 738165262, 738165263, 738165264, 738165265, 738165266, 738165267], "tags": {"electrified": "rail", "frequency": "0", "gauge": "1435", "name": "Orange Line", "old_railway_operator": "AT&SF", "oneway": "yes", "operator": "Chicago Transit Authority", "railway": "subway", "voltage": "600"}}, {"type": "way", "id": 59520428, "nodes": [738165269, 738165270, 738165271, 738165272, 738165273, 738165274], "tags": {"electrified": "rail", "frequency": "0", "gauge": "1435", "name": "Orange Line", "old_railway_operator": "AT&SF", "oneway": "yes", "operator": "Chicago Transit Authority", "railway": "subway", "voltage": "600"}}, {"type": "way", "id": 59520429, "nodes": [738165267, 738165269], "tags": {"bridge": "yes", "electrified": "rail", "frequency": "0", "gauge": "1435", "layer": "1", "name": "Orange Line", "old_railway_operator": "AT&SF", "oneway": "yes", "operator": "Chicago Transit Authority", "railway": "subway", "voltage": "600"}}, {"type": "way", "id": 59520431, "nodes": [738165274, 738165275], "tags": {"bridge": "yes", "electrified": "rail", "frequency": "0", "gauge": "1435", "layer": "1", "name": "Orange Line", "old_railway_operator": "AT&SF", "oneway": "yes", "operator": "Chicago Transit Authority", "railway": "subway", "voltage": "600"}}, {"type": "way", "id": 59520455, "nodes": [738165316, 738165317], "tags": {"bridge": "yes", "electrified": "rail", "frequency": "0", "gauge": "1435", "layer": "1", "name": "Orange Line", "old_railway_operator": "AT&SF", "oneway": "yes", "operator": "Chicago Transit Authority", "railway": "subway", "voltage": "600"}}, {"type": "way", "id": 59520458, "nodes": [738165318, 738165319, 738165320, 738165321, 738165322, 738165323, 738165324, 738165326, 738165327, 738165328, 738165329, 738165330, 738165315], "tags": {"electrified": "rail", "frequency": "0", "gauge": "1435", "name": "Orange Line", "old_railway_operator": "AT&SF", "oneway": "yes", "operator": "Chicago Transit Authority", "railway": "subway", "voltage": "600"}}, {"type": "way", "id": 59520459, "nodes": [738165331, 738165318], "tags": {"bridge": "yes", "electrified": "rail", "frequency": "0", "gauge": "1435", "layer": "1", "name": "Orange Line", "old_railway_operator": "AT&SF", "oneway": "yes", "operator": "Chicago Transit Authority", "railway": "subway", "voltage": "600"}}, {"type": "way", "id": 59520462, "nodes": [738165335, 738165316], "tags": {"electrified": "rail", "frequency": "0", "gauge": "1435", "name": "Orange Line", "old_railway_operator": "AT&SF", "oneway": "yes", "operator": "Chicago Transit Authority", "railway": "subway", "voltage": "600"}}, {"type": "way", "id": 59520463, "nodes": [738165340, 738165335], "tags": {"bridge": "yes", "electrified": "rail", "frequency": "0", "gauge": "1435", "layer": "1", "name": "Orange Line", "old_railway_operator": "AT&SF", "oneway": "yes", "operator": "Chicago Transit Authority", "railway": "subway", "voltage": "600"}}, {"type": "way", "id": 59520465, "nodes": [738165317, 738165342, 738165343, 738165344, 738165345, 738165346, 738165331], "tags": {"electrified": "rail", "frequency": "0", "gauge": "1435", "name": "Orange Line", "old_railway_operator": "AT&SF", "oneway": "yes", "operator": "Chicago Transit Authority", "railway": "subway", "voltage": "600"}}, {"type": "way", "id": 59520466, "nodes": [738165275, 738165255], "tags": {"electrified": "rail", "frequency": "0", "gauge": "1435", "name": "Orange Line", "old_railway_operator": "AT&SF", "oneway": "yes", "operator": "Chicago Transit Authority", "railway": "subway", "voltage": "600"}}, {"type": "way", "id": 59520468, "nodes": [738165347, 738165348], "tags": {"electrified": "rail", "frequency": "0", "gauge": "1435", "name": "Orange Line", "old_railway_operator": "AT&SF", "oneway": "yes", "operator": "Chicago Transit Authority", "railway": "subway", "voltage": "600"}}, {"type": "way", "id": 59520470, "nodes": [738165254, 738165347], "tags": {"bridge": "yes", "electrified": "rail", "frequency": "0", "gauge": "1435", "layer": "1", "name": "Orange Line", "old_railway_operator": "AT&SF", "oneway": "yes", "operator": "Chicago Transit Authority", "railway": "subway", "voltage": "600"}}, {"type": "way", "id": 59520473, "nodes": [738165352, 738165353, 738165360, 1282312660, 1282312641, 3731227954, 1282312603], "tags": {"electrified": "rail", "frequency": "0", "gauge": "1435", "name": "Orange Line", "oneway": "yes", "operator": "Chicago Transit Authority", "railway": "subway", "voltage": "600"}}, {"type": "way", "id": 59520474, "nodes": [738165348, 738165372, 3731308548, 738165373, 738165374, 738165375, 738165376], "tags": {"electrified": "rail", "frequency": "0", "gauge": "1435", "name": "Orange Line", "oneway": "yes", "operator": "Chicago Transit Authority", "railway": "subway", "voltage": "600"}}, {"type": "way", "id": 59520476, "nodes": [738165377, 738165378, 5745254806, 738165379, 738165380], "tags": {"electrified": "rail", "gauge": "1435", "operator": "Chicago Transit Authority", "railway": "subway", "voltage": "600"}}, {"type": "way", "id": 59520477, "nodes": [738165381, 738165382, 5745254806, 738165383, 738165384, 738165372], "tags": {"electrified": "rail", "gauge": "1435", "operator": "Chicago Transit Authority", "railway": "subway", "voltage": "600"}}, {"type": "way", "id": 59520479, "nodes": [738165380, 738165385], "tags": {"bridge": "yes", "electrified": "rail", "gauge": "1435", "layer": "1", "operator": "Chicago Transit Authority", "railway": "subway", "voltage": "600"}}, {"type": "way", "id": 59520481, "nodes": [738165387, 738165388], "tags": {"electrified": "rail", "frequency": "0", "gauge": "1435", "name": "Orange Line", "old_railway_operator": "AT&SF", "oneway": "yes", "operator": "Chicago Transit Authority", "railway": "subway", "voltage": "600"}}, {"type": "way", "id": 59520483, "nodes": [738165389, 738165390, 738165391, 738165340], "tags": {"electrified": "rail", "frequency": "0", "gauge": "1435", "name": "Orange Line", "old_railway_operator": "AT&SF", "oneway": "yes", "operator": "Chicago Transit Authority", "railway": "subway", "voltage": "600"}}, {"type": "way", "id": 59520484, "nodes": [738165388, 738165389], "tags": {"bridge": "yes", "electrified": "rail", "frequency": "0", "gauge": "1435", "layer": "1", "name": "Orange Line", "old_railway_operator": "AT&SF", "oneway": "yes", "operator": "Chicago Transit Authority", "railway": "subway", "voltage": "600"}}, {"type": "way", "id": 59520485, "nodes": [705667015, 738165392, 705666451], "tags": {"electrified": "rail", "frequency": "0", "gauge": "1435", "name": "Orange Line", "oneway": "yes", "operator": "Chicago Transit Authority", "railway": "subway", "voltage": "600"}}, {"type": "way", "id": 59520487, "nodes": [738165376, 738165385, 738165401, 738165404, 738165352], "tags": {"bridge": "yes", "electrified": "rail", "frequency": "0", "gauge": "1435", "layer": "1", "name": "Orange Line", "oneway": "yes", "operator": "Chicago Transit Authority", "railway": "subway", "voltage": "600"}}, {"type": "way", "id": 112926400, "nodes": [1282312584, 1282312588, 1282312621, 1282312585], "tags": {"electrified": "rail", "frequency": "0", "gauge": "1435", "name": "Orange Line", "oneway": "yes", "operator": "Chicago Transit Authority", "railway": "subway", "voltage": "600"}}, {"type": "way", "id": 112926402, "nodes": [1282312603, 1282312584], "tags": {"bridge": "yes", "electrified": "rail", "frequency": "0", "gauge": "1435", "name": "Orange Line", "oneway": "yes", "operator": "Chicago Transit Authority", "railway": "subway", "voltage": "600"}}, {"type": "way", "id": 191117202, "nodes": [1282312585, 2016975922], "tags": {"bridge": "yes", "electrified": "rail", "frequency": "0", "gauge": "1435", "name": "Orange Line", "oneway": "yes", "operator": "Chicago Transit Authority", "railway": "subway", "voltage": "600"}}, {"type": "way", "id": 209711679, "nodes": [2199087074, 2199087087, 2199087088, 2199087093, 2199087094, 2199087101, 2199087102, 2199087089, 2199087074], "tags": {"addr:city": "Chicago", "addr:housenumber": "3115", "addr:postcode": "60608", "addr:state": "IL", "addr:street": "South Archer Avenue", "addr:street:name": "Archer", "addr:street:prefix": "South", "addr:street:type": "Avenue", "amenity": "bar", "building": "yes", "building:levels": "2", "chicago:building_id": "409093", "name": "One City Tap", "website": "http://onecitytap.com/"}}]}