{"version": 0.6, "generator": "Overpass API 0.7.56.3 eb200aeb", "osm3s": {"timestamp_osm_base": "2020-07-04T04:17:02Z", "copyright": "The data included in this document is from www.openstreetmap.org. The data is made available under ODbL."}, "elements": [{"type": "node", "id": 306741002, "lat": 41.8914114, "lon": -87.6096584, "tags": {"amenity": "restaurant", "name": "Bubba Gump Shrimp Co.", "wheelchair": "yes"}}, {"type": "node", "id": 357044250, "lat": 41.8902532, "lon": -87.624789, "tags": {"addr:city": "Chicago", "addr:housenumber": "430", "addr:postcode": "60611", "addr:state": "IL", "addr:street": "North Michigan Avenue", "amenity": "pub", "layer": "-1", "name": "Billy Goat Tavern", "phone": "+1-312-222-1525", "underground": "yes", "url": "http://www.billygoattavern.com", "website": "https://www.billygoattavern.com/locations/michigan/", "wheelchair": "no", "wikidata": "Q2903638"}}, {"type": "node", "id": 1574001630, "lat": 41.8970891, "lon": -87.6258892}, {"type": "node", "id": 1574001640, "lat": 41.8971223, "lon": -87.626701}, {"type": "node", "id": 1574001643, "lat": 41.897128, "lon": -87.6263126}, {"type": "node", "id": 1574001653, "lat": 41.8970834, "lon": -87.6263107}, {"type": "node", "id": 1575966770, "lat": 41.8979838, "lon": -87.6269197}, {"type": "node", "id": 1575966812, "lat": 41.8973019, "lon": -87.6249984}, {"type": "node", "id": 1575966829, "lat": 41.8974927, "lon": -87.6281937}, {"type": "node", "id": 1575966842, "lat": 41.8970974, "lon": -87.6281857}, {"type": "node", "id": 1575966846, "lat": 41.8974987, "lon": -87.6269009}, {"type": "node", "id": 1575966850, "lat": 41.8972879, "lon": -87.6258629}, {"type": "node", "id": 1575966869, "lat": 41.8975276, "lon": -87.6248772}, {"type": "node", "id": 1575966873, "lat": 41.897289, "lon": -87.6257542}, {"type": "node", "id": 1575966965, "lat": 41.8971094, "lon": -87.6274776}, {"type": "node", "id": 1575966977, "lat": 41.8973009, "lon": -87.6248662}, {"type": "node", "id": 1575967022, "lat": 41.8971193, "lon": -87.6268875}, {"type": "node", "id": 1575967024, "lat": 41.8970911, "lon": -87.6257641}, {"type": "node", "id": 1575967029, "lat": 41.89672, "lon": -87.6268767}, {"type": "node", "id": 1575967045, "lat": 41.8967121, "lon": -87.6274628}, {"type": "node", "id": 1577037631, "lat": 41.8979827, "lon": -87.627026}, {"type": "node", "id": 1577037679, "lat": 41.897503, "lon": -87.6273709}, {"type": "node", "id": 1577037687, "lat": 41.8976347, "lon": -87.6273732}, {"type": "node", "id": 1577037689, "lat": 41.8979798, "lon": -87.6273785}, {"type": "node", "id": 1648217459, "lat": 41.8914624, "lon": -87.6094084, "tags": {"amenity": "pub", "name": "Harry Caray's Tavern"}}, {"type": "node", "id": 1648217475, "lat": 41.8932428, "lon": -87.6204681, "tags": {"addr:city": "Chicago", "addr:housenumber": "622", "addr:postcode": "60611", "addr:state": "IL", "addr:street": "North Fairbanks Court", "amenity": "restaurant", "name": "Timothy O\u2019Toole\u2019s Pub - Chicago", "phone": "+1-312-642-0700", "website": "http://www.timothyotooles.com/", "wheelchair": "no"}}, {"type": "node", "id": 1663730890, "lat": 41.8913751, "lon": -87.6225394}, {"type": "node", "id": 1663730900, "lat": 41.8916573, "lon": -87.6225428}, {"type": "node", "id": 1663730902, "lat": 41.8913767, "lon": -87.6224422}, {"type": "node", "id": 1663730933, "lat": 41.8916587, "lon": -87.622448}, {"type": "node", "id": 1719012044, "lat": 41.8961547, "lon": -87.622917}, {"type": "node", "id": 1719012058, "lat": 41.8958653, "lon": -87.6229095}, {"type": "node", "id": 1720270745, "lat": 41.8961513, "lon": -87.6231505}, {"type": "node", "id": 1720270758, "lat": 41.895862, "lon": -87.6231428}, {"type": "node", "id": 1880197295, "lat": 41.8986312, "lon": -87.6236863, "tags": {"amenity": "restaurant", "name": "Cheescake Factory"}}, {"type": "node", "id": 2070963648, "lat": 41.89046, "lon": -87.623798, "tags": {"addr:city": "Chicago", "addr:housenumber": "435", "addr:postcode": "60611", "addr:street": "North Michigan Avenue", "amenity": "cafe", "atm": "no", "brand": "Argo", "drive_through": "no", "internet_access": "no", "opening_hours": "Mo-Fr 06:00-23:00; Sa 07:00-23:00; Su 07:00-22:00", "operator": "Argo Tea", "phone": "+1 (312) 546-4790", "website": "https://www.argotea.com/"}}, {"type": "node", "id": 2262372941, "lat": 41.8912185, "lon": -87.619059, "tags": {"addr:housenumber": "322", "addr:postcode": "60611", "addr:street": "East Illinois Street", "amenity": "pub", "name": "Lucky Strike Bowl", "source": "773-347-2695", "website": "http://www.bowlluckystrike.com/", "wheelchair": "yes"}}, {"type": "node", "id": 2339944269, "lat": 41.8931098, "lon": -87.6131642, "tags": {"addr:housename": "Caff\u00e8 Oliva", "addr:housenumber": "550", "addr:postcode": "60611", "addr:street": "East Grand Avenue", "amenity": "restaurant", "cuisine": "international", "name": "Caff\u00e8 Oliva", "source": "www.caffeoliva.com", "website": "https://www.caffeoliva.com/"}}, {"type": "node", "id": 2402056321, "lat": 41.892042, "lon": -87.61891, "tags": {"addr:city": "Chicago", "addr:housenumber": "345", "addr:street": "East Ohio Street", "amenity": "pub", "cuisine": "irish", "food": "yes", "name": "D4", "outdoor_seating": "yes"}}, {"type": "node", "id": 2471454173, "lat": 41.8902528, "lon": -87.6234629, "tags": {"addr:housename": "Tribune Tower", "addr:housenumber": "435", "addr:postcode": "60611", "addr:street": "North Michigan Avenue", "amenity": "restaurant", "name": "Howells & Hood", "website": "https://www.howellsandhood.com/"}}, {"type": "node", "id": 2708231824, "lat": 41.8921642, "lon": -87.6180984, "tags": {"addr:city": "Chicago", "addr:housenumber": "355", "addr:postcode": "60611", "addr:state": "IL", "addr:street": "East Ohio Street", "amenity": "cafe", "cuisine": "breakfast", "internet_access": "no", "name": "Yolk", "phone": "+1-312-822-9655", "website": "https://www.eatyolk.com/", "wheelchair": "yes"}}, {"type": "node", "id": 2708231830, "lat": 41.8948036, "lon": -87.6235485, "tags": {"amenity": "cafe", "cuisine": "burger", "name": "M Burger"}}, {"type": "node", "id": 2708232525, "lat": 41.8942859, "lon": -87.6229601, "tags": {"amenity": "cafe", "cuisine": "breakfast", "name": "The Corner Bakery"}}, {"type": "node", "id": 2819072953, "lat": 41.8865103, "lon": -87.6242243, "tags": {"amenity": "restaurant", "name": "Sweetwater"}}, {"type": "node", "id": 3191761980, "lat": 41.8939959, "lon": -87.622591, "tags": {"amenity": "cafe", "brand": "Starbucks", "brand:wikidata": "Q37158", "brand:wikipedia": "en:Starbucks", "cuisine": "coffee_shop", "internet_access": "wlan", "name": "Starbucks", "official_name": "Starbucks Coffee", "takeaway": "yes"}}, {"type": "node", "id": 3343161843, "lat": 41.8906094, "lon": -87.6244952, "tags": {"amenity": "cafe", "brand": "Starbucks", "brand:wikidata": "Q37158", "brand:wikipedia": "en:Starbucks", "cuisine": "coffee_shop", "name": "Starbucks", "official_name": "Starbucks Coffee", "takeaway": "yes"}}, {"type": "node", "id": 3343162069, "lat": 41.8907716, "lon": -87.6246916, "tags": {"amenity": "cafe", "name": "Corner Bakery Cafe"}}, {"type": "node", "id": 3343162071, "lat": 41.891157, "lon": -87.6246273, "tags": {"addr:city": "Chicago", "addr:housenumber": "500", "addr:postcode": "60611", "addr:state": "IL", "addr:street": "North Michigan Avenue", "amenity": "restaurant", "cuisine": "american", "name": "The Purple Pig", "opening_hours": "Mo-Su 11:30-23:00", "phone": "+1-312-464-1744", "website": "https://thepurplepigchicago.com/"}}, {"type": "node", "id": 3343162093, "lat": 41.8895178, "lon": -87.6248168, "tags": {"addr:city": "Chicago", "addr:housenumber": "400", "addr:postcode": "60611", "addr:state": "IL", "addr:street": "North Michigan Avenue", "amenity": "cafe", "brand": "Peet's Coffee", "brand:wikidata": "Q1094101", "brand:wikipedia": "en:Peet's Coffee", "cuisine": "coffee_shop", "name": "Peet's Coffee", "phone": "+1-312-625-5531", "takeaway": "yes", "website": "https://www.peets.com/"}}, {"type": "node", "id": 3343163147, "lat": 41.8931299, "lon": -87.6247284, "tags": {"addr:city": "Chicago", "addr:housenumber": "600", "addr:postcode": "60611", "addr:state": "IL", "addr:street": "North Michigan Avenue", "amenity": "restaurant", "cuisine": "american", "name": "Grand Lux Cafe", "opening_hours": "Mo-Fr 11:00-23:30; Sa 09:00-00:30; Su 09:00-23:30", "phone": "+1-312-276-2500", "website": "https://www.grandluxcafe.com/"}}, {"type": "node", "id": 3399988513, "lat": 41.8919137, "lon": -87.6229257, "tags": {"amenity": "restaurant", "cuisine": "burger", "name": "Chef's Burger Bistro"}}, {"type": "node", "id": 3468511745, "lat": 41.8913274, "lon": -87.6085962, "tags": {"amenity": "bar", "name": "Margaritaville"}}, {"type": "node", "id": 3497376098, "lat": 41.8989054, "lon": -87.623641, "tags": {"addr:city": "Chicago", "addr:housenumber": "857", "addr:postcode": "60611", "addr:state": "IL", "addr:street": "North Michigan Avenue", "amenity": "cafe", "brand": "Starbucks", "brand:wikidata": "Q37158", "brand:wikipedia": "en:Starbucks", "cuisine": "coffee_shop", "name": "Starbucks", "official_name": "Starbucks Coffee", "takeaway": "yes", "website": "https://www.lappetito.com/"}}, {"type": "node", "id": 3549524275, "lat": 41.8862551, "lon": -87.6215867, "tags": {"amenity": "cafe", "brand": "Starbucks", "brand:wikidata": "Q37158", "brand:wikipedia": "en:Starbucks", "cuisine": "coffee_shop", "name": "Starbucks", "official_name": "Starbucks Coffee", "takeaway": "yes"}}, {"type": "node", "id": 3551677217, "lat": 41.8931548, "lon": -87.6204496, "tags": {"amenity": "cafe", "name": "West Egg", "wheelchair": "yes"}}, {"type": "node", "id": 3551688266, "lat": 41.8932431, "lon": -87.6208409, "tags": {"amenity": "restaurant", "cuisine": "indian", "name": "Indian Garden"}}, {"type": "node", "id": 3551688415, "lat": 41.8924751, "lon": -87.6187471, "tags": {"addr:city": "Chicago", "addr:housenumber": "345", "addr:postcode": "60611", "addr:state": "IL", "addr:street": "East Ohio Street", "amenity": "cafe", "name": "Dollop Coffee", "phone": "+1-312-929-4007", "website": "https://dollop.coffee/", "wheelchair": "yes"}}, {"type": "node", "id": 3575163023, "lat": 41.893236, "lon": -87.6221111, "tags": {"amenity": "cafe", "name": "Julius Meinl"}}, {"type": "node", "id": 3575163024, "lat": 41.893236, "lon": -87.6217893, "tags": {"amenity": "restaurant", "brand": "Blaze Pizza", "brand:wikidata": "Q23016666", "brand:wikipedia": "en:Blaze Pizza", "cuisine": "pizza", "name": "Blaze Pizza"}}, {"type": "node", "id": 3575163025, "lat": 41.893234, "lon": -87.6215908, "tags": {"amenity": "restaurant", "cuisine": "burger", "name": "Epic Burger"}}, {"type": "node", "id": 3575164510, "lat": 41.8927469, "lon": -87.6215023, "tags": {"amenity": "restaurant", "cuisine": "thai", "name": "Dao"}}, {"type": "node", "id": 3575164511, "lat": 41.8923735, "lon": -87.6211134, "tags": {"amenity": "restaurant", "cuisine": "spanish", "name": "Emilios Tapas"}}, {"type": "node", "id": 3575164512, "lat": 41.8927289, "lon": -87.622079, "tags": {"amenity": "restaurant", "cuisine": "italian", "name": "Tre Soldi"}}, {"type": "node", "id": 3575164513, "lat": 41.8927269, "lon": -87.6222426, "tags": {"addr:city": "Chicago", "addr:housenumber": "210", "addr:postcode": "60611", "addr:state": "IL", "addr:street": "East Ohio Street", "amenity": "restaurant", "cuisine": "japanese", "name": "Gyu-Kaku", "phone": "+1-312-266-8929", "website": "https://www.gyu-kaku.com"}}, {"type": "node", "id": 3575164515, "lat": 41.892702, "lon": -87.6231371, "tags": {"addr:city": "Chicago", "addr:housenumber": "162", "addr:postcode": "60611", "addr:state": "Il", "addr:street": "East Ohio Street", "amenity": "cafe", "cuisine": "coffee_shop", "name": "Kafenio Lavazza", "phone": "+1-312-255-8850", "website": "http://www.kafeniochicago.com/"}}, {"type": "node", "id": 3575181784, "lat": 41.8933007, "lon": -87.6175766, "tags": {"amenity": "cafe", "brand": "Starbucks", "brand:wikidata": "Q37158", "brand:wikipedia": "en:Starbucks", "cuisine": "coffee_shop", "name": "Starbucks", "official_name": "Starbucks Coffee", "takeaway": "yes"}}, {"type": "node", "id": 3575181785, "lat": 41.893127, "lon": -87.6175793, "tags": {"amenity": "restaurant", "name": "Local Root"}}, {"type": "node", "id": 3575181786, "lat": 41.8924821, "lon": -87.6184376, "tags": {"amenity": "restaurant", "cuisine": "pizza", "name": "Robert's Pizza Company"}}, {"type": "node", "id": 3586161238, "lat": 41.8913956, "lon": -87.6244867, "tags": {"amenity": "restaurant", "cuisine": "chinese", "name": "Lao Sze Chuan"}}, {"type": "node", "id": 3637654282, "lat": 41.8948585, "lon": -87.6172594, "tags": {"amenity": "cafe", "name": "Cafe Descartes"}}, {"type": "node", "id": 3660898211, "lat": 41.8965127, "lon": -87.624786, "tags": {"amenity": "restaurant", "name": "RL"}}, {"type": "node", "id": 3660899325, "lat": 41.8918754, "lon": -87.623299, "tags": {"amenity": "restaurant", "name": "Labriola Ristorante & Cafe"}}, {"type": "node", "id": 3660900078, "lat": 41.8924171, "lon": -87.6232272, "tags": {"amenity": "restaurant", "cuisine": "armenian", "name": "Sayat Nova"}}, {"type": "node", "id": 3660900079, "lat": 41.8923449, "lon": -87.6232272, "tags": {"addr:city": "Chicago", "addr:housenumber": "157", "addr:postcode": "60611", "addr:state": "IL", "addr:street": "East Ohio Street", "amenity": "bar", "name": "Second Story Bar", "phone": "+1-312-923-9536"}}, {"type": "node", "id": 3660900090, "lat": 41.8990545, "lon": -87.6214863, "tags": {"addr:city": "Chicago", "addr:housenumber": "201", "addr:postcode": "60611", "addr:state": "IL", "addr:street": "East Delaware Place", "amenity": "bar", "name": "Drumbar", "phone": "+1-312-933-4805", "website": "https://www.drumbar.com/"}}, {"type": "node", "id": 3917218261, "lat": 41.8924038, "lon": -87.6212638, "tags": {"amenity": "restaurant", "name": "Ramen MisoYa"}}, {"type": "node", "id": 3918944637, "lat": 41.8897262, "lon": -87.6212705, "tags": {"amenity": "cafe", "name": "Illy"}}, {"type": "node", "id": 3985040972, "lat": 41.8861962, "lon": -87.6129597, "tags": {"amenity": "restaurant", "cuisine": "chinese", "name": "Friendship Chinese"}}, {"type": "node", "id": 4097813076, "lat": 41.8909495, "lon": -87.6162491, "tags": {"addr:city": "Chicago", "addr:housenumber": "435", "addr:postcode": "60611", "addr:state": "IL", "addr:street": "East Illinois Street", "amenity": "restaurant", "name": "Pinstripes", "opening_hours": "11:30-23:00", "phone": "+1-312-527-3010", "takeaway": "yes", "website": "https://pinstripes.com/chicago-illinois/", "wheelchair": "limited"}}, {"type": "node", "id": 4130928516, "lat": 41.8939159, "lon": -87.6208256, "tags": {"addr:city": "Chicago", "addr:housenumber": "259", "addr:street": "East Erie Street", "amenity": "bar", "description": "18th Floor", "name": "GreenRiver"}}, {"type": "node", "id": 4130928517, "lat": 41.8935535, "lon": -87.6205329, "tags": {"amenity": "restaurant", "name": "Lyfe Kitchen"}}, {"type": "node", "id": 4222717943, "lat": 41.8906383, "lon": -87.6173152, "tags": {"amenity": "cafe", "brand": "Starbucks", "brand:wikidata": "Q37158", "brand:wikipedia": "en:Starbucks", "cuisine": "coffee_shop", "name": "Starbucks", "official_name": "Starbucks Coffee", "takeaway": "yes"}}, {"type": "node", "id": 4222717945, "lat": 41.8912617, "lon": -87.6149427, "tags": {"addr:city": "Chicago", "addr:housenumber": "502", "addr:postcode": "60611", "addr:state": "IL", "addr:street": "East Illinois Street", "amenity": "restaurant", "name": "Kanela Breakfast Club", "phone": "+1-312-380-0071", "website": "http://www.kanelabreakfastclub.com/"}}, {"type": "node", "id": 4222717946, "lat": 41.8912044, "lon": -87.6187447, "tags": {"amenity": "restaurant", "name": "Niu Japanese Fusion"}}, {"type": "node", "id": 4306418293, "lat": 41.8882819, "lon": -87.6215145, "tags": {"amenity": "cafe", "name": "Cyrano's Caf\u00e9 & Wine Bar", "opening_hours": "Mo-Su 11:00-22:00"}}, {"type": "node", "id": 4306493789, "lat": 41.8880159, "lon": -87.6187797, "tags": {"amenity": "bar", "name": "Island Party Hut"}}, {"type": "node", "id": 4634046603, "lat": 41.8866803, "lon": -87.6167118, "tags": {"amenity": "cafe", "leisure": "picnic_table", "name": "ROM", "outdoor_seating": "yes"}}, {"type": "node", "id": 4737382944, "lat": 41.8914743, "lon": -87.6068822, "tags": {"addr:city": "Chicago", "addr:housenumber": "600", "addr:postcode": "60611", "addr:state": "IL", "addr:street": "East Grand Avenue", "amenity": "restaurant", "cuisine": "mexican", "name": "Xurro", "website": "https://www.churrofactory.com/", "website:yelp": "https://www.yelp.com/biz/porkchop-bbq-chicago-2"}}, {"type": "node", "id": 4753133272, "lat": 41.8951218, "lon": -87.6159872}, {"type": "node", "id": 4753133273, "lat": 41.8943551, "lon": -87.6155903}, {"type": "node", "id": 4753133274, "lat": 41.8967789, "lon": -87.6170666}, {"type": "node", "id": 4753133275, "lat": 41.8967123, "lon": -87.6228676}, {"type": "node", "id": 4753133276, "lat": 41.8934615, "lon": -87.6212048}, {"type": "node", "id": 4874072421, "lat": 41.8940111, "lon": -87.6234149, "tags": {"amenity": "restaurant", "brand": "TGI Friday's", "brand:wikidata": "Q1524184", "brand:wikipedia": "en:TGI Fridays", "cuisine": "american", "name": "TGI Friday's", "name:en": "TGI Fridays"}}, {"type": "node", "id": 5009406229, "lat": 41.8948959, "lon": -87.6228478}, {"type": "node", "id": 5009406230, "lat": 41.894893, "lon": -87.6234891}, {"type": "node", "id": 5009406231, "lat": 41.8942213, "lon": -87.6234767}, {"type": "node", "id": 5009406232, "lat": 41.8938634, "lon": -87.6217727}, {"type": "node", "id": 5009406233, "lat": 41.8942391, "lon": -87.6217772}, {"type": "node", "id": 5009406234, "lat": 41.8938791, "lon": -87.6212125}, {"type": "node", "id": 5009406235, "lat": 41.8934672, "lon": -87.6204091}, {"type": "node", "id": 5009406236, "lat": 41.8934962, "lon": -87.6189642}, {"type": "node", "id": 5009406237, "lat": 41.8942855, "lon": -87.6189941}, {"type": "node", "id": 5029780821, "lat": 41.8940244, "lon": -87.6215054, "tags": {"addr:postcode": "60611", "amenity": "cafe", "cuisine": "american", "name": "Do - Rite Donuts & Chicken", "phone": "(312)344-1374"}}, {"type": "node", "id": 5159473692, "lat": 41.8931982, "lon": -87.6245306, "tags": {"addr:city": "Chicago", "addr:country": "US", "addr:postcode": "60611", "addr:state": "IL", "addr:street": "600 N Michigan Avenue", "amenity": "cafe", "lat": "41.89334", "lon": "-87.6242", "name": "Grand Lux Cafe", "phone": "312-276-2500", "website": "https://www.grandluxcafe.com/"}}, {"type": "node", "id": 5756706729, "lat": 41.8931636, "lon": -87.6215926, "tags": {"addr:housenumber": "227", "amenity": "restaurant", "brand": "Nando's", "brand:wikidata": "Q3472954", "brand:wikipedia": "en:Nando's", "cuisine": "chicken;portuguese", "name": "Nando's"}}, {"type": "node", "id": 5825114811, "lat": 41.8861341, "lon": -87.6209122, "tags": {"addr:city": "Chicago", "addr:housenumber": "200", "addr:postcode": "60601", "addr:state": "IL", "addr:street": "North Columbus Service Drive", "amenity": "bar", "name": "Columbus Tap", "phone": "+1-312-565-6644", "website": "https://www.columbustap.com/"}}, {"type": "node", "id": 5910507185, "lat": 41.8981579, "lon": -87.6221071, "tags": {"addr:housenumber": "835", "addr:postcode": "60611", "amenity": "cafe", "name": "American Girl Place"}}, {"type": "node", "id": 5946218187, "lat": 41.8863212, "lon": -87.6247899, "tags": {"amenity": "restaurant", "name": "wow bao"}}, {"type": "node", "id": 5954587020, "lat": 41.8912513, "lon": -87.6119668, "tags": {"addr:city": "Chicago", "addr:housenumber": "580", "addr:postcode": "60611", "addr:state": "IL", "addr:street": "East Illinois Street", "amenity": "restaurant", "cuisine": "mexican", "name": "Casa Margarita", "opening_hours": "Mo-Su 11:00-10:30"}}, {"type": "node", "id": 6182286946, "lat": 41.8990207, "lon": -87.6236946, "tags": {"amenity": "restaurant", "name": "Dos Toros"}}, {"type": "node", "id": 6182287220, "lat": 41.8990946, "lon": -87.6238024, "tags": {"addr:city": "Chicago", "addr:housenumber": "875", "addr:state": "IL", "addr:street": "North Michigan Avenue", "amenity": "restaurant", "brand": "Benihana", "brand:wikidata": "Q4887996", "brand:wikipedia": "en:Benihana", "cuisine": "japanese;teppanyaki;steak", "name": "Benihana"}}, {"type": "node", "id": 6182288653, "lat": 41.8939657, "lon": -87.6245736, "tags": {"addr:city": "Chicago", "addr:housenumber": "646", "addr:postcode": "60611", "addr:state": "Illinois", "addr:street": "North Michigan Avenue", "amenity": "cafe", "brand": "Starbucks", "brand:wikidata": "Q37158", "brand:wikipedia": "en:Starbucks", "cuisine": "coffee_shop", "name": "Starbucks Reserve", "official_name": "Starbucks Reserve Roastery", "opening_hours": "Mo-Th 07:00-23:00,Fr 07:00-00:00,Sa-Su 08:00-12:00", "phone": "312-283-7100", "takeaway": "yes", "wheelchair": "yes"}}, {"type": "node", "id": 6254497891, "lat": 41.8987007, "lon": -87.6196823, "tags": {"addr:housenumber": "260", "addr:street": "East Chestnut Street", "amenity": "restaurant", "name": "Le Petit Paris"}}, {"type": "node", "id": 6256157068, "lat": 41.8945559, "lon": -87.6247046, "tags": {"addr:city": "Chicago", "addr:housenumber": "676", "addr:postcode": "60611", "addr:state": "IL", "addr:street": "North Michigan Avenue", "amenity": "restaurant", "name": "676 Restaurant & Bar", "phone": "+1-312-944-6664 ext 59", "website": "http://676restaurant.com/"}}, {"type": "node", "id": 6261196846, "lat": 41.8981687, "lon": -87.6222178, "tags": {"addr:city": "Chicago", "addr:housenumber": "835", "addr:postcode": "60611", "addr:state": "IL", "addr:street": "North Michigan Avenue", "amenity": "cafe", "cuisine": "coffee_shop", "name": "American Girl Cafe", "phone": "+1-877-247-5223", "website": "https://www.americangirl.com/"}}, {"type": "node", "id": 6265067983, "lat": 41.8919452, "lon": -87.6235734, "tags": {"addr:city": "Chicago", "addr:housenumber": "535", "addr:postcode": "60611", "addr:state": "IL", "addr:street": "North Michigan Avenue", "amenity": "restaurant", "name": "Bandera Restaurant", "phone": "+1-312-644-3524", "website": "https://banderarestaurants.com/"}}, {"type": "node", "id": 6271908429, "lat": 41.8964014, "lon": -87.6209646, "tags": {"addr:city": "Chicago", "addr:housenumber": "250", "addr:postcode": "60611", "addr:state": "IL", "addr:street": "East Superior Street", "amenity": "cafe", "name": "Argo Tea", "phone": "+1-312-212-8144", "website": "https://www.argotea.com/"}}, {"type": "node", "id": 6272159727, "lat": 41.8873276, "lon": -87.620108, "tags": {"addr:city": "Chicago", "addr:housenumber": "303", "addr:postcode": "60601", "addr:state": "IL", "addr:street": "East Wacker Drive", "amenity": "cafe", "name": "Bake For Me", "outdoor_seating": "yes", "phone": "+1-312-228-9676", "website": "http://www.bakeforme.com/bfm-locations-303-east-wacker.html"}}, {"type": "node", "id": 6272398247, "lat": 41.8927553, "lon": -87.6224945, "tags": {"addr:city": "Chicago", "addr:housenumber": "200", "addr:postcode": "60611", "addr:state": "IL", "addr:street": "East Ohio Street", "amenity": "cafe", "name": "Baskin-Robbins / Dunkin\u2019 Donuts", "phone": "+1-312-787-9055", "website": "https://www.baskinrobbins.com/content/baskinrobbins/en.html"}}, {"type": "node", "id": 6273484387, "lat": 41.8869672, "lon": -87.6232241, "tags": {"addr:city": "Chicago", "addr:housenumber": "233", "addr:postcode": "60601", "addr:state": "IL", "addr:street": "North Michigan Avenue", "amenity": "restaurant", "name": "Blackwood BBQ - Illinois Center", "phone": "+1-312-487-4802", "website": "https://www.blackwoodbbq.com/"}}, {"type": "node", "id": 6282415461, "lat": 41.889071, "lon": -87.6198699, "tags": {"addr:city": "Chicago", "addr:housenumber": "301", "addr:postcode": "60611", "addr:state": "IL", "addr:street": "East North Water Street", "amenity": "bar", "name": "Chi Bar", "phone": "+1-312-755-2227", "website": "https://www.achiga.io/site-down/"}}, {"type": "node", "id": 6282807044, "lat": 41.8901774, "lon": -87.6210884, "tags": {"addr:city": "Chicago", "addr:housenumber": "455", "addr:postcode": "60611", "addr:state": "IL", "addr:street": "North Cityfront Plaza Drive", "amenity": "cafe", "cuisine": "coffee_shop", "name": "Cityfront Cafe", "phone": "+1-312-374-1169", "website": "https://www.cityfrontcafe.com/"}}, {"type": "node", "id": 6283430331, "lat": 41.8931757, "lon": -87.6229652, "tags": {"addr:city": "Chicago", "addr:housenumber": "155", "addr:postcode": "60611", "addr:state": "IL", "addr:street": "East Ontario Street", "amenity": "restaurant", "name": "Copper Fox Gastropub", "phone": "+1-312-255-8505", "website": "https://copperfoxchicago.com/"}}, {"type": "node", "id": 6284038647, "lat": 41.8909189, "lon": -87.6155741, "tags": {"addr:city": "Chicago", "addr:housenumber": "455", "addr:postcode": "60611", "addr:state": "IL", "addr:street": "East Illinois Street", "amenity": "cafe", "name": "Cupitol Coffee & Eatery", "phone": "+1-312-414-1400", "website": "https://cupitol.com/"}}, {"type": "node", "id": 6284067097, "lat": 41.892086, "lon": -87.6192076, "tags": {"addr:city": "Chicago", "addr:housenumber": "345", "addr:postcode": "60611", "addr:state": "IL", "addr:street": "East Ohio Street", "amenity": "bar", "name": "D4 Irish Pub & Cafe", "phone": "+1-312-624-8385", "website": "http://d4pub.com/"}}, {"type": "node", "id": 6284475291, "lat": 41.8986247, "lon": -87.6213715, "tags": {"addr:city": "Chicago", "addr:housenumber": "200", "addr:postcode": "60611", "addr:state": "IL", "addr:street": "East Chestnut Street", "amenity": "restaurant", "name": "DiSotto Enoteca", "phone": "+1-312-482-8727", "website": "http://www.disottoenoteca.com/"}}, {"type": "node", "id": 6284530630, "lat": 41.8940165, "lon": -87.6216897, "tags": {"addr:city": "Chicago", "addr:housenumber": "233", "addr:postcode": "60611", "addr:state": "IL", "addr:street": "East Erie Street", "amenity": "restaurant", "name": "Do-Rite Donuts & Chicken", "phone": "+1-312-344-1374", "website": "http://doritedonuts.com/"}}, {"type": "node", "id": 6284591118, "lat": 41.8978434, "lon": -87.6229575, "tags": {"addr:city": "Chicago", "addr:housenumber": "835", "addr:postcode": "60611", "addr:state": "IL", "addr:street": "North Michigan Avenue", "addr:unit": "2", "amenity": "cafe", "name": "Do-Rite Donuts & Chicken", "phone": "+1-312-270-1144", "website": "http://doritedonuts.com/"}}, {"type": "node", "id": 6284679810, "lat": 41.8986812, "lon": -87.6208701, "tags": {"addr:city": "Chicago", "addr:housenumber": "860", "addr:postcode": "60611", "addr:state": "IL", "addr:street": "North Dewitt Place", "amenity": "cafe", "name": "Dollop Coffee Co.", "phone": "+1-312-600-6346", "website": "https://dollop.coffee/"}}, {"type": "node", "id": 6284833185, "lat": 41.8867541, "lon": -87.6168158, "tags": {"addr:city": "Chicago", "addr:housenumber": "400", "addr:postcode": "60601", "addr:state": "IL", "addr:street": "East South Water Street", "amenity": "cafe", "name": "Drunken Bean", "phone": "+1-312-549-8000", "website": "https://www.drunkenbeancafe.com/"}}, {"type": "node", "id": 6290938945, "lat": 41.8920723, "lon": -87.616159, "tags": {"addr:city": "Chicago", "addr:housenumber": "440", "addr:postcode": "60611", "addr:state": "IL", "addr:street": "East Grand Avenue", "amenity": "bar", "name": "Flamingo Bar & Grill", "phone": "+1-312-222-0901"}}, {"type": "node", "id": 6291474306, "lat": 41.8985881, "lon": -87.6213737, "tags": {"addr:city": "Chicago", "addr:housenumber": "200", "addr:postcode": "60611", "addr:state": "IL", "addr:street": "East Chestnut Street", "amenity": "restaurant", "name": "Francesca\u2019s On Chestnut", "phone": "+1-312-482-8800", "website": "https://www.miafrancesca.com/?/locations/profile/francescas-on-chestnut-gold-coast"}}, {"type": "node", "id": 6291652179, "lat": 41.8980875, "lon": -87.623288, "tags": {"addr:city": "Chicago", "addr:housenumber": "845", "addr:postcode": "60611", "addr:state": "IL", "addr:street": "North Michigan Avenue", "amenity": "cafe", "name": "Fusion Poke", "phone": "+1-872-256-3229", "website": "https://www.fusionpoke.com/"}}, {"type": "node", "id": 6291823782, "lat": 41.8918168, "lon": -87.6095322, "tags": {"addr:city": "Chicago", "addr:housenumber": "700", "addr:postcode": "60611", "addr:state": "Il", "addr:street": "East Grand Avenue", "amenity": "restaurant", "cuisine": "pizza", "name": "Giordano\u2019s - Navy Pier;Giordano's Pizza", "phone": "+1-312-288-8783", "website": "https://giordanos.com/locations/navy-pier/"}}, {"type": "node", "id": 6291863980, "lat": 41.8916193, "lon": -87.6208279, "tags": {"addr:city": "Chicago", "addr:housenumber": "255", "addr:postcode": "60611", "addr:state": "IL", "addr:street": "East Grand Avenue", "amenity": "cafe", "name": "Glass & Cup Coffee And Wine Bar"}}, {"type": "node", "id": 6294193504, "lat": 41.8918517, "lon": -87.6096704, "tags": {"addr:city": "Chicago", "addr:housenumber": "700", "addr:postcode": "60611", "addr:state": "IL", "addr:street": "East Grand Avenue", "amenity": "restaurant", "name": "Harry Caray\u2019s Tavern", "phone": "+1-312-527-9700", "website": "https://www.harrycarays.com/harry-carays-tavern-navy-pier.html"}}, {"type": "node", "id": 6294203130, "lat": 41.896598, "lon": -87.6181293, "tags": {"addr:city": "Chicago", "addr:housenumber": "357", "addr:postcode": "60611", "addr:state": "IL", "addr:street": "East Chicago Avenue", "amenity": "cafe", "name": "Harry\u2019s Cafe", "phone": "+1-312-503-3573"}}, {"type": "node", "id": 6298766287, "lat": 41.8988165, "lon": -87.6231126, "tags": {"addr:city": "Chicago", "addr:housenumber": "875", "addr:postcode": "60611", "addr:state": "IL", "addr:street": "North Michigan Avenue", "addr:unit": "9600", "amenity": "bar", "name": "The Signature Lounge", "phone": "+1-312-787-9596", "website": "https://www.signatureroom.com/lounge/"}}, {"type": "node", "id": 6298943995, "lat": 41.8994123, "lon": -87.6220632, "tags": {"addr:city": "Chicago", "addr:housenumber": "198", "addr:postcode": "60611", "addr:state": "IL", "addr:street": "East Delaware Place", "amenity": "restaurant", "name": "Southern Cut Barbeque", "phone": "+1-312-280-8887", "website": "http://www.southerncutbbq.com/"}}, {"type": "node", "id": 6300284154, "lat": 41.8986293, "lon": -87.6213252, "tags": {"addr:city": "Chicago", "addr:housenumber": "200", "addr:postcode": "60611", "addr:state": "IL", "addr:street": "East Chestnut Street", "amenity": "cafe", "name": "SPACE 519 | The Lunchroom", "phone": "+1-312-751-1519", "website": "https://www.space519.com/pages/the-coffee-counter"}}, {"type": "node", "id": 6300349874, "lat": 41.8919626, "lon": -87.6236604, "tags": {"addr:city": "Chicago", "addr:housenumber": "535", "addr:postcode": "60611", "addr:state": "IL", "addr:street": "North Michigan Avenue", "amenity": "cafe", "name": "Stan\u2019s Donuts & Coffee", "phone": "+1-312-955-3100", "website": "https://www.stansdonuts.com/"}}, {"type": "node", "id": 6300350303, "lat": 41.8937027, "lon": -87.6209638, "tags": {"addr:city": "Chicago", "addr:housenumber": "259", "addr:postcode": "60611", "addr:state": "IL", "addr:street": "East Erie Street", "amenity": "cafe", "name": "Stan\u2019s Donuts & Coffee", "phone": "+1-312-255-1130", "website": "https://www.stansdonuts.com/"}}, {"type": "node", "id": 6300573021, "lat": 41.8924248, "lon": -87.6216836, "tags": {"addr:city": "Chicago", "addr:housenumber": "213", "addr:postcode": "60611", "addr:state": "IL", "addr:street": "East Ohio Street", "amenity": "restaurant", "name": "Ramen Misoya", "phone": "+1-312-496-3566", "website": "https://misoya.net/"}}, {"type": "node", "id": 6300593499, "lat": 41.894538, "lon": -87.6231997, "tags": {"addr:city": "Chicago", "addr:housenumber": "165", "addr:postcode": "60611", "addr:state": "IL", "addr:street": "East Huron Street", "amenity": "restaurant", "name": "RAMEN-SAN", "phone": "+1-312-767-4075", "website": "https://www.ramensan.com/"}}, {"type": "node", "id": 6300739597, "lat": 41.8915969, "lon": -87.620825, "tags": {"addr:city": "Chicago", "addr:housenumber": "255", "addr:postcode": "60611", "addr:state": "IL", "addr:street": "East Grand Avenue", "amenity": "bar", "name": "The Red Star Bar", "phone": "+1-312-379-7900", "website": "http://www.redstarbar.us/"}}, {"type": "node", "id": 6301005156, "lat": 41.8917824, "lon": -87.6094511, "tags": {"addr:city": "Chicago", "addr:housenumber": "700", "addr:postcode": "60611", "addr:state": "IL", "addr:street": "East Grand Avenue", "amenity": "cafe", "name": "Riva Crabhouse", "phone": "+1-312-644-7482", "website": "https://www.rivanavypier.com/"}}, {"type": "node", "id": 6302009153, "lat": 41.8988269, "lon": -87.6231776, "tags": {"addr:city": "Chicago", "addr:housenumber": "875", "addr:postcode": "60611", "addr:state": "IL", "addr:street": "North Michigan Avenue", "addr:unit": "8500", "amenity": "restaurant", "name": "The Signature Room at the 95th", "phone": "+1-312-787-9596", "website": "https://www.signatureroom.com/"}}, {"type": "node", "id": 6304392895, "lat": 41.8950234, "lon": -87.6229369, "tags": {"addr:city": "Chicago", "addr:housenumber": "160", "addr:postcode": "60611", "addr:state": "IL", "addr:street": "East Huron Street", "amenity": "restaurant", "cuisine": "american", "name": "The Windsor", "phone": "1+312-943-7777", "website": "http://www.thewindsorchicago.com/"}}, {"type": "node", "id": 6305240475, "lat": 41.8861805, "lon": -87.6210463, "tags": {"addr:city": "Chicago", "addr:housenumber": "200", "addr:postcode": "60601", "addr:state": "IL", "addr:street": "North Columbus Service Drive", "amenity": "bar", "name": "THE BAR", "phone": "+1-312-565-8000", "website": "thebarinchicago.com"}}, {"type": "node", "id": 6306543282, "lat": 41.8938944, "lon": -87.6225092, "tags": {"addr:city": "Chicago", "addr:housenumber": "633", "addr:postcode": "60611", "addr:state": "IL", "addr:street": "North Saint Clair Street", "amenity": "restaurant", "name": "The Capital Grille", "phone": "+1-312-337-9400"}}, {"type": "node", "id": 6306545754, "lat": 41.8988323, "lon": -87.6234702, "tags": {"addr:city": "Chicago", "addr:housenumber": "875", "addr:postcode": "60611", "addr:state": "IL", "addr:street": "North Michigan Avenue", "alt_name": "Cheesecake Factory", "amenity": "restaurant", "brand": "The Cheesecake Factory", "brand:wikidata": "Q1045842", "brand:wikipedia": "en:The Cheesecake Factory", "cuisine": "american", "name": "The Cheesecake Factory", "phone": "+1-312-337-1101", "website": "http://locations.thecheesecakefactory.com/il/chicago-12.html"}}, {"type": "node", "id": 6316619846, "lat": 41.8915854, "lon": -87.6225213, "tags": {"addr:city": "Chicago", "addr:housenumber": "201", "addr:postcode": "60611", "addr:state": "IL", "addr:street": "East Grand Avenue", "amenity": "restaurant", "name": "Volare Ristorante Italiano", "phone": "+1-312-410-9900", "website": "https://www.volarerestaurant.com/"}}, {"type": "node", "id": 6318780335, "lat": 41.8954561, "lon": -87.619776, "tags": {"addr:city": "Chicago", "addr:housenumber": "303", "addr:postcode": "60611", "addr:state": "IL", "addr:street": "East Superior Street", "addr:unit": "1", "amenity": "cafe", "cuisine": "cafe", "name": "Jazzman\u2019s Cafe"}}, {"type": "node", "id": 6319990140, "lat": 41.8977805, "lon": -87.6222512, "tags": {"addr:city": "Chicago", "addr:housenumber": "160", "addr:postcode": "60611", "addr:state": "IL", "addr:street": "East Pearson Street", "amenity": "cafe", "name": "La Colombe Cafe at the Ritz Carlton"}}, {"type": "node", "id": 6321508381, "lat": 41.8960054, "lon": -87.6238191, "tags": {"addr:city": "Chicago", "addr:housenumber": "737", "addr:postcode": "60611", "addr:state": "IL", "addr:street": "North Michigan Avenue", "amenity": "restaurant", "name": "Mariposa", "phone": "+1-312-694-4050", "website": "https://www.neimanmarcus.com/en-bd/restaurants/chicago/il/mariposa/chicago%20-%20michigan%20avenue"}}, {"type": "node", "id": 6321523982, "lat": 41.897401, "lon": -87.6214579, "tags": {"addr:city": "Chicago", "addr:housenumber": "205", "addr:postcode": "60611", "addr:state": "IL", "addr:street": "East Pearson Street", "amenity": "restaurant", "name": "Marisol", "phone": "+1-312-799-3599", "website": "https://www.marisolchicago.com/"}}, {"type": "node", "id": 6321552510, "lat": 41.8998248, "lon": -87.6226204, "tags": {"addr:city": "Chicago", "addr:housenumber": "163", "addr:postcode": "60611", "addr:state": "IL", "addr:street": "East Walton Place", "amenity": "bar", "name": "Martini Bar", "phone": "+1-312-751-8100", "website": "https://www.millenniumhotels.com/en/chicago/millennium-knickerbocker-hotel-chicago/martini-bar/"}}, {"type": "node", "id": 6321792024, "lat": 41.8922985, "lon": -87.6246308, "tags": {"addr:city": "Chicago", "addr:housenumber": "540", "addr:postcode": "60611", "addr:state": "IL", "addr:street": "North Michigan Avenue", "amenity": "bar", "name": "Rush Bar & Lounge", "phone": "+1-312-836-6334", "website": "http://deals.marriott.com/rush-bar-lounge"}}, {"type": "node", "id": 6321822860, "lat": 41.8994775, "lon": -87.6222477, "tags": {"addr:city": "Chicago", "addr:housenumber": "120", "addr:postcode": "60611", "addr:state": "IL", "addr:street": "East Delaware Place", "amenity": "bar", "name": "Seasons Bar", "phone": "+1-312-280-8800", "website": "https://www.fourseasons.com/content/fshr/pages/en/properties/chicago.html"}}, {"type": "node", "id": 6321984587, "lat": 41.8962604, "lon": -87.6218289, "tags": {"addr:city": "Chicago", "addr:housenumber": "225", "addr:postcode": "60611", "addr:state": "IL", "addr:street": "East Chicago Avenue", "amenity": "cafe", "name": "Sky Caf\u00e9"}}, {"type": "node", "id": 6322131726, "lat": 41.887808, "lon": -87.624171, "tags": {"addr:city": "Chicago", "addr:housenumber": "333", "addr:postcode": "60601", "addr:state": "IL", "addr:street": "North Michigan Avenue", "addr:unit": "4", "amenity": "bar", "name": "Tavern Club at 333", "phone": "+1-312-925-8984", "website": "https://tavernclub333.com/"}}, {"type": "node", "id": 6322557347, "lat": 41.8915341, "lon": -87.6249053, "tags": {"addr:city": "Chicago", "addr:housenumber": "520", "addr:postcode": "60611", "addr:state": "IL", "addr:street": "North Michigan Avenue", "addr:unit": "2", "amenity": "cafe", "name": "Teavana", "phone": "+1-312-527-3584", "website": "https://www.teavana.com/"}}, {"type": "node", "id": 6322563193, "lat": 41.8936646, "lon": -87.6216288, "tags": {"addr:city": "Chicago", "addr:housenumber": "228", "addr:postcode": "60611", "addr:state": "IL", "addr:street": "East Ontario Street", "addr:unit": "1", "amenity": "restaurant", "name": "The Albert", "phone": "+1-312-471-3883", "website": "https://thealbertchicago.com/"}}, {"type": "node", "id": 6322607204, "lat": 41.8913879, "lon": -87.6238131, "tags": {"addr:city": "Chicago", "addr:housenumber": "505", "addr:postcode": "60611", "addr:state": "IL", "addr:street": "North Michigan Avenue", "amenity": "restaurant", "cuisine": "steak_house;steak;american", "name": "Michael Jordan\u2019s Steak House", "phone": "+1-312-321-8823", "website": "http://mjshchicago.com/"}}, {"type": "node", "id": 6322754552, "lat": 41.8980098, "lon": -87.6233413, "tags": {"addr:city": "Chicago", "addr:housenumber": "835", "addr:postcode": "60611", "addr:state": "IL", "addr:street": "North Michigan Avenue", "amenity": "restaurant", "name": "Mity Nice", "phone": "+1-312-335-4745", "website": "http://www.mitynicechicago.com/"}}, {"type": "node", "id": 6323011921, "lat": 41.8931273, "lon": -87.6220066, "tags": {"addr:city": "Chicago", "addr:housenumber": "211", "addr:postcode": "60611", "addr:state": "IL", "addr:street": "East Ontario Street", "amenity": "bar", "name": "Murasaki Lounge", "phone": "+1-312-266-2280", "website": "http://murasakichicago.com/"}}, {"type": "node", "id": 6324364633, "lat": 41.8919798, "lon": -87.6235962, "tags": {"addr:city": "Chicago", "addr:housenumber": "535", "addr:postcode": "60611", "addr:state": "IL", "addr:street": "North Michigan Avenue", "amenity": "cafe", "name": "Labriola", "phone": "+1-312-955-3100", "website": "https://www.labriolacafe.com/"}}, {"type": "node", "id": 6324376885, "lat": 41.8891535, "lon": -87.619764, "tags": {"addr:city": "Chicago", "addr:housenumber": "301", "addr:postcode": "60611", "addr:state": "IL", "addr:street": "East North Water Street", "amenity": "cafe", "name": "The Link@Sheraton Cafe", "website": "https://www.marriott.com/hotels/hotel-information/restaurant/chigs-sheraton-grand-chicago?program=spg"}}, {"type": "node", "id": 6324385517, "lat": 41.8874524, "lon": -87.6216548, "tags": {"addr:city": "Chicago", "addr:housenumber": "151", "addr:postcode": "60601", "addr:state": "IL", "addr:street": "East Upper Wacker Drive", "amenity": "restaurant", "name": "The Living Room", "phone": "+1-312-565-1234", "website": "https://www.hyatt.com/en-US/hotel/illinois/hyatt-regency-chicago/chirc/dining"}}, {"type": "node", "id": 6324386441, "lat": 41.8938743, "lon": -87.6156667, "tags": {"addr:city": "Chicago", "addr:housenumber": "644", "addr:postcode": "60611", "addr:state": "IL", "addr:street": "North Lake Shore Drive", "amenity": "bar", "name": "The Living Room Bar", "phone": "+1-312-943-9200", "website": "https://www.marriott.com/hotels/hotel-information/restaurant/chiwh-w-chicago-lakeshore?program=spg"}}, {"type": "node", "id": 6325990674, "lat": 41.8907631, "lon": -87.6172397, "tags": {"addr:city": "Chicago", "addr:housenumber": "465", "addr:postcode": "60611", "addr:state": "IL", "addr:street": "North McClurg Court", "amenity": "bar", "name": "Winter\u2019s Jazz Club", "website": "https://www.wintersjazzclub.com/"}}, {"type": "node", "id": 6326350643, "lat": 41.8873394, "lon": -87.6215813, "tags": {"addr:city": "Chicago", "addr:housenumber": "151", "addr:postcode": "60601", "addr:state": "IL", "addr:street": "East South Water Street", "amenity": "cafe", "name": "Market Chicago"}}, {"type": "node", "id": 6326468590, "lat": 41.8936676, "lon": -87.6217796, "tags": {"addr:city": "Chicago", "addr:housenumber": "222", "addr:postcode": "60611", "addr:state": "IL", "addr:street": "East Ontario Street", "amenity": "restaurant", "name": "Les Nomades", "phone": "+1-312-649-9010", "website": "http://www.lesnomades.net/"}}, {"type": "node", "id": 6326505491, "lat": 41.9001473, "lon": -87.6238003, "tags": {"addr:city": "Chicago", "addr:housenumber": "140", "addr:postcode": "60611", "addr:state": "IL", "addr:street": "East Walton Street", "amenity": "cafe", "name": "Lavazza Espression", "phone": "+1-312-640-2440", "website": "http://www.lavazzaespression.com/"}}, {"type": "node", "id": 6356726511, "lat": 41.8898716, "lon": -87.6193007, "tags": {"addr:city": "Chicago", "addr:housenumber": "455", "addr:postcode": "60611", "addr:state": "IL", "addr:street": "North Park Drive", "amenity": "restaurant", "cuisine": "american", "name": "ETA Restaurant + Bar", "opening_hours": "Mo-Th 06:30-21:00; Fr 06:30-22:00; Sa 07:00-22:00; Su 07:00-21:00", "phone": "+1-312-840-6605", "website": "https://www.etarestaurantandbar.com/"}}, {"type": "node", "id": 6407510885, "lat": 41.8919786, "lon": -87.6229324, "tags": {"addr:city": "Chicago", "addr:housenumber": "164", "addr:postcode": "60611", "addr:state": "IL", "addr:street": "East Grand Avenue", "amenity": "restaurant", "cuisine": "seafood", "name": "The Hampton Social", "opening_hours": "Mo-Th 11:00-22:00; Fr-Sa 11:00-23:00; Su 10:00-22:00", "phone": "+1-312-414-1861", "website": "https://www.hamptonsocial.com"}}, {"type": "node", "id": 6431659324, "lat": 41.8972949, "lon": -87.6253396}, {"type": "node", "id": 6466670487, "lat": 41.8919449, "lon": -87.6224525, "tags": {"amenity": "restaurant", "name": "Hampton social"}}, {"type": "node", "id": 6466677386, "lat": 41.8925119, "lon": -87.6184597, "tags": {"amenity": "restaurant", "name": "Streeterville pizzeria and tap"}}, {"type": "node", "id": 6642064379, "lat": 41.8912599, "lon": -87.6068669, "tags": {"addr:city": "Chicago", "addr:housenumber": "600", "addr:postcode": "60611", "addr:state": "IL", "addr:street": "East Grand Avenue", "amenity": "restaurant", "cuisine": "middle_eastern;mediterranean", "name": "IDOF - I Dream Of Falafel", "website": "http://www.idreamoffalafel.com/"}}, {"type": "node", "id": 7025601483, "lat": 41.8884935, "lon": -87.6248494, "tags": {"amenity": "restaurant", "name": "Beat Kitchen"}}, {"type": "node", "id": 7327191690, "lat": 41.8970247, "lon": -87.6268849}, {"type": "way", "id": 144124766, "nodes": [1575966869, 1575966977, 1575966812, 6431659324, 1575966873, 1575966850, 1575967024, 1574001630, 1574001653, 1574001643, 1574001640, 1575967022, 7327191690, 1575967029, 1575967045, 1575966965, 1575966842, 1575966829, 1577037679, 1577037687, 1577037689, 1577037631, 1575966770, 1575966846, 1575966869], "tags": {"amenity": "university", "name": "Loyola University Water Tower Campus"}}, {"type": "way", "id": 153735901, "nodes": [1663730900, 1663730890, 1663730902, 1663730933, 1663730900], "tags": {"addr:housenumber": "201", "addr:postcode": "60611", "addr:street": "East Grand Avenue", "addr:street:name": "Grand", "addr:street:prefix": "East", "addr:street:type": "Avenue", "amenity": "restaurant", "building": "yes", "building:levels": "2", "chicago:building_id": "347361", "name": "Volare"}}, {"type": "way", "id": 159959826, "nodes": [1719012044, 1720270745, 1720270758, 1719012058, 1719012044], "tags": {"addr:city": "Chicago", "addr:housenumber": "162", "addr:postcode": "60611", "addr:state": "IL", "addr:street": "East Superior Street", "addr:street:name": "Superior", "addr:street:prefix": "East", "addr:street:type": "Street", "amenity": "restaurant", "building": "yes", "building:levels": "4", "chicago:building_id": "813654", "cuisine": "pizza", "name": "Gino's East", "phone": "+1-312-266-3337", "website": "https://www.ginoseast.com/magnificent-mile", "wheelchair": "limited", "wikidata": "Q5563202", "wikipedia": "en:Gino's East"}}, {"type": "way", "id": 482492795, "nodes": [4753133275, 4753133274, 4753133272, 4753133273, 5009406237, 5009406236, 5009406235, 4753133276, 5009406234, 5009406232, 5009406233, 5009406231, 5009406230, 5009406229, 4753133275], "tags": {"amenity": "university", "internet_access": "wlan", "name": "Northwestern University Chicago Campus", "operator": "Northwestern University", "wikidata": "Q7060409"}}]}