{"version": 0.6, "generator": "Overpass API 0.7.56.1004 6cd3eaec", "osm3s": {"timestamp_osm_base": "2020-07-22T05:39:02Z", "copyright": "The data included in this document is from www.openstreetmap.org. The data is made available under ODbL."}, "elements": [{"type": "node", "id": 1743362366, "lat": 41.9485109, "lon": -87.7399363}, {"type": "node", "id": 1743362409, "lat": 41.9485193, "lon": -87.7399546}, {"type": "node", "id": 1743362669, "lat": 41.948555, "lon": -87.7399727}, {"type": "node", "id": 1743363082, "lat": 41.9486, "lon": -87.7399098}, {"type": "node", "id": 1743363161, "lat": 41.9486055, "lon": -87.7399171}, {"type": "node", "id": 1743363787, "lat": 41.9486719, "lon": -87.7397584}, {"type": "node", "id": 1743363906, "lat": 41.9486982, "lon": -87.7398023}, {"type": "node", "id": 1743380087, "lat": 41.9536271, "lon": -87.7414366}, {"type": "node", "id": 1743380090, "lat": 41.9536279, "lon": -87.7413384}, {"type": "node", "id": 1743380204, "lat": 41.9537039, "lon": -87.7414414}, {"type": "node", "id": 1743380211, "lat": 41.9537162, "lon": -87.7414266}, {"type": "node", "id": 1743380496, "lat": 41.953955, "lon": -87.7414317}, {"type": "node", "id": 1743380498, "lat": 41.9539564, "lon": -87.7413446}, {"type": "node", "id": 1745050038, "lat": 41.9530466, "lon": -87.7510885}, {"type": "node", "id": 1745050041, "lat": 41.9530476, "lon": -87.751004}, {"type": "node", "id": 1745050117, "lat": 41.9531056, "lon": -87.7510788}, {"type": "node", "id": 1745050118, "lat": 41.9531056, "lon": -87.751088}, {"type": "node", "id": 1745050172, "lat": 41.9531523, "lon": -87.7510931}, {"type": "node", "id": 1745050175, "lat": 41.9531536, "lon": -87.7510802}, {"type": "node", "id": 1745050295, "lat": 41.9532374, "lon": -87.7510941}, {"type": "node", "id": 1745050296, "lat": 41.9532383, "lon": -87.7510059}, {"type": "node", "id": 2262977450, "lat": 41.9533541, "lon": -87.7378643, "tags": {"amenity": "cafe", "cuisine": "coffee_shop", "name": "Starbucks", "operator": "Starbucks Corporation", "shop": "beverages", "source": "local_knowledge", "wifi": "free"}}, {"type": "node", "id": 2274089912, "lat": 41.9531743, "lon": -87.7510333, "tags": {"addr:city": "Chicago", "addr:housenumber": "4929", "addr:postcode": "60641", "addr:state": "IL", "addr:street": "West Irving Park Road", "amenity": "restaurant", "cuisine": "mexican;tacos", "name": "Tata's Tacos", "website": "tatastacos.com"}}, {"type": "node", "id": 2274089913, "lat": 41.9535803, "lon": -87.7508294, "tags": {"addr:city": "Chicago", "addr:street": "West Irving Park Road", "amenity": "restaurant", "cuisine": "brazilian;steak_house", "name": "Las Tablas"}}, {"type": "node", "id": 2274164962, "lat": 41.9535859, "lon": -87.7530918, "tags": {"addr:city": "Chicago", "addr:street": "West Irving Park Road", "amenity": "restaurant", "cuisine": "seafood", "name": "Frank's Shrimp House"}}, {"type": "node", "id": 2274184613, "lat": 41.9523262, "lon": -87.7476877, "tags": {"addr:city": "Chicago", "addr:street": "North Cicero Avenue", "amenity": "restaurant", "cuisine": "Sub,_hot_dogs", "name": "Mr. Submarine"}}, {"type": "node", "id": 2274184616, "lat": 41.9518201, "lon": -87.747461, "tags": {"addr:city": "Chicago", "addr:street": "North Cicero Avenue", "amenity": "restaurant", "cuisine": "chinese", "name": "Hong Kong Restaurant"}}, {"type": "node", "id": 3988701726, "lat": 41.9540976, "lon": -87.7487651, "tags": {"amenity": "restaurant", "name": "Community Tavern"}}, {"type": "node", "id": 4087337669, "lat": 41.9547129, "lon": -87.7498426, "tags": {"amenity": "restaurant", "name": "Subway"}}, {"type": "node", "id": 4087337679, "lat": 41.9547429, "lon": -87.7490264, "tags": {"amenity": "restaurant", "name": "Lomas Verdes"}}, {"type": "node", "id": 4090881252, "lat": 41.9536254, "lon": -87.7503536, "tags": {"amenity": "restaurant", "cuisine": "asian", "name": "Ysabel\u2019s Grill"}}, {"type": "node", "id": 4090881268, "lat": 41.9527417, "lon": -87.747483, "tags": {"amenity": "restaurant", "name": "Shila's"}}, {"type": "node", "id": 4090881270, "lat": 41.9526032, "lon": -87.7474843, "tags": {"amenity": "restaurant", "name": "Six Corners Bistro"}}, {"type": "node", "id": 4326051364, "lat": 41.9426103, "lon": -87.7471446, "tags": {"addr:city": "Chicago", "addr:housenumber": "3400", "addr:postcode": "60641", "addr:state": "IL", "addr:street": "North Cicero Avenue", "amenity": "restaurant", "cuisine": "mexican", "name": "Taqueria y Restaurant Poncitlan", "smoking": "no"}}, {"type": "node", "id": 6261302022, "lat": 41.9572465, "lon": -87.7517861, "tags": {"addr:city": "Chicago", "addr:housenumber": "4208", "addr:postcode": "60641", "addr:state": "IL", "addr:street": "North Milwaukee Avenue", "amenity": "cafe", "name": "Antojitos Colombianos", "phone": "+1-773-685-2100"}}, {"type": "node", "id": 6282669896, "lat": 41.9541352, "lon": -87.7475371, "tags": {"addr:city": "Chicago", "addr:housenumber": "4018", "addr:postcode": "60641", "addr:state": "IL", "addr:street": "North Cicero Avenue", "amenity": "cafe", "name": "City News Cafe", "phone": "+1-773-545-7377", "website": "http://citynewsstand.com/"}}, {"type": "node", "id": 6284438638, "lat": 41.9535366, "lon": -87.7549131, "tags": {"addr:city": "Chicago", "addr:housenumber": "5100", "addr:postcode": "60641", "addr:state": "IL", "addr:street": "West Irving Park Road", "amenity": "bar", "name": "Di\u2019s Den", "phone": "+1-773-736-7170", "website": "http://www.bestbarchicago.com/"}}, {"type": "node", "id": 6301897916, "lat": 41.9530273, "lon": -87.7617101, "tags": {"addr:city": "Chicago", "addr:housenumber": "5353", "addr:postcode": "60641", "addr:state": "Il", "addr:street": "West Irving Park Road", "amenity": "bar", "name": "Sutherland\u2019s Food & Spirits", "phone": "+1-773-930-4790", "website": "http://sutherlandschicago.com/Home.html"}}, {"type": "node", "id": 6322558056, "lat": 41.9517836, "lon": -87.7475295, "tags": {"addr:city": "Chicago", "addr:housenumber": "3906", "addr:postcode": "60641", "addr:state": "IL", "addr:street": "North Cicero Avenue", "amenity": "bar", "name": "MCM Pub and Eatery", "phone": "+1-773-736-2644", "website": "http://mcmpub.com/"}}, {"type": "way", "id": 162449023, "nodes": [1743362366, 1743362409, 1743362669, 1743363161, 1743363082, 1743363906, 1743363787, 1743362366], "tags": {"addr:city": "Chicago", "addr:housenumber": "3734", "addr:postcode": "60641", "addr:state": "IL", "addr:street": "North Milwaukee Avenue", "addr:street:name": "Milwaukee", "amenity": "bar", "name": "The Booze Hound", "phone": "+1-773-736-1010"}}, {"type": "way", "id": 162452435, "nodes": [1743380204, 1743380211, 1743380496, 1743380498, 1743380090, 1743380087, 1743380204], "tags": {"addr:city": "Chicago", "addr:housenumber": "4520", "addr:state": "IL", "addr:street": "West Irving Park Road", "addr:street:name": "Irving Park", "addr:street:prefix": "West", "addr:street:type": "Road", "amenity": "restaurant", "building": "yes", "building:levels": "2", "chicago:building_id": "846310", "cuisine": "pizza", "name": "Chicago's Pizza"}}, {"type": "way", "id": 162642513, "nodes": [1745050038, 1745050118, 1745050117, 1745050175, 1745050172, 1745050295, 1745050296, 1745050041, 1745050038], "tags": {"addr:housenumber": "4929", "addr:street": "West Irving Park Road", "addr:street:name": "Irving Park", "addr:street:prefix": "West", "addr:street:type": "Road", "amenity": "restaurant", "building": "yes", "building:levels": "2", "chicago:building_id": "156020"}}]}