{"version": 0.6, "generator": "Overpass API 0.7.56.3 eb200aeb", "osm3s": {"timestamp_osm_base": "2020-07-04T01:32:02Z", "copyright": "The data included in this document is from www.openstreetmap.org. The data is made available under ODbL."}, "elements": [{"type": "node", "id": 1786793062, "lat": 41.8994033, "lon": -87.6965093, "tags": {"addr:city": "Chicago", "addr:housenumber": "1001", "addr:postcode": "60622", "addr:state": "IL", "addr:street": "North California Avenue", "amenity": "cafe", "name": "Cafe Marie-Jeanne", "phone": "+1-773-904-7660", "website": "http://www.cafe-marie-jeanne.com/"}}, {"type": "node", "id": 1786793073, "lat": 41.8994722, "lon": -87.6969571, "tags": {"addr:city": "Chicago", "addr:housenumber": "1002", "addr:postcode": "60622", "addr:state": "IL", "addr:street": "North California Avenue", "amenity": "bar", "name": "California Clipper", "phone": "+1-773-384-2547", "website": "http://californiaclipper.com/", "wikidata": "Q42539292"}}, {"type": "node", "id": 1786793074, "lat": 41.8958438, "lon": -87.6904051, "tags": {"addr:city": "Chicago", "addr:housenumber": "2524", "addr:postcode": "60622", "addr:state": "IL", "addr:street": "West Chicago Avenue", "amenity": "restaurant", "name": "Shokolad", "phone": "+1-773-276-6402", "website": "https://www.shokoladpastryandcafe.com/"}}, {"type": "node", "id": 1786793079, "lat": 41.897642, "lon": -87.6919568, "tags": {"addr:city": "Chicago", "addr:housenumber": "2600", "addr:postcode": "60622", "addr:state": "IL", "addr:street": "West Iowa Street", "amenity": "bar", "name": "Archie's", "phone": "+1-872-206-5119", "wifi": "no"}}, {"type": "node", "id": 1786793085, "lat": 41.8958185, "lon": -87.6906931, "tags": {"amenity": "bar", "name": "Black Beetle"}}, {"type": "node", "id": 2196075584, "lat": 41.8954365, "lon": -87.699173}, {"type": "node", "id": 2196075681, "lat": 41.8954824, "lon": -87.6992901}, {"type": "node", "id": 2196075688, "lat": 41.8954879, "lon": -87.6992956}, {"type": "node", "id": 2196075692, "lat": 41.8954907, "lon": -87.6992974}, {"type": "node", "id": 2196075694, "lat": 41.8954948, "lon": -87.6992992}, {"type": "node", "id": 2196075696, "lat": 41.8954975, "lon": -87.6992992}, {"type": "node", "id": 2196075709, "lat": 41.8955016, "lon": -87.6992973}, {"type": "node", "id": 2196075714, "lat": 41.8955057, "lon": -87.6992936}, {"type": "node", "id": 2196075716, "lat": 41.8955071, "lon": -87.6992899}, {"type": "node", "id": 2196075719, "lat": 41.8955084, "lon": -87.6992862}, {"type": "node", "id": 2196075725, "lat": 41.8955112, "lon": -87.6992807}, {"type": "node", "id": 2196075733, "lat": 41.895512, "lon": -87.699176}, {"type": "node", "id": 2196100859, "lat": 41.9005157, "lon": -87.6966727}, {"type": "node", "id": 2196100869, "lat": 41.9005181, "lon": -87.6964112}, {"type": "node", "id": 2196100913, "lat": 41.9005473, "lon": -87.6963896}, {"type": "node", "id": 2196100915, "lat": 41.9005474, "lon": -87.6964116}, {"type": "node", "id": 2196101394, "lat": 41.9005726, "lon": -87.6965032}, {"type": "node", "id": 2196101395, "lat": 41.9005728, "lon": -87.6965307}, {"type": "node", "id": 2196101452, "lat": 41.9005846, "lon": -87.6966739}, {"type": "node", "id": 2196101455, "lat": 41.9005851, "lon": -87.6965325}, {"type": "node", "id": 2196101458, "lat": 41.9005863, "lon": -87.6965031}, {"type": "node", "id": 2196101461, "lat": 41.9005871, "lon": -87.696391}, {"type": "node", "id": 2196110741, "lat": 41.9030759, "lon": -87.6956077}, {"type": "node", "id": 2196110744, "lat": 41.9030768, "lon": -87.6955287}, {"type": "node", "id": 2196110833, "lat": 41.9031191, "lon": -87.6909479}, {"type": "node", "id": 2196110839, "lat": 41.9031207, "lon": -87.6908429}, {"type": "node", "id": 2196110875, "lat": 41.9031372, "lon": -87.688657}, {"type": "node", "id": 2196110876, "lat": 41.9031382, "lon": -87.688578}, {"type": "node", "id": 2196110988, "lat": 41.9032316, "lon": -87.6909483}, {"type": "node", "id": 2196111001, "lat": 41.9032332, "lon": -87.6908454}, {"type": "node", "id": 2196111201, "lat": 41.9033435, "lon": -87.6956142}, {"type": "node", "id": 2196111203, "lat": 41.9033444, "lon": -87.6955353}, {"type": "node", "id": 2196111223, "lat": 41.9033705, "lon": -87.6886639}, {"type": "node", "id": 2196111225, "lat": 41.9033715, "lon": -87.6885849}, {"type": "node", "id": 2789533723, "lat": 41.9018656, "lon": -87.6966658, "tags": {"addr:city": "Chicago", "addr:housenumber": "1123", "addr:postcode": "60622", "addr:state": "IL", "addr:street": "North California Avenue", "amenity": "restaurant", "name": "Flying Saucer", "phone": "+1-773-342-9076", "wheelchair": "no"}}, {"type": "node", "id": 3575025688, "lat": 41.8998468, "lon": -87.6871843, "tags": {"addr:city": "Chicago", "addr:housenumber": "1012", "addr:postcode": "60622", "addr:state": "IL", "addr:street": "North Western Avenue", "amenity": "restaurant", "name": "Boeufhaus", "phone": "+1-773-661-2116", "website": "http://www.boeufhaus.com/"}}, {"type": "node", "id": 3575025689, "lat": 41.8989825, "lon": -87.6872868, "tags": {"addr:city": "Chicago", "addr:housenumber": "948", "addr:postcode": "60622", "addr:state": "IL", "addr:street": "North Western Avenue", "amenity": "bar", "name": "Sportsman's Club", "phone": "+1-872-206-8054", "website": "https://drinkingandgathering.com/"}}, {"type": "node", "id": 3575029393, "lat": 41.8955111, "lon": -87.6969684, "tags": {"addr:city": "Chicago", "addr:housenumber": "2803", "addr:postcode": "60622", "addr:state": "IL", "addr:street": "West Chicago Avenue", "amenity": "restaurant", "cuisine": "chicken", "name": "Feed", "phone": "+1-773-489-4600", "website": "http://feedrestaurantchicago.com/"}}, {"type": "node", "id": 3664687674, "lat": 41.9055766, "lon": -87.7006028, "tags": {"addr:city": "Chicago", "addr:housenumber": "1301", "addr:postcode": "60622", "addr:state": "IL", "addr:street": "North Humboldt Drive", "amenity": "cafe", "name": "The Boathouse Cafe", "phone": "+1-312-838-6205"}}, {"type": "node", "id": 3908762561, "lat": 41.8993899, "lon": -87.6970785, "tags": {"addr:city": "Chicago", "addr:country": "US", "addr:housenumber": "2806", "addr:postcode": "60622", "addr:state": "IL", "addr:street": "West Augusta Boulevard", "amenity": "cafe", "name": "CC Ferns Coffee Bar & Spirits", "phone": "+1-773-384-2547", "website": "http://ccferns.com/"}}, {"type": "node", "id": 4363752189, "lat": 41.9023766, "lon": -87.6967084, "tags": {"addr:city": "Chicago", "addr:housenumber": "1143", "addr:postcode": "60622", "addr:state": "IL", "addr:street": "North California Avenue", "amenity": "restaurant", "cuisine": "american", "name": "Bullhead Cantina", "name:en": "Bullhead Cantina", "phone": "+1-773-250-0567", "website": "http://bullheadcantina.com/"}}, {"type": "node", "id": 4697800145, "lat": 41.9031227, "lon": -87.6935215, "tags": {"addr:city": "Chicago", "addr:housenumber": "2638", "addr:postcode": "60622", "addr:state": "IL", "addr:street": "West Division Street", "amenity": "cafe", "name": "Caf\u00e9 Colao", "phone": "+1-773-799-8454", "website": "https://www.cafecolaochicago.com/"}}, {"type": "node", "id": 4858475595, "lat": 41.8958169, "lon": -87.693432, "tags": {"addr:city": "Chicago", "addr:housenumber": "2640", "addr:postcode": "60622", "addr:state": "IL", "addr:street": "West Chicago Avenue", "amenity": "restaurant", "cuisine": "mexican", "name": "Yoli's Tacos", "opening_hours": "Mo-Su 10:00-22:00", "phone": "+1-872-802-4544"}}, {"type": "node", "id": 6284202956, "lat": 41.8950429, "lon": -87.687107, "tags": {"addr:city": "Chicago", "addr:housenumber": "738", "addr:postcode": "60612", "addr:state": "IL", "addr:street": "North Western Avenue", "amenity": "cafe", "contact:facebook": "https://www.facebook.com/DarkMatterCoffee/", "contact:instagram": "https://www.instagram.com/darkmattercoffee/", "contact:phone": "+1 773 697 8472", "contact:pinterest": "https://www.pinterest.de/darkmattercoffe/", "contact:twitter": "https://twitter.com/DarkMatter2521", "contact:website": "https://www.darkmattercoffee.com/", "contact:youtube": "https://www.youtube.com/channel/UCUa0veV32dQbEr8nX78eSUw", "cuisine": "coffee_shop", "name": "Dark Matter Coffee - The Mothership", "opening_hours": "Mo-Su 07:00-17:00", "payment:american_express": "yes", "payment:diners_club": "yes", "payment:mastercard": "yes", "payment:visa": "yes"}}, {"type": "node", "id": 6284447675, "lat": 41.899387, "lon": -87.6995161, "tags": {"addr:city": "Chicago", "addr:housenumber": "1000", "addr:postcode": "60622", "addr:state": "IL", "addr:street": "North Francisco Avenue", "amenity": "restaurant", "name": "Diana\u2019s Food & Restaurant", "phone": "+1-773-235-9218"}}, {"type": "node", "id": 6294262005, "lat": 41.9027426, "lon": -87.6904806, "tags": {"addr:city": "Chicago", "addr:housenumber": "2525", "addr:postcode": "60622", "addr:state": "IL", "addr:street": "West Division Street", "amenity": "restaurant", "name": "The Chicago Teachers\u2019 Lounge & Eatery", "phone": "+1-773-366-8700", "website": "https://www.thechicagoteacherslounge.com/"}}, {"type": "node", "id": 6294339445, "lat": 41.8959484, "lon": -87.694408, "tags": {"addr:city": "Chicago", "addr:housenumber": "2700", "addr:postcode": "60622", "addr:state": "IL", "addr:street": "West Chicago Avenue", "amenity": "restaurant", "name": "Heritage Restaurant and Caviar Bar", "phone": "+1-773-661-9577", "website": "https://heritage-chicago.com/"}}, {"type": "node", "id": 6300304352, "lat": 41.899407, "lon": -87.6971852, "tags": {"addr:city": "Chicago", "addr:housenumber": "1000", "addr:postcode": "60622", "addr:state": "IL", "addr:street": "North California Avenue", "amenity": "cafe", "name": "Spinning J", "phone": "+1-872-829-2793", "website": "http://www.spinningj.com/"}}, {"type": "node", "id": 6300313243, "lat": 41.895924, "lon": -87.689589, "tags": {"addr:city": "Chicago", "addr:housenumber": "2500", "addr:postcode": "60622", "addr:state": "IL", "addr:street": "West Chicago Avenue", "amenity": "restaurant", "cuisine": "american;chicken", "name": "Split-Rail", "phone": "+1-773-697-4413", "website": "http://www.splitrailchicago.com"}}, {"type": "node", "id": 6300686046, "lat": 41.8955719, "lon": -87.6901818, "tags": {"addr:city": "Chicago", "addr:housenumber": "2521", "addr:postcode": "60622", "addr:state": "IL", "addr:street": "West Chicago Avenue", "amenity": "cafe", "name": "Star Lounge Coffee Bar", "phone": "+1-773-384-7827", "website": "https://www.darkmattercoffee.com/"}}, {"type": "node", "id": 6301042528, "lat": 41.8990442, "lon": -87.6969506, "tags": {"addr:city": "Chicago", "addr:housenumber": "954", "addr:postcode": "60622", "addr:state": "IL", "addr:street": "North California Avenue", "amenity": "bar", "name": "Rootstock Wine & Beer Bar", "phone": "+1-773-292-1616", "website": "https://www.rootstockbar.com/"}}, {"type": "node", "id": 6305259456, "lat": 41.89596, "lon": -87.6907321, "tags": {"addr:city": "Chicago", "addr:housenumber": "2532", "addr:postcode": "60622", "addr:state": "IL", "addr:street": "West Chicago Avenue", "amenity": "bar", "name": "The Beetle Bar and Grill", "phone": "+1-773-384-0701", "website": "https://www.thebeetlechicago.com/"}}, {"type": "node", "id": 6306586520, "lat": 41.8954045, "lon": -87.6968487, "tags": {"addr:city": "Chicago", "addr:housenumber": "2801", "addr:postcode": "60622", "addr:state": "IL", "addr:street": "West Chicago Avenue", "amenity": "bar", "name": "The Continental", "phone": "+1-773-292-1200"}}, {"type": "node", "id": 6319134431, "lat": 41.8955355, "lon": -87.691556, "tags": {"addr:city": "Chicago", "addr:housenumber": "2557", "addr:postcode": "60622", "addr:state": "IL", "addr:street": "West Chicago Avenue", "amenity": "restaurant", "name": "Kai Zan", "phone": "+1-773-278-5776", "website": "http://www.eatatkaizan.com/"}}, {"type": "node", "id": 6320597249, "lat": 41.9001764, "lon": -87.6873202, "tags": {"addr:city": "Chicago", "addr:housenumber": "1024", "addr:postcode": "60622", "addr:state": "IL", "addr:street": "North Western Avenue", "amenity": "restaurant", "name": "Lockdown Bar & Grill", "phone": "+1-773-451-5625", "website": "http://www.lockdownbar.com/"}}, {"type": "node", "id": 6320599857, "lat": 41.9001086, "lon": -87.6872894, "tags": {"addr:city": "Chicago", "addr:housenumber": "1022", "addr:postcode": "60622", "addr:state": "IL", "addr:street": "North Western Avenue", "amenity": "restaurant", "name": "Lockdown Smoked", "phone": "+1-773-270-5987"}}, {"type": "node", "id": 6323063285, "lat": 41.9033048, "lon": -87.689323, "tags": {"addr:city": "Chicago", "addr:housenumber": "2458", "addr:postcode": "60622", "addr:state": "IL", "addr:street": "West Division Street", "amenity": "restaurant", "name": "Nellie\u2019s", "phone": "+1-773-252-5520", "website": "https://www.nelliesrestaurant.com/"}}, {"type": "node", "id": 6324324927, "lat": 41.902745, "lon": -87.6902284, "tags": {"addr:city": "Chicago", "addr:housenumber": "2517", "addr:postcode": "60622", "addr:state": "IL", "addr:street": "West Division Street", "amenity": "restaurant", "name": "Papa\u2019s Cache Sabroso", "phone": "+1-773-862-8313", "website": "http://www.papascache.com/"}}, {"type": "node", "id": 6397121374, "lat": 41.8957939, "lon": -87.6990103, "tags": {"addr:city": "Chicago", "addr:housenumber": "2858", "addr:postcode": "60622", "addr:state": "IL", "addr:street": "West Chicago Avenue", "amenity": "restaurant", "cuisine": "american;hotdog;hot_dog", "name": "Lola's Coney Island", "opening_hours": "Mo-Sa 11:00-21:00; Su 12:00-18:00", "phone": "+1-773-687-9459", "website": "https://www.lolasconeyisland.com/"}}, {"type": "way", "id": 209388381, "nodes": [2196100869, 2196100859, 2196101452, 2196101455, 2196101395, 2196101394, 2196101458, 2196101461, 2196100913, 2196100915, 2196100869], "tags": {"addr:city": "Chicago", "addr:housenumber": "1043", "addr:postcode": "60622", "addr:state": "IL", "addr:street": "North California Avenue", "addr:street:name": "California", "addr:street:prefix": "North", "addr:street:type": "Avenue", "amenity": "bar", "building": "yes", "building:levels": "2", "chicago:building_id": "867167", "name": "Lucy\u2019s", "phone": "+1-312-675-8385", "website": "http://www.lucyschicago.com/"}}, {"type": "way", "id": 209390013, "nodes": [2196110875, 2196111223, 2196111225, 2196110876, 2196110875], "tags": {"addr:housenumber": "2438", "addr:street": "West Division Street", "addr:street:name": "Division", "addr:street:prefix": "West", "addr:street:type": "Street", "amenity": "restaurant", "building": "yes", "building:levels": "2", "chicago:building_id": "322558", "cuisine": "chinese", "name": "New China Restaurant"}}, {"type": "way", "id": 209390479, "nodes": [2196110833, 2196110988, 2196111001, 2196110839, 2196110833], "tags": {"addr:housenumber": "2534", "addr:street": "West Division Street", "addr:street:name": "Division", "addr:street:prefix": "West", "addr:street:type": "Street", "amenity": "restaurant", "building": "yes", "chicago:building_id": "860071", "cuisine": "pizza", "name": "Guerrero's Tacos and Pizza", "wheelchair": "yes"}}, {"type": "way", "id": 209391564, "nodes": [2196110741, 2196111201, 2196111203, 2196110744, 2196110741], "tags": {"addr:housenumber": "2726", "addr:street": "West Division Street", "addr:street:name": "Division", "addr:street:prefix": "West", "addr:street:type": "Street", "amenity": "restaurant", "building": "yes", "building:levels": "2", "chicago:building_id": "322673", "name": "La Bruquena", "wheelchair": "limited"}}, {"type": "way", "id": 209391822, "nodes": [2196075584, 2196075681, 2196075688, 2196075692, 2196075694, 2196075696, 2196075709, 2196075714, 2196075716, 2196075719, 2196075725, 2196075733, 2196075584], "tags": {"addr:city": "Chicago", "addr:housenumber": "2859", "addr:state": "IL", "addr:street": "West Chicago Avenue", "addr:street:name": "Chicago", "addr:street:prefix": "West", "amenity": "restaurant", "building": "yes", "chicago:building_id": "341120", "name": "Taco el Jalisciense", "phone": "+1-773-235-2859"}}]}