{"version": 0.6, "generator": "Overpass API 0.7.56.1004 6cd3eaec", "osm3s": {"timestamp_osm_base": "2020-07-08T16:43:03Z", "copyright": "The data included in this document is from www.openstreetmap.org. The data is made available under ODbL."}, "elements": [{"type": "node", "id": 261137171, "lat": 41.789634, "lon": -87.5947984}, {"type": "node", "id": 261139500, "lat": 41.7896618, "lon": -87.5915553}, {"type": "node", "id": 261139501, "lat": 41.7896475, "lon": -87.593169}, {"type": "node", "id": 261192510, "lat": 41.7932495, "lon": -87.5981069}, {"type": "node", "id": 261192511, "lat": 41.7914254, "lon": -87.5980749}, {"type": "node", "id": 261202782, "lat": 41.7914457, "lon": -87.59646, "tags": {"highway": "traffic_signals"}}, {"type": "node", "id": 1569129786, "lat": 41.7923579, "lon": -87.5980945}, {"type": "node", "id": 1580841427, "lat": 41.7916052, "lon": -87.5895793}, {"type": "node", "id": 1580841441, "lat": 41.7918567, "lon": -87.589585}, {"type": "node", "id": 1587772175, "lat": 41.7886413, "lon": -87.5915309}, {"type": "node", "id": 1674040525, "lat": 41.7896504, "lon": -87.5928392}, {"type": "node", "id": 1685262396, "lat": 41.7904707, "lon": -87.5956245}, {"type": "node", "id": 1685262407, "lat": 41.7896407, "lon": -87.5939861}, {"type": "node", "id": 1685262428, "lat": 41.7896269, "lon": -87.5956037}, {"type": "node", "id": 1685262461, "lat": 41.7914529, "lon": -87.5956491}, {"type": "node", "id": 1685296310, "lat": 41.7914355, "lon": -87.5972717}, {"type": "node", "id": 2380367815, "lat": 41.7877878, "lon": -87.6059295}, {"type": "node", "id": 2380367821, "lat": 41.7912756, "lon": -87.606037}, {"type": "node", "id": 2625982794, "lat": 41.7949324, "lon": -87.5878505, "tags": {"addr:city": "Chicago", "addr:housenumber": "5506", "addr:postcode": "60637", "addr:state": "IL", "addr:street": "South Lake Park Avenue", "amenity": "restaurant", "cuisine": "mexican", "name": "Maravilla's"}}, {"type": "node", "id": 2630670022, "lat": 41.7947524, "lon": -87.5806979, "tags": {"addr:city": "Chicago", "addr:housenumber": "5500", "addr:postcode": "60637", "addr:street": "South Shore Drive", "amenity": "restaurant", "name": "Bar Louie", "opening_hours": "Su-Th 11:00-01:00, Fr-Sa 11:00-02:00", "phone": "+1-773-363-5300", "website": "https://www.barlouie.com/locations/states/illinois/hyde-park-chicago"}}, {"type": "node", "id": 2968215000, "lat": 41.7951291, "lon": -87.584784, "tags": {"addr:city": "Chicago", "addr:housenumber": "1649", "addr:postcode": "60615", "addr:street": "East 55th Street", "amenity": "restaurant", "cuisine": "thai", "name": "The Snail", "smoking": "no"}}, {"type": "node", "id": 3259301888, "lat": 41.7949312, "lon": -87.5981693}, {"type": "node", "id": 3378983526, "lat": 41.786014, "lon": -87.5913604}, {"type": "node", "id": 3378983527, "lat": 41.786034, "lon": -87.5894292}, {"type": "node", "id": 3378983528, "lat": 41.78461, "lon": -87.5897511}, {"type": "node", "id": 3378983529, "lat": 41.783746, "lon": -87.5899764}, {"type": "node", "id": 3378983530, "lat": 41.78343, "lon": -87.5900622}, {"type": "node", "id": 3378983531, "lat": 41.783426, "lon": -87.5902124}, {"type": "node", "id": 3378983532, "lat": 41.784654, "lon": -87.5902553}, {"type": "node", "id": 3378983533, "lat": 41.784514, "lon": -87.5904645}, {"type": "node", "id": 3378983534, "lat": 41.784492, "lon": -87.590482}, {"type": "node", "id": 3378983535, "lat": 41.78437, "lon": -87.5907368}, {"type": "node", "id": 3378983536, "lat": 41.784256, "lon": -87.5911257}, {"type": "node", "id": 3378983537, "lat": 41.78425, "lon": -87.5913644}, {"type": "node", "id": 3378983538, "lat": 41.7853, "lon": -87.5913859}, {"type": "node", "id": 3378983539, "lat": 41.786016, "lon": -87.5913939}, {"type": "node", "id": 4114593395, "lat": 41.7916126, "lon": -87.5901224, "tags": {"addr:city": "Chicago", "addr:housenumber": "1440", "addr:postcode": "60637", "addr:state": "IL", "addr:street": "East 57th Street", "amenity": "restaurant", "name": "Salonica"}}, {"type": "node", "id": 4114655789, "lat": 41.793528, "lon": -87.5851621, "tags": {"addr:city": "Chicago", "addr:housenumber": "1642", "addr:postcode": "60637", "addr:state": "IL", "addr:street": "East 56th Street", "amenity": "restaurant", "cuisine": "italian", "name": "Piccolo Mondo"}}, {"type": "node", "id": 4114655790, "lat": 41.7950891, "lon": -87.5865743, "tags": {"addr:city": "Chicago", "addr:housenumber": "1601", "addr:postcode": "60615", "addr:state": "IL", "addr:street": "East 55th Street", "amenity": "restaurant", "cuisine": "japanese", "description": "BYOB", "name": "Kikuya Japanese Restaurant"}}, {"type": "node", "id": 5313943420, "lat": 41.7916042, "lon": -87.5896553}, {"type": "node", "id": 5313945121, "lat": 41.7918562, "lon": -87.5896587}, {"type": "node", "id": 5322743176, "lat": 41.7925886, "lon": -87.6060695}, {"type": "node", "id": 5526428402, "lat": 41.7955036, "lon": -87.5886172, "tags": {"amenity": "restaurant", "cuisine": "french", "name": "La Petit Folie"}}, {"type": "node", "id": 5526430160, "lat": 41.7953364, "lon": -87.5841852, "tags": {"addr:housenumber": "1660", "addr:street": "East 55th Street", "amenity": "restaurant", "name": "Litehouse Whole Food Grill", "opening_hours": "Su-Th 11:00-22:00, Fr 11:00-(sunset-00:30), Sa (sunset+00:30)-00:00", "phone": "1-773-633-2587", "website": "http://litehousewholefoodgrill.com/"}}, {"type": "node", "id": 5545781672, "lat": 41.7879529, "lon": -87.5902808}, {"type": "node", "id": 5545781673, "lat": 41.7884906, "lon": -87.5915292}, {"type": "node", "id": 5545781674, "lat": 41.7885077, "lon": -87.5902419}, {"type": "node", "id": 5545781677, "lat": 41.788231, "lon": -87.5902281}, {"type": "node", "id": 5545781678, "lat": 41.7882433, "lon": -87.589449}, {"type": "node", "id": 5546046954, "lat": 41.7884909, "lon": -87.5915063}, {"type": "node", "id": 5546046956, "lat": 41.7879605, "lon": -87.5894438}, {"type": "node", "id": 5546076600, "lat": 41.7905388, "lon": -87.5956262}, {"type": "node", "id": 5622914298, "lat": 41.794856, "lon": -87.6060849}, {"type": "node", "id": 5706732631, "lat": 41.7950937, "lon": -87.5865266, "tags": {"amenity": "restaurant", "cuisine": "korean", "name": "Cafe Corea"}}, {"type": "node", "id": 5774169246, "lat": 41.795126, "lon": -87.5849544, "tags": {"addr:city": "Chicago", "addr:housenumber": "1639", "addr:state": "IL", "addr:street": "East 55th Street", "amenity": "restaurant", "cuisine": "thai", "name": "Siam Thai Cuisine"}}, {"type": "node", "id": 5885767564, "lat": 41.7949763, "lon": -87.5981734}, {"type": "node", "id": 6306619050, "lat": 41.7954569, "lon": -87.5819295, "tags": {"addr:city": "Chicago", "addr:housenumber": "1750", "addr:postcode": "60615", "addr:state": "IL", "addr:street": "East 55th Street", "amenity": "bar", "name": "The Cove Lounge", "phone": "+1-773-684-1013", "website": "https://thecovelounge.com/"}}, {"type": "node", "id": 6456320998, "lat": 41.7918066, "lon": -87.5796738, "tags": {"amenity": "cafe", "cuisine": "american", "name": "Beach cafe", "opening_hours": "Jun-Aug open \"Only open in summer\"", "outdoor_seating": "yes", "takeaway": "only"}}, {"type": "node", "id": 7244535738, "lat": 41.7889594, "lon": -87.5915385}, {"type": "way", "id": 145510728, "nodes": [5885767564, 5622914298, 5322743176, 2380367821, 2380367815, 5545781672, 5546046956, 5545781678, 5545781677, 5545781674, 5546046954, 5545781673, 1587772175, 7244535738, 261139500, 1674040525, 261139501, 1685262407, 261137171, 1685262428, 1685262396, 5546076600, 1685262461, 261202782, 1685296310, 261192511, 1569129786, 261192510, 3259301888, 5885767564], "tags": {"addr:city": "Chicago", "addr:housenumber": "5801", "addr:postcode": "60637", "addr:state": "IL", "addr:street": "South Ellis Avenue", "amenity": "university", "name": "The University of Chicago", "phone": "+1 773.702.1234", "website": "https://uchicago.edu", "wikidata": "Q131252", "wikipedia": "en:University of Chicago"}}, {"type": "way", "id": 330872770, "nodes": [3378983526, 3378983527, 3378983528, 3378983529, 3378983530, 3378983531, 3378983532, 3378983533, 3378983534, 3378983535, 3378983536, 3378983537, 3378983538, 3378983539, 3378983526], "tags": {"addr:city": "Chicago", "addr:housenumber": "5801", "addr:postcode": "60637", "addr:state": "IL", "addr:street": "South Ellis Avenue", "amenity": "university", "name": "The University of Chicago", "website": "https://uchicago.edu", "wikidata": "Q131252", "wikipedia": "en:University of Chicago"}}, {"type": "way", "id": 550162345, "nodes": [5313945121, 1580841441, 1580841427, 5313943420, 5313945121], "tags": {"addr:city": "Chicago", "addr:housenumber": "1450", "addr:postcode": "60637", "addr:state": "IL", "addr:street": "East 57th Street", "amenity": "restaurant", "building": "yes", "diet:gluten_free": "only", "diet:raw": "yes", "diet:vegan": "only", "name": "B'Gabs Goodies", "website": "https://www.bgabsgoodies.com/"}}]}