{"version": 0.6, "generator": "Overpass API 0.7.56.3 eb200aeb", "osm3s": {"timestamp_osm_base": "2020-07-17T21:20:03Z", "copyright": "The data included in this document is from www.openstreetmap.org. The data is made available under ODbL."}, "elements": [{"type": "node", "id": 346233089, "lat": 41.9612616, "lon": -87.6835267, "tags": {"amenity": "cafe", "cuisine": "coffee_shop", "name": "Julius Meinl"}}, {"type": "node", "id": 347301872, "lat": 41.9547023, "lon": -87.6789343, "tags": {"amenity": "cafe", "brand": "Starbucks", "brand:wikidata": "Q37158", "brand:wikipedia": "en:Starbucks", "cuisine": "coffee_shop", "name": "Starbucks", "official_name": "Starbucks Coffee", "takeaway": "yes"}}, {"type": "node", "id": 414253932, "lat": 41.9605249, "lon": -87.6836882}, {"type": "node", "id": 414253933, "lat": 41.9608674, "lon": -87.6836899}, {"type": "node", "id": 414253934, "lat": 41.9605679, "lon": -87.6833952}, {"type": "node", "id": 1317827212, "lat": 41.9616108, "lon": -87.6796436, "tags": {"amenity": "restaurant", "brand": "Giordano's Pizzeria", "brand:wikidata": "Q5563393", "brand:wikipedia": "en:Giordano's Pizzeria", "cuisine": "pizza", "name": "Giordano's Pizzeria"}}, {"type": "node", "id": 1317862227, "lat": 41.959724, "lon": -87.6828837, "tags": {"addr:city": "Chicago", "addr:housenumber": "4300", "addr:postcode": "60618", "addr:state": "IL", "addr:street": "North Lincoln Avenue", "amenity": "restaurant", "name": "The Bad Apple", "phone": "+1-773-360-8406", "website": "http://www.badapplebar.com/"}}, {"type": "node", "id": 1317862245, "lat": 41.9647919, "lon": -87.6858529, "tags": {"amenity": "cafe", "brand": "Starbucks", "brand:wikidata": "Q37158", "brand:wikipedia": "en:Starbucks", "cuisine": "coffee_shop", "name": "Starbucks", "official_name": "Starbucks Coffee", "takeaway": "yes"}}, {"type": "node", "id": 1385119524, "lat": 41.9650343, "lon": -87.6864001, "tags": {"addr:city": "Chicago", "addr:housenumber": "4600", "addr:postcode": "60625", "addr:state": "IL", "addr:street": "North Lincoln Avenue", "amenity": "restaurant", "cuisine": "american", "name": "Fork", "phone": "+1-773-751-1500", "website": "http://forkchicago.net/"}}, {"type": "node", "id": 1432788850, "lat": 41.9610993, "lon": -87.6839782, "tags": {"amenity": "bar", "name": "Tiny Lounge"}}, {"type": "node", "id": 1432788851, "lat": 41.961224, "lon": -87.6839822, "tags": {"amenity": "restaurant", "cuisine": "american", "name": "Monty Gael's"}}, {"type": "node", "id": 1526962143, "lat": 41.9665273, "lon": -87.6938614, "tags": {"amenity": "restaurant", "name": "Pizza Art Cafe"}}, {"type": "node", "id": 1526962145, "lat": 41.966629, "lon": -87.6938828, "tags": {"amenity": "cafe", "name": "Beans and Bagels"}}, {"type": "node", "id": 1557244573, "lat": 41.9648032, "lon": -87.6862189, "tags": {"amenity": "restaurant", "name": "Daily Bar and Grill"}}, {"type": "node", "id": 1557244574, "lat": 41.9650425, "lon": -87.6860231, "tags": {"amenity": "restaurant", "cuisine": "indian", "name": "Essence of India"}}, {"type": "node", "id": 1557244581, "lat": 41.959466, "lon": -87.6826489, "tags": {"addr:city": "Chicago", "addr:housenumber": "4264", "addr:postcode": "60618", "addr:state": "IL", "addr:street": "North Lincoln Avenue", "amenity": "bar", "name": "Gannon\u2019s Pub", "phone": "+1-773-281-1007", "website": "http://www.gannonspub.com/"}}, {"type": "node", "id": 1557244584, "lat": 41.9674616, "lon": -87.687611, "tags": {"addr:city": "Chicago", "addr:housenumber": "4729", "addr:postcode": "60625", "addr:state": "IL", "addr:street": "North Lincoln Avenue", "amenity": "restaurant", "cuisine": "american", "name": "Cafe Selmarie", "phone": "+1-773-989-5595", "website": "http://cafeselmarie.com/"}}, {"type": "node", "id": 1557244593, "lat": 41.9633493, "lon": -87.6853445, "tags": {"addr:city": "Chicago", "addr:housenumber": "4500", "addr:postcode": "60625", "addr:state": "IL", "addr:street": "North Lincoln Avenue", "amenity": "restaurant", "name": "Gideon Welles", "phone": "+1-773-907-2226", "website": "http://gideonchicago.com/"}}, {"type": "node", "id": 1557259859, "lat": 41.9612392, "lon": -87.6840893, "tags": {"amenity": "restaurant", "cuisine": "pizza", "name": "Apart Pizza"}}, {"type": "node", "id": 1627026644, "lat": 41.9670666, "lon": -87.679341, "tags": {"addr:city": "Chicago", "addr:housenumber": "4700", "addr:postcode": "60625", "addr:state": "IL", "addr:street": "North Damen Avenue", "amenity": "cafe", "name": "The Perfect Cup", "phone": "+1-773-989-4177", "website": "http://perfectcupchicago.com/"}}, {"type": "node", "id": 1719743394, "lat": 41.9637446, "lon": -87.6855507, "tags": {"amenity": "restaurant", "cuisine": "italian", "name": "Due Lire"}}, {"type": "node", "id": 1719743398, "lat": 41.9639939, "lon": -87.685725, "tags": {"addr:city": "Chicago", "addr:housenumber": "4530", "addr:postcode": "60625", "addr:state": "IL", "addr:street": "North Lincoln Avenue", "amenity": "bar", "name": "The Grafton", "phone": "+1-773-271-9000", "website": "https://www.thegrafton.com/"}}, {"type": "node", "id": 1975835341, "lat": 41.9662621, "lon": -87.7013037, "tags": {"addr:city": "Chicago", "addr:housenumber": "4664", "addr:postcode": "60625", "addr:state": "IL", "addr:street": "North Manor Avenue", "amenity": "cafe", "cuisine": "coffee_shop", "internet_access": "yes", "name": "First Slice", "phone": "+1-773-267-0169", "source": "local knowledge", "website": "http://firstslice.org/", "wifi": "free"}}, {"type": "node", "id": 2196816832, "lat": 41.9536122, "lon": -87.6993319}, {"type": "node", "id": 2196816834, "lat": 41.9536144, "lon": -87.69924}, {"type": "node", "id": 2196816858, "lat": 41.9536295, "lon": -87.6992417}, {"type": "node", "id": 2196816860, "lat": 41.9536307, "lon": -87.6992104}, {"type": "node", "id": 2196817156, "lat": 41.9538331, "lon": -87.6993371}, {"type": "node", "id": 2196817161, "lat": 41.9538352, "lon": -87.6992158}, {"type": "node", "id": 2196852266, "lat": 41.9605686, "lon": -87.6831149}, {"type": "node", "id": 2196852275, "lat": 41.9605716, "lon": -87.6829126}, {"type": "node", "id": 2196852428, "lat": 41.9606238, "lon": -87.6831603}, {"type": "node", "id": 2196852486, "lat": 41.9606386, "lon": -87.6831178}, {"type": "node", "id": 2196852494, "lat": 41.9606407, "lon": -87.6829947}, {"type": "node", "id": 2196852573, "lat": 41.9606681, "lon": -87.6829944}, {"type": "node", "id": 2196852579, "lat": 41.960669, "lon": -87.6829153}, {"type": "node", "id": 2196853939, "lat": 41.9614408, "lon": -87.6909119, "tags": {"amenity": "restaurant", "name": "Cafe Lutz"}}, {"type": "node", "id": 2196861228, "lat": 41.9635517, "lon": -87.6857981}, {"type": "node", "id": 2196861315, "lat": 41.9635772, "lon": -87.6856967}, {"type": "node", "id": 2196861327, "lat": 41.9635814, "lon": -87.6857169}, {"type": "node", "id": 2196861353, "lat": 41.963588, "lon": -87.6856745}, {"type": "node", "id": 2196861408, "lat": 41.9635989, "lon": -87.6856689}, {"type": "node", "id": 2196861414, "lat": 41.9635999, "lon": -87.6858307}, {"type": "node", "id": 2196861551, "lat": 41.9636233, "lon": -87.6856025}, {"type": "node", "id": 2196861555, "lat": 41.9636242, "lon": -87.6857643}, {"type": "node", "id": 2196861579, "lat": 41.963632, "lon": -87.6856851}, {"type": "node", "id": 2196861620, "lat": 41.9636414, "lon": -87.685663}, {"type": "node", "id": 2196861651, "lat": 41.9636485, "lon": -87.6856978}, {"type": "node", "id": 2196861689, "lat": 41.9636566, "lon": -87.685672}, {"type": "node", "id": 2196861772, "lat": 41.9636773, "lon": -87.6854567}, {"type": "node", "id": 2196862158, "lat": 41.9637242, "lon": -87.6854875}, {"type": "node", "id": 2196877059, "lat": 41.9674433, "lon": -87.6882328}, {"type": "node", "id": 2196877474, "lat": 41.9675074, "lon": -87.6882714}, {"type": "node", "id": 2196877628, "lat": 41.9675108, "lon": -87.688259}, {"type": "node", "id": 2196877665, "lat": 41.9675389, "lon": -87.6879648}, {"type": "node", "id": 2196877836, "lat": 41.9675721, "lon": -87.6882999}, {"type": "node", "id": 2196878328, "lat": 41.9676606, "lon": -87.6880444}, {"type": "node", "id": 2274028613, "lat": 41.9682002, "lon": -87.6936095, "tags": {"addr:city": "Chicago", "addr:housenumber": "4749", "addr:postcode": "60625", "addr:state": "IL", "addr:street": "North Rockwell Street", "amenity": "bar", "name": "The Red Lion Lincoln Square", "phone": "+1-773-654-1341", "website": "https://www.theredlionlincolnsquare.com/"}}, {"type": "node", "id": 2276406961, "lat": 41.9616119, "lon": -87.6787867, "tags": {"addr:city": "Chicago", "addr:housenumber": "1970", "addr:postcode": "60618", "addr:state": "IL", "addr:street": "West Montrose Avenue", "amenity": "restaurant", "cuisine": "New_American", "name": "Fountainhead", "phone": "+1-773-697-8204", "website": "http://fountainheadchicago.com/"}}, {"type": "node", "id": 2276407295, "lat": 41.9667045, "lon": -87.6793194, "tags": {"amenity": "restaurant", "name": "Aroy Thai"}}, {"type": "node", "id": 2673354534, "lat": 41.9682471, "lon": -87.6881332, "tags": {"amenity": "restaurant", "cuisine": "greek", "name": "Barba Yianni"}}, {"type": "node", "id": 2969264559, "lat": 41.9680798, "lon": -87.6884053, "tags": {"addr:city": "Chicago", "addr:housenumber": "4752", "addr:postcode": "60625", "addr:street": "North Lincoln Avenue", "amenity": "restaurant", "cuisine": "mexican", "name": "Garcia's", "toilets:wheelchair": "yes", "wheelchair": "yes"}}, {"type": "node", "id": 3011071566, "lat": 41.954188, "lon": -87.7017101, "tags": {"addr:city": "Chicago", "addr:housenumber": "2922", "addr:postcode": "60618", "addr:street": "West Irving Park Road", "amenity": "restaurant", "cuisine": "barbecue", "name": "PitchFork", "phone": "+1-773-866-2010", "website": "https://pitchforkchicago.com/"}}, {"type": "node", "id": 3011103181, "lat": 41.9546765, "lon": -87.6887215, "tags": {"addr:housenumber": "4018", "addr:street": "North Western Avenue", "amenity": "restaurant", "cuisine": "thai", "name": "Sticky Rice", "opening_hours": "Mo-Sa 11:30-23:00; Su 12:00-22:00", "website": "http://www.stickyricethai.com/"}}, {"type": "node", "id": 3015667206, "lat": 41.9537838, "lon": -87.702057, "tags": {"addr:city": "Chicago", "addr:housenumber": "2933", "addr:postcode": "60618", "addr:state": "IL", "addr:street": "West Irving Park Road", "amenity": "cafe", "cuisine": "serbian", "internet_access": "wlan", "name": "Beograd Cafe", "phone": "+1-773-478-7575", "website": "http://beogradchicago.com/index.html"}}, {"type": "node", "id": 3015672019, "lat": 41.9536402, "lon": -87.6991711, "tags": {"amenity": "restaurant", "cuisine": "mexican", "name": "The Famous Taco Burrito"}}, {"type": "node", "id": 3015676165, "lat": 41.954379, "lon": -87.6986616, "tags": {"amenity": "restaurant", "cuisine": "chinese", "name": "Lo's China Kitchen"}}, {"type": "node", "id": 3809208225, "lat": 41.9682723, "lon": -87.688678, "tags": {"amenity": "restaurant", "cuisine": "Breakfast_and_lunch", "name": "Pannekoken"}}, {"type": "node", "id": 5168250756, "lat": 41.9652111, "lon": -87.6861157, "tags": {"addr:city": "Chicago", "addr:housenumber": "4609", "addr:postcode": "60625", "addr:state": "IL", "addr:street": "North Lincoln Avenue", "amenity": "restaurant", "cuisine": "southern", "description": "Bib Gourmand recommendation", "name": "Luella's Southern Kitchen", "phone": "+1-773-961-8196", "website": "http://luellassouthernkitchen.com/"}}, {"type": "node", "id": 5460811043, "lat": 41.9543611, "lon": -87.6801982, "tags": {"addr:city": "Chicago", "addr:housenumber": "2034", "addr:postcode": "60618", "addr:state": "IL", "addr:street": "West Irving Park Road", "amenity": "bar", "name": "Resi\u2019s Bierstube Restaurant", "opening_hours": "Mo-Th 16:00-02:00; Fr 14:00-02:00; Sa 14:00-03:00; Su 14:00-01:00", "phone": "+1-773-472-1749"}}, {"type": "node", "id": 5861896117, "lat": 41.9608711, "lon": -87.6836122}, {"type": "node", "id": 5861896118, "lat": 41.9605287, "lon": -87.6835098}, {"type": "node", "id": 6280614231, "lat": 41.9538699, "lon": -87.6854312, "tags": {"addr:city": "Chicago", "addr:housenumber": "2245", "addr:postcode": "60618", "addr:state": "IL", "addr:street": "West Irving Park Road", "amenity": "restaurant", "name": "Chayhana", "phone": "+1-773-942-7720", "website": "http://chayhanachicago.com/"}}, {"type": "node", "id": 6283201843, "lat": 41.9539652, "lon": -87.6810058, "tags": {"addr:city": "Chicago", "addr:housenumber": "2059", "addr:postcode": "60618", "addr:state": "IL", "addr:street": "West Irving Park Road", "amenity": "cafe", "name": "Coffee Joint", "phone": "+1-773-629-1725", "website": "https://coffeejoint.com/"}}, {"type": "node", "id": 6283230832, "lat": 41.9682487, "lon": -87.6917466, "tags": {"addr:city": "Chicago", "addr:housenumber": "2501", "addr:postcode": "60625", "addr:state": "IL", "addr:street": "West Lawrence Avenue", "amenity": "cafe", "name": "Coffee Slasticarna Drina", "phone": "+1-773-275-5568"}}, {"type": "node", "id": 6291758395, "lat": 41.9643176, "lon": -87.6854858, "tags": {"addr:city": "Chicago", "addr:housenumber": "4539", "addr:postcode": "60625", "addr:state": "IL", "addr:street": "North Lincoln Avenue", "amenity": "restaurant", "name": "Gather", "phone": "+1-773-506-9300", "website": "https://www.gatherchicago.com/"}}, {"type": "node", "id": 6291787688, "lat": 41.9678492, "lon": -87.6877745, "tags": {"addr:city": "Chicago", "addr:housenumber": "4743", "addr:postcode": "60625", "addr:state": "IL", "addr:street": "North Lincoln Avenue", "amenity": "cafe", "name": "Geraldine\u2019s", "phone": "+1-", "toilets:wheelchair": "yes", "wheelchair": "yes"}}, {"type": "node", "id": 6297501127, "lat": 41.9672827, "lon": -87.6874715, "tags": {"addr:city": "Chicago", "addr:housenumber": "4721", "addr:postcode": "60625", "addr:state": "IL", "addr:street": "North Lincoln Avenue", "amenity": "bar", "name": "H\u00fcettenbar", "phone": "+1-773-561-2507", "website": "http://www.huettenbar.com/"}}, {"type": "node", "id": 6297627326, "lat": 41.9563958, "lon": -87.6799303, "tags": {"addr:city": "Chicago", "addr:housenumber": "4111", "addr:postcode": "60618", "addr:state": "IL", "addr:street": "North Lincoln Avenue", "amenity": "cafe", "name": "Savanna Restaurant", "phone": "+1-872-817-7340"}}, {"type": "node", "id": 6297629547, "lat": 41.9556851, "lon": -87.6801392, "tags": {"addr:city": "Chicago", "addr:housenumber": "4060", "addr:postcode": "60618", "addr:state": "IL", "addr:street": "North Lincoln Avenue", "amenity": "bar", "name": "Save More Lounge", "phone": "+1-773-281-1444"}}, {"type": "node", "id": 6300336899, "lat": 41.9656329, "lon": -87.6885158, "tags": {"addr:city": "Chicago", "addr:housenumber": "4623", "addr:postcode": "60625", "addr:state": "IL", "addr:street": "North Western Avenue", "amenity": "bar", "name": "Spyners Pub", "phone": "+1-773-784-8719", "website": "spyners.com"}}, {"type": "node", "id": 6300337645, "lat": 41.9575235, "lon": -87.6813429, "tags": {"addr:city": "Chicago", "addr:housenumber": "4160", "addr:postcode": "60618", "addr:state": "IL", "addr:street": "North Lincoln Avenue", "amenity": "restaurant", "name": "Square Biscuits", "phone": "+1-773-880-1100", "website": "https://www.squarebiscuits.com/"}}, {"type": "node", "id": 6300570350, "lat": 41.9542487, "lon": -87.7028442, "tags": {"addr:city": "Chicago", "addr:housenumber": "2958", "addr:postcode": "60618", "addr:state": "IL", "addr:street": "West Irving Park Road", "amenity": "restaurant", "name": "Raisu Japanese Fine Dining", "phone": "+1-773-961-7299", "website": "http://www.raisusushi.com/"}}, {"type": "node", "id": 6300622085, "lat": 41.9575579, "lon": -87.6814389, "tags": {"addr:city": "Chicago", "addr:housenumber": "4164", "addr:postcode": "60618", "addr:state": "IL", "addr:street": "North Lincoln Avenue", "amenity": "cafe", "name": "Red Eyes Coffee", "phone": "+1-773-327-9478"}}, {"type": "node", "id": 6301759131, "lat": 41.9546735, "lon": -87.6887916, "tags": {"addr:city": "Chicago", "addr:housenumber": "4018", "addr:postcode": "60618", "addr:state": "IL", "addr:street": "North Western Avenue", "amenity": "restaurant", "name": "Sticky Rice", "phone": "+1-773-588-0133", "website": "http://stickyricethai.com/index10.php"}}, {"type": "node", "id": 6304215661, "lat": 41.9642595, "lon": -87.6853788, "tags": {"addr:city": "Chicago", "addr:housenumber": "4535", "addr:postcode": "60625", "addr:state": "IL", "addr:street": "North Lincoln Avenue", "amenity": "restaurant", "cuisine": "american;new_american;american_new;vegetarian", "name": "The Warbler", "phone": "+1-773-681-0950", "website": "https://www.thewarblerchicago.com/"}}, {"type": "node", "id": 6304278992, "lat": 41.9594754, "lon": -87.6821871, "tags": {"addr:city": "Chicago", "addr:housenumber": "4265", "addr:postcode": "60618", "addr:state": "IL", "addr:street": "North Lincoln Avenue", "amenity": "bar", "name": "The Wild Goose Bar & Grill", "phone": "+1-773-281-7112", "website": "https://www.wildgoosebar.com/"}}, {"type": "node", "id": 6307008790, "lat": 41.9609809, "lon": -87.7018042, "tags": {"addr:city": "Chicago", "addr:housenumber": "2925", "addr:postcode": "60618", "addr:state": "Il", "addr:street": "West Montrose Avenue", "amenity": "bar", "name": "Twisted Hippo", "phone": "+1-708-844-7768", "website": "http://www.twistedhippo.com/"}}, {"type": "node", "id": 6314808938, "lat": 41.9682955, "lon": -87.6916405, "tags": {"addr:city": "Chicago", "addr:housenumber": "2501", "addr:postcode": "60625", "addr:state": "IL", "addr:street": "West Lawrence Avenue", "amenity": "restaurant", "name": "Isla Pilipina", "phone": "+1-773-271-2988", "website": "https://www.islapilipina.com/"}}, {"type": "node", "id": 6315247400, "lat": 41.9653911, "lon": -87.686206, "tags": {"addr:city": "Chicago", "addr:housenumber": "4613", "addr:postcode": "60625", "addr:state": "IL", "addr:street": "North Lincoln Avenue", "amenity": "cafe", "name": "The Grind"}}, {"type": "node", "id": 6317045353, "lat": 41.9616864, "lon": -87.680248, "tags": {"addr:city": "Chicago", "addr:housenumber": "2030-32", "addr:postcode": "60618", "addr:state": "IL", "addr:street": "West Montrose Avenue", "amenity": "restaurant", "name": "XOchimilco Mexican Restaurant", "phone": "+1-773-661-1534", "website": "https://xochimilco-mexican-restaurant-restaurant.business.site/"}}, {"type": "node", "id": 6319357294, "lat": 41.9585383, "lon": -87.6815872, "tags": {"addr:city": "Chicago", "addr:housenumber": "4229", "addr:postcode": "60618", "addr:state": "IL", "addr:street": "North Lincoln Avenue", "amenity": "restaurant", "name": "Kitsune", "phone": "+1-773-687-9179", "website": "https://www.kitsunerestaurant.com/"}}, {"type": "node", "id": 6319918450, "lat": 41.9644999, "lon": -87.689108, "tags": {"addr:city": "Chicago", "addr:housenumber": "4544", "addr:postcode": "60625", "addr:state": "IL", "addr:street": "North Western Avenue", "amenity": "cafe", "name": "La Catedral Cafe & Restaurant", "phone": "+1-773-654-1068"}}, {"type": "node", "id": 6322814494, "lat": 41.9682798, "lon": -87.6948315, "tags": {"addr:city": "Chicago", "addr:housenumber": "4757", "addr:postcode": "60625", "addr:state": "IL", "addr:street": "North Talman Avenue", "amenity": "restaurant", "name": "Monti\u2019s", "phone": "+1-773-942-6012", "website": "http://www.ilovemontis.com/"}}, {"type": "node", "id": 6322817723, "lat": 41.9610702, "lon": -87.7023111, "tags": {"addr:city": "Chicago", "addr:housenumber": "2933", "addr:postcode": "60618", "addr:state": "Il", "addr:street": "West Montrose Avenue", "amenity": "bar", "name": "Montrose Saloon", "phone": "+1-773-463-7663", "website": "https://www.montrosesaloon.com/"}}, {"type": "node", "id": 6323640782, "lat": 41.9544889, "lon": -87.6814266, "tags": {"addr:city": "Chicago", "addr:housenumber": "2100", "addr:postcode": "60618", "addr:state": "IL", "addr:street": "West Irving Park Road", "amenity": "bar", "name": "O\u2019Donovan\u2019s", "phone": "+1-773-478-2100", "website": "http://odonovansbar.com/"}}, {"type": "node", "id": 6324150054, "lat": 41.9668775, "lon": -87.6871357, "tags": {"addr:city": "Chicago", "addr:housenumber": "4703", "addr:postcode": "60625", "addr:state": "IL", "addr:street": "North Lincoln Avenue", "amenity": "cafe", "name": "Oromo Cafe", "phone": "+1-773-799-1931", "website": "http://www.oromocafechicago.com/"}}, {"type": "node", "id": 6324325182, "lat": 41.9682926, "lon": -87.6885894, "tags": {"addr:city": "Chicago", "addr:housenumber": "4757", "addr:postcode": "60625", "addr:state": "IL", "addr:street": "North Western Avenue", "amenity": "restaurant", "name": "Pannenkoeken Cafe", "phone": "+1-773-769-8800", "website": "http://www.pannenkoekencafe.com/"}}, {"type": "node", "id": 6721955008, "lat": 41.9612586, "lon": -87.6843625, "tags": {"addr:city": "Chicago", "addr:housenumber": "2213", "addr:postcode": "60618", "addr:state": "IL", "addr:street": "West Montrose Avenue", "amenity": "restaurant", "cuisine": "mexican", "name": "Taqueria El Asadero", "phone": "+1-773-583-5563"}}, {"type": "node", "id": 7283923834, "lat": 41.9612491, "lon": -87.6842016, "tags": {"addr:city": "Chicago", "addr:housenumber": "2207", "addr:postcode": "60618", "addr:state": "IL", "addr:street": "West Montrose Ave", "amenity": "restaurant", "description": "Ramen", "name": "Menya Goku", "phone": "773-227-8180"}}, {"type": "way", "id": 35341584, "nodes": [414253932, 414253933, 5861896117, 414253934, 5861896118, 414253932], "tags": {"addr:city": "Chicago", "addr:housenumber": "4340", "addr:postcode": "60618", "addr:street": "North Lincoln Avenue", "amenity": "restaurant", "brand": "Lou Malnati's Pizzeria", "brand:wikidata": "Q6685628", "brand:wikipedia": "en:Lou Malnati's Pizzeria", "building": "yes", "cuisine": "pizza", "name": "Lou Malnati's Pizzeria", "website": "https://www.loumalnatis.com/chicago-lincoln-square-north-center"}}, {"type": "way", "id": 209464598, "nodes": [2196816832, 2196817156, 2196817161, 2196816860, 2196816858, 2196816834, 2196816832], "tags": {"addr:city": "Chicago", "addr:housenumber": "2825", "addr:postcode": "60618", "addr:state": "IL", "addr:street": "West Irving Park Road", "addr:street:name": "Irving Park", "addr:street:prefix": "West", "addr:street:type": "Road", "amenity": "bar", "building": "yes", "chicago:building_id": "153642", "name": "Pete\u2019s Place"}}, {"type": "way", "id": 209477174, "nodes": [2196852266, 2196852428, 2196852486, 2196852494, 2196852573, 2196852579, 2196852275, 2196852266], "tags": {"addr:city": "Chicago", "addr:housenumber": "4337", "addr:postcode": "60618", "addr:state": "IL", "addr:street": "North Lincoln Avenue", "amenity": "bar", "cuisine": "burger", "name": "The Northman", "phone": "+1-773-935-2255", "website": "https://thenorthman.com/"}}, {"type": "way", "id": 209477625, "nodes": [2196861228, 2196861414, 2196861555, 2196861651, 2196861579, 2196861620, 2196861689, 2196862158, 2196861772, 2196861551, 2196861408, 2196861353, 2196861315, 2196861327, 2196861228], "tags": {"addr:city": "Chicago", "addr:housenumber": "4518", "addr:postcode": "60625", "addr:state": "IL", "addr:street": "North Lincoln Avenue", "addr:street:name": "Lincoln", "addr:street:prefix": "North", "addr:street:type": "Avenue", "amenity": "restaurant", "building": "yes", "building:levels": "2", "chicago:building_id": "119785", "cuisine": "french", "name": "Bistro Campagne", "phone": "+1-773-271-6100", "website": "http://www.bistrocampagne.com/"}}, {"type": "way", "id": 209478172, "nodes": [2196877836, 2196878328, 2196877665, 2196877059, 2196877474, 2196877628, 2196877836], "tags": {"addr:city": "Chicago", "addr:housenumber": "4736-4738", "addr:postcode": "60625", "addr:state": "IL", "addr:street": "North Lincoln Avenue", "addr:street:name": "Lincoln", "addr:street:prefix": "North", "addr:street:type": "Avenue", "amenity": "cafe", "building": "yes", "chicago:building_id": "857720", "cuisine": "coffee_shop", "internet_access": "wlan", "name": "The Book Cellar", "phone": "+1-773-293-2665", "shop": "books", "website": "https://www.bookcellarinc.com/", "wheelchair": "yes"}}]}