{"version": 0.6, "generator": "Overpass API 0.7.56.3 eb200aeb", "osm3s": {"timestamp_osm_base": "2020-07-20T22:05:02Z", "copyright": "The data included in this document is from www.openstreetmap.org. The data is made available under ODbL."}, "elements": [{"type": "node", "id": 306741002, "lat": 41.8914114, "lon": -87.6096584, "tags": {"amenity": "restaurant", "name": "Bubba Gump Shrimp Co.", "wheelchair": "yes"}}, {"type": "node", "id": 792325825, "lat": 41.8850607, "lon": -87.6217926}, {"type": "node", "id": 792325828, "lat": 41.8850684, "lon": -87.6212259}, {"type": "node", "id": 792325831, "lat": 41.8855018, "lon": -87.6212367}, {"type": "node", "id": 792325834, "lat": 41.8854954, "lon": -87.6218033}, {"type": "node", "id": 1579399010, "lat": 41.8850928, "lon": -87.6211565}, {"type": "node", "id": 1648217475, "lat": 41.8932428, "lon": -87.6204681, "tags": {"addr:city": "Chicago", "addr:housenumber": "622", "addr:postcode": "60611", "addr:state": "IL", "addr:street": "North Fairbanks Court", "amenity": "restaurant", "name": "Timothy O\u2019Toole\u2019s Pub - Chicago", "phone": "+1-312-642-0700", "website": "http://www.timothyotooles.com/", "wheelchair": "no"}}, {"type": "node", "id": 1648217552, "lat": 41.8915557, "lon": -87.5999438}, {"type": "node", "id": 1648217562, "lat": 41.8917232, "lon": -87.5999495}, {"type": "node", "id": 1663730890, "lat": 41.8913751, "lon": -87.6225394}, {"type": "node", "id": 1663730900, "lat": 41.8916573, "lon": -87.6225428}, {"type": "node", "id": 1663730902, "lat": 41.8913767, "lon": -87.6224422}, {"type": "node", "id": 1663730933, "lat": 41.8916587, "lon": -87.622448}, {"type": "node", "id": 1830940587, "lat": 41.8846784, "lon": -87.6228175, "tags": {"amenity": "restaurant", "cuisine": "breakfast", "name": "Wildberry Pancakes and Cafe", "opening_hours": "06:30-14:30", "phone": "312-938-9777"}}, {"type": "node", "id": 1854704954, "lat": 41.8850849, "lon": -87.6191156, "tags": {"addr:city": "Chicago", "addr:housenumber": "333", "addr:postcode": "60601", "addr:street": "East Randolph Street", "amenity": "restaurant", "cuisine": "chinese", "name": "Yum Cha Dim Sum Parlor", "note": "Opened April 2014", "phone": "+1 312 946-8885", "website": "http://www.yumchachicago.com"}}, {"type": "node", "id": 2095093507, "lat": 41.8800158, "lon": -87.6223457, "tags": {"amenity": "restaurant", "cuisine": "italian", "name": "Terzo Piano"}}, {"type": "node", "id": 2210757406, "lat": 41.8915938, "lon": -87.6000308}, {"type": "node", "id": 2210757407, "lat": 41.8915924, "lon": -87.6001006}, {"type": "node", "id": 2210757410, "lat": 41.8916816, "lon": -87.6000339}, {"type": "node", "id": 2210757411, "lat": 41.8916802, "lon": -87.6001037}, {"type": "node", "id": 2292889299, "lat": 41.8853925, "lon": -87.6186399, "tags": {"addr:city": "Chicago", "addr:housenumber": "333", "addr:postcode": "60601", "addr:state": "IL", "addr:street": "East Benton Place", "amenity": "restaurant", "cuisine": "diner", "name": "Eggy's", "phone": "+1-773-234-3449", "source": "survey", "website": "https://www.eggysdiner.com/locations/chicago/"}}, {"type": "node", "id": 2339944269, "lat": 41.8931098, "lon": -87.6131642, "tags": {"addr:housename": "Caff\u00e8 Oliva", "addr:housenumber": "550", "addr:postcode": "60611", "addr:street": "East Grand Avenue", "amenity": "restaurant", "cuisine": "international", "name": "Caff\u00e8 Oliva", "source": "www.caffeoliva.com", "website": "https://www.caffeoliva.com/"}}, {"type": "node", "id": 2391278936, "lat": 41.8854601, "lon": -87.6218723, "tags": {"entrance": "yes"}}, {"type": "node", "id": 2391278941, "lat": 41.8855495, "lon": -87.621512, "tags": {"entrance": "yes"}}, {"type": "node", "id": 2391283010, "lat": 41.8851112, "lon": -87.6218641, "tags": {"entrance": "yes"}}, {"type": "node", "id": 2438340739, "lat": 41.8850138, "lon": -87.6215013, "tags": {"entrance": "yes"}}, {"type": "node", "id": 2553708327, "lat": 41.88541, "lon": -87.61763, "tags": {"addr:housenumber": "180", "addr:street": "North Field Boulevard", "amenity": "restaurant", "cuisine": "steak_house", "internet_access": "wlan", "internet_access:fee": "no", "microbrewery": "no", "name": "III Forks", "organic": "no", "outdoor_seating": "yes", "smoking": "no", "takeaway": "no", "wheelchair": "yes"}}, {"type": "node", "id": 2708231824, "lat": 41.8921642, "lon": -87.6180984, "tags": {"addr:city": "Chicago", "addr:housenumber": "355", "addr:postcode": "60611", "addr:state": "IL", "addr:street": "East Ohio Street", "amenity": "cafe", "cuisine": "breakfast", "internet_access": "no", "name": "Yolk", "phone": "+1-312-822-9655", "website": "https://www.eatyolk.com/", "wheelchair": "yes"}}, {"type": "node", "id": 2708232525, "lat": 41.8942859, "lon": -87.6229601, "tags": {"amenity": "cafe", "cuisine": "breakfast", "name": "The Corner Bakery"}}, {"type": "node", "id": 2884825219, "lat": 41.8850104, "lon": -87.6217639}, {"type": "node", "id": 2884825220, "lat": 41.885017, "lon": -87.621252}, {"type": "node", "id": 2884825221, "lat": 41.8850311, "lon": -87.6217919}, {"type": "node", "id": 2884825222, "lat": 41.8850383, "lon": -87.6212252}, {"type": "node", "id": 2884825223, "lat": 41.8850602, "lon": -87.6218312}, {"type": "node", "id": 2884825224, "lat": 41.8850689, "lon": -87.6211867}, {"type": "node", "id": 2884825225, "lat": 41.8850841, "lon": -87.6218635}, {"type": "node", "id": 2884825230, "lat": 41.8854699, "lon": -87.6218725}, {"type": "node", "id": 2884825231, "lat": 41.8854796, "lon": -87.6211655}, {"type": "node", "id": 2884825232, "lat": 41.8854949, "lon": -87.621841}, {"type": "node", "id": 2884825233, "lat": 41.8855024, "lon": -87.6211964}, {"type": "node", "id": 2884825234, "lat": 41.8855244, "lon": -87.6218039}, {"type": "node", "id": 2884825235, "lat": 41.8855327, "lon": -87.6212374}, {"type": "node", "id": 2884825236, "lat": 41.8855461, "lon": -87.6217765}, {"type": "node", "id": 2884825237, "lat": 41.8855528, "lon": -87.6212645}, {"type": "node", "id": 3191761980, "lat": 41.8939959, "lon": -87.622591, "tags": {"amenity": "cafe", "brand": "Starbucks", "brand:wikidata": "Q37158", "brand:wikipedia": "en:Starbucks", "cuisine": "coffee_shop", "internet_access": "wlan", "name": "Starbucks", "official_name": "Starbucks Coffee", "takeaway": "yes"}}, {"type": "node", "id": 3399988513, "lat": 41.8919137, "lon": -87.6229257, "tags": {"amenity": "restaurant", "cuisine": "burger", "name": "Chef's Burger Bistro"}}, {"type": "node", "id": 3468511745, "lat": 41.8913274, "lon": -87.6085962, "tags": {"amenity": "bar", "name": "Margaritaville"}}, {"type": "node", "id": 3549524275, "lat": 41.8862551, "lon": -87.6215867, "tags": {"amenity": "cafe", "brand": "Starbucks", "brand:wikidata": "Q37158", "brand:wikipedia": "en:Starbucks", "cuisine": "coffee_shop", "name": "Starbucks", "official_name": "Starbucks Coffee", "takeaway": "yes"}}, {"type": "node", "id": 3551677217, "lat": 41.8931548, "lon": -87.6204496, "tags": {"amenity": "cafe", "name": "West Egg", "wheelchair": "yes"}}, {"type": "node", "id": 3551688266, "lat": 41.8932431, "lon": -87.6208409, "tags": {"amenity": "restaurant", "cuisine": "indian", "name": "Indian Garden"}}, {"type": "node", "id": 3551688415, "lat": 41.8924751, "lon": -87.6187471, "tags": {"addr:city": "Chicago", "addr:housenumber": "345", "addr:postcode": "60611", "addr:state": "IL", "addr:street": "East Ohio Street", "amenity": "cafe", "name": "Dollop Coffee", "phone": "+1-312-929-4007", "website": "https://dollop.coffee/", "wheelchair": "yes"}}, {"type": "node", "id": 3575163023, "lat": 41.893236, "lon": -87.6221111, "tags": {"amenity": "cafe", "name": "Julius Meinl"}}, {"type": "node", "id": 3575163024, "lat": 41.893236, "lon": -87.6217893, "tags": {"amenity": "restaurant", "brand": "Blaze Pizza", "brand:wikidata": "Q23016666", "brand:wikipedia": "en:Blaze Pizza", "cuisine": "pizza", "name": "Blaze Pizza"}}, {"type": "node", "id": 3575163025, "lat": 41.893234, "lon": -87.6215908, "tags": {"amenity": "restaurant", "cuisine": "burger", "name": "Epic Burger"}}, {"type": "node", "id": 3575164510, "lat": 41.8927469, "lon": -87.6215023, "tags": {"amenity": "restaurant", "cuisine": "thai", "name": "Dao"}}, {"type": "node", "id": 3575164511, "lat": 41.8923735, "lon": -87.6211134, "tags": {"amenity": "restaurant", "cuisine": "spanish", "name": "Emilios Tapas"}}, {"type": "node", "id": 3575164512, "lat": 41.8927289, "lon": -87.622079, "tags": {"amenity": "restaurant", "cuisine": "italian", "name": "Tre Soldi"}}, {"type": "node", "id": 3575164513, "lat": 41.8927269, "lon": -87.6222426, "tags": {"addr:city": "Chicago", "addr:housenumber": "210", "addr:postcode": "60611", "addr:state": "IL", "addr:street": "East Ohio Street", "amenity": "restaurant", "cuisine": "japanese", "name": "Gyu-Kaku", "phone": "+1-312-266-8929", "website": "https://www.gyu-kaku.com"}}, {"type": "node", "id": 3575164515, "lat": 41.892702, "lon": -87.6231371, "tags": {"addr:city": "Chicago", "addr:housenumber": "162", "addr:postcode": "60611", "addr:state": "Il", "addr:street": "East Ohio Street", "amenity": "cafe", "cuisine": "coffee_shop", "name": "Kafenio Lavazza", "phone": "+1-312-255-8850", "website": "http://www.kafeniochicago.com/"}}, {"type": "node", "id": 3575181784, "lat": 41.8933007, "lon": -87.6175766, "tags": {"amenity": "cafe", "brand": "Starbucks", "brand:wikidata": "Q37158", "brand:wikipedia": "en:Starbucks", "cuisine": "coffee_shop", "name": "Starbucks", "official_name": "Starbucks Coffee", "takeaway": "yes"}}, {"type": "node", "id": 3575181785, "lat": 41.893127, "lon": -87.6175793, "tags": {"amenity": "restaurant", "name": "Local Root"}}, {"type": "node", "id": 3575181786, "lat": 41.8924821, "lon": -87.6184376, "tags": {"amenity": "restaurant", "cuisine": "pizza", "name": "Robert's Pizza Company"}}, {"type": "node", "id": 3917218261, "lat": 41.8924038, "lon": -87.6212638, "tags": {"amenity": "restaurant", "name": "Ramen MisoYa"}}, {"type": "node", "id": 3918944637, "lat": 41.8897262, "lon": -87.6212705, "tags": {"amenity": "cafe", "name": "Illy"}}, {"type": "node", "id": 3985040972, "lat": 41.8861962, "lon": -87.6129597, "tags": {"amenity": "restaurant", "cuisine": "chinese", "name": "Friendship Chinese"}}, {"type": "node", "id": 4025392540, "lat": 41.891197, "lon": -87.6007772}, {"type": "node", "id": 4025392541, "lat": 41.8911984, "lon": -87.6007258}, {"type": "node", "id": 4097813076, "lat": 41.8909495, "lon": -87.6162491, "tags": {"addr:city": "Chicago", "addr:housenumber": "435", "addr:postcode": "60611", "addr:state": "IL", "addr:street": "East Illinois Street", "amenity": "restaurant", "name": "Pinstripes", "opening_hours": "11:30-23:00", "phone": "+1-312-527-3010", "takeaway": "yes", "website": "https://pinstripes.com/chicago-illinois/", "wheelchair": "limited"}}, {"type": "node", "id": 4130928516, "lat": 41.8939159, "lon": -87.6208256, "tags": {"addr:city": "Chicago", "addr:housenumber": "259", "addr:street": "East Erie Street", "amenity": "bar", "description": "18th Floor", "name": "GreenRiver"}}, {"type": "node", "id": 4130928517, "lat": 41.8935535, "lon": -87.6205329, "tags": {"amenity": "restaurant", "name": "Lyfe Kitchen"}}, {"type": "node", "id": 4222717943, "lat": 41.8906383, "lon": -87.6173152, "tags": {"amenity": "cafe", "brand": "Starbucks", "brand:wikidata": "Q37158", "brand:wikipedia": "en:Starbucks", "cuisine": "coffee_shop", "name": "Starbucks", "official_name": "Starbucks Coffee", "takeaway": "yes"}}, {"type": "node", "id": 4222717945, "lat": 41.8912617, "lon": -87.6149427, "tags": {"addr:city": "Chicago", "addr:housenumber": "502", "addr:postcode": "60611", "addr:state": "IL", "addr:street": "East Illinois Street", "amenity": "restaurant", "name": "Kanela Breakfast Club", "phone": "+1-312-380-0071", "website": "http://www.kanelabreakfastclub.com/"}}, {"type": "node", "id": 4222717946, "lat": 41.8912044, "lon": -87.6187447, "tags": {"amenity": "restaurant", "name": "Niu Japanese Fusion"}}, {"type": "node", "id": 4306418293, "lat": 41.8882819, "lon": -87.6215145, "tags": {"amenity": "cafe", "name": "Cyrano's Caf\u00e9 & Wine Bar", "opening_hours": "Mo-Su 11:00-22:00"}}, {"type": "node", "id": 4306493789, "lat": 41.8880159, "lon": -87.6187797, "tags": {"amenity": "bar", "name": "Island Party Hut"}}, {"type": "node", "id": 4634046603, "lat": 41.8866803, "lon": -87.6167118, "tags": {"amenity": "cafe", "leisure": "picnic_table", "name": "ROM", "outdoor_seating": "yes"}}, {"type": "node", "id": 4737382944, "lat": 41.8914743, "lon": -87.6068822, "tags": {"addr:city": "Chicago", "addr:housenumber": "600", "addr:postcode": "60611", "addr:state": "IL", "addr:street": "East Grand Avenue", "amenity": "restaurant", "cuisine": "mexican", "name": "Xurro", "website": "https://www.churrofactory.com/", "website:yelp": "https://www.yelp.com/biz/porkchop-bbq-chicago-2"}}, {"type": "node", "id": 4737390811, "lat": 41.891302, "lon": -87.6046487, "tags": {"addr:city": "Chicago", "addr:housenumber": "700", "addr:postcode": "60611", "addr:state": "IL", "addr:street": "East Grand Avenue", "amenity": "restaurant", "cuisine": "seafood", "name": "Riva Crabhouse", "phone": "+1-312-644-7482", "website": "https://www.rivanavypier.com/", "website:tripadvisor": "https://www.tripadvisor.com/ShowUserReviews-g35805-d142948-r243048173-Navy_Pier-Chicago_Illinois.html", "website:yelp": "https://www.yelp.com/biz/riva-chicago"}}, {"type": "node", "id": 4753133272, "lat": 41.8951218, "lon": -87.6159872}, {"type": "node", "id": 4753133273, "lat": 41.8943551, "lon": -87.6155903}, {"type": "node", "id": 4753133274, "lat": 41.8967789, "lon": -87.6170666}, {"type": "node", "id": 4753133275, "lat": 41.8967123, "lon": -87.6228676}, {"type": "node", "id": 4753133276, "lat": 41.8934615, "lon": -87.6212048}, {"type": "node", "id": 5009406229, "lat": 41.8948959, "lon": -87.6228478}, {"type": "node", "id": 5009406230, "lat": 41.894893, "lon": -87.6234891}, {"type": "node", "id": 5009406231, "lat": 41.8942213, "lon": -87.6234767}, {"type": "node", "id": 5009406232, "lat": 41.8938634, "lon": -87.6217727}, {"type": "node", "id": 5009406233, "lat": 41.8942391, "lon": -87.6217772}, {"type": "node", "id": 5009406234, "lat": 41.8938791, "lon": -87.6212125}, {"type": "node", "id": 5009406235, "lat": 41.8934672, "lon": -87.6204091}, {"type": "node", "id": 5009406236, "lat": 41.8934962, "lon": -87.6189642}, {"type": "node", "id": 5009406237, "lat": 41.8942855, "lon": -87.6189941}, {"type": "node", "id": 5029780821, "lat": 41.8940244, "lon": -87.6215054, "tags": {"addr:postcode": "60611", "amenity": "cafe", "cuisine": "american", "name": "Do - Rite Donuts & Chicken", "phone": "(312)344-1374"}}, {"type": "node", "id": 5417352970, "lat": 41.8768441, "lon": -87.6187621}, {"type": "node", "id": 5417352971, "lat": 41.8768443, "lon": -87.6187353}, {"type": "node", "id": 5417352972, "lat": 41.8768602, "lon": -87.6187305}, {"type": "node", "id": 5417352973, "lat": 41.8768718, "lon": -87.6187169}, {"type": "node", "id": 5417352974, "lat": 41.8768745, "lon": -87.6186959}, {"type": "node", "id": 5417352975, "lat": 41.876872, "lon": -87.6186753}, {"type": "node", "id": 5417352976, "lat": 41.8768587, "lon": -87.6186593}, {"type": "node", "id": 5417352977, "lat": 41.8768447, "lon": -87.6186556}, {"type": "node", "id": 5417352978, "lat": 41.8768449, "lon": -87.6186256}, {"type": "node", "id": 5417352979, "lat": 41.8767264, "lon": -87.6186244}, {"type": "node", "id": 5417352980, "lat": 41.8767263, "lon": -87.6186565}, {"type": "node", "id": 5417352981, "lat": 41.8767079, "lon": -87.6186615}, {"type": "node", "id": 5417352982, "lat": 41.8767014, "lon": -87.6186741}, {"type": "node", "id": 5417352983, "lat": 41.8766955, "lon": -87.6186952}, {"type": "node", "id": 5417352984, "lat": 41.8767012, "lon": -87.6187157}, {"type": "node", "id": 5417352985, "lat": 41.876709, "lon": -87.6187278}, {"type": "node", "id": 5417352986, "lat": 41.8767258, "lon": -87.6187392}, {"type": "node", "id": 5417352987, "lat": 41.8767257, "lon": -87.618761}, {"type": "node", "id": 5756706729, "lat": 41.8931636, "lon": -87.6215926, "tags": {"addr:housenumber": "227", "amenity": "restaurant", "brand": "Nando's", "brand:wikidata": "Q3472954", "brand:wikipedia": "en:Nando's", "cuisine": "chicken;portuguese", "name": "Nando's"}}, {"type": "node", "id": 5825114811, "lat": 41.8861341, "lon": -87.6209122, "tags": {"addr:city": "Chicago", "addr:housenumber": "200", "addr:postcode": "60601", "addr:state": "IL", "addr:street": "North Columbus Service Drive", "amenity": "bar", "name": "Columbus Tap", "phone": "+1-312-565-6644", "website": "https://www.columbustap.com/"}}, {"type": "node", "id": 5954587020, "lat": 41.8912513, "lon": -87.6119668, "tags": {"addr:city": "Chicago", "addr:housenumber": "580", "addr:postcode": "60611", "addr:state": "IL", "addr:street": "East Illinois Street", "amenity": "restaurant", "cuisine": "mexican", "name": "Casa Margarita", "opening_hours": "Mo-Su 11:00-10:30"}}, {"type": "node", "id": 6269133412, "lat": 41.8848467, "lon": -87.6187821, "tags": {"addr:city": "Chicago", "addr:housenumber": "340", "addr:postcode": "60601", "addr:state": "IL", "addr:street": "Upper East Randolph Street", "amenity": "restaurant", "name": "Brown Bag Seafood", "phone": "+1-312-496-3999", "website": "https://www.brownbagseafood.com/home/"}}, {"type": "node", "id": 6269753786, "lat": 41.8798388, "lon": -87.622138, "tags": {"addr:city": "Chicago", "addr:housenumber": "111", "addr:postcode": "60603", "addr:state": "IL", "addr:street": "South Michigan Avenue", "amenity": "restaurant", "name": "Cafe Moderno", "website": "http://www.cafe-moderno.com/"}}, {"type": "node", "id": 6272159727, "lat": 41.8873276, "lon": -87.620108, "tags": {"addr:city": "Chicago", "addr:housenumber": "303", "addr:postcode": "60601", "addr:state": "IL", "addr:street": "East Wacker Drive", "amenity": "cafe", "name": "Bake For Me", "outdoor_seating": "yes", "phone": "+1-312-228-9676", "website": "http://www.bakeforme.com/bfm-locations-303-east-wacker.html"}}, {"type": "node", "id": 6272398247, "lat": 41.8927553, "lon": -87.6224945, "tags": {"addr:city": "Chicago", "addr:housenumber": "200", "addr:postcode": "60611", "addr:state": "IL", "addr:street": "East Ohio Street", "amenity": "cafe", "name": "Baskin-Robbins / Dunkin\u2019 Donuts", "phone": "+1-312-787-9055", "website": "https://www.baskinrobbins.com/content/baskinrobbins/en.html"}}, {"type": "node", "id": 6282415461, "lat": 41.889071, "lon": -87.6198699, "tags": {"addr:city": "Chicago", "addr:housenumber": "301", "addr:postcode": "60611", "addr:state": "IL", "addr:street": "East North Water Street", "amenity": "bar", "name": "Chi Bar", "phone": "+1-312-755-2227", "website": "https://www.achiga.io/site-down/"}}, {"type": "node", "id": 6282807044, "lat": 41.8901774, "lon": -87.6210884, "tags": {"addr:city": "Chicago", "addr:housenumber": "455", "addr:postcode": "60611", "addr:state": "IL", "addr:street": "North Cityfront Plaza Drive", "amenity": "cafe", "cuisine": "coffee_shop", "name": "Cityfront Cafe", "phone": "+1-312-374-1169", "website": "https://www.cityfrontcafe.com/"}}, {"type": "node", "id": 6283430331, "lat": 41.8931757, "lon": -87.6229652, "tags": {"addr:city": "Chicago", "addr:housenumber": "155", "addr:postcode": "60611", "addr:state": "IL", "addr:street": "East Ontario Street", "amenity": "restaurant", "name": "Copper Fox Gastropub", "phone": "+1-312-255-8505", "website": "https://copperfoxchicago.com/"}}, {"type": "node", "id": 6284038647, "lat": 41.8909189, "lon": -87.6155741, "tags": {"addr:city": "Chicago", "addr:housenumber": "455", "addr:postcode": "60611", "addr:state": "IL", "addr:street": "East Illinois Street", "amenity": "cafe", "name": "Cupitol Coffee & Eatery", "phone": "+1-312-414-1400", "website": "https://cupitol.com/"}}, {"type": "node", "id": 6284067097, "lat": 41.892086, "lon": -87.6192076, "tags": {"addr:city": "Chicago", "addr:housenumber": "345", "addr:postcode": "60611", "addr:state": "IL", "addr:street": "East Ohio Street", "amenity": "bar", "name": "D4 Irish Pub & Cafe", "phone": "+1-312-624-8385", "website": "http://d4pub.com/"}}, {"type": "node", "id": 6284530630, "lat": 41.8940165, "lon": -87.6216897, "tags": {"addr:city": "Chicago", "addr:housenumber": "233", "addr:postcode": "60611", "addr:state": "IL", "addr:street": "East Erie Street", "amenity": "restaurant", "name": "Do-Rite Donuts & Chicken", "phone": "+1-312-344-1374", "website": "http://doritedonuts.com/"}}, {"type": "node", "id": 6284833185, "lat": 41.8867541, "lon": -87.6168158, "tags": {"addr:city": "Chicago", "addr:housenumber": "400", "addr:postcode": "60601", "addr:state": "IL", "addr:street": "East South Water Street", "amenity": "cafe", "name": "Drunken Bean", "phone": "+1-312-549-8000", "website": "https://www.drunkenbeancafe.com/"}}, {"type": "node", "id": 6290938945, "lat": 41.8920723, "lon": -87.616159, "tags": {"addr:city": "Chicago", "addr:housenumber": "440", "addr:postcode": "60611", "addr:state": "IL", "addr:street": "East Grand Avenue", "amenity": "bar", "name": "Flamingo Bar & Grill", "phone": "+1-312-222-0901"}}, {"type": "node", "id": 6291823782, "lat": 41.8918168, "lon": -87.6095322, "tags": {"addr:city": "Chicago", "addr:housenumber": "700", "addr:postcode": "60611", "addr:state": "Il", "addr:street": "East Grand Avenue", "amenity": "restaurant", "cuisine": "pizza", "name": "Giordano\u2019s - Navy Pier;Giordano's Pizza", "phone": "+1-312-288-8783", "website": "https://giordanos.com/locations/navy-pier/"}}, {"type": "node", "id": 6291863980, "lat": 41.8916193, "lon": -87.6208279, "tags": {"addr:city": "Chicago", "addr:housenumber": "255", "addr:postcode": "60611", "addr:state": "IL", "addr:street": "East Grand Avenue", "amenity": "cafe", "name": "Glass & Cup Coffee And Wine Bar"}}, {"type": "node", "id": 6294193504, "lat": 41.8918517, "lon": -87.6096704, "tags": {"addr:city": "Chicago", "addr:housenumber": "700", "addr:postcode": "60611", "addr:state": "IL", "addr:street": "East Grand Avenue", "amenity": "restaurant", "name": "Harry Caray\u2019s Tavern", "phone": "+1-312-527-9700", "website": "https://www.harrycarays.com/harry-carays-tavern-navy-pier.html"}}, {"type": "node", "id": 6300350303, "lat": 41.8937027, "lon": -87.6209638, "tags": {"addr:city": "Chicago", "addr:housenumber": "259", "addr:postcode": "60611", "addr:state": "IL", "addr:street": "East Erie Street", "amenity": "cafe", "name": "Stan\u2019s Donuts & Coffee", "phone": "+1-312-255-1130", "website": "https://www.stansdonuts.com/"}}, {"type": "node", "id": 6300573021, "lat": 41.8924248, "lon": -87.6216836, "tags": {"addr:city": "Chicago", "addr:housenumber": "213", "addr:postcode": "60611", "addr:state": "IL", "addr:street": "East Ohio Street", "amenity": "restaurant", "name": "Ramen Misoya", "phone": "+1-312-496-3566", "website": "https://misoya.net/"}}, {"type": "node", "id": 6300739597, "lat": 41.8915969, "lon": -87.620825, "tags": {"addr:city": "Chicago", "addr:housenumber": "255", "addr:postcode": "60611", "addr:state": "IL", "addr:street": "East Grand Avenue", "amenity": "bar", "name": "The Red Star Bar", "phone": "+1-312-379-7900", "website": "http://www.redstarbar.us/"}}, {"type": "node", "id": 6301005156, "lat": 41.8917824, "lon": -87.6094511, "tags": {"addr:city": "Chicago", "addr:housenumber": "700", "addr:postcode": "60611", "addr:state": "IL", "addr:street": "East Grand Avenue", "amenity": "cafe", "name": "Riva Crabhouse", "phone": "+1-312-644-7482", "website": "https://www.rivanavypier.com/"}}, {"type": "node", "id": 6304579210, "lat": 41.8912397, "lon": -87.6055872, "tags": {"addr:city": "Chicago", "addr:housenumber": "600", "addr:postcode": "60611", "addr:state": "IL", "addr:street": "East Grand Avenue", "amenity": "bar", "name": "Tiny Tavern", "phone": "+1-312-374-3923", "website": "http://www.tinytavern.com/"}}, {"type": "node", "id": 6305240475, "lat": 41.8861805, "lon": -87.6210463, "tags": {"addr:city": "Chicago", "addr:housenumber": "200", "addr:postcode": "60601", "addr:state": "IL", "addr:street": "North Columbus Service Drive", "amenity": "bar", "name": "THE BAR", "phone": "+1-312-565-8000", "website": "thebarinchicago.com"}}, {"type": "node", "id": 6306543282, "lat": 41.8938944, "lon": -87.6225092, "tags": {"addr:city": "Chicago", "addr:housenumber": "633", "addr:postcode": "60611", "addr:state": "IL", "addr:street": "North Saint Clair Street", "amenity": "restaurant", "name": "The Capital Grille", "phone": "+1-312-337-9400"}}, {"type": "node", "id": 6316619846, "lat": 41.8915854, "lon": -87.6225213, "tags": {"addr:city": "Chicago", "addr:housenumber": "201", "addr:postcode": "60611", "addr:state": "IL", "addr:street": "East Grand Avenue", "amenity": "restaurant", "name": "Volare Ristorante Italiano", "phone": "+1-312-410-9900", "website": "https://www.volarerestaurant.com/"}}, {"type": "node", "id": 6322563193, "lat": 41.8936646, "lon": -87.6216288, "tags": {"addr:city": "Chicago", "addr:housenumber": "228", "addr:postcode": "60611", "addr:state": "IL", "addr:street": "East Ontario Street", "addr:unit": "1", "amenity": "restaurant", "name": "The Albert", "phone": "+1-312-471-3883", "website": "https://thealbertchicago.com/"}}, {"type": "node", "id": 6323011921, "lat": 41.8931273, "lon": -87.6220066, "tags": {"addr:city": "Chicago", "addr:housenumber": "211", "addr:postcode": "60611", "addr:state": "IL", "addr:street": "East Ontario Street", "amenity": "bar", "name": "Murasaki Lounge", "phone": "+1-312-266-2280", "website": "http://murasakichicago.com/"}}, {"type": "node", "id": 6324376885, "lat": 41.8891535, "lon": -87.619764, "tags": {"addr:city": "Chicago", "addr:housenumber": "301", "addr:postcode": "60611", "addr:state": "IL", "addr:street": "East North Water Street", "amenity": "cafe", "name": "The Link@Sheraton Cafe", "website": "https://www.marriott.com/hotels/hotel-information/restaurant/chigs-sheraton-grand-chicago?program=spg"}}, {"type": "node", "id": 6324385517, "lat": 41.8874524, "lon": -87.6216548, "tags": {"addr:city": "Chicago", "addr:housenumber": "151", "addr:postcode": "60601", "addr:state": "IL", "addr:street": "East Upper Wacker Drive", "amenity": "restaurant", "name": "The Living Room", "phone": "+1-312-565-1234", "website": "https://www.hyatt.com/en-US/hotel/illinois/hyatt-regency-chicago/chirc/dining"}}, {"type": "node", "id": 6324386441, "lat": 41.8938743, "lon": -87.6156667, "tags": {"addr:city": "Chicago", "addr:housenumber": "644", "addr:postcode": "60611", "addr:state": "IL", "addr:street": "North Lake Shore Drive", "amenity": "bar", "name": "The Living Room Bar", "phone": "+1-312-943-9200", "website": "https://www.marriott.com/hotels/hotel-information/restaurant/chiwh-w-chicago-lakeshore?program=spg"}}, {"type": "node", "id": 6325990674, "lat": 41.8907631, "lon": -87.6172397, "tags": {"addr:city": "Chicago", "addr:housenumber": "465", "addr:postcode": "60611", "addr:state": "IL", "addr:street": "North McClurg Court", "amenity": "bar", "name": "Winter\u2019s Jazz Club", "website": "https://www.wintersjazzclub.com/"}}, {"type": "node", "id": 6326350643, "lat": 41.8873394, "lon": -87.6215813, "tags": {"addr:city": "Chicago", "addr:housenumber": "151", "addr:postcode": "60601", "addr:state": "IL", "addr:street": "East South Water Street", "amenity": "cafe", "name": "Market Chicago"}}, {"type": "node", "id": 6326420731, "lat": 41.8852755, "lon": -87.6187686, "tags": {"addr:city": "Chicago", "addr:housenumber": "333", "addr:postcode": "60601", "addr:state": "IL", "addr:street": "East Benton Place", "amenity": "restaurant", "name": "MingHin Cuisine", "phone": "+1-312-228-1333", "website": "https://www.minghincuisine.com/"}}, {"type": "node", "id": 6326468590, "lat": 41.8936676, "lon": -87.6217796, "tags": {"addr:city": "Chicago", "addr:housenumber": "222", "addr:postcode": "60611", "addr:state": "IL", "addr:street": "East Ontario Street", "amenity": "restaurant", "name": "Les Nomades", "phone": "+1-312-649-9010", "website": "http://www.lesnomades.net/"}}, {"type": "node", "id": 6356726511, "lat": 41.8898716, "lon": -87.6193007, "tags": {"addr:city": "Chicago", "addr:housenumber": "455", "addr:postcode": "60611", "addr:state": "IL", "addr:street": "North Park Drive", "amenity": "restaurant", "cuisine": "american", "name": "ETA Restaurant + Bar", "opening_hours": "Mo-Th 06:30-21:00; Fr 06:30-22:00; Sa 07:00-22:00; Su 07:00-21:00", "phone": "+1-312-840-6605", "website": "https://www.etarestaurantandbar.com/"}}, {"type": "node", "id": 6407510885, "lat": 41.8919786, "lon": -87.6229324, "tags": {"addr:city": "Chicago", "addr:housenumber": "164", "addr:postcode": "60611", "addr:state": "IL", "addr:street": "East Grand Avenue", "amenity": "restaurant", "cuisine": "seafood", "name": "The Hampton Social", "opening_hours": "Mo-Th 11:00-22:00; Fr-Sa 11:00-23:00; Su 10:00-22:00", "phone": "+1-312-414-1861", "website": "https://www.hamptonsocial.com"}}, {"type": "node", "id": 6466670487, "lat": 41.8919449, "lon": -87.6224525, "tags": {"amenity": "restaurant", "name": "Hampton social"}}, {"type": "node", "id": 6466677386, "lat": 41.8925119, "lon": -87.6184597, "tags": {"amenity": "restaurant", "name": "Streeterville pizzeria and tap"}}, {"type": "node", "id": 6642064379, "lat": 41.8912599, "lon": -87.6068669, "tags": {"addr:city": "Chicago", "addr:housenumber": "600", "addr:postcode": "60611", "addr:state": "IL", "addr:street": "East Grand Avenue", "amenity": "restaurant", "cuisine": "middle_eastern;mediterranean", "name": "IDOF - I Dream Of Falafel", "website": "http://www.idreamoffalafel.com/"}}, {"type": "node", "id": 6642189001, "lat": 41.8918326, "lon": -87.6005376, "tags": {"addr:city": "Chicago", "addr:housenumber": "100", "addr:postcode": "60611", "addr:state": "IL", "addr:street": "East Grand Avenue", "amenity": "bar", "name": "Offshore Chicago", "phone": "+1-312-535-6660", "website": "https://www.drinkoffshore.com/"}}, {"type": "node", "id": 6939644064, "lat": 41.89167, "lon": -87.6006955}, {"type": "node", "id": 6939644065, "lat": 41.8915822, "lon": -87.6006913}, {"type": "node", "id": 6939644066, "lat": 41.8915803, "lon": -87.600761}, {"type": "node", "id": 6939644067, "lat": 41.8916681, "lon": -87.6007652}, {"type": "node", "id": 7035168288, "lat": 41.8917118, "lon": -87.6008226}, {"type": "node", "id": 7035168294, "lat": 41.8915495, "lon": -87.6008145}, {"type": "node", "id": 7035168295, "lat": 41.8912184, "lon": -87.6007782}, {"type": "node", "id": 7035168296, "lat": 41.8912178, "lon": -87.6008766}, {"type": "node", "id": 7035168297, "lat": 41.8914027, "lon": -87.6008827}, {"type": "node", "id": 7035168298, "lat": 41.8914066, "lon": -87.600656}, {"type": "node", "id": 7035168299, "lat": 41.8912204, "lon": -87.600652}, {"type": "node", "id": 7035168300, "lat": 41.8912194, "lon": -87.6007273}, {"type": "node", "id": 7035168327, "lat": 41.891404, "lon": -87.6008044}, {"type": "node", "id": 7035168331, "lat": 41.8913411, "lon": -87.6008809}, {"type": "node", "id": 7035168332, "lat": 41.8914053, "lon": -87.6007298}, {"type": "node", "id": 7035168337, "lat": 41.8912197, "lon": -87.6007094}, {"type": "node", "id": 7035168338, "lat": 41.8912918, "lon": -87.6008792}, {"type": "node", "id": 7035168342, "lat": 41.8912186, "lon": -87.6007953}, {"type": "node", "id": 7035168345, "lat": 41.8912294, "lon": -87.6044402}, {"type": "node", "id": 7035168346, "lat": 41.8912482, "lon": -87.6044408}, {"type": "node", "id": 7035168353, "lat": 41.8912154, "lon": -87.6051804}, {"type": "node", "id": 7035168354, "lat": 41.8912325, "lon": -87.6051811}, {"type": "node", "id": 7040062385, "lat": 41.8912965, "lon": -87.6049776, "tags": {"amenity": "bar", "name": "Billy Goat Tavern & Grill"}}, {"type": "node", "id": 7040062393, "lat": 41.8912305, "lon": -87.6043816}, {"type": "node", "id": 7040062394, "lat": 41.8912391, "lon": -87.6043819}, {"type": "node", "id": 7040062436, "lat": 41.8912533, "lon": -87.6043824}, {"type": "node", "id": 7040062437, "lat": 41.8912522, "lon": -87.604441}, {"type": "node", "id": 7040062494, "lat": 41.8912313, "lon": -87.6052387}, {"type": "node", "id": 7040062500, "lat": 41.8912142, "lon": -87.6052381}, {"type": "node", "id": 7040062546, "lat": 41.8917117, "lon": -87.6007622}, {"type": "node", "id": 7040062611, "lat": 41.8915517, "lon": -87.5999864}, {"type": "node", "id": 7040062615, "lat": 41.8915605, "lon": -87.6000745}, {"type": "node", "id": 7040062618, "lat": 41.8915494, "lon": -87.6000737}, {"type": "node", "id": 7040062621, "lat": 41.89156, "lon": -87.600113}, {"type": "node", "id": 7040062624, "lat": 41.8915591, "lon": -87.600171}, {"type": "node", "id": 7040062626, "lat": 41.8915603, "lon": -87.6000936}, {"type": "node", "id": 7040062628, "lat": 41.8915562, "lon": -87.6003616}, {"type": "node", "id": 7040062630, "lat": 41.8915512, "lon": -87.6006984}, {"type": "node", "id": 7040062635, "lat": 41.8915497, "lon": -87.6007951}, {"type": "node", "id": 7040062636, "lat": 41.8915499, "lon": -87.6007817}, {"type": "node", "id": 7040062638, "lat": 41.8915498, "lon": -87.6007881}, {"type": "node", "id": 7040062639, "lat": 41.8915525, "lon": -87.6006122}, {"type": "node", "id": 7040062642, "lat": 41.8915534, "lon": -87.6005532}, {"type": "node", "id": 7040062643, "lat": 41.8915538, "lon": -87.6005377}, {"type": "node", "id": 7040062646, "lat": 41.8915548, "lon": -87.6004804}, {"type": "node", "id": 7040062647, "lat": 41.8915546, "lon": -87.6004634}, {"type": "node", "id": 7040062650, "lat": 41.8915557, "lon": -87.6004037}, {"type": "node", "id": 7040062651, "lat": 41.8915569, "lon": -87.6003171}, {"type": "node", "id": 7040062654, "lat": 41.8915578, "lon": -87.6002605}, {"type": "node", "id": 7040062655, "lat": 41.8915579, "lon": -87.6002482}, {"type": "node", "id": 7040062658, "lat": 41.8915588, "lon": -87.6001873}, {"type": "node", "id": 7042371121, "lat": 41.8917052, "lon": -87.6008223}, {"type": "way", "id": 64388609, "nodes": [792325825, 2884825221, 2884825219, 2438340739, 2884825220, 2884825222, 792325828, 2884825224, 1579399010, 2884825231, 2884825233, 792325831, 2884825235, 2884825237, 2391278941, 2884825236, 2884825234, 792325834, 2884825232, 2884825230, 2391278936, 2391283010, 2884825225, 2884825223, 792325825], "tags": {"addr:city": "Chicago", "addr:housenumber": "200", "addr:postcode": "60601", "addr:state": "IL", "addr:street": "East Randolph Street", "addr:street:name": "Randolph", "addr:street:prefix": "East", "addr:street:type": "Street", "amenity": "bar", "building": "yes", "building:colour": "white", "building:levels": "83", "chicago:building_id": "353242", "height": "340", "name": "Red Bar", "name:ru": "\u0410\u043e\u043d-\u0446\u0435\u043d\u0442\u0440", "name:uk": "\u0410\u043e\u043d \u0446\u0435\u043d\u0442\u0440", "old_name": "Amoco Tower", "roof:material": "concrete", "roof:shape": "flat", "start_date": "1974", "wikidata": "Q271695", "wikipedia": "en:Aon Center (Chicago)"}}, {"type": "way", "id": 153735901, "nodes": [1663730900, 1663730890, 1663730902, 1663730933, 1663730900], "tags": {"addr:housenumber": "201", "addr:postcode": "60611", "addr:street": "East Grand Avenue", "addr:street:name": "Grand", "addr:street:prefix": "East", "addr:street:type": "Avenue", "amenity": "restaurant", "building": "yes", "building:levels": "2", "chicago:building_id": "347361", "name": "Volare"}}, {"type": "way", "id": 211064223, "nodes": [2210757406, 2210757407, 2210757411, 2210757410, 2210757406], "tags": {"amenity": "bar", "building": "yes", "chicago:building_id": "347124"}}, {"type": "way", "id": 482492795, "nodes": [4753133275, 4753133274, 4753133272, 4753133273, 5009406237, 5009406236, 5009406235, 4753133276, 5009406234, 5009406232, 5009406233, 5009406231, 5009406230, 5009406229, 4753133275], "tags": {"amenity": "university", "internet_access": "wlan", "name": "Northwestern University Chicago Campus", "operator": "Northwestern University", "wikidata": "Q7060409"}}, {"type": "way", "id": 561883764, "nodes": [5417352970, 5417352971, 5417352972, 5417352973, 5417352974, 5417352975, 5417352976, 5417352977, 5417352978, 5417352979, 5417352980, 5417352981, 5417352982, 5417352983, 5417352984, 5417352985, 5417352986, 5417352987, 5417352970], "tags": {"amenity": "cafe", "building": "yes", "building:levels": "1", "name": "Fountain Cafe"}}, {"type": "way", "id": 741288427, "nodes": [6939644064, 6939644065, 6939644066, 6939644067, 6939644064], "tags": {"amenity": "bar", "building": "yes"}}, {"type": "way", "id": 752904680, "nodes": [7035168288, 7042371121, 7035168294, 7040062635, 7040062638, 7040062636, 7040062630, 7040062639, 7040062642, 7040062643, 7040062646, 7040062647, 7040062650, 7040062628, 7040062651, 7040062654, 7040062655, 7040062658, 7040062624, 7040062621, 7040062626, 7040062615, 7040062618, 7040062611, 1648217552, 1648217562, 7040062546, 7035168288], "tags": {"amenity": "bar", "building": "no", "name": "Navy Pier Beer Garden"}}, {"type": "way", "id": 752904681, "nodes": [4025392541, 4025392540, 7035168295, 7035168342, 7035168296, 7035168338, 7035168331, 7035168297, 7035168327, 7035168332, 7035168298, 7035168299, 7035168337, 7035168300, 4025392541], "tags": {"amenity": "bar", "building": "no", "name": "Miller Lite Beer Garden Grove"}}, {"type": "way", "id": 753474614, "nodes": [7040062500, 7040062494, 7035168354, 7035168353, 7040062500], "tags": {"amenity": "bar", "building": "yes"}}, {"type": "way", "id": 753474621, "nodes": [7035168345, 7035168346, 7040062437, 7040062436, 7040062394, 7040062393, 7035168345], "tags": {"amenity": "bar", "building": "yes"}}]}