{"version": 0.6, "generator": "Overpass API 0.7.56.3 eb200aeb", "osm3s": {"timestamp_osm_base": "2020-07-04T01:37:02Z", "copyright": "The data included in this document is from www.openstreetmap.org. The data is made available under ODbL."}, "elements": [{"type": "node", "id": 306741002, "lat": 41.8914114, "lon": -87.6096584, "tags": {"amenity": "restaurant", "name": "Bubba Gump Shrimp Co.", "wheelchair": "yes"}}, {"type": "node", "id": 310690817, "lat": 41.8770433, "lon": -87.6274643}, {"type": "node", "id": 310690820, "lat": 41.8777003, "lon": -87.6263143}, {"type": "node", "id": 310690823, "lat": 41.8782472, "lon": -87.6258953}, {"type": "node", "id": 310690824, "lat": 41.8782311, "lon": -87.6269547}, {"type": "node", "id": 310690825, "lat": 41.8786521, "lon": -87.6269691}, {"type": "node", "id": 310690826, "lat": 41.8786439, "lon": -87.6275052}, {"type": "node", "id": 318274065, "lat": 41.8819671, "lon": -87.6255232, "tags": {"amenity": "restaurant", "cuisine": "pizza;pasta", "name": "Pizano's Pizza & Pasta"}}, {"type": "node", "id": 357044250, "lat": 41.8902532, "lon": -87.624789, "tags": {"addr:city": "Chicago", "addr:housenumber": "430", "addr:postcode": "60611", "addr:state": "IL", "addr:street": "North Michigan Avenue", "amenity": "pub", "layer": "-1", "name": "Billy Goat Tavern", "phone": "+1-312-222-1525", "underground": "yes", "url": "http://www.billygoattavern.com", "website": "https://www.billygoattavern.com/locations/michigan/", "wheelchair": "no", "wikidata": "Q2903638"}}, {"type": "node", "id": 417255753, "lat": 41.8777196, "lon": -87.6252855}, {"type": "node", "id": 417255755, "lat": 41.8786184, "lon": -87.6252568}, {"type": "node", "id": 417255756, "lat": 41.8786095, "lon": -87.6259019}, {"type": "node", "id": 417255758, "lat": 41.8783458, "lon": -87.62525}, {"type": "node", "id": 417255759, "lat": 41.8783369, "lon": -87.6258951}, {"type": "node", "id": 417255762, "lat": 41.8770525, "lon": -87.626933}, {"type": "node", "id": 792325825, "lat": 41.8850607, "lon": -87.6217926}, {"type": "node", "id": 792325828, "lat": 41.8850684, "lon": -87.6212259}, {"type": "node", "id": 792325831, "lat": 41.8855018, "lon": -87.6212367}, {"type": "node", "id": 792325834, "lat": 41.8854954, "lon": -87.6218033}, {"type": "node", "id": 1308260687, "lat": 41.8843548, "lon": -87.625863, "tags": {"addr:city": "Chicago", "addr:housenumber": "53", "addr:postcode": "60601", "addr:state": "IL", "addr:street": "East Randolph Street", "amenity": "cafe", "cuisine": "coffee_shop", "name": "Intelligentsia Coffee", "phone": "+1-312-920-9332", "website": "https://www.intelligentsiacoffee.com/millennium-park-coffeebar", "wheelchair": "yes"}}, {"type": "node", "id": 1388390051, "lat": 41.8777084, "lon": -87.6258865}, {"type": "node", "id": 1407580195, "lat": 41.8781757, "lon": -87.6252389}, {"type": "node", "id": 1579399010, "lat": 41.8850928, "lon": -87.6211565}, {"type": "node", "id": 1586352084, "lat": 41.8783225, "lon": -87.6269578}, {"type": "node", "id": 1586352086, "lat": 41.8783139, "lon": -87.6274957}, {"type": "node", "id": 1589049102, "lat": 41.8770602, "lon": -87.6262954}, {"type": "node", "id": 1648217459, "lat": 41.8914624, "lon": -87.6094084, "tags": {"amenity": "pub", "name": "Harry Caray's Tavern"}}, {"type": "node", "id": 1663730890, "lat": 41.8913751, "lon": -87.6225394}, {"type": "node", "id": 1663730900, "lat": 41.8916573, "lon": -87.6225428}, {"type": "node", "id": 1663730902, "lat": 41.8913767, "lon": -87.6224422}, {"type": "node", "id": 1663730933, "lat": 41.8916587, "lon": -87.622448}, {"type": "node", "id": 1830940583, "lat": 41.8846515, "lon": -87.6237671, "tags": {"amenity": "restaurant", "name": "Market Creations"}}, {"type": "node", "id": 1830940587, "lat": 41.8846784, "lon": -87.6228175, "tags": {"amenity": "restaurant", "cuisine": "breakfast", "name": "Wildberry Pancakes and Cafe", "opening_hours": "06:30-14:30", "phone": "312-938-9777"}}, {"type": "node", "id": 1854704954, "lat": 41.8850849, "lon": -87.6191156, "tags": {"addr:city": "Chicago", "addr:housenumber": "333", "addr:postcode": "60601", "addr:street": "East Randolph Street", "amenity": "restaurant", "cuisine": "chinese", "name": "Yum Cha Dim Sum Parlor", "note": "Opened April 2014", "phone": "+1 312 946-8885", "website": "http://www.yumchachicago.com"}}, {"type": "node", "id": 2070963648, "lat": 41.89046, "lon": -87.623798, "tags": {"addr:city": "Chicago", "addr:housenumber": "435", "addr:postcode": "60611", "addr:street": "North Michigan Avenue", "amenity": "cafe", "atm": "no", "brand": "Argo", "drive_through": "no", "internet_access": "no", "opening_hours": "Mo-Fr 06:00-23:00; Sa 07:00-23:00; Su 07:00-22:00", "operator": "Argo Tea", "phone": "+1 (312) 546-4790", "website": "https://www.argotea.com/"}}, {"type": "node", "id": 2095093507, "lat": 41.8800158, "lon": -87.6223457, "tags": {"amenity": "restaurant", "cuisine": "italian", "name": "Terzo Piano"}}, {"type": "node", "id": 2143100432, "lat": 41.8781253, "lon": -87.6274891}, {"type": "node", "id": 2180600329, "lat": 41.8770544, "lon": -87.6267784}, {"type": "node", "id": 2180600337, "lat": 41.8781403, "lon": -87.6252378}, {"type": "node", "id": 2180600349, "lat": 41.8778542, "lon": -87.6252934}, {"type": "node", "id": 2180600354, "lat": 41.8770594, "lon": -87.6263654}, {"type": "node", "id": 2180600356, "lat": 41.8778553, "lon": -87.6252292}, {"type": "node", "id": 2180600367, "lat": 41.8770569, "lon": -87.6265692}, {"type": "node", "id": 2207543668, "lat": 41.8846143, "lon": -87.6251813}, {"type": "node", "id": 2207543680, "lat": 41.8846211, "lon": -87.6247295}, {"type": "node", "id": 2207543684, "lat": 41.884682, "lon": -87.6248133}, {"type": "node", "id": 2207543732, "lat": 41.8847487, "lon": -87.6247189}, {"type": "node", "id": 2207543820, "lat": 41.8850246, "lon": -87.6251878}, {"type": "node", "id": 2207543823, "lat": 41.88503, "lon": -87.6247286}, {"type": "node", "id": 2207598383, "lat": 41.8919681, "lon": -87.6266173}, {"type": "node", "id": 2207598386, "lat": 41.8918099, "lon": -87.625862}, {"type": "node", "id": 2207598653, "lat": 41.892387, "lon": -87.6266044}, {"type": "node", "id": 2207598654, "lat": 41.8923982, "lon": -87.6258783}, {"type": "node", "id": 2262372941, "lat": 41.8912185, "lon": -87.619059, "tags": {"addr:housenumber": "322", "addr:postcode": "60611", "addr:street": "East Illinois Street", "amenity": "pub", "name": "Lucky Strike Bowl", "source": "773-347-2695", "website": "http://www.bowlluckystrike.com/", "wheelchair": "yes"}}, {"type": "node", "id": 2292889299, "lat": 41.8853925, "lon": -87.6186399, "tags": {"addr:city": "Chicago", "addr:housenumber": "333", "addr:postcode": "60601", "addr:state": "IL", "addr:street": "East Benton Place", "amenity": "restaurant", "cuisine": "diner", "name": "Eggy's", "phone": "+1-773-234-3449", "source": "survey", "website": "https://www.eggysdiner.com/locations/chicago/"}}, {"type": "node", "id": 2339738578, "lat": 41.88236, "lon": -87.6247282, "tags": {"amenity": "cafe", "brand": "Starbucks", "brand:wikidata": "Q37158", "brand:wikipedia": "en:Starbucks", "cuisine": "coffee_shop", "name": "Starbucks", "official_name": "Starbucks Coffee", "takeaway": "yes"}}, {"type": "node", "id": 2391131209, "lat": 41.8848636, "lon": -87.6247229, "tags": {"entrance": "yes"}}, {"type": "node", "id": 2391278936, "lat": 41.8854601, "lon": -87.6218723, "tags": {"entrance": "yes"}}, {"type": "node", "id": 2391278941, "lat": 41.8855495, "lon": -87.621512, "tags": {"entrance": "yes"}}, {"type": "node", "id": 2391283010, "lat": 41.8851112, "lon": -87.6218641, "tags": {"entrance": "yes"}}, {"type": "node", "id": 2397703811, "lat": 41.8846699, "lon": -87.6247967}, {"type": "node", "id": 2397703812, "lat": 41.8846191, "lon": -87.6248592}, {"type": "node", "id": 2397703813, "lat": 41.88462, "lon": -87.6248016, "tags": {"entrance": "yes"}}, {"type": "node", "id": 2401014861, "lat": 41.8856113, "lon": -87.6258675, "tags": {"addr:city": "Chicago", "addr:housenumber": "53", "addr:postcode": "60601", "addr:state": "IL", "addr:street": "East Lake Street", "amenity": "restaurant", "name": "Pastoral", "opening_hours": "Mo-Fr 10:30-20:00; Sa 11:00-18:00", "phone": "+1-312-658-1250", "website": "https://www.pastoralartisan.com/"}}, {"type": "node", "id": 2402056321, "lat": 41.892042, "lon": -87.61891, "tags": {"addr:city": "Chicago", "addr:housenumber": "345", "addr:street": "East Ohio Street", "amenity": "pub", "cuisine": "irish", "food": "yes", "name": "D4", "outdoor_seating": "yes"}}, {"type": "node", "id": 2427403731, "lat": 41.8844733, "lon": -87.6238606, "tags": {"amenity": "cafe", "brand": "Starbucks", "brand:wikidata": "Q37158", "brand:wikipedia": "en:Starbucks", "cuisine": "coffee_shop", "layer": "-1", "level": "-1", "name": "Starbucks", "official_name": "Starbucks Coffee", "takeaway": "yes"}}, {"type": "node", "id": 2427546347, "lat": 41.8846595, "lon": -87.6241745, "tags": {"addr:city": "Chicago", "addr:housenumber": "151", "addr:postcode": "60601", "addr:state": "IL", "addr:street": "North Michigan Avenue", "amenity": "bar", "layer": "-1", "level": "+1-312-929-3080", "name": "M Bar", "website": "http://mbarchicago.com/"}}, {"type": "node", "id": 2438340739, "lat": 41.8850138, "lon": -87.6215013, "tags": {"entrance": "yes"}}, {"type": "node", "id": 2471454173, "lat": 41.8902528, "lon": -87.6234629, "tags": {"addr:housename": "Tribune Tower", "addr:housenumber": "435", "addr:postcode": "60611", "addr:street": "North Michigan Avenue", "amenity": "restaurant", "name": "Howells & Hood", "website": "https://www.howellsandhood.com/"}}, {"type": "node", "id": 2553708327, "lat": 41.88541, "lon": -87.61763, "tags": {"addr:housenumber": "180", "addr:street": "North Field Boulevard", "amenity": "restaurant", "cuisine": "steak_house", "internet_access": "wlan", "internet_access:fee": "no", "microbrewery": "no", "name": "III Forks", "organic": "no", "outdoor_seating": "yes", "smoking": "no", "takeaway": "no", "wheelchair": "yes"}}, {"type": "node", "id": 2607366773, "lat": 41.8918646, "lon": -87.6256252, "tags": {"addr:city": "Chicago", "addr:country": "US", "addr:housenumber": "60", "addr:postcode": "60611", "addr:state": "IL", "addr:street": "East Grand Avenue", "amenity": "restaurant", "cuisine": "steak;seafood;fine_dining", "name": "Joe's Seafood, Prime Steak & Stone Crab", "opening_hours": "Mo-Th 11:30-23:00; Fr 11:30-00:00; Sa 11:00-00:00; Su 11:00-22:30", "phone": "+1-312-379-5637", "website": "https://www.joes.net/"}}, {"type": "node", "id": 2708231824, "lat": 41.8921642, "lon": -87.6180984, "tags": {"addr:city": "Chicago", "addr:housenumber": "355", "addr:postcode": "60611", "addr:state": "IL", "addr:street": "East Ohio Street", "amenity": "cafe", "cuisine": "breakfast", "internet_access": "no", "name": "Yolk", "phone": "+1-312-822-9655", "website": "https://www.eatyolk.com/", "wheelchair": "yes"}}, {"type": "node", "id": 2819072953, "lat": 41.8865103, "lon": -87.6242243, "tags": {"amenity": "restaurant", "name": "Sweetwater"}}, {"type": "node", "id": 2819072959, "lat": 41.8873063, "lon": -87.6258841, "tags": {"amenity": "restaurant", "name": "Hoyt's"}}, {"type": "node", "id": 2819072965, "lat": 41.885893, "lon": -87.6257502, "tags": {"addr:city": "Chicago", "addr:housenumber": "60", "addr:postcode": "60601", "addr:state": "IL", "addr:street": "East Lake Street", "amenity": "restaurant", "cuisine": "burger", "name": "Billy Goat Tavern", "phone": "+1-312-346-5620", "website": "https://www.billygoattavern.com/locations/michigan/"}}, {"type": "node", "id": 2819241297, "lat": 41.8830968, "lon": -87.6255717, "tags": {"addr:city": "Chicago", "addr:housenumber": "55", "addr:postcode": "60602", "addr:state": "IL", "addr:street": "East Washington Street", "amenity": "cafe", "name": "Pittsfield Cafe", "phone": "+!-312-726-2020", "website": "https://pittsfieldcafe.com/"}}, {"type": "node", "id": 2819241298, "lat": 41.8827141, "lon": -87.6257155, "tags": {"addr:city": "Chicago", "addr:housenumber": "21", "addr:postcode": "60602", "addr:state": "IL", "addr:street": "North Wabash Avenue", "amenity": "restaurant", "cuisine": "mediterranean", "name": "Oasis Cafe", "phone": "+1-312-443-9534"}}, {"type": "node", "id": 2819262301, "lat": 41.88269, "lon": -87.6258048, "tags": {"amenity": "pub", "name": "Tilted Kilt"}}, {"type": "node", "id": 2884825219, "lat": 41.8850104, "lon": -87.6217639}, {"type": "node", "id": 2884825220, "lat": 41.885017, "lon": -87.621252}, {"type": "node", "id": 2884825221, "lat": 41.8850311, "lon": -87.6217919}, {"type": "node", "id": 2884825222, "lat": 41.8850383, "lon": -87.6212252}, {"type": "node", "id": 2884825223, "lat": 41.8850602, "lon": -87.6218312}, {"type": "node", "id": 2884825224, "lat": 41.8850689, "lon": -87.6211867}, {"type": "node", "id": 2884825225, "lat": 41.8850841, "lon": -87.6218635}, {"type": "node", "id": 2884825230, "lat": 41.8854699, "lon": -87.6218725}, {"type": "node", "id": 2884825231, "lat": 41.8854796, "lon": -87.6211655}, {"type": "node", "id": 2884825232, "lat": 41.8854949, "lon": -87.621841}, {"type": "node", "id": 2884825233, "lat": 41.8855024, "lon": -87.6211964}, {"type": "node", "id": 2884825234, "lat": 41.8855244, "lon": -87.6218039}, {"type": "node", "id": 2884825235, "lat": 41.8855327, "lon": -87.6212374}, {"type": "node", "id": 2884825236, "lat": 41.8855461, "lon": -87.6217765}, {"type": "node", "id": 2884825237, "lat": 41.8855528, "lon": -87.6212645}, {"type": "node", "id": 2885201538, "lat": 41.8847203, "lon": -87.624759}, {"type": "node", "id": 2885201541, "lat": 41.8849433, "lon": -87.6251865}, {"type": "node", "id": 3343161843, "lat": 41.8906094, "lon": -87.6244952, "tags": {"amenity": "cafe", "brand": "Starbucks", "brand:wikidata": "Q37158", "brand:wikipedia": "en:Starbucks", "cuisine": "coffee_shop", "name": "Starbucks", "official_name": "Starbucks Coffee", "takeaway": "yes"}}, {"type": "node", "id": 3343162069, "lat": 41.8907716, "lon": -87.6246916, "tags": {"amenity": "cafe", "name": "Corner Bakery Cafe"}}, {"type": "node", "id": 3343162071, "lat": 41.891157, "lon": -87.6246273, "tags": {"addr:city": "Chicago", "addr:housenumber": "500", "addr:postcode": "60611", "addr:state": "IL", "addr:street": "North Michigan Avenue", "amenity": "restaurant", "cuisine": "american", "name": "The Purple Pig", "opening_hours": "Mo-Su 11:30-23:00", "phone": "+1-312-464-1744", "website": "https://thepurplepigchicago.com/"}}, {"type": "node", "id": 3343162093, "lat": 41.8895178, "lon": -87.6248168, "tags": {"addr:city": "Chicago", "addr:housenumber": "400", "addr:postcode": "60611", "addr:state": "IL", "addr:street": "North Michigan Avenue", "amenity": "cafe", "brand": "Peet's Coffee", "brand:wikidata": "Q1094101", "brand:wikipedia": "en:Peet's Coffee", "cuisine": "coffee_shop", "name": "Peet's Coffee", "phone": "+1-312-625-5531", "takeaway": "yes", "website": "https://www.peets.com/"}}, {"type": "node", "id": 3399988513, "lat": 41.8919137, "lon": -87.6229257, "tags": {"amenity": "restaurant", "cuisine": "burger", "name": "Chef's Burger Bistro"}}, {"type": "node", "id": 3468511745, "lat": 41.8913274, "lon": -87.6085962, "tags": {"amenity": "bar", "name": "Margaritaville"}}, {"type": "node", "id": 3549524275, "lat": 41.8862551, "lon": -87.6215867, "tags": {"amenity": "cafe", "brand": "Starbucks", "brand:wikidata": "Q37158", "brand:wikipedia": "en:Starbucks", "cuisine": "coffee_shop", "name": "Starbucks", "official_name": "Starbucks Coffee", "takeaway": "yes"}}, {"type": "node", "id": 3551688415, "lat": 41.8924751, "lon": -87.6187471, "tags": {"addr:city": "Chicago", "addr:housenumber": "345", "addr:postcode": "60611", "addr:state": "IL", "addr:street": "East Ohio Street", "amenity": "cafe", "name": "Dollop Coffee", "phone": "+1-312-929-4007", "website": "https://dollop.coffee/", "wheelchair": "yes"}}, {"type": "node", "id": 3575164510, "lat": 41.8927469, "lon": -87.6215023, "tags": {"amenity": "restaurant", "cuisine": "thai", "name": "Dao"}}, {"type": "node", "id": 3575164511, "lat": 41.8923735, "lon": -87.6211134, "tags": {"amenity": "restaurant", "cuisine": "spanish", "name": "Emilios Tapas"}}, {"type": "node", "id": 3575164512, "lat": 41.8927289, "lon": -87.622079, "tags": {"amenity": "restaurant", "cuisine": "italian", "name": "Tre Soldi"}}, {"type": "node", "id": 3575164513, "lat": 41.8927269, "lon": -87.6222426, "tags": {"addr:city": "Chicago", "addr:housenumber": "210", "addr:postcode": "60611", "addr:state": "IL", "addr:street": "East Ohio Street", "amenity": "restaurant", "cuisine": "japanese", "name": "Gyu-Kaku", "phone": "+1-312-266-8929", "website": "https://www.gyu-kaku.com"}}, {"type": "node", "id": 3575164515, "lat": 41.892702, "lon": -87.6231371, "tags": {"addr:city": "Chicago", "addr:housenumber": "162", "addr:postcode": "60611", "addr:state": "Il", "addr:street": "East Ohio Street", "amenity": "cafe", "cuisine": "coffee_shop", "name": "Kafenio Lavazza", "phone": "+1-312-255-8850", "website": "http://www.kafeniochicago.com/"}}, {"type": "node", "id": 3575181786, "lat": 41.8924821, "lon": -87.6184376, "tags": {"amenity": "restaurant", "cuisine": "pizza", "name": "Robert's Pizza Company"}}, {"type": "node", "id": 3586161238, "lat": 41.8913956, "lon": -87.6244867, "tags": {"amenity": "restaurant", "cuisine": "chinese", "name": "Lao Sze Chuan"}}, {"type": "node", "id": 3641173764, "lat": 41.8911753, "lon": -87.6251872, "tags": {"addr:city": "Chicago", "addr:housenumber": "521", "addr:postcode": "60611", "addr:state": "IL", "addr:street": "North Rush Street", "addr:unit": "5", "amenity": "bar", "brand": "Luxury Collection", "fax": "+1-312-645-1550", "internet_access": "wlan", "name": "Upstairs at Gwen", "operator": "Marriott International", "payment:american_express": "yes", "payment:cash": "yes", "payment:diners_club": "yes", "payment:discover_card": "yes", "payment:mastercard": "yes", "payment:visa": "yes", "phone": "+1-312-645-1500", "smoking": "no", "stars": "5", "website": "https://www.thegwenchicago.com/"}}, {"type": "node", "id": 3660899325, "lat": 41.8918754, "lon": -87.623299, "tags": {"amenity": "restaurant", "name": "Labriola Ristorante & Cafe"}}, {"type": "node", "id": 3660900078, "lat": 41.8924171, "lon": -87.6232272, "tags": {"amenity": "restaurant", "cuisine": "armenian", "name": "Sayat Nova"}}, {"type": "node", "id": 3660900079, "lat": 41.8923449, "lon": -87.6232272, "tags": {"addr:city": "Chicago", "addr:housenumber": "157", "addr:postcode": "60611", "addr:state": "IL", "addr:street": "East Ohio Street", "amenity": "bar", "name": "Second Story Bar", "phone": "+1-312-923-9536"}}, {"type": "node", "id": 3750517760, "lat": 41.8826848, "lon": -87.6235979, "tags": {"addr:housenumber": "11", "addr:street": "North Michigan Avenue", "addr:street:name": "Michigan", "addr:street:prefix": "North", "addr:street:type": "Avenue", "amenity": "restaurant", "name": "The Park Grill", "wikidata": "Q7137749", "wikipedia": "en:Park Grill"}}, {"type": "node", "id": 3917218261, "lat": 41.8924038, "lon": -87.6212638, "tags": {"amenity": "restaurant", "name": "Ramen MisoYa"}}, {"type": "node", "id": 3918941297, "lat": 41.8897038, "lon": -87.6259049, "tags": {"addr:city": "Chicago", "addr:housenumber": "405", "addr:postcode": "60611", "addr:state": "IL", "addr:street": "North Wabash Avenue", "amenity": "restaurant", "cuisine": "pizza;italian", "name": "Bongiorno's Cucina Italiana & Pizzeria", "opening_hours": "Mo-Sa 10:00-22:00; Su 12:00-21:00", "phone": "+1-312-755-1255", "website": "http://www.bongiornoschicago.com/"}}, {"type": "node", "id": 3918944637, "lat": 41.8897262, "lon": -87.6212705, "tags": {"amenity": "cafe", "name": "Illy"}}, {"type": "node", "id": 3985040972, "lat": 41.8861962, "lon": -87.6129597, "tags": {"amenity": "restaurant", "cuisine": "chinese", "name": "Friendship Chinese"}}, {"type": "node", "id": 4060199301, "lat": 41.892983, "lon": -87.6255876, "tags": {"amenity": "bar", "name": "Jimmy"}}, {"type": "node", "id": 4097813076, "lat": 41.8909495, "lon": -87.6162491, "tags": {"addr:city": "Chicago", "addr:housenumber": "435", "addr:postcode": "60611", "addr:state": "IL", "addr:street": "East Illinois Street", "amenity": "restaurant", "name": "Pinstripes", "opening_hours": "11:30-23:00", "phone": "+1-312-527-3010", "takeaway": "yes", "website": "https://pinstripes.com/chicago-illinois/", "wheelchair": "limited"}}, {"type": "node", "id": 4130928515, "lat": 41.8817549, "lon": -87.6248548, "tags": {"addr:city": "Chicago", "addr:housenumber": "12", "addr:postcode": "60603", "addr:state": "IL", "addr:street": "South Michigan Avenue", "amenity": "bar", "name": "Milk Room", "phone": "+1-312-792-3535", "website": "http://www.lsdatcaa.com/milk-room/#openModal"}}, {"type": "node", "id": 4222717943, "lat": 41.8906383, "lon": -87.6173152, "tags": {"amenity": "cafe", "brand": "Starbucks", "brand:wikidata": "Q37158", "brand:wikipedia": "en:Starbucks", "cuisine": "coffee_shop", "name": "Starbucks", "official_name": "Starbucks Coffee", "takeaway": "yes"}}, {"type": "node", "id": 4222717945, "lat": 41.8912617, "lon": -87.6149427, "tags": {"addr:city": "Chicago", "addr:housenumber": "502", "addr:postcode": "60611", "addr:state": "IL", "addr:street": "East Illinois Street", "amenity": "restaurant", "name": "Kanela Breakfast Club", "phone": "+1-312-380-0071", "website": "http://www.kanelabreakfastclub.com/"}}, {"type": "node", "id": 4222717946, "lat": 41.8912044, "lon": -87.6187447, "tags": {"amenity": "restaurant", "name": "Niu Japanese Fusion"}}, {"type": "node", "id": 4306418293, "lat": 41.8882819, "lon": -87.6215145, "tags": {"amenity": "cafe", "name": "Cyrano's Caf\u00e9 & Wine Bar", "opening_hours": "Mo-Su 11:00-22:00"}}, {"type": "node", "id": 4306493789, "lat": 41.8880159, "lon": -87.6187797, "tags": {"amenity": "bar", "name": "Island Party Hut"}}, {"type": "node", "id": 4472140007, "lat": 41.887837, "lon": -87.625384, "tags": {"addr:city": "Chicago", "addr:country": "US", "addr:housenumber": "85", "addr:postcode": "60601", "addr:state": "IL", "addr:street": "East Wacker Drive", "amenity": "bar", "name": "LH Rooftop", "outdoor_seating": "yes", "phone": "+1-312-357-1200", "website": "https://londonhousechicago.com/rooftop/"}}, {"type": "node", "id": 4634046603, "lat": 41.8866803, "lon": -87.6167118, "tags": {"amenity": "cafe", "leisure": "picnic_table", "name": "ROM", "outdoor_seating": "yes"}}, {"type": "node", "id": 4728238863, "lat": 41.8814964, "lon": -87.6249771, "tags": {"addr:city": "Chicago", "addr:housenumber": "18", "addr:postcode": "60603", "addr:state": "IL", "addr:street": "South Michigan Avenue", "amenity": "restaurant", "name": "Acanto", "phone": "+1-312-578-0763", "website": "https://www.acantochicago.com/"}}, {"type": "node", "id": 4728600973, "lat": 41.8813094, "lon": -87.6250506, "tags": {"addr:city": "Chicago", "addr:housenumber": "24", "addr:postcode": "60603", "addr:state": "IL", "addr:street": "South Michigan Avenue", "amenity": "restaurant", "cuisine": "american", "name": "The Gage", "opening_hours": "Mo 11:00-00:00; Tu-We 11:00-02:00; Th 11:00-00:00; Fr 11:00-02:00; Sa 10:00-02:00; Su 10:00-00:00", "phone": "+1-312-372-4243", "website": "https://www.thegagechicago.com/"}}, {"type": "node", "id": 4729978589, "lat": 41.8814669, "lon": -87.6259549, "tags": {"addr:city": "Chicago", "addr:housenumber": "33", "addr:postcode": "60603", "addr:state": "IL", "addr:street": "South Wabash Avenue", "amenity": "cafe", "name": "Goddess and the Baker", "opening_hours": "Mo-Fr 07:00-20:00; Sa 08:00-20:00; Su 08:00-18:00", "phone": "+1-312-877-5176", "website": "http://goddessandthebaker.com/"}}, {"type": "node", "id": 4737382944, "lat": 41.8914743, "lon": -87.6068822, "tags": {"addr:city": "Chicago", "addr:housenumber": "600", "addr:postcode": "60611", "addr:state": "IL", "addr:street": "East Grand Avenue", "amenity": "restaurant", "cuisine": "mexican", "name": "Xurro", "website": "https://www.churrofactory.com/", "website:yelp": "https://www.yelp.com/biz/porkchop-bbq-chicago-2"}}, {"type": "node", "id": 4856409372, "lat": 41.8827545, "lon": -87.6247213, "tags": {"addr:city": "Chicago", "addr:housenumber": "20", "addr:postcode": "60602", "addr:state": "IL", "addr:street": "North Michigan Avenue", "amenity": "restaurant", "cuisine": "steak_house;american", "name": "Remington\u2019s", "outdoor_seating": "yes", "phone": "+1-312-782-6000", "takeaway": "yes", "website": "http://remingtonschicago.com/"}}, {"type": "node", "id": 4925422113, "lat": 41.8822312, "lon": -87.625482, "tags": {"addr:city": "Chicago", "addr:housenumber": "62", "addr:postcode": "60602", "addr:state": "IL", "addr:street": "East Madison Street", "amenity": "restaurant", "cuisine": "sushi;japanese", "delivery": "yes", "name": "Ryo Sushi", "opening_hours": "Mo-Sa 10:00-22:00; Su 11:00-21:30", "outdoor_seating": "yes", "takeaway": "yes"}}, {"type": "node", "id": 5064396351, "lat": 41.879365, "lon": -87.6251023, "tags": {"addr:city": "Chicago", "addr:housenumber": "77", "addr:postcode": "60603", "addr:state": "IL", "addr:street": "East Adams Street", "amenity": "restaurant", "cuisine": "russian;tea", "name": "Russian Tea Time", "opening_hours": "Su-Th 11:00-21:00; Fr-Sa 11:00-23:00", "opening_hours:tea_service": "14:30-16:30", "phone": "+1-312-360-0000", "website": "https://www.russianteatime.com/", "website:menu": "https://www.allmenus.com/il/chicago/22201-russian-tea-time/menu/"}}, {"type": "node", "id": 5455690908, "lat": 41.8914257, "lon": -87.625565, "tags": {"addr:city": "Chicago", "addr:housenumber": "55", "addr:postcode": "60611", "addr:state": "IL", "addr:street": "East Grand Avenue", "amenity": "cafe", "cuisine": "coffee_shop;coffee", "name": "Ebar", "opening_hours": "Mo-Sa 08:00-21:00; Su 10:00-19:00", "phone": "+1-312-464-1515"}}, {"type": "node", "id": 5455697256, "lat": 41.8916034, "lon": -87.6252136, "tags": {"addr:city": "Chicago", "addr:housenumber": "521", "addr:postcode": "60611", "addr:state": "IL", "addr:street": "North Rush Street", "amenity": "restaurant", "cuisine": "seafood;fine_dining", "name": "Eddie V\u2019s Prime Seafood and Steaks", "opening_hours": "Su-Th 16:00-22:00; Fr-Sa 16:00-23:00", "outdoor_seating": "no", "phone": "+1-312-595-1114", "website": "https://www.eddiev.com/"}}, {"type": "node", "id": 5455719094, "lat": 41.8926617, "lon": -87.6260433, "tags": {"addr:city": "Chicago", "addr:housenumber": "60", "addr:postcode": "60611", "addr:state": "IL", "addr:street": "East Ohio Street", "amenity": "restaurant", "cuisine": "asian", "name": "Big Bowl", "opening_hours": "Mo-Th 11:30-22:00; Fr-Sa 11:30-23:00; Su 11:30-21:00", "phone": "+1-312-951-1888", "website": "https://bigbowl.com/"}}, {"type": "node", "id": 5458040469, "lat": 41.8897293, "lon": -87.6256466, "tags": {"addr:city": "Chicago", "addr:housenumber": "405", "addr:postcode": "60611", "addr:state": "IL", "addr:street": "North Wabash Avenue", "amenity": "restaurant", "cuisine": "american;pub", "name": "Beacon Tavern", "opening_hours": "Mo-We 11:00-22:00; Th-Fr 11:00-23:00; Sa 10:00-23:00; Su 10:00-22:00", "outdoor_seating": "no", "phone": "+1-312-955-4226", "website": "http://beacontavern.com/"}}, {"type": "node", "id": 5586698400, "lat": 41.8904253, "lon": -87.6251166, "tags": {"amenity": "restaurant", "name": "437 Rush"}}, {"type": "node", "id": 5756730722, "lat": 41.8855672, "lon": -87.624242, "tags": {"addr:city": "Chicago", "addr:housenumber": "189", "addr:postcode": "60601", "addr:state": "IL", "addr:street": "North Michigan Avenue", "amenity": "restaurant", "name": "Nutella Cafe", "phone": "+1-800-861-4888"}}, {"type": "node", "id": 5756730723, "lat": 41.885489, "lon": -87.6242526, "tags": {"addr:housenumber": "151", "amenity": "cafe", "name": "Garret Popcorn"}}, {"type": "node", "id": 5825114811, "lat": 41.8861341, "lon": -87.6209122, "tags": {"addr:city": "Chicago", "addr:housenumber": "200", "addr:postcode": "60601", "addr:state": "IL", "addr:street": "North Columbus Service Drive", "amenity": "bar", "name": "Columbus Tap", "phone": "+1-312-565-6644", "website": "https://www.columbustap.com/"}}, {"type": "node", "id": 5912122886, "lat": 41.8820058, "lon": -87.6247903, "tags": {"addr:city": "Chicago", "addr:housenumber": "79", "addr:postcode": "60602", "addr:state": "IL", "addr:street": "East Madison Street", "amenity": "restaurant", "cuisine": "sushi", "email": "innerloopcaters@pokeworks.com", "name": "Pok\u00e9works", "opening_hours": "Mo-Su 11:00-21:00", "phone": "+1-312-868-0261"}}, {"type": "node", "id": 5946218187, "lat": 41.8863212, "lon": -87.6247899, "tags": {"amenity": "restaurant", "name": "wow bao"}}, {"type": "node", "id": 5954587020, "lat": 41.8912513, "lon": -87.6119668, "tags": {"addr:city": "Chicago", "addr:housenumber": "580", "addr:postcode": "60611", "addr:state": "IL", "addr:street": "East Illinois Street", "amenity": "restaurant", "cuisine": "mexican", "name": "Casa Margarita", "opening_hours": "Mo-Su 11:00-10:30"}}, {"type": "node", "id": 6127339811, "lat": 41.8879091, "lon": -87.6253252, "tags": {"addr:city": "Chicago", "addr:housenumber": "81", "addr:postcode": "60601", "addr:state": "IL", "addr:street": "East Upper Wacker Drive", "amenity": "restaurant", "cuisine": "american", "name": "Land & Lake Kitchen", "opening_hours": "Mo-Fr 06:30-22:00; Sa-Su 07:00-22:00", "phone": "+1-312-253-2337", "website": "https://www.landlkitchen.com"}}, {"type": "node", "id": 6256587729, "lat": 41.8851342, "lon": -87.6249107, "tags": {"addr:city": "Chicago", "addr:housenumber": "168", "addr:postcode": "60601", "addr:state": "IL", "addr:street": "North Michigan Avenue", "amenity": "restaurant", "name": "About Last Knife", "outdoor_seating": "no", "phone": "+1-312-392-2440", "website": "https://alkchicago.com/"}}, {"type": "node", "id": 6265067983, "lat": 41.8919452, "lon": -87.6235734, "tags": {"addr:city": "Chicago", "addr:housenumber": "535", "addr:postcode": "60611", "addr:state": "IL", "addr:street": "North Michigan Avenue", "amenity": "restaurant", "name": "Bandera Restaurant", "phone": "+1-312-644-3524", "website": "https://banderarestaurants.com/"}}, {"type": "node", "id": 6267298685, "lat": 41.8922133, "lon": -87.6260095, "tags": {"addr:city": "Chicago", "addr:housenumber": "43", "addr:postcode": "60611", "addr:state": "IL", "addr:street": "East Ohio Street", "amenity": "bar", "name": "Birreria"}}, {"type": "node", "id": 6269085723, "lat": 41.8880327, "lon": -87.6250674, "tags": {"addr:city": "Chicago", "addr:housenumber": "330", "addr:postcode": "60601", "addr:state": "IL", "addr:street": "Chicago Riverwalk", "amenity": "bar", "name": "Bridges Lobby Grill at London House"}}, {"type": "node", "id": 6269133412, "lat": 41.8848467, "lon": -87.6187821, "tags": {"addr:city": "Chicago", "addr:housenumber": "340", "addr:postcode": "60601", "addr:state": "IL", "addr:street": "Upper East Randolph Street", "amenity": "restaurant", "name": "Brown Bag Seafood", "phone": "+1-312-496-3999", "website": "https://www.brownbagseafood.com/home/"}}, {"type": "node", "id": 6269753786, "lat": 41.8798388, "lon": -87.622138, "tags": {"addr:city": "Chicago", "addr:housenumber": "111", "addr:postcode": "60603", "addr:state": "IL", "addr:street": "South Michigan Avenue", "amenity": "restaurant", "name": "Cafe Moderno", "website": "http://www.cafe-moderno.com/"}}, {"type": "node", "id": 6272159727, "lat": 41.8873276, "lon": -87.620108, "tags": {"addr:city": "Chicago", "addr:housenumber": "303", "addr:postcode": "60601", "addr:state": "IL", "addr:street": "East Wacker Drive", "amenity": "cafe", "name": "Bake For Me", "outdoor_seating": "yes", "phone": "+1-312-228-9676", "website": "http://www.bakeforme.com/bfm-locations-303-east-wacker.html"}}, {"type": "node", "id": 6272398247, "lat": 41.8927553, "lon": -87.6224945, "tags": {"addr:city": "Chicago", "addr:housenumber": "200", "addr:postcode": "60611", "addr:state": "IL", "addr:street": "East Ohio Street", "amenity": "cafe", "name": "Baskin-Robbins / Dunkin\u2019 Donuts", "phone": "+1-312-787-9055", "website": "https://www.baskinrobbins.com/content/baskinrobbins/en.html"}}, {"type": "node", "id": 6273484387, "lat": 41.8869672, "lon": -87.6232241, "tags": {"addr:city": "Chicago", "addr:housenumber": "233", "addr:postcode": "60601", "addr:state": "IL", "addr:street": "North Michigan Avenue", "amenity": "restaurant", "name": "Blackwood BBQ - Illinois Center", "phone": "+1-312-487-4802", "website": "https://www.blackwoodbbq.com/"}}, {"type": "node", "id": 6282394141, "lat": 41.8816702, "lon": -87.6250742, "tags": {"addr:city": "Chicago", "addr:housenumber": "12", "addr:postcode": "60603", "addr:state": "IL", "addr:street": "South Michigan Avenue", "amenity": "restaurant", "name": "Cherry Circle Room", "phone": "+1-312-792-3515", "website": "http://www.lsdatcaa.com/"}}, {"type": "node", "id": 6282415461, "lat": 41.889071, "lon": -87.6198699, "tags": {"addr:city": "Chicago", "addr:housenumber": "301", "addr:postcode": "60611", "addr:state": "IL", "addr:street": "East North Water Street", "amenity": "bar", "name": "Chi Bar", "phone": "+1-312-755-2227", "website": "https://www.achiga.io/site-down/"}}, {"type": "node", "id": 6282807044, "lat": 41.8901774, "lon": -87.6210884, "tags": {"addr:city": "Chicago", "addr:housenumber": "455", "addr:postcode": "60611", "addr:state": "IL", "addr:street": "North Cityfront Plaza Drive", "amenity": "cafe", "cuisine": "coffee_shop", "name": "Cityfront Cafe", "phone": "+1-312-374-1169", "website": "https://www.cityfrontcafe.com/"}}, {"type": "node", "id": 6283292191, "lat": 41.8861083, "lon": -87.6259113, "tags": {"addr:city": "Chicago", "addr:housenumber": "203", "addr:postcode": "60601", "addr:state": "IL", "addr:street": "North Wabash Avenue", "amenity": "bar", "name": "Commons Club", "phone": "+1-312-940-4788", "website": "https://virginhotels.com/chicago/dine-and-drink/the-commons-club/?chebs=local-andrewpinckneyinn"}}, {"type": "node", "id": 6284038647, "lat": 41.8909189, "lon": -87.6155741, "tags": {"addr:city": "Chicago", "addr:housenumber": "455", "addr:postcode": "60611", "addr:state": "IL", "addr:street": "East Illinois Street", "amenity": "cafe", "name": "Cupitol Coffee & Eatery", "phone": "+1-312-414-1400", "website": "https://cupitol.com/"}}, {"type": "node", "id": 6284067097, "lat": 41.892086, "lon": -87.6192076, "tags": {"addr:city": "Chicago", "addr:housenumber": "345", "addr:postcode": "60611", "addr:state": "IL", "addr:street": "East Ohio Street", "amenity": "bar", "name": "D4 Irish Pub & Cafe", "phone": "+1-312-624-8385", "website": "http://d4pub.com/"}}, {"type": "node", "id": 6284779075, "lat": 41.8817616, "lon": -87.6247892, "tags": {"addr:city": "Chicago", "addr:housenumber": "12", "addr:postcode": "60603", "addr:state": "IL", "addr:street": "South Michigan Avenue", "addr:unit": "2", "amenity": "bar", "name": "Drawing Room"}}, {"type": "node", "id": 6284833185, "lat": 41.8867541, "lon": -87.6168158, "tags": {"addr:city": "Chicago", "addr:housenumber": "400", "addr:postcode": "60601", "addr:state": "IL", "addr:street": "East South Water Street", "amenity": "cafe", "name": "Drunken Bean", "phone": "+1-312-549-8000", "website": "https://www.drunkenbeancafe.com/"}}, {"type": "node", "id": 6287294806, "lat": 41.8819015, "lon": -87.6247854, "tags": {"addr:city": "Chicago", "addr:housenumber": "12", "addr:postcode": "60603", "addr:state": "IL", "addr:street": "South Michigan Avenue", "amenity": "cafe", "name": "Fairgrounds Coffee and Tea", "phone": "+1-312-448-9015", "website": "https://www.fairgrounds.cafe/"}}, {"type": "node", "id": 6290938945, "lat": 41.8920723, "lon": -87.616159, "tags": {"addr:city": "Chicago", "addr:housenumber": "440", "addr:postcode": "60611", "addr:state": "IL", "addr:street": "East Grand Avenue", "amenity": "bar", "name": "Flamingo Bar & Grill", "phone": "+1-312-222-0901"}}, {"type": "node", "id": 6291747686, "lat": 41.8816934, "lon": -87.624929, "tags": {"addr:city": "Chicago", "addr:housenumber": "12", "addr:postcode": "60603", "addr:state": "IL", "addr:street": "South Michigan Avenue", "amenity": "bar", "name": "Game Room", "phone": "+1-312-792-3535", "website": "http://www.lsdatcaa.com/"}}, {"type": "node", "id": 6291816768, "lat": 41.8849499, "lon": -87.6231709, "tags": {"addr:city": "Chicago", "addr:housenumber": "130", "addr:postcode": "60601", "addr:state": "IL", "addr:street": "East Randolph Street", "amenity": "restaurant", "cuisine": "pizza", "name": "Giordano\u2019s", "phone": "+1-312-616-1200", "website": "https://giordanos.com/locations/prudential-plaza-millenium-park/"}}, {"type": "node", "id": 6291823782, "lat": 41.8918168, "lon": -87.6095322, "tags": {"addr:city": "Chicago", "addr:housenumber": "700", "addr:postcode": "60611", "addr:state": "Il", "addr:street": "East Grand Avenue", "amenity": "restaurant", "cuisine": "pizza", "name": "Giordano\u2019s - Navy Pier;Giordano's Pizza", "phone": "+1-312-288-8783", "website": "https://giordanos.com/locations/navy-pier/"}}, {"type": "node", "id": 6291863980, "lat": 41.8916193, "lon": -87.6208279, "tags": {"addr:city": "Chicago", "addr:housenumber": "255", "addr:postcode": "60611", "addr:state": "IL", "addr:street": "East Grand Avenue", "amenity": "cafe", "name": "Glass & Cup Coffee And Wine Bar"}}, {"type": "node", "id": 6294193504, "lat": 41.8918517, "lon": -87.6096704, "tags": {"addr:city": "Chicago", "addr:housenumber": "700", "addr:postcode": "60611", "addr:state": "IL", "addr:street": "East Grand Avenue", "amenity": "restaurant", "name": "Harry Caray\u2019s Tavern", "phone": "+1-312-527-9700", "website": "https://www.harrycarays.com/harry-carays-tavern-navy-pier.html"}}, {"type": "node", "id": 6294279410, "lat": 41.8835361, "lon": -87.6258705, "tags": {"addr:city": "Chicago", "addr:housenumber": "111", "addr:postcode": "60602", "addr:state": "IL", "addr:street": "North Wabash Avenue", "amenity": "restaurant", "cuisine": "cajun;breakfast;lunch;dinner;casual", "name": "Heaven on Seven", "phone": "+1-312-263-6443", "website": "https://www.heavenonseven.com/wabash.html"}}, {"type": "node", "id": 6299484443, "lat": 41.8824296, "lon": -87.6247277, "tags": {"addr:city": "Chicago", "addr:housenumber": "20", "addr:postcode": "60602", "addr:state": "IL", "addr:street": "North Michigan Avenue", "amenity": "cafe", "brand": "Peet's Coffee", "brand:wikidata": "Q1094101", "brand:wikipedia": "en:Peet's Coffee", "cuisine": "coffee_shop", "name": "Peet's Coffee", "phone": "+1-312-489-5066", "takeaway": "yes", "website": "https://www.peets.com/"}}, {"type": "node", "id": 6300349874, "lat": 41.8919626, "lon": -87.6236604, "tags": {"addr:city": "Chicago", "addr:housenumber": "535", "addr:postcode": "60611", "addr:state": "IL", "addr:street": "North Michigan Avenue", "amenity": "cafe", "name": "Stan\u2019s Donuts & Coffee", "phone": "+1-312-955-3100", "website": "https://www.stansdonuts.com/"}}, {"type": "node", "id": 6300349926, "lat": 41.8855311, "lon": -87.6240423, "tags": {"addr:city": "Chicago", "addr:housenumber": "181", "addr:postcode": "60601", "addr:state": "IL", "addr:street": "North Michigan Avenue", "amenity": "cafe", "name": "Stan\u2019s Donuts & Coffee", "phone": "+1-312-729-5480", "website": "https://www.stansdonuts.com/"}}, {"type": "node", "id": 6300573021, "lat": 41.8924248, "lon": -87.6216836, "tags": {"addr:city": "Chicago", "addr:housenumber": "213", "addr:postcode": "60611", "addr:state": "IL", "addr:street": "East Ohio Street", "amenity": "restaurant", "name": "Ramen Misoya", "phone": "+1-312-496-3566", "website": "https://misoya.net/"}}, {"type": "node", "id": 6300739597, "lat": 41.8915969, "lon": -87.620825, "tags": {"addr:city": "Chicago", "addr:housenumber": "255", "addr:postcode": "60611", "addr:state": "IL", "addr:street": "East Grand Avenue", "amenity": "bar", "name": "The Red Star Bar", "phone": "+1-312-379-7900", "website": "http://www.redstarbar.us/"}}, {"type": "node", "id": 6301005156, "lat": 41.8917824, "lon": -87.6094511, "tags": {"addr:city": "Chicago", "addr:housenumber": "700", "addr:postcode": "60611", "addr:state": "IL", "addr:street": "East Grand Avenue", "amenity": "cafe", "name": "Riva Crabhouse", "phone": "+1-312-644-7482", "website": "https://www.rivanavypier.com/"}}, {"type": "node", "id": 6303823312, "lat": 41.8850448, "lon": -87.6231506, "tags": {"addr:city": "Chicago", "addr:housenumber": "130", "addr:postcode": "60601", "addr:state": "IL", "addr:street": "East Randolph Street", "amenity": "bar", "name": "Tavern at the Park", "phone": "+1-312-552-0070", "website": "https://tavernatthepark.com/"}}, {"type": "node", "id": 6305240475, "lat": 41.8861805, "lon": -87.6210463, "tags": {"addr:city": "Chicago", "addr:housenumber": "200", "addr:postcode": "60601", "addr:state": "IL", "addr:street": "North Columbus Service Drive", "amenity": "bar", "name": "THE BAR", "phone": "+1-312-565-8000", "website": "thebarinchicago.com"}}, {"type": "node", "id": 6307072253, "lat": 41.8860864, "lon": -87.6258401, "tags": {"addr:city": "Chicago", "addr:housenumber": "203", "addr:postcode": "60601", "addr:state": "IL", "addr:street": "North Wabash Avenue", "amenity": "bar", "name": "Two Zero Three", "phone": "+1-312-940-4400"}}, {"type": "node", "id": 6316619846, "lat": 41.8915854, "lon": -87.6225213, "tags": {"addr:city": "Chicago", "addr:housenumber": "201", "addr:postcode": "60611", "addr:state": "IL", "addr:street": "East Grand Avenue", "amenity": "restaurant", "name": "Volare Ristorante Italiano", "phone": "+1-312-410-9900", "website": "https://www.volarerestaurant.com/"}}, {"type": "node", "id": 6318200251, "lat": 41.8826022, "lon": -87.6247232, "tags": {"addr:city": "Chicago", "addr:housenumber": "3005", "addr:postcode": "60602", "addr:state": "IL", "addr:street": "North Michigan Avenue", "amenity": "cafe", "brand": "Le Pain Quotidien", "brand:wikidata": "Q2046903", "brand:wikipedia": "en:Le Pain Quotidien", "cuisine": "coffee_shop", "diet:vegan": "yes", "diet:vegetarian": "yes", "name": "Le Pain Quotidien", "opening_hours": "Mo-Su 07:00-19:00", "phone": "+1-312-488-1902", "takeaway": "yes", "website": "https://www1.lepainquotidien.com/us/en/locations/604/20-n-michigan-ave"}}, {"type": "node", "id": 6318390855, "lat": 41.884821, "lon": -87.6249486, "tags": {"addr:city": "Chicago", "addr:housenumber": "150", "addr:postcode": "60601", "addr:state": "IL", "addr:street": "North Michigan Avenue", "amenity": "cafe", "name": "Limitless Coffee & Tea", "phone": "+1-312-624-8394", "website": "https://limitlesscoffee.com/store-locator/"}}, {"type": "node", "id": 6321792024, "lat": 41.8922985, "lon": -87.6246308, "tags": {"addr:city": "Chicago", "addr:housenumber": "540", "addr:postcode": "60611", "addr:state": "IL", "addr:street": "North Michigan Avenue", "amenity": "bar", "name": "Rush Bar & Lounge", "phone": "+1-312-836-6334", "website": "http://deals.marriott.com/rush-bar-lounge"}}, {"type": "node", "id": 6322131726, "lat": 41.887808, "lon": -87.624171, "tags": {"addr:city": "Chicago", "addr:housenumber": "333", "addr:postcode": "60601", "addr:state": "IL", "addr:street": "North Michigan Avenue", "addr:unit": "4", "amenity": "bar", "name": "Tavern Club at 333", "phone": "+1-312-925-8984", "website": "https://tavernclub333.com/"}}, {"type": "node", "id": 6322557347, "lat": 41.8915341, "lon": -87.6249053, "tags": {"addr:city": "Chicago", "addr:housenumber": "520", "addr:postcode": "60611", "addr:state": "IL", "addr:street": "North Michigan Avenue", "addr:unit": "2", "amenity": "cafe", "name": "Teavana", "phone": "+1-312-527-3584", "website": "https://www.teavana.com/"}}, {"type": "node", "id": 6322607204, "lat": 41.8913879, "lon": -87.6238131, "tags": {"addr:city": "Chicago", "addr:housenumber": "505", "addr:postcode": "60611", "addr:state": "IL", "addr:street": "North Michigan Avenue", "amenity": "restaurant", "cuisine": "steak_house;steak;american", "name": "Michael Jordan\u2019s Steak House", "phone": "+1-312-321-8823", "website": "http://mjshchicago.com/"}}, {"type": "node", "id": 6322745992, "lat": 41.8860682, "lon": -87.6258495, "tags": {"addr:city": "Chicago", "addr:housenumber": "203", "addr:postcode": "60601", "addr:state": "IL", "addr:street": "North Wabash Avenue", "amenity": "restaurant", "name": "Miss Ricky\u2019s", "phone": "+1-312-940-4777", "website": "https://virginhotels.com/chicago/dine-and-drink/miss-rickys/"}}, {"type": "node", "id": 6323023444, "lat": 41.8875875, "lon": -87.6249841, "tags": {"addr:city": "Chicago", "addr:housenumber": "326", "addr:postcode": "60601", "addr:state": "IL", "addr:street": "North Michigan Avenue", "amenity": "restaurant", "name": "Naf Naf Grill", "phone": "+1-312-263-0019", "website": "https://nafnafgrill.com/"}}, {"type": "node", "id": 6323164861, "lat": 41.8797785, "lon": -87.6255767, "tags": {"addr:city": "Chicago", "addr:housenumber": "60", "addr:postcode": "60603", "addr:state": "IL", "addr:street": "East Adams Street", "amenity": "cafe", "name": "Nilly Cafe", "phone": "+1-312-358-1470", "website": "http://www.nillycafe.com/"}}, {"type": "node", "id": 6323201926, "lat": 41.8913346, "lon": -87.6259401, "tags": {"addr:city": "Chicago", "addr:housenumber": "55", "addr:postcode": "60611", "addr:state": "IL", "addr:street": "East Grand Avenue", "amenity": "cafe", "name": "Nordstrom Ebar Artisan Coffee", "phone": "+1-312-464-1515", "website": "https://shop.nordstrom.com/store-details/nordstrom-michigan-avenue#restaurants?cm_mmc=yelp-_-ycm-_-rest-_-26220"}}, {"type": "node", "id": 6324364633, "lat": 41.8919798, "lon": -87.6235962, "tags": {"addr:city": "Chicago", "addr:housenumber": "535", "addr:postcode": "60611", "addr:state": "IL", "addr:street": "North Michigan Avenue", "amenity": "cafe", "name": "Labriola", "phone": "+1-312-955-3100", "website": "https://www.labriolacafe.com/"}}, {"type": "node", "id": 6324376885, "lat": 41.8891535, "lon": -87.619764, "tags": {"addr:city": "Chicago", "addr:housenumber": "301", "addr:postcode": "60611", "addr:state": "IL", "addr:street": "East North Water Street", "amenity": "cafe", "name": "The Link@Sheraton Cafe", "website": "https://www.marriott.com/hotels/hotel-information/restaurant/chigs-sheraton-grand-chicago?program=spg"}}, {"type": "node", "id": 6324385517, "lat": 41.8874524, "lon": -87.6216548, "tags": {"addr:city": "Chicago", "addr:housenumber": "151", "addr:postcode": "60601", "addr:state": "IL", "addr:street": "East Upper Wacker Drive", "amenity": "restaurant", "name": "The Living Room", "phone": "+1-312-565-1234", "website": "https://www.hyatt.com/en-US/hotel/illinois/hyatt-regency-chicago/chirc/dining"}}, {"type": "node", "id": 6325990674, "lat": 41.8907631, "lon": -87.6172397, "tags": {"addr:city": "Chicago", "addr:housenumber": "465", "addr:postcode": "60611", "addr:state": "IL", "addr:street": "North McClurg Court", "amenity": "bar", "name": "Winter\u2019s Jazz Club", "website": "https://www.wintersjazzclub.com/"}}, {"type": "node", "id": 6326350643, "lat": 41.8873394, "lon": -87.6215813, "tags": {"addr:city": "Chicago", "addr:housenumber": "151", "addr:postcode": "60601", "addr:state": "IL", "addr:street": "East South Water Street", "amenity": "cafe", "name": "Market Chicago"}}, {"type": "node", "id": 6326420731, "lat": 41.8852755, "lon": -87.6187686, "tags": {"addr:city": "Chicago", "addr:housenumber": "333", "addr:postcode": "60601", "addr:state": "IL", "addr:street": "East Benton Place", "amenity": "restaurant", "name": "MingHin Cuisine", "phone": "+1-312-228-1333", "website": "https://www.minghincuisine.com/"}}, {"type": "node", "id": 6356726511, "lat": 41.8898716, "lon": -87.6193007, "tags": {"addr:city": "Chicago", "addr:housenumber": "455", "addr:postcode": "60611", "addr:state": "IL", "addr:street": "North Park Drive", "amenity": "restaurant", "cuisine": "american", "name": "ETA Restaurant + Bar", "opening_hours": "Mo-Th 06:30-21:00; Fr 06:30-22:00; Sa 07:00-22:00; Su 07:00-21:00", "phone": "+1-312-840-6605", "website": "https://www.etarestaurantandbar.com/"}}, {"type": "node", "id": 6407510885, "lat": 41.8919786, "lon": -87.6229324, "tags": {"addr:city": "Chicago", "addr:housenumber": "164", "addr:postcode": "60611", "addr:state": "IL", "addr:street": "East Grand Avenue", "amenity": "restaurant", "cuisine": "seafood", "name": "The Hampton Social", "opening_hours": "Mo-Th 11:00-22:00; Fr-Sa 11:00-23:00; Su 10:00-22:00", "phone": "+1-312-414-1861", "website": "https://www.hamptonsocial.com"}}, {"type": "node", "id": 6412859404, "lat": 41.8879247, "lon": -87.62518, "tags": {"addr:city": "Chicago", "addr:housenumber": "87", "addr:postcode": "60601", "addr:state": "IL", "addr:street": "East Upper Wacker Drive", "amenity": "restaurant", "cuisine": "seafood;fine_dining", "name": "Ocean Prime", "phone": "+1-312-428-4344", "website": "https://www.ocean-prime.com/locations-menus/chicago"}}, {"type": "node", "id": 6466670487, "lat": 41.8919449, "lon": -87.6224525, "tags": {"amenity": "restaurant", "name": "Hampton social"}}, {"type": "node", "id": 6466677386, "lat": 41.8925119, "lon": -87.6184597, "tags": {"amenity": "restaurant", "name": "Streeterville pizzeria and tap"}}, {"type": "node", "id": 6642064379, "lat": 41.8912599, "lon": -87.6068669, "tags": {"addr:city": "Chicago", "addr:housenumber": "600", "addr:postcode": "60611", "addr:state": "IL", "addr:street": "East Grand Avenue", "amenity": "restaurant", "cuisine": "middle_eastern;mediterranean", "name": "IDOF - I Dream Of Falafel", "website": "http://www.idreamoffalafel.com/"}}, {"type": "node", "id": 7025601483, "lat": 41.8884935, "lon": -87.6248494, "tags": {"amenity": "restaurant", "name": "Beat Kitchen"}}, {"type": "way", "id": 28292665, "nodes": [417255758, 417255755, 417255756, 417255759, 310690823, 310690824, 1586352084, 310690825, 310690826, 1586352086, 2143100432, 310690817, 417255762, 2180600329, 2180600367, 2180600354, 1589049102, 310690820, 1388390051, 417255753, 2180600349, 2180600356, 2180600337, 1407580195, 417255758], "tags": {"amenity": "university", "name": "DePaul University (the Loop Campus)", "wheelchair": "yes"}}, {"type": "way", "id": 64388609, "nodes": [792325825, 2884825221, 2884825219, 2438340739, 2884825220, 2884825222, 792325828, 2884825224, 1579399010, 2884825231, 2884825233, 792325831, 2884825235, 2884825237, 2391278941, 2884825236, 2884825234, 792325834, 2884825232, 2884825230, 2391278936, 2391283010, 2884825225, 2884825223, 792325825], "tags": {"addr:city": "Chicago", "addr:housenumber": "200", "addr:postcode": "60601", "addr:state": "IL", "addr:street": "East Randolph Street", "addr:street:name": "Randolph", "addr:street:prefix": "East", "addr:street:type": "Street", "amenity": "bar", "building": "yes", "building:colour": "white", "building:levels": "83", "chicago:building_id": "353242", "height": "340", "name": "Red Bar", "name:ru": "\u0410\u043e\u043d-\u0446\u0435\u043d\u0442\u0440", "name:uk": "\u0410\u043e\u043d \u0446\u0435\u043d\u0442\u0440", "old_name": "Amoco Tower", "roof:material": "concrete", "roof:shape": "flat", "start_date": "1974", "wikidata": "Q271695", "wikipedia": "en:Aon Center (Chicago)"}}, {"type": "way", "id": 153735901, "nodes": [1663730900, 1663730890, 1663730902, 1663730933, 1663730900], "tags": {"addr:housenumber": "201", "addr:postcode": "60611", "addr:street": "East Grand Avenue", "addr:street:name": "Grand", "addr:street:prefix": "East", "addr:street:type": "Avenue", "amenity": "restaurant", "building": "yes", "building:levels": "2", "chicago:building_id": "347361", "name": "Volare"}}, {"type": "way", "id": 210671717, "nodes": [2207543668, 2885201541, 2207543820, 2207543823, 2391131209, 2207543732, 2885201538, 2207543684, 2397703811, 2207543680, 2397703813, 2397703812, 2207543668], "tags": {"addr:housenumber": "150", "addr:street": "North Michigan Avenue", "addr:street:name": "Michigan", "addr:street:prefix": "North", "addr:street:type": "Avenue", "amenity": "cafe", "building": "yes", "chicago:building_id": "353775", "name": "Crain Communications Building", "old_name": "Smurfit-Stone Building", "start_date": "1984", "wikidata": "Q2444330", "wikipedia": "en:Crain Communications Building"}}, {"type": "way", "id": 210679989, "nodes": [2207598653, 2207598654, 2207598386, 2207598383, 2207598653], "tags": {"addr:city": "Chicago", "addr:housenumber": "43", "addr:postcode": "60611", "addr:state": "IL", "addr:street": "East Ohio Street", "addr:street:name": "Ohio", "addr:street:prefix": "East", "addr:street:type": "Street", "amenity": "restaurant", "building": "yes", "building:levels": "19", "chicago:building_id": "837926", "cuisine": "italian", "name": "Eataly", "opening_hours": "Su-Th 07:30-22:00; Fr-Sa 07:30-23:00", "phone": "+1-312-521-8700", "website": "https://www.eataly.com"}}]}