{"version": 0.6, "generator": "Overpass API 0.7.56.1004 6cd3eaec", "osm3s": {"timestamp_osm_base": "2020-07-22T05:18:02Z", "copyright": "The data included in this document is from www.openstreetmap.org. The data is made available under ODbL."}, "elements": [{"type": "node", "id": 1741514077, "lat": 41.7777828, "lon": -87.7428312}, {"type": "node", "id": 1741514109, "lat": 41.7777885, "lon": -87.742547}, {"type": "node", "id": 1741514552, "lat": 41.7779059, "lon": -87.7424928}, {"type": "node", "id": 1741514561, "lat": 41.7779079, "lon": -87.7425481}, {"type": "node", "id": 1741514697, "lat": 41.7779571, "lon": -87.7428381}, {"type": "node", "id": 1741514711, "lat": 41.7779633, "lon": -87.7424956}, {"type": "node", "id": 1741616540, "lat": 41.7748632, "lon": -87.7427095}, {"type": "node", "id": 1741616545, "lat": 41.7748907, "lon": -87.7424635}, {"type": "node", "id": 1741616564, "lat": 41.7749608, "lon": -87.7423998}, {"type": "node", "id": 1741616728, "lat": 41.7750785, "lon": -87.7423903}, {"type": "node", "id": 1741616771, "lat": 41.7750725, "lon": -87.742724}, {"type": "node", "id": 4245920336, "lat": 41.7731238, "lon": -87.7431874, "tags": {"addr:city": "Bedford Park", "addr:housenumber": "6600", "addr:postcode": "60638", "addr:street": "South Cicero Avenue", "amenity": "restaurant", "brand": "TGI Friday's", "brand:wikidata": "Q1524184", "brand:wikipedia": "en:TGI Fridays", "cuisine": "american", "name": "TGI Friday's", "website": "https://www.midwayhotelcenter.com/tgi-fridays.htm"}}, {"type": "node", "id": 4449187734, "lat": 41.77057, "lon": -87.7228231, "tags": {"addr:city": "Chicago", "addr:housenumber": "6724", "addr:postcode": "60629", "addr:state": "IL", "addr:street": "South Pulaski Road", "amenity": "restaurant", "name": "Birrieria De La Torre", "owner": "Iris Zavala", "phone": "+1 773 7676075", "website": "http://birrieriadelatorre.net"}}, {"type": "node", "id": 5503463802, "lat": 41.7748764, "lon": -87.7425229}, {"type": "node", "id": 6322996165, "lat": 41.7786634, "lon": -87.739553, "tags": {"addr:city": "Chicago", "addr:housenumber": "4654", "addr:postcode": "60629", "addr:state": "IL", "addr:street": "West 63rd Street", "amenity": "bar", "name": "Mr C\u2019s Midway Bar", "phone": "+1-773-582-0833"}}, {"type": "node", "id": 6396302985, "lat": 41.7782039, "lon": -87.7404588, "tags": {"amenity": "restaurant", "cuisine": "diner", "name": "Top View"}}, {"type": "way", "id": 162229264, "nodes": [1741514697, 1741514711, 1741514552, 1741514561, 1741514109, 1741514077, 1741514697], "tags": {"addr:city": "Chicago", "addr:housenumber": "6314", "addr:postcode": "60638", "addr:street": "South Cicero Avenue", "addr:street:name": "Cicero", "addr:street:prefix": "South", "addr:street:type": "Avenue", "amenity": "restaurant", "building": "yes", "chicago:building_id": "828288", "cuisine": "pizza", "name": "Giordano's"}}, {"type": "way", "id": 162237485, "nodes": [1741616540, 1741616771, 1741616728, 1741616564, 1741616545, 5503463802, 1741616540], "tags": {"addr:city": "Chicago", "addr:housenumber": "6456", "addr:postcode": "60638", "addr:street": "South Cicero Avenue", "addr:street:name": "Cicero", "addr:street:prefix": "South", "addr:street:type": "Avenue", "amenity": "restaurant", "building": "yes", "building:levels": "1", "chicago:building_id": "551100", "cuisine": "pizza", "name": "Lou Malnati's Pizza", "website": "https://www.loumalnatis.com/chicago-midway"}}]}