{"version": 0.6, "generator": "Overpass API 0.7.56.3 eb200aeb", "osm3s": {"timestamp_osm_base": "2020-07-04T02:38:02Z", "copyright": "The data included in this document is from www.openstreetmap.org. The data is made available under ODbL."}, "elements": [{"type": "node", "id": 738165256, "lat": 41.8456596, "lon": -87.6511367}, {"type": "node", "id": 738165257, "lat": 41.8455727, "lon": -87.651464}, {"type": "node", "id": 738165258, "lat": 41.8454338, "lon": -87.6520138}, {"type": "node", "id": 738165259, "lat": 41.845295, "lon": -87.6525744}, {"type": "node", "id": 738165260, "lat": 41.8451881, "lon": -87.6529579}, {"type": "node", "id": 738165261, "lat": 41.8451052, "lon": -87.6532221}, {"type": "node", "id": 738165262, "lat": 41.8450122, "lon": -87.6534917}, {"type": "node", "id": 738165263, "lat": 41.8449173, "lon": -87.6537412}, {"type": "node", "id": 738165264, "lat": 41.8448074, "lon": -87.6540094}, {"type": "node", "id": 738165265, "lat": 41.8447105, "lon": -87.6542307}, {"type": "node", "id": 738165266, "lat": 41.8445976, "lon": -87.6544734}, {"type": "node", "id": 738165267, "lat": 41.8444528, "lon": -87.6547738}, {"type": "node", "id": 738165315, "lat": 41.8456227, "lon": -87.6511112}, {"type": "node", "id": 738165318, "lat": 41.8444208, "lon": -87.654755}, {"type": "node", "id": 738165319, "lat": 41.8445677, "lon": -87.6544546}, {"type": "node", "id": 738165320, "lat": 41.8446856, "lon": -87.6541985}, {"type": "node", "id": 738165321, "lat": 41.8448014, "lon": -87.6539289}, {"type": "node", "id": 738165322, "lat": 41.8448924, "lon": -87.6537036}, {"type": "node", "id": 738165323, "lat": 41.8449873, "lon": -87.6534542}, {"type": "node", "id": 738165324, "lat": 41.8450802, "lon": -87.6531833}, {"type": "node", "id": 738165326, "lat": 41.8451711, "lon": -87.6528895}, {"type": "node", "id": 738165327, "lat": 41.845264, "lon": -87.6525503}, {"type": "node", "id": 738165328, "lat": 41.8453719, "lon": -87.6521238}, {"type": "node", "id": 738165329, "lat": 41.8454898, "lon": -87.6516437}, {"type": "node", "id": 738165330, "lat": 41.8455567, "lon": -87.6513701}, {"type": "node", "id": 2001858243, "lat": 41.8378637, "lon": -87.6509776, "tags": {"addr:city": "Chicago", "addr:housenumber": "3101", "addr:postcode": "60608", "addr:state": "IL", "addr:street": "South Morgan Street", "amenity": "cafe", "cuisine": "coffee_shop", "name": "Bridgeport Coffeehouse", "phone": "+1-773-247-9950", "website": "https://bridgeportcoffee.net/"}}, {"type": "node", "id": 2202807300, "lat": 41.8352393, "lon": -87.6465797}, {"type": "node", "id": 2202807316, "lat": 41.835246, "lon": -87.6463265}, {"type": "node", "id": 2202807438, "lat": 41.8352942, "lon": -87.646581}, {"type": "node", "id": 2202807462, "lat": 41.835301, "lon": -87.6463295}, {"type": "node", "id": 3451393716, "lat": 41.8331843, "lon": -87.6465002}, {"type": "node", "id": 3451393717, "lat": 41.833188, "lon": -87.6462878}, {"type": "node", "id": 3451393718, "lat": 41.8331229, "lon": -87.6462827}, {"type": "node", "id": 3451393719, "lat": 41.8331229, "lon": -87.6464992}, {"type": "node", "id": 3451393720, "lat": 41.8331532, "lon": -87.6464453, "tags": {"addr:city": "Chicago", "addr:housenumber": "3356", "addr:postcode": "60608", "addr:state": "IL", "addr:street": "South Halsted Street", "amenity": "bar", "name": "Mitchell's Tap", "phone": "+1-773-927-6073", "website": "http://www.mitchellstap.net/"}}, {"type": "node", "id": 4143181024, "lat": 41.8361369, "lon": -87.6459726, "tags": {"addr:city": "Chicago", "addr:housenumber": "755", "addr:postcode": "60608", "addr:state": "IL", "addr:street": "West 32nd Street", "amenity": "cafe", "internet_access": "wlan", "name": "Jackalope Coffee & Tea House", "phone": "+1-312-888-3468", "website": "https://www.jackalopecoffee.com/"}}, {"type": "node", "id": 4427225176, "lat": 41.83064, "lon": -87.6462737, "tags": {"addr:city": "Chicago", "addr:housenumber": "3500", "addr:postcode": "60609", "addr:state": "IL", "addr:street": "South Halsted Street", "amenity": "restaurant", "cuisine": "american", "name": "Bridgeport Restaurant", "website": "http://bridgeport-chicago.com/"}}, {"type": "node", "id": 4642697041, "lat": 41.8381319, "lon": -87.6511355, "tags": {"addr:city": "Chicago", "addr:housenumber": "960", "addr:postcode": "60608", "addr:state": "IL", "addr:street": "West 31st Street", "amenity": "bar", "name": "Maria's Packaged Goods & Community Bar", "phone": "+1-773-890-0588", "website": "http://www.community-bar.com/"}}, {"type": "node", "id": 4642697042, "lat": 41.8380973, "lon": -87.6509999, "tags": {"addr:city": "Chicago", "addr:housenumber": "960", "addr:postcode": "60608", "addr:state": "IL", "addr:street": "West 31st Street", "amenity": "restaurant", "capacity": "26", "cuisine": "korean;polish", "delivery": "yes", "name": "Kimski", "outdoor_seating": "yes", "takeaway": "yes"}}, {"type": "node", "id": 5168247653, "lat": 41.837949, "lon": -87.6417195, "tags": {"addr:housenumber": "605", "addr:street": "West 31st Street", "amenity": "restaurant", "description": "Bib Gourmand recommendation", "name": "Han 202 Restaurant", "phone": "312 949 1314"}}, {"type": "node", "id": 6284520125, "lat": 41.8368265, "lon": -87.6459288, "tags": {"addr:city": "Chicago", "addr:housenumber": "3141", "addr:postcode": "60608", "addr:state": "IL", "addr:street": "South Halsted Street", "amenity": "restaurant", "name": "Do Eat", "phone": "+1-312-526-3938"}}, {"type": "node", "id": 6317111771, "lat": 41.8370414, "lon": -87.6509912, "tags": {"addr:city": "Chicago", "addr:housenumber": "3129", "addr:postcode": "60608", "addr:state": "IL", "addr:street": "South Morgan Street", "amenity": "restaurant", "name": "Zaytune Mediterranean Grill", "phone": "+1-773-254-6300", "website": "http://www.zaytunegrill.com/"}}, {"type": "node", "id": 6322631625, "lat": 41.8353867, "lon": -87.6459308, "tags": {"addr:city": "Chicago", "addr:housenumber": "3235", "addr:postcode": "60608", "addr:state": "IL", "addr:street": "South Halsted Street", "amenity": "restaurant", "name": "Min\u2019s Noodle House", "phone": "+1-312-465-2999", "website": "https://minsnoodlehouse.business.site/"}}, {"type": "way", "id": 59520424, "nodes": [738165256, 738165257, 738165258, 738165259, 738165260, 738165261, 738165262, 738165263, 738165264, 738165265, 738165266, 738165267], "tags": {"electrified": "rail", "frequency": "0", "gauge": "1435", "name": "Orange Line", "old_railway_operator": "AT&SF", "oneway": "yes", "operator": "Chicago Transit Authority", "railway": "subway", "voltage": "600"}}, {"type": "way", "id": 59520458, "nodes": [738165318, 738165319, 738165320, 738165321, 738165322, 738165323, 738165324, 738165326, 738165327, 738165328, 738165329, 738165330, 738165315], "tags": {"electrified": "rail", "frequency": "0", "gauge": "1435", "name": "Orange Line", "old_railway_operator": "AT&SF", "oneway": "yes", "operator": "Chicago Transit Authority", "railway": "subway", "voltage": "600"}}, {"type": "way", "id": 210169914, "nodes": [2202807300, 2202807438, 2202807462, 2202807316, 2202807300], "tags": {"addr:city": "Chicago", "addr:housenumber": "3238", "addr:postcode": "60608", "addr:state": "IL", "addr:street": "South Halsted Street", "addr:street:name": "Halsted", "addr:street:prefix": "South", "addr:street:type": "Street", "amenity": "bar", "building": "yes", "building:levels": "2", "chicago:building_id": "411906", "name": "Bernice's Tavern", "phone": "+1-312-961-5516"}}, {"type": "way", "id": 338075890, "nodes": [3451393716, 3451393717, 3451393718, 3451393719, 3451393716], "tags": {"addr:city": "Chicago", "addr:housenumber": "3356", "addr:state": "IL", "addr:street": "South Halsted Street", "amenity": "bar", "building": "yes"}}]}