{"version": 0.6, "generator": "Overpass API 0.7.56.1004 6cd3eaec", "osm3s": {"timestamp_osm_base": "2020-07-22T03:32:03Z", "copyright": "The data included in this document is from www.openstreetmap.org. The data is made available under ODbL."}, "elements": [{"type": "node", "id": 2297677072, "lat": 41.9681478, "lon": -87.7439183, "tags": {"addr:city": "Chicago", "addr:housenumber": "4624", "addr:postcode": "60630", "addr:street": "West Lawrence Avenue", "amenity": "restaurant", "cuisine": "middle_eastern", "name": "Hala In", "phone": "773-930-3612", "website": "http://www.hala-in.com/"}}, {"type": "node", "id": 2397800670, "lat": 41.9650696, "lon": -87.7444297, "tags": {"addr:city": "Chicago", "addr:housename": "Irish American Heritage Center", "addr:housenumber": "4626", "addr:postcode": "60630", "addr:street": "North Knox Avenue", "amenity": "bar", "name": "5th Province"}}, {"type": "node", "id": 5769296254, "lat": 41.9751574, "lon": -87.7521628, "tags": {"addr:city": "Chicago", "addr:housenumber": "4945", "addr:postcode": "60630", "addr:state": "IL", "addr:street": "West Foster Avenue", "amenity": "bar", "name": "Rabbit\u2019s Bar and Grill", "outdoor_seating": "yes", "phone": "+1-773-736-5766", "website": "http://www.rabbitsbar.com/"}}, {"type": "node", "id": 6263888085, "lat": 41.9611391, "lon": -87.7550894, "tags": {"addr:city": "Chicago", "addr:housenumber": "4416", "addr:postcode": "60630", "addr:state": "IL", "addr:street": "North Milwaukee Avenue", "amenity": "bar", "name": "Babe\u2019s On Milwaukee", "phone": "+1-773-545-3137"}}, {"type": "node", "id": 6294627870, "lat": 41.9604315, "lon": -87.7541054, "tags": {"addr:city": "Chicago", "addr:housenumber": "4359", "addr:postcode": "60630", "addr:state": "IL", "addr:street": "North Milwaukee Avenue", "amenity": "bar", "name": "Hops & Barley\u2019s", "phone": "+1-773-286-7415", "website": "https://www.hopsandbarleychicago.com/"}}, {"type": "node", "id": 6297835323, "lat": 41.9609937, "lon": -87.7394333, "tags": {"addr:city": "Chicago", "addr:housenumber": "4424", "addr:postcode": "60641", "addr:state": "IL", "addr:street": "West Montrose Avenue", "amenity": "bar", "name": "Sidekicks", "phone": "+1-773-545-6212", "website": "http://sidekicks-chicago.com/"}}, {"type": "node", "id": 6300634167, "lat": 41.9728492, "lon": -87.7454955, "tags": {"addr:city": "Chicago", "addr:housenumber": "5033", "addr:postcode": "60630", "addr:state": "IL", "addr:street": "North Elston Avenue", "amenity": "cafe", "name": "Red Ribbon", "phone": "+1-773-685-5888", "website": "http://redribbonbakeshop.us/"}}, {"type": "node", "id": 6301874985, "lat": 41.9708243, "lon": -87.7440371, "tags": {"addr:city": "Chicago", "addr:housenumber": "4953", "addr:postcode": "60630", "addr:state": "IL", "addr:street": "North Elston Avenue", "amenity": "bar", "name": "Sunnyday Tap", "phone": "+1-773-725-5080"}}, {"type": "node", "id": 6322982333, "lat": 41.9754335, "lon": -87.7522985, "tags": {"addr:city": "Chicago", "addr:housenumber": "5200", "addr:postcode": "60630", "addr:state": "IL", "addr:street": "North Elston Avenue", "amenity": "restaurant", "name": "Mother Cluckers Kitchen", "phone": "+1-773-685-4630", "website": "http://mothercluckerskitchen.com/"}}, {"type": "node", "id": 6323951051, "lat": 41.960549, "lon": -87.73934, "tags": {"addr:city": "Chicago", "addr:housenumber": "4419", "addr:postcode": "60641", "addr:state": "IL", "addr:street": "West Montrose Avenue", "amenity": "bar", "name": "Old Irving Brewing", "phone": "+1-773-916-6421", "website": "https://www.oldirvingbrewing.com/"}}, {"type": "node", "id": 6324375286, "lat": 41.9604534, "lon": -87.7459731, "tags": {"addr:city": "Chicago", "addr:housenumber": "4727", "addr:postcode": "60641", "addr:state": "IL", "addr:street": "West Montrose Avenue", "amenity": "bar", "name": "Lake Effect Brewing Company", "phone": "+1-312-523-5141", "website": "http://www.lakeeffectbrewing.com/"}}, {"type": "node", "id": 6324500111, "lat": 41.9631548, "lon": -87.7569774, "tags": {"addr:city": "Chicago", "addr:housenumber": "4530", "addr:postcode": "60630", "addr:state": "IL", "addr:street": "North Milwaukee Avenue", "amenity": "bar", "name": "The Windsor Tavern", "phone": "+1-773-736-3400"}}, {"type": "node", "id": 7121409342, "lat": 41.9586713, "lon": -87.7522752, "tags": {"addr:city": "Chicago", "addr:housenumber": "4263", "addr:postcode": "60641", "addr:state": "IL", "addr:street": "North Milwaukee Avenue", "amenity": "restaurant", "cuisine": "mexican;tacos", "name": "Simon Tacos", "phone": "773-930-3273"}}]}