{"version": 0.6, "generator": "Overpass API 0.7.56.3 eb200aeb", "osm3s": {"timestamp_osm_base": "2020-07-04T03:46:02Z", "copyright": "The data included in this document is from www.openstreetmap.org. The data is made available under ODbL."}, "elements": [{"type": "node", "id": 414253932, "lat": 41.9605249, "lon": -87.6836882}, {"type": "node", "id": 414253933, "lat": 41.9608674, "lon": -87.6836899}, {"type": "node", "id": 414253934, "lat": 41.9605679, "lon": -87.6833952}, {"type": "node", "id": 1317862227, "lat": 41.959724, "lon": -87.6828837, "tags": {"addr:city": "Chicago", "addr:housenumber": "4300", "addr:postcode": "60618", "addr:state": "IL", "addr:street": "North Lincoln Avenue", "amenity": "restaurant", "name": "The Bad Apple", "phone": "+1-773-360-8406", "website": "http://www.badapplebar.com/"}}, {"type": "node", "id": 1385113906, "lat": 41.9591945, "lon": -87.6820201, "tags": {"addr:city": "Chicago", "addr:housenumber": "4257", "addr:postcode": "60618", "addr:state": "IL", "addr:street": "North Lincoln Avenue", "amenity": "pub", "name": "Half Acre Beer Company", "phone": "+1-773-754-8488", "website": "https://www.halfacrebeer.com/"}}, {"type": "node", "id": 1557244581, "lat": 41.959466, "lon": -87.6826489, "tags": {"addr:city": "Chicago", "addr:housenumber": "4264", "addr:postcode": "60618", "addr:state": "IL", "addr:street": "North Lincoln Avenue", "amenity": "bar", "name": "Gannon\u2019s Pub", "phone": "+1-773-281-1007", "website": "http://www.gannonspub.com/"}}, {"type": "node", "id": 2196801934, "lat": 41.9479014, "lon": -87.6887666}, {"type": "node", "id": 2196801942, "lat": 41.9479059, "lon": -87.6885603}, {"type": "node", "id": 2196802912, "lat": 41.9479946, "lon": -87.6887051}, {"type": "node", "id": 2196802925, "lat": 41.9479123, "lon": -87.6885092}, {"type": "node", "id": 2196803265, "lat": 41.9483151, "lon": -87.6881156}, {"type": "node", "id": 2196803268, "lat": 41.9483155, "lon": -87.687941}, {"type": "node", "id": 2196803460, "lat": 41.948379, "lon": -87.6880139}, {"type": "node", "id": 2196803462, "lat": 41.94838, "lon": -87.6879422}, {"type": "node", "id": 2196803476, "lat": 41.9483851, "lon": -87.6881168}, {"type": "node", "id": 2196803481, "lat": 41.948386, "lon": -87.6880304}, {"type": "node", "id": 2196816832, "lat": 41.9536122, "lon": -87.6993319}, {"type": "node", "id": 2196816834, "lat": 41.9536144, "lon": -87.69924}, {"type": "node", "id": 2196816858, "lat": 41.9536295, "lon": -87.6992417}, {"type": "node", "id": 2196816860, "lat": 41.9536307, "lon": -87.6992104}, {"type": "node", "id": 2196817156, "lat": 41.9538331, "lon": -87.6993371}, {"type": "node", "id": 2196817161, "lat": 41.9538352, "lon": -87.6992158}, {"type": "node", "id": 2196852266, "lat": 41.9605686, "lon": -87.6831149}, {"type": "node", "id": 2196852275, "lat": 41.9605716, "lon": -87.6829126}, {"type": "node", "id": 2196852428, "lat": 41.9606238, "lon": -87.6831603}, {"type": "node", "id": 2196852486, "lat": 41.9606386, "lon": -87.6831178}, {"type": "node", "id": 2196852494, "lat": 41.9606407, "lon": -87.6829947}, {"type": "node", "id": 2196852573, "lat": 41.9606681, "lon": -87.6829944}, {"type": "node", "id": 2196852579, "lat": 41.960669, "lon": -87.6829153}, {"type": "node", "id": 2200792411, "lat": 41.9594406, "lon": -87.682244, "tags": {"amenity": "pub", "name": "Wild Goose"}}, {"type": "node", "id": 3011103181, "lat": 41.9546765, "lon": -87.6887215, "tags": {"addr:housenumber": "4018", "addr:street": "North Western Avenue", "amenity": "restaurant", "cuisine": "thai", "name": "Sticky Rice", "opening_hours": "Mo-Sa 11:30-23:00; Su 12:00-22:00", "website": "http://www.stickyricethai.com/"}}, {"type": "node", "id": 3015672019, "lat": 41.9536402, "lon": -87.6991711, "tags": {"amenity": "restaurant", "cuisine": "mexican", "name": "The Famous Taco Burrito"}}, {"type": "node", "id": 3015676165, "lat": 41.954379, "lon": -87.6986616, "tags": {"amenity": "restaurant", "cuisine": "chinese", "name": "Lo's China Kitchen"}}, {"type": "node", "id": 3908971502, "lat": 41.9479967, "lon": -87.6885857}, {"type": "node", "id": 3908971503, "lat": 41.9478809, "lon": -87.68863}, {"type": "node", "id": 3908971505, "lat": 41.947906, "lon": -87.6886272}, {"type": "node", "id": 3908971506, "lat": 41.9479675, "lon": -87.6887728}, {"type": "node", "id": 3908971507, "lat": 41.9479696, "lon": -87.6887027}, {"type": "node", "id": 3908971508, "lat": 41.9479719, "lon": -87.6885784}, {"type": "node", "id": 3908971509, "lat": 41.9478839, "lon": -87.6885711}, {"type": "node", "id": 3908971510, "lat": 41.9479736, "lon": -87.6885143}, {"type": "node", "id": 4232040660, "lat": 41.9477958, "lon": -87.6952503, "tags": {"amenity": "pub", "name": "Heineken Pub97"}}, {"type": "node", "id": 5861896117, "lat": 41.9608711, "lon": -87.6836122}, {"type": "node", "id": 5861896118, "lat": 41.9605287, "lon": -87.6835098}, {"type": "node", "id": 6280614231, "lat": 41.9538699, "lon": -87.6854312, "tags": {"addr:city": "Chicago", "addr:housenumber": "2245", "addr:postcode": "60618", "addr:state": "IL", "addr:street": "West Irving Park Road", "amenity": "restaurant", "name": "Chayhana", "phone": "+1-773-942-7720", "website": "http://chayhanachicago.com/"}}, {"type": "node", "id": 6294280332, "lat": 41.9476722, "lon": -87.6956965, "tags": {"addr:city": "Chicago", "addr:housenumber": "3626", "addr:postcode": "60618", "addr:state": "IL", "addr:street": "North Talman Avenue", "amenity": "bar", "name": "Heineken Pub97", "phone": "+1-773-944-1203", "website": "https://www.heinekenpub97.com/"}}, {"type": "node", "id": 6300337645, "lat": 41.9575235, "lon": -87.6813429, "tags": {"addr:city": "Chicago", "addr:housenumber": "4160", "addr:postcode": "60618", "addr:state": "IL", "addr:street": "North Lincoln Avenue", "amenity": "restaurant", "name": "Square Biscuits", "phone": "+1-773-880-1100", "website": "https://www.squarebiscuits.com/"}}, {"type": "node", "id": 6300622085, "lat": 41.9575579, "lon": -87.6814389, "tags": {"addr:city": "Chicago", "addr:housenumber": "4164", "addr:postcode": "60618", "addr:state": "IL", "addr:street": "North Lincoln Avenue", "amenity": "cafe", "name": "Red Eyes Coffee", "phone": "+1-773-327-9478"}}, {"type": "node", "id": 6301050172, "lat": 41.9466297, "lon": -87.6832356, "tags": {"addr:city": "Chicago", "addr:housenumber": "2159", "addr:postcode": "60618", "addr:state": "IL", "addr:street": "West Addison Street", "amenity": "bar", "name": "Roscoe Village Pub", "phone": "+1-773-472-6160", "website": "https://www.roscoevillagepub.com/"}}, {"type": "node", "id": 6301759131, "lat": 41.9546735, "lon": -87.6887916, "tags": {"addr:city": "Chicago", "addr:housenumber": "4018", "addr:postcode": "60618", "addr:state": "IL", "addr:street": "North Western Avenue", "amenity": "restaurant", "name": "Sticky Rice", "phone": "+1-773-588-0133", "website": "http://stickyricethai.com/index10.php"}}, {"type": "node", "id": 6304278992, "lat": 41.9594754, "lon": -87.6821871, "tags": {"addr:city": "Chicago", "addr:housenumber": "4265", "addr:postcode": "60618", "addr:state": "IL", "addr:street": "North Lincoln Avenue", "amenity": "bar", "name": "The Wild Goose Bar & Grill", "phone": "+1-773-281-7112", "website": "https://www.wildgoosebar.com/"}}, {"type": "node", "id": 6319357294, "lat": 41.9585383, "lon": -87.6815872, "tags": {"addr:city": "Chicago", "addr:housenumber": "4229", "addr:postcode": "60618", "addr:state": "IL", "addr:street": "North Lincoln Avenue", "amenity": "restaurant", "name": "Kitsune", "phone": "+1-773-687-9179", "website": "https://www.kitsunerestaurant.com/"}}, {"type": "node", "id": 6323640782, "lat": 41.9544889, "lon": -87.6814266, "tags": {"addr:city": "Chicago", "addr:housenumber": "2100", "addr:postcode": "60618", "addr:state": "IL", "addr:street": "West Irving Park Road", "amenity": "bar", "name": "O\u2019Donovan\u2019s", "phone": "+1-773-478-2100", "website": "http://odonovansbar.com/"}}, {"type": "node", "id": 6476673188, "lat": 41.9480241, "lon": -87.6877664, "tags": {"addr:housenumber": "3643", "amenity": "restaurant", "name": "MOD Pizza", "opening_hours": "Mo-Th 10:00-21:00; Fr 10:00-22:00; Sa 10:30-22:00; Su 10:30-21:00"}}, {"type": "way", "id": 35341584, "nodes": [414253932, 414253933, 5861896117, 414253934, 5861896118, 414253932], "tags": {"addr:city": "Chicago", "addr:housenumber": "4340", "addr:postcode": "60618", "addr:street": "North Lincoln Avenue", "amenity": "restaurant", "brand": "Lou Malnati's Pizzeria", "brand:wikidata": "Q6685628", "brand:wikipedia": "en:Lou Malnati's Pizzeria", "building": "yes", "cuisine": "pizza", "name": "Lou Malnati's Pizzeria", "website": "https://www.loumalnatis.com/chicago-lincoln-square-north-center"}}, {"type": "way", "id": 209464598, "nodes": [2196816832, 2196817156, 2196817161, 2196816860, 2196816858, 2196816834, 2196816832], "tags": {"addr:city": "Chicago", "addr:housenumber": "2825", "addr:postcode": "60618", "addr:state": "IL", "addr:street": "West Irving Park Road", "addr:street:name": "Irving Park", "addr:street:prefix": "West", "addr:street:type": "Road", "amenity": "bar", "building": "yes", "chicago:building_id": "153642", "name": "Pete\u2019s Place"}}, {"type": "way", "id": 209465538, "nodes": [2196801934, 3908971506, 3908971507, 2196802912, 3908971502, 3908971508, 3908971510, 2196802925, 2196801942, 3908971509, 3908971503, 3908971505, 2196801934], "tags": {"addr:city": "Chicago", "addr:housenumber": "3640", "addr:postcode": "60618", "addr:state": "IL", "addr:street": "North Western Avenue", "addr:street:name": "Western", "addr:street:prefix": "North", "addr:street:type": "Avenue", "amenity": "cafe", "building": "yes", "chicago:building_id": "174417", "cuisine": "coffee_shop", "name": "Starbucks"}}, {"type": "way", "id": 209465693, "nodes": [2196803265, 2196803476, 2196803481, 2196803460, 2196803462, 2196803268, 2196803265], "tags": {"addr:city": "Chicago", "addr:housenumber": "3655", "addr:postcode": "60618", "addr:state": "IL", "addr:street": "North Western Avenue", "addr:street:name": "Western", "addr:street:prefix": "North", "addr:street:type": "Avenue", "amenity": "restaurant", "building": "yes", "building:levels": "2", "chicago:building_id": "173601", "name": "Reclaimed Bar and Restaurant", "phone": "+1-773-857-0943", "website": "https://www.reclaimedbarandrestaurant.com/"}}, {"type": "way", "id": 209477174, "nodes": [2196852266, 2196852428, 2196852486, 2196852494, 2196852573, 2196852579, 2196852275, 2196852266], "tags": {"addr:city": "Chicago", "addr:housenumber": "4337", "addr:postcode": "60618", "addr:state": "IL", "addr:street": "North Lincoln Avenue", "amenity": "bar", "cuisine": "burger", "name": "The Northman", "phone": "+1-773-935-2255", "website": "https://thenorthman.com/"}}]}