{"version": 0.6, "generator": "Overpass API 0.7.56.1004 6cd3eaec", "osm3s": {"timestamp_osm_base": "2020-07-09T04:47:03Z", "copyright": "The data included in this document is from www.openstreetmap.org. The data is made available under ODbL."}, "elements": [{"type": "node", "id": 370884554, "lat": 41.9469749, "lon": -87.6566688, "tags": {"amenity": "bar", "name": "Cubby Bear"}}, {"type": "node", "id": 371266619, "lat": 41.9371493, "lon": -87.6481922, "tags": {"addr:city": "Chicago", "addr:housenumber": "3025", "addr:postcode": "60657", "addr:state": "IL", "addr:street": "North Clark Street", "amenity": "cafe", "brand": "Peet's Coffee", "brand:wikidata": "Q1094101", "brand:wikipedia": "en:Peet's Coffee", "cuisine": "coffee_shop", "name": "Peet's Coffee", "phone": "+1-773-360-5558", "takeaway": "yes", "website": "https://www.peets.com/"}}, {"type": "node", "id": 378091335, "lat": 41.946303, "lon": -87.6560144, "tags": {"amenity": "bar", "name": "Wild Hare"}}, {"type": "node", "id": 495655712, "lat": 41.9359674, "lon": -87.6632892, "tags": {"addr:housenumber": "2971", "addr:street": "North Lincoln Avenue", "amenity": "restaurant", "name": "Golden Apple", "phone": "773-528-1413"}}, {"type": "node", "id": 495655717, "lat": 41.9376211, "lon": -87.6660205, "tags": {"addr:housenumber": "3045", "addr:street": "North Greenview Avenue", "amenity": "cafe", "brand": "Starbucks", "brand:wikidata": "Q37158", "brand:wikipedia": "en:Starbucks", "cuisine": "coffee_shop", "name": "Starbucks", "official_name": "Starbucks Coffee", "takeaway": "yes"}}, {"type": "node", "id": 503798695, "lat": 41.940004, "lon": -87.6556831, "tags": {"addr:housenumber": "1040", "addr:street": "West Belmont Avenue", "amenity": "restaurant", "name": "Giordano's", "name:ko": "\uc9c0\uc624\ub2e4\ub178\uc2a4"}}, {"type": "node", "id": 503799637, "lat": 41.9439463, "lon": -87.6641268, "tags": {"amenity": "cafe", "name": "Ann Sather"}}, {"type": "node", "id": 662726457, "lat": 41.9377792, "lon": -87.6444705, "tags": {"amenity": "restaurant", "name": "Stella's Diner"}}, {"type": "node", "id": 662726458, "lat": 41.9401147, "lon": -87.6491097, "tags": {"amenity": "restaurant", "name": "Drew's on Halsted", "url": "http://www.jacksonhalsted.com/"}}, {"type": "node", "id": 662726461, "lat": 41.9437805, "lon": -87.6449908, "tags": {"addr:city": "Chicago", "addr:housenumber": "3415", "addr:postcode": "60657", "addr:state": "IL", "addr:street": "North Broadway", "amenity": "restaurant", "name": "Ann Sather", "phone": "+1-773-305-0024", "website": "http://annsather.com/"}}, {"type": "node", "id": 772288954, "lat": 41.932955, "lon": -87.6444494, "tags": {"amenity": "restaurant"}}, {"type": "node", "id": 903249885, "lat": 41.9477497, "lon": -87.6473849, "tags": {"addr:city": "Chicago", "addr:country": "US", "addr:housenumber": "3617", "addr:postcode": "60613", "addr:state": "IL", "addr:street": "North Broadway", "amenity": "restaurant", "name": "Waffles"}}, {"type": "node", "id": 903251602, "lat": 41.9471033, "lon": -87.6469665, "tags": {"addr:city": "Chicago", "addr:housenumber": "3561", "addr:postcode": "60657", "addr:state": "IL", "addr:street": "North Broadway", "amenity": "restaurant", "cuisine": "italian", "name": "Angelina's Italian Restaurant", "phone": "+1-773-935-5933", "website": "http://www.angelinaristorante.com/"}}, {"type": "node", "id": 903262989, "lat": 41.9409507, "lon": -87.6441233, "tags": {"addr:city": "Chicago", "addr:housenumber": "3233", "addr:postcode": "60657", "addr:state": "IL", "addr:street": "North Broadway", "amenity": "restaurant", "cuisine": "diner", "name": "Eggsperience Pancakes & Cafe", "opening_hours": "Mo-Su 09:00-21:00"}}, {"type": "node", "id": 903263931, "lat": 41.942036, "lon": -87.6446812, "tags": {"addr:city": "Chicago", "addr:housenumber": "3300", "addr:postcode": "60657", "addr:state": "IL", "addr:street": "North Broadway", "amenity": "cafe", "name": "Stan\u2019s Donuts & Coffee", "phone": "+1-773-883-4764", "website": "http://www.stansdonutschicago.com/"}}, {"type": "node", "id": 903264793, "lat": 41.9423073, "lon": -87.6446598, "tags": {"amenity": "restaurant", "name": "Ping Pong Asian-Thai", "wheelchair": "yes"}}, {"type": "node", "id": 949092165, "lat": 41.9486448, "lon": -87.6493831, "tags": {"amenity": "bar", "name": "Circuit"}}, {"type": "node", "id": 949094037, "lat": 41.946246, "lon": -87.649292, "tags": {"addr:city": "Chicago", "addr:country": "US", "addr:housenumber": "3523", "addr:province": "IL", "addr:street": "North Halsted Street", "amenity": "restaurant", "name": "Las Mananitas", "phone": "+1-773-528-2109"}}, {"type": "node", "id": 949094860, "lat": 41.9453312, "lon": -87.6495882, "tags": {"amenity": "bar", "name": "Hydrate"}}, {"type": "node", "id": 949099772, "lat": 41.9435267, "lon": -87.6495172, "tags": {"amenity": "bar", "name": "Roscoe's Tavern & Cafe"}}, {"type": "node", "id": 949100448, "lat": 41.9435227, "lon": -87.6492449, "tags": {"amenity": "bar", "name": "Progress Bar Chicago"}}, {"type": "node", "id": 949101374, "lat": 41.9432554, "lon": -87.6492221, "tags": {"amenity": "bar", "name": "Sidetrack"}}, {"type": "node", "id": 949101636, "lat": 41.9429791, "lon": -87.6492355, "tags": {"amenity": "bar", "name": "Minibar"}}, {"type": "node", "id": 949101795, "lat": 41.9428145, "lon": -87.6494997, "tags": {"amenity": "restaurant", "name": "Nookie's"}}, {"type": "node", "id": 949101940, "lat": 41.9424334, "lon": -87.6494743, "tags": {"amenity": "bar", "name": "Scarlet"}}, {"type": "node", "id": 1673554503, "lat": 41.9382563, "lon": -87.6441813, "tags": {"addr:city": "Chicago", "addr:housenumber": "3123", "addr:postcode": "60657", "addr:state": "IL", "addr:street": "North Broadway", "amenity": "cafe", "cuisine": "coffee_shop", "internet_access": "wlan", "name": "Intelligentsia", "phone": "+1-773-348-8058", "source": "Bing", "website": "https://www.intelligentsiacoffee.com/"}}, {"type": "node", "id": 1707846189, "lat": 41.9486953, "lon": -87.6582381}, {"type": "node", "id": 1707846196, "lat": 41.9487477, "lon": -87.6582605}, {"type": "node", "id": 1707846198, "lat": 41.948767, "lon": -87.6581776}, {"type": "node", "id": 1707846203, "lat": 41.9488222, "lon": -87.6579582}, {"type": "node", "id": 1707846206, "lat": 41.9488702, "lon": -87.6582268}, {"type": "node", "id": 1707846207, "lat": 41.9488731, "lon": -87.6579926}, {"type": "node", "id": 1892429574, "lat": 41.9440434, "lon": -87.66374, "tags": {"amenity": "restaurant", "brand": "Noodles & Company", "brand:wikidata": "Q7049673", "brand:wikipedia": "en:Noodles & Company", "cuisine": "pasta", "name": "Noodles & Company"}}, {"type": "node", "id": 1892429616, "lat": 41.9441566, "lon": -87.6637577, "tags": {"amenity": "restaurant", "name": "Cooba", "wheelchair": "yes"}}, {"type": "node", "id": 1892450589, "lat": 41.9440789, "lon": -87.6641263, "tags": {"addr:housenumber": "3418", "addr:street": "North Southport Avenue", "amenity": "restaurant", "name": "Sopo Lounge & Grill"}}, {"type": "node", "id": 1939836286, "lat": 41.9374071, "lon": -87.6484086, "tags": {"addr:housenumber": "3037", "addr:postcode": "60657", "addr:street": "North Clark Street", "amenity": "restaurant", "cuisine": "sandwich", "name": "Sandwich Me In", "website": "http://sandwichmeinchicago.com/"}}, {"type": "node", "id": 2009284043, "lat": 41.9455726, "lon": -87.6489875, "tags": {"amenity": "restaurant", "cuisine": "american", "name": "Taverna 750"}}, {"type": "node", "id": 2149599047, "lat": 41.9372356, "lon": -87.6590804, "tags": {"addr:city": "Chicago", "addr:housenumber": "3030", "addr:postcode": "60657", "addr:state": "IL", "addr:street": "North Racine Avenue", "amenity": "bar", "atm": "yes", "food": "yes", "name": "Will's Northwoods Inn", "outdoor_seating": "yes", "phone": "773-528-4400", "smoking": "outside", "website": "http://willsnorthwoodsinn.com/"}}, {"type": "node", "id": 2200366030, "lat": 41.9329518, "lon": -87.6641628}, {"type": "node", "id": 2200366044, "lat": 41.9329587, "lon": -87.6637242}, {"type": "node", "id": 2200366395, "lat": 41.933012, "lon": -87.6641645}, {"type": "node", "id": 2200366402, "lat": 41.933019, "lon": -87.663726}, {"type": "node", "id": 2200375143, "lat": 41.9361938, "lon": -87.664126}, {"type": "node", "id": 2200375144, "lat": 41.936194, "lon": -87.6641535}, {"type": "node", "id": 2200375147, "lat": 41.9361955, "lon": -87.664646}, {"type": "node", "id": 2200375151, "lat": 41.9361974, "lon": -87.6640304}, {"type": "node", "id": 2200375152, "lat": 41.9361975, "lon": -87.6640451}, {"type": "node", "id": 2200375154, "lat": 41.9361976, "lon": -87.6643042}, {"type": "node", "id": 2200375165, "lat": 41.9362006, "lon": -87.6641167}, {"type": "node", "id": 2200375167, "lat": 41.9362009, "lon": -87.6641627}, {"type": "node", "id": 2200375169, "lat": 41.9362014, "lon": -87.6640193}, {"type": "node", "id": 2200375170, "lat": 41.9362016, "lon": -87.6640542}, {"type": "node", "id": 2200375176, "lat": 41.9362035, "lon": -87.6643354}, {"type": "node", "id": 2200375179, "lat": 41.9362045, "lon": -87.6643041}, {"type": "node", "id": 2200375192, "lat": 41.9362096, "lon": -87.6640137}, {"type": "node", "id": 2200375224, "lat": 41.9362178, "lon": -87.6640118}, {"type": "node", "id": 2200375246, "lat": 41.9362261, "lon": -87.6640135}, {"type": "node", "id": 2200375257, "lat": 41.9362302, "lon": -87.6640172}, {"type": "node", "id": 2200375268, "lat": 41.9362344, "lon": -87.6640245}, {"type": "node", "id": 2200375269, "lat": 41.9362344, "lon": -87.6640355}, {"type": "node", "id": 2200375272, "lat": 41.9362354, "lon": -87.6643365}, {"type": "node", "id": 2200375315, "lat": 41.9362442, "lon": -87.6647131}, {"type": "node", "id": 2200375475, "lat": 41.9362842, "lon": -87.6642816}, {"type": "node", "id": 2200375703, "lat": 41.9363444, "lon": -87.6642042}, {"type": "node", "id": 2200375720, "lat": 41.9363501, "lon": -87.6641967}, {"type": "node", "id": 2200376304, "lat": 41.9364942, "lon": -87.664397}, {"type": "node", "id": 2204064432, "lat": 41.9316382, "lon": -87.6572443}, {"type": "node", "id": 2204065117, "lat": 41.9318316, "lon": -87.6575142}, {"type": "node", "id": 2204065252, "lat": 41.9318735, "lon": -87.6569401}, {"type": "node", "id": 2204065299, "lat": 41.9318836, "lon": -87.6575026}, {"type": "node", "id": 2204065421, "lat": 41.9319279, "lon": -87.6575646}, {"type": "node", "id": 2204065568, "lat": 41.9319693, "lon": -87.6571342}, {"type": "node", "id": 2204065575, "lat": 41.9319735, "lon": -87.6573878}, {"type": "node", "id": 2204065617, "lat": 41.9319887, "lon": -87.6574096}, {"type": "node", "id": 2204065625, "lat": 41.9319924, "lon": -87.6571064}, {"type": "node", "id": 2204065636, "lat": 41.9319983, "lon": -87.6571725}, {"type": "node", "id": 2204065661, "lat": 41.9320051, "lon": -87.6571632}, {"type": "node", "id": 2204065675, "lat": 41.9320078, "lon": -87.6573856}, {"type": "node", "id": 2204065782, "lat": 41.9320369, "lon": -87.6574257}, {"type": "node", "id": 2204065833, "lat": 41.9320536, "lon": -87.6572307}, {"type": "node", "id": 2204071494, "lat": 41.9330306, "lon": -87.649374}, {"type": "node", "id": 2204071505, "lat": 41.9330372, "lon": -87.6491428}, {"type": "node", "id": 2204071515, "lat": 41.9330402, "lon": -87.6493757}, {"type": "node", "id": 2204071519, "lat": 41.9330404, "lon": -87.6494015}, {"type": "node", "id": 2204071681, "lat": 41.9330994, "lon": -87.6494027}, {"type": "node", "id": 2204071685, "lat": 41.9331017, "lon": -87.649331}, {"type": "node", "id": 2204071732, "lat": 41.9331157, "lon": -87.6493694}, {"type": "node", "id": 2204071737, "lat": 41.9331168, "lon": -87.6493308}, {"type": "node", "id": 2204071865, "lat": 41.9331472, "lon": -87.6493709}, {"type": "node", "id": 2204071867, "lat": 41.9331483, "lon": -87.6493158}, {"type": "node", "id": 2204071872, "lat": 41.9331519, "lon": -87.6492276}, {"type": "node", "id": 2204071875, "lat": 41.933153, "lon": -87.6491945}, {"type": "node", "id": 2204071893, "lat": 41.9331661, "lon": -87.6493174}, {"type": "node", "id": 2204071900, "lat": 41.9331683, "lon": -87.6492292}, {"type": "node", "id": 2204071907, "lat": 41.9331692, "lon": -87.6491484}, {"type": "node", "id": 2204071908, "lat": 41.9331692, "lon": -87.649152}, {"type": "node", "id": 2204071910, "lat": 41.9331695, "lon": -87.6491961}, {"type": "node", "id": 2204091506, "lat": 41.9385872, "lon": -87.6451669}, {"type": "node", "id": 2204091513, "lat": 41.9385878, "lon": -87.6449831}, {"type": "node", "id": 2204091519, "lat": 41.9385889, "lon": -87.6449831}, {"type": "node", "id": 2204091542, "lat": 41.9385956, "lon": -87.6444681}, {"type": "node", "id": 2204091829, "lat": 41.9386737, "lon": -87.6451678}, {"type": "node", "id": 2204091836, "lat": 41.938675, "lon": -87.6449344}, {"type": "node", "id": 2204092025, "lat": 41.9387461, "lon": -87.6449358}, {"type": "node", "id": 2204092036, "lat": 41.9387521, "lon": -87.6444705}, {"type": "node", "id": 2204095268, "lat": 41.9396023, "lon": -87.657355}, {"type": "node", "id": 2204095273, "lat": 41.9396031, "lon": -87.6572704}, {"type": "node", "id": 2204095390, "lat": 41.9396584, "lon": -87.6573434}, {"type": "node", "id": 2204095393, "lat": 41.9396585, "lon": -87.6573562}, {"type": "node", "id": 2204095422, "lat": 41.9396735, "lon": -87.6573432}, {"type": "node", "id": 2204095436, "lat": 41.9396786, "lon": -87.6572733}, {"type": "node", "id": 2204095437, "lat": 41.9396787, "lon": -87.6572862}, {"type": "node", "id": 2204095440, "lat": 41.9396805, "lon": -87.6573578}, {"type": "node", "id": 2204095463, "lat": 41.9396897, "lon": -87.6572861}, {"type": "node", "id": 2204095504, "lat": 41.9397061, "lon": -87.657273}, {"type": "node", "id": 2204095676, "lat": 41.9397697, "lon": -87.6573606}, {"type": "node", "id": 2204095680, "lat": 41.9397705, "lon": -87.6572742}, {"type": "node", "id": 2204102142, "lat": 41.9406187, "lon": -87.6494303, "tags": {"addr:city": "Chicago", "addr:housenumber": "800", "addr:postcode": "60657", "addr:state": "IL", "addr:street": "West Belmont Avenue", "amenity": "restaurant", "cuisine": "ramen;asian;japanese", "name": "Furious Spoon - Lakeview", "opening_hours": "Su-Th 11:00-00:00; Fr-Sa 11:00-01:00", "phone": "+1-773-697-9085", "website": "http://furiousramen.com"}}, {"type": "node", "id": 2204119217, "lat": 41.945101, "lon": -87.6546797}, {"type": "node", "id": 2204119458, "lat": 41.9451573, "lon": -87.6547256}, {"type": "node", "id": 2204119487, "lat": 41.9451619, "lon": -87.6545486}, {"type": "node", "id": 2204119688, "lat": 41.9452169, "lon": -87.6547741}, {"type": "node", "id": 2204119738, "lat": 41.9452264, "lon": -87.6545696}, {"type": "node", "id": 2204120016, "lat": 41.9452968, "lon": -87.6545927}, {"type": "node", "id": 2262363338, "lat": 41.9440287, "lon": -87.6495776, "tags": {"addr:city": "Chicago", "addr:housenumber": "3404", "addr:postcode": "60657", "addr:state": "IL", "addr:street": "North Halsted Street", "amenity": "restaurant", "cuisine": "american", "name": "Home Bistro", "phone": "+1-773-661-0299", "website": "http://homebistrochicago.com/"}}, {"type": "node", "id": 2274337309, "lat": 41.9423948, "lon": -87.6442641, "tags": {"addr:city": "Chicago", "addr:housenumber": "3311", "addr:postcode": "60657", "addr:state": "IL", "addr:street": "North Broadway", "amenity": "cafe", "name": "The Coffee & Tea Exchange", "phone": "+1-773-528-2241", "website": "https://coffeeandtea.com/"}}, {"type": "node", "id": 2282440770, "lat": 41.9398402, "lon": -87.6507796, "tags": {"addr:city": "Chicago", "addr:housenumber": "3184", "addr:postcode": "60657", "addr:state": "IL", "addr:street": "North Clark Street", "amenity": "cafe", "brand": "Starbucks", "brand:wikidata": "Q37158", "brand:wikipedia": "en:Starbucks", "cuisine": "coffee_shop", "internet_access": "wlan", "internet_access:fee": "no", "name": "Starbucks", "official_name": "Starbucks Coffee", "takeaway": "yes", "website": "https://www.starbucks.com"}}, {"type": "node", "id": 2282741031, "lat": 41.9426831, "lon": -87.6443288, "tags": {"addr:housenumber": "3257", "addr:street": "North Broadway", "amenity": "restaurant", "cuisine": "asian", "name": "Joy's Noodles & Rice"}}, {"type": "node", "id": 2359667303, "lat": 41.9359579, "lon": -87.644101, "tags": {"addr:city": "Chicago", "addr:housenumber": "2933", "addr:postcode": "60657", "addr:street": "North Broadway", "amenity": "restaurant", "cuisine": "mexican", "name": "Janitzio Burritos Y Tagueria"}}, {"type": "node", "id": 2361072386, "lat": 41.946146, "lon": -87.6554126, "tags": {"addr:housenumber": "3515", "addr:postcode": "60657", "addr:street": "North Clark Street", "amenity": "restaurant", "cuisine": "pizza", "name": "Bacci Pizza on Clark"}}, {"type": "node", "id": 2361072391, "lat": 41.9311283, "lon": -87.6439425, "tags": {"addr:housenumber": "2665", "addr:postcode": "60614", "addr:street": "North Clark Street", "amenity": "restaurant", "cuisine": "burger", "name": "Fatty's Burgers and More"}}, {"type": "node", "id": 2933401201, "lat": 41.9399274, "lon": -87.6612013, "tags": {"addr:city": "Chicago", "addr:housenumber": "1258", "addr:postcode": "60657", "addr:state": "IL", "addr:street": "West Belmont Avenue", "amenity": "restaurant", "delivery": "no", "name": "Fahlstrom's Fresh Fish Market", "opening_hours": "Mo-Fr 11:00-22:00; Sa 09:00-22:00; Su 09:00-21:00", "phone": "+1-773-281-6000", "takeaway": "yes", "website": "https://www.fahlstromsfreshfish.com/"}}, {"type": "node", "id": 2946757911, "lat": 41.9328768, "lon": -87.647886, "tags": {"addr:housenumber": "730", "addr:street": "West Diversey Parkway", "amenity": "restaurant", "cuisine": "japanese", "name": "Sakura", "opening_hours": "Mo-Su 11:30-22:30"}}, {"type": "node", "id": 3485449403, "lat": 41.9470511, "lon": -87.646931, "tags": {"addr:city": "Chicago", "addr:housenumber": "3555", "addr:postcode": "60657", "addr:state": "IL", "addr:street": "North Broadway", "amenity": "restaurant", "cuisine": "barbecue", "name": "Wrigley BBQ", "opening_hours": "Mo-Th 11:30-22:00; Fr-Sa 11:30-23:00; Su 11:30-21:30", "smoking": "no", "takeaway": "yes"}}, {"type": "node", "id": 3489971056, "lat": 41.9383791, "lon": -87.6490889, "tags": {"amenity": "restaurant", "cuisine": "thai", "name": "Thaiday Street Cafe"}}, {"type": "node", "id": 3518291652, "lat": 41.9324546, "lon": -87.6459114, "tags": {"addr:city": "Chicago", "addr:housenumber": "659", "addr:postcode": "60614", "addr:state": "IL", "addr:street": "West Diversey Parkway", "amenity": "cafe", "name": "Next Door Cafe", "opening_hours": "Mo-Su 07:00-22:00", "phone": "+1-773-472-3667", "website": "https://www.nextdoorchicago.com"}}, {"type": "node", "id": 3518312182, "lat": 41.9353036, "lon": -87.6471628, "tags": {"addr:city": "Chicago", "addr:housenumber": "2914", "addr:postcode": "60657", "addr:state": "IL", "addr:street": "North Clark Street", "amenity": "restaurant", "cuisine": "mexican", "delivery": "yes", "name": "El Nuevo Mexicano", "opening_hours": "Mo-Su 11:30-22:00; Fr-Sa 11:30-23:30", "outdoor_seating": "yes", "phone": "+1-773-528 2131", "takeaway": "yes", "website": "https://www.elnuevomexicano.net/"}}, {"type": "node", "id": 3940894157, "lat": 41.945603, "lon": -87.6496353, "tags": {"addr:city": "Chicago", "addr:housenumber": "3500", "addr:postcode": "60657", "addr:state": "IL", "addr:street": "North Halsted Street", "amenity": "cafe", "atm": "no", "brand": "Peet's Coffee", "brand:wikidata": "Q1094101", "brand:wikipedia": "en:Peet's Coffee", "cuisine": "coffee_shop", "drive_through": "no", "internet_access": "wlan", "name": "Peet's Coffee", "opening_hours": "Mo-Sa 05:30-21:00; Su 06:00-20:00", "outdoor_seating": "yes", "phone": "+1-773-360-5280", "smoking": "no", "takeaway": "yes", "website": "https://www.peets.com/", "wheelchair": "yes"}}, {"type": "node", "id": 4049483564, "lat": 41.9368582, "lon": -87.6650564, "tags": {"amenity": "restaurant", "cuisine": "american", "level": "0", "name": "Grand River"}}, {"type": "node", "id": 4692788467, "lat": 41.9347553, "lon": -87.6537697, "tags": {"addr:city": "Chicago", "addr:housenumber": "2909", "addr:postcode": "60657", "addr:street": "North Sheffield Avenue", "amenity": "restaurant", "cuisine": "bar&grill", "name": "The River Kitchen and Bar", "opening_hours": "Mo-Fr 17:00-02:00; Sa 11:00-03:00; Su 11:00-02:00", "phone": "+1 773 935 7500", "website": "https://www.theriverchicago.com"}}, {"type": "node", "id": 4704620392, "lat": 41.9425068, "lon": -87.6442948, "tags": {"amenity": "bar", "name": "The Closet", "name:en": "The Closet"}}, {"type": "node", "id": 4718874637, "lat": 41.9352464, "lon": -87.6444633, "tags": {"addr:city": "Chicago", "addr:housenumber": "2908", "addr:postcode": "60657", "addr:state": "IL", "addr:street": "North Broadway", "amenity": "restaurant", "cuisine": "turkish", "name": "Troy Mediterranean Grill & Turkish Kitchen", "opening_hours": "Su 12:00-21:00; Mo-Th 12:00-22:00; Fr-Sa 12:00-23:00", "phone": "+1-773-770-3866", "website": "https://www.troymediterraneangrill.com/"}}, {"type": "node", "id": 4726227996, "lat": 41.9327716, "lon": -87.6535024, "tags": {"addr:housenumber": "954", "addr:street": "West Diversey Parkway", "amenity": "restaurant", "name": "Nori Sushi Lincoln Park", "opening_hours": "Mo-Su 11:00-16:00, 17:00-22:00"}}, {"type": "node", "id": 5002004773, "lat": 41.9361201, "lon": -87.6444045, "tags": {"addr:housenumber": "2940", "addr:street": "North Broadway", "amenity": "restaurant", "name": "Crisp Korean Restaurant", "phone": "773 697 7610", "website": "http://www.crisponline.com/crisp.aspx"}}, {"type": "node", "id": 5033308929, "lat": 41.9447083, "lon": -87.6540662, "tags": {"addr:city": "Chicago", "addr:housenumber": "3439", "addr:postcode": "60657", "addr:state": "IL", "addr:street": "North Sheffield Avenue", "amenity": "bar", "name": "Nisei Lounge", "phone": "+1-773-525-0557", "website": "https://niseiloungechicago.com/"}}, {"type": "node", "id": 5161056762, "lat": 41.9400136, "lon": -87.6544566, "tags": {"amenity": "bar", "name": "Big City Tap"}}, {"type": "node", "id": 5161056765, "lat": 41.9400486, "lon": -87.6537882, "tags": {"addr:city": "Chicago", "addr:housenumber": "958", "addr:postcode": "60657", "addr:state": "IL", "addr:street": "West Belmont Avenue", "amenity": "bar", "name": "Cheesie's Pub & Grub", "opening_hours": "Mo-We 11:00-02:00, Th 11:00-03:00, Fr,Sa 11:00-05:00, Su 11:00-02:00", "phone": "+1-773-388-1574", "website": "https://cheesies.com/"}}, {"type": "node", "id": 5161056767, "lat": 41.939802, "lon": -87.6535927, "tags": {"addr:city": "Chicago", "addr:housenumber": "953", "addr:postcode": "60657", "addr:state": "IL", "addr:street": "West Belmont Avenue", "amenity": "restaurant", "brand": "Blaze Pizza", "brand:wikidata": "Q23016666", "brand:wikipedia": "en:Blaze Pizza", "cuisine": "pizza", "name": "Blaze Pizza", "opening_hours": "Mo-Th 11:00-23:00, Fr-Sa 11:00-01:00, Su 11:00-22:00"}}, {"type": "node", "id": 5161056770, "lat": 41.9397747, "lon": -87.6561359, "tags": {"amenity": "restaurant", "name": "Jin Asian Cafe"}}, {"type": "node", "id": 5161056771, "lat": 41.9397702, "lon": -87.6563655, "tags": {"addr:city": "Chicago", "addr:housenumber": "1059", "addr:postcode": "60657", "addr:state": "IL", "addr:street": "West Belmont Avenue", "amenity": "restaurant", "cuisine": "sushi;japanese", "name": "Ukai Sushi", "opening_hours": "Mo-We 16:00-22:00; Th 15:00-22:00; Fr-Sa 11:00-23:00; Su 12:00-22:00", "phone": "+1-773-868-9900", "website": "https://ukai-japaenase-restaurant-onlinle-ordering.securebrygid.com/zgrid/themes/10649/intro/index.jsp"}}, {"type": "node", "id": 5161056772, "lat": 41.939981, "lon": -87.6572805, "tags": {"addr:city": "Chicago", "addr:housenumber": "1114", "addr:postcode": "60657", "addr:state": "IL", "addr:street": "West Belmont Avenue", "amenity": "cafe", "name": "Bittersweet Pastry Shop", "opening_hours": "Tu-Fr 07:00-19:00; Sa 08:00-19:00; Su 08:00-18:00", "phone": "+1-773-929-1100", "website": "https://www.bittersweetpastry.com/"}}, {"type": "node", "id": 5161385984, "lat": 41.9382088, "lon": -87.6538954, "tags": {"addr:city": "Chicago", "addr:housenumber": "3101", "addr:postcode": "60657", "addr:state": "IL", "addr:street": "North Sheffield Avenue", "addr:unit": "1", "amenity": "bar", "name": "Matilda", "opening_hours": "Mo-Fr 17:00-02:00; Sa 10:00-03:00; Su 11:00-17:00", "phone": "+1-773-883-4400", "website": "https://matilda-babyatlas.com"}}, {"type": "node", "id": 5161385986, "lat": 41.9434096, "lon": -87.6543631, "tags": {"amenity": "bar", "name": "Redmonds"}}, {"type": "node", "id": 5161413724, "lat": 41.9360501, "lon": -87.6541256, "tags": {"addr:city": "Chicago", "addr:housenumber": "2954", "addr:postcode": "60657", "addr:state": "IL", "addr:street": "North Sheffield Avenue", "amenity": "restaurant", "cuisine": "burger", "name": "DMK Burger Bar", "opening_hours": "Mo-Th 11:30-23:00; Fr-Su 11:30-00:00", "phone": "+1-773-360-8686", "website": "https://dmkburgerbar.com/"}}, {"type": "node", "id": 5161413725, "lat": 41.9354732, "lon": -87.6541061, "tags": {"addr:city": "Chicago", "addr:housenumber": "2934", "addr:postcode": "60657", "addr:state": "IL", "addr:street": "North Sheffield Avenue", "amenity": "restaurant", "cuisine": "american;pub", "name": "Kirkwood Bar & Grill", "opening_hours": "Mo-Fr 17:00-02:00; Sa 11:00-03:00; Su 11:00-02:00", "phone": "+1-773-770-0700", "website": "https://kirkwoodbar.com/"}}, {"type": "node", "id": 5161413726, "lat": 41.9346785, "lon": -87.6537664, "tags": {"addr:city": "Chicago", "addr:housenumber": "2901", "addr:postcode": "60657", "addr:state": "IL", "addr:street": "North Sheffield Avenue", "amenity": "restaurant", "cuisine": "mexican", "name": "Barcocina", "opening_hours": "Mo-Th 17:00-00:00; Fr 17:00-02:00; Sa 11:00-03:00; Su 11:00-00:00", "outdoor_seating": "yes", "phone": "+1-773-687-9949", "website": "https://barcocinachicago.com"}}, {"type": "node", "id": 5161413727, "lat": 41.934997, "lon": -87.6538, "tags": {"addr:city": "Chicago", "addr:housenumber": "2917", "addr:postcode": "60657", "addr:state": "IL", "addr:street": "North Sheffield Avenue", "amenity": "bar", "name": "Vaughan\u2019s Pub - Lakeview", "phone": "+1-773-281-8188", "website": "https://vaughanhospitality.com/"}}, {"type": "node", "id": 5161413728, "lat": 41.9361318, "lon": -87.6541309, "tags": {"addr:city": "Chicago", "addr:housenumber": "2956", "addr:postcode": "60657", "addr:state": "IL", "addr:street": "North Sheffield Avenue", "amenity": "restaurant", "cuisine": "seafood", "name": "Fish Bar", "opening_hours": "Su-Th 11:30-22:00; Fr,Sa 11:30-23:00", "outdoor_seating": "yes"}}, {"type": "node", "id": 5161413729, "lat": 41.9327759, "lon": -87.6533288, "tags": {"amenity": "restaurant", "name": "Andy's Thai Kitchen"}}, {"type": "node", "id": 5161413730, "lat": 41.9364819, "lon": -87.6541398, "tags": {"addr:city": "Chicago", "addr:housenumber": "3002", "addr:postcode": "60657", "addr:state": "IL", "addr:street": "North Sheffield Avenue", "amenity": "cafe", "cuisine": "sandwich", "name": "Panes Bread Cafe", "opening_hours": "Su 09:00-22:00; Mo-Sa 10:00-22:00", "phone": "+1-773-665-0972"}}, {"type": "node", "id": 5161413731, "lat": 41.9365543, "lon": -87.6541433, "tags": {"addr:city": "Chicago", "addr:housenumber": "3006", "addr:postcode": "60657", "addr:state": "IL", "addr:street": "North Sheffield Avenue", "amenity": "restaurant", "cuisine": "sushi;japanese", "name": "Tanuki", "opening_hours": "Mo-Th 11:30-22:00; Fr,Sa 11:30-23:00; Su 12:00-22:00"}}, {"type": "node", "id": 5168219465, "lat": 41.9384653, "lon": -87.6445563, "tags": {"addr:city": "Chicago", "addr:housenumber": "3124", "addr:postcode": "60657", "addr:state": "IL", "addr:street": "North Broadway", "amenity": "restaurant", "description": "Bib Gourmand recommendation", "name": "Ceres' Table", "phone": "+1-773-922-4020", "website": "https://www.cerestable.com/"}}, {"type": "node", "id": 5178274147, "lat": 41.9398268, "lon": -87.6519964, "tags": {"addr:city": "Chicago", "addr:housenumber": "909", "addr:postcode": "60657", "addr:state": "IL", "addr:street": "West Belmont Avenue", "amenity": "restaurant", "cuisine": "swedish", "name": "Ann Sather Restaurant", "opening_hours": "Mo-Fr 07:00-15:00; Sa,Su 07:00-16:00", "phone": "+1-773-348-2378"}}, {"type": "node", "id": 5178274149, "lat": 41.9394504, "lon": -87.6504571, "tags": {"amenity": "restaurant", "name": "Cesar's Killer Margarita"}}, {"type": "node", "id": 5178274154, "lat": 41.9398293, "lon": -87.6523651, "tags": {"addr:city": "Chicago", "addr:housenumber": "919", "addr:postcode": "60657", "addr:state": "IL", "addr:street": "West Belmont Avenue", "amenity": "restaurant", "cuisine": "ramen", "name": "Strings Ramen Shop Lakeview", "opening_hours": "Mo-Su 11:00-23:59", "phone": "+1-773-661-6442", "website": "https://www.ramenchicago.com"}}, {"type": "node", "id": 5178274155, "lat": 41.9404541, "lon": -87.6542735, "tags": {"amenity": "bar", "name": "Trader Todd's"}}, {"type": "node", "id": 5178274159, "lat": 41.9398678, "lon": -87.6490939, "tags": {"amenity": "restaurant", "name": "Lucky Horsehoe Lounge"}}, {"type": "node", "id": 5178274163, "lat": 41.940804, "lon": -87.651186, "tags": {"addr:city": "Chicago", "addr:housenumber": "3231", "addr:postcode": "60657", "addr:state": "IL", "addr:street": "North Clark Street", "amenity": "restaurant", "cuisine": "american", "name": "Kanela Breakfast Club", "opening_hours": "Mo-Th 09:00-15:00; Fr-Su 08:00-15:00", "phone": "+1-773-248-1622", "website": "https://kanelabreakfastclub.com/"}}, {"type": "node", "id": 5178274165, "lat": 41.9406252, "lon": -87.6510458, "tags": {"amenity": "restaurant", "name": "Royal Indian Grill"}}, {"type": "node", "id": 5178274166, "lat": 41.940235, "lon": -87.6506779, "tags": {"addr:city": "Chicago", "addr:housenumber": "3207", "addr:postcode": "60657", "addr:state": "IL", "addr:street": "North Clark Street", "amenity": "bar", "name": "L & L Tavern", "phone": "+1-773-528-1303"}}, {"type": "node", "id": 5178274167, "lat": 41.9410486, "lon": -87.6517288, "tags": {"amenity": "restaurant", "name": "Matsuya"}}, {"type": "node", "id": 5178274176, "lat": 41.9418943, "lon": -87.6520522, "tags": {"addr:city": "Chicago", "addr:housenumber": "3301", "addr:postcode": "60657", "addr:state": "IL", "addr:street": "North Clark Street", "amenity": "restaurant", "cuisine": "american", "name": "Hutch"}}, {"type": "node", "id": 5252276976, "lat": 41.9434018, "lon": -87.6532551, "tags": {"amenity": "bar", "name": "Houndstooth"}}, {"type": "node", "id": 5252276977, "lat": 41.9458684, "lon": -87.6556246, "tags": {"amenity": "restaurant", "name": "Old Crow Smokehouse"}}, {"type": "node", "id": 5252276978, "lat": 41.9468383, "lon": -87.6564199, "tags": {"amenity": "bar", "name": "Vines on Clark"}}, {"type": "node", "id": 5364425022, "lat": 41.9427161, "lon": -87.652684, "tags": {"amenity": "restaurant", "name": "El Jardin"}}, {"type": "node", "id": 5364425023, "lat": 41.944352, "lon": -87.6544113, "tags": {"amenity": "bar", "name": "Chicago's Blarney Stone"}}, {"type": "node", "id": 5364425025, "lat": 41.9447909, "lon": -87.6540921, "tags": {"addr:city": "Chicago", "addr:housenumber": "3441", "addr:postcode": "60657", "addr:state": "IL", "addr:street": "North Sheffield Avenue", "amenity": "bar", "name": "The Graystone Tavern", "phone": "+1-773-666-5450", "website": "https://www.graystonetavernchicago.com/"}}, {"type": "node", "id": 5364425026, "lat": 41.9454034, "lon": -87.6553501, "tags": {"amenity": "bar", "name": "Roundhouse 66"}}, {"type": "node", "id": 5364425027, "lat": 41.9453854, "lon": -87.6548619, "tags": {"amenity": "bar", "name": "The Sandlot Wrigley"}}, {"type": "node", "id": 5364425028, "lat": 41.9450004, "lon": -87.6549263, "tags": {"amenity": "bar", "name": "The Country Club"}}, {"type": "node", "id": 5364425029, "lat": 41.945142, "lon": -87.6550443, "tags": {"amenity": "bar", "name": "Lucky's Sandwich Co"}}, {"type": "node", "id": 5381744322, "lat": 41.9421958, "lon": -87.6523157, "tags": {"addr:city": "Chicago", "addr:housenumber": "3313", "addr:postcode": "60657", "addr:state": "IL", "addr:street": "North Clark Street", "amenity": "restaurant", "name": "BITES"}}, {"type": "node", "id": 5460785521, "lat": 41.9395264, "lon": -87.6636243, "tags": {"addr:city": "Chicago", "addr:housenumber": "3157", "addr:postcode": "60657", "addr:state": "IL", "addr:street": "North Southport Avenue", "amenity": "restaurant", "cuisine": "american;new_american;american_new", "name": "Tied House", "opening_hours": "Su-Th 16:30-23:00; Fr-Sa 16:30-00:00", "phone": "+1-773-697-4632", "website": "https://www.tiedhousechicago.com"}}, {"type": "node", "id": 5460822466, "lat": 41.9351065, "lon": -87.6465617, "tags": {"addr:city": "Chicago", "addr:housenumber": "2909", "addr:postcode": "60657", "addr:state": "IL", "addr:street": "North Clark Street", "amenity": "restaurant", "name": "The Gundis", "opening_hours": "Mo 09:00-21:00; We-Th 09:00-21:00; Fr-Sa 09:00-22:00; Su 09:00-20:00", "phone": "+1-773-904-8120", "website": "http://thegundis.com/"}}, {"type": "node", "id": 5460893286, "lat": 41.9426479, "lon": -87.6635911, "tags": {"addr:city": "Chicago", "addr:housenumber": "3335", "addr:postcode": "60657", "addr:state": "IL", "addr:street": "North Southport Avenue", "amenity": "restaurant", "cuisine": "italian", "name": "Coda di Volpe", "opening_hours": "Mo-Th 16:30-22:00; Fr 16:30-23:00; Sa 10:00-23:00; Su 10:00-22:00", "phone": "+1-773-687-8568", "website": "http://www.cdvolpe.com/"}}, {"type": "node", "id": 5548151032, "lat": 41.9472259, "lon": -87.6638154, "tags": {"addr:city": "Chicago", "addr:housenumber": "3601", "addr:postcode": "60613", "addr:state": "IL", "addr:street": "North Southport Avenue", "amenity": "cafe", "cuisine": "Austrian", "internet_access": "wlan", "internet_access:fee": "no", "name": "Julius Meinl", "opening_hours": "Mo-Su 07:00-20:00", "outdoor_seating": "yes", "phone": "+1-773-868-1857", "website": "http://www.meinlus.com/"}}, {"type": "node", "id": 5651992039, "lat": 41.9396498, "lon": -87.6636315, "tags": {"amenity": "bar", "name": "Schuba's"}}, {"type": "node", "id": 5652012632, "lat": 41.9327782, "lon": -87.6533762, "tags": {"amenity": "restaurant", "name": "Penny's Noodle Shop"}}, {"type": "node", "id": 5652012634, "lat": 41.932768, "lon": -87.6541252, "tags": {"amenity": "cafe", "brand": "Starbucks", "brand:wikidata": "Q37158", "brand:wikipedia": "en:Starbucks", "cuisine": "coffee_shop", "name": "Starbucks", "official_name": "Starbucks Coffee", "takeaway": "yes"}}, {"type": "node", "id": 5652012636, "lat": 41.9327302, "lon": -87.6550447, "tags": {"addr:city": "Chicago", "addr:housenumber": "1028", "addr:postcode": "60614", "addr:state": "IL", "addr:street": "West Diversey Parkway", "amenity": "bar", "name": "Paddy Long\u2019s", "phone": "+1-773-290-6988", "website": "https://www.paddylongs.com/"}}, {"type": "node", "id": 5652012639, "lat": 41.9333106, "lon": -87.6537045, "tags": {"addr:city": "Chicago", "addr:housenumber": "2825", "addr:postcode": "60657", "addr:state": "IL", "addr:street": "North Sheffield Avenue", "amenity": "cafe", "name": "Zizi's Cafe", "phone": "+1-773-697-9228", "website": "http://www.ziziscafechicago.com/"}}, {"type": "node", "id": 5689237336, "lat": 41.9328066, "lon": -87.6593929, "tags": {"addr:housenumber": "2812", "addr:street": "North Lincoln Avenue", "amenity": "bar", "name": "Beermiscuous", "phone": "+1-773-698-6824", "website": "https://beermiscuous.com/"}}, {"type": "node", "id": 5693947791, "lat": 41.9438463, "lon": -87.6453016, "tags": {"amenity": "restaurant", "name": "El Mariache Restaurant"}}, {"type": "node", "id": 5693947793, "lat": 41.9438117, "lon": -87.6453073, "tags": {"addr:city": "Chicago", "addr:housenumber": "3420", "addr:postcode": "60657", "addr:state": "Il", "addr:street": "North Broadway", "amenity": "bar", "name": "Jacquelines's", "phone": "+1-773-404-5149"}}, {"type": "node", "id": 5693947794, "lat": 41.9438949, "lon": -87.6453372, "tags": {"amenity": "restaurant", "name": "Shiawase Japanese Restaurant"}}, {"type": "node", "id": 5693948271, "lat": 41.9455874, "lon": -87.6463743, "tags": {"amenity": "restaurant", "name": "Tasty Asian Restaurant"}}, {"type": "node", "id": 5693977769, "lat": 41.9447676, "lon": -87.6492558, "tags": {"amenity": "bar", "name": "Replay"}}, {"type": "node", "id": 5693977770, "lat": 41.944889, "lon": -87.6492509, "tags": {"addr:city": "Chicago", "addr:housenumber": "3441", "addr:postcode": "60657", "addr:state": "IL", "addr:street": "North Halsted Street", "amenity": "bar", "name": "Lark", "phone": "+1-773-799-8968", "website": "https://www.larkchicago.com/"}}, {"type": "node", "id": 5694736438, "lat": 41.9436247, "lon": -87.644836, "tags": {"amenity": "restaurant", "name": "Milt's Barbecue for the Perplexed"}}, {"type": "node", "id": 5695506953, "lat": 41.9448988, "lon": -87.6544078, "tags": {"amenity": "restaurant", "name": "Cozy's Noodles and Rice"}}, {"type": "node", "id": 5695558674, "lat": 41.9429745, "lon": -87.6529045, "tags": {"amenity": "restaurant", "name": "PS Bangkok"}}, {"type": "node", "id": 5695558676, "lat": 41.9428926, "lon": -87.6528527, "tags": {"addr:city": "Chicago", "addr:housenumber": "3343", "addr:postcode": "60657", "addr:state": "IL", "addr:street": "North Clark Street", "amenity": "restaurant", "name": "Lowcountry Lakeview", "phone": "+1-888-883-8375", "website": "https://www.lowcountrychicago.com/"}}, {"type": "node", "id": 5698210188, "lat": 41.9416752, "lon": -87.6491615, "tags": {"amenity": "restaurant", "name": "Yoshi's Cafe"}}, {"type": "node", "id": 5698233276, "lat": 41.9401766, "lon": -87.6491213, "tags": {"amenity": "restaurant", "cuisine": "thai", "name": "Krung Thep"}}, {"type": "node", "id": 5698233278, "lat": 41.9401343, "lon": -87.6495937, "tags": {"amenity": "restaurant", "name": "Pok\u00e9 Pok\u00e9"}}, {"type": "node", "id": 5698236642, "lat": 41.9429961, "lon": -87.6495351, "tags": {"addr:city": "Chicago", "addr:housenumber": "3340", "addr:postcode": "60657", "addr:state": "IL", "addr:street": "North Halsted Street", "amenity": "bar", "name": "Town Hall Pub", "phone": "1+773-472-4405", "website": "http://www.townhallpub.com/"}}, {"type": "node", "id": 5791122717, "lat": 41.9447594, "lon": -87.6643524, "tags": {"addr:city": "Chicago", "addr:housenumber": "3446", "addr:postcode": "60657", "addr:state": "IL", "addr:street": "North Southport Avenue", "amenity": "restaurant", "name": "Corridor Brewery and Provisions", "phone": "+1-773-270-4272", "website": "https://www.corridorchicago.com/"}}, {"type": "node", "id": 5834769442, "lat": 41.9479341, "lon": -87.6573197, "tags": {"addr:city": "Chicago", "addr:housenumber": "3632", "addr:postcode": "60613", "addr:state": "IL", "addr:street": "North Clark Street", "amenity": "restaurant", "cuisine": "american", "name": "Mordecai", "phone": "+1-773-269-5410", "website": "https://www.mordecaichicago.com"}}, {"type": "node", "id": 5834769444, "lat": 41.9481236, "lon": -87.6574646, "tags": {"addr:city": "Chicago", "addr:housenumber": "3636", "addr:postcode": "60613", "addr:state": "IL", "addr:street": "North Clark Street", "amenity": "restaurant", "cuisine": "bbq;barbecue", "name": "Smoke Daddy BBQ - Wrigleyville", "phone": "+1-773-227-2583", "website": "https://www.thesmokedaddy.com/"}}, {"type": "node", "id": 5834769445, "lat": 41.9481784, "lon": -87.6575019, "tags": {"addr:city": "Chicago", "addr:housenumber": "3640", "addr:postcode": "60613", "addr:state": "IL", "addr:street": "North Clark Street", "amenity": "restaurant", "cuisine": "tacos", "name": "Big Star", "opening_hours": "24/7", "phone": "+1-773-857-7120"}}, {"type": "node", "id": 5834769446, "lat": 41.9476864, "lon": -87.6570759, "tags": {"addr:city": "Chicago", "addr:housenumber": "3626", "addr:postcode": "60613", "addr:state": "IL", "addr:street": "North Clark Street", "amenity": "cafe", "name": "West Town Bakery", "phone": "+1-773-269-5415", "shop": "bakery", "website": "https://www.westtownbakery.com/lakeview"}}, {"type": "node", "id": 5834769447, "lat": 41.9488178, "lon": -87.6568234, "tags": {"addr:city": "Chicago", "addr:housenumber": "1101", "addr:postcode": "60613", "addr:state": "IL", "addr:street": "West Waveland Avenue", "amenity": "bar", "brewery": "yes", "name": "Lucky Dorr", "outdoor_seating": "yes", "phone": "+1-773-388-8249", "website": "https://www.luckydorr.com/"}}, {"type": "node", "id": 5834769449, "lat": 41.9485577, "lon": -87.657448, "tags": {"addr:city": "Chicago", "addr:housenumber": "3647", "addr:postcode": "60613", "addr:state": "IL", "addr:street": "North Clark Street", "amenity": "restaurant", "name": "Brickhouse Tavern"}}, {"type": "node", "id": 5859460641, "lat": 41.9437201, "lon": -87.6539169, "tags": {"addr:city": "Chicago", "addr:housenumber": "3404", "addr:postcode": "60657", "addr:state": "IL", "addr:street": "North Clark Street", "amenity": "restaurant", "cuisine": "caribbean;jamaican", "description": "Jamaican fusion", "name": "Irie Jerk Bar and Grill", "phone": "+1-872-802-4999", "website": "http://iriejerkbargrill.comm/"}}, {"type": "node", "id": 5864459415, "lat": 41.9329255, "lon": -87.645183, "tags": {"addr:city": "Chicago", "addr:housenumber": "2800", "addr:postcode": "60657", "addr:state": "IL", "addr:street": "North Clark Street", "amenity": "cafe", "name": "Stan\u2019s Donuts & Coffee", "phone": "+1-773-883-4764", "website": "http://www.stansdonutschicago.com/"}}, {"type": "node", "id": 5872612136, "lat": 41.9317127, "lon": -87.6487652, "tags": {"addr:city": "Chicago", "addr:housenumber": "2703", "addr:postcode": "60614", "addr:state": "IL", "addr:street": "North Halsted Street", "amenity": "restaurant", "cuisine": "mexican", "name": "The Mayan Palace", "opening_hours": "Su-Mo 11:00-22:00; Tu-Sa 11:00-23:00", "phone": "+1-773-935-4200", "website": "https://www.themayanpalacechicago.com/"}}, {"type": "node", "id": 5908462022, "lat": 41.9457315, "lon": -87.6551575, "tags": {"amenity": "restaurant", "cuisine": "american", "name": "Stretch", "website": "https://www.thestretchchicago.com/"}}, {"type": "node", "id": 5914601985, "lat": 41.9433087, "lon": -87.6640752, "tags": {"addr:city": "Chicago", "addr:housenumber": "3358", "addr:postcode": "60657", "addr:state": "IL", "addr:street": "North Southport Avenue", "amenity": "restaurant", "cuisine": "mexican;tacos;taco", "name": "Tuco and Blondie", "opening_hours": "Mo-Th 11:00-22:00; Fr 11:00-00:00; Sa 10:00-00:00; Su 10:00-22:00", "phone": "+1-773-327-8226", "website": "http://www.tucoandblondie.com"}}, {"type": "node", "id": 5964780985, "lat": 41.9332772, "lon": -87.6445976, "tags": {"addr:city": "Chicago", "addr:housenumber": "2813", "addr:postcode": "60657", "addr:state": "IL", "addr:street": "North Broadway", "amenity": "restaurant", "name": "Gyu-Kaku Japanese Bbq", "phone": "+1- 773-687-8110", "website": "https://www.gyu-kaku.com/chicago-lake-view/"}}, {"type": "node", "id": 6221650880, "lat": 41.9475676, "lon": -87.6569746, "tags": {"addr:city": "Chicago", "addr:housenumber": "3600", "addr:postcode": "60613", "addr:state": "IL", "addr:street": "North Clark Street", "amenity": "restaurant", "cuisine": "american", "name": "Dutch & Doc's", "opening_hours": "We-Th 17:00-21:00; Fr 17:00-22:00; Sa 10:00-22:00; Su 10:00-21:00", "phone": "+1-773-360-0207", "website": "https://www.dutchanddocs.com/"}}, {"type": "node", "id": 6231087536, "lat": 41.9398524, "lon": -87.651043, "tags": {"addr:city": "Chicago", "addr:housenumber": "843", "addr:postcode": "60657", "addr:state": "IL", "addr:street": "West Belmont Avenue", "amenity": "restaurant", "cuisine": "sushi;poke;sushi_bowl", "delivery": "yes", "name": "Aloha Poke Co", "opening_hours": "Mo-Su 10:00-22:00", "outdoor_seating": "no"}}, {"type": "node", "id": 6238609220, "lat": 41.9354147, "lon": -87.6467863, "tags": {"addr:city": "Chicago", "addr:housenumber": "2921", "addr:postcode": "60657", "addr:state": "IL", "addr:street": "North Clark Street", "amenity": "restaurant", "cuisine": "sandwich", "name": "ChiTown Sandwich Club", "opening_hours": "Mo,Th,Fr 10:00-16:00; Sa,Su 09:00-16:00", "outdoor_seating": "yes", "phone": "+1-773-697-2371", "website": "https://chitownsandwichclub.com/"}}, {"type": "node", "id": 6249954562, "lat": 41.940101, "lon": -87.6503958, "tags": {"addr:city": "Chicago", "addr:housenumber": "824", "addr:postcode": "60657", "addr:state": "IL", "addr:street": "West Belmont Avenue", "amenity": "cafe", "cuisine": "american;coffee_shop;coffee", "name": "11 Degrees North", "phone": "+1-773 904-7284", "website": "https://www.11degreenorth.com/"}}, {"type": "node", "id": 6258078468, "lat": 41.9360857, "lon": -87.6477688, "tags": {"addr:city": "Chicago", "addr:housenumber": "2942", "addr:postcode": "60657", "addr:state": "IL", "addr:street": "North Clark Street", "amenity": "cafe", "name": "Aje Cafe", "phone": "+1-773-472-2233", "website": "https://ajecafechicago.wixsite.com/mysite"}}, {"type": "node", "id": 6261035288, "lat": 41.9314578, "lon": -87.6487892, "tags": {"addr:city": "Chicago", "addr:housenumber": "2683", "addr:postcode": "60614", "addr:state": "IL", "addr:street": "North Halsted Street", "amenity": "bar", "name": "aliveOne", "phone": "+1-773-348-9800", "website": "http://aliveone.com/"}}, {"type": "node", "id": 6263509527, "lat": 41.9354011, "lon": -87.6446863, "tags": {"addr:city": "Chicago", "addr:housenumber": "2916", "addr:postcode": "60657", "addr:state": "IL", "addr:street": "North Broadway", "amenity": "bar", "name": "Avenue Tavern", "phone": "+1-773-975-7000", "website": "http://avenuetavern.com/"}}, {"type": "node", "id": 6265193537, "lat": 41.9363269, "lon": -87.6441062, "tags": {"addr:city": "Chicago", "addr:housenumber": "2947", "addr:postcode": "60657", "addr:state": "IL", "addr:street": "North Broadway", "amenity": "restaurant", "name": "Bar Pastoral", "phone": "+1-773-472-4781", "website": "https://www.pastoralartisan.com/barpastoral"}}, {"type": "node", "id": 6267158437, "lat": 41.9400101, "lon": -87.6554869, "tags": {"addr:city": "Chicago", "addr:housenumber": "1034", "addr:postcode": "60657", "addr:state": "IL", "addr:street": "West Belmont Avenue", "amenity": "restaurant", "name": "BIG & little\u2019s Restaurant", "phone": "+1-773-857-6677", "website": "https://www.bigandlittleschicago.com/"}}, {"type": "node", "id": 6267402083, "lat": 41.9344594, "lon": -87.6460027, "tags": {"addr:city": "Chicago", "addr:housenumber": "2863", "addr:postcode": "60657", "addr:state": "IL", "addr:street": "North Clark Street", "amenity": "restaurant", "name": "Bluebird", "phone": "+1-773-661-1531", "website": "https://bluebirdchi.com/"}}, {"type": "node", "id": 6269048738, "lat": 41.9402531, "lon": -87.6445602, "tags": {"addr:city": "Chicago", "addr:housenumber": "3204", "addr:postcode": "60657", "addr:state": "IL", "addr:street": "North Broadway", "amenity": "restaurant", "name": "Brazilian Bowl", "phone": "+1-773- 857-2002", "website": "https://brazilianbowl2go.com/"}}, {"type": "node", "id": 6269167678, "lat": 41.9486948, "lon": -87.6572351, "tags": {"addr:city": "Chicago", "addr:housenumber": "3647", "addr:postcode": "60613", "addr:state": "IL", "addr:street": "North Clark Street", "amenity": "bar", "name": "Budweiser Brickhouse Tavern", "phone": "+1-773-377-4770", "website": "https://www.brickhousetavernchi.com/"}}, {"type": "node", "id": 6269367678, "lat": 41.9318459, "lon": -87.6572325, "tags": {"addr:city": "Chicago", "addr:housenumber": "2747", "addr:postcode": "60614", "addr:state": "IL", "addr:street": "North Lincoln Avenue", "amenity": "bar", "name": "Burnt City Brewing", "phone": "+1-773-295-1270", "website": "https://burntcitybrewing.com/"}}, {"type": "node", "id": 6269896115, "lat": 41.9475422, "lon": -87.664211, "tags": {"addr:city": "Chicago", "addr:housenumber": "3612", "addr:postcode": "60613", "addr:state": "IL", "addr:street": "North Southport Avenue", "amenity": "cafe", "name": "Cafe Tola", "phone": "+1-773-687-8428"}}, {"type": "node", "id": 6280486513, "lat": 41.9445167, "lon": -87.6637447, "tags": {"addr:city": "Chicago", "addr:housenumber": "3425", "addr:postcode": "60657", "addr:state": "IL", "addr:street": "North Southport Avenue", "amenity": "cafe", "name": "Capital One Caf\u00e9", "phone": "+1-312-279-8061", "website": "https://www.capitalone.com/local/chicago-southport"}}, {"type": "node", "id": 6282573940, "lat": 41.9450134, "lon": -87.6551173, "tags": {"addr:city": "Chicago", "addr:housenumber": "3462", "addr:postcode": "60657", "addr:state": "IL", "addr:street": "North Clark Street", "amenity": "bar", "name": "Christmas Club", "phone": "+1-773-975-2010", "website": "http://www.christmasclubchicago.com/"}}, {"type": "node", "id": 6283213091, "lat": 41.9332915, "lon": -87.6593217, "tags": {"addr:city": "Chicago", "addr:housenumber": "2823", "addr:postcode": "60614", "addr:state": "IL", "addr:street": "North Lincoln Avenue", "amenity": "cafe", "name": "Coffee Lab & Roasters", "phone": "+1-773-687-9453", "website": "https://www.bcbccoffeelab.com/"}}, {"type": "node", "id": 6283925387, "lat": 41.9367963, "lon": -87.651179, "tags": {"addr:city": "Chicago", "addr:housenumber": "836", "addr:postcode": "60657", "addr:state": "IL", "addr:street": "West Nelson Street", "amenity": "cafe", "name": "Courtyard Cafe"}}, {"type": "node", "id": 6283974838, "lat": 41.9451152, "lon": -87.6637061, "tags": {"addr:city": "Chicago", "addr:housenumber": "3455", "addr:postcode": "60657", "addr:state": "IL", "addr:street": "North Southport Avenue", "amenity": "restaurant", "cuisine": "american", "name": "Crosby\u2019s Kitchen", "phone": "+1-773-883-2525", "website": "http://crosbyschicago.com/"}}, {"type": "node", "id": 6284192680, "lat": 41.9448556, "lon": -87.6540273, "tags": {"addr:city": "Chicago", "addr:housenumber": "3443", "addr:postcode": "60657", "addr:state": "IL", "addr:street": "North Sheffield Avenue", "amenity": "bar", "name": "Dark Horse Tap & Grille", "phone": "+1-773-248-4400", "website": "http://www.darkhorsechicago.com/"}}, {"type": "node", "id": 6284367730, "lat": 41.9322843, "lon": -87.6580892, "tags": {"addr:city": "Chicago", "addr:housenumber": "2771", "addr:postcode": "60614", "addr:state": "IL", "addr:street": "North Lincoln Avenue", "amenity": "bar", "name": "Delilah\u2019", "phone": "+1-773-472-2771", "website": "http://www.delilahschicago.com/"}}, {"type": "node", "id": 6284391360, "lat": 41.932851, "lon": -87.6492874, "tags": {"addr:city": "Chicago", "addr:housenumber": "800", "addr:postcode": "60614", "addr:state": "IL", "addr:street": "West Diversey Parkway", "amenity": "cafe", "cuisine": "coffee_shop", "name": "Department of Coffee and Social Affairs", "phone": "+1-773-697-9581", "website": "https://www.departmentofcoffee.com/"}}, {"type": "node", "id": 6284585245, "lat": 41.9469968, "lon": -87.6554665, "tags": {"addr:city": "Chicago", "addr:housenumber": "1027", "addr:postcode": "60613", "addr:state": "IL", "addr:street": "West Addison Street", "amenity": "cafe", "name": "Do-Rite Donuts & Chicken", "phone": "+1-773-977-7065", "website": "http://doritedonuts.com/"}}, {"type": "node", "id": 6284775973, "lat": 41.9377382, "lon": -87.6444991, "tags": {"addr:city": "Chicago", "addr:housenumber": "3040", "addr:postcode": "60657", "addr:state": "IL", "addr:street": "North Broadway", "amenity": "bar", "name": "Dram Shop", "phone": "+1-773-549-4401"}}, {"type": "node", "id": 6284856480, "lat": 41.9352735, "lon": -87.6466516, "tags": {"addr:city": "Chicago", "addr:housenumber": "2913", "addr:postcode": "60657", "addr:state": "IL", "addr:street": "North Clark Street", "amenity": "restaurant", "name": "Duke Of Perth", "phone": "+1-773-477-1741", "website": "http://dukeofperth.com/"}}, {"type": "node", "id": 6284991328, "lat": 41.9376857, "lon": -87.6523692, "tags": {"addr:city": "Chicago", "addr:housenumber": "900", "addr:postcode": "60657", "addr:state": "IL", "addr:street": "West Barry Avenue", "amenity": "cafe", "name": "Ecos Cafe"}}, {"type": "node", "id": 6286532079, "lat": 41.9452065, "lon": -87.6496265, "tags": {"addr:city": "Chicago", "addr:housenumber": "3452", "addr:postcode": "60657", "addr:state": "IL", "addr:street": "North Halsted Street", "amenity": "bar", "name": "Elixir Lounge", "phone": "+1-773-975-9244", "website": "https://www.elixirchicago.com/"}}, {"type": "node", "id": 6286580076, "lat": 41.9451277, "lon": -87.6634876, "tags": {"addr:city": "Chicago", "addr:housenumber": "1349", "addr:postcode": "60657", "addr:state": "IL", "addr:street": "West Cornelia Avenue", "amenity": "restaurant", "cuisine": "italian;mediterranean", "name": "Ella Elli", "phone": "+1-773-935-3552", "website": "http://www.ellaellichicago.com/"}}, {"type": "node", "id": 6289265540, "lat": 41.9449947, "lon": -87.649237, "tags": {"addr:city": "Chicago", "addr:housenumber": "3445", "addr:postcode": "60657", "addr:state": "IL", "addr:street": "North Halsted Street", "amenity": "restaurant", "name": "D.S. Fajita Factory", "phone": "+1-773-770-4618", "website": "https://fajitame.com/"}}, {"type": "node", "id": 6289397250, "lat": 41.9363597, "lon": -87.6614074, "tags": {"addr:city": "Chicago", "addr:housenumber": "1300", "addr:postcode": "60657", "addr:state": "Il", "addr:street": "West Wellington Avenue", "amenity": "restaurant", "name": "Farm Bar Lakeview", "phone": "+1-773-281-2599", "website": "http://farm-bar.com/"}}, {"type": "node", "id": 6289950585, "lat": 41.9402434, "lon": -87.6539754, "tags": {"addr:city": "Chicago", "addr:housenumber": "3207", "addr:postcode": "60657", "addr:state": "IL", "addr:street": "North Sheffield Avenue", "amenity": "bar", "name": "Figo Wine Bar", "phone": "+1-312-819-6111", "website": "https://figowinebar.com/"}}, {"type": "node", "id": 6291549885, "lat": 41.9368175, "lon": -87.6445689, "tags": {"addr:city": "Chicago", "addr:housenumber": "3010", "addr:postcode": "60657", "addr:state": "IL", "addr:street": "North Broadway", "amenity": "bar", "name": "Friar Tuck", "phone": "+1-773-327-5101"}}, {"type": "node", "id": 6291781728, "lat": 41.9344071, "lon": -87.6492749, "tags": {"addr:city": "Chicago", "addr:housenumber": "2858", "addr:postcode": "60614", "addr:state": "IL", "addr:street": "North Halsted Street", "amenity": "bar", "name": "George Street Pub", "phone": "+1-773-661-6635", "website": "http://www.gspchicago.com/"}}, {"type": "node", "id": 6292131009, "lat": 41.9351529, "lon": -87.6444787, "tags": {"addr:city": "Chicago", "addr:housenumber": "2904", "addr:postcode": "60657", "addr:state": "IL", "addr:street": "North Broadway", "amenity": "restaurant", "name": "Grand Mongolian Hot Pot", "phone": "+1-312-866-9555", "website": "https://grandmongolianhotpot.com/"}}, {"type": "node", "id": 6292159426, "lat": 41.9473236, "lon": -87.6617604, "tags": {"addr:city": "Chicago", "addr:housenumber": "1300", "addr:postcode": "60613", "addr:state": "IL", "addr:street": "West Addison Street", "amenity": "bar", "name": "Guthries Tavern", "phone": "+1-773-477-2900", "website": "https://www.guthriestavern.com/"}}, {"type": "node", "id": 6294060040, "lat": 41.9329983, "lon": -87.6465576, "tags": {"addr:city": "Chicago", "addr:housenumber": "676", "addr:postcode": "60614", "addr:state": "IL", "addr:street": "West Diversey Parkway", "amenity": "restaurant", "name": "Half Shell", "phone": "+1-773-549-1773", "website": "http://halfshellchicago.com/"}}, {"type": "node", "id": 6294169235, "lat": 41.9332916, "lon": -87.6492713, "tags": {"addr:city": "Chicago", "addr:housenumber": "2816", "addr:postcode": "60657", "addr:state": "IL", "addr:street": "North Halsted Street", "amenity": "bar", "name": "Harrigan\u2019s", "phone": "+1-773-248-5933", "website": "http://www.harriganspubchicago.com/"}}, {"type": "node", "id": 6294293052, "lat": 41.9357623, "lon": -87.6628497, "tags": {"addr:city": "Chicago", "addr:housenumber": "2959", "addr:postcode": "60657", "addr:state": "IL", "addr:street": "North Lincoln Avenue", "amenity": "cafe", "name": "Heritage Bicycles General Store", "phone": "+1-773-245-3005", "website": "https://www.heritagebicycles.com/"}}, {"type": "node", "id": 6297537502, "lat": 41.9335076, "lon": -87.6638856, "tags": {"addr:city": "Chicago", "addr:housenumber": "2834", "addr:postcode": "60657", "addr:state": "IL", "addr:street": "North Southport Avenue", "amenity": "restaurant", "name": "Sal\u2019s Trattoria", "phone": "+1-773-857-1401", "website": "http://salstrattoria.com/"}}, {"type": "node", "id": 6297566248, "lat": 41.9362512, "lon": -87.6641824, "tags": {"addr:city": "Chicago", "addr:housenumber": "3000", "addr:postcode": "60657", "addr:state": "IL", "addr:street": "North Lincoln Avenue", "amenity": "restaurant", "name": "Sam & George\u2019s", "phone": "+1-773-935-4025", "website": "http://www.sandg-chicago.com/"}}, {"type": "node", "id": 6297599701, "lat": 41.9316579, "lon": -87.6485447, "tags": {"addr:city": "Chicago", "addr:housenumber": "2701", "addr:postcode": "60614", "addr:state": "IL", "addr:street": "North Halsted Street", "amenity": "restaurant", "name": "Sapori Trattoria", "phone": "+1-312-967-9358", "website": "https://www.saporitrattoria.net/"}}, {"type": "node", "id": 6297639056, "lat": 41.9396579, "lon": -87.6633518, "tags": {"addr:city": "Chicago", "addr:housenumber": "3159", "addr:postcode": "60657", "addr:state": "IL", "addr:street": "North Southport Avenue", "amenity": "bar", "name": "Schubas Tavern", "phone": "+1-773-525-2508", "website": "https://www.schubastavern.com/"}}, {"type": "node", "id": 6297781137, "lat": 41.9392288, "lon": -87.6502846, "tags": {"addr:city": "Chicago", "addr:housenumber": "3160", "addr:postcode": "60657", "addr:state": "IL", "addr:street": "North Clark Street", "amenity": "bar", "name": "Shakers On Clark", "phone": "+1-773-327-5969", "website": "http://shakersonclark.com/"}}, {"type": "node", "id": 6297807571, "lat": 41.9415907, "lon": -87.6545108, "tags": {"addr:city": "Chicago", "addr:housenumber": "3258", "addr:postcode": "60657", "addr:state": "IL", "addr:street": "North Sheffield Avenue", "amenity": "bar", "name": "Sheffield\u2019s Wine & Beer Garden", "phone": "+1-773-281-4989", "website": "http://www.sheffieldschicago.com/"}}, {"type": "node", "id": 6297827190, "lat": 41.9344543, "lon": -87.6658815, "tags": {"addr:city": "Chicago", "addr:housenumber": "1456", "addr:postcode": "60657", "addr:state": "IL", "addr:street": "West George Street", "amenity": "bar", "name": "Side Street Saloon", "phone": "+1-773-327-1127"}}, {"type": "node", "id": 6297839310, "lat": 41.94334, "lon": -87.6490311, "tags": {"addr:city": "Chicago", "addr:housenumber": "3349", "addr:postcode": "60657", "addr:state": "IL", "addr:street": "North Halsted Street", "amenity": "bar", "name": "Sidetrack", "phone": "+1-773-477-9189", "website": "https://www.sidetrackchicago.com/"}}, {"type": "node", "id": 6298966885, "lat": 41.9423222, "lon": -87.6635629, "tags": {"addr:city": "Chicago", "addr:housenumber": "3325", "addr:postcode": "60657", "addr:state": "IL", "addr:street": "North Southport Avenue", "amenity": "bar", "name": "Southport Lanes", "phone": "+1-773-472-6600", "website": "https://southportlanes.com/"}}, {"type": "node", "id": 6299449463, "lat": 41.9333248, "lon": -87.6594383, "tags": {"addr:city": "Chicago", "addr:housenumber": "2825", "addr:postcode": "60657", "addr:state": "IL", "addr:street": "North Lincoln Avenue", "amenity": "restaurant", "name": "Patsy\u2019s Place", "phone": "+1-773-248-2825", "website": "http://www.patsyspub.com/"}}, {"type": "node", "id": 6300395997, "lat": 41.9338851, "lon": -87.6442994, "tags": {"addr:city": "Chicago", "addr:housenumber": "2833", "addr:postcode": "60657", "addr:state": "IL", "addr:street": "North Broadway", "amenity": "restaurant", "name": "Pera Turkish Kitchen & Bar", "phone": "+1-773-880-0063", "website": "http://perachicago.com/"}}, {"type": "node", "id": 6300417745, "lat": 41.9438066, "lon": -87.6540343, "tags": {"addr:city": "Chicago", "addr:housenumber": "3408", "addr:postcode": "60657", "addr:state": "IL", "addr:street": "North Clark Street", "amenity": "restaurant", "name": "Pick Me Up Cafe", "phone": "+1-773-248-6613", "website": "http://pmucafe.com/"}}, {"type": "node", "id": 6300768348, "lat": 41.9465696, "lon": -87.6563348, "tags": {"addr:city": "Chicago", "addr:housenumber": "3540", "addr:postcode": "60657", "addr:state": "IL", "addr:street": "North Clark Street", "amenity": "bar", "name": "Sluggers World Class Sports Bar", "phone": "+1-773-248-0055", "website": "sluggersbar.com"}}, {"type": "node", "id": 6300887613, "lat": 41.9458691, "lon": -87.646604, "tags": {"addr:city": "Chicago", "addr:housenumber": "3508", "addr:postcode": "60657", "addr:state": "IL", "addr:street": "North Broadway", "amenity": "cafe", "name": "Rewired Caf\u00e9- Lakeview", "phone": "+1-773-687-9719"}}, {"type": "node", "id": 6300944476, "lat": 41.945363, "lon": -87.6547607, "tags": {"addr:city": "Chicago", "addr:housenumber": "3435", "addr:postcode": "60657", "addr:state": "IL", "addr:street": "North Sheffield Avenue", "amenity": "restaurant", "name": "Rice\u2019N Bread", "phone": "+1-773-281-4452", "website": "http://www.ricenbread.com/"}}, {"type": "node", "id": 6301025352, "lat": 41.9406511, "lon": -87.6543865, "tags": {"addr:city": "Chicago", "addr:housenumber": "3222", "addr:postcode": "60657", "addr:state": "IL", "addr:street": "North Sheffield Avenue", "amenity": "bar", "name": "Room 13", "phone": "+1-773-472-2278", "website": "https://www.oldchicagoinn.com/room13/"}}, {"type": "node", "id": 6301035834, "lat": 41.9486374, "lon": -87.6579243, "tags": {"addr:city": "Chicago", "addr:housenumber": "3658", "addr:postcode": "60613", "addr:state": "IL", "addr:street": "North Clark Street", "amenity": "bar", "name": "Rizzo\u2019s Bar & Inn", "phone": "+1-773-799-8161", "website": "https://rizzosbarandinn.com/"}}, {"type": "node", "id": 6301794398, "lat": 41.9457853, "lon": -87.6550852, "tags": {"addr:city": "Chicago", "addr:housenumber": "3485", "addr:postcode": "60657", "addr:state": "IL", "addr:street": "North Clark Street", "amenity": "bar", "name": "Stretch Bar & Grill", "phone": "+1-773-755-3980"}}, {"type": "node", "id": 6301829167, "lat": 41.935976, "lon": -87.6444108, "tags": {"addr:city": "Chicago", "addr:housenumber": "2936", "addr:postcode": "60657", "addr:state": "IL", "addr:street": "North Broadway", "amenity": "restaurant", "name": "Sumo Sushi and Hibachi", "phone": "+1-773-477-8510", "website": "http://www.sumosushichicago.com/"}}, {"type": "node", "id": 6302030514, "lat": 41.9400544, "lon": -87.663414, "tags": {"addr:city": "Chicago", "addr:housenumber": "1358", "addr:postcode": "60657", "addr:state": "IL", "addr:street": "West Belmont Avenue", "amenity": "restaurant", "name": "The Spanish Square", "phone": "+1-773-717-7900", "website": "http://www.thespanishsquare.com/"}}, {"type": "node", "id": 6303091617, "lat": 41.9326539, "lon": -87.6432988, "tags": {"addr:city": "Chicago", "addr:housenumber": "553", "addr:postcode": "60614", "addr:state": "IL", "addr:street": "West Diversey Parkway", "amenity": "restaurant", "name": "Tanaka Ramen", "phone": "+1-773-857-5140", "website": "https://tanakaramen.com/"}}, {"type": "node", "id": 6303939519, "lat": 41.9326796, "lon": -87.6433565, "tags": {"addr:city": "Chicago", "addr:housenumber": "557", "addr:postcode": "60614", "addr:state": "IL", "addr:street": "West Diversey Parkway", "amenity": "cafe", "name": "TeaGschwendner", "phone": "+1-773-360-8009", "website": "https://shop.tgtea.com/"}}, {"type": "node", "id": 6304062112, "lat": 41.9397228, "lon": -87.6512814, "tags": {"addr:city": "Chicago", "addr:housenumber": "851", "addr:postcode": "60657", "addr:state": "IL", "addr:street": "West Belmont Avenue", "amenity": "bar", "name": "The Annoyance Theatre and Bar", "phone": "+1-773-697-9693", "website": "https://theannoyance.com/"}}, {"type": "node", "id": 6304575246, "lat": 41.9455007, "lon": -87.6547969, "tags": {"addr:city": "Chicago", "addr:housenumber": "3437", "addr:postcode": "60657", "addr:state": "IL", "addr:street": "North Clark Street", "amenity": "bar", "name": "Tinker to Evers, Wrigleyville", "phone": "+1-224-322-0100", "website": "http://unionpizza.com/tinker-to-evers/"}}, {"type": "node", "id": 6305246040, "lat": 41.9477863, "lon": -87.6572653, "tags": {"addr:city": "Chicago", "addr:housenumber": "3630", "addr:postcode": "60613", "addr:state": "IL", "addr:street": "North Clark Street", "amenity": "bar", "name": "The Bar at Hotel Zachary", "phone": "+1-773-302-2300", "website": "https://www.hotelzachary.com/cuisine-cocktails#the-bar-at-hotel-zachary"}}, {"type": "node", "id": 6305337839, "lat": 41.9321476, "lon": -87.6450562, "tags": {"addr:city": "Chicago", "addr:housenumber": "2546", "addr:postcode": "60614", "addr:state": "IL", "addr:street": "North Clark Street", "amenity": "restaurant", "name": "Toro Sushi", "phone": "+1-773-348-7255"}}, {"type": "node", "id": 6306522514, "lat": 41.9468004, "lon": -87.6637586, "tags": {"addr:city": "Chicago", "addr:housenumber": "3553", "addr:postcode": "60657", "addr:state": "IL", "addr:street": "North Southport Avenue", "amenity": "bar", "name": "The Butcher\u2019s Tap", "phone": "+1-773-325-0123", "website": "http://thebutcherstap.com/"}}, {"type": "node", "id": 6306543880, "lat": 41.9440209, "lon": -87.6491763, "tags": {"addr:city": "Chicago", "addr:housenumber": "3411", "addr:postcode": "60657", "addr:state": "IL", "addr:street": "North Halsted Street", "amenity": "restaurant", "diet:gluten_free": "yes", "diet:vegan": "yes", "diet:vegetarian": "only", "name": "The Chicago Diner", "phone": "+1-773-935-6696", "website": "http://www.veggiediner.com/"}}, {"type": "node", "id": 6306635320, "lat": 41.9357688, "lon": -87.6445452, "tags": {"addr:city": "Chicago", "addr:housenumber": "2928", "addr:postcode": "60657", "addr:state": "IL", "addr:street": "North Broadway", "amenity": "restaurant", "name": "The Crepe Shop", "phone": "+1-773-857-0018", "website": "https://www.thecrepeshopchicago.com/"}}, {"type": "node", "id": 6307022465, "lat": 41.9348552, "lon": -87.661554, "tags": {"addr:city": "Chicago", "addr:housenumber": "1913", "addr:postcode": "60657", "addr:state": "IL", "addr:street": "North Lincoln Avenue", "amenity": "bar", "name": "Twisted Tap"}}, {"type": "node", "id": 6307031974, "lat": 41.9433812, "lon": -87.6592419, "tags": {"addr:city": "Chicago", "addr:housenumber": "1201", "addr:postcode": "60657", "addr:state": "IL", "addr:street": "West Roscoe Street", "amenity": "cafe", "cuisine": "coffee_shop", "name": "Two Hearted Queen", "phone": "+1-773-360-8189", "website": "http://twoheartedqueen.com/"}}, {"type": "node", "id": 6314880236, "lat": 41.9357245, "lon": -87.6475622, "tags": {"addr:city": "Chicago", "addr:housenumber": "2932", "addr:postcode": "60657", "addr:state": "IL", "addr:street": "North Clark Street", "amenity": "bar", "name": "Jake\u2019s Pub", "phone": "+1-773-248-3318", "website": "http://www.jakespub.net/"}}, {"type": "node", "id": 6315194719, "lat": 41.934158, "lon": -87.6639155, "tags": {"addr:city": "Chicago", "addr:housenumber": "2856", "addr:postcode": "60657", "addr:state": "IL", "addr:street": "North Southport Avenue", "amenity": "bar", "name": "The Diag", "phone": "+1-773-404-8400", "website": "https://www.diagchicago.com/"}}, {"type": "node", "id": 6315206885, "lat": 41.9342202, "lon": -87.6607793, "tags": {"addr:city": "Chicago", "addr:housenumber": "2871", "addr:postcode": "60657", "addr:state": "IL", "addr:street": "North Lincoln Avenue", "amenity": "bar", "name": "The Elbo Room", "phone": "+1-773-549-5549", "website": "elboroomlive.com"}}, {"type": "node", "id": 6315218733, "lat": 41.9478821, "lon": -87.6466169, "tags": {"addr:city": "Chicago", "addr:housenumber": "620", "addr:postcode": "60613", "addr:state": "IL", "addr:street": "West Addison Street", "amenity": "restaurant", "name": "The Flower Flat", "phone": "+1-773-697-3682", "website": "http://www.theflowerflat.com/http://www.theflowerflat.com/"}}, {"type": "node", "id": 6315598366, "lat": 41.9331414, "lon": -87.6597871, "tags": {"addr:city": "Chicago", "addr:housenumber": "2828", "addr:postcode": "60657", "addr:state": "IL", "addr:street": "North Lincoln Avenue", "amenity": "bar", "name": "The Hometavern", "phone": "+1-773-549-9253"}}, {"type": "node", "id": 6315632339, "lat": 41.9367992, "lon": -87.6649701, "tags": {"addr:city": "Chicago", "addr:housenumber": "3032", "addr:postcode": "60657", "addr:state": "IL", "addr:street": "North Lincoln Avenue", "amenity": "bar", "name": "The Land on Lincoln", "phone": "+1-872-802-0111", "website": "https://www.thelandonlincoln.com/"}}, {"type": "node", "id": 6315756742, "lat": 41.9413636, "lon": -87.6442012, "tags": {"addr:city": "Chicago", "addr:housenumber": "3243", "addr:postcode": "60657", "addr:state": "IL", "addr:street": "North Broadway", "amenity": "cafe", "name": "Vanille Patisserie", "phone": "+1-773-868-4574", "website": "http://www.vanillepatisserie.com/"}}, {"type": "node", "id": 6316678035, "lat": 41.9425564, "lon": -87.6443063, "tags": {"addr:city": "Chicago", "addr:housenumber": "3317", "addr:postcode": "60657", "addr:state": "IL", "addr:street": "North Broadway", "amenity": "bar", "name": "Wang\u2019s", "phone": "+1-773-296-6800", "website": "http://www.wangslive.com/"}}, {"type": "node", "id": 6316851529, "lat": 41.9349999, "lon": -87.644007, "tags": {"addr:city": "Chicago", "addr:housenumber": "2873", "addr:postcode": "60657", "addr:state": "IL", "addr:street": "North Broadway", "amenity": "bar", "name": "Wheat\u2019s End Cafe", "phone": "+1-773-770-3527", "website": "https://wheatsendcafe.com/"}}, {"type": "node", "id": 6316911957, "lat": 41.9387153, "lon": -87.644825, "tags": {"addr:city": "Chicago", "addr:housenumber": "3130", "addr:postcode": "60657", "addr:state": "IL", "addr:street": "North Broadway", "amenity": "restaurant", "name": "Wilde Bar & Restaurant", "phone": "+1-773-244-0404", "website": "https://wildechicago.com/restaurant/wilde"}}, {"type": "node", "id": 6316972664, "lat": 41.9428754, "lon": -87.6490912, "tags": {"addr:city": "Chicago", "addr:housenumber": "3335", "addr:postcode": "60657", "addr:state": "IL", "addr:street": "North Halsted Street", "amenity": "restaurant", "name": "Wood", "phone": "+1-773-935-9663", "website": "http://woodchicago.com/"}}, {"type": "node", "id": 6317060712, "lat": 41.9326492, "lon": -87.6584829, "tags": {"addr:city": "Chicago", "addr:postcode": "60657", "addr:state": "IL", "addr:street": "West Diversey Parkway", "amenity": "cafe", "name": "Y2K Cafe"}}, {"type": "node", "id": 6317062826, "lat": 41.9431839, "lon": -87.6496538, "tags": {"addr:city": "Chicago", "addr:housenumber": "3344", "addr:postcode": "60657", "addr:state": "IL", "addr:street": "North Halsted Street", "amenity": "cafe", "name": "Yefseis Cafe", "phone": "+1-773-857-3002", "website": "https://yefseis-cafe.business.site/"}}, {"type": "node", "id": 6318385635, "lat": 41.9397696, "lon": -87.6507781, "tags": {"addr:city": "Chicago", "addr:housenumber": "3178", "addr:postcode": "60657", "addr:state": "IL", "addr:street": "North Clark Street", "amenity": "cafe", "name": "Life Spring Health Foods & Juice Bar", "phone": "+1-773-327-1023", "website": "http://lifespringchicago.com/"}}, {"type": "node", "id": 6318428983, "lat": 41.9363406, "lon": -87.6643657, "tags": {"addr:city": "Chicago", "addr:housenumber": "3010", "addr:postcode": "60657", "addr:state": "IL", "addr:street": "North Lincoln Avenue", "amenity": "bar", "name": "Lincoln Tap Room", "phone": "+1-773-868-0060", "website": "https://www.lincolntaproom.com/"}}, {"type": "node", "id": 6318928610, "lat": 41.9472229, "lon": -87.6470188, "tags": {"addr:city": "Chicago", "addr:housenumber": "3563", "addr:postcode": "60657", "addr:state": "IL", "addr:street": "North Broadway", "amenity": "bar", "name": "Joe\u2019s On Broadway", "phone": "+1-773-528-1054"}}, {"type": "node", "id": 6319831697, "lat": 41.9399793, "lon": -87.6603361, "tags": {"addr:city": "Chicago", "addr:housenumber": "1232", "addr:postcode": "60657", "addr:state": "IL", "addr:street": "West Belmont Avenue", "amenity": "restaurant", "name": "Kubo Chicago", "phone": "+1-773-857-1408", "website": "https://www.kubochicago.com/"}}, {"type": "node", "id": 6320014611, "lat": 41.9340452, "lon": -87.6456834, "tags": {"addr:city": "Chicago", "addr:housenumber": "2845", "addr:postcode": "60657", "addr:state": "IL", "addr:street": "North Clark Street", "amenity": "restaurant", "name": "La Cr\u00eaperie", "phone": "+1-773-528-9050", "website": "http://www.lacreperiechicago.com/"}}, {"type": "node", "id": 6320659647, "lat": 41.9396984, "lon": -87.6442135, "tags": {"addr:city": "Chicago", "addr:housenumber": "3169", "addr:postcode": "60657", "addr:state": "IL", "addr:street": "West Belmont Avenue", "amenity": "bar", "name": "Lower Broadway", "phone": "+1-312-985-6190"}}, {"type": "node", "id": 6321416056, "lat": 41.9382059, "lon": -87.6446069, "tags": {"addr:city": "Chicago", "addr:housenumber": "3114", "addr:postcode": "60657", "addr:state": "IL", "addr:street": "North Broadway", "amenity": "cafe", "name": "Maison Marcel", "phone": "+1-773-661-6942", "website": "https://www.maison-marcel.com/"}}, {"type": "node", "id": 6321420401, "lat": 41.9420205, "lon": -87.6521692, "tags": {"addr:city": "Chicago", "addr:housenumber": "3307", "addr:postcode": "60657", "addr:state": "IL", "addr:street": "North Clark Street", "amenity": "restaurant", "name": "Maison Parisienne", "phone": "+1-773-904-0777", "website": "http://maison-parisienne.com/"}}, {"type": "node", "id": 6321594753, "lat": 41.9330575, "lon": -87.6465042, "tags": {"addr:city": "Chicago", "addr:housenumber": "674", "addr:postcode": "60614", "addr:state": "IL", "addr:street": "West Diversey Parkway", "amenity": "bar", "name": "Matisse Tavern & Grill", "phone": "+1-773-528-6670", "website": "https://www.matissetavernchicago.com/"}}, {"type": "node", "id": 6322005915, "lat": 41.9467598, "lon": -87.6642858, "tags": {"addr:city": "Chicago", "addr:housenumber": "3552", "addr:postcode": "60657", "addr:state": "IL", "addr:street": "North Southport Avenue", "amenity": "restaurant", "name": "Southport Grocery & Cafe", "phone": "+1-773-665-0100", "website": "https://southportgrocery.com/"}}, {"type": "node", "id": 6322604322, "lat": 41.9421793, "lon": -87.6521992, "tags": {"addr:city": "Chicago", "addr:housenumber": "3311", "addr:postcode": "60657", "addr:state": "IL", "addr:street": "North Clark Street", "amenity": "restaurant", "name": "Mia Francesca", "phone": "+1-773-281-3310", "website": "https://www.miafrancesca.com/"}}, {"type": "node", "id": 6322764818, "lat": 41.9398721, "lon": -87.6491223, "tags": {"addr:city": "Chicago", "addr:housenumber": "3171", "addr:postcode": "60657", "addr:state": "IL", "addr:street": "North Halsted Street", "amenity": "cafe", "name": "Modern Grill", "phone": "+1-773-528-0705", "website": "https://www.moderngrill.net/"}}, {"type": "node", "id": 6322807372, "lat": 41.9371372, "lon": -87.6441059, "tags": {"addr:city": "Chicago", "addr:housenumber": "3019", "addr:postcode": "60657", "addr:state": "IL", "addr:street": "North Broadway", "amenity": "bar", "name": "Monsignor Murphys", "phone": "+1-773-348-7285", "website": "https://www.hugedomains.com/domain_profile.cfm?d=monsignormurphys&e=com"}}, {"type": "node", "id": 6322937296, "lat": 41.9335786, "lon": -87.646062, "tags": {"addr:city": "Chicago", "addr:housenumber": "2828", "addr:postcode": "60657", "addr:state": "IL", "addr:street": "North Clark Street", "amenity": "bar", "name": "The Century Bar", "phone": "+1-773-248-7759", "website": "landmarktheatres.com/"}}, {"type": "node", "id": 6322972542, "lat": 41.9474494, "lon": -87.6539367, "tags": {"addr:city": "Chicago", "addr:housenumber": "950", "addr:postcode": "60613", "addr:state": "IL", "addr:street": "West Addison Street", "amenity": "bar", "name": "The Dugout Bar", "phone": "+1-773-661-6043", "website": "http://thedugoutpressbox.com"}}, {"type": "node", "id": 6323038072, "lat": 41.9329303, "lon": -87.6464132, "tags": {"addr:city": "Chicago", "addr:country": "US", "addr:housenumber": "670", "addr:postcode": "60614", "addr:state": "IL", "addr:street": "West Diversey Parkway", "amenity": "restaurant", "brand": "Nando's", "brand:wikidata": "Q3472954", "brand:wikipedia": "en:Nando's", "cuisine": "chicken;portuguese", "name": "Nando's", "phone": "+1-773-634-7153", "website": "https://www.nandosperiperi.com/"}}, {"type": "node", "id": 6323168600, "lat": 41.9457261, "lon": -87.655028, "tags": {"addr:city": "Chicago", "addr:housenumber": "3481", "addr:postcode": "60657", "addr:state": "IL", "addr:street": "North Clark Street", "amenity": "bar", "name": "Nola pub", "phone": "+1-773-661-1873", "website": "http://nolachicago.com/"}}, {"type": "node", "id": 6324135870, "lat": 41.9330169, "lon": -87.6445527, "tags": {"addr:city": "Chicago", "addr:housenumber": "616", "addr:postcode": "60614", "addr:state": "IL", "addr:street": "West Diversey Parkway", "amenity": "restaurant", "brand": "The Original Pancake House", "brand:wikidata": "Q7755384", "brand:wikipedia": "en:The Original Pancake House", "cuisine": "breakfast;pancake", "name": "The Original Pancake House", "phone": "+1-773-929-8130", "website": "https://www.ophchicagoland.com/lincoln-park/"}}, {"type": "node", "id": 6324383593, "lat": 41.9454037, "lon": -87.6641828, "tags": {"addr:city": "Chicago", "addr:housenumber": "3500", "addr:postcode": "60657", "addr:state": "IL", "addr:street": "North Southport Avenue", "amenity": "bar", "name": "Lange\u2019s Lounge", "phone": "+1-773-472-6030"}}, {"type": "node", "id": 6326075700, "lat": 41.942959, "lon": -87.6443966, "tags": {"addr:city": "Chicago", "addr:housenumber": "3343", "addr:postcode": "60657", "addr:state": "IL", "addr:street": "North Broadway", "amenity": "restaurant", "name": "Ms. T\u2019s Southern Fried Chicken", "phone": "+1-773-728-2500", "website": "http://mstssouthernfriedchicken.com/"}}, {"type": "node", "id": 6326154015, "lat": 41.9373423, "lon": -87.6447076, "tags": {"addr:city": "Chicago", "addr:housenumber": "3030", "addr:postcode": "60657", "addr:state": "IL", "addr:street": "North Broadway", "amenity": "bar", "name": "Nob\u2019s Wine Bar"}}, {"type": "node", "id": 6326466249, "lat": 41.9340181, "lon": -87.6610034, "tags": {"addr:city": "Chicago", "addr:housenumber": "2878", "addr:postcode": "60657", "addr:state": "IL", "addr:street": "North Lincoln Avenue", "amenity": "restaurant", "name": "Left Coast Food + Juice", "phone": "+1-773-880-5338", "website": "http://www.leftcoastfood.com/"}}, {"type": "node", "id": 6326496079, "lat": 41.9352165, "lon": -87.6627816, "tags": {"addr:city": "Chicago", "addr:housenumber": "2942", "addr:postcode": "60657", "addr:state": "IL", "addr:street": "North Lincoln Avenue", "amenity": "restaurant", "name": "Las Tablas Colombian Steakhouse", "phone": "+1-773-871-2414", "website": "http://www.lastablas.com/"}}, {"type": "node", "id": 6410371289, "lat": 41.9340863, "lon": -87.6462185, "tags": {"addr:city": "Chicago", "addr:housenumber": "2850", "addr:postcode": "60657", "addr:state": "IL", "addr:street": "North Clark Street", "amenity": "restaurant", "cuisine": "argentinian;empanada", "name": "5411 Empanadas - Lakeview", "phone": "+1-773-755-5411", "website": "http://www.5411empanadas.com"}}, {"type": "node", "id": 6680245859, "lat": 41.9449518, "lon": -87.6550537, "tags": {"addr:city": "Chicago", "addr:housenumber": "3458", "addr:postcode": "60657", "addr:state": "IL", "addr:street": "North Clark Street", "amenity": "restaurant", "cuisine": "pizza", "name": "Happy Camper - Wrigleyville", "phone": "+1-312-872-5959"}}, {"type": "node", "id": 6737957050, "lat": 41.9407147, "lon": -87.6442732, "tags": {"addr:city": "Chicago", "addr:housenumber": "3219", "addr:postcode": "60657", "addr:state": "IL", "addr:street": "North Broadway", "amenity": "restaurant", "cuisine": "sushi", "name": "Sushi + Rotary Sushi Bar"}}, {"type": "node", "id": 6742635969, "lat": 41.9446738, "lon": -87.6454546, "tags": {"addr:city": "Chicago", "addr:housenumber": "3443", "addr:postcode": "60657", "addr:state": "IL", "addr:street": "North Broadway", "amenity": "restaurant", "cuisine": "steak_house", "name": "Revoluci\u00f3n Steakhouse"}}, {"type": "node", "id": 6742635971, "lat": 41.9453023, "lon": -87.6458274, "tags": {"addr:city": "Chicago", "addr:housenumber": "3477", "addr:postcode": "60657", "addr:state": "IL", "addr:street": "North Broadway", "amenity": "restaurant", "cuisine": "pizza", "name": "Si-Pie Pizzeria"}}, {"type": "node", "id": 6744908257, "lat": 41.9401879, "lon": -87.6447197, "tags": {"addr:city": "Chicago", "addr:housenumber": "604", "addr:postcode": "60657", "addr:state": "IL", "addr:street": "West Belmont Avenue", "amenity": "restaurant", "cuisine": "noodle", "name": "Kameya Ramen & Sushi"}}, {"type": "node", "id": 6975177633, "lat": 41.9433498, "lon": -87.6495032, "tags": {"amenity": "bar", "name": "D.S. Tequila Company"}}, {"type": "node", "id": 6975184603, "lat": 41.9457115, "lon": -87.6496251, "tags": {"amenity": "restaurant", "name": "Forever Yogurt"}}, {"type": "node", "id": 6975184604, "lat": 41.9455848, "lon": -87.6492845, "tags": {"amenity": "bar", "name": "Little Jim's Tavern"}}, {"type": "node", "id": 6975184605, "lat": 41.9456597, "lon": -87.6492885, "tags": {"amenity": "bar", "name": "Big Jim's"}}, {"type": "node", "id": 6975184606, "lat": 41.9457415, "lon": -87.6491812, "tags": {"amenity": "restaurant", "name": "Taco and Burrito Palace"}}, {"type": "node", "id": 7237325570, "lat": 41.9435413, "lon": -87.6641016, "tags": {"amenity": "cafe", "brand": "Starbucks", "brand:wikidata": "Q37158", "brand:wikipedia": "en:Starbucks", "cuisine": "coffee_shop", "name": "Starbucks", "official_name": "Starbucks Coffee", "takeaway": "yes"}}, {"type": "node", "id": 7237325573, "lat": 41.9436911, "lon": -87.6544873, "tags": {"amenity": "restaurant", "name": "Penny\u2019s Noodle Shop"}}, {"type": "node", "id": 7277573845, "lat": 41.932665, "lon": -87.6450601, "tags": {"amenity": "cafe", "brand": "Starbucks", "brand:wikidata": "Q37158", "brand:wikipedia": "en:Starbucks", "cuisine": "coffee_shop", "name": "Starbucks", "official_name": "Starbucks Coffee", "takeaway": "yes"}}, {"type": "node", "id": 7330251139, "lat": 41.9393947, "lon": -87.6442304, "tags": {"addr:city": "Chicago", "addr:housenumber": "315", "addr:postcode": "60657", "addr:state": "IL", "addr:street": "North Broadway", "amenity": "restaurant", "cuisine": "pizza", "name": "Roebuck", "phone": "+1-773-857-2229", "website": "https://www.roebuckpizza.com/"}}, {"type": "node", "id": 7330265557, "lat": 41.9329015, "lon": -87.6472424, "tags": {"addr:city": "Chicago", "addr:housenumber": "714", "addr:postcode": "60614", "addr:state": "IL", "addr:street": "West Diversey Parkway", "amenity": "restaurant", "cuisine": "indian", "name": "Mild 2 Spicy", "phone": "+1-773-661-6778"}}, {"type": "node", "id": 7393995551, "lat": 41.9368071, "lon": -87.6475997, "tags": {"amenity": "restaurant", "brand": "Pizza Hut", "brand:wikidata": "Q191615", "brand:wikipedia": "en:Pizza Hut", "cuisine": "pizza", "name": "Pizza Hut"}}, {"type": "way", "id": 158622286, "nodes": [1707846189, 1707846196, 1707846198, 1707846206, 1707846207, 1707846203, 1707846189], "tags": {"addr:city": "Chicago", "addr:housenumber": "3664", "addr:postcode": "60613", "addr:state": "IL", "addr:street": "North Clark Street", "addr:street:name": "Clark", "addr:street:prefix": "North", "addr:street:type": "Street", "amenity": "bar", "building": "yes", "building:levels": "2", "chicago:building_id": "858483", "name": "Bernie's Tavern", "phone": "+1-773-525-1898", "website": "https://bernieschicago.com/"}}, {"type": "way", "id": 209884980, "nodes": [2200366030, 2200366395, 2200366402, 2200366044, 2200366030], "tags": {"addr:housenumber": "2814", "addr:street": "North Southport Avenue", "addr:street:name": "Southport", "addr:street:prefix": "North", "addr:street:type": "Avenue", "amenity": "restaurant", "building": "yes", "building:levels": "2", "chicago:building_id": "238031", "cuisine": "mexican", "name": "Que Rico"}}, {"type": "way", "id": 209885452, "nodes": [2200375176, 2200375272, 2200375475, 2200375703, 2200375720, 2200375269, 2200375268, 2200375257, 2200375246, 2200375224, 2200375192, 2200375169, 2200375151, 2200375152, 2200375170, 2200375165, 2200375143, 2200375144, 2200375167, 2200375154, 2200375179, 2200375176], "tags": {"addr:housenumber": "3000-3004", "addr:street": "North Lincoln Avenue", "addr:street:name": "Lincoln", "addr:street:prefix": "North", "addr:street:type": "Avenue", "amenity": "restaurant", "building": "yes", "building:levels": "3", "chicago:building_id": "853921", "cuisine": "american", "level": "0", "name": "S&G Restaurant"}}, {"type": "way", "id": 209885467, "nodes": [2200375720, 2200375703, 2200375475, 2200375272, 2200375176, 2200375147, 2200375315, 2200376304, 2200375720], "tags": {"addr:housenumber": "3008-3012", "addr:street": "North Lincoln Avenue", "addr:street:name": "Lincoln", "addr:street:prefix": "North", "addr:street:type": "Avenue", "amenity": "restaurant", "building": "yes", "building:levels": "2", "chicago:building_id": "882783"}}, {"type": "way", "id": 210322417, "nodes": [2204065252, 2204064432, 2204065117, 2204065833, 2204065661, 2204065636, 2204065568, 2204065625, 2204065252], "tags": {"addr:city": "Chicago", "addr:housenumber": "2747", "addr:postcode": "60614", "addr:state": "IL", "addr:street": "North Lincoln Avenue", "addr:street:name": "Lincoln", "addr:street:prefix": "North", "addr:street:type": "Avenue", "amenity": "bar", "building": "yes", "building:levels": "2", "chicago:building_id": "862997", "microbrewery": "yes", "name": "Burnt City Brewing", "opening_hours": "Mo-Th 17:00-23:00; Fr 17:00-02:00; Sa 12:00-02:00; Su 12:00-23:00", "phone": "+1-773-295-1270", "website": "https://burntcitybrewing.com"}}, {"type": "way", "id": 210322445, "nodes": [2204065299, 2204065421, 2204065782, 2204065675, 2204065617, 2204065575, 2204065299], "tags": {"addr:housenumber": "2751", "addr:street": "North Lincoln Avenue", "addr:street:name": "Lincoln", "addr:street:prefix": "North", "addr:street:type": "Avenue", "amenity": "bar", "building": "yes", "building:levels": "2", "chicago:building_id": "241545", "name": "Delilah's"}}, {"type": "way", "id": 210325183, "nodes": [2204095268, 2204095393, 2204095390, 2204095422, 2204095440, 2204095676, 2204095680, 2204095504, 2204095463, 2204095437, 2204095436, 2204095273, 2204095268], "tags": {"addr:city": "Chicago", "addr:housenumber": "1117", "addr:postcode": "60657", "addr:state": "IL", "addr:street": "West Belmont Avenue", "addr:street:name": "Belmont", "addr:street:prefix": "West", "addr:street:type": "Avenue", "alt_name": "Dark Matter Coffee", "amenity": "cafe", "building": "yes", "building:levels": "3", "chicago:building_id": "209518", "cuisine": "coffee_shop", "internet_access": "yes", "name": "Osmium Coffee", "opening_hours": "Mo-Su 06:00-21:00", "phone": "+1-773-360-7553", "website": "https://www.darkmattercoffee.com/"}}, {"type": "way", "id": 210325560, "nodes": [2204071505, 2204071494, 2204071515, 2204071519, 2204071681, 2204071685, 2204071737, 2204071732, 2204071865, 2204071867, 2204071893, 2204071900, 2204071872, 2204071875, 2204071910, 2204071908, 2204071907, 2204071505], "tags": {"addr:housenumber": "2808", "addr:street": "North Halsted Street", "addr:street:name": "Halsted", "addr:street:prefix": "North", "addr:street:type": "Street", "amenity": "restaurant", "building": "yes", "building:levels": "2", "chicago:building_id": "862810", "cuisine": "steak", "name": "Select Cut Steak House"}}, {"type": "way", "id": 210326253, "nodes": [2204091829, 2204091836, 2204092025, 2204092036, 2204091542, 2204091513, 2204091519, 2204091506, 2204091829], "tags": {"addr:city": "Chicago", "addr:housenumber": "3132", "addr:postcode": "60657", "addr:state": "IL", "addr:street": "North Broadway", "addr:street:name": "Broadway", "addr:street:prefix": "North", "amenity": "restaurant", "building": "yes", "building:levels": "2", "chicago:building_id": "848730", "name": "Kitchen 17", "phone": "+1-312-391-8654", "website": "https://www.kitchen17.com/"}}, {"type": "way", "id": 210329583, "nodes": [2204119458, 2204119738, 2204119487, 2204119217, 2204119458], "tags": {"addr:housenumber": "3461", "addr:street": "North Clark Street", "addr:street:name": "Clark", "addr:street:prefix": "North", "addr:street:type": "Street", "amenity": "restaurant", "building": "yes", "chicago:building_id": "882929", "cuisine": "middle_eastern", "name": "Zam Zam", "website": "http://www.zamzammiddleeasterngrillil.com/"}}, {"type": "way", "id": 210329586, "nodes": [2204119738, 2204119458, 2204119688, 2204120016, 2204119738], "tags": {"addr:housenumber": "3463", "addr:street": "North Clark Street", "addr:street:name": "Clark", "addr:street:prefix": "North", "addr:street:type": "Street", "amenity": "restaurant", "building": "yes", "chicago:building_id": "882930", "cuisine": "pizza", "name": "Dimo's", "website": "https://dimospizza.com/"}}]}