{"version": 0.6, "generator": "Overpass API 0.7.56.1004 6cd3eaec", "osm3s": {"timestamp_osm_base": "2020-07-22T01:57:04Z", "copyright": "The data included in this document is from www.openstreetmap.org. The data is made available under ODbL."}, "elements": [{"type": "node", "id": 256618510, "lat": 41.8658835, "lon": -87.6451248}, {"type": "node", "id": 258030969, "lat": 41.8692737, "lon": -87.6454545}, {"type": "node", "id": 258030970, "lat": 41.8688302, "lon": -87.6454313}, {"type": "node", "id": 258030971, "lat": 41.8680786, "lon": -87.6453001}, {"type": "node", "id": 258030972, "lat": 41.8677305, "lon": -87.6452849}, {"type": "node", "id": 354268767, "lat": 41.8679269, "lon": -87.680254}, {"type": "node", "id": 624842100, "lat": 41.8661261, "lon": -87.6509285}, {"type": "node", "id": 624842102, "lat": 41.8647519, "lon": -87.6508749}, {"type": "node", "id": 624842113, "lat": 41.8634175, "lon": -87.6508481}, {"type": "node", "id": 624842116, "lat": 41.8623697, "lon": -87.65081}, {"type": "node", "id": 624842118, "lat": 41.8624081, "lon": -87.647875}, {"type": "node", "id": 1308245862, "lat": 41.8730195, "lon": -87.6566515}, {"type": "node", "id": 1309310753, "lat": 41.8705582, "lon": -87.6510938}, {"type": "node", "id": 1309310769, "lat": 41.8728194, "lon": -87.6512488}, {"type": "node", "id": 1309310772, "lat": 41.8728556, "lon": -87.6512875}, {"type": "node", "id": 1309310781, "lat": 41.8728544, "lon": -87.6513238}, {"type": "node", "id": 1309310786, "lat": 41.8718736, "lon": -87.6511361}, {"type": "node", "id": 1309310791, "lat": 41.8729799, "lon": -87.6515273}, {"type": "node", "id": 1309310795, "lat": 41.8711509, "lon": -87.6511104}, {"type": "node", "id": 1309310830, "lat": 41.872569, "lon": -87.6511511}, {"type": "node", "id": 1309310834, "lat": 41.8728564, "lon": -87.6513962}, {"type": "node", "id": 1309521523, "lat": 41.8697849, "lon": -87.6511257}, {"type": "node", "id": 1309521528, "lat": 41.8700144, "lon": -87.6510741}, {"type": "node", "id": 1309521533, "lat": 41.869876, "lon": -87.6510868}, {"type": "node", "id": 1324310267, "lat": 41.8672329, "lon": -87.6509271}, {"type": "node", "id": 1324339868, "lat": 41.8695079, "lon": -87.6511376, "tags": {"highway": "traffic_signals"}}, {"type": "node", "id": 1563768183, "lat": 41.8677741, "lon": -87.6525895}, {"type": "node", "id": 1563768280, "lat": 41.8682055, "lon": -87.6522318}, {"type": "node", "id": 1564610532, "lat": 41.8671888, "lon": -87.6529727}, {"type": "node", "id": 1564610597, "lat": 41.8673195, "lon": -87.6529751}, {"type": "node", "id": 1567935379, "lat": 41.8691481, "lon": -87.6515497}, {"type": "node", "id": 1567935392, "lat": 41.868256, "lon": -87.6522619}, {"type": "node", "id": 1567935428, "lat": 41.8685971, "lon": -87.6519722}, {"type": "node", "id": 1567935437, "lat": 41.8685197, "lon": -87.6520566}, {"type": "node", "id": 1567935483, "lat": 41.8682319, "lon": -87.6522096}, {"type": "node", "id": 1567935487, "lat": 41.8672769, "lon": -87.6529743}, {"type": "node", "id": 1567935598, "lat": 41.8686145, "lon": -87.6520056}, {"type": "node", "id": 1567935611, "lat": 41.8692679, "lon": -87.6514462}, {"type": "node", "id": 1567935613, "lat": 41.8684628, "lon": -87.6520559}, {"type": "node", "id": 1628212985, "lat": 41.8693771, "lon": -87.6540842}, {"type": "node", "id": 1628212990, "lat": 41.8692626, "lon": -87.6539179}, {"type": "node", "id": 1628212995, "lat": 41.8693787, "lon": -87.6539199}, {"type": "node", "id": 1628213035, "lat": 41.8692358, "lon": -87.6539668}, {"type": "node", "id": 1628213062, "lat": 41.8692621, "lon": -87.6539673}, {"type": "node", "id": 1628213064, "lat": 41.8692347, "lon": -87.6540817}, {"type": "node", "id": 1640078305, "lat": 41.8750617, "lon": -87.6477795}, {"type": "node", "id": 1640078309, "lat": 41.8746412, "lon": -87.6472987}, {"type": "node", "id": 1640078310, "lat": 41.8751704, "lon": -87.6489907}, {"type": "node", "id": 1640078313, "lat": 41.8746225, "lon": -87.6472615}, {"type": "node", "id": 1640078314, "lat": 41.8751984, "lon": -87.6497309}, {"type": "node", "id": 1640078316, "lat": 41.8751894, "lon": -87.6494084}, {"type": "node", "id": 1640078325, "lat": 41.8751284, "lon": -87.6485017}, {"type": "node", "id": 1640078326, "lat": 41.8751833, "lon": -87.6492436}, {"type": "node", "id": 1643970052, "lat": 41.8736833, "lon": -87.64619}, {"type": "node", "id": 1643970061, "lat": 41.8695057, "lon": -87.6512623}, {"type": "node", "id": 1643970072, "lat": 41.8734125, "lon": -87.6461313}, {"type": "node", "id": 1643970081, "lat": 41.8739152, "lon": -87.6462705}, {"type": "node", "id": 1645121278, "lat": 41.8726271, "lon": -87.6511611}, {"type": "node", "id": 1645121392, "lat": 41.8728385, "lon": -87.6512586}, {"type": "node", "id": 1645121508, "lat": 41.8726879, "lon": -87.6511848}, {"type": "node", "id": 1645121523, "lat": 41.8730367, "lon": -87.6515997}, {"type": "node", "id": 1645164035, "lat": 41.8726081, "lon": -87.6458381}, {"type": "node", "id": 1645208835, "lat": 41.8720548, "lon": -87.65114}, {"type": "node", "id": 1655435354, "lat": 41.8670032, "lon": -87.6451676}, {"type": "node", "id": 1655435355, "lat": 41.8673, "lon": -87.6452802}, {"type": "node", "id": 1655435357, "lat": 41.8670723, "lon": -87.6452268}, {"type": "node", "id": 1655435361, "lat": 41.8682982, "lon": -87.6453494}, {"type": "node", "id": 1655435366, "lat": 41.8695302, "lon": -87.6454595}, {"type": "node", "id": 1846853872, "lat": 41.8731599, "lon": -87.6460597}, {"type": "node", "id": 1846853875, "lat": 41.8742112, "lon": -87.646933}, {"type": "node", "id": 1846853878, "lat": 41.8742224, "lon": -87.6472729}, {"type": "node", "id": 2199815847, "lat": 41.8689029, "lon": -87.6652964}, {"type": "node", "id": 2199815851, "lat": 41.8689043, "lon": -87.665198}, {"type": "node", "id": 2199815900, "lat": 41.8689486, "lon": -87.6656487}, {"type": "node", "id": 2199815903, "lat": 41.8689512, "lon": -87.6652984}, {"type": "node", "id": 2199815904, "lat": 41.8689513, "lon": -87.6626212}, {"type": "node", "id": 2199815908, "lat": 41.8689522, "lon": -87.6625349}, {"type": "node", "id": 2199815975, "lat": 41.8690326, "lon": -87.6636227}, {"type": "node", "id": 2199815976, "lat": 41.8690357, "lon": -87.6634409}, {"type": "node", "id": 2199815982, "lat": 41.8690651, "lon": -87.6626053}, {"type": "node", "id": 2199815983, "lat": 41.8690652, "lon": -87.6626237}, {"type": "node", "id": 2199815992, "lat": 41.8690843, "lon": -87.6626051}, {"type": "node", "id": 2199815993, "lat": 41.8690844, "lon": -87.6626308}, {"type": "node", "id": 2199816015, "lat": 41.8691298, "lon": -87.6656531}, {"type": "node", "id": 2199816017, "lat": 41.8691305, "lon": -87.6656446}, {"type": "node", "id": 2199816026, "lat": 41.8691352, "lon": -87.662623}, {"type": "node", "id": 2199816027, "lat": 41.8691352, "lon": -87.6626321}, {"type": "node", "id": 2199816040, "lat": 41.8691451, "lon": -87.6656434}, {"type": "node", "id": 2199816047, "lat": 41.8691517, "lon": -87.6655104}, {"type": "node", "id": 2199816055, "lat": 41.8691552, "lon": -87.6656418}, {"type": "node", "id": 2199816058, "lat": 41.8691558, "lon": -87.6653194}, {"type": "node", "id": 2199816063, "lat": 41.8691572, "lon": -87.6626356}, {"type": "node", "id": 2199816065, "lat": 41.8691585, "lon": -87.6626227}, {"type": "node", "id": 2199816069, "lat": 41.8691589, "lon": -87.6655177}, {"type": "node", "id": 2199816075, "lat": 41.8691631, "lon": -87.6656358}, {"type": "node", "id": 2199816078, "lat": 41.8691672, "lon": -87.6655249}, {"type": "node", "id": 2199816083, "lat": 41.8691713, "lon": -87.6656284}, {"type": "node", "id": 2199816084, "lat": 41.8691719, "lon": -87.6655297}, {"type": "node", "id": 2199816085, "lat": 41.8691744, "lon": -87.6655381}, {"type": "node", "id": 2199816086, "lat": 41.869176, "lon": -87.665621}, {"type": "node", "id": 2199816089, "lat": 41.8691791, "lon": -87.6655454}, {"type": "node", "id": 2199816090, "lat": 41.8691803, "lon": -87.6656125}, {"type": "node", "id": 2199816091, "lat": 41.8691819, "lon": -87.6655552}, {"type": "node", "id": 2199816092, "lat": 41.8691839, "lon": -87.6655648}, {"type": "node", "id": 2199816093, "lat": 41.8691841, "lon": -87.6656052}, {"type": "node", "id": 2199816094, "lat": 41.8691847, "lon": -87.6655736}, {"type": "node", "id": 2199816095, "lat": 41.8691849, "lon": -87.6655941}, {"type": "node", "id": 2199816096, "lat": 41.8691856, "lon": -87.6655805}, {"type": "node", "id": 2199816098, "lat": 41.8691868, "lon": -87.6653191}, {"type": "node", "id": 2199816100, "lat": 41.8691873, "lon": -87.6652119}, {"type": "node", "id": 2199816125, "lat": 41.8692152, "lon": -87.6636295}, {"type": "node", "id": 2199816128, "lat": 41.8692169, "lon": -87.6634475}, {"type": "node", "id": 2199816144, "lat": 41.8692299, "lon": -87.6626367}, {"type": "node", "id": 2199816150, "lat": 41.8692321, "lon": -87.6625412}, {"type": "node", "id": 2199816307, "lat": 41.8694081, "lon": -87.6630791}, {"type": "node", "id": 2199816310, "lat": 41.869409, "lon": -87.6629873}, {"type": "node", "id": 2199816313, "lat": 41.8694129, "lon": -87.6634296}, {"type": "node", "id": 2199816329, "lat": 41.8694183, "lon": -87.6631799}, {"type": "node", "id": 2199816610, "lat": 41.8696037, "lon": -87.6634368}, {"type": "node", "id": 2199816643, "lat": 41.8696077, "lon": -87.6631871}, {"type": "node", "id": 2199816657, "lat": 41.8696137, "lon": -87.6630347}, {"type": "node", "id": 2199816661, "lat": 41.869614, "lon": -87.6630842}, {"type": "node", "id": 2199816710, "lat": 41.8696368, "lon": -87.6629922}, {"type": "node", "id": 2199816712, "lat": 41.869637, "lon": -87.6630344}, {"type": "node", "id": 2200380931, "lat": 41.8714182, "lon": -87.6759677}, {"type": "node", "id": 2200380932, "lat": 41.867773, "lon": -87.6736339}, {"type": "node", "id": 2200380941, "lat": 41.8659414, "lon": -87.6729741}, {"type": "node", "id": 2200380949, "lat": 41.8683982, "lon": -87.6701205}, {"type": "node", "id": 2200380953, "lat": 41.8714981, "lon": -87.6714026}, {"type": "node", "id": 2200380956, "lat": 41.8676452, "lon": -87.6714453}, {"type": "node", "id": 2200380958, "lat": 41.8659819, "lon": -87.6702726}, {"type": "node", "id": 2200380963, "lat": 41.8715141, "lon": -87.6702975}, {"type": "node", "id": 2200380970, "lat": 41.8669681, "lon": -87.6695519}, {"type": "node", "id": 2200380989, "lat": 41.8669599, "lon": -87.6687265}, {"type": "node", "id": 2200380994, "lat": 41.8725103, "lon": -87.6707177}, {"type": "node", "id": 2200380995, "lat": 41.8666884, "lon": -87.6729976}, {"type": "node", "id": 2200381003, "lat": 41.8650845, "lon": -87.6694765}, {"type": "node", "id": 2200381004, "lat": 41.8676153, "lon": -87.6736235}, {"type": "node", "id": 2200381006, "lat": 41.867847, "lon": -87.6665964}, {"type": "node", "id": 2200381008, "lat": 41.871582, "lon": -87.6666929}, {"type": "node", "id": 2200381017, "lat": 41.8677391, "lon": -87.6761126}, {"type": "node", "id": 2200381020, "lat": 41.8669401, "lon": -87.6671862}, {"type": "node", "id": 2200381022, "lat": 41.8690733, "lon": -87.6759087}, {"type": "node", "id": 2200381031, "lat": 41.8683703, "lon": -87.671467}, {"type": "node", "id": 2200381045, "lat": 41.867841, "lon": -87.667202}, {"type": "node", "id": 2200381061, "lat": 41.8679892, "lon": -87.6761142}, {"type": "node", "id": 2200381064, "lat": 41.8667244, "lon": -87.6700722}, {"type": "node", "id": 2200381068, "lat": 41.8689974, "lon": -87.68027}, {"type": "node", "id": 2200381071, "lat": 41.8669361, "lon": -87.6673578}, {"type": "node", "id": 2200381078, "lat": 41.8727843, "lon": -87.6703405}, {"type": "node", "id": 2200381080, "lat": 41.8728263, "lon": -87.6704206}, {"type": "node", "id": 2200633104, "lat": 41.8724946, "lon": -87.6714394}, {"type": "node", "id": 2200633113, "lat": 41.8728197, "lon": -87.6707318}, {"type": "node", "id": 2207261995, "lat": 41.8753129, "lon": -87.654403}, {"type": "node", "id": 2207262066, "lat": 41.8638442, "lon": -87.6469008}, {"type": "node", "id": 2207262112, "lat": 41.8751211, "lon": -87.6542903}, {"type": "node", "id": 2207262133, "lat": 41.8638244, "lon": -87.6479273}, {"type": "node", "id": 2207262135, "lat": 41.8743682, "lon": -87.656704}, {"type": "node", "id": 2207262136, "lat": 41.8743143, "lon": -87.6596974}, {"type": "node", "id": 2207262137, "lat": 41.8641937, "lon": -87.6469062}, {"type": "node", "id": 2207262178, "lat": 41.8751451, "lon": -87.65436}, {"type": "node", "id": 2207262255, "lat": 41.875225, "lon": -87.6597456}, {"type": "node", "id": 2207262259, "lat": 41.875189, "lon": -87.6543922}, {"type": "node", "id": 2242858400, "lat": 41.8642252, "lon": -87.6450831}, {"type": "node", "id": 2242858434, "lat": 41.8642071, "lon": -87.6461313}, {"type": "node", "id": 2397026625, "lat": 41.8699282, "lon": -87.6454906}, {"type": "node", "id": 2412572912, "lat": 41.8730968, "lon": -87.6519023}, {"type": "node", "id": 2412572932, "lat": 41.8730627, "lon": -87.6517502}, {"type": "node", "id": 2468069259, "lat": 41.871623, "lon": -87.6703012}, {"type": "node", "id": 3264147413, "lat": 41.8650703, "lon": -87.6702447}, {"type": "node", "id": 4020035696, "lat": 41.8695386, "lon": -87.6556047, "tags": {"addr:city": "Chicago", "addr:country": "US", "addr:housenumber": "1132", "addr:postcode": "60607", "addr:state": "IL", "addr:street": "West Taylor Street", "amenity": "restaurant", "cuisine": "pizza", "name": "Big G's Pizza"}}, {"type": "node", "id": 4226924443, "lat": 41.869633, "lon": -87.6511322}, {"type": "node", "id": 4399371091, "lat": 41.8733907, "lon": -87.6571298, "tags": {"addr:city": "Chicago", "addr:housenumber": "626", "addr:postcode": "60607", "addr:state": "IL", "addr:street": "South Racine Avenue", "amenity": "restaurant", "cuisine": "cantonese;chinese", "delivery": "yes", "name": "Jade Court Chinese Cuisine", "phone": "+1-312-929-4828", "takeaway": "yes", "website": "https://jadecourtchinesetogo.com"}}, {"type": "node", "id": 4399383916, "lat": 41.8728335, "lon": -87.654064, "tags": {"addr:city": "Chicago", "addr:housenumber": "1073", "addr:postcode": "60607", "addr:state": "IL", "addr:street": "West Vernon Park Place", "amenity": "restaurant", "cuisine": "italian", "name": "Tufano's Vernon Park Tap", "phone": "+1-312-733-3393", "website": "https://sites.google.com/site/tufanosrestaurant/"}}, {"type": "node", "id": 5632900492, "lat": 41.8751653, "lon": -87.6519389}, {"type": "node", "id": 5632900499, "lat": 41.8752939, "lon": -87.6555594}, {"type": "node", "id": 5632908777, "lat": 41.8699299, "lon": -87.6510819}, {"type": "node", "id": 5926633071, "lat": 41.8669451, "lon": -87.667873}, {"type": "node", "id": 5926633072, "lat": 41.8669575, "lon": -87.6685864}, {"type": "node", "id": 5967997150, "lat": 41.8695373, "lon": -87.656317, "tags": {"addr:city": "Chicago", "addr:housenumber": "1152", "addr:postcode": "60607", "addr:state": "IL", "addr:street": "West Taylor Street", "amenity": "cafe", "cuisine": "coffee_shop", "name": "The Coffee Alley", "phone": "+1-312-374-4976", "website": "http://www.thecoffeealley.com/"}}, {"type": "node", "id": 6280752720, "lat": 41.8692432, "lon": -87.6550838, "tags": {"addr:city": "Chicago", "addr:housenumber": "1119", "addr:postcode": "60607", "addr:state": "IL", "addr:street": "West Taylor Street", "amenity": "restaurant", "name": "Chez Joel Bistro", "phone": "+1-815-768-3324", "website": "http://chezjoelbistro.com/"}}, {"type": "node", "id": 6284376630, "lat": 41.8697206, "lon": -87.6536411, "tags": {"addr:city": "Chicago", "addr:housenumber": "1066", "addr:postcode": "60607", "addr:state": "IL", "addr:street": "West Taylor Street", "amenity": "cafe", "cuisine": "coffee_shop", "name": "Demitasse Coffee", "phone": "+1-312-226-7666"}}, {"type": "node", "id": 6291479444, "lat": 41.8695821, "lon": -87.6618397, "tags": {"addr:city": "Chicago", "addr:housenumber": "1400", "addr:postcode": "60607", "addr:state": "IL", "addr:street": "West Taylor Street", "amenity": "restaurant", "name": "Francesca\u2019s On Taylor", "phone": "+1-312-829-2828", "website": "https://www.miafrancesca.com/"}}, {"type": "node", "id": 6294257885, "lat": 41.8694876, "lon": -87.6639325, "tags": {"addr:city": "Chicago", "addr:housenumber": "1458", "addr:postcode": "60607", "addr:state": "IL", "addr:street": "West Taylor Street", "amenity": "bar", "name": "Hawkeye\u2019s Bar & Grill", "phone": "+1-312-226-3951", "website": "http://www.hawkeyesbar.com/"}}, {"type": "node", "id": 6297635374, "lat": 41.8691919, "lon": -87.660678, "tags": {"addr:city": "Chicago", "addr:housenumber": "1337", "addr:postcode": "60607", "addr:state": "IL", "addr:street": "West Taylor Street", "amenity": "cafe", "name": "Scafuri Bakery", "phone": "+1-312-733-8881", "website": "https://scafuribakery.com/"}}, {"type": "node", "id": 6298815993, "lat": 41.8695691, "lon": -87.65731, "tags": {"addr:city": "Chicago", "addr:housenumber": "1214", "addr:postcode": "60607", "addr:state": "IL", "addr:street": "West Taylor Street", "amenity": "cafe", "name": "Skinny Piggy Bakery", "phone": "+1-312-929-2087", "website": "http://www.skinnypiggy.com/"}}, {"type": "node", "id": 6300477487, "lat": 41.8691156, "lon": -87.6655365, "tags": {"addr:city": "Chicago", "addr:housenumber": "1531", "addr:postcode": "60607", "addr:state": "IL", "addr:street": "West Taylor Street", "amenity": "restaurant", "name": "Pompei", "phone": "+1-312-421-5179"}}, {"type": "node", "id": 6300506122, "lat": 41.869095, "lon": -87.6624694, "tags": {"addr:city": "Chicago", "addr:housenumber": "1419", "addr:postcode": "60607", "addr:state": "IL", "addr:street": "West Taylor Street", "amenity": "restaurant", "name": "Porto\u2019s Peri Peri", "phone": "+1-312-374-1912", "website": "http://www.portos-periperi.com/uic/"}}, {"type": "node", "id": 6300959267, "lat": 41.8695537, "lon": -87.6643441, "tags": {"addr:city": "Chicago", "addr:housenumber": "1500", "addr:postcode": "60607", "addr:state": "IL", "addr:street": "West Taylor Street", "amenity": "restaurant", "name": "The Rosebud", "phone": "+1-312-942-1117", "website": "http://www.rosebudrestaurants.com/"}}, {"type": "node", "id": 6301018501, "lat": 41.87375, "lon": -87.666102, "tags": {"addr:city": "Chicago", "addr:housenumber": "625", "addr:postcode": "60607", "addr:state": "IL", "addr:street": "South Ashland Avenue", "amenity": "bar", "name": "Rooks Corner", "phone": "+1-312-529-6050", "website": "https://www.marriott.com/hotels/travel/chidm-chicago-marriott-at-medical-district-uic/"}}, {"type": "node", "id": 6303861988, "lat": 41.8694771, "lon": -87.6614797, "tags": {"addr:city": "Chicago", "addr:housenumber": "1358", "addr:postcode": "60607", "addr:state": "IL", "addr:street": "West Taylor Street", "amenity": "bar", "name": "Taylor Street Tap", "phone": "+1-312-455-8255", "website": "https://www.taylorstreettap.com/"}}, {"type": "node", "id": 6306885488, "lat": 41.8697198, "lon": -87.6518377, "tags": {"addr:city": "Chicago", "addr:housenumber": "1014", "addr:postcode": "60607", "addr:state": "IL", "addr:street": "West Taylor Street", "amenity": "restaurant", "name": "Tuscany", "phone": "+1-312-829-1990", "website": "https://www.tuscanychicago.com/location/chicago/"}}, {"type": "node", "id": 6307102401, "lat": 41.8693261, "lon": -87.6705283, "tags": {"addr:city": "Chicago", "addr:housenumber": "1740", "addr:postcode": "60612", "addr:state": "IL", "addr:street": "West Taylor Street", "amenity": "cafe", "name": "University Of Illinois Hospital Cafeteria And Coffee Shop", "phone": "+1-866-600-2273", "website": "https://hospital.uillinois.edu/patients-and-visitors/visiting-a-patient/dining"}}, {"type": "node", "id": 6315672750, "lat": 41.8795977, "lon": -87.6679468, "tags": {"addr:city": "Chicago", "addr:housenumber": "1659", "addr:postcode": "60612", "addr:state": "IL", "addr:street": "West Ogden Avenue", "amenity": "restaurant", "name": "The Ogden", "phone": "+1-312-226-1888", "website": "https://theogdenchicago.com/"}}, {"type": "node", "id": 6316948064, "lat": 41.8770334, "lon": -87.6572288, "tags": {"addr:city": "Chicago", "addr:housenumber": "324", "addr:postcode": "60607", "addr:state": "IL", "addr:street": "South Racine Avenue", "amenity": "bar", "name": "Wise Owl Drinkery & Cookhouse", "phone": "+1-312-374-8915", "website": "https://www.wiseowlchicago.com/"}}, {"type": "node", "id": 6318298370, "lat": 41.8728124, "lon": -87.6703096, "tags": {"addr:city": "Chicago", "addr:housenumber": "700", "addr:postcode": "60612", "addr:state": "IL", "addr:street": "South Hermitage Avenue", "amenity": "cafe", "name": "Leaf and Bean Cafe"}}, {"type": "node", "id": 6319870488, "lat": 41.8695041, "lon": -87.6627051, "tags": {"addr:city": "Chicago", "addr:housenumber": "1424", "addr:postcode": "60607", "addr:state": "IL", "addr:street": "West Taylor Street", "amenity": "cafe", "name": "L\u2019Ours Bakery Cafe", "phone": "+1-312-265-0958", "website": "https://www.loursbakerycafe.com/"}}, {"type": "node", "id": 6320224199, "lat": 41.8737157, "lon": -87.6510059, "tags": {"addr:city": "Chicago", "addr:housenumber": "601", "addr:postcode": "60607", "addr:state": "IL", "addr:street": "South Morgan Street", "amenity": "cafe", "name": "Port Center Cafe", "phone": "+1-312-355-3376", "website": "http://portcentercafe.com/"}}, {"type": "node", "id": 6320542346, "lat": 41.8693073, "lon": -87.6527732, "tags": {"addr:city": "Chicago", "addr:housenumber": "1041", "addr:postcode": "60607", "addr:state": "IL", "addr:street": "West Taylor Street", "amenity": "bar", "name": "Little Joe\u2019s Circle Lounge", "phone": "+1-312-243-4233"}}, {"type": "node", "id": 6320625801, "lat": 41.8711143, "lon": -87.6743989, "tags": {"addr:city": "Chicago", "addr:housenumber": "818", "addr:postcode": "60612", "addr:state": "IL", "addr:street": "South Wolcott Avenue", "amenity": "restaurant", "name": "Lotus Banh Mi", "phone": "+1-312-733-7595", "website": "http://www.lotusbanhmi.com/"}}, {"type": "node", "id": 6322833589, "lat": 41.8796473, "lon": -87.6516586, "tags": {"addr:city": "Chicago", "addr:housenumber": "111", "addr:postcode": "60607", "addr:state": "IL", "addr:street": "South Morgan Street", "amenity": "cafe", "name": "Morgan Street Cafe", "phone": "+1-312-850-0234", "website": "http://www.morganstreetcafe.com/"}}, {"type": "node", "id": 6322914880, "lat": 41.8692323, "lon": -87.6588129, "tags": {"addr:city": "Chicago", "addr:housenumber": "1251", "addr:postcode": "60607", "addr:state": "IL", "addr:street": "West Taylor Street", "amenity": "bar", "name": "The Bar 10 Doors", "phone": "+1-312-226-1611", "website": "http://thebar10doors.com/"}}, {"type": "node", "id": 6366358671, "lat": 41.8741382, "lon": -87.6463662}, {"type": "node", "id": 6366358672, "lat": 41.8742256, "lon": -87.6464115}, {"type": "node", "id": 6366358673, "lat": 41.8742109, "lon": -87.6467369}, {"type": "node", "id": 6779167975, "lat": 41.8749225, "lon": -87.6472949}, {"type": "node", "id": 6842452392, "lat": 41.8692403, "lon": -87.660222, "tags": {"addr:housenumber": "1323", "addr:street": "West Taylor Street", "amenity": "cafe", "name": "Relo's"}}, {"type": "node", "id": 6842452393, "lat": 41.8692314, "lon": -87.661492, "tags": {"amenity": "restaurant"}}, {"type": "node", "id": 6883621708, "lat": 41.8703585, "lon": -87.675941}, {"type": "node", "id": 6883621709, "lat": 41.8701725, "lon": -87.6759364}, {"type": "node", "id": 7282826587, "lat": 41.8751891, "lon": -87.6495149}, {"type": "node", "id": 7282892857, "lat": 41.8751919, "lon": -87.6496031}, {"type": "node", "id": 7509422947, "lat": 41.8753099, "lon": -87.6545869}, {"type": "node", "id": 7511858556, "lat": 41.8641966, "lon": -87.6467374}, {"type": "node", "id": 7511858557, "lat": 41.86477, "lon": -87.6450968}, {"type": "node", "id": 7546476886, "lat": 41.8695541, "lon": -87.6624307, "tags": {"addr:postcode": "60607", "amenity": "restaurant", "name": "Yummy Thai"}}, {"type": "node", "id": 7546476887, "lat": 41.8695471, "lon": -87.6626043, "tags": {"addr:postcode": "60607", "amenity": "restaurant", "name": "Kimura Japanese Cuisine"}}, {"type": "node", "id": 7546490785, "lat": 41.8694798, "lon": -87.664718, "tags": {"addr:city": "Chicago", "addr:postcode": "60607", "addr:state": "IL", "addr:street": "West Taylor Street", "amenity": "restaurant", "name": "Lucky's Cafe"}}, {"type": "node", "id": 7550195385, "lat": 41.8691273, "lon": -87.6634026, "tags": {"addr:postcode": "60607", "amenity": "restaurant", "name": "Couscous Mediterranean Cuisine"}}, {"type": "node", "id": 7550195485, "lat": 41.8691471, "lon": -87.6636621, "tags": {"addr:postcode": "60607", "amenity": "cafe", "name": "Living Water Tea House"}}, {"type": "node", "id": 7554540187, "lat": 41.8691709, "lon": -87.6607411, "tags": {"addr:housenumber": "1339", "addr:postcode": "60607", "amenity": "restaurant", "name": "Sweet Maple Cafe"}}, {"type": "node", "id": 7554554285, "lat": 41.8691547, "lon": -87.6597341, "tags": {"addr:postcode": "60607", "amenity": "restaurant", "name": "Hana"}}, {"type": "node", "id": 7615474068, "lat": 41.8750061, "lon": -87.647513}, {"type": "way", "id": 149877831, "nodes": [1628213064, 1628212985, 1628212995, 1628212990, 1628213062, 1628213035, 1628213064], "tags": {"addr:housenumber": "1079", "addr:postcode": "60607", "addr:street": "West Taylor Street", "addr:street:name": "Taylor", "addr:street:prefix": "West", "addr:street:type": "Street", "amenity": "restaurant", "building": "retail", "building:levels": "1", "chicago:building_id": "370088", "cuisine": "sandwich", "name": "Al's #1 Italian Beef", "opening_hours": "Mo-Th 09:00-23:00; Fr 09:00-00:00; Sa 09:00-00:00", "phone": "(312) 226-4017", "website": "https://www.alsbeef.com/illinois.html"}}, {"type": "way", "id": 209809897, "nodes": [2199815904, 2199815983, 2199815982, 2199815992, 2199815993, 2199816027, 2199816026, 2199816065, 2199816063, 2199816144, 2199816150, 2199815908, 2199815904], "tags": {"addr:city": "Chicago", "addr:housenumber": "1421", "addr:postcode": "60608", "addr:state": "IL", "addr:street": "West Taylor Street", "addr:street:name": "Taylor", "addr:street:prefix": "West", "addr:street:type": "Street", "amenity": "bar", "building": "yes", "building:levels": "3", "chicago:building_id": "370301"}}, {"type": "way", "id": 209809948, "nodes": [2199816307, 2199816661, 2199816657, 2199816712, 2199816710, 2199816310, 2199816307], "tags": {"addr:housenumber": "1434", "addr:street": "West Taylor Street", "addr:street:name": "Taylor", "addr:street:prefix": "West", "addr:street:type": "Street", "amenity": "cafe", "brand": "Starbucks", "brand:wikidata": "Q37158", "brand:wikipedia": "en:Starbucks", "building": "yes", "building:levels": "2", "chicago:building_id": "369913", "cuisine": "coffee_shop", "name": "Starbucks", "official_name": "Starbucks Coffee", "takeaway": "yes"}}, {"type": "way", "id": 209809972, "nodes": [2199816313, 2199816610, 2199816643, 2199816329, 2199816313], "tags": {"addr:city": "Chicago", "addr:housenumber": "1438-1444", "addr:postcode": "60607", "addr:state": "IL", "addr:street": "West Taylor Street", "addr:street:name": "Taylor", "addr:street:prefix": "West", "addr:street:type": "Street", "amenity": "restaurant", "building": "yes", "chicago:building_id": "369931", "cuisine": "italian", "name": "Conte Di Savolia", "phone": "+1-312-666-3471", "website": "http://www.contedisavoia.com/"}}, {"type": "way", "id": 209810018, "nodes": [2199815976, 2199815975, 2199816125, 2199816128, 2199815976], "tags": {"addr:city": "Chicago", "addr:housenumber": "1449", "addr:postcode": "60607", "addr:state": "IL", "addr:street": "West Taylor Street", "addr:street:name": "Taylor", "addr:street:prefix": "West", "addr:street:type": "Street", "amenity": "bar", "building": "yes", "building:levels": "3", "chicago:building_id": "876941", "name": "Vintage Bar", "phone": "+1-312-526-3647", "website": "https://www.vintageontaylor.com/"}}, {"type": "way", "id": 209810155, "nodes": [2199816100, 2199815851, 2199815847, 2199815903, 2199815900, 2199816015, 2199816017, 2199816040, 2199816055, 2199816075, 2199816083, 2199816086, 2199816090, 2199816093, 2199816095, 2199816096, 2199816094, 2199816092, 2199816091, 2199816089, 2199816085, 2199816084, 2199816078, 2199816069, 2199816047, 2199816058, 2199816098, 2199816100], "tags": {"addr:city": "Chicago", "addr:housenumber": "1529", "addr:street": "West Taylor Street", "addr:street:name": "Taylor", "addr:street:prefix": "West", "addr:street:type": "Street", "amenity": "restaurant", "building": "yes", "chicago:building_id": "859392", "name": "Pompeii", "wheelchair": "yes"}}, {"type": "way", "id": 209879618, "nodes": [354268767, 2200381068, 2200381022, 6883621709, 6883621708, 2200380931, 2200380953, 2200633104, 2200380994, 2200633113, 2200381080, 2200381078, 2468069259, 2200380963, 2200381008, 2200381006, 2200381045, 2200381020, 2200381071, 5926633071, 5926633072, 2200380989, 2200380970, 2200381003, 3264147413, 2200380958, 2200380941, 2200380995, 2200381064, 2200380949, 2200381031, 2200380956, 2200381004, 2200380932, 2200381017, 2200381061, 354268767], "tags": {"amenity": "university", "ele": "181", "gnis:county_id": "031", "gnis:created": "05/03/1999", "gnis:feature_id": "1837072", "gnis:state_id": "17", "name": "University of Illinois at Chicago West Campus"}}, {"type": "way", "id": 210649421, "nodes": [624842102, 624842100, 1324310267, 1564610532, 1567935487, 1564610597, 1563768183, 1563768280, 1567935483, 1567935392, 1567935613, 1567935437, 1567935428, 1567935598, 1567935379, 1567935611, 1643970061, 1324339868, 4226924443, 1309521523, 1309521533, 5632908777, 1309521528, 1309310753, 1309310795, 1309310786, 1645208835, 1309310830, 1645121278, 1645121508, 1309310769, 1645121392, 1309310772, 1309310781, 1309310834, 1309310791, 1645121523, 2412572932, 2412572912, 1308245862, 2207262135, 2207262136, 2207262255, 5632900499, 7509422947, 2207261995, 2207262259, 2207262178, 2207262112, 5632900492, 1640078314, 7282892857, 7282826587, 1640078316, 1640078326, 1640078310, 1640078325, 1640078305, 7615474068, 6779167975, 1640078309, 1640078313, 1846853878, 1846853875, 6366358673, 6366358672, 6366358671, 1643970081, 1643970052, 1643970072, 1846853872, 1645164035, 2397026625, 1655435366, 258030969, 258030970, 1655435361, 258030971, 258030972, 1655435355, 1655435357, 1655435354, 256618510, 7511858557, 2242858400, 2242858434, 7511858556, 2207262137, 2207262066, 2207262133, 624842118, 624842116, 624842113, 624842102], "tags": {"alt_name": "UIC", "amenity": "university", "education": "university", "ele": "181", "gnis:county_id": "031", "gnis:created": "05/03/1999", "gnis:feature_id": "1837071", "gnis:state_id": "17", "name": "University of Illinois at Chicago", "wikidata": "Q955764", "wikipedia": "en:University of Illinois at Chicago"}}]}