{"version": 0.6, "generator": "Overpass API 0.7.56.3 eb200aeb", "osm3s": {"timestamp_osm_base": "2020-07-04T03:52:02Z", "copyright": "The data included in this document is from www.openstreetmap.org. The data is made available under ODbL."}, "elements": [{"type": "node", "id": 846810579, "lat": 41.8993137, "lon": -87.6818666, "tags": {"addr:city": "Chicago", "addr:housenumber": "957", "addr:postcode": "60622", "addr:state": "IL", "addr:street": "North Leavitt Street", "amenity": "bar", "name": "J&M Tap", "phone": "+1-773-235-0499", "website": "https://www.jmtap.com/"}}, {"type": "node", "id": 1092085176, "lat": 41.8997523, "lon": -87.6733215, "tags": {"amenity": "bar", "name": "Club Foot"}}, {"type": "node", "id": 1092085195, "lat": 41.8980584, "lon": -87.6745111, "tags": {"addr:city": "Chicago", "addr:housenumber": "1858", "addr:postcode": "60622", "addr:state": "IL", "addr:street": "West Iowa Street", "amenity": "bar", "name": "Nilda's Place"}}, {"type": "node", "id": 1092085206, "lat": 41.9012796, "lon": -87.6745795, "tags": {"addr:city": "Chicago", "addr:housenumber": "1059", "addr:postcode": "60622", "addr:state": "IL", "addr:street": "North Wolcott Avenue", "amenity": "bar", "name": "Happy Village", "phone": "+1-773-486-1512"}}, {"type": "node", "id": 1092085208, "lat": 41.9012696, "lon": -87.6761271, "tags": {"addr:city": "Chicago", "addr:housenumber": "1935", "addr:postcode": "60622", "addr:state": "IL", "addr:street": "West Thomas Street", "amenity": "bar", "name": "Innertown Pub", "phone": "+1-773-235-9795", "website": "https://www.innertownpub.com/"}}, {"type": "node", "id": 2196077182, "lat": 41.8959062, "lon": -87.6842781}, {"type": "node", "id": 2196077190, "lat": 41.8959072, "lon": -87.6842138}, {"type": "node", "id": 2196077551, "lat": 41.8960283, "lon": -87.6842805}, {"type": "node", "id": 2196077574, "lat": 41.8960294, "lon": -87.6842181}, {"type": "node", "id": 2200032209, "lat": 41.8909966, "lon": -87.6722207}, {"type": "node", "id": 2200032211, "lat": 41.8909975, "lon": -87.6721343}, {"type": "node", "id": 2200032617, "lat": 41.8911846, "lon": -87.6722261}, {"type": "node", "id": 2200032621, "lat": 41.8911855, "lon": -87.6721398}, {"type": "node", "id": 2200061284, "lat": 41.8954081, "lon": -87.6806487}, {"type": "node", "id": 2200061318, "lat": 41.8954122, "lon": -87.6804026}, {"type": "node", "id": 2200061528, "lat": 41.895441, "lon": -87.6804023}, {"type": "node", "id": 2200061557, "lat": 41.8954433, "lon": -87.6803178}, {"type": "node", "id": 2200063472, "lat": 41.8955482, "lon": -87.6806693}, {"type": "node", "id": 2200063479, "lat": 41.8955495, "lon": -87.6806528}, {"type": "node", "id": 2200064291, "lat": 41.8956277, "lon": -87.6806575}, {"type": "node", "id": 2200064294, "lat": 41.8956278, "lon": -87.6806722}, {"type": "node", "id": 2200064580, "lat": 41.8956493, "lon": -87.6714785}, {"type": "node", "id": 2200064590, "lat": 41.8956503, "lon": -87.6714124}, {"type": "node", "id": 2200064702, "lat": 41.8956648, "lon": -87.680659}, {"type": "node", "id": 2200064728, "lat": 41.8956717, "lon": -87.6806736}, {"type": "node", "id": 2200065237, "lat": 41.895739, "lon": -87.6806747}, {"type": "node", "id": 2200065266, "lat": 41.8957409, "lon": -87.6714151}, {"type": "node", "id": 2200065269, "lat": 41.8957422, "lon": -87.6714022}, {"type": "node", "id": 2200065283, "lat": 41.8957439, "lon": -87.6803276}, {"type": "node", "id": 2200065894, "lat": 41.8958771, "lon": -87.6714853}, {"type": "node", "id": 2200065897, "lat": 41.895878, "lon": -87.6714063}, {"type": "node", "id": 2200107680, "lat": 41.900711, "lon": -87.6672093}, {"type": "node", "id": 2200107714, "lat": 41.9007148, "lon": -87.6669172}, {"type": "node", "id": 2200107795, "lat": 41.9007262, "lon": -87.6672257}, {"type": "node", "id": 2200107958, "lat": 41.9007578, "lon": -87.6672272}, {"type": "node", "id": 2200108058, "lat": 41.9007769, "lon": -87.6672086}, {"type": "node", "id": 2200108076, "lat": 41.9007807, "lon": -87.6669202}, {"type": "node", "id": 2200116674, "lat": 41.902827, "lon": -87.6777189}, {"type": "node", "id": 2200116679, "lat": 41.9028287, "lon": -87.6775426}, {"type": "node", "id": 2200117032, "lat": 41.9030493, "lon": -87.677724}, {"type": "node", "id": 2200117034, "lat": 41.9030524, "lon": -87.6775476}, {"type": "node", "id": 2496841186, "lat": 41.8963373, "lon": -87.6670898, "tags": {"addr:city": "Chicago", "addr:housenumber": "811", "addr:postcode": "60622", "addr:state": "IL", "addr:street": "North Ashland Avenue", "amenity": "restaurant", "name": "Taqueria Traspasada", "phone": "+1-312-850-2069"}}, {"type": "node", "id": 2535218213, "lat": 41.8910659, "lon": -87.6718335, "tags": {"addr:city": "Chicago", "addr:housenumber": "1758", "addr:postcode": "60622", "addr:state": "IL", "addr:street": "West Grand Avenue", "amenity": "bar", "delivery": "yes", "name": "Output Lounge & Sports Bar", "phone": "312-929-2515", "website": "outputlounge.com"}}, {"type": "node", "id": 2535218224, "lat": 41.8910216, "lon": -87.6714159, "tags": {"amenity": "restaurant", "cuisine": "pizza", "name": "Tortorice's Pizza"}}, {"type": "node", "id": 3570113238, "lat": 41.9028218, "lon": -87.6774009, "tags": {"addr:city": "Chicago", "addr:housenumber": "1150", "addr:postcode": "60622", "addr:state": "IL", "addr:street": "North Damen Avenue", "amenity": "bar", "name": "Rainbo Club", "phone": "+1-773-489-5999"}}, {"type": "node", "id": 3575072895, "lat": 41.9028054, "lon": -87.6672521, "tags": {"amenity": "restaurant", "cuisine": "mexican", "name": "Authentaco"}}, {"type": "node", "id": 3575072896, "lat": 41.9026397, "lon": -87.6677134, "tags": {"amenity": "restaurant", "cuisine": "mexican", "name": "La Pasadita"}}, {"type": "node", "id": 3575072897, "lat": 41.9004836, "lon": -87.6676383, "tags": {"addr:city": "Chicago", "addr:housenumber": "1024", "addr:postcode": "60622", "addr:state": "IL", "addr:street": "North Ashland Avenue", "addr:street:name": "Ashland", "addr:street:prefix": "North", "addr:street:type": "Avenue", "amenity": "restaurant", "cuisine": "mexican", "name": "Alegrias Seafood Chicago", "opening_hours": "Mo-Th, Su 10:00-22:00; Fr-Sa 10:00-23:00", "phone": "+1-773-252-7200", "website": "http://alegriasseafoodchicago.com"}}, {"type": "node", "id": 3596874096, "lat": 41.8975839, "lon": -87.6670559, "tags": {"addr:city": "Chicago", "addr:housenumber": "851", "addr:postcode": "60622", "addr:state": "IL", "addr:street": "North Ashland Avenue", "amenity": "restaurant", "cuisine": "american", "delivery": "no", "name": "Ruxbin", "phone": "(312) 624\u20138509", "smoking": "no", "takeaway": "no", "website": "http://www.ruxbinchicago.com"}}, {"type": "node", "id": 3712617658, "lat": 41.8960881, "lon": -87.6756709, "tags": {"addr:city": "chicago", "addr:housenumber": "1924", "addr:state": "il", "addr:street": "West Chicago Avenue", "amenity": "restaurant", "cuisine": "pizza", "name": "Roots Handmade Pizza"}}, {"type": "node", "id": 3898903921, "lat": 41.8958379, "lon": -87.6728839, "tags": {"amenity": "restaurant", "cuisine": "mexican", "name": "Dona Naty's Tacos", "outdoor_seating": "no", "takeaway": "yes"}}, {"type": "node", "id": 4085259564, "lat": 41.8905641, "lon": -87.6855565, "tags": {"addr:city": "Chicago", "addr:country": "US", "addr:housenumber": "2333", "addr:postcode": "60612", "addr:state": "IL", "addr:street": "West Grand Avenue", "amenity": "restaurant", "name": "Chavas Tacos El Original", "phone": "+1-312-226-1129", "website": "http://chavastacoseloriginal.com/"}}, {"type": "node", "id": 4119390732, "lat": 41.8996708, "lon": -87.6773815, "tags": {"addr:city": "Chicago", "addr:housenumber": "1000", "addr:postcode": "60622", "addr:state": "IL", "addr:street": "North Damen Avenue", "amenity": "cafe", "cuisine": "coffee_shop", "name": "Dollop", "website": "https://dollop.coffee/"}}, {"type": "node", "id": 4564043789, "lat": 41.8960919, "lon": -87.6754459, "tags": {"addr:city": "Chicago", "addr:housenumber": "1916", "addr:postcode": "60622", "addr:state": "IL", "addr:street": "West Chicago Avenue", "amenity": "restaurant", "cuisine": "american", "name": "West Town Bakery & Diner"}}, {"type": "node", "id": 4564043790, "lat": 41.8960435, "lon": -87.6778486, "tags": {"addr:city": "Chicago", "addr:housenumber": "2018", "addr:postcode": "60622", "addr:state": "IL", "addr:street": "West Chicago Avenue", "amenity": "restaurant", "cuisine": "american", "name": "Whisk"}}, {"type": "node", "id": 4564043791, "lat": 41.896048, "lon": -87.6776697, "tags": {"addr:city": "Chicago", "addr:housenumber": "2012", "addr:postcode": "60622", "addr:state": "IL", "addr:street": "West Chicago Avenue", "amenity": "restaurant", "cuisine": "american", "name": "Sunrise Cafe", "phone": "+1-773-276-8290", "website": "http://www.sunrisecafechicago.com/"}}, {"type": "node", "id": 4564043792, "lat": 41.895873, "lon": -87.6693545, "tags": {"addr:city": "Chicago", "addr:housenumber": "1651", "addr:postcode": "60622", "addr:state": "IL", "addr:street": "West Chicago Avenue", "amenity": "cafe", "cuisine": "coffee_shop", "name": "Pickwick Coffee"}}, {"type": "node", "id": 4599121319, "lat": 41.8958892, "lon": -87.6704013, "tags": {"addr:city": "Chicago", "addr:housenumber": "1715", "addr:postcode": "60622", "addr:state": "IL", "addr:street": "West Chicago Avenue", "amenity": "restaurant", "cuisine": "thai", "name": "JJ Thai Street Food", "phone": "+1-312-929-4435", "website": "http://www.jjthaistreetfood.com/"}}, {"type": "node", "id": 4599121320, "lat": 41.8961658, "lon": -87.6715393, "tags": {"addr:city": "Chicago", "addr:housenumber": "1746", "addr:postcode": "60622", "addr:state": "IL", "addr:street": "West Chicago Avenue", "amenity": "bar", "name": "Forbidden Root Restaurant & Brewery", "phone": "+1-312-929-2202", "website": "http://www.forbiddenroot.com"}}, {"type": "node", "id": 4599121321, "lat": 41.8958623, "lon": -87.6717217, "tags": {"addr:city": "Chicago", "addr:housenumber": "1751", "addr:postcode": "60622", "addr:state": "IL", "addr:street": "West Chicago Avenue", "amenity": "restaurant", "cuisine": "japanese", "name": "Yuzu Sushi + Robata Grill", "phone": "+1-815-900-9525", "website": "https://www.yuzuchicago.com/"}}, {"type": "node", "id": 4599121322, "lat": 41.8958333, "lon": -87.6733515, "tags": {"addr:city": "Chicago", "addr:housenumber": "1829", "addr:postcode": "60622", "addr:state": "IL", "addr:street": "West Chicago Avenue", "amenity": "restaurant", "cuisine": "japanese", "name": "Arami", "phone": "+1-312-243-1535", "website": "https://www.aramichicago.com/"}}, {"type": "node", "id": 4599121323, "lat": 41.8961458, "lon": -87.6729172, "tags": {"addr:city": "Chicago", "addr:housenumber": "1814", "addr:postcode": "60622", "addr:state": "IL", "addr:street": "West Chicago Avenue", "amenity": "restaurant", "cuisine": "mexican", "name": "Tecalitlan", "website": "http://www.tecrestaurant.com"}}, {"type": "node", "id": 4728267690, "lat": 41.8959197, "lon": -87.6831752, "tags": {"addr:postcode": "60622", "amenity": "cafe", "name": "Old Lviv", "name:ru": "\u0421\u0442\u0430\u0440\u044b\u0439 \u041b\u044c\u0432\u043e\u0432", "opening_hours": "Tu-Su 11:00-20:00", "phone": "+17737727250"}}, {"type": "node", "id": 5195156460, "lat": 41.8942344, "lon": -87.676849, "tags": {"addr:city": "Chicago", "addr:housenumber": "701", "addr:postcode": "60622", "addr:state": "IL", "addr:street": "North Damen Avenue", "amenity": "bar", "name": "Damen Tavern", "outdoor_seating": "no", "phone": "+1-312-796-3191", "smoking": "no"}}, {"type": "node", "id": 5460871124, "lat": 41.8963394, "lon": -87.6677065, "tags": {"addr:city": "Chicago", "addr:housenumber": "1604", "addr:postcode": "60622", "addr:state": "IL", "addr:street": "West Chicago Avenue", "amenity": "bar", "name": "Beatnik", "opening_hours": "Tu-Fr 17:00-02:00; Sa 11:00-03:00; Su 11:00-02:00", "phone": "+1-312-929-4945", "website": "https://www.beatnikchicago.com/"}}, {"type": "node", "id": 5792394594, "lat": 41.8896255, "lon": -87.670578, "tags": {"addr:city": "Chicago", "addr:housenumber": "1725", "addr:postcode": "60622", "addr:state": "IL", "addr:street": "West Hubbard Street", "amenity": "bar", "name": "On Tour Brewin", "outdoor_seating": "no", "phone": "+1-312-796-3119", "website": "https://ontourbrewing.com/"}}, {"type": "node", "id": 5829654085, "lat": 41.8958975, "lon": -87.6701778, "tags": {"addr:city": "Chicago", "addr:housenumber": "1709", "addr:postcode": "60622", "addr:state": "IL", "addr:street": "West Chicago Avenue", "amenity": "restaurant", "cuisine": "german", "name": "Funkenhausen", "opening_hours": "Mo-Th 17:00-23:00; Fr-Sa 17:00-00:00; Su 17:00-22:00", "phone": "+1-312-929-4727", "website": "https://www.funkenhausen.com/"}}, {"type": "node", "id": 5952502358, "lat": 41.8957821, "lon": -87.676877, "tags": {"addr:city": "Chicago", "addr:housenumber": "1959", "addr:postcode": "60622", "addr:state": "IL", "addr:street": "West Chicago Avenue", "amenity": "restaurant", "cuisine": "mexican", "name": "El Metro Mexican Cantina"}}, {"type": "node", "id": 6256421651, "lat": 41.8959957, "lon": -87.6814225, "tags": {"addr:city": "Chicago", "addr:housenumber": "2148", "addr:postcode": "60622", "addr:state": "IL", "addr:street": "West Chicago Avenue", "amenity": "restaurant", "name": "A Tavola", "phone": "+1-773-276-7567", "website": "https://www.atavolachi.com/"}}, {"type": "node", "id": 6261003734, "lat": 41.8957826, "lon": -87.6732482, "tags": {"addr:city": "Chicago", "addr:housenumber": "1825", "addr:postcode": "60622", "addr:state": "IL", "addr:street": "West Chicago Avenue", "amenity": "restaurant", "name": "Alba\u2019s Restaurant", "phone": "+1-312-265-0818"}}, {"type": "node", "id": 6263059442, "lat": 41.8899164, "lon": -87.6782682, "tags": {"addr:city": "Chicago", "addr:housenumber": "2032", "addr:postcode": "60612", "addr:state": "IL", "addr:street": "West Hubbard Street", "amenity": "restaurant", "name": "Art Of Dosa", "phone": "+1-312-899-6238"}}, {"type": "node", "id": 6269127897, "lat": 41.8956638, "lon": -87.680397, "tags": {"addr:city": "Chicago", "addr:housenumber": "2119", "addr:postcode": "60622", "addr:state": "IL", "addr:street": "West Chicago Avenue", "amenity": "bar", "name": "Brothers and Sisters", "phone": "+1-773-661-1599", "website": "https://www.brothersandsisters.fun/"}}, {"type": "node", "id": 6282893511, "lat": 41.8956943, "lon": -87.6759915, "tags": {"addr:city": "chicago", "addr:housenumber": "1935", "addr:postcode": "60622", "addr:state": "IL", "addr:street": "West Chicago Avenue", "amenity": "restaurant", "name": "Cleos", "phone": "+1-312-243-5600", "website": "http://www.cleospub.com/"}}, {"type": "node", "id": 6285894590, "lat": 41.8932185, "lon": -87.6676308, "tags": {"addr:city": "Chicago", "addr:housenumber": "624", "addr:postcode": "60622", "addr:state": "IL", "addr:street": "North Ashland Avenue", "amenity": "restaurant", "name": "El Potosino Grill", "phone": "+1-312-285-2711", "website": "http://orderelpotosinogrill.com/"}}, {"type": "node", "id": 6290064774, "lat": 41.8932472, "lon": -87.6841486, "tags": {"addr:city": "Chicago", "addr:housenumber": "2258", "addr:postcode": "60612", "addr:state": "IL", "addr:street": "West Erie Street", "amenity": "restaurant", "name": "Fiore Delicatessen", "phone": "+1-312-942-9419", "website": "http://www.fioresdelicatessen.com/"}}, {"type": "node", "id": 6291245713, "lat": 41.8975737, "lon": -87.6773583, "tags": {"addr:city": "Chicago", "addr:housenumber": "852", "addr:postcode": "60622", "addr:state": "IL", "addr:street": "North Damen Avenue", "amenity": "cafe", "name": "Francesca\u2019s Cafe", "phone": "+1-630-440-8306", "website": "http://francescasondamen.com/"}}, {"type": "node", "id": 6291791910, "lat": 41.897562, "lon": -87.6772721, "tags": {"addr:city": "Chicago", "addr:housenumber": "852", "addr:postcode": "60622", "addr:state": "IL", "addr:street": "North Damen Avenue", "amenity": "cafe", "name": "Gigi\u2019s Cafe & Juicery", "phone": "+1-312-675-8174", "website": "https://gigis-cafe-juicery.business.site/#details"}}, {"type": "node", "id": 6294267462, "lat": 41.8965552, "lon": -87.667071, "tags": {"addr:city": "Chicago", "addr:housenumber": "815", "addr:postcode": "60622", "addr:state": "IL", "addr:street": "North Ashland Avenue", "amenity": "cafe", "name": "Healthy and Simple", "phone": "+1-312-624-8971"}}, {"type": "node", "id": 6294395924, "lat": 41.895838, "lon": -87.6693982, "tags": {"addr:city": "Chicago", "addr:housenumber": "1651", "addr:postcode": "60622", "addr:state": "IL", "addr:street": "West Chicago Avenue", "amenity": "cafe", "name": "HERO Coffee Bar", "phone": "+1-312-285-2857", "website": "https://www.herocoffeebars.com/"}}, {"type": "node", "id": 6294445903, "lat": 41.8961863, "lon": -87.6761921, "tags": {"addr:city": "Chicago", "addr:housenumber": "1938", "addr:postcode": "60622", "addr:state": "IL", "addr:street": "West Chicago Avenue", "amenity": "bar", "name": "High Dive", "phone": "+1-773-235-3483", "website": "http://www.highdivechicago.com/"}}, {"type": "node", "id": 6294541117, "lat": 41.8962749, "lon": -87.6756534, "tags": {"addr:city": "Chicago", "addr:housenumber": "1924", "addr:postcode": "60622", "addr:state": "IL", "addr:street": "West Chicago Avenue", "amenity": "restaurant", "name": "Homestead on the Roof", "phone": "+1-773-332-2354", "website": "http://www.homesteadontheroof.com/"}}, {"type": "node", "id": 6298813013, "lat": 41.895807, "lon": -87.6689374, "tags": {"addr:city": "Chicago", "addr:housenumber": "1641", "addr:postcode": "60622", "addr:state": "IL", "addr:street": "West Chicago Avenue", "amenity": "restaurant", "name": "Six06 Cafe Bar", "phone": "+1-312-929-4911", "website": "http://cafe606.com/"}}, {"type": "node", "id": 6298939468, "lat": 41.8957548, "lon": -87.6758258, "tags": {"addr:city": "chicago", "addr:housenumber": "1931", "addr:postcode": "60622", "addr:state": "IL", "addr:street": "West Chicago Avenue", "amenity": "restaurant", "name": "Soule", "phone": "+1-312-526-3825", "website": "https://www.soulechicago.com/"}}, {"type": "node", "id": 6300877131, "lat": 41.8956256, "lon": -87.6799662, "tags": {"addr:city": "Chicago", "addr:housenumber": "2109", "addr:postcode": "60622", "addr:state": "IL", "addr:street": "West Chicago Avenue", "amenity": "bar", "name": "The Rookery", "phone": "+1-773-772-0406", "website": "http://www.rookery.pub/"}}, {"type": "node", "id": 6301585470, "lat": 41.8989024, "lon": -87.6766499, "tags": {"addr:city": "Chicago", "addr:housenumber": "941", "addr:postcode": "60622", "addr:state": "IL", "addr:street": "North Damen Avenue", "amenity": "restaurant", "name": "Sabroso! Mexican Grill", "phone": "+1-773-253-5001", "website": "http://sabrosochicago.com/"}}, {"type": "node", "id": 6304017578, "lat": 41.8989063, "lon": -87.6670205, "tags": {"addr:city": "Chicago", "addr:housenumber": "933", "addr:postcode": "60622", "addr:state": "IL", "addr:street": "North Ashland Avenue", "amenity": "restaurant", "cuisine": "american;american_new;new_american", "name": "Temporis", "opening_hours": "Tu-Sa 17:00-21:00", "phone": "+1-773-697-4961", "website": "https://www.temporischicago.com/"}}, {"type": "node", "id": 6306671835, "lat": 41.9027511, "lon": -87.6708155, "tags": {"addr:city": "Chicago", "addr:housenumber": "1115", "addr:postcode": "60622", "addr:state": "IL", "addr:street": "North Hermitage Avenue", "amenity": "cafe", "name": "Tropikava", "phone": "+1-773-840-7774", "website": "https://www.tropikava.com/"}}, {"type": "node", "id": 6306783213, "lat": 41.8955443, "lon": -87.6821999, "tags": {"addr:city": "Chicago", "addr:housenumber": "2201", "addr:postcode": "60622", "addr:state": "IL", "addr:street": "West Chicago Avenue", "amenity": "restaurant", "name": "Tryzub Ukrainian Kitchen", "phone": "+1-773-698-8624", "website": "https://tryzubchicago.com/"}}, {"type": "node", "id": 6306811233, "lat": 41.8955557, "lon": -87.6817912, "tags": {"addr:city": "Chicago", "addr:housenumber": "2159", "addr:postcode": "60622", "addr:state": "IL", "addr:street": "West Chicago Avenue", "amenity": "bar", "name": "Tuman\u2019s Tap and Grill", "phone": "+1-773-782-1400", "website": "http://www.tumanstapandgrill.com/"}}, {"type": "node", "id": 6316808950, "lat": 41.8962538, "lon": -87.6754191, "tags": {"addr:city": "Chicago", "addr:housenumber": "1916", "addr:postcode": "60622", "addr:state": "IL", "addr:street": "West Chicago Avenue", "amenity": "restaurant", "name": "West Town Bakery & Diner", "phone": "+1-773-904-1414", "website": "https://www.westtownbakery.com/"}}, {"type": "node", "id": 6319238724, "lat": 41.8903498, "lon": -87.677052, "tags": {"addr:city": "Chicago", "addr:housenumber": "456", "addr:postcode": "60612", "addr:state": "IL", "addr:street": "North Damen Avenue", "amenity": "restaurant", "cuisine": "american", "name": "Lilly Bell's Diner"}}, {"type": "node", "id": 6319264224, "lat": 41.8991184, "lon": -87.666976, "tags": {"addr:city": "Chicago", "addr:housenumber": "939", "addr:postcode": "60622", "addr:state": "IL", "addr:street": "North Ashland Avenue", "amenity": "restaurant", "name": "Kimchi Pop", "phone": "+1-872-802-4424", "website": "https://www.kimchipopchicago.com/"}}, {"type": "node", "id": 6320612929, "lat": 41.8962815, "lon": -87.6678216, "tags": {"addr:city": "Chicago", "addr:housenumber": "1610", "addr:postcode": "60622", "addr:state": "IL", "addr:street": "West Chicago Avenue", "amenity": "bar", "name": "Loop Tavern", "phone": "+1-312-226-6740"}}, {"type": "node", "id": 6321516956, "lat": 41.9025114, "lon": -87.6678565, "tags": {"addr:city": "Chicago", "addr:housenumber": "1132", "addr:postcode": "60622", "addr:state": "IL", "addr:street": "North Ashland Avenue", "amenity": "restaurant", "name": "Mariscos La Costa", "phone": "+1-773-360-1226", "website": "https://www.lacostachicago.com/"}}, {"type": "node", "id": 6322126530, "lat": 41.8988016, "lon": -87.6767479, "tags": {"addr:city": "Chicago", "addr:housenumber": "937", "addr:postcode": "60622", "addr:state": "IL", "addr:street": "North Damen Avenue", "amenity": "restaurant", "name": "Tai Nang", "phone": "+1-773-666-5996"}}, {"type": "node", "id": 6322995244, "lat": 41.8955065, "lon": -87.6845512, "tags": {"addr:city": "Chicago", "addr:housenumber": "2301", "addr:postcode": "60612", "addr:state": "IL", "addr:street": "West Chicago Avenue", "amenity": "bar", "name": "Mr Brown\u2019s Lounge", "phone": "+1-773-278-4445", "website": "https://mrbrownslounge.com/"}}, {"type": "node", "id": 6323927179, "lat": 41.8991171, "lon": -87.6769007, "tags": {"addr:city": "Chicago", "addr:housenumber": "947", "addr:postcode": "60622", "addr:state": "IL", "addr:street": "North Damen Avenue", "amenity": "bar", "name": "Ola\u2019s Liquor", "phone": "+1-773-384-7250"}}, {"type": "node", "id": 6386781829, "lat": 41.8910136, "lon": -87.6792392}, {"type": "node", "id": 6386781838, "lat": 41.8910189, "lon": -87.6789727}, {"type": "node", "id": 6386781854, "lat": 41.8908915, "lon": -87.6792348}, {"type": "node", "id": 6386781855, "lat": 41.8908967, "lon": -87.6789684}, {"type": "node", "id": 6842452391, "lat": 41.9018301, "lon": -87.6676707, "tags": {"addr:housenumber": "1108", "addr:street": "North Ashland Avenue", "amenity": "cafe", "cuisine": "ice_cream;smoothies", "name": "Coco Ice Cream"}}, {"type": "node", "id": 7598267988, "lat": 41.8962003, "lon": -87.6719856, "tags": {"addr:housenumber": "1760", "amenity": "restaurant", "name": "Koko's Mediterranean"}}, {"type": "way", "id": 209389468, "nodes": [2196077182, 2196077551, 2196077574, 2196077190, 2196077182], "tags": {"addr:city": "Chicago", "addr:housenumber": "2258", "addr:postcode": "60622", "addr:state": "IL", "addr:street": "West Chicago Avenue", "addr:street:name": "Chicago", "addr:street:prefix": "West", "addr:street:type": "Avenue", "amenity": "restaurant", "building": "commercial", "building:levels": "1", "chicago:building_id": "339921", "name": "Fatso's Last Stand", "phone": "+1-773-245-3287", "website": "http://www.fatsoslaststand.com/"}}, {"type": "way", "id": 209839358, "nodes": [2200064580, 2200065894, 2200065897, 2200065269, 2200065266, 2200064590, 2200064580], "tags": {"addr:housenumber": "1745", "addr:street": "West Chicago Avenue", "addr:street:name": "Chicago", "addr:street:prefix": "West", "addr:street:type": "Avenue", "amenity": "restaurant", "building": "yes", "building:levels": "1", "chicago:building_id": "340087", "cuisine": "mexican", "name": "El Taco Veloz"}}, {"type": "way", "id": 209839539, "nodes": [2200032209, 2200032617, 2200032621, 2200032211, 2200032209], "tags": {"addr:housenumber": "1800", "addr:street": "West Grand Avenue", "addr:street:name": "Grand", "addr:street:prefix": "West", "addr:street:type": "Avenue", "amenity": "restaurant", "building": "yes", "building:levels": "2", "chicago:building_id": "348688", "cuisine": "breakfast", "name": "Breakfast House"}}, {"type": "way", "id": 209841304, "nodes": [2200061284, 2200063479, 2200063472, 2200064294, 2200064291, 2200064702, 2200064728, 2200065237, 2200065283, 2200061557, 2200061528, 2200061318, 2200061284], "tags": {"addr:housenumber": "2119-2127", "addr:street": "West Chicago Avenue", "addr:street:name": "Chicago", "addr:street:prefix": "West", "addr:street:type": "Avenue", "amenity": "bar", "building": "yes", "building:levels": "3", "chicago:building_id": "340465"}}, {"type": "way", "id": 209846451, "nodes": [2200107680, 2200107795, 2200107958, 2200108058, 2200108076, 2200107714, 2200107680], "tags": {"addr:housenumber": "1035", "addr:street": "North Ashland Avenue", "addr:street:name": "Ashland", "addr:street:prefix": "North", "addr:street:type": "Avenue", "amenity": "restaurant", "building": "yes", "building:levels": "1", "chicago:building_id": "327552", "cuisine": "mexican", "name": "El Barco Mariscos"}}, {"type": "way", "id": 209848437, "nodes": [2200116674, 2200117032, 2200117034, 2200116679, 2200116674], "tags": {"addr:city": "Chicago", "addr:housenumber": "2005", "addr:postcode": "60622", "addr:state": "IL", "addr:street": "West Division Street", "addr:street:name": "Division", "addr:street:prefix": "West", "addr:street:type": "Street", "amenity": "pub", "brewery": "yes", "building": "yes", "building:levels": "2", "chicago:building_id": "323119", "name": "Fatpour Tap Works", "outdoor_seating": "yes", "phone": "+1-773-698-8940", "website": "https://www.fatpourwickerpark.com/"}}, {"type": "way", "id": 682002315, "nodes": [6386781829, 6386781838, 6386781855, 6386781854, 6386781829], "tags": {"addr:city": "Chicago", "addr:housenumber": "2054", "addr:postcode": "60612", "addr:state": "IL", "addr:street": "West Grand Avenue", "amenity": "restaurant", "building": "yes", "name": "Upton\u2019s Breakroom", "phone": "+1-312-666-7838", "website": "http://www.uptonsnaturals.com/breakroom"}}]}