{"version": 0.6, "generator": "Overpass API 0.7.56.3 eb200aeb", "osm3s": {"timestamp_osm_base": "2020-07-04T02:48:02Z", "copyright": "The data included in this document is from www.openstreetmap.org. The data is made available under ODbL."}, "elements": [{"type": "node", "id": 258944287, "lat": 41.8713894, "lon": -87.6696006, "tags": {"name": "Polk", "network": "CTA", "operator": "Chicago Transit Authority", "public_transport": "stop_position", "railway": "stop", "subway": "yes", "train": "no"}}, {"type": "node", "id": 258944288, "lat": 41.8579583, "lon": -87.6692149, "tags": {"name": "18th", "network": "CTA", "operator": "Chicago Transit Authority", "public_transport": "stop_position", "railway": "stop", "subway": "yes"}}, {"type": "node", "id": 258944289, "lat": 41.8554405, "lon": -87.6691394}, {"type": "node", "id": 258944290, "lat": 41.8553198, "lon": -87.6691365}, {"type": "node", "id": 258944291, "lat": 41.8551056, "lon": -87.6691799}, {"type": "node", "id": 258944292, "lat": 41.8549057, "lon": -87.6693167}, {"type": "node", "id": 258944293, "lat": 41.8548194, "lon": -87.6694153}, {"type": "node", "id": 258944294, "lat": 41.8547549, "lon": -87.6695238}, {"type": "node", "id": 258944295, "lat": 41.854649, "lon": -87.6698162}, {"type": "node", "id": 258944296, "lat": 41.8546215, "lon": -87.6699956}, {"type": "node", "id": 258944297, "lat": 41.8546095, "lon": -87.6710021}, {"type": "node", "id": 258944298, "lat": 41.8545357, "lon": -87.6768018, "tags": {"name": "Damen", "network": "CTA", "operator": "Chicago Transit Authority", "public_transport": "stop_position", "railway": "stop", "subway": "yes"}}, {"type": "node", "id": 258944299, "lat": 41.8544243, "lon": -87.6849056, "tags": {"name": "Western", "network": "CTA", "operator": "Chicago Transit Authority", "public_transport": "stop_position", "railway": "stop", "subway": "yes"}}, {"type": "node", "id": 258944300, "lat": 41.8543425, "lon": -87.6947311, "tags": {"name": "California", "network": "CTA", "operator": "Chicago Transit Authority", "public_transport": "stop_position", "railway": "stop", "subway": "yes"}}, {"type": "node", "id": 258944301, "lat": 41.8542178, "lon": -87.6998278}, {"type": "node", "id": 258944303, "lat": 41.8541965, "lon": -87.7057414, "tags": {"name": "Kedzie", "network": "CTA", "operator": "Chicago Transit Authority", "public_transport": "stop_position", "railway": "stop", "subway": "yes"}}, {"type": "node", "id": 258944304, "lat": 41.8540901, "lon": -87.7085255}, {"type": "node", "id": 258944305, "lat": 41.85405, "lon": -87.7151395, "tags": {"name": "Central Park", "network": "CTA", "operator": "Chicago Transit Authority", "public_transport": "stop_position", "railway": "stop", "subway": "yes"}}, {"type": "node", "id": 258944306, "lat": 41.8539231, "lon": -87.7241161, "tags": {"name": "Pulaski", "network": "CTA", "operator": "Chicago Transit Authority", "public_transport": "stop_position", "railway": "stop", "subway": "yes"}}, {"type": "node", "id": 258944307, "lat": 41.8538398, "lon": -87.7298195}, {"type": "node", "id": 699226527, "lat": 41.8586987, "lon": -87.6606769, "tags": {"amenity": "cafe", "name": "Efebina's"}}, {"type": "node", "id": 706905361, "lat": 41.8614145, "lon": -87.6693239}, {"type": "node", "id": 736014663, "lat": 41.8722452, "lon": -87.6696236}, {"type": "node", "id": 736014737, "lat": 41.8727597, "lon": -87.6695874}, {"type": "node", "id": 736014738, "lat": 41.8729526, "lon": -87.6695932}, {"type": "node", "id": 1280923895, "lat": 41.8541674, "lon": -87.7072183}, {"type": "node", "id": 1280923896, "lat": 41.8545736, "lon": -87.6735621}, {"type": "node", "id": 1280923903, "lat": 41.8540372, "lon": -87.7122854}, {"type": "node", "id": 1280923905, "lat": 41.8540914, "lon": -87.7057384, "tags": {"name": "Kedzie", "network": "CTA", "operator": "Chicago Transit Authority", "public_transport": "stop_position", "railway": "stop", "subway": "yes"}}, {"type": "node", "id": 1280923909, "lat": 41.8544119, "lon": -87.682258}, {"type": "node", "id": 1280923910, "lat": 41.8546939, "lon": -87.6696582}, {"type": "node", "id": 1280923911, "lat": 41.8543591, "lon": -87.6932929}, {"type": "node", "id": 1280923912, "lat": 41.8549346, "lon": -87.6692463}, {"type": "node", "id": 1280923919, "lat": 41.8538577, "lon": -87.7262136}, {"type": "node", "id": 1280923920, "lat": 41.8542672, "lon": -87.69329}, {"type": "node", "id": 1280923924, "lat": 41.8538278, "lon": -87.725417}, {"type": "node", "id": 1280923928, "lat": 41.8538098, "lon": -87.7250147}, {"type": "node", "id": 1280923931, "lat": 41.8621922, "lon": -87.6693}, {"type": "node", "id": 1280923933, "lat": 41.8544411, "lon": -87.6785347}, {"type": "node", "id": 1280923935, "lat": 41.853933, "lon": -87.7212059}, {"type": "node", "id": 1280923940, "lat": 41.8601766, "lon": -87.6692329}, {"type": "node", "id": 1280923941, "lat": 41.8545929, "lon": -87.6700295}, {"type": "node", "id": 1280923950, "lat": 41.8548606, "lon": -87.6693214}, {"type": "node", "id": 1280923954, "lat": 41.8610276, "lon": -87.6692651}, {"type": "node", "id": 1280923955, "lat": 41.8544611, "lon": -87.6794198}, {"type": "node", "id": 1280923956, "lat": 41.8543612, "lon": -87.6864579}, {"type": "node", "id": 1280923958, "lat": 41.8549956, "lon": -87.669245}, {"type": "node", "id": 1280923959, "lat": 41.8552275, "lon": -87.6691437}, {"type": "node", "id": 1280923960, "lat": 41.8541707, "lon": -87.7031158}, {"type": "node", "id": 1280923963, "lat": 41.8544251, "lon": -87.6819652}, {"type": "node", "id": 1280923965, "lat": 41.8538937, "lon": -87.7191541}, {"type": "node", "id": 1280923974, "lat": 41.8538577, "lon": -87.7214125}, {"type": "node", "id": 1280923976, "lat": 41.854017, "lon": -87.7175842}, {"type": "node", "id": 1280923979, "lat": 41.8543692, "lon": -87.6876596}, {"type": "node", "id": 1280923981, "lat": 41.8542645, "lon": -87.6967193}, {"type": "node", "id": 1280923986, "lat": 41.8703738, "lon": -87.669528}, {"type": "node", "id": 1280923994, "lat": 41.8569184, "lon": -87.6691498}, {"type": "node", "id": 1280924001, "lat": 41.854348, "lon": -87.6833674}, {"type": "node", "id": 1280924006, "lat": 41.8542098, "lon": -87.7048087}, {"type": "node", "id": 1280924010, "lat": 41.8542087, "lon": -87.704282}, {"type": "node", "id": 1280924015, "lat": 41.857279, "lon": -87.6691971}, {"type": "node", "id": 1280924017, "lat": 41.8539237, "lon": -87.7173945}, {"type": "node", "id": 1280924020, "lat": 41.8670601, "lon": -87.6694368}, {"type": "node", "id": 1280924023, "lat": 41.8543192, "lon": -87.6854923}, {"type": "node", "id": 1280924024, "lat": 41.8540575, "lon": -87.7085781}, {"type": "node", "id": 1280924026, "lat": 41.8539181, "lon": -87.7175815}, {"type": "node", "id": 1280924030, "lat": 41.8552103, "lon": -87.6691095}, {"type": "node", "id": 1280924048, "lat": 41.8686886, "lon": -87.6694826}, {"type": "node", "id": 1280924055, "lat": 41.8721573, "lon": -87.6695709}, {"type": "node", "id": 1280924060, "lat": 41.8544731, "lon": -87.6758471}, {"type": "node", "id": 1280924062, "lat": 41.8544845, "lon": -87.6756226}, {"type": "node", "id": 1280924064, "lat": 41.8541254, "lon": -87.7039862}, {"type": "node", "id": 1280924066, "lat": 41.8550205, "lon": -87.6691819}, {"type": "node", "id": 1280924067, "lat": 41.8540693, "lon": -87.7132097}, {"type": "node", "id": 1280924068, "lat": 41.8543581, "lon": -87.6831243}, {"type": "node", "id": 1280924070, "lat": 41.8543372, "lon": -87.6860824}, {"type": "node", "id": 1280924079, "lat": 41.8539446, "lon": -87.7220144}, {"type": "node", "id": 1280924087, "lat": 41.854329, "lon": -87.6955791}, {"type": "node", "id": 1280924093, "lat": 41.8538452, "lon": -87.722086}, {"type": "node", "id": 1280924095, "lat": 41.8551164, "lon": -87.669131}, {"type": "node", "id": 1280924098, "lat": 41.8542321, "lon": -87.6956228}, {"type": "node", "id": 1280924100, "lat": 41.8553002, "lon": -87.6690988}, {"type": "node", "id": 1280924103, "lat": 41.8538098, "lon": -87.7247223}, {"type": "node", "id": 1280924110, "lat": 41.8539383, "lon": -87.7225584}, {"type": "node", "id": 1280924111, "lat": 41.8545111, "lon": -87.6751159}, {"type": "node", "id": 1280924112, "lat": 41.854575, "lon": -87.6710836}, {"type": "node", "id": 1280924116, "lat": 41.8542953, "lon": -87.692509}, {"type": "node", "id": 1280924119, "lat": 41.8547707, "lon": -87.6694287}, {"type": "node", "id": 1280924123, "lat": 41.8546149, "lon": -87.6698257}, {"type": "node", "id": 1280924124, "lat": 41.8544351, "lon": -87.678194}, {"type": "node", "id": 1280924126, "lat": 41.8544004, "lon": -87.6876091}, {"type": "node", "id": 1280924130, "lat": 41.8541594, "lon": -87.7013335}, {"type": "node", "id": 1280924138, "lat": 41.8542307, "lon": -87.6987471}, {"type": "node", "id": 1280924139, "lat": 41.8546549, "lon": -87.6696594}, {"type": "node", "id": 1280924145, "lat": 41.8544611, "lon": -87.6790631}, {"type": "node", "id": 1280924147, "lat": 41.854178, "lon": -87.7036132}, {"type": "node", "id": 1280924149, "lat": 41.8543232, "lon": -87.6857847}, {"type": "node", "id": 1280924151, "lat": 41.8541895, "lon": -87.7017436}, {"type": "node", "id": 1280924154, "lat": 41.8539716, "lon": -87.7188325}, {"type": "node", "id": 1280924155, "lat": 41.8538477, "lon": -87.7258757}, {"type": "node", "id": 1280924157, "lat": 41.855402, "lon": -87.6691015}, {"type": "node", "id": 1280924161, "lat": 41.854553, "lon": -87.6725078}, {"type": "node", "id": 1280924162, "lat": 41.8547088, "lon": -87.6695333}, {"type": "node", "id": 1280924166, "lat": 41.853809, "lon": -87.7298119}, {"type": "node", "id": 1280924167, "lat": 41.854336, "lon": -87.6922662}, {"type": "node", "id": 1280924169, "lat": 41.8542153, "lon": -87.6978868}, {"type": "node", "id": 1280924171, "lat": 41.8539876, "lon": -87.7132317}, {"type": "node", "id": 1280924178, "lat": 41.8542433, "lon": -87.6963097}, {"type": "node", "id": 1280924180, "lat": 41.8543712, "lon": -87.6867798}, {"type": "node", "id": 1280924187, "lat": 41.8538378, "lon": -87.7277881}, {"type": "node", "id": 1280924189, "lat": 41.854614, "lon": -87.6702708}, {"type": "node", "id": 1796488740, "lat": 41.8577506, "lon": -87.6627852, "tags": {"amenity": "cafe", "name": "Jumping Bean"}}, {"type": "node", "id": 2073635528, "lat": 41.8540466, "lon": -87.7126989}, {"type": "node", "id": 2073635538, "lat": 41.8540403, "lon": -87.7124934}, {"type": "node", "id": 2073635539, "lat": 41.8540716, "lon": -87.7137682}, {"type": "node", "id": 2073659834, "lat": 41.8541782, "lon": -87.7068508}, {"type": "node", "id": 2073659839, "lat": 41.8541077, "lon": -87.7081385}, {"type": "node", "id": 2073693284, "lat": 41.8543558, "lon": -87.6929444}, {"type": "node", "id": 2073693291, "lat": 41.8543349, "lon": -87.692082}, {"type": "node", "id": 2073720879, "lat": 41.8544563, "lon": -87.6821131}, {"type": "node", "id": 2073732519, "lat": 41.8545223, "lon": -87.6748633}, {"type": "node", "id": 2080123157, "lat": 41.8542461, "lon": -87.6947251, "tags": {"name": "California", "network": "CTA", "operator": "Chicago Transit Authority", "public_transport": "stop_position", "railway": "stop", "subway": "yes"}}, {"type": "node", "id": 2080123162, "lat": 41.8539567, "lon": -87.7151348, "tags": {"name": "Central Park", "network": "CTA", "operator": "Chicago Transit Authority", "public_transport": "stop_position", "railway": "stop", "subway": "yes"}}, {"type": "node", "id": 2080123175, "lat": 41.8544556, "lon": -87.6767973, "tags": {"name": "Damen", "network": "CTA", "operator": "Chicago Transit Authority", "public_transport": "stop_position", "railway": "stop", "subway": "yes"}}, {"type": "node", "id": 2080123186, "lat": 41.8538164, "lon": -87.7241117, "tags": {"name": "Pulaski", "network": "CTA", "operator": "Chicago Transit Authority", "public_transport": "stop_position", "railway": "stop", "subway": "yes"}}, {"type": "node", "id": 2080123190, "lat": 41.8543275, "lon": -87.6848997, "tags": {"name": "Western", "network": "CTA", "operator": "Chicago Transit Authority", "public_transport": "stop_position", "railway": "stop", "subway": "yes"}}, {"type": "node", "id": 2080150458, "lat": 41.871388, "lon": -87.6695524, "tags": {"name": "Polk", "network": "CTA", "operator": "Chicago Transit Authority", "public_transport": "stop_position", "railway": "stop", "subway": "yes", "train": "no"}}, {"type": "node", "id": 2080150517, "lat": 41.8579569, "lon": -87.6691763, "tags": {"name": "18th", "network": "CTA", "operator": "Chicago Transit Authority", "public_transport": "stop_position", "railway": "stop", "subway": "yes"}}, {"type": "node", "id": 2199651694, "lat": 41.8574915, "lon": -87.6645397}, {"type": "node", "id": 2199651696, "lat": 41.8574916, "lon": -87.6645654}, {"type": "node", "id": 2199651845, "lat": 41.857504, "lon": -87.6645652}, {"type": "node", "id": 2199651851, "lat": 41.8575042, "lon": -87.6645964}, {"type": "node", "id": 2199651883, "lat": 41.8575065, "lon": -87.6645157}, {"type": "node", "id": 2199651889, "lat": 41.8575066, "lon": -87.6645395}, {"type": "node", "id": 2199652436, "lat": 41.8575573, "lon": -87.6676041}, {"type": "node", "id": 2199652486, "lat": 41.8575596, "lon": -87.6675215}, {"type": "node", "id": 2199653406, "lat": 41.8576589, "lon": -87.6676067}, {"type": "node", "id": 2199653408, "lat": 41.8576611, "lon": -87.6675241}, {"type": "node", "id": 2199653459, "lat": 41.8577, "lon": -87.6645283}, {"type": "node", "id": 2199653460, "lat": 41.8577004, "lon": -87.6645981}, {"type": "node", "id": 3605861066, "lat": 41.8539984, "lon": -87.7125145}, {"type": "node", "id": 3919513824, "lat": 41.8578685, "lon": -87.6708525, "tags": {"amenity": "restaurant", "name": "Taqueria El Mezquite"}}, {"type": "node", "id": 4020565477, "lat": 41.8614799, "lon": -87.6693257}, {"type": "node", "id": 4075429624, "lat": 41.856988, "lon": -87.6621299, "tags": {"amenity": "restaurant", "name": "La Casa del Pueblo Taqueria"}}, {"type": "node", "id": 4075429625, "lat": 41.8553587, "lon": -87.6630543, "tags": {"amenity": "restaurant", "name": "Taqueria El Milagro"}}, {"type": "node", "id": 5791054158, "lat": 41.8547478, "lon": -87.663475, "tags": {"addr:city": "Chicago", "addr:housenumber": "2011", "addr:postcode": "60608", "addr:state": "IL", "addr:street": "South Laflin Street", "amenity": "pub", "name": "Alulu Brewery & Pub", "phone": "+1-312-600-9865", "website": "http://www.alulubrew.com/"}}, {"type": "node", "id": 5928912597, "lat": 41.8577741, "lon": -87.660619, "tags": {"addr:city": "Chicago", "addr:housenumber": "1345", "addr:postcode": "60608", "addr:state": "IL", "addr:street": "West 18th Street", "amenity": "bar", "brewery": "yes", "name": "Harbee Liquor & Tavern", "phone": "+1-312-733-0333"}}, {"type": "node", "id": 6126571201, "lat": 41.8574586, "lon": -87.6663934, "tags": {"addr:city": "Chicago", "addr:housenumber": "1808", "addr:postcode": "60608", "addr:state": "IL", "addr:street": "South Ashland Avenue", "amenity": "restaurant", "cuisine": "mexican;carnitas", "drink:alcohol": "no", "name": "Sabas Vega", "phone": "+1 312-666-5180", "website": "https://donrafarestaurants.com/sabasvega/"}}, {"type": "node", "id": 6126580564, "lat": 41.8578806, "lon": -87.6702407, "tags": {"addr:city": "Chicago", "addr:housenumber": "1738", "addr:postcode": "60608", "addr:state": "IL", "addr:street": "West 18th Street", "amenity": "cafe", "cuisine": "coffee_shop", "name": "Cafe Mestizo", "phone": "+1 312-425-5724"}}, {"type": "node", "id": 6251767399, "lat": 41.8580855, "lon": -87.6709499, "tags": {"addr:city": "Chicago", "addr:housenumber": "1758", "addr:postcode": "60608", "addr:state": "IL", "addr:street": "West 18th Street", "amenity": "restaurant", "name": "5 Rabanitos Restaurante and Taqueria", "phone": "+1-312-285-2710", "website": "https://5rabanitosdotcom.wordpress.com/"}}, {"type": "node", "id": 6280472914, "lat": 41.8548431, "lon": -87.6684053, "tags": {"addr:city": "Chicago", "addr:housenumber": "1659", "addr:postcode": "60608", "addr:state": "IL", "addr:street": "West Cullerton Street", "amenity": "bar", "name": "Caminos De Michoacan Bar", "phone": "+1-312-226-0687", "website": "https://www.tpskaraoke.com/karaoke-fridays-caminos-de-michoacan-bar"}}, {"type": "node", "id": 6280484810, "lat": 41.8579942, "lon": -87.6642865, "tags": {"addr:city": "Chicago", "addr:housenumber": "1510", "addr:postcode": "60608", "addr:state": "IL", "addr:street": "West 18th Street", "amenity": "restaurant", "name": "Canton Regio", "phone": "+1-312-733-3045", "website": "https://cantonregio.business.site/"}}, {"type": "node", "id": 6280524453, "lat": 41.8575892, "lon": -87.6697952, "tags": {"addr:city": "Chicago", "addr:housenumber": "1725", "addr:postcode": "60608", "addr:state": "IL", "addr:street": "West 18th Street", "amenity": "restaurant", "name": "Carnitas Uruapan Restaurant", "phone": "+1-312-226-2654", "website": "http://www.carnitasuruapanchi.com/"}}, {"type": "node", "id": 6285868671, "lat": 41.8553229, "lon": -87.6630105, "tags": {"addr:city": "Chicago", "addr:housenumber": "1972", "addr:postcode": "60608", "addr:state": "IL", "addr:street": "South Blue Island Avenue", "amenity": "restaurant", "name": "El Milagro Tortilla", "phone": "+1-312-421-7443", "website": "http://www.el-milagro.com/"}}, {"type": "node", "id": 6291551593, "lat": 41.8580305, "lon": -87.6634252, "tags": {"addr:city": "Chicago", "addr:housenumber": "1454", "addr:postcode": "60608", "addr:state": "IL", "addr:street": "West 18th Street", "amenity": "restaurant", "name": "Frida Room", "phone": "+1-312-631-3620"}}, {"type": "node", "id": 6300146985, "lat": 41.8575391, "lon": -87.6697878, "tags": {"addr:city": "Chicago", "addr:housenumber": "1727", "addr:postcode": "60608", "addr:state": "IL", "addr:street": "West 18th Street", "amenity": "cafe", "name": "INTERSECT", "phone": "+1-312-846-6805", "website": "https://www.intersectcoffee.com/"}}, {"type": "node", "id": 6303127333, "lat": 41.8579759, "lon": -87.6655859, "tags": {"addr:city": "Chicago", "addr:housenumber": "1544", "addr:postcode": "60608", "addr:state": "IL", "addr:street": "West 18th Street", "amenity": "restaurant", "name": "Taqueria Los Comales 3", "phone": "+1-312-666-2251", "website": "https://www.loscomales.com/"}}, {"type": "node", "id": 6305247842, "lat": 41.8544099, "lon": -87.6757334, "tags": {"addr:city": "Chicago", "addr:housenumber": "2015", "addr:postcode": "60608", "addr:state": "IL", "addr:street": "South Damen Avenue", "amenity": "bar", "name": "The Barrel", "phone": "+1-312-754-0156"}}, {"type": "node", "id": 6306942282, "lat": 41.8586774, "lon": -87.6606638, "tags": {"addr:city": "Chicago", "addr:housenumber": "1640", "addr:postcode": "60608", "addr:state": "IL", "addr:street": "South Blue Island Avenue", "amenity": "bar", "name": "Twisted Cantina", "phone": "+1-312-265-0923", "website": "http://twistedcantina.com/"}}, {"type": "node", "id": 6315605303, "lat": 41.857978, "lon": -87.6680425, "tags": {"addr:city": "Chicago", "addr:housenumber": "1646", "addr:postcode": "60608", "addr:state": "IL", "addr:street": "West 18th Street", "amenity": "restaurant", "name": "The Jibarito Stop", "phone": "+1-312-988-0585", "website": "https://thejibaritostop.com/Home/HomeManager"}}, {"type": "node", "id": 6315616974, "lat": 41.8581626, "lon": -87.6599082, "tags": {"addr:city": "Chicago", "addr:housenumber": "1324", "addr:postcode": "60608", "addr:state": "IL", "addr:street": "West 18th Street", "amenity": "cafe", "name": "The Juice House", "phone": "+1-312-846-6844"}}, {"type": "node", "id": 6317051145, "lat": 41.8574736, "lon": -87.6692665, "tags": {"addr:city": "Chicago", "addr:housenumber": "1711", "addr:postcode": "60608", "addr:state": "IL", "addr:street": "West 18th Street", "amenity": "cafe", "name": "Xurro", "phone": "+1-773-823-9571", "website": "https://www.churrofactory.com/"}}, {"type": "node", "id": 6319862087, "lat": 41.8546674, "lon": -87.6760984, "tags": {"addr:city": "Chicago", "addr:housenumber": "2010", "addr:postcode": "60608", "addr:state": "IL", "addr:street": "South Damen Avenue", "amenity": "cafe", "name": "L Cafecito Jumping Bean", "phone": "+1-312-366-2930", "website": "https://cafejumpingbean.wordpress.com/menu-2/"}}, {"type": "node", "id": 6321541517, "lat": 41.8514785, "lon": -87.6781294, "tags": {"addr:city": "Chicago", "addr:housenumber": "2058", "addr:postcode": "60608", "addr:state": "IL", "addr:street": "West 22nd Place", "amenity": "bar", "name": "Martin\u2019s Corner", "phone": "+1-773-847-5515"}}, {"type": "way", "id": 56234257, "nodes": [736014663, 258944287, 4020565477, 706905361, 258944288, 1280924015, 258944289, 258944290, 1280923959, 258944291, 1280923958, 258944292, 258944293, 258944294, 1280923910, 258944295, 258944296, 1280924189, 258944297, 1280923896, 258944298, 2073720879, 258944299, 1280924126, 2073693291, 1280924167, 2073693284, 1280923911, 258944300, 1280924087, 1280923981, 1280924138, 258944301, 1280924151, 1280923960, 1280924147, 1280924010, 1280924006, 258944303, 2073659834, 1280923895, 2073659839, 258944304, 1280923903, 2073635538, 2073635528, 1280924067, 2073635539, 258944305, 1280923976, 1280924154, 1280923935, 1280924079, 1280924110, 258944306, 258944307], "tags": {"bridge": "yes", "electrified": "rail", "frequency": "0", "gauge": "1435", "layer": "2", "name": "Cermak Branch", "old_name": "Douglas Park Branch", "oneway": "yes", "operator": "Chicago Transit Authority", "railway": "subway", "voltage": "600"}}, {"type": "way", "id": 112753662, "nodes": [1280924166, 1280924187, 1280923919, 1280924155, 1280923924, 1280923928, 1280924103, 2080123186, 1280924093, 1280923974, 1280923965, 1280924026, 1280924017, 2080123162, 1280924171, 3605861066, 1280924024, 1280923905, 1280924064, 1280924130, 1280924169, 1280924178, 1280924098, 2080123157, 1280923920, 1280924116, 1280923979, 1280924180, 1280923956, 1280924070, 1280924149, 1280924023, 2080123190, 1280924001, 1280924068, 1280923909, 1280923963, 1280923955, 1280924145, 1280923933, 1280924124, 2080123175, 1280924060, 1280924062, 1280924111, 2073732519, 1280924161, 1280924112, 1280923941, 1280924123, 1280924139, 1280924162, 1280924119, 1280923950, 1280923912, 1280924066, 1280924095, 1280924030, 1280924100, 1280924157, 1280923994, 2080150517, 1280923940, 1280923954, 1280923931, 1280924020, 1280924048, 1280923986, 2080150458, 1280924055, 736014737, 736014738], "tags": {"bridge": "yes", "electrified": "rail", "frequency": "0", "gauge": "1435", "layer": "2", "name": "Cermak Branch", "old_name": "Douglas Park Branch", "oneway": "yes", "operator": "Chicago Transit Authority", "railway": "subway", "voltage": "600"}}, {"type": "way", "id": 209782483, "nodes": [2199651694, 2199651696, 2199651845, 2199651851, 2199653460, 2199653459, 2199651883, 2199651889, 2199651694], "tags": {"addr:city": "Chicago", "addr:housenumber": "1519", "addr:postcode": "60608", "addr:state": "IL", "addr:street": "West 18th Street", "addr:street:name": "18th", "addr:street:prefix": "West", "addr:street:type": "Street", "amenity": "restaurant", "building": "yes", "building:levels": "2", "chicago:building_id": "378444", "name": "Pl-zen", "phone": "+1-312-733-0248", "website": "http://pl-zen.com/"}}, {"type": "way", "id": 209782710, "nodes": [2199652436, 2199653406, 2199653408, 2199652486, 2199652436], "tags": {"addr:housenumber": "1635", "addr:street": "West 18th Street", "addr:street:name": "18th", "addr:street:prefix": "West", "addr:street:type": "Street", "amenity": "cafe", "building": "yes", "chicago:building_id": "378524", "name": "Monsivais Cafe"}}]}