{"version": 0.6, "generator": "Overpass API 0.7.56.3 eb200aeb", "osm3s": {"timestamp_osm_base": "2020-07-04T03:19:02Z", "copyright": "The data included in this document is from www.openstreetmap.org. The data is made available under ODbL."}, "elements": [{"type": "node", "id": 258963141, "lat": 41.7839261, "lon": -87.6180479}, {"type": "node", "id": 258963142, "lat": 41.7809151, "lon": -87.6179735, "tags": {"railway": "railway_crossing"}}, {"type": "node", "id": 261137171, "lat": 41.789634, "lon": -87.5947984}, {"type": "node", "id": 261139500, "lat": 41.7896618, "lon": -87.5915553}, {"type": "node", "id": 261139501, "lat": 41.7896475, "lon": -87.593169}, {"type": "node", "id": 261148611, "lat": 41.7858999, "lon": -87.6028092}, {"type": "node", "id": 261148612, "lat": 41.7840862, "lon": -87.6027672}, {"type": "node", "id": 261157995, "lat": 41.7858843, "lon": -87.6044301}, {"type": "node", "id": 261157996, "lat": 41.7840685, "lon": -87.6043879}, {"type": "node", "id": 261176766, "lat": 41.7859156, "lon": -87.6011868}, {"type": "node", "id": 261176767, "lat": 41.7841039, "lon": -87.6011387}, {"type": "node", "id": 261192484, "lat": 41.7859533, "lon": -87.5979528}, {"type": "node", "id": 261192485, "lat": 41.7841392, "lon": -87.5979008}, {"type": "node", "id": 261192510, "lat": 41.7932495, "lon": -87.5981069}, {"type": "node", "id": 261192511, "lat": 41.7914254, "lon": -87.5980749}, {"type": "node", "id": 261202782, "lat": 41.7914457, "lon": -87.59646, "tags": {"highway": "traffic_signals"}}, {"type": "node", "id": 261217408, "lat": 41.7841214, "lon": -87.599535}, {"type": "node", "id": 261217409, "lat": 41.7841567, "lon": -87.5962901, "tags": {"highway": "traffic_signals"}}, {"type": "node", "id": 261266040, "lat": 41.7858705, "lon": -87.6058578}, {"type": "node", "id": 261266042, "lat": 41.7860071, "lon": -87.5963328}, {"type": "node", "id": 706931189, "lat": 41.7804924, "lon": -87.6179576}, {"type": "node", "id": 706931190, "lat": 41.7804193, "lon": -87.6179446}, {"type": "node", "id": 706931191, "lat": 41.7803171, "lon": -87.6178691}, {"type": "node", "id": 706931192, "lat": 41.780269, "lon": -87.6178036}, {"type": "node", "id": 706931193, "lat": 41.780239, "lon": -87.6177257}, {"type": "node", "id": 706931194, "lat": 41.7802207, "lon": -87.6175599}, {"type": "node", "id": 706931195, "lat": 41.7802472, "lon": -87.6164949}, {"type": "node", "id": 706931197, "lat": 41.7804127, "lon": -87.6078871, "tags": {"railway": "switch"}}, {"type": "node", "id": 706931198, "lat": 41.7804471, "lon": -87.6052176, "tags": {"railway": "buffer_stop"}}, {"type": "node", "id": 1283483686, "lat": 41.7874445, "lon": -87.6181801, "tags": {"railway": "switch"}}, {"type": "node", "id": 1283483701, "lat": 41.7873783, "lon": -87.6181313, "tags": {"railway": "switch"}}, {"type": "node", "id": 1291153183, "lat": 41.7847651, "lon": -87.6181073}, {"type": "node", "id": 1291153186, "lat": 41.7820611, "lon": -87.6180456}, {"type": "node", "id": 1291153189, "lat": 41.7829336, "lon": -87.6180625, "tags": {"railway": "switch"}}, {"type": "node", "id": 1291153198, "lat": 41.7803778, "lon": -87.6059718, "tags": {"name": "Cottage Grove", "network": "CTA", "operator": "Chicago Transit Authority", "public_transport": "stop_position", "railway": "stop", "subway": "yes"}}, {"type": "node", "id": 1291153202, "lat": 41.780579, "lon": -87.618008}, {"type": "node", "id": 1291153211, "lat": 41.78039, "lon": -87.6052152, "tags": {"railway": "buffer_stop"}}, {"type": "node", "id": 1291153218, "lat": 41.780223, "lon": -87.6178551}, {"type": "node", "id": 1291153222, "lat": 41.780283, "lon": -87.6179329}, {"type": "node", "id": 1291153234, "lat": 41.780467, "lon": -87.618}, {"type": "node", "id": 1291153256, "lat": 41.7862671, "lon": -87.6181475}, {"type": "node", "id": 1291153258, "lat": 41.7804198, "lon": -87.6072227, "tags": {"railway": "switch"}}, {"type": "node", "id": 1291153279, "lat": 41.780173, "lon": -87.6176754}, {"type": "node", "id": 1291153297, "lat": 41.7803482, "lon": -87.6078432, "tags": {"railway": "switch"}}, {"type": "node", "id": 1291153329, "lat": 41.781073, "lon": -87.6180214}, {"type": "node", "id": 1291153334, "lat": 41.780365, "lon": -87.6179839}, {"type": "node", "id": 1291153371, "lat": 41.7872591, "lon": -87.6181582}, {"type": "node", "id": 1291153381, "lat": 41.780193, "lon": -87.6163129}, {"type": "node", "id": 1291153383, "lat": 41.7837851, "lon": -87.6180831}, {"type": "node", "id": 1291153396, "lat": 41.780356, "lon": -87.6072567, "tags": {"railway": "switch"}}, {"type": "node", "id": 1291153401, "lat": 41.7807673, "lon": -87.6180113, "tags": {"railway": "railway_crossing"}}, {"type": "node", "id": 1291153429, "lat": 41.7801905, "lon": -87.6177708}, {"type": "node", "id": 1291153438, "lat": 41.780171, "lon": -87.617544}, {"type": "node", "id": 1291153440, "lat": 41.7802304, "lon": -87.6143512}, {"type": "node", "id": 1395196786, "lat": 41.7859795, "lon": -87.596604}, {"type": "node", "id": 1569129786, "lat": 41.7923579, "lon": -87.5980945}, {"type": "node", "id": 1587772175, "lat": 41.7886413, "lon": -87.5915309}, {"type": "node", "id": 1587883237, "lat": 41.7859329, "lon": -87.5995821, "tags": {"crossing": "no", "highway": "crossing"}}, {"type": "node", "id": 1589258704, "lat": 41.7840598, "lon": -87.6051872}, {"type": "node", "id": 1589258737, "lat": 41.7852525, "lon": -87.605859}, {"type": "node", "id": 1589258757, "lat": 41.7852666, "lon": -87.6051983}, {"type": "node", "id": 1589300557, "lat": 41.7851017, "lon": -87.5963123}, {"type": "node", "id": 1658287430, "lat": 41.7852235, "lon": -87.5963152}, {"type": "node", "id": 1674040525, "lat": 41.7896504, "lon": -87.5928392}, {"type": "node", "id": 1678655361, "lat": 41.7859378, "lon": -87.5992842}, {"type": "node", "id": 1678655478, "lat": 41.7859433, "lon": -87.5988461}, {"type": "node", "id": 1685262396, "lat": 41.7904707, "lon": -87.5956245}, {"type": "node", "id": 1685262407, "lat": 41.7896407, "lon": -87.5939861}, {"type": "node", "id": 1685262428, "lat": 41.7896269, "lon": -87.5956037}, {"type": "node", "id": 1685262461, "lat": 41.7914529, "lon": -87.5956491}, {"type": "node", "id": 1685296310, "lat": 41.7914355, "lon": -87.5972717}, {"type": "node", "id": 1929835281, "lat": 41.784095, "lon": -87.6019586}, {"type": "node", "id": 1929835313, "lat": 41.7841481, "lon": -87.5970796}, {"type": "node", "id": 1929835332, "lat": 41.7841125, "lon": -87.6003491}, {"type": "node", "id": 1929835339, "lat": 41.7840772, "lon": -87.6035912}, {"type": "node", "id": 1929835452, "lat": 41.7841303, "lon": -87.5987184}, {"type": "node", "id": 2039152472, "lat": 41.7804357, "lon": -87.6059729, "tags": {"name": "Cottage Grove", "network": "CTA", "operator": "Chicago Transit Authority", "public_transport": "stop_position", "railway": "stop", "subway": "yes"}}, {"type": "node", "id": 2039152475, "lat": 41.7803831, "lon": -87.6075409, "tags": {"railway": "railway_crossing"}}, {"type": "node", "id": 2039159452, "lat": 41.7802278, "lon": -87.617233, "tags": {"railway": "switch"}}, {"type": "node", "id": 2040074950, "lat": 41.7827551, "lon": -87.6180192, "tags": {"railway": "railway_crossing"}}, {"type": "node", "id": 2040074961, "lat": 41.7803632, "lon": -87.6179108}, {"type": "node", "id": 2040074965, "lat": 41.7802263, "lon": -87.6176399}, {"type": "node", "id": 2040075009, "lat": 41.7827271, "lon": -87.6180585, "tags": {"railway": "switch"}}, {"type": "node", "id": 2040075040, "lat": 41.7802058, "lon": -87.6156434, "tags": {"name": "King Drive", "network": "CTA", "operator": "Chicago Transit Authority", "public_transport": "stop_position", "railway": "stop", "subway": "yes"}}, {"type": "node", "id": 2040075096, "lat": 41.7825511, "lon": -87.6180142, "tags": {"railway": "railway_crossing"}}, {"type": "node", "id": 2040075099, "lat": 41.7802635, "lon": -87.6156502, "tags": {"name": "King Drive", "network": "CTA", "operator": "Chicago Transit Authority", "public_transport": "stop_position", "railway": "stop", "subway": "yes"}}, {"type": "node", "id": 2372687526, "lat": 41.7858798, "lon": -87.6048969}, {"type": "node", "id": 2372687562, "lat": 41.7858803, "lon": -87.6048432}, {"type": "node", "id": 2380367815, "lat": 41.7877878, "lon": -87.6059295}, {"type": "node", "id": 2380367821, "lat": 41.7912756, "lon": -87.606037}, {"type": "node", "id": 2406147378, "lat": 41.7859199, "lon": -87.6008144}, {"type": "node", "id": 3034950802, "lat": 41.7803531, "lon": -87.5965069, "tags": {"addr:city": "Chicago", "addr:housenumber": "6300", "addr:postcode": "60637", "addr:street": "South Woodlawn Avenue", "amenity": "cafe", "cuisine": "coffee_shop", "name": "Robust Coffee Lounge", "phone": "+1-773-891-4240", "website": "http://robustcoffeelounge.com/", "wifi": "free"}}, {"type": "node", "id": 3235484969, "lat": 41.7858833, "lon": -87.6045285, "tags": {"highway": "crossing"}}, {"type": "node", "id": 3235484971, "lat": 41.7859502, "lon": -87.5982298, "tags": {"crossing": "no", "highway": "crossing"}}, {"type": "node", "id": 3259301888, "lat": 41.7949312, "lon": -87.5981693}, {"type": "node", "id": 3378979829, "lat": 41.78597, "lon": -87.5962725}, {"type": "node", "id": 3378979830, "lat": 41.78423, "lon": -87.5962296}, {"type": "node", "id": 3378979831, "lat": 41.78427, "lon": -87.5923243}, {"type": "node", "id": 3378979832, "lat": 41.784272, "lon": -87.5922693}, {"type": "node", "id": 3378979833, "lat": 41.78433, "lon": -87.5922184}, {"type": "node", "id": 3378979834, "lat": 41.784916, "lon": -87.5922291}, {"type": "node", "id": 3378979835, "lat": 41.784924, "lon": -87.5914862}, {"type": "node", "id": 3378979837, "lat": 41.786016, "lon": -87.591513}, {"type": "node", "id": 3378979838, "lat": 41.785984, "lon": -87.5945519}, {"type": "node", "id": 3378979839, "lat": 41.785972, "lon": -87.5959225}, {"type": "node", "id": 4047380721, "lat": 41.7841023, "lon": -87.6012858}, {"type": "node", "id": 4047380722, "lat": 41.7841053, "lon": -87.6010158}, {"type": "node", "id": 4047380730, "lat": 41.7859146, "lon": -87.6012933, "tags": {"highway": "crossing"}}, {"type": "node", "id": 4047380731, "lat": 41.7859169, "lon": -87.6010783, "tags": {"highway": "crossing"}}, {"type": "node", "id": 4047380732, "lat": 41.785994, "lon": -87.5964417, "tags": {"highway": "crossing"}}, {"type": "node", "id": 4584322194, "lat": 41.7837978, "lon": -87.6130835, "tags": {"addr:city": "Chicago", "addr:housenumber": "501", "addr:postcode": "60637", "addr:state": "IL", "addr:street": "East 61st Street", "amenity": "cafe", "name": "Greenline Coffee", "phone": "+1-773-729-2282", "website": "https://www.greenlinecoffee.net/"}}, {"type": "node", "id": 4706138495, "lat": 41.7842732, "lon": -87.6051945}, {"type": "node", "id": 4729938691, "lat": 41.7900203, "lon": -87.5961366, "tags": {"addr:city": "Chicago", "addr:housenumber": "5751", "addr:postcode": "60637", "addr:state": "IL", "addr:street": "South Woodlawn Avenue", "amenity": "cafe", "name": "Plein Air Cafe", "opening_hours": "Mo-Fr 07:00-20:00; Sa-Su 08:00-18:00", "phone": "+1-773-966-7531", "website": "http://www.pleinaircafe.co/"}}, {"type": "node", "id": 5243143548, "lat": 41.7897081, "lon": -87.6017075, "tags": {"addr:city": "Chicago", "addr:housenumber": "970", "addr:postcode": "60637", "addr:state": "IL", "addr:street": "East 58th Street", "amenity": "cafe", "brand": "Starbucks", "brand:wikidata": "Q37158", "brand:wikipedia": "en:Starbucks", "cuisine": "coffee_shop", "name": "Starbucks", "official_name": "Starbucks Coffee", "operator": "Starbucks", "takeaway": "yes", "website": "https://www.starbucks.com/"}}, {"type": "node", "id": 5322743176, "lat": 41.7925886, "lon": -87.6060695}, {"type": "node", "id": 5394546338, "lat": 41.7859224, "lon": -87.5963316, "tags": {"highway": "crossing"}}, {"type": "node", "id": 5545781672, "lat": 41.7879529, "lon": -87.5902808}, {"type": "node", "id": 5545781673, "lat": 41.7884906, "lon": -87.5915292}, {"type": "node", "id": 5545781674, "lat": 41.7885077, "lon": -87.5902419}, {"type": "node", "id": 5545781677, "lat": 41.788231, "lon": -87.5902281}, {"type": "node", "id": 5545781678, "lat": 41.7882433, "lon": -87.589449}, {"type": "node", "id": 5546046954, "lat": 41.7884909, "lon": -87.5915063}, {"type": "node", "id": 5546046956, "lat": 41.7879605, "lon": -87.5894438}, {"type": "node", "id": 5546076600, "lat": 41.7905388, "lon": -87.5956262}, {"type": "node", "id": 5622914298, "lat": 41.794856, "lon": -87.6060849}, {"type": "node", "id": 5773699078, "lat": 41.7889997, "lon": -87.5999703, "tags": {"addr:city": "Chicago", "addr:housenumber": "1025", "addr:postcode": "60637", "addr:state": "IL", "addr:street": "East 58th Street", "addr:unit": "basement", "amenity": "cafe", "cuisine": "coffee_shop;sandwich", "name": "Grounds of Being"}}, {"type": "node", "id": 5827271177, "lat": 41.7859429, "lon": -87.5988791, "tags": {"bus": "yes", "local_ref": "17057", "name": "1111 E 60th Street", "network": "CTA", "operator": "Chicago Transit Authority", "public_transport": "stop_position"}}, {"type": "node", "id": 5827271178, "lat": 41.7859201, "lon": -87.6007936, "tags": {"bus": "yes", "local_ref": "14019", "name": "60th Street & Ellis", "network": "CTA", "operator": "Chicago Transit Authority", "public_transport": "stop_position"}}, {"type": "node", "id": 5827271179, "lat": 41.7859174, "lon": -87.6010195, "tags": {"bus": "yes", "local_ref": "14032", "name": "60th Street & Ellis", "network": "CTA", "operator": "Chicago Transit Authority", "public_transport": "stop_position"}}, {"type": "node", "id": 5827271180, "lat": 41.785893, "lon": -87.6035227, "tags": {"bus": "yes", "local_ref": "18050", "name": "915 E 60th Street", "network": "CTA", "operator": "Chicago Transit Authority", "public_transport": "stop_position"}}, {"type": "node", "id": 5827286705, "lat": 41.7859636, "lon": -87.5972658, "tags": {"bus": "yes", "local_ref": "14020", "name": "60th Street & University", "network": "CTA", "operator": "Chicago Transit Authority", "public_transport": "stop_position"}}, {"type": "node", "id": 5827286706, "lat": 41.7859506, "lon": -87.5981978, "tags": {"bus": "yes", "local_ref": "17903", "name": "60th Street & University", "network": "CTA", "operator": "Chicago Transit Authority", "public_transport": "stop_position"}}, {"type": "node", "id": 5827302680, "lat": 41.7859877, "lon": -87.5965023, "tags": {"bus": "yes", "local_ref": "15433", "name": "60th Street & Woodlawn", "network": "CTA", "operator": "Chicago Transit Authority", "public_transport": "stop_position"}}, {"type": "node", "id": 5839695413, "lat": 41.780221, "lon": -87.6148427}, {"type": "node", "id": 5839695414, "lat": 41.7801898, "lon": -87.6164923}, {"type": "node", "id": 5839695415, "lat": 41.7802472, "lon": -87.6164938}, {"type": "node", "id": 5839695416, "lat": 41.780279, "lon": -87.6148443}, {"type": "node", "id": 5885767564, "lat": 41.7949763, "lon": -87.5981734}, {"type": "node", "id": 5935554925, "lat": 41.780531, "lon": -87.6056016, "tags": {"addr:city": "Chicago", "addr:housenumber": "800", "addr:postcode": "60637", "addr:street": "East 63rd Street", "amenity": "restaurant", "cuisine": "american", "name": "Daley's Restaurant", "website": "https://www.daleysrestaurant.com/"}}, {"type": "node", "id": 6294166287, "lat": 41.7879781, "lon": -87.5992704, "tags": {"addr:city": "Chicago", "addr:housenumber": "1116", "addr:postcode": "60637", "addr:state": "IL", "addr:street": "East 59th Street", "amenity": "cafe", "name": "Harper Cafe", "phone": "+1-773-702-8787"}}, {"type": "node", "id": 6324493740, "lat": 41.7880323, "lon": -87.5955645, "tags": {"addr:city": "Chicago", "addr:housenumber": "1212", "addr:postcode": "60637", "addr:state": "IL", "addr:street": "East 59th Street", "amenity": "bar", "name": "The University of Chicago Pub", "phone": "+1-773-702-9737", "website": "http://uofcpub.com/"}}, {"type": "node", "id": 6682404925, "lat": 41.785917, "lon": -87.6010719}, {"type": "node", "id": 7211503770, "lat": 41.7851116, "lon": -87.5963125}, {"type": "node", "id": 7244535738, "lat": 41.7889594, "lon": -87.5915385}, {"type": "node", "id": 7608051960, "lat": 41.7873033, "lon": -87.6181634, "tags": {"railway": "railway_crossing"}}, {"type": "way", "id": 56234259, "nodes": [1291153258, 706931197, 5839695416, 2040075099, 5839695415, 706931195, 2039159452, 706931194, 2040074965, 706931193, 706931192, 706931191, 2040074961, 706931190, 706931189, 258963142, 2040075096, 2040074950, 258963141, 1283483701], "tags": {"bridge": "yes", "electrified": "rail", "frequency": "0", "gauge": "1435", "layer": "2", "name": "East 63rd (Jackson Park) Branch", "oneway": "yes", "operator": "Chicago Transit Authority", "railway": "subway", "voltage": "600"}}, {"type": "way", "id": 113890080, "nodes": [1291153211, 1291153198, 1291153396], "tags": {"bridge": "yes", "electrified": "rail", "frequency": "0", "gauge": "1435", "layer": "2", "name": "East 63rd (Jackson Park) Branch", "operator": "Chicago Transit Authority", "railway": "subway", "voltage": "600"}}, {"type": "way", "id": 145510717, "nodes": [261266042, 4047380732, 5827302680, 1395196786, 5827286705, 261192484, 5827286706, 3235484971, 1678655478, 5827271177, 1678655361, 1587883237, 5827271178, 2406147378, 5827271179, 6682404925, 4047380731, 261176766, 4047380730, 261148611, 5827271180, 261157995, 3235484969, 2372687562, 2372687526, 261266040, 1589258737, 1589258757, 4706138495, 1589258704, 261157996, 1929835339, 261148612, 1929835281, 4047380721, 261176767, 4047380722, 1929835332, 261217408, 1929835452, 261192485, 1929835313, 261217409, 1589300557, 7211503770, 1658287430, 5394546338, 261266042], "tags": {"addr:city": "Chicago", "addr:housenumber": "5801", "addr:postcode": "60637", "addr:state": "IL", "addr:street": "South Ellis Avenue", "amenity": "university", "name": "The University of Chicago", "website": "https://uchicago.edu", "wheelchair": "limited"}}, {"type": "way", "id": 145510728, "nodes": [5885767564, 5622914298, 5322743176, 2380367821, 2380367815, 5545781672, 5546046956, 5545781678, 5545781677, 5545781674, 5546046954, 5545781673, 1587772175, 7244535738, 261139500, 1674040525, 261139501, 1685262407, 261137171, 1685262428, 1685262396, 5546076600, 1685262461, 261202782, 1685296310, 261192511, 1569129786, 261192510, 3259301888, 5885767564], "tags": {"addr:city": "Chicago", "addr:housenumber": "5801", "addr:postcode": "60637", "addr:state": "IL", "addr:street": "South Ellis Avenue", "amenity": "university", "name": "The University of Chicago", "phone": "+1 773.702.1234", "website": "https://uchicago.edu", "wikidata": "Q131252", "wikipedia": "en:University of Chicago"}}, {"type": "way", "id": 193406498, "nodes": [1291153258, 2039152475, 1291153297], "tags": {"bridge": "yes", "electrified": "rail", "frequency": "0", "gauge": "1435", "layer": "2", "operator": "Chicago Transit Authority", "railway": "subway", "service": "crossover", "voltage": "600"}}, {"type": "way", "id": 193406504, "nodes": [1291153396, 2039152475, 706931197], "tags": {"bridge": "yes", "electrified": "rail", "frequency": "0", "gauge": "1435", "layer": "2", "operator": "Chicago Transit Authority", "railway": "subway", "service": "crossover", "voltage": "600"}}, {"type": "way", "id": 233996891, "nodes": [1283483686, 7608051960, 1291153371, 1291153256, 1291153183, 1291153383, 1291153189, 2040075009, 1291153186, 1291153329, 1291153401, 1291153202, 1291153234, 1291153334, 1291153222, 1291153218, 1291153429, 1291153279, 1291153438, 5839695414, 1291153381, 2040075040, 5839695413, 1291153440, 1291153297, 1291153396], "tags": {"bridge": "yes", "electrified": "rail", "frequency": "0", "gauge": "1435", "layer": "2", "name": "East 63rd (Jackson Park) Branch", "oneway": "yes", "operator": "Chicago Transit Authority", "railway": "subway", "voltage": "600"}}, {"type": "way", "id": 233996895, "nodes": [1291153258, 2039152472, 706931198], "tags": {"bridge": "yes", "electrified": "rail", "frequency": "0", "gauge": "1435", "layer": "2", "name": "East 63rd (Jackson Park) Branch", "operator": "Chicago Transit Authority", "railway": "subway", "voltage": "600"}}, {"type": "way", "id": 330872732, "nodes": [3378979829, 3378979830, 3378979831, 3378979832, 3378979833, 3378979834, 3378979835, 3378979837, 3378979838, 3378979839, 3378979829], "tags": {"addr:city": "Chicago", "addr:housenumber": "5801", "addr:postcode": "60637", "addr:state": "IL", "addr:street": "South Ellis Avenue", "amenity": "university", "name": "The University of Chicago", "website": "https://uchicago.edu", "wikidata": "Q131252", "wikipedia": "en:University of Chicago"}}]}