{"version": 0.6, "generator": "Overpass API 0.7.56.3 eb200aeb", "osm3s": {"timestamp_osm_base": "2020-07-17T21:20:03Z", "copyright": "The data included in this document is from www.openstreetmap.org. The data is made available under ODbL."}, "elements": [{"type": "node", "id": 1317862245, "lat": 41.9647919, "lon": -87.6858529, "tags": {"amenity": "cafe", "brand": "Starbucks", "brand:wikidata": "Q37158", "brand:wikipedia": "en:Starbucks", "cuisine": "coffee_shop", "name": "Starbucks", "official_name": "Starbucks Coffee", "takeaway": "yes"}}, {"type": "node", "id": 1385119524, "lat": 41.9650343, "lon": -87.6864001, "tags": {"addr:city": "Chicago", "addr:housenumber": "4600", "addr:postcode": "60625", "addr:state": "IL", "addr:street": "North Lincoln Avenue", "amenity": "restaurant", "cuisine": "american", "name": "Fork", "phone": "+1-773-751-1500", "website": "http://forkchicago.net/"}}, {"type": "node", "id": 1557244573, "lat": 41.9648032, "lon": -87.6862189, "tags": {"amenity": "restaurant", "name": "Daily Bar and Grill"}}, {"type": "node", "id": 1557244574, "lat": 41.9650425, "lon": -87.6860231, "tags": {"amenity": "restaurant", "cuisine": "indian", "name": "Essence of India"}}, {"type": "node", "id": 1557244584, "lat": 41.9674616, "lon": -87.687611, "tags": {"addr:city": "Chicago", "addr:housenumber": "4729", "addr:postcode": "60625", "addr:state": "IL", "addr:street": "North Lincoln Avenue", "amenity": "restaurant", "cuisine": "american", "name": "Cafe Selmarie", "phone": "+1-773-989-5595", "website": "http://cafeselmarie.com/"}}, {"type": "node", "id": 1557244593, "lat": 41.9633493, "lon": -87.6853445, "tags": {"addr:city": "Chicago", "addr:housenumber": "4500", "addr:postcode": "60625", "addr:state": "IL", "addr:street": "North Lincoln Avenue", "amenity": "restaurant", "name": "Gideon Welles", "phone": "+1-773-907-2226", "website": "http://gideonchicago.com/"}}, {"type": "node", "id": 1627026644, "lat": 41.9670666, "lon": -87.679341, "tags": {"addr:city": "Chicago", "addr:housenumber": "4700", "addr:postcode": "60625", "addr:state": "IL", "addr:street": "North Damen Avenue", "amenity": "cafe", "name": "The Perfect Cup", "phone": "+1-773-989-4177", "website": "http://perfectcupchicago.com/"}}, {"type": "node", "id": 1719743394, "lat": 41.9637446, "lon": -87.6855507, "tags": {"amenity": "restaurant", "cuisine": "italian", "name": "Due Lire"}}, {"type": "node", "id": 1719743398, "lat": 41.9639939, "lon": -87.685725, "tags": {"addr:city": "Chicago", "addr:housenumber": "4530", "addr:postcode": "60625", "addr:state": "IL", "addr:street": "North Lincoln Avenue", "amenity": "bar", "name": "The Grafton", "phone": "+1-773-271-9000", "website": "https://www.thegrafton.com/"}}, {"type": "node", "id": 1719743446, "lat": 41.9669515, "lon": -87.6672606, "tags": {"amenity": "cafe", "cuisine": "coffee_shop", "name": "Ch'ava... a cafe"}}, {"type": "node", "id": 1719743459, "lat": 41.965015, "lon": -87.6756907, "tags": {"amenity": "restaurant", "cuisine": "italian", "name": "Caro Mio"}}, {"type": "node", "id": 1719743519, "lat": 41.9653337, "lon": -87.6727215, "tags": {"amenity": "restaurant", "cuisine": "sushi", "name": "Fin"}}, {"type": "node", "id": 2196861228, "lat": 41.9635517, "lon": -87.6857981}, {"type": "node", "id": 2196861315, "lat": 41.9635772, "lon": -87.6856967}, {"type": "node", "id": 2196861327, "lat": 41.9635814, "lon": -87.6857169}, {"type": "node", "id": 2196861353, "lat": 41.963588, "lon": -87.6856745}, {"type": "node", "id": 2196861408, "lat": 41.9635989, "lon": -87.6856689}, {"type": "node", "id": 2196861414, "lat": 41.9635999, "lon": -87.6858307}, {"type": "node", "id": 2196861551, "lat": 41.9636233, "lon": -87.6856025}, {"type": "node", "id": 2196861555, "lat": 41.9636242, "lon": -87.6857643}, {"type": "node", "id": 2196861579, "lat": 41.963632, "lon": -87.6856851}, {"type": "node", "id": 2196861620, "lat": 41.9636414, "lon": -87.685663}, {"type": "node", "id": 2196861651, "lat": 41.9636485, "lon": -87.6856978}, {"type": "node", "id": 2196861689, "lat": 41.9636566, "lon": -87.685672}, {"type": "node", "id": 2196861772, "lat": 41.9636773, "lon": -87.6854567}, {"type": "node", "id": 2196862158, "lat": 41.9637242, "lon": -87.6854875}, {"type": "node", "id": 2196877059, "lat": 41.9674433, "lon": -87.6882328}, {"type": "node", "id": 2196877474, "lat": 41.9675074, "lon": -87.6882714}, {"type": "node", "id": 2196877628, "lat": 41.9675108, "lon": -87.688259}, {"type": "node", "id": 2196877665, "lat": 41.9675389, "lon": -87.6879648}, {"type": "node", "id": 2196877836, "lat": 41.9675721, "lon": -87.6882999}, {"type": "node", "id": 2196878328, "lat": 41.9676606, "lon": -87.6880444}, {"type": "node", "id": 2196932933, "lat": 41.975692, "lon": -87.6870174}, {"type": "node", "id": 2196932936, "lat": 41.9756933, "lon": -87.6869954}, {"type": "node", "id": 2196932948, "lat": 41.9756979, "lon": -87.6868445}, {"type": "node", "id": 2196933199, "lat": 41.9758293, "lon": -87.6870252}, {"type": "node", "id": 2196933200, "lat": 41.9758305, "lon": -87.686994}, {"type": "node", "id": 2196933201, "lat": 41.9758352, "lon": -87.6868523}, {"type": "node", "id": 2200916994, "lat": 41.9685628, "lon": -87.6740172}, {"type": "node", "id": 2200917010, "lat": 41.9685654, "lon": -87.6737613}, {"type": "node", "id": 2200917080, "lat": 41.9686022, "lon": -87.6713361}, {"type": "node", "id": 2200917091, "lat": 41.9686053, "lon": -87.6711669}, {"type": "node", "id": 2200917193, "lat": 41.9686489, "lon": -87.6713375}, {"type": "node", "id": 2200917194, "lat": 41.9686491, "lon": -87.6713706}, {"type": "node", "id": 2200917307, "lat": 41.9687151, "lon": -87.6740211}, {"type": "node", "id": 2200917324, "lat": 41.9687191, "lon": -87.6737646}, {"type": "node", "id": 2200917340, "lat": 41.9687287, "lon": -87.6713734}, {"type": "node", "id": 2200917344, "lat": 41.9687298, "lon": -87.6713385}, {"type": "node", "id": 2200917381, "lat": 41.9687463, "lon": -87.6713401}, {"type": "node", "id": 2200917392, "lat": 41.9687494, "lon": -87.6711709}, {"type": "node", "id": 2200917499, "lat": 41.9688156, "lon": -87.6827497}, {"type": "node", "id": 2200917502, "lat": 41.9688176, "lon": -87.68261}, {"type": "node", "id": 2200917928, "lat": 41.9691546, "lon": -87.6827591}, {"type": "node", "id": 2200917932, "lat": 41.9691566, "lon": -87.6826194}, {"type": "node", "id": 2200925529, "lat": 41.9718151, "lon": -87.6791283}, {"type": "node", "id": 2200925539, "lat": 41.9718192, "lon": -87.6788873}, {"type": "node", "id": 2200925875, "lat": 41.9719742, "lon": -87.6791321}, {"type": "node", "id": 2200925896, "lat": 41.9719784, "lon": -87.6788912}, {"type": "node", "id": 2200940301, "lat": 41.9756343, "lon": -87.6792399}, {"type": "node", "id": 2200940309, "lat": 41.9756351, "lon": -87.6791425}, {"type": "node", "id": 2200940323, "lat": 41.9756387, "lon": -87.6790597}, {"type": "node", "id": 2200940325, "lat": 41.9756389, "lon": -87.6790873}, {"type": "node", "id": 2200940338, "lat": 41.9756474, "lon": -87.6791424}, {"type": "node", "id": 2200940339, "lat": 41.9756485, "lon": -87.6790872}, {"type": "node", "id": 2200940433, "lat": 41.9756732, "lon": -87.6790869}, {"type": "node", "id": 2200940436, "lat": 41.9756744, "lon": -87.6790612}, {"type": "node", "id": 2200940455, "lat": 41.9756794, "lon": -87.6789802}, {"type": "node", "id": 2200940488, "lat": 41.9756849, "lon": -87.678743}, {"type": "node", "id": 2200940770, "lat": 41.9757594, "lon": -87.6790456}, {"type": "node", "id": 2200940772, "lat": 41.9757604, "lon": -87.6789831}, {"type": "node", "id": 2200940775, "lat": 41.9757632, "lon": -87.6787458}, {"type": "node", "id": 2200940780, "lat": 41.9757641, "lon": -87.6789132}, {"type": "node", "id": 2200940781, "lat": 41.9757642, "lon": -87.6786815}, {"type": "node", "id": 2200940784, "lat": 41.9757663, "lon": -87.6788138}, {"type": "node", "id": 2200940901, "lat": 41.9758005, "lon": -87.679047}, {"type": "node", "id": 2200940905, "lat": 41.9758008, "lon": -87.6790911}, {"type": "node", "id": 2200941207, "lat": 41.9759087, "lon": -87.67925}, {"type": "node", "id": 2200941229, "lat": 41.9759151, "lon": -87.678919}, {"type": "node", "id": 2200941235, "lat": 41.9759159, "lon": -87.6788197}, {"type": "node", "id": 2200941244, "lat": 41.9759192, "lon": -87.6786872}, {"type": "node", "id": 2200942025, "lat": 41.9761688, "lon": -87.6755422}, {"type": "node", "id": 2200942034, "lat": 41.9761715, "lon": -87.6755219}, {"type": "node", "id": 2200942037, "lat": 41.9761734, "lon": -87.6756193}, {"type": "node", "id": 2200942038, "lat": 41.9761744, "lon": -87.675555}, {"type": "node", "id": 2200942069, "lat": 41.9761851, "lon": -87.6755089}, {"type": "node", "id": 2200942079, "lat": 41.9761961, "lon": -87.6755088}, {"type": "node", "id": 2200942087, "lat": 41.976203, "lon": -87.6755179}, {"type": "node", "id": 2200942145, "lat": 41.9762324, "lon": -87.6756206}, {"type": "node", "id": 2200942172, "lat": 41.9762433, "lon": -87.6756094}, {"type": "node", "id": 2200942190, "lat": 41.9762584, "lon": -87.6756111}, {"type": "node", "id": 2200942197, "lat": 41.9762667, "lon": -87.6756221}, {"type": "node", "id": 2200942315, "lat": 41.9763271, "lon": -87.6756233}, {"type": "node", "id": 2200942320, "lat": 41.9763292, "lon": -87.6755221}, {"type": "node", "id": 2200948353, "lat": 41.9776534, "lon": -87.6679122}, {"type": "node", "id": 2200948373, "lat": 41.9776608, "lon": -87.6682413}, {"type": "node", "id": 2200948910, "lat": 41.9777809, "lon": -87.6679072}, {"type": "node", "id": 2200948926, "lat": 41.9777883, "lon": -87.6682345}, {"type": "node", "id": 2200949127, "lat": 41.9778561, "lon": -87.6679947}, {"type": "node", "id": 2200949157, "lat": 41.9778624, "lon": -87.6682337}, {"type": "node", "id": 2200949338, "lat": 41.9779324, "lon": -87.6682311}, {"type": "node", "id": 2200949352, "lat": 41.9779354, "lon": -87.6679909}, {"type": "node", "id": 2200949373, "lat": 41.9779451, "lon": -87.6792843}, {"type": "node", "id": 2200949385, "lat": 41.9779483, "lon": -87.6791243}, {"type": "node", "id": 2200949394, "lat": 41.9779535, "lon": -87.6793026}, {"type": "node", "id": 2200949437, "lat": 41.9779686, "lon": -87.6793098}, {"type": "node", "id": 2200949760, "lat": 41.9781141, "lon": -87.6793157}, {"type": "node", "id": 2200949768, "lat": 41.9781171, "lon": -87.6791299}, {"type": "node", "id": 2200954935, "lat": 41.9792686, "lon": -87.6677207}, {"type": "node", "id": 2200954996, "lat": 41.9792794, "lon": -87.668173}, {"type": "node", "id": 2200955527, "lat": 41.9794003, "lon": -87.6677157}, {"type": "node", "id": 2200955575, "lat": 41.9794111, "lon": -87.6681679}, {"type": "node", "id": 2276407295, "lat": 41.9667045, "lon": -87.6793194, "tags": {"amenity": "restaurant", "name": "Aroy Thai"}}, {"type": "node", "id": 2293823034, "lat": 41.965037, "lon": -87.6738629, "tags": {"addr:city": "Chicago", "addr:housenumber": "4557", "addr:postcode": "60640", "addr:state": "IL", "addr:street": "North Ravenswood Avenue", "amenity": "bar", "cuisine": "irish", "name": "O'Shaughnessy's", "opening_hours": "Mo-Su 11:00-02:00", "phone": "+1-773-944-9896", "website": "http://www.oshaughnessyschicago.com/"}}, {"type": "node", "id": 2303382277, "lat": 41.9770576, "lon": -87.6792537, "tags": {"addr:city": "Chicago", "addr:housenumber": "5233", "addr:postcode": "60640", "addr:state": "Illinois", "addr:street": "North Damen Avenue", "amenity": "bar", "name": "Leadway Bar & Grill", "phone": "+1-773-728-2663", "website": "http://www.leadwaybar.com/"}}, {"type": "node", "id": 2323580274, "lat": 41.9760684, "lon": -87.6688893, "tags": {"addr:city": "Chicago", "addr:housenumber": "1509", "addr:state": "IL", "addr:street": "West Foster Avenue", "amenity": "restaurant", "cuisine": "lebanese;middle_eastern", "name": "Taste of Lebanon", "phone": "+1-773-334-1600"}}, {"type": "node", "id": 2673354533, "lat": 41.9684173, "lon": -87.6882204, "tags": {"amenity": "restaurant", "cuisine": "italian", "name": "Trattoria Trullo"}}, {"type": "node", "id": 2673354534, "lat": 41.9682471, "lon": -87.6881332, "tags": {"amenity": "restaurant", "cuisine": "greek", "name": "Barba Yianni"}}, {"type": "node", "id": 2969264559, "lat": 41.9680798, "lon": -87.6884053, "tags": {"addr:city": "Chicago", "addr:housenumber": "4752", "addr:postcode": "60625", "addr:street": "North Lincoln Avenue", "amenity": "restaurant", "cuisine": "mexican", "name": "Garcia's", "toilets:wheelchair": "yes", "wheelchair": "yes"}}, {"type": "node", "id": 2969794936, "lat": 41.9779031, "lon": -87.6685295, "tags": {"amenity": "restaurant", "name": "Lady Gregory's", "smoking": "no", "wheelchair": "yes"}}, {"type": "node", "id": 2969794937, "lat": 41.9781363, "lon": -87.6685161, "tags": {"amenity": "cafe", "brand": "Starbucks", "brand:wikidata": "Q37158", "brand:wikipedia": "en:Starbucks", "cuisine": "coffee_shop", "name": "Starbucks", "official_name": "Starbucks Coffee", "takeaway": "yes"}}, {"type": "node", "id": 3015681544, "lat": 41.9783825, "lon": -87.6684939, "tags": {"amenity": "restaurant", "name": "Acre"}}, {"type": "node", "id": 3015683269, "lat": 41.9764623, "lon": -87.6685637, "tags": {"amenity": "restaurant", "cuisine": "thai", "name": "Polygon Cafe"}}, {"type": "node", "id": 3015683270, "lat": 41.9765959, "lon": -87.668561, "tags": {"addr:city": "Chicago", "addr:housenumber": "5210", "addr:postcode": "60640", "addr:state": "IL", "addr:street": "North Clark Street", "amenity": "bar", "name": "Simon's Tavern", "phone": "+1-773-878-0894"}}, {"type": "node", "id": 3015683272, "lat": 41.9772838, "lon": -87.6685369, "tags": {"addr:city": "Chicago", "addr:housenumber": "5236", "addr:postcode": "60640", "addr:state": "IL", "addr:street": "North Clark Street", "amenity": "restaurant", "name": "Svea Restaurant", "phone": "+1-773-275-7738"}}, {"type": "node", "id": 3015695204, "lat": 41.9781128, "lon": -87.6688473, "tags": {"amenity": "restaurant", "cuisine": "pizza", "name": "Ranalli's"}}, {"type": "node", "id": 3409239467, "lat": 41.9719499, "lon": -87.6790776, "tags": {"addr:city": "Chicago", "addr:housenumber": "4947", "addr:postcode": "60625", "addr:state": "IL", "addr:street": "North Damen Avenue", "amenity": "restaurant", "cuisine": "coffee_shop", "name": "Bang Bang Pie & Biscuits", "phone": "+1-312-644-3524", "website": "https://banderarestaurants.com"}}, {"type": "node", "id": 3409239468, "lat": 41.9718542, "lon": -87.6790803, "tags": {"addr:city": "Chicago", "addr:housenumber": "4943", "addr:postcode": "60625", "addr:state": "IL", "addr:street": "North Damen Avenue", "amenity": "restaurant", "cuisine": "american", "name": "Over Easy Cafe", "phone": "+1-773-506-2605", "website": "https://www.overeasycafechicago.com/"}}, {"type": "node", "id": 3523827330, "lat": 41.9760509, "lon": -87.668588, "tags": {"addr:city": "Chicago", "addr:housenumber": "5158", "addr:postcode": "60640", "addr:state": "IL", "addr:street": "North Clark Street", "amenity": "cafe", "cuisine": "coffee_shop", "internet_access": "wlan", "name": "La Colombe Coffee", "phone": "+1-773-942-7090", "smoking": "no", "website": "https://www.lacolombe.com/"}}, {"type": "node", "id": 3778783072, "lat": 41.966979, "lon": -87.6665877, "tags": {"addr:city": "Chicago", "addr:housenumber": "1463", "addr:postcode": "60640", "addr:state": "IL", "addr:street": "West Leland Avenue", "amenity": "restaurant", "capacity": "55", "cuisine": "Traditional_Catering", "name": "Brix Catering", "website": "http://www.brixcatering.com/"}}, {"type": "node", "id": 3784144930, "lat": 41.968987, "lon": -87.6733021, "tags": {"amenity": "restaurant", "cuisine": "mexican", "name": "Garcia's Restaurant", "takeaway": "yes"}}, {"type": "node", "id": 3891833604, "lat": 41.9766514, "lon": -87.6685596, "tags": {"addr:housenumber": "5212", "addr:postcode": "60640", "addr:street": "North Clark Street", "amenity": "restaurant", "cuisine": "french", "name": "Pastoral", "opening_hours": "Mo-Sa 11:00-21:00; Su 11:00-18:00"}}, {"type": "node", "id": 4069272054, "lat": 41.9669571, "lon": -87.6669218, "tags": {"addr:city": "Chicago", "addr:housenumber": "4659", "addr:postcode": "60640", "addr:state": "IL", "addr:street": "North Clark Street", "amenity": "bar", "name": "Carol's Pub", "phone": "+1-773-754-8000", "source": "http://www.yelp.com/biz/carols-pub-chicago", "website": "https://carolschicago.com/"}}, {"type": "node", "id": 5143534457, "lat": 41.9799271, "lon": -87.6814957, "tags": {"addr:city": "Chicago", "addr:housenumber": "2050", "addr:postcode": "60625", "addr:state": "IL", "addr:street": "West Balmoral Avenue", "amenity": "cafe", "description": "entrance is one block north on Rancher, through the parking lot", "name": "Half Acre Beer Co. Balmoral Tap Room & Garden", "opening_hours": "Th 16:00-23:00; Fr,Sa 11:00-00:00; Su 11:00-22:00", "phone": "+1-773-754-8488", "website": "https://www.halfacrebeer.com/balmoral-brewery/"}}, {"type": "node", "id": 5168250756, "lat": 41.9652111, "lon": -87.6861157, "tags": {"addr:city": "Chicago", "addr:housenumber": "4609", "addr:postcode": "60625", "addr:state": "IL", "addr:street": "North Lincoln Avenue", "amenity": "restaurant", "cuisine": "southern", "description": "Bib Gourmand recommendation", "name": "Luella's Southern Kitchen", "phone": "+1-773-961-8196", "website": "http://luellassouthernkitchen.com/"}}, {"type": "node", "id": 5791106932, "lat": 41.9675954, "lon": -87.6750827, "tags": {"addr:city": "Chicago", "addr:housenumber": "4710", "addr:postcode": "60640", "addr:state": "IL", "addr:street": "North Ravenswood Avenue", "amenity": "restaurant", "cuisine": "american;new_american;american_new", "name": "Band of Bohemia", "phone": "+1-773-271-4710", "website": "http://www.bandofbohemia.com"}}, {"type": "node", "id": 6006397414, "lat": 41.9758946, "lon": -87.6766423, "tags": {"addr:city": "Chicago", "addr:housenumber": "1905", "addr:postcode": "60640", "addr:state": "IL", "addr:street": "West Foster Avenue", "amenity": "restaurant", "cuisine": "mexican", "name": "El Catrin", "outdoor_seating": "yes"}}, {"type": "node", "id": 6261223616, "lat": 41.9801614, "lon": -87.6684822, "tags": {"addr:city": "Chicago", "addr:housenumber": "5402", "addr:postcode": "60640", "addr:state": "IL", "addr:street": "North Clark Street", "amenity": "bar", "name": "Andersonville Brewing Co", "phone": "+1-773-784-6969", "website": "http://andersonvillebrewing.com"}}, {"type": "node", "id": 6265199894, "lat": 41.9745124, "lon": -87.6680529, "tags": {"addr:city": "Chicago", "addr:housenumber": "5101", "addr:postcode": "60640", "addr:state": "IL", "addr:street": "North Clark Street", "amenity": "bar", "name": "Bar Roma", "phone": "+1-773-942-7572", "website": "https://www.barromachicago.com/"}}, {"type": "node", "id": 6267247639, "lat": 41.9794434, "lon": -87.6679813, "tags": {"addr:city": "Chicago", "addr:housenumber": "5347", "addr:postcode": "60640", "addr:state": "IL", "addr:street": "North Clark Street", "amenity": "restaurant", "cuisine": "southern", "name": "Big Jones", "phone": "+1-773-275-5725", "website": "https://bigjoneschicago.com"}}, {"type": "node", "id": 6282458559, "lat": 41.9670373, "lon": -87.6664264, "tags": {"addr:city": "Chicago", "addr:housenumber": "1465", "addr:postcode": "60640", "addr:state": "IL", "addr:street": "West Leland Avenue", "amenity": "restaurant", "name": "Chicago Grilled Cheese & Mac Factory", "phone": "+1-773-253-5322"}}, {"type": "node", "id": 6282835886, "lat": 41.9761285, "lon": -87.6871299, "tags": {"addr:city": "Chicago", "addr:housenumber": "2306", "addr:postcode": "60625", "addr:state": "IL", "addr:street": "West Foster Avenue", "amenity": "bar", "name": "Claddagh Ring", "phone": "+1-773-271-4794"}}, {"type": "node", "id": 6289447621, "lat": 41.9774135, "lon": -87.6685818, "tags": {"addr:city": "Chicago", "addr:housenumber": "5240", "addr:postcode": "60640", "addr:state": "IL", "addr:street": "North Clark Street", "amenity": "bar", "name": "Farraguts", "phone": "+1-773-728-4903"}}, {"type": "node", "id": 6290121597, "lat": 41.979712, "lon": -87.6693329, "tags": {"addr:city": "Chicago", "addr:housenumber": "5357", "addr:postcode": "60640", "addr:state": "IL", "addr:street": "North Ashland Avenue", "amenity": "cafe", "name": "First Slice Pie Cafe", "phone": "+1-773-275-4297", "website": "http://firstslice.org/"}}, {"type": "node", "id": 6291758395, "lat": 41.9643176, "lon": -87.6854858, "tags": {"addr:city": "Chicago", "addr:housenumber": "4539", "addr:postcode": "60625", "addr:state": "IL", "addr:street": "North Lincoln Avenue", "amenity": "restaurant", "name": "Gather", "phone": "+1-773-506-9300", "website": "https://www.gatherchicago.com/"}}, {"type": "node", "id": 6291787688, "lat": 41.9678492, "lon": -87.6877745, "tags": {"addr:city": "Chicago", "addr:housenumber": "4743", "addr:postcode": "60625", "addr:state": "IL", "addr:street": "North Lincoln Avenue", "amenity": "cafe", "name": "Geraldine\u2019s", "phone": "+1-", "toilets:wheelchair": "yes", "wheelchair": "yes"}}, {"type": "node", "id": 6297203326, "lat": 41.9728441, "lon": -87.6677597, "tags": {"addr:city": "Chicago", "addr:housenumber": "5009", "addr:postcode": "60640", "addr:state": "IL", "addr:street": "North Clark Street", "amenity": "restaurant", "name": "Hot\u201dG\u201dDog", "phone": "+1-773-209-3360", "website": "http://www.hotgdog.com/"}}, {"type": "node", "id": 6297501127, "lat": 41.9672827, "lon": -87.6874715, "tags": {"addr:city": "Chicago", "addr:housenumber": "4721", "addr:postcode": "60625", "addr:state": "IL", "addr:street": "North Lincoln Avenue", "amenity": "bar", "name": "H\u00fcettenbar", "phone": "+1-773-561-2507", "website": "http://www.huettenbar.com/"}}, {"type": "node", "id": 6300281117, "lat": 41.9632016, "lon": -87.6737278, "tags": {"addr:city": "Chicago", "addr:housenumber": "1769", "addr:postcode": "60640", "addr:state": "IL", "addr:street": "West Sunnyside Avenue", "amenity": "restaurant", "name": "Spacca Napoli", "phone": "+1-773-878-2420", "website": "https://www.spaccanapolipizzeria.com/"}}, {"type": "node", "id": 6300307387, "lat": 41.9798668, "lon": -87.6806858, "tags": {"addr:city": "Chicago", "addr:housenumber": "2024", "addr:postcode": "60625", "addr:state": "IL", "addr:street": "West Balmoral Avenue", "amenity": "bar", "name": "Spiteful Brewing", "website": "http://www.spitefulbrewing.com/"}}, {"type": "node", "id": 6300865723, "lat": 41.9653736, "lon": -87.6755998, "tags": {"addr:city": "Chicago", "addr:housenumber": "1820", "addr:postcode": "60640", "addr:state": "IL", "addr:street": "West Wilson Avenue", "amenity": "restaurant", "name": "The River Valley Farmer\u2019s Table", "phone": "+1-872-208-3267", "website": "https://rvrvalley.com/rvr-farmers-table"}}, {"type": "node", "id": 6300986791, "lat": 41.9687678, "lon": -87.6677665, "tags": {"addr:city": "Chicago", "addr:housenumber": "4758", "addr:postcode": "60640", "addr:state": "IL", "addr:street": "North Clark Street", "amenity": "cafe", "name": "Ridman\u2019s Coffee", "phone": "+1-773-293-6033", "website": "https://www.ridmanscoffee.com/"}}, {"type": "node", "id": 6303029665, "lat": 41.9758238, "lon": -87.6789867, "tags": {"addr:city": "Chicago", "addr:housenumber": "5131", "addr:postcode": "60625", "addr:state": "IL", "addr:street": "North Damen Avenue", "amenity": "restaurant", "name": "Sweet Virginia\u2019s Kitchen", "phone": "+1-773-654-3223", "website": "https://www.sweetvirginiaskitchen.com/"}}, {"type": "node", "id": 6304215661, "lat": 41.9642595, "lon": -87.6853788, "tags": {"addr:city": "Chicago", "addr:housenumber": "4535", "addr:postcode": "60625", "addr:state": "IL", "addr:street": "North Lincoln Avenue", "amenity": "restaurant", "cuisine": "american;new_american;american_new;vegetarian", "name": "The Warbler", "phone": "+1-773-681-0950", "website": "https://www.thewarblerchicago.com/"}}, {"type": "node", "id": 6304582828, "lat": 41.9662225, "lon": -87.6666746, "tags": {"addr:city": "Chicago", "addr:housenumber": "4631", "addr:postcode": "60640", "addr:state": "IL", "addr:street": "North Clark Street", "amenity": "restaurant", "name": "Tiztal Cafe", "phone": "+1-773-271-4631"}}, {"type": "node", "id": 6305280634, "lat": 41.9731844, "lon": -87.668386, "tags": {"addr:city": "Chicago", "addr:housenumber": "5022", "addr:postcode": "60640", "addr:state": "IL", "addr:street": "North Clark Street", "amenity": "restaurant", "name": "The Bongo Room", "phone": "+1-773-728-7900", "website": "http://thebongoroom.com/"}}, {"type": "node", "id": 6315247400, "lat": 41.9653911, "lon": -87.686206, "tags": {"addr:city": "Chicago", "addr:housenumber": "4613", "addr:postcode": "60625", "addr:state": "IL", "addr:street": "North Lincoln Avenue", "amenity": "cafe", "name": "The Grind"}}, {"type": "node", "id": 6319191938, "lat": 41.9803189, "lon": -87.6679841, "tags": {"addr:city": "Chicago", "addr:housenumber": "5413", "addr:postcode": "60640", "addr:state": "IL", "addr:street": "North Clark Street", "amenity": "cafe", "name": "Kanela Breakfast Club", "phone": "+1-773-594-2874", "website": "http://www.kanelabreakfastclub.com/"}}, {"type": "node", "id": 6319786871, "lat": 41.9786069, "lon": -87.6680331, "tags": {"addr:city": "Chicago", "addr:housenumber": "1553", "addr:postcode": "60640", "addr:state": "IL", "addr:street": "North Clark Street", "amenity": "cafe", "name": "Kopi Travelers Cafe", "phone": "+1-773-989-5674", "website": "https://www.kopicafechicago.com/"}}, {"type": "node", "id": 6319888736, "lat": 41.9648422, "lon": -87.678518, "tags": {"addr:city": "Chicago", "addr:housenumber": "1945", "addr:postcode": "60640", "addr:state": "IL", "addr:street": "West Wilson Avenue", "amenity": "cafe", "name": "La Boulangerie", "phone": "+1-872-208-3479", "website": "http://www.laboulangeriechicago.com/"}}, {"type": "node", "id": 6320619992, "lat": 41.9786276, "lon": -87.6685919, "tags": {"addr:city": "Chicago", "addr:housenumber": "5318", "addr:postcode": "60640", "addr:state": "IL", "addr:street": "North Clark Street", "amenity": "cafe", "name": "Lost Larson Bakery", "phone": "+1-773-944-0587", "website": "https://www.lostlarson.com/"}}, {"type": "node", "id": 6321566926, "lat": 41.9797016, "lon": -87.6687391, "tags": {"addr:city": "Chicago", "addr:housenumber": "1511", "addr:postcode": "60640", "addr:state": "IL", "addr:street": "West Balmoral Avenue", "amenity": "bar", "name": "Marty\u2019s Martini Bar", "phone": "+1-773-944-0082"}}, {"type": "node", "id": 6321606369, "lat": 41.9659551, "lon": -87.6666497, "tags": {"addr:city": "Chicago", "addr:housenumber": "4621", "addr:postcode": "60640", "addr:state": "IL", "addr:street": "North Clark Street", "amenity": "bar", "name": "Max\u2019s Place", "phone": "+1-773-784-3864"}}, {"type": "node", "id": 6321694983, "lat": 41.9796867, "lon": -87.6686245, "tags": {"addr:city": "Chicago", "addr:housenumber": "5358", "addr:postcode": "60640", "addr:state": "IL", "addr:street": "North Clark Street", "amenity": "bar", "name": "Replay - Andersonville", "phone": "+1-773-654-1369", "website": "https://www.replayandersonville.com/"}}, {"type": "node", "id": 6322575080, "lat": 41.9732346, "lon": -87.6678071, "tags": {"addr:city": "Chicago", "addr:housenumber": "5025", "addr:postcode": "60640", "addr:state": "IL", "addr:street": "North Clark Street", "amenity": "bar", "name": "Meeting House Tavern", "phone": "+1-773-696-4211", "website": "http://www.meetinghousetavern.com/"}}, {"type": "node", "id": 6324150054, "lat": 41.9668775, "lon": -87.6871357, "tags": {"addr:city": "Chicago", "addr:housenumber": "4703", "addr:postcode": "60625", "addr:state": "IL", "addr:street": "North Lincoln Avenue", "amenity": "cafe", "name": "Oromo Cafe", "phone": "+1-773-799-1931", "website": "http://www.oromocafechicago.com/"}}, {"type": "node", "id": 6324417621, "lat": 41.9688927, "lon": -87.6842967, "tags": {"addr:city": "Chicago", "addr:housenumber": "2200", "addr:postcode": "60625", "addr:state": "IL", "addr:street": "West Lawrence Avenue", "amenity": "bar", "name": "The Sixth", "phone": "+1-773-645-4949", "website": "https://www.thesixthbar.com/"}}, {"type": "node", "id": 6326148074, "lat": 41.9689558, "lon": -87.6759509, "tags": {"addr:city": "Chicago", "addr:housenumber": "1840", "addr:postcode": "60640", "addr:state": "IL", "addr:street": "West Lawrence Avenue", "amenity": "bar", "name": "Nob\u2019s Wine Bar"}}, {"type": "way", "id": 209477625, "nodes": [2196861228, 2196861414, 2196861555, 2196861651, 2196861579, 2196861620, 2196861689, 2196862158, 2196861772, 2196861551, 2196861408, 2196861353, 2196861315, 2196861327, 2196861228], "tags": {"addr:city": "Chicago", "addr:housenumber": "4518", "addr:postcode": "60625", "addr:state": "IL", "addr:street": "North Lincoln Avenue", "addr:street:name": "Lincoln", "addr:street:prefix": "North", "addr:street:type": "Avenue", "amenity": "restaurant", "building": "yes", "building:levels": "2", "chicago:building_id": "119785", "cuisine": "french", "name": "Bistro Campagne", "phone": "+1-773-271-6100", "website": "http://www.bistrocampagne.com/"}}, {"type": "way", "id": 209478172, "nodes": [2196877836, 2196878328, 2196877665, 2196877059, 2196877474, 2196877628, 2196877836], "tags": {"addr:city": "Chicago", "addr:housenumber": "4736-4738", "addr:postcode": "60625", "addr:state": "IL", "addr:street": "North Lincoln Avenue", "addr:street:name": "Lincoln", "addr:street:prefix": "North", "addr:street:type": "Avenue", "amenity": "cafe", "building": "yes", "chicago:building_id": "857720", "cuisine": "coffee_shop", "internet_access": "wlan", "name": "The Book Cellar", "phone": "+1-773-293-2665", "shop": "books", "website": "https://www.bookcellarinc.com/", "wheelchair": "yes"}}, {"type": "way", "id": 209484318, "nodes": [2196932933, 2196933199, 2196933200, 2196933201, 2196932948, 2196932936, 2196932933], "tags": {"addr:city": "Chicago", "addr:housenumber": "2301", "addr:postcode": "60625", "addr:state": "IL", "addr:street": "West Foster Avenue", "addr:street:name": "Foster", "addr:street:prefix": "West", "addr:street:type": "Avenue", "amenity": "restaurant", "building": "yes", "building:levels": "1", "chicago:building_id": "78108", "name": "Baobab Bbq", "phone": "+1-872-888-8922", "website": "https://www.baobabbbq.com/"}}, {"type": "way", "id": 209938702, "nodes": [2200917080, 2200917193, 2200917194, 2200917340, 2200917344, 2200917381, 2200917392, 2200917091, 2200917080], "tags": {"addr:housenumber": "1701", "addr:street": "West Lawrence Avenue", "addr:street:name": "Lawrence", "addr:street:prefix": "West", "addr:street:type": "Avenue", "amenity": "restaurant", "building": "yes", "building:levels": "1", "chicago:building_id": "103739", "cuisine": "burger", "name": "Byron's Hotdogs"}}, {"type": "way", "id": 209938737, "nodes": [2200916994, 2200917307, 2200917324, 2200917010, 2200916994], "tags": {"addr:city": "Chicago", "addr:housenumber": "1765", "addr:postcode": "60640", "addr:street": "West Lawrence Avenue", "addr:street:name": "Lawrence", "addr:street:prefix": "West", "addr:street:type": "Avenue", "amenity": "restaurant", "building": "yes", "building:levels": "1", "chicago:building_id": "103912", "cuisine": "american", "name": "Golden Nugget Pancake House", "website": "https://goldennuggetpancake.com/"}}, {"type": "way", "id": 209938915, "nodes": [2200917499, 2200917928, 2200917932, 2200917502, 2200917499], "tags": {"addr:housenumber": "2124", "addr:street": "West Lawrence Avenue", "addr:street:name": "Lawrence", "addr:street:prefix": "West", "addr:street:type": "Avenue", "amenity": "restaurant", "building": "yes", "building:levels": "2", "chicago:building_id": "102377", "cuisine": "pizza", "name": "Borelli's Pizza"}}, {"type": "way", "id": 209939969, "nodes": [2200925529, 2200925875, 2200925896, 2200925539, 2200925529], "tags": {"addr:city": "Chicago", "addr:housenumber": "4947", "addr:postcode": "9020", "addr:state": "IL", "addr:street": "North Damen Avenue", "addr:street:name": "Damen", "addr:street:prefix": "North", "addr:street:type": "Avenue", "amenity": "restaurant", "building": "yes", "building:levels": "1", "chicago:building_id": "91201", "name": "Bang Bang Pie & Biscuits", "phone": "+1-773-530-9020", "website": "http://www.bangbangpie.com/"}}, {"type": "way", "id": 209942402, "nodes": [2200942025, 2200942038, 2200942037, 2200942145, 2200942172, 2200942190, 2200942197, 2200942315, 2200942320, 2200942087, 2200942079, 2200942069, 2200942034, 2200942025], "tags": {"addr:city": "Chicago", "addr:housenumber": "1818", "addr:postcode": "60640", "addr:state": "IL", "addr:street": "West Foster Avenue", "addr:street:name": "Foster", "addr:street:prefix": "West", "addr:street:type": "Avenue", "amenity": "bar", "building": "yes", "building:levels": "2", "chicago:building_id": "76414", "name": "Big Joe\u2019s", "phone": "+1-773-784-8755"}}, {"type": "way", "id": 209942894, "nodes": [2200940301, 2200941207, 2200941229, 2200940780, 2200940784, 2200941235, 2200941244, 2200940781, 2200940775, 2200940488, 2200940455, 2200940772, 2200940770, 2200940901, 2200940905, 2200940433, 2200940436, 2200940323, 2200940325, 2200940339, 2200940338, 2200940309, 2200940301], "tags": {"addr:city": "Chicago", "addr:housenumber": "5131", "addr:postcode": "60625", "addr:state": "Illinois", "addr:street": "North Damen Avenue", "addr:street:name": "Damen", "addr:street:prefix": "North", "addr:street:type": "Avenue", "amenity": "cafe", "building": "yes", "chicago:building_id": "77752", "name": "Big E\u2019s Coffee Lounge", "phone": "+1-773-561-7008"}}, {"type": "way", "id": 209943131, "nodes": [2200948353, 2200948373, 2200948926, 2200948910, 2200948353], "tags": {"addr:housenumber": "5251-5253", "addr:street": "North Clark Street", "addr:street:name": "Clark", "addr:street:prefix": "North", "addr:street:type": "Street", "amenity": "restaurant", "building": "yes", "building:levels": "1", "chicago:building_id": "71536", "cuisine": "mediterranean", "name": "Andie's"}}, {"type": "way", "id": 209943148, "nodes": [2200949127, 2200949157, 2200949338, 2200949352, 2200949127], "tags": {"addr:housenumber": "5259", "addr:street": "North Clark Street", "addr:street:name": "Clark", "addr:street:prefix": "North", "addr:street:type": "Street", "amenity": "restaurant", "building": "yes", "building:levels": "3", "chicago:building_id": "854995", "cuisine": "mediterranean", "name": "Reza's", "wheelchair": "yes"}}, {"type": "way", "id": 209943162, "nodes": [2200949373, 2200949394, 2200949437, 2200949760, 2200949768, 2200949385, 2200949373], "tags": {"addr:city": "Chicago", "addr:housenumber": "5305", "addr:postcode": "60640", "addr:state": "Illinois", "addr:street": "North Damen Avenue", "addr:street:name": "Damen", "addr:street:prefix": "North", "addr:street:type": "Avenue", "amenity": "bar", "building": "yes", "chicago:building_id": "70707", "name": "Bobbie\u2019s Runaway", "phone": "+1-773-271-6488"}}, {"type": "way", "id": 209943301, "nodes": [2200954935, 2200954996, 2200955575, 2200955527, 2200954935], "tags": {"addr:housenumber": "5343", "addr:street": "North Clark Street", "addr:street:name": "Clark", "addr:street:prefix": "North", "addr:street:type": "Street", "amenity": "restaurant", "building": "yes", "building:levels": "1", "chicago:building_id": "66552", "cuisine": "italian", "description": "Italian fine dining.", "name": "Calo Ristorante", "opening_hours": "Mo-Th 11:00-23:00; Fr,Sa 11:00-00:00; Su 14:00-22:00", "phone": "(773) 271-7782", "website": "https://calorestaurant.com"}}]}