{"version": 0.6, "generator": "Overpass API 0.7.56.3 eb200aeb", "osm3s": {"timestamp_osm_base": "2020-07-21T20:51:03Z", "copyright": "The data included in this document is from www.openstreetmap.org. The data is made available under ODbL."}, "elements": [{"type": "node", "id": 1585389610, "lat": 41.9165513, "lon": -87.6876454, "tags": {"addr:city": "Chicago", "addr:housenumber": "2403", "addr:postcode": "60647", "addr:state": "IL", "addr:street": "West Homer Street", "amenity": "bar", "name": "Green Eye Lounge", "phone": "+1-773-227-8851", "website": "https://greeneyelounge.com/"}}, {"type": "node", "id": 1585392218, "lat": 41.9162779, "lon": -87.6876159, "tags": {"addr:housenumber": "1912", "addr:postcode": "60647", "addr:street": "North Western Avenue", "amenity": "restaurant", "delivery": "yes", "name": "Belly Shack", "phone": "773-252-1414", "takeaway": "yes", "website": "http://www.bellyshack.com/", "wheelchair": "yes"}}, {"type": "node", "id": 1666244561, "lat": 41.9103339, "lon": -87.6797489, "tags": {"addr:city": "Chicago", "addr:housenumber": "2057", "addr:postcode": "60647", "addr:state": "IL", "addr:street": "West North Avenue", "amenity": "restaurant", "name": "Sultan's Market", "phone": "+1-773-235-3072", "website": "http://chicagofalafel.com/"}}, {"type": "node", "id": 1699464559, "lat": 41.9178252, "lon": -87.6795216, "tags": {"amenity": "restaurant", "name": "Jack & Ginger's"}}, {"type": "node", "id": 1699464827, "lat": 41.9175758, "lon": -87.6802739, "tags": {"amenity": "cafe", "brand": "Starbucks", "brand:wikidata": "Q37158", "brand:wikipedia": "en:Starbucks", "cuisine": "coffee_shop", "name": "Starbucks", "takeaway": "yes"}}, {"type": "node", "id": 1700855290, "lat": 41.9174886, "lon": -87.6851722, "tags": {"addr:city": "Chicago", "addr:housenumber": "1944", "addr:postcode": "60647", "addr:state": "IL", "addr:street": "North Oakley Avenue", "amenity": "bar", "name": "Floyd's Pub", "phone": "+1-773-276-6060", "website": "http://floydspub.net/"}}, {"type": "node", "id": 2196110741, "lat": 41.9030759, "lon": -87.6956077}, {"type": "node", "id": 2196110744, "lat": 41.9030768, "lon": -87.6955287}, {"type": "node", "id": 2196110833, "lat": 41.9031191, "lon": -87.6909479}, {"type": "node", "id": 2196110839, "lat": 41.9031207, "lon": -87.6908429}, {"type": "node", "id": 2196110875, "lat": 41.9031372, "lon": -87.688657}, {"type": "node", "id": 2196110876, "lat": 41.9031382, "lon": -87.688578}, {"type": "node", "id": 2196110988, "lat": 41.9032316, "lon": -87.6909483}, {"type": "node", "id": 2196111001, "lat": 41.9032332, "lon": -87.6908454}, {"type": "node", "id": 2196111201, "lat": 41.9033435, "lon": -87.6956142}, {"type": "node", "id": 2196111203, "lat": 41.9033444, "lon": -87.6955353}, {"type": "node", "id": 2196111223, "lat": 41.9033705, "lon": -87.6886639}, {"type": "node", "id": 2196111225, "lat": 41.9033715, "lon": -87.6885849}, {"type": "node", "id": 2196191472, "lat": 41.9153855, "lon": -87.6850008}, {"type": "node", "id": 2196191717, "lat": 41.9155028, "lon": -87.6850109}, {"type": "node", "id": 2196191866, "lat": 41.9155111, "lon": -87.6851987}, {"type": "node", "id": 2196192238, "lat": 41.9155961, "lon": -87.6850155}, {"type": "node", "id": 2196192241, "lat": 41.9155966, "lon": -87.6850963}, {"type": "node", "id": 2196192517, "lat": 41.9156236, "lon": -87.6850152}, {"type": "node", "id": 2196192520, "lat": 41.9156252, "lon": -87.6850648}, {"type": "node", "id": 2196193268, "lat": 41.9159196, "lon": -87.6867571}, {"type": "node", "id": 2196193451, "lat": 41.9159617, "lon": -87.6868213}, {"type": "node", "id": 2196193545, "lat": 41.915989, "lon": -87.6867898}, {"type": "node", "id": 2196193552, "lat": 41.9159898, "lon": -87.6867913}, {"type": "node", "id": 2196194592, "lat": 41.9161233, "lon": -87.6865173}, {"type": "node", "id": 2196194760, "lat": 41.916162, "lon": -87.6865768}, {"type": "node", "id": 2196202533, "lat": 41.9175502, "lon": -87.7012866}, {"type": "node", "id": 2196202677, "lat": 41.9176383, "lon": -87.691975}, {"type": "node", "id": 2196202683, "lat": 41.9176422, "lon": -87.6917584}, {"type": "node", "id": 2196202720, "lat": 41.9176585, "lon": -87.6872249}, {"type": "node", "id": 2196202730, "lat": 41.9176651, "lon": -87.6869235}, {"type": "node", "id": 2196202738, "lat": 41.9177234, "lon": -87.7014016}, {"type": "node", "id": 2196202741, "lat": 41.9177234, "lon": -87.7012512}, {"type": "node", "id": 2196202833, "lat": 41.917758, "lon": -87.6917659}, {"type": "node", "id": 2196202841, "lat": 41.9177261, "lon": -87.6872275}, {"type": "node", "id": 2196202858, "lat": 41.9177353, "lon": -87.6869261}, {"type": "node", "id": 2196202906, "lat": 41.9177593, "lon": -87.6918226}, {"type": "node", "id": 2196202907, "lat": 41.9177896, "lon": -87.6918307}, {"type": "node", "id": 2196202979, "lat": 41.9177639, "lon": -87.6918958}, {"type": "node", "id": 2196202980, "lat": 41.9177911, "lon": -87.6918836}, {"type": "node", "id": 2196203152, "lat": 41.9178575, "lon": -87.6872324}, {"type": "node", "id": 2196203213, "lat": 41.9178665, "lon": -87.6869311}, {"type": "node", "id": 2196206485, "lat": 41.9187496, "lon": -87.6872131}, {"type": "node", "id": 2196206495, "lat": 41.9187509, "lon": -87.6870606}, {"type": "node", "id": 2196206652, "lat": 41.9188065, "lon": -87.6872141}, {"type": "node", "id": 2196206656, "lat": 41.9188078, "lon": -87.6870616}, {"type": "node", "id": 2200128605, "lat": 41.9032797, "lon": -87.6813653}, {"type": "node", "id": 2200128606, "lat": 41.9032811, "lon": -87.6812716}, {"type": "node", "id": 2200128905, "lat": 41.9034915, "lon": -87.6813701}, {"type": "node", "id": 2200128910, "lat": 41.9034935, "lon": -87.6812764}, {"type": "node", "id": 2200242724, "lat": 41.9182738, "lon": -87.682951}, {"type": "node", "id": 2200242734, "lat": 41.918279, "lon": -87.6826497}, {"type": "node", "id": 2200242950, "lat": 41.9183383, "lon": -87.6829522}, {"type": "node", "id": 2200243001, "lat": 41.9183448, "lon": -87.6826527}, {"type": "node", "id": 2393555254, "lat": 41.9175501, "lon": -87.7013997}, {"type": "node", "id": 2665801433, "lat": 41.917717, "lon": -87.6919771}, {"type": "node", "id": 2665801438, "lat": 41.9177654, "lon": -87.6919791}, {"type": "node", "id": 2671405828, "lat": 41.9175718, "lon": -87.680526, "tags": {"amenity": "restaurant", "cuisine": "cuban", "name": "Cafe Laguardia"}}, {"type": "node", "id": 2761695654, "lat": 41.91902, "lon": -87.6971023, "tags": {"amenity": "cafe", "name": "Bang Bang Pie Shop"}}, {"type": "node", "id": 2789533723, "lat": 41.9018656, "lon": -87.6966658, "tags": {"addr:city": "Chicago", "addr:housenumber": "1123", "addr:postcode": "60622", "addr:state": "IL", "addr:street": "North California Avenue", "amenity": "restaurant", "name": "Flying Saucer", "phone": "+1-773-342-9076", "wheelchair": "no"}}, {"type": "node", "id": 2789537651, "lat": 41.9173555, "lon": -87.6984206, "tags": {"addr:city": "Chicago", "addr:housenumber": "2829", "addr:postcode": "60647", "addr:state": "IL", "addr:street": "West Armitage Avenue", "amenity": "restaurant", "cuisine": "mexican", "name": "Dos Urban Cantina", "opening_hours": "Tu-Th 17:00-21:00; Fr-Sa 17:00-23:00; Su 17:00-21:00", "phone": "+1-773-661-6452", "website": "https://dosurbancantina.com", "wheelchair": "no"}}, {"type": "node", "id": 3551841162, "lat": 41.9176933, "lon": -87.6982559, "tags": {"addr:city": "Chicago", "addr:housenumber": "2824", "addr:postcode": "60647", "addr:state": "IL", "addr:street": "West Armitage Avenue", "amenity": "restaurant", "cuisine": "italian", "name": "Osteria Langhe", "phone": "+1-773-661-1582", "website": "https://www.osterialanghe.com/"}}, {"type": "node", "id": 3570187860, "lat": 41.915257, "lon": -87.6847129, "tags": {"addr:city": "Chicago", "addr:housenumber": "1861", "addr:postcode": "60647", "addr:state": "IL", "addr:street": "North Milwaukee Avenue", "amenity": "bar", "name": "Red & White Wine Bar", "opening_hours": "Mo-We 12:00-21:00; Th-Sa 12:00-22:00; Su 12:00-19:00", "phone": "+1-773-486-4769", "website": "https://www.redandwhitewineschicago.com/"}}, {"type": "node", "id": 3570188608, "lat": 41.9149624, "lon": -87.6847822, "tags": {"addr:city": "Chicago", "addr:housenumber": "1846", "addr:postcode": "60647", "addr:state": "Il", "addr:street": "North Milwaukee Avenue", "amenity": "restaurant", "cuisine": "thai", "name": "Silom 12", "phone": "+1-773-489-1212", "website": "http://www.silom12chicago.com/"}}, {"type": "node", "id": 3570191046, "lat": 41.9128303, "lon": -87.6972374, "tags": {"amenity": "restaurant", "cuisine": "puerto_rican", "name": "El Nuevo Borinquen"}}, {"type": "node", "id": 3570243600, "lat": 41.91811, "lon": -87.6978544, "tags": {"amenity": "restaurant", "cuisine": "chinese", "name": "China Fast Wok"}}, {"type": "node", "id": 3570245693, "lat": 41.917622, "lon": -87.7012335}, {"type": "node", "id": 3570245694, "lat": 41.9176832, "lon": -87.7012494}, {"type": "node", "id": 3570245695, "lat": 41.9176832, "lon": -87.7012371}, {"type": "node", "id": 3570245696, "lat": 41.9176213, "lon": -87.7012893}, {"type": "node", "id": 3575018318, "lat": 41.9183967, "lon": -87.6970911, "tags": {"addr:city": "Chicago", "addr:housenumber": "2023", "addr:postcode": "60647", "addr:state": "IL", "addr:street": "North California Avenue", "amenity": "cafe", "cuisine": "coffee_shop", "name": "La Strada Cafe Bar", "phone": "+1-708-627-0403", "website": "https://www.lastradacafebar.com/"}}, {"type": "node", "id": 3575036693, "lat": 41.9182746, "lon": -87.6851707, "tags": {"addr:city": "Chicago", "addr:housenumber": "2020", "addr:postcode": "60647", "addr:state": "IL", "addr:street": "North Oakley Avenue", "amenity": "bar", "name": "The Gallery Cabaret", "phone": "+1-773-489-5471", "website": "https://www.gallerycabaret.com/"}}, {"type": "node", "id": 3575070893, "lat": 41.9032845, "lon": -87.6816046, "tags": {"addr:city": "Chicago", "addr:housenumber": "2124", "addr:postcode": "60622", "addr:state": "IL", "addr:street": "West Division Street", "amenity": "restaurant", "cuisine": "italian", "name": "Enoteca Roma Ristorante", "phone": "+1-773-772-7700", "website": "http://www.superyummy.us/enotecaroma/"}}, {"type": "node", "id": 3575070894, "lat": 41.9032905, "lon": -87.681508, "tags": {"addr:city": "Chicago", "addr:housenumber": "2144", "addr:postcode": "60622", "addr:state": "IL", "addr:street": "West Division Street", "amenity": "cafe", "name": "Letizia's Natural Bakery", "website": "http://fsorano.wix.com/letiziasbakery-the-original"}}, {"type": "node", "id": 3575070895, "lat": 41.9033184, "lon": -87.6798799, "tags": {"addr:city": "Chicago", "addr:housenumber": "2100", "addr:postcode": "60622", "addr:state": "IL", "addr:street": "West Division Street", "amenity": "restaurant", "cuisine": "argentinian", "name": "Folklore", "phone": "+1-773-292-1600", "website": "http://folklorechicago.com/"}}, {"type": "node", "id": 3575070896, "lat": 41.9033344, "lon": -87.6795178, "tags": {"amenity": "restaurant", "cuisine": "pizza", "name": "Pizano's"}}, {"type": "node", "id": 3575070897, "lat": 41.902995, "lon": -87.6793622, "tags": {"amenity": "restaurant", "cuisine": "thai", "name": "Thai Village"}}, {"type": "node", "id": 3575120594, "lat": 41.9103246, "lon": -87.6787813, "tags": {"amenity": "restaurant", "name": "Chop Shop"}}, {"type": "node", "id": 3575120598, "lat": 41.910214, "lon": -87.6853111, "tags": {"addr:city": "Chicago", "addr:housenumber": "2311", "addr:postcode": "60647", "addr:state": "IL", "addr:street": "West North Avenue", "amenity": "restaurant", "diet:vegan": "yes", "diet:vegetarian": "only", "name": "Handlebar", "opening_hours": "Mo-Su 10:00-01:00", "phone": "+1-773-384-9546", "website": "https://www.handlebarchicago.com/"}}, {"type": "node", "id": 3575120599, "lat": 41.9104695, "lon": -87.68575, "tags": {"amenity": "restaurant", "cuisine": "thai", "name": "Thai Lagoon"}}, {"type": "node", "id": 3575120600, "lat": 41.9101455, "lon": -87.6881071, "tags": {"addr:city": "Chicago", "addr:housenumber": "2421", "addr:postcode": "60647", "addr:state": "IL", "addr:street": "West North Avenue", "amenity": "restaurant", "cuisine": "indian", "delivery": "yes", "name": "Rangoli", "phone": "+1-773-697-7114", "takeaway": "yes", "website": "http://rangolifeast.com/"}}, {"type": "node", "id": 3575150416, "lat": 41.918645, "lon": -87.6872335, "tags": {"addr:city": "Chicago", "addr:housenumber": "2035", "addr:postcode": "60647", "addr:state": "IL", "addr:street": "North Western Avenue", "amenity": "cafe", "cuisine": "coffee_shop", "name": "Ipsento", "phone": "+1-773-904-8177", "website": "http://ipsento.com/"}}, {"type": "node", "id": 3652955076, "lat": 41.9101567, "lon": -87.6878456, "tags": {"amenity": "restaurant", "name": "China Station"}}, {"type": "node", "id": 3656015215, "lat": 41.9103408, "lon": -87.6793224, "tags": {"addr:city": "Chicago", "addr:housenumber": "2045", "addr:postcode": "60647", "addr:state": "IL", "addr:street": "West North Avenue", "amenity": "restaurant", "cuisine": "empanada;argentinian", "name": "5411 Empanadas - Wicker Park", "opening_hours": "Su-Th 11:00-22:00; Fr-Sa 11:00-00:00", "phone": "+1-773-276-8344", "website": "http://www.5411empanadas.com"}}, {"type": "node", "id": 3659169362, "lat": 41.9176017, "lon": -87.698441, "tags": {"amenity": "restaurant", "name": "SFR"}}, {"type": "node", "id": 3659172691, "lat": 41.9100888, "lon": -87.6938521, "tags": {"addr:city": "Chicago", "addr:housenumber": "2465", "addr:postcode": "60622", "addr:state": "IL", "addr:street": "West North Avenue", "amenity": "bar", "name": "Boulevard Sports Lounge", "phone": "+1-773-687-8456", "website": "http://www.boulevardsportslounge.com/"}}, {"type": "node", "id": 3659172692, "lat": 41.910114, "lon": -87.6927745, "tags": {"amenity": "cafe", "name": "Se\u00f1or Pan Cafe"}}, {"type": "node", "id": 3664687674, "lat": 41.9055766, "lon": -87.7006028, "tags": {"addr:city": "Chicago", "addr:housenumber": "1301", "addr:postcode": "60622", "addr:state": "IL", "addr:street": "North Humboldt Drive", "amenity": "cafe", "name": "The Boathouse Cafe", "phone": "+1-312-838-6205"}}, {"type": "node", "id": 3673559735, "lat": 41.9103602, "lon": -87.7013592, "tags": {"addr:city": "Chicago", "addr:housenumber": "2958", "addr:postcode": "60647", "addr:state": "IL", "addr:street": "West North Avenue", "amenity": "restaurant", "name": "Humboldt Haus", "phone": "+1-773-697-9590"}}, {"type": "node", "id": 3675060651, "lat": 41.9065532, "lon": -87.6868969, "tags": {"addr:city": "Chicago", "addr:housenumber": "1357", "addr:postcode": "60622", "addr:state": "IL", "addr:street": "North Western Avenue", "amenity": "restaurant", "cuisine": "american;breakfast;brunch", "name": "Hash Chicago", "opening_hours": "Su-Mo 08:00-15:00; We-Sa 08:00-15:00", "phone": "+1-773-661-2964", "website": "https://www.hashchicago.com/"}}, {"type": "node", "id": 3996419870, "lat": 41.917355, "lon": -87.698579, "tags": {"amenity": "restaurant", "cuisine": "pizza", "name": "Ugo's"}}, {"type": "node", "id": 4039273390, "lat": 41.9135894, "lon": -87.6972582, "tags": {"addr:city": "Chicago", "addr:country": "US", "addr:housenumber": "1752", "addr:postcode": "60647", "addr:state": "IL", "addr:street": "North California Avenue", "amenity": "cafe", "name": "Donut Delight"}}, {"type": "node", "id": 4130928514, "lat": 41.902948, "lon": -87.6807433, "tags": {"addr:city": "Chicago", "addr:housenumber": "2125", "addr:postcode": "60622", "addr:state": "IL", "addr:street": "West Division Street", "amenity": "bar", "name": "Queen Mary Tavern", "phone": "+1-773-697-3522", "website": "https://www.queenmarytavern.com/"}}, {"type": "node", "id": 4363752189, "lat": 41.9023766, "lon": -87.6967084, "tags": {"addr:city": "Chicago", "addr:housenumber": "1143", "addr:postcode": "60622", "addr:state": "IL", "addr:street": "North California Avenue", "amenity": "restaurant", "cuisine": "american", "name": "Bullhead Cantina", "name:en": "Bullhead Cantina", "phone": "+1-773-250-0567", "website": "http://bullheadcantina.com/"}}, {"type": "node", "id": 4697800145, "lat": 41.9031227, "lon": -87.6935215, "tags": {"addr:city": "Chicago", "addr:housenumber": "2638", "addr:postcode": "60622", "addr:state": "IL", "addr:street": "West Division Street", "amenity": "cafe", "name": "Caf\u00e9 Colao", "phone": "+1-773-799-8454", "website": "https://www.cafecolaochicago.com/"}}, {"type": "node", "id": 4718913030, "lat": 41.9160583, "lon": -87.6875926, "tags": {"addr:city": "Chicago", "addr:housenumber": "1904", "addr:postcode": "60647", "addr:state": "IL", "addr:street": "North Western Avenue", "amenity": "restaurant", "cuisine": "italian", "name": "Animale", "opening_hours": "Su 12:00-21:00; Mo-Sa 12:00-22:00", "website": "http://www.animalechicago.com/"}}, {"type": "node", "id": 5025496847, "lat": 41.9144268, "lon": -87.6832788, "tags": {"addr:city": "Chicago", "addr:housenumber": "1813", "addr:postcode": "60647", "addr:state": "IL", "addr:street": "North Milwaukee Avenue", "amenity": "cafe", "cuisine": "coffee_shop", "name": "Ipsento 606", "phone": "+1-872-206-8697", "website": "http://ipsento.com/"}}, {"type": "node", "id": 5597509421, "lat": 41.9103358, "lon": -87.6800494, "tags": {"amenity": "restaurant", "cuisine": "italian_pizza;pizza", "name": "Knead"}}, {"type": "node", "id": 5597509423, "lat": 41.9131516, "lon": -87.6819688, "tags": {"addr:city": "Chicago", "addr:housenumber": "1750", "addr:postcode": "606476", "addr:state": "IL", "addr:street": "North Milwaukee Avenue", "amenity": "bar", "name": "The Royal Palms Shuffleboard Club", "name:en": "Royal Palms Shuffleboard Club", "phone": "+1-773-486-8682", "website": "https://www.royalpalmschicago.com/"}}, {"type": "node", "id": 5597509522, "lat": 41.9143219, "lon": -87.6838026, "tags": {"addr:city": "Chicago", "addr:housenumber": "1812", "addr:postcode": "60647", "addr:state": "IL", "addr:street": "North Milwaukee Avenue", "amenity": "restaurant", "cuisine": "pizza;burger;american", "name": "The Stop Along", "phone": "1+773-394-4694", "website": "https://www.thestopalong.com/"}}, {"type": "node", "id": 5701445166, "lat": 41.9175853, "lon": -87.6998369, "tags": {"addr:city": "Chicago", "addr:housenumber": "2910", "addr:postcode": "60647", "addr:state": "IL", "addr:street": "West Armitage Avenue", "amenity": "restaurant", "cuisine": "mexican", "facebook": "https://www.facebook.com/Freshjapeno/", "fax": "+1-773-227-9840", "name": "Super Jalapeno Grill", "opening_hours": "Mo-Sa 10:00-22:00; Su 11:00-22:00", "payment:american_express": "yes", "payment:cash": "yes", "payment:discover_card": "yes", "payment:mastercard": "yes", "payment:visa": "yes", "phone": "+1-773-227-9850", "website": "http://superjalapenochicago.com"}}, {"type": "node", "id": 6154690337, "lat": 41.9033253, "lon": -87.6792509, "tags": {"addr:city": "Chicago", "addr:housenumber": "2050", "addr:postcode": "60622", "addr:state": "IL", "addr:street": "West Division Street", "amenity": "restaurant", "name": "Bourbon on Division", "phone": "+1-773-796-5879", "website": "http://bourbonondivision.com"}}, {"type": "node", "id": 6249982165, "lat": 41.9101156, "lon": -87.6927943, "tags": {"addr:city": "Chicago", "addr:housenumber": "2615", "addr:postcode": "60647", "addr:state": "IL", "addr:street": "West North Avenue", "amenity": "restaurant", "cuisine": "cuban", "name": "1492 Cuban Fusion", "phone": "+1-773 227-9601", "website": "http://1492cubanfusion.com/"}}, {"type": "node", "id": 6269184366, "lat": 41.9100775, "lon": -87.6900295, "tags": {"addr:city": "Chicago", "addr:housenumber": "2507", "addr:postcode": "60647", "addr:state": "IL", "addr:street": "West North Avenue", "amenity": "restaurant", "name": "Bulerias Tapas Bar", "phone": "+1-773-404-2855", "website": "http://www.buleriastapas.com/"}}, {"type": "node", "id": 6284020693, "lat": 41.9101324, "lon": -87.6880221, "tags": {"addr:city": "Chicago", "addr:housenumber": "2415", "addr:postcode": "60647", "addr:state": "IL", "addr:street": "West North Avenue", "amenity": "restaurant", "name": "Cup & Spoon", "phone": "+1-773-697-4421", "website": "http://www.cupandspoonchicago.com/"}}, {"type": "node", "id": 6284196705, "lat": 41.9155759, "lon": -87.6876655, "tags": {"addr:city": "Chicago", "addr:housenumber": "1856", "addr:postcode": "60647", "addr:state": "IL", "addr:street": "North Western Avenue", "amenity": "cafe", "cuisine": "coffee_shop", "name": "Dark Matter Coffee - Electric Mud Coffee Bar", "phone": "+1-773-698-6086", "website": "https://www.darkmattercoffee.com/"}}, {"type": "node", "id": 6285013873, "lat": 41.9179598, "lon": -87.6789791, "tags": {"addr:city": "Chicago", "addr:housenumber": "2032", "addr:postcode": "60647", "addr:state": "IL", "addr:street": "West Armitage Avenue", "amenity": "bar", "name": "Ed and Jean\u2019s Tavern", "phone": "+1-773-851-8054", "website": "http://www.edandjeanstavern.com/"}}, {"type": "node", "id": 6294262005, "lat": 41.9027426, "lon": -87.6904806, "tags": {"addr:city": "Chicago", "addr:housenumber": "2525", "addr:postcode": "60622", "addr:state": "IL", "addr:street": "West Division Street", "amenity": "restaurant", "name": "The Chicago Teachers\u2019 Lounge & Eatery", "phone": "+1-773-366-8700", "website": "https://www.thechicagoteacherslounge.com/"}}, {"type": "node", "id": 6298767975, "lat": 41.9029495, "lon": -87.6793785, "tags": {"addr:city": "Chicago", "addr:housenumber": "2053", "addr:postcode": "60622", "addr:state": "IL", "addr:street": "West Division Street", "amenity": "restaurant", "name": "Silli Kori", "phone": "+1-773-384-5352", "website": "http://www.sillikorichicago.com/"}}, {"type": "node", "id": 6301103471, "lat": 41.9101746, "lon": -87.6846028, "tags": {"addr:city": "Chicago", "addr:housenumber": "2257", "addr:postcode": "60647", "addr:state": "IL", "addr:street": "West North Avenue", "amenity": "restaurant", "name": "Runa Japanese", "phone": "+1-773-278-8887", "website": "http://www.runajapanesechicago.com/"}}, {"type": "node", "id": 6302052366, "lat": 41.9176452, "lon": -87.6997624, "tags": {"addr:city": "Chicago", "addr:housenumber": "2906", "addr:postcode": "60647", "addr:state": "IL", "addr:street": "West Armitage Avenue", "amenity": "restaurant", "name": "The Spice Room", "phone": "+1-773-360-8689", "website": "http://thespiceroomchicago.com/"}}, {"type": "node", "id": 6303047086, "lat": 41.9176924, "lon": -87.695898, "tags": {"addr:city": "Chicago", "addr:housenumber": "2728", "addr:postcode": "60647", "addr:state": "IL", "addr:street": "West Armitage Avenue", "amenity": "restaurant", "name": "Table, Donkey and Stick", "phone": "+1-773-486-8525", "website": "http://tabledonkeystick.com/"}}, {"type": "node", "id": 6305261850, "lat": 41.9178287, "lon": -87.6843751, "tags": {"addr:city": "Chicago", "addr:housenumber": "2246", "addr:postcode": "60647", "addr:state": "IL", "addr:street": "West Armitage Avenue", "amenity": "restaurant", "name": "The Bento Box", "phone": "+1-773-278-3932"}}, {"type": "node", "id": 6306837969, "lat": 41.9185363, "lon": -87.6905608, "tags": {"addr:city": "Chicago", "addr:housenumber": "2050", "addr:postcode": "60647", "addr:state": "IL", "addr:street": "North Milwaukee Avenue", "amenity": "restaurant", "name": "Turbo Tacos", "phone": "+1-773-360-8892"}}, {"type": "node", "id": 6315663847, "lat": 41.917591, "lon": -87.6798155, "tags": {"addr:city": "Chicago", "addr:housenumber": "1949", "addr:postcode": "60647", "addr:state": "IL", "addr:street": "North Hoyne Avenue", "amenity": "bar", "name": "The Map Room", "phone": "+1-773-252-7636", "website": "http://www.maproom.com/"}}, {"type": "node", "id": 6317085920, "lat": 41.9136888, "lon": -87.6820343, "tags": {"addr:city": "Chicago", "addr:housenumber": "1767", "addr:postcode": "60647", "addr:state": "IL", "addr:street": "North Milwaukee Avenue", "amenity": "restaurant", "name": "Yolk Test Kitchen - Bucktown", "phone": "(312) 348-1333", "website": "https://www.eatyolk.com/"}}, {"type": "node", "id": 6319207395, "lat": 41.9028804, "lon": -87.6808451, "tags": {"addr:city": "Chicago", "addr:housenumber": "2127", "addr:postcode": "60622", "addr:state": "IL", "addr:street": "West Division Street", "amenity": "cafe", "name": "Kanela Breakfast Club", "phone": "+1-773-362-5052", "website": "http://www.kanelabreakfastclub.com/"}}, {"type": "node", "id": 6319221993, "lat": 41.9173465, "lon": -87.6965099, "tags": {"addr:city": "Chicago", "addr:housenumber": "2745", "addr:postcode": "60647", "addr:state": "IL", "addr:street": "West Armitage Avenue", "amenity": "cafe", "name": "Katherine Anne Confections", "phone": "+1-773-245-1630", "website": "http://www.katherine-anne.com/"}}, {"type": "node", "id": 6319774899, "lat": 41.910295, "lon": -87.6803201, "tags": {"addr:city": "Chicago", "addr:housenumber": "2101", "addr:postcode": "60647", "addr:state": "IL", "addr:street": "West North Avenue", "amenity": "restaurant", "name": "Knead", "phone": "+1-773-974-6004", "website": "https://kneadpizzas.com/"}}, {"type": "node", "id": 6321986649, "lat": 41.912826, "lon": -87.681489, "tags": {"addr:city": "Chicago", "addr:housenumber": "1732", "addr:postcode": "60647", "addr:state": "Il", "addr:street": "North Milwaukee Avenue", "amenity": "restaurant", "name": "Small Cheval", "website": "http://smallcheval.com/"}}, {"type": "node", "id": 6323063285, "lat": 41.9033048, "lon": -87.689323, "tags": {"addr:city": "Chicago", "addr:housenumber": "2458", "addr:postcode": "60622", "addr:state": "IL", "addr:street": "West Division Street", "amenity": "restaurant", "name": "Nellie\u2019s", "phone": "+1-773-252-5520", "website": "https://www.nelliesrestaurant.com/"}}, {"type": "node", "id": 6323737136, "lat": 41.9189197, "lon": -87.6877538, "tags": {"addr:city": "Chicago", "addr:housenumber": "2044", "addr:postcode": "60647", "addr:state": "IL", "addr:street": "North Western Avenue", "amenity": "bar", "name": "O\u2019s Tap", "phone": "+1-773-850-5451"}}, {"type": "node", "id": 6324324927, "lat": 41.902745, "lon": -87.6902284, "tags": {"addr:city": "Chicago", "addr:housenumber": "2517", "addr:postcode": "60622", "addr:state": "IL", "addr:street": "West Division Street", "amenity": "restaurant", "name": "Papa\u2019s Cache Sabroso", "phone": "+1-773-862-8313", "website": "http://www.papascache.com/"}}, {"type": "node", "id": 6324384805, "lat": 41.9160456, "lon": -87.6876461, "tags": {"addr:city": "Chicago", "addr:housenumber": "1904", "addr:postcode": "60647", "addr:state": "IL", "addr:street": "North Western Avenue", "amenity": "restaurant", "name": "Langhe Market", "phone": "+1-872-315-3912", "website": "http://langhemarket.com/"}}, {"type": "node", "id": 6459369044, "lat": 41.9102472, "lon": -87.6828793, "tags": {"addr:city": "Chicago", "addr:housenumber": "2211", "addr:postcode": "60647", "addr:state": "IL", "addr:street": "West North Avenue", "amenity": "restaurant", "cuisine": "filipino", "name": "Cebu", "phone": "+1-773-799-8650", "website": "https://cebuchicago.com"}}, {"type": "node", "id": 6842444182, "lat": 41.9144405, "lon": -87.6839628, "tags": {"addr:city": "Chicago", "addr:housenumber": "1818", "addr:street": "North Milwaukee Avenue", "amenity": "cafe", "name": "Easthill Tea"}}, {"type": "node", "id": 7185921676, "lat": 41.9174218, "lon": -87.6879726, "tags": {"addr:city": "Chicago", "addr:housenumber": "1965", "addr:postcode": "60647", "addr:state": "IL", "addr:street": "North Milwaukee Avenue", "amenity": "cafe", "name": "Chicago Board Game Cafe", "phone": "+1-(224) 208-5346", "website": "https://www.chicagogamecafe.com"}}, {"type": "way", "id": 209390013, "nodes": [2196110875, 2196111223, 2196111225, 2196110876, 2196110875], "tags": {"addr:housenumber": "2438", "addr:street": "West Division Street", "addr:street:name": "Division", "addr:street:prefix": "West", "addr:street:type": "Street", "amenity": "restaurant", "building": "yes", "building:levels": "2", "chicago:building_id": "322558", "cuisine": "chinese", "name": "New China Restaurant"}}, {"type": "way", "id": 209390479, "nodes": [2196110833, 2196110988, 2196111001, 2196110839, 2196110833], "tags": {"addr:housenumber": "2534", "addr:street": "West Division Street", "addr:street:name": "Division", "addr:street:prefix": "West", "addr:street:type": "Street", "amenity": "restaurant", "building": "yes", "chicago:building_id": "860071", "cuisine": "pizza", "name": "Guerrero's Tacos and Pizza", "wheelchair": "yes"}}, {"type": "way", "id": 209391564, "nodes": [2196110741, 2196111201, 2196111203, 2196110744, 2196110741], "tags": {"addr:housenumber": "2726", "addr:street": "West Division Street", "addr:street:name": "Division", "addr:street:prefix": "West", "addr:street:type": "Street", "amenity": "restaurant", "building": "yes", "building:levels": "2", "chicago:building_id": "322673", "name": "La Bruquena", "wheelchair": "limited"}}, {"type": "way", "id": 209403314, "nodes": [2196191472, 2196191866, 2196192241, 2196192520, 2196192517, 2196192238, 2196191717, 2196191472], "tags": {"addr:housenumber": "1865", "addr:street": "North Milwaukee Avenue", "addr:street:name": "Milwaukee", "addr:street:prefix": "North", "addr:street:type": "Avenue", "amenity": "restaurant", "building": "yes", "building:levels": "1", "chicago:building_id": "291593", "cuisine": "costa_rican", "description": "Costa Rican restaurant, BYOB", "name": "Irazu", "opening_hours": "Mo-Sa 11:30-21:30", "phone": "+1 773-252-5687", "website": "http://www.irazuchicago.com/phone/index.html"}}, {"type": "way", "id": 209403393, "nodes": [2196193451, 2196193545, 2196193552, 2196194760, 2196194592, 2196193268, 2196193451], "tags": {"addr:city": "Chicago", "addr:housenumber": "1910", "addr:postcode": "60647", "addr:state": "IL", "addr:street": "North Milwaukee Avenue", "addr:street:name": "Milwaukee", "addr:street:prefix": "North", "addr:street:type": "Avenue", "amenity": "bar", "building": "yes", "building:levels": "2", "chicago:building_id": "843412", "name": "Remedy", "phone": "+1-773-698-7715", "website": "http://remedybarchicago.com/"}}, {"type": "way", "id": 209403724, "nodes": [2196202841, 2196202858, 2196202730, 2196202720, 2196202841], "tags": {"addr:housenumber": "2001", "addr:street": "North Western Avenue", "addr:street:name": "Western", "addr:street:prefix": "North", "addr:street:type": "Avenue", "amenity": "restaurant", "building": "yes", "building:levels": "1", "chicago:building_id": "831855", "cuisine": "mexican", "name": "Arturo's Tacos"}}, {"type": "way", "id": 209403727, "nodes": [2196203152, 2196203213, 2196202858, 2196202841, 2196203152], "tags": {"addr:housenumber": "2003", "addr:street": "North Western Avenue", "addr:street:name": "Western", "addr:street:prefix": "North", "addr:street:type": "Avenue", "amenity": "restaurant", "building": "yes", "building:levels": "1", "chicago:building_id": "831857", "cuisine": "mexican", "name": "Lazo's"}}, {"type": "way", "id": 209403858, "nodes": [2196206485, 2196206652, 2196206656, 2196206495, 2196206485], "tags": {"addr:housenumber": "2041", "addr:postcode": "60647", "addr:street": "North Western Avenue", "addr:street:name": "Western", "addr:street:prefix": "North", "addr:street:type": "Avenue", "amenity": "restaurant", "building": "yes", "building:levels": "2", "chicago:building_id": "282784", "cuisine": "chicken", "name": "The Art of Chicken"}}, {"type": "way", "id": 209405949, "nodes": [2196202677, 2665801433, 2665801438, 2196202979, 2196202980, 2196202907, 2196202906, 2196202833, 2196202683, 2196202677], "tags": {"addr:city": "Chicago", "addr:housenumber": "2540", "addr:postcode": "60647", "addr:state": "IL", "addr:street": "West Armitage Avenue", "addr:street:name": "Armitage", "addr:street:prefix": "West", "addr:street:type": "Avenue", "amenity": "restaurant", "building": "yes", "building:levels": "1", "chicago:building_id": "286278", "cuisine": "Hispanic,_Cuban", "name": "90 Miles Cuban Cafe", "phone": "+1-773-227-2822", "website": "https://www.90milescubancafe.com/"}}, {"type": "way", "id": 209406792, "nodes": [2196202738, 2196202741, 3570245694, 3570245695, 3570245693, 3570245696, 2196202533, 2393555254, 2196202738], "tags": {"addr:city": "Chicago", "addr:housenumber": "2952", "addr:postcode": "60647", "addr:state": "IL", "addr:street": "West Armitage Avenue", "addr:street:name": "Armitage", "addr:street:prefix": "West", "addr:street:type": "Avenue", "amenity": "restaurant", "building": "yes", "building:levels": "1", "chicago:building_id": "286728", "cuisine": "american", "name": "Parson's Chicken & Fish", "outdoor_seating": "yes", "phone": "+1-773-384-3333", "smoking": "no", "website": "http://www.parsonschickenandfish.com/"}}, {"type": "way", "id": 209854327, "nodes": [2200128606, 2200128605, 2200128905, 2200128910, 2200128606], "tags": {"addr:city": "Chicago", "addr:housenumber": "2140", "addr:postcode": "60622", "addr:state": "IL", "addr:street": "West Division Street", "addr:street:name": "Division", "addr:street:prefix": "West", "addr:street:type": "Street", "amenity": "cafe", "building": "yes", "chicago:building_id": "868559", "name": "Purple Llama", "phone": "+1-773-687-9900", "website": "http://www.purplellamachicago.com/"}}, {"type": "way", "id": 209868352, "nodes": [2200242724, 2200242950, 2200243001, 2200242734, 2200242724], "tags": {"addr:city": "Chicago", "addr:housenumber": "2020", "addr:postcode": "60647", "addr:state": "IL", "addr:street": "North Leavitt Street", "addr:street:name": "Leavitt", "addr:street:prefix": "North", "addr:street:type": "Street", "amenity": "cafe", "building": "yes", "building:levels": "2", "chicago:building_id": "284167", "name": "Red June", "phone": "+1-773-227-2600", "website": "http://www.redjunecafe.com/"}}]}