{"version": 0.6, "generator": "Overpass API 0.7.56.3 eb200aeb", "osm3s": {"timestamp_osm_base": "2020-07-04T04:10:03Z", "copyright": "The data included in this document is from www.openstreetmap.org. The data is made available under ODbL."}, "elements": [{"type": "node", "id": 286369226, "lat": 41.9252157, "lon": -87.6590264}, {"type": "node", "id": 286369232, "lat": 41.9236965, "lon": -87.6511635}, {"type": "node", "id": 286369233, "lat": 41.9236653, "lon": -87.6529154}, {"type": "node", "id": 286369234, "lat": 41.9218369, "lon": -87.6536137}, {"type": "node", "id": 286369235, "lat": 41.9218071, "lon": -87.6545905}, {"type": "node", "id": 286369237, "lat": 41.9235769, "lon": -87.6582718}, {"type": "node", "id": 286369306, "lat": 41.9263468, "lon": -87.6529996}, {"type": "node", "id": 286369307, "lat": 41.9253718, "lon": -87.6529784}, {"type": "node", "id": 286369308, "lat": 41.9250203, "lon": -87.6512022}, {"type": "node", "id": 286369309, "lat": 41.9243434, "lon": -87.6511679}, {"type": "node", "id": 286369311, "lat": 41.9236164, "lon": -87.6546637}, {"type": "node", "id": 307890165, "lat": 41.9253504, "lon": -87.6498796}, {"type": "node", "id": 307890172, "lat": 41.9237168, "lon": -87.6497863}, {"type": "node", "id": 308675507, "lat": 41.9244322, "lon": -87.6511724}, {"type": "node", "id": 308677177, "lat": 41.9254401, "lon": -87.6568567, "tags": {"amenity": "restaurant", "cuisine": "burger", "name": "Branko's Submarines"}}, {"type": "node", "id": 346210195, "lat": 41.9291497, "lon": -87.6535647, "tags": {"addr:city": "Chicago", "addr:housenumber": "958", "addr:postcode": "60614", "addr:state": "IL", "addr:street": "West Wrightwood Avenue", "amenity": "restaurant", "brand": "Lou Malnati's Pizzeria", "brand:wikidata": "Q6685628", "brand:wikipedia": "en:Lou Malnati's Pizzeria", "cuisine": "pizza", "name": "Lou Malnati's Pizzeria"}}, {"type": "node", "id": 347162170, "lat": 41.9285367, "lon": -87.6534874, "tags": {"amenity": "cafe", "name": "Savor the Flavor"}}, {"type": "node", "id": 347433838, "lat": 41.9291567, "lon": -87.6532745, "tags": {"amenity": "pub", "name": "The Grand Central"}}, {"type": "node", "id": 370093716, "lat": 41.9253655, "lon": -87.6489723}, {"type": "node", "id": 370093749, "lat": 41.9237371, "lon": -87.64883}, {"type": "node", "id": 370093752, "lat": 41.9253329, "lon": -87.6488812}, {"type": "node", "id": 389151978, "lat": 41.9406317, "lon": -87.6534888}, {"type": "node", "id": 416770215, "lat": 41.9243826, "lon": -87.6582994}, {"type": "node", "id": 416770216, "lat": 41.9243744, "lon": -87.6589981}, {"type": "node", "id": 417255771, "lat": 41.925225, "lon": -87.6583375}, {"type": "node", "id": 417255772, "lat": 41.9258596, "lon": -87.6583677}, {"type": "node", "id": 417255773, "lat": 41.9258724, "lon": -87.6576982}, {"type": "node", "id": 417255774, "lat": 41.9252849, "lon": -87.6576725}, {"type": "node", "id": 417255775, "lat": 41.9258658, "lon": -87.6554215}, {"type": "node", "id": 417255776, "lat": 41.9263308, "lon": -87.6545006}, {"type": "node", "id": 452377015, "lat": 41.9241152, "lon": -87.6498508}, {"type": "node", "id": 452377016, "lat": 41.9237193, "lon": -87.6498337}, {"type": "node", "id": 463772258, "lat": 41.9215701, "lon": -87.6568052, "tags": {"amenity": "restaurant", "name": "La Canasta Grill"}}, {"type": "node", "id": 463772259, "lat": 41.9218128, "lon": -87.6561701, "tags": {"addr:city": "Chicago", "addr:housenumber": "1102", "addr:postcode": "60614", "addr:state": "IL", "addr:street": "West Webster Avenue", "amenity": "pub", "name": "Local Option", "opening_hours:url": "http://localoptionbier.com/info/", "phone": "+1-773\u2013348\u20132008", "smoking": "outside", "website": "http://localoptionbier.com/"}}, {"type": "node", "id": 477087140, "lat": 41.9233904, "lon": -87.6460993, "tags": {"addr:city": "Chicago", "addr:housenumber": "2274", "addr:postcode": "60614", "addr:state": "IL", "addr:street": "North Lincoln Avenue", "amenity": "bar", "name": "Halligan Bar", "phone": "+1-773-472-7940", "website": "https://halliganbarchicago.com/"}}, {"type": "node", "id": 477087270, "lat": 41.9216452, "lon": -87.6529693, "tags": {"addr:city": "Chicago", "addr:housenumber": "949", "addr:postcode": "60614", "addr:state": "IL", "addr:street": "West Webster Avenue", "amenity": "bar", "name": "Kelly's Pub", "opening_hours": "Su-Fr 11:00-02:00; Sa 11:00-03:00", "phone": "+1-773-281-0656", "website": "http://www.kellyspub.com"}}, {"type": "node", "id": 477087275, "lat": 41.921864, "lon": -87.6529887, "tags": {"amenity": "pub", "name": "McGee's"}}, {"type": "node", "id": 477087276, "lat": 41.9216551, "lon": -87.6525244, "tags": {"addr:city": "Chicago", "addr:housenumber": "935", "addr:postcode": "60614", "addr:state": "IL", "addr:street": "West Webster Avenue", "amenity": "restaurant", "cuisine": "american", "name": "State Restaurant", "opening_hours": "Mo-Th 16:00-00:00; Fr 11:00-02:00; Sa 11:00-03:00; Su 11:00-00:00", "phone": "+1-773-975-8030", "website": "http://www.state-chicago.com"}}, {"type": "node", "id": 477087310, "lat": 41.9216973, "lon": -87.6488467, "tags": {"addr:city": "Chicago", "addr:housenumber": "2158", "addr:postcode": "60614", "addr:state": "IL", "addr:street": "North Halsted Street", "amenity": "bar", "name": "Glasscott's", "phone": "+1-773-281-1205", "website": "http://www.glascotts.com/"}}, {"type": "node", "id": 734513059, "lat": 41.961376, "lon": -87.657008, "tags": {"railway": "switch"}}, {"type": "node", "id": 734513169, "lat": 41.962834, "lon": -87.6573178, "tags": {"railway": "switch"}}, {"type": "node", "id": 734513174, "lat": 41.9619793, "lon": -87.6570845, "tags": {"railway": "switch"}}, {"type": "node", "id": 734513347, "lat": 41.9618278, "lon": -87.6570429}, {"type": "node", "id": 734513348, "lat": 41.9617141, "lon": -87.6570255}, {"type": "node", "id": 734513350, "lat": 41.9615934, "lon": -87.6570174}, {"type": "node", "id": 734513351, "lat": 41.9609282, "lon": -87.6569986}, {"type": "node", "id": 734513352, "lat": 41.9603309, "lon": -87.6569812}, {"type": "node", "id": 734513354, "lat": 41.9598702, "lon": -87.6569705}, {"type": "node", "id": 734562812, "lat": 41.9421673, "lon": -87.6534414, "tags": {"railway": "switch"}}, {"type": "node", "id": 734562821, "lat": 41.9417593, "lon": -87.6534782, "tags": {"railway": "switch"}}, {"type": "node", "id": 734562832, "lat": 41.9415957, "lon": -87.6533415, "tags": {"railway": "switch"}}, {"type": "node", "id": 734562834, "lat": 41.9420765, "lon": -87.6533951, "tags": {"railway": "switch"}}, {"type": "node", "id": 734562847, "lat": 41.9415937, "lon": -87.653387, "tags": {"railway": "switch"}}, {"type": "node", "id": 734562891, "lat": 41.9424765, "lon": -87.6534461, "tags": {"railway": "switch"}}, {"type": "node", "id": 734562951, "lat": 41.9494788, "lon": -87.6536754, "tags": {"railway": "switch"}}, {"type": "node", "id": 734562975, "lat": 41.9411627, "lon": -87.6533804, "tags": {"railway": "switch"}}, {"type": "node", "id": 734562978, "lat": 41.9415258, "lon": -87.6533857, "tags": {"railway": "switch"}}, {"type": "node", "id": 734562998, "lat": 41.9411667, "lon": -87.6534246, "tags": {"railway": "switch"}}, {"type": "node", "id": 734563009, "lat": 41.9415278, "lon": -87.6534311, "tags": {"railway": "switch"}}, {"type": "node", "id": 734563017, "lat": 41.9421643, "lon": -87.6534863, "tags": {"railway": "switch"}}, {"type": "node", "id": 734563039, "lat": 41.9417593, "lon": -87.6534353, "tags": {"railway": "switch"}}, {"type": "node", "id": 734563141, "lat": 41.9422401, "lon": -87.6534882, "tags": {"railway": "switch"}}, {"type": "node", "id": 734563920, "lat": 41.9496893, "lon": -87.6536807, "tags": {"railway": "switch"}}, {"type": "node", "id": 734563942, "lat": 41.9403845, "lon": -87.6532032}, {"type": "node", "id": 734565033, "lat": 41.9586814, "lon": -87.656937}, {"type": "node", "id": 734565043, "lat": 41.9578467, "lon": -87.6569142}, {"type": "node", "id": 734565049, "lat": 41.9569401, "lon": -87.6568887}, {"type": "node", "id": 734565056, "lat": 41.9560595, "lon": -87.6568645}, {"type": "node", "id": 734565061, "lat": 41.9547919, "lon": -87.6568364}, {"type": "node", "id": 734565069, "lat": 41.9546543, "lon": -87.6568283}, {"type": "node", "id": 734565079, "lat": 41.9545475, "lon": -87.6568122}, {"type": "node", "id": 734565084, "lat": 41.9544239, "lon": -87.6567787}, {"type": "node", "id": 734565088, "lat": 41.9543092, "lon": -87.6567344}, {"type": "node", "id": 734565092, "lat": 41.9542035, "lon": -87.6566821}, {"type": "node", "id": 734565097, "lat": 41.9541157, "lon": -87.6566218}, {"type": "node", "id": 734565102, "lat": 41.9540618, "lon": -87.6565641}, {"type": "node", "id": 734565108, "lat": 41.953995, "lon": -87.6564689}, {"type": "node", "id": 734565111, "lat": 41.9539501, "lon": -87.6563777}, {"type": "node", "id": 734565117, "lat": 41.9539103, "lon": -87.6562473}, {"type": "node", "id": 734565126, "lat": 41.9538903, "lon": -87.6561538}, {"type": "node", "id": 734565136, "lat": 41.9538772, "lon": -87.6560589}, {"type": "node", "id": 734565144, "lat": 41.9538666, "lon": -87.6558511}, {"type": "node", "id": 734565150, "lat": 41.9538876, "lon": -87.6546036}, {"type": "node", "id": 734565156, "lat": 41.9538849, "lon": -87.654509}, {"type": "node", "id": 734565163, "lat": 41.9538588, "lon": -87.6542894}, {"type": "node", "id": 734565167, "lat": 41.9537975, "lon": -87.6540595}, {"type": "node", "id": 734565170, "lat": 41.9537606, "lon": -87.6539838}, {"type": "node", "id": 734565173, "lat": 41.9536918, "lon": -87.6538806}, {"type": "node", "id": 734565178, "lat": 41.953624, "lon": -87.6538108}, {"type": "node", "id": 734565206, "lat": 41.9535462, "lon": -87.6537572}, {"type": "node", "id": 734565211, "lat": 41.9534524, "lon": -87.6537129}, {"type": "node", "id": 734565215, "lat": 41.9533358, "lon": -87.6536834}, {"type": "node", "id": 734565219, "lat": 41.953231, "lon": -87.6536767}, {"type": "node", "id": 734565223, "lat": 41.9528042, "lon": -87.6536593}, {"type": "node", "id": 734565228, "lat": 41.9526506, "lon": -87.6536593}, {"type": "node", "id": 734565232, "lat": 41.9525049, "lon": -87.65367}, {"type": "node", "id": 734565236, "lat": 41.9523025, "lon": -87.6537049}, {"type": "node", "id": 734565240, "lat": 41.9521948, "lon": -87.653717}, {"type": "node", "id": 734565243, "lat": 41.9520701, "lon": -87.6537223}, {"type": "node", "id": 734565245, "lat": 41.9513919, "lon": -87.6537022}, {"type": "node", "id": 734565246, "lat": 41.9510887, "lon": -87.6536955}, {"type": "node", "id": 734565247, "lat": 41.950963, "lon": -87.6536955}, {"type": "node", "id": 734565249, "lat": 41.9507176, "lon": -87.6537076}, {"type": "node", "id": 734565252, "lat": 41.950569, "lon": -87.6537062}, {"type": "node", "id": 734565256, "lat": 41.9502947, "lon": -87.6536995}, {"type": "node", "id": 734565261, "lat": 41.9489512, "lon": -87.6536566}, {"type": "node", "id": 734565267, "lat": 41.9487317, "lon": -87.653662}, {"type": "node", "id": 734565272, "lat": 41.9483398, "lon": -87.6536821}, {"type": "node", "id": 734565276, "lat": 41.9481393, "lon": -87.6536928}, {"type": "node", "id": 734565281, "lat": 41.9479837, "lon": -87.6536928}, {"type": "node", "id": 734565285, "lat": 41.947512, "lon": -87.653676, "tags": {"name": "Addison", "network": "CTA", "operator": "Chicago Transit Authority", "public_transport": "stop_position", "railway": "stop", "subway": "yes"}}, {"type": "node", "id": 734565289, "lat": 41.9470848, "lon": -87.6536692}, {"type": "node", "id": 734565294, "lat": 41.9468595, "lon": -87.6536539}, {"type": "node", "id": 734565300, "lat": 41.9464695, "lon": -87.653611}, {"type": "node", "id": 734565304, "lat": 41.9463059, "lon": -87.6535949}, {"type": "node", "id": 734565307, "lat": 41.9461813, "lon": -87.6535869}, {"type": "node", "id": 734565311, "lat": 41.9459907, "lon": -87.6535788}, {"type": "node", "id": 734565316, "lat": 41.9455568, "lon": -87.6535694}, {"type": "node", "id": 734565320, "lat": 41.9447419, "lon": -87.653544}, {"type": "node", "id": 734565333, "lat": 41.9446391, "lon": -87.6535386}, {"type": "node", "id": 734565335, "lat": 41.9445494, "lon": -87.6535265}, {"type": "node", "id": 734565337, "lat": 41.9444476, "lon": -87.6534997}, {"type": "node", "id": 734565339, "lat": 41.944292, "lon": -87.6534568}, {"type": "node", "id": 734565345, "lat": 41.9441932, "lon": -87.6534407}, {"type": "node", "id": 734565350, "lat": 41.9440785, "lon": -87.653434}, {"type": "node", "id": 734565355, "lat": 41.9438052, "lon": -87.65343}, {"type": "node", "id": 734565360, "lat": 41.9432336, "lon": -87.6534125}, {"type": "node", "id": 734565366, "lat": 41.943104, "lon": -87.6534125}, {"type": "node", "id": 734565374, "lat": 41.9429763, "lon": -87.6534219}, {"type": "node", "id": 734565385, "lat": 41.9427359, "lon": -87.6534474}, {"type": "node", "id": 734565393, "lat": 41.9426251, "lon": -87.6534514}, {"type": "node", "id": 734565397, "lat": 41.9403137, "lon": -87.6533674}, {"type": "node", "id": 734573145, "lat": 41.9404701, "lon": -87.653327}, {"type": "node", "id": 739321890, "lat": 41.9264996, "lon": -87.6528602}, {"type": "node", "id": 739321893, "lat": 41.9264727, "lon": -87.652903}, {"type": "node", "id": 739321896, "lat": 41.9267393, "lon": -87.6528661, "tags": {"railway": "switch"}}, {"type": "node", "id": 739321897, "lat": 41.9270995, "lon": -87.6529224, "tags": {"railway": "switch"}}, {"type": "node", "id": 739321898, "lat": 41.9351261, "lon": -87.653196, "tags": {"railway": "switch"}}, {"type": "node", "id": 739321899, "lat": 41.9354493, "lon": -87.6531683, "tags": {"railway": "switch"}}, {"type": "node", "id": 739322024, "lat": 41.917966, "lon": -87.652561, "tags": {"name": "Armitage", "network": "CTA", "operator": "Chicago Transit Authority", "public_transport": "stop_position", "railway": "stop", "subway": "yes"}}, {"type": "node", "id": 739322025, "lat": 41.917963, "lon": -87.652677, "tags": {"name": "Armitage", "network": "CTA", "operator": "Chicago Transit Authority", "public_transport": "stop_position", "railway": "stop", "subway": "yes"}}, {"type": "node", "id": 739322063, "lat": 41.9130849, "lon": -87.6516381}, {"type": "node", "id": 739322136, "lat": 41.9171958, "lon": -87.6526207}, {"type": "node", "id": 739322141, "lat": 41.919498, "lon": -87.6526234, "tags": {"railway": "switch"}}, {"type": "node", "id": 739322142, "lat": 41.9198573, "lon": -87.652677, "tags": {"railway": "switch"}}, {"type": "node", "id": 739322147, "lat": 41.9230155, "lon": -87.6528245, "tags": {"railway": "switch"}}, {"type": "node", "id": 739322149, "lat": 41.9225465, "lon": -87.6528538, "tags": {"railway": "switch"}}, {"type": "node", "id": 739322154, "lat": 41.9171938, "lon": -87.6525791}, {"type": "node", "id": 739322172, "lat": 41.9210986, "lon": -87.6528066, "tags": {"railway": "switch"}}, {"type": "node", "id": 739322174, "lat": 41.9207244, "lon": -87.6527508, "tags": {"railway": "switch"}}, {"type": "node", "id": 739322178, "lat": 41.9207274, "lon": -87.6527079, "tags": {"railway": "switch"}}, {"type": "node", "id": 739322179, "lat": 41.9210986, "lon": -87.652673, "tags": {"railway": "switch"}}, {"type": "node", "id": 739322183, "lat": 41.9203702, "lon": -87.6527401, "tags": {"railway": "switch"}}, {"type": "node", "id": 739322185, "lat": 41.9200129, "lon": -87.6526837, "tags": {"railway": "switch"}}, {"type": "node", "id": 739322190, "lat": 41.9200139, "lon": -87.652728, "tags": {"railway": "switch"}}, {"type": "node", "id": 739322192, "lat": 41.9203682, "lon": -87.6526958, "tags": {"railway": "switch"}}, {"type": "node", "id": 739322195, "lat": 41.9198573, "lon": -87.652724, "tags": {"railway": "switch"}}, {"type": "node", "id": 739322196, "lat": 41.9195082, "lon": -87.6527474, "tags": {"railway": "switch"}}, {"type": "node", "id": 739322207, "lat": 41.9375454, "lon": -87.6532363, "tags": {"railway": "switch"}}, {"type": "node", "id": 739322209, "lat": 41.9379005, "lon": -87.6532926, "tags": {"railway": "switch"}}, {"type": "node", "id": 739322214, "lat": 41.9272362, "lon": -87.6530016, "tags": {"railway": "switch"}}, {"type": "node", "id": 739322216, "lat": 41.9267653, "lon": -87.6529452, "tags": {"railway": "switch"}}, {"type": "node", "id": 739322222, "lat": 41.9272402, "lon": -87.65296, "tags": {"railway": "switch"}}, {"type": "node", "id": 739322223, "lat": 41.9267663, "lon": -87.6529882, "tags": {"railway": "switch"}}, {"type": "node", "id": 739322226, "lat": 41.9230125, "lon": -87.6528701, "tags": {"railway": "switch"}}, {"type": "node", "id": 739322228, "lat": 41.9225475, "lon": -87.6528085, "tags": {"railway": "switch"}}, {"type": "node", "id": 739322247, "lat": 41.9378986, "lon": -87.6533818, "tags": {"railway": "switch"}}, {"type": "node", "id": 739322248, "lat": 41.9375554, "lon": -87.6533248, "tags": {"railway": "switch"}}, {"type": "node", "id": 739322251, "lat": 41.9379035, "lon": -87.6533355, "tags": {"railway": "switch"}}, {"type": "node", "id": 739322253, "lat": 41.9375594, "lon": -87.6533704, "tags": {"railway": "switch"}}, {"type": "node", "id": 739322257, "lat": 41.9375484, "lon": -87.6532805, "tags": {"railway": "switch"}}, {"type": "node", "id": 739322259, "lat": 41.9379005, "lon": -87.6532538, "tags": {"railway": "switch"}}, {"type": "node", "id": 739322272, "lat": 41.9404621, "lon": -87.6534906}, {"type": "node", "id": 739322277, "lat": 41.9389827, "lon": -87.653446}, {"type": "node", "id": 739322278, "lat": 41.9387546, "lon": -87.6534329}, {"type": "node", "id": 739322279, "lat": 41.9385148, "lon": -87.6534131}, {"type": "node", "id": 739322280, "lat": 41.9382599, "lon": -87.6533864}, {"type": "node", "id": 739322281, "lat": 41.936405, "lon": -87.653318, "tags": {"name": "Wellington", "network": "CTA", "operator": "Chicago Transit Authority", "public_transport": "stop_position", "railway": "stop", "subway": "yes"}}, {"type": "node", "id": 739322282, "lat": 41.9358492, "lon": -87.6532991}, {"type": "node", "id": 739322283, "lat": 41.9350281, "lon": -87.6532786}, {"type": "node", "id": 739322284, "lat": 41.934809, "lon": -87.6532673}, {"type": "node", "id": 739322285, "lat": 41.9346373, "lon": -87.6532537}, {"type": "node", "id": 739322286, "lat": 41.9344667, "lon": -87.6532309}, {"type": "node", "id": 739322287, "lat": 41.934339, "lon": -87.6532229}, {"type": "node", "id": 739322288, "lat": 41.9341604, "lon": -87.6532175}, {"type": "node", "id": 739322289, "lat": 41.9337364, "lon": -87.6532014}, {"type": "node", "id": 739322290, "lat": 41.9334336, "lon": -87.6531935}, {"type": "node", "id": 739322295, "lat": 41.9331868, "lon": -87.6531945}, {"type": "node", "id": 739322296, "lat": 41.9330633, "lon": -87.653189}, {"type": "node", "id": 739322303, "lat": 41.931905, "lon": -87.653165}, {"type": "node", "id": 739322306, "lat": 41.9310187, "lon": -87.6531397}, {"type": "node", "id": 739322308, "lat": 41.9303662, "lon": -87.6531142}, {"type": "node", "id": 739322309, "lat": 41.9299142, "lon": -87.6531035}, {"type": "node", "id": 739322317, "lat": 41.9260207, "lon": -87.6529748}, {"type": "node", "id": 739322319, "lat": 41.9258119, "lon": -87.6529723}, {"type": "node", "id": 739322327, "lat": 41.9241481, "lon": -87.6528959}, {"type": "node", "id": 739322333, "lat": 41.9236112, "lon": -87.6528817}, {"type": "node", "id": 739322335, "lat": 41.9218051, "lon": -87.6528326}, {"type": "node", "id": 739322336, "lat": 41.9202664, "lon": -87.6527803}, {"type": "node", "id": 739322338, "lat": 41.9186419, "lon": -87.6527033}, {"type": "node", "id": 739322340, "lat": 41.9165192, "lon": -87.652633}, {"type": "node", "id": 739322341, "lat": 41.9158556, "lon": -87.6526167}, {"type": "node", "id": 739322343, "lat": 41.9155313, "lon": -87.6526073}, {"type": "node", "id": 739322344, "lat": 41.9154295, "lon": -87.6525979}, {"type": "node", "id": 739322346, "lat": 41.9152159, "lon": -87.6525684}, {"type": "node", "id": 739322347, "lat": 41.9150772, "lon": -87.6525523}, {"type": "node", "id": 739322348, "lat": 41.9149584, "lon": -87.6525389}, {"type": "node", "id": 739322350, "lat": 41.9148517, "lon": -87.6525322}, {"type": "node", "id": 739322351, "lat": 41.9142409, "lon": -87.6525121}, {"type": "node", "id": 739322353, "lat": 41.9140603, "lon": -87.652508}, {"type": "node", "id": 739322357, "lat": 41.9139185, "lon": -87.6524879}, {"type": "node", "id": 739322358, "lat": 41.9138128, "lon": -87.6524531}, {"type": "node", "id": 739322360, "lat": 41.9137209, "lon": -87.6524061}, {"type": "node", "id": 739322362, "lat": 41.9136291, "lon": -87.6523404}, {"type": "node", "id": 739322364, "lat": 41.9135543, "lon": -87.6522774}, {"type": "node", "id": 739322366, "lat": 41.9134844, "lon": -87.6521983}, {"type": "node", "id": 739322368, "lat": 41.9134036, "lon": -87.6520883}, {"type": "node", "id": 739322370, "lat": 41.9133068, "lon": -87.6519542}, {"type": "node", "id": 739322404, "lat": 41.9186411, "lon": -87.6526243}, {"type": "node", "id": 739322406, "lat": 41.9216105, "lon": -87.652736}, {"type": "node", "id": 739322407, "lat": 41.9227251, "lon": -87.6527722}, {"type": "node", "id": 739322411, "lat": 41.924706, "lon": -87.652768}, {"type": "node", "id": 739322415, "lat": 41.9299521, "lon": -87.6530203}, {"type": "node", "id": 739322417, "lat": 41.9313559, "lon": -87.6530713}, {"type": "node", "id": 739322418, "lat": 41.9325711, "lon": -87.6531003}, {"type": "node", "id": 739322420, "lat": 41.9330729, "lon": -87.6531129}, {"type": "node", "id": 739322424, "lat": 41.9332389, "lon": -87.6531082}, {"type": "node", "id": 739322426, "lat": 41.9334162, "lon": -87.6531037}, {"type": "node", "id": 739322427, "lat": 41.9335848, "lon": -87.653109}, {"type": "node", "id": 739322429, "lat": 41.9340995, "lon": -87.6531263}, {"type": "node", "id": 739322431, "lat": 41.934332, "lon": -87.6531343}, {"type": "node", "id": 739322432, "lat": 41.9345086, "lon": -87.6531491}, {"type": "node", "id": 739322434, "lat": 41.934754, "lon": -87.6531786}, {"type": "node", "id": 739322436, "lat": 41.9349056, "lon": -87.6531907}, {"type": "node", "id": 739322437, "lat": 41.9358234, "lon": -87.6532195}, {"type": "node", "id": 739322439, "lat": 41.9368271, "lon": -87.653255}, {"type": "node", "id": 739322441, "lat": 41.9384806, "lon": -87.6532745}, {"type": "node", "id": 739322454, "lat": 41.9382877, "lon": -87.6533274}, {"type": "node", "id": 739322457, "lat": 41.9367483, "lon": -87.6532966}, {"type": "node", "id": 739322458, "lat": 41.9358402, "lon": -87.6532614}, {"type": "node", "id": 739322460, "lat": 41.935197, "lon": -87.653243}, {"type": "node", "id": 739322461, "lat": 41.9348877, "lon": -87.6532336}, {"type": "node", "id": 739322463, "lat": 41.934753, "lon": -87.6532229}, {"type": "node", "id": 739322464, "lat": 41.9344697, "lon": -87.6531907}, {"type": "node", "id": 739322466, "lat": 41.934346, "lon": -87.6531786}, {"type": "node", "id": 739322467, "lat": 41.9336965, "lon": -87.6531585}, {"type": "node", "id": 739322468, "lat": 41.9334223, "lon": -87.6531522}, {"type": "node", "id": 739322470, "lat": 41.9331873, "lon": -87.6531522}, {"type": "node", "id": 739322472, "lat": 41.9325673, "lon": -87.6531413}, {"type": "node", "id": 739322475, "lat": 41.9309229, "lon": -87.6530955}, {"type": "node", "id": 739322476, "lat": 41.9299242, "lon": -87.6530646}, {"type": "node", "id": 739322481, "lat": 41.9257457, "lon": -87.6528492}, {"type": "node", "id": 739322483, "lat": 41.923997, "lon": -87.6527906}, {"type": "node", "id": 739322484, "lat": 41.9218141, "lon": -87.6527843}, {"type": "node", "id": 739322486, "lat": 41.918617, "lon": -87.6526673}, {"type": "node", "id": 739322500, "lat": 41.9133267, "lon": -87.6519206}, {"type": "node", "id": 739322501, "lat": 41.9134714, "lon": -87.6521191}, {"type": "node", "id": 739322503, "lat": 41.9135553, "lon": -87.6522237}, {"type": "node", "id": 739322505, "lat": 41.9136341, "lon": -87.6522975}, {"type": "node", "id": 739322508, "lat": 41.9137299, "lon": -87.6523632}, {"type": "node", "id": 739322509, "lat": 41.9138337, "lon": -87.6524142}, {"type": "node", "id": 739322511, "lat": 41.9139285, "lon": -87.652449}, {"type": "node", "id": 739322513, "lat": 41.9140433, "lon": -87.6524624}, {"type": "node", "id": 739322516, "lat": 41.9142758, "lon": -87.6524705}, {"type": "node", "id": 739322518, "lat": 41.9149175, "lon": -87.652492}, {"type": "node", "id": 739322520, "lat": 41.9150682, "lon": -87.6524973}, {"type": "node", "id": 739322521, "lat": 41.9152089, "lon": -87.6524879}, {"type": "node", "id": 739322523, "lat": 41.9153965, "lon": -87.6524705}, {"type": "node", "id": 739322524, "lat": 41.9155203, "lon": -87.6524705}, {"type": "node", "id": 739322526, "lat": 41.9158267, "lon": -87.6524839}, {"type": "node", "id": 739322527, "lat": 41.9169174, "lon": -87.6525228}, {"type": "node", "id": 739322529, "lat": 41.9186137, "lon": -87.6525864}, {"type": "node", "id": 739322530, "lat": 41.9203183, "lon": -87.6526489}, {"type": "node", "id": 739322532, "lat": 41.9217143, "lon": -87.6526931}, {"type": "node", "id": 739322533, "lat": 41.9227182, "lon": -87.652738}, {"type": "node", "id": 739322534, "lat": 41.923718, "lon": -87.6527339}, {"type": "node", "id": 739322535, "lat": 41.9243185, "lon": -87.652649}, {"type": "node", "id": 739322543, "lat": 41.9258291, "lon": -87.6526992}, {"type": "node", "id": 739322545, "lat": 41.9259676, "lon": -87.652717}, {"type": "node", "id": 739322546, "lat": 41.9260562, "lon": -87.6527448}, {"type": "node", "id": 739322548, "lat": 41.9262958, "lon": -87.6528232}, {"type": "node", "id": 739322550, "lat": 41.9264078, "lon": -87.6528471}, {"type": "node", "id": 739322560, "lat": 41.9303781, "lon": -87.6529935}, {"type": "node", "id": 739322563, "lat": 41.9312641, "lon": -87.653019}, {"type": "node", "id": 739322565, "lat": 41.9320024, "lon": -87.6530472}, {"type": "node", "id": 739322568, "lat": 41.9330877, "lon": -87.6530754}, {"type": "node", "id": 739322570, "lat": 41.9332158, "lon": -87.6530706}, {"type": "node", "id": 739322574, "lat": 41.9333932, "lon": -87.6530659}, {"type": "node", "id": 739322575, "lat": 41.9335468, "lon": -87.6530726}, {"type": "node", "id": 739322577, "lat": 41.9343639, "lon": -87.6530901}, {"type": "node", "id": 739322578, "lat": 41.9345116, "lon": -87.6531048}, {"type": "node", "id": 739322580, "lat": 41.9347959, "lon": -87.653137}, {"type": "node", "id": 739322581, "lat": 41.9349196, "lon": -87.6531437}, {"type": "node", "id": 739322583, "lat": 41.936408, "lon": -87.653201, "tags": {"name": "Wellington", "network": "CTA", "operator": "Chicago Transit Authority", "public_transport": "stop_position", "railway": "stop", "subway": "yes"}}, {"type": "node", "id": 739322585, "lat": 41.938828, "lon": -87.6531553}, {"type": "node", "id": 739322586, "lat": 41.9389921, "lon": -87.6531459}, {"type": "node", "id": 772288954, "lat": 41.932955, "lon": -87.6444494, "tags": {"amenity": "restaurant"}}, {"type": "node", "id": 924674711, "lat": 41.9119543, "lon": -87.6500091}, {"type": "node", "id": 924674756, "lat": 41.9110958, "lon": -87.6473874}, {"type": "node", "id": 924674757, "lat": 41.9112283, "lon": -87.6474193}, {"type": "node", "id": 924674758, "lat": 41.911286, "lon": -87.6474553}, {"type": "node", "id": 924674759, "lat": 41.91138, "lon": -87.6475286}, {"type": "node", "id": 924674760, "lat": 41.9114356, "lon": -87.6475895}, {"type": "node", "id": 924674761, "lat": 41.9115173, "lon": -87.6477592}, {"type": "node", "id": 924674762, "lat": 41.911548, "lon": -87.6478938}, {"type": "node", "id": 924674763, "lat": 41.91155, "lon": -87.6480762}, {"type": "node", "id": 924674764, "lat": 41.9115239, "lon": -87.6489173}, {"type": "node", "id": 924674765, "lat": 41.9115763, "lon": -87.6492955}, {"type": "node", "id": 924674766, "lat": 41.9116282, "lon": -87.649487}, {"type": "node", "id": 924674767, "lat": 41.9117309, "lon": -87.6496968}, {"type": "node", "id": 924675092, "lat": 41.9103627, "lon": -87.6467216}, {"type": "node", "id": 924675093, "lat": 41.9103873, "lon": -87.6469349}, {"type": "node", "id": 924675094, "lat": 41.9104107, "lon": -87.6470524}, {"type": "node", "id": 924675095, "lat": 41.9104587, "lon": -87.6471682}, {"type": "node", "id": 924675096, "lat": 41.9106906, "lon": -87.6473455}, {"type": "node", "id": 924675097, "lat": 41.9107635, "lon": -87.6473681}, {"type": "node", "id": 924675118, "lat": 41.9103683, "lon": -87.6456166}, {"type": "node", "id": 924675149, "lat": 41.9103902, "lon": -87.6432643}, {"type": "node", "id": 924675152, "lat": 41.9104262, "lon": -87.6408664}, {"type": "node", "id": 924675178, "lat": 41.9104069, "lon": -87.6392616}, {"type": "node", "id": 924675179, "lat": 41.9104093, "lon": -87.6394285}, {"type": "node", "id": 924675180, "lat": 41.9104212, "lon": -87.6396886}, {"type": "node", "id": 924675181, "lat": 41.9104291, "lon": -87.6398421}, {"type": "node", "id": 924675186, "lat": 41.9097275, "lon": -87.6372695}, {"type": "node", "id": 924675187, "lat": 41.9098453, "lon": -87.6372828}, {"type": "node", "id": 924675188, "lat": 41.9099492, "lon": -87.6373066}, {"type": "node", "id": 924675189, "lat": 41.910146, "lon": -87.6374121}, {"type": "node", "id": 924675190, "lat": 41.9102987, "lon": -87.6375957}, {"type": "node", "id": 924675191, "lat": 41.9103443, "lon": -87.6376906}, {"type": "node", "id": 924675192, "lat": 41.9104123, "lon": -87.6379359}, {"type": "node", "id": 924675193, "lat": 41.9104273, "lon": -87.6380944}, {"type": "node", "id": 924675223, "lat": 41.908476, "lon": -87.6372186}, {"type": "node", "id": 924675233, "lat": 41.9071705, "lon": -87.6371569}, {"type": "node", "id": 924675431, "lat": 41.9058989, "lon": -87.6371167}, {"type": "node", "id": 924675523, "lat": 41.9048948, "lon": -87.6370952}, {"type": "node", "id": 924675524, "lat": 41.903705, "lon": -87.6370147}, {"type": "node", "id": 924675572, "lat": 41.9025312, "lon": -87.6365185}, {"type": "node", "id": 924675573, "lat": 41.902651, "lon": -87.636599}, {"type": "node", "id": 924675574, "lat": 41.9029305, "lon": -87.6368082}, {"type": "node", "id": 924675575, "lat": 41.9031401, "lon": -87.6369369}, {"type": "node", "id": 924675576, "lat": 41.9033996, "lon": -87.6370067}, {"type": "node", "id": 924675644, "lat": 41.9016488, "lon": -87.6366204}, {"type": "node", "id": 924675645, "lat": 41.90211, "lon": -87.6364702}, {"type": "node", "id": 924675646, "lat": 41.9022457, "lon": -87.6364541}, {"type": "node", "id": 924675647, "lat": 41.9024035, "lon": -87.6364756}, {"type": "node", "id": 924676026, "lat": 41.9012356, "lon": -87.6366955}, {"type": "node", "id": 924676027, "lat": 41.9013899, "lon": -87.6366849}, {"type": "node", "id": 924677086, "lat": 41.8978637, "lon": -87.6365614}, {"type": "node", "id": 924677837, "lat": 41.8971021, "lon": -87.63635}, {"type": "node", "id": 924677838, "lat": 41.8971844, "lon": -87.6364348}, {"type": "node", "id": 924677841, "lat": 41.8973662, "lon": -87.6365359}, {"type": "node", "id": 924677844, "lat": 41.8974457, "lon": -87.6365511}, {"type": "node", "id": 924677939, "lat": 41.8978377, "lon": -87.6365604, "tags": {"railway": "switch"}}, {"type": "node", "id": 924678447, "lat": 41.8959778, "lon": -87.6356699, "tags": {"name": "Chicago", "network": "CTA", "operator": "Chicago Transit Authority", "public_transport": "stop_position", "railway": "stop", "subway": "yes"}}, {"type": "node", "id": 924678448, "lat": 41.8963703, "lon": -87.6356806}, {"type": "node", "id": 924678449, "lat": 41.8965409, "lon": -87.6357273}, {"type": "node", "id": 924678450, "lat": 41.8966684, "lon": -87.6358135}, {"type": "node", "id": 924678452, "lat": 41.8945155, "lon": -87.6356307}, {"type": "node", "id": 924678511, "lat": 41.8933934, "lon": -87.6355878}, {"type": "node", "id": 924678512, "lat": 41.8909994, "lon": -87.6355288}, {"type": "node", "id": 924678513, "lat": 41.8922154, "lon": -87.6355556}, {"type": "node", "id": 924678601, "lat": 41.8902215, "lon": -87.6354055}, {"type": "node", "id": 924678602, "lat": 41.8902904, "lon": -87.6354639}, {"type": "node", "id": 924678603, "lat": 41.8903889, "lon": -87.6355084}, {"type": "node", "id": 924678604, "lat": 41.8895462, "lon": -87.6340374}, {"type": "node", "id": 924678605, "lat": 41.8897271, "lon": -87.6341587}, {"type": "node", "id": 924678606, "lat": 41.8898163, "lon": -87.6342713}, {"type": "node", "id": 924678607, "lat": 41.8898748, "lon": -87.6343977}, {"type": "node", "id": 924678608, "lat": 41.8899166, "lon": -87.6345559}, {"type": "node", "id": 924678609, "lat": 41.8900091, "lon": -87.6350492}, {"type": "node", "id": 924678610, "lat": 41.8900931, "lon": -87.6352493}, {"type": "node", "id": 924678652, "lat": 41.889399, "lon": -87.6339983}, {"type": "node", "id": 924678871, "lat": 41.8870832, "lon": -87.6339425}, {"type": "node", "id": 924678886, "lat": 41.8865661, "lon": -87.6339468}, {"type": "node", "id": 1349879207, "lat": 41.9267484, "lon": -87.6409859, "tags": {"addr:housenumber": "2447", "addr:street": "North Clark Street", "addr:street:name": "Clark", "addr:street:prefix": "North", "addr:street:type": "Street", "amenity": "restaurant", "cuisine": "american", "name": "House of Wings"}}, {"type": "node", "id": 1349879445, "lat": 41.9251559, "lon": -87.6399232, "tags": {"amenity": "restaurant", "cuisine": "thai", "name": "Nine", "takeaway": "yes"}}, {"type": "node", "id": 1349879616, "lat": 41.9261777, "lon": -87.6405454, "tags": {"addr:city": "Chicago", "addr:housenumber": "2423", "addr:postcode": "60614", "addr:state": "IL", "addr:street": "North Clark Street", "amenity": "restaurant", "name": "Drawl Southern Cook House & Whiskey Room", "phone": "+1-773-687-8111", "website": "https://www.drawlchicago.com/"}}, {"type": "node", "id": 1349879617, "lat": 41.9258684, "lon": -87.6408981, "tags": {"amenity": "restaurant", "cuisine": "international", "name": "Tapas Restarurant/Bar"}}, {"type": "node", "id": 1432910146, "lat": 41.9115344, "lon": -87.6490955}, {"type": "node", "id": 1432910164, "lat": 41.9111655, "lon": -87.6473943}, {"type": "node", "id": 1432910166, "lat": 41.9114866, "lon": -87.6476829}, {"type": "node", "id": 1432910167, "lat": 41.9105328, "lon": -87.6472601}, {"type": "node", "id": 1432910169, "lat": 41.910619, "lon": -87.6473192}, {"type": "node", "id": 1634477276, "lat": 41.9373049, "lon": -87.653226}, {"type": "node", "id": 1710876944, "lat": 41.9235015, "lon": -87.6527975}, {"type": "node", "id": 1710876945, "lat": 41.92356, "lon": -87.6527558}, {"type": "node", "id": 1710876946, "lat": 41.9242103, "lon": -87.6526557}, {"type": "node", "id": 1710876951, "lat": 41.9286198, "lon": -87.6535883}, {"type": "node", "id": 1710876952, "lat": 41.928635, "lon": -87.6533929}, {"type": "node", "id": 1710876953, "lat": 41.9287461, "lon": -87.6535901}, {"type": "node", "id": 1710876954, "lat": 41.9287621, "lon": -87.6535758}, {"type": "node", "id": 1710876988, "lat": 41.9381848, "lon": -87.6532528}, {"type": "node", "id": 1710876989, "lat": 41.9386504, "lon": -87.6533124}, {"type": "node", "id": 1710876990, "lat": 41.9386784, "lon": -87.6532706}, {"type": "node", "id": 1710876991, "lat": 41.9405496, "lon": -87.653234}, {"type": "node", "id": 1710876992, "lat": 41.9409346, "lon": -87.6533302}, {"type": "node", "id": 1710876993, "lat": 41.9411083, "lon": -87.6533463}, {"type": "node", "id": 1983526823, "lat": 41.9237263, "lon": -87.6527766}, {"type": "node", "id": 1983526826, "lat": 41.9258827, "lon": -87.6528194}, {"type": "node", "id": 1983526835, "lat": 41.9262642, "lon": -87.65288}, {"type": "node", "id": 1983543632, "lat": 41.924302, "lon": -87.649851}, {"type": "node", "id": 1983549241, "lat": 41.9222116, "lon": -87.6528996}, {"type": "node", "id": 1983549242, "lat": 41.9222019, "lon": -87.6536129}, {"type": "node", "id": 1983580989, "lat": 41.9408874, "lon": -87.6534619}, {"type": "node", "id": 1983580999, "lat": 41.9406879, "lon": -87.6533466}, {"type": "node", "id": 1983581003, "lat": 41.9382645, "lon": -87.6532869}, {"type": "node", "id": 1983581012, "lat": 41.9410447, "lon": -87.6534591}, {"type": "node", "id": 1984415177, "lat": 41.9262522, "lon": -87.6529138}, {"type": "node", "id": 1984415178, "lat": 41.9263447, "lon": -87.6528895}, {"type": "node", "id": 1984415179, "lat": 41.9234727, "lon": -87.6528376}, {"type": "node", "id": 1984415181, "lat": 41.9233606, "lon": -87.6528025}, {"type": "node", "id": 1984415185, "lat": 41.926342, "lon": -87.6529309}, {"type": "node", "id": 1984415190, "lat": 41.925977, "lon": -87.6528315}, {"type": "node", "id": 1984415192, "lat": 41.9259772, "lon": -87.6528669}, {"type": "node", "id": 1984415195, "lat": 41.9233562, "lon": -87.6527695}, {"type": "node", "id": 1984415196, "lat": 41.9239869, "lon": -87.6527584}, {"type": "node", "id": 1984415198, "lat": 41.923905, "lon": -87.6527949}, {"type": "node", "id": 1984415200, "lat": 41.9233457, "lon": -87.6528397}, {"type": "node", "id": 1984415204, "lat": 41.9236071, "lon": -87.6528265}, {"type": "node", "id": 1984416056, "lat": 41.9264864, "lon": -87.652941}, {"type": "node", "id": 1984429360, "lat": 41.9381164, "lon": -87.6532975}, {"type": "node", "id": 1984429361, "lat": 41.9404827, "lon": -87.6533724}, {"type": "node", "id": 1984429364, "lat": 41.9381233, "lon": -87.6533355}, {"type": "node", "id": 1984429367, "lat": 41.9384691, "lon": -87.6533147}, {"type": "node", "id": 1984429368, "lat": 41.9383569, "lon": -87.6532356}, {"type": "node", "id": 1984429372, "lat": 41.940788, "lon": -87.6532983}, {"type": "node", "id": 2003592886, "lat": 41.8966117, "lon": -87.6357711}, {"type": "node", "id": 2004713101, "lat": 41.932565, "lon": -87.653062, "tags": {"name": "Diversey", "network": "CTA", "operator": "Chicago Transit Authority", "public_transport": "stop_position", "railway": "stop", "subway": "yes"}}, {"type": "node", "id": 2004713106, "lat": 41.932565, "lon": -87.653179, "tags": {"name": "Diversey", "network": "CTA", "operator": "Chicago Transit Authority", "public_transport": "stop_position", "railway": "stop", "subway": "yes"}}, {"type": "node", "id": 2012532417, "lat": 41.935855, "lon": -87.6531834}, {"type": "node", "id": 2012549082, "lat": 41.925154, "lon": -87.65295, "tags": {"name": "Fullerton", "network": "CTA", "operator": "Chicago Transit Authority", "public_transport": "stop_position", "railway": "stop", "subway": "yes", "wheelchair": "yes"}}, {"type": "node", "id": 2012549083, "lat": 41.925162, "lon": -87.652677, "tags": {"name": "Fullerton", "network": "CTA", "operator": "Chicago Transit Authority", "public_transport": "stop_position", "railway": "stop", "subway": "yes", "wheelchair": "yes"}}, {"type": "node", "id": 2012769524, "lat": 41.9172534, "lon": -87.6526536, "tags": {"railway": "switch"}}, {"type": "node", "id": 2012780397, "lat": 41.9102184, "lon": -87.6374819}, {"type": "node", "id": 2012780401, "lat": 41.9103808, "lon": -87.637796}, {"type": "node", "id": 2012780408, "lat": 41.9104137, "lon": -87.6388572, "tags": {"name": "Sedgwick", "network": "CTA", "operator": "Chicago Transit Authority", "public_transport": "stop_position", "railway": "stop", "subway": "yes"}}, {"type": "node", "id": 2012780443, "lat": 41.9100398, "lon": -87.6373382}, {"type": "node", "id": 2012967718, "lat": 41.897294, "lon": -87.6365125}, {"type": "node", "id": 2012967723, "lat": 41.8964498, "lon": -87.6356916}, {"type": "node", "id": 2012967745, "lat": 41.8972314, "lon": -87.6364722}, {"type": "node", "id": 2012967764, "lat": 41.8967294, "lon": -87.6358802}, {"type": "node", "id": 2012979485, "lat": 41.8900444, "lon": -87.6351583}, {"type": "node", "id": 2012979487, "lat": 41.8901588, "lon": -87.6353385}, {"type": "node", "id": 2012979493, "lat": 41.890499, "lon": -87.6355289}, {"type": "node", "id": 2012979495, "lat": 41.8892312, "lon": -87.6339933, "tags": {"name": "Merchandise Mart", "network": "CTA", "operator": "Chicago Transit Authority", "public_transport": "stop_position", "railway": "stop", "subway": "yes"}}, {"type": "node", "id": 2012979496, "lat": 41.8893506, "lon": -87.6339976}, {"type": "node", "id": 2012979499, "lat": 41.8896287, "lon": -87.6340839}, {"type": "node", "id": 2014100269, "lat": 41.939846, "lon": -87.653472, "tags": {"name": "Belmont", "network": "CTA", "operator": "Chicago Transit Authority", "public_transport": "stop_position", "railway": "stop", "subway": "yes"}}, {"type": "node", "id": 2014100270, "lat": 41.939848, "lon": -87.653181, "tags": {"name": "Belmont", "network": "CTA", "operator": "Chicago Transit Authority", "public_transport": "stop_position", "railway": "stop", "subway": "yes"}}, {"type": "node", "id": 2022110661, "lat": 41.953878, "lon": -87.655242, "tags": {"name": "Sheridan", "network": "CTA", "operator": "Chicago Transit Authority", "public_transport": "stop_position", "railway": "stop", "subway": "yes"}}, {"type": "node", "id": 2022110673, "lat": 41.9538769, "lon": -87.6544088}, {"type": "node", "id": 2022110677, "lat": 41.9538335, "lon": -87.6541693}, {"type": "node", "id": 2022110679, "lat": 41.9538682, "lon": -87.6559505}, {"type": "node", "id": 2023910816, "lat": 41.939857, "lon": -87.6533523, "tags": {"name": "Belmont", "network": "CTA", "operator": "Chicago Transit Authority", "public_transport": "stop_position", "railway": "stop", "subway": "yes"}}, {"type": "node", "id": 2023910817, "lat": 41.939853, "lon": -87.653308, "tags": {"name": "Belmont", "network": "CTA", "operator": "Chicago Transit Authority", "public_transport": "stop_position", "railway": "stop", "subway": "yes"}}, {"type": "node", "id": 2023910818, "lat": 41.925165, "lon": -87.6528297, "tags": {"name": "Fullerton", "network": "CTA", "operator": "Chicago Transit Authority", "public_transport": "stop_position", "railway": "stop", "subway": "yes", "wheelchair": "yes"}}, {"type": "node", "id": 2023910819, "lat": 41.925163, "lon": -87.652788, "tags": {"name": "Fullerton", "network": "CTA", "operator": "Chicago Transit Authority", "public_transport": "stop_position", "railway": "stop", "subway": "yes", "wheelchair": "yes"}}, {"type": "node", "id": 2204024213, "lat": 41.9200758, "lon": -87.6491571}, {"type": "node", "id": 2204024246, "lat": 41.9200822, "lon": -87.6487242}, {"type": "node", "id": 2204024332, "lat": 41.9201013, "lon": -87.6486982}, {"type": "node", "id": 2204024436, "lat": 41.9201452, "lon": -87.6491589}, {"type": "node", "id": 2204024451, "lat": 41.9201521, "lon": -87.6486996}, {"type": "node", "id": 2204034369, "lat": 41.9230418, "lon": -87.6452252}, {"type": "node", "id": 2204034445, "lat": 41.9230531, "lon": -87.6459254}, {"type": "node", "id": 2204034519, "lat": 41.9230715, "lon": -87.6459558}, {"type": "node", "id": 2204034575, "lat": 41.9230861, "lon": -87.6459754}, {"type": "node", "id": 2204034779, "lat": 41.9231343, "lon": -87.6458217}, {"type": "node", "id": 2204034784, "lat": 41.9231356, "lon": -87.6458033}, {"type": "node", "id": 2204034790, "lat": 41.9231381, "lon": -87.6453576}, {"type": "node", "id": 2204035015, "lat": 41.9232155, "lon": -87.6458109}, {"type": "node", "id": 2204035138, "lat": 41.923242, "lon": -87.6449702}, {"type": "node", "id": 2204035410, "lat": 41.9233282, "lon": -87.6456194}, {"type": "node", "id": 2204035430, "lat": 41.923333, "lon": -87.6450957}, {"type": "node", "id": 2204035452, "lat": 41.9233377, "lon": -87.6451019}, {"type": "node", "id": 2204035573, "lat": 41.9233681, "lon": -87.645674}, {"type": "node", "id": 2204035943, "lat": 41.9234782, "lon": -87.6455002}, {"type": "node", "id": 2204036024, "lat": 41.9234865, "lon": -87.6455203}, {"type": "node", "id": 2204036056, "lat": 41.9234904, "lon": -87.6454853}, {"type": "node", "id": 2204036147, "lat": 41.9235015, "lon": -87.6454999}, {"type": "node", "id": 2204036210, "lat": 41.9235131, "lon": -87.6453767}, {"type": "node", "id": 2204036347, "lat": 41.9235532, "lon": -87.6454314}, {"type": "node", "id": 2204044941, "lat": 41.9255989, "lon": -87.6479266}, {"type": "node", "id": 2204044944, "lat": 41.9256, "lon": -87.6478825}, {"type": "node", "id": 2204044971, "lat": 41.9256247, "lon": -87.6478859}, {"type": "node", "id": 2204044972, "lat": 41.9256249, "lon": -87.6478796}, {"type": "node", "id": 2204045107, "lat": 41.9257046, "lon": -87.6479365}, {"type": "node", "id": 2204045130, "lat": 41.9257114, "lon": -87.6479272}, {"type": "node", "id": 2204045252, "lat": 41.9257553, "lon": -87.6479267}, {"type": "node", "id": 2204045265, "lat": 41.9257595, "lon": -87.6479377}, {"type": "node", "id": 2204045344, "lat": 41.9257855, "lon": -87.6479319}, {"type": "node", "id": 2204045352, "lat": 41.9257874, "lon": -87.6478827}, {"type": "node", "id": 2204045359, "lat": 41.9257887, "lon": -87.6498519}, {"type": "node", "id": 2204045454, "lat": 41.9258178, "lon": -87.6498939}, {"type": "node", "id": 2204045543, "lat": 41.9258482, "lon": -87.6499358}, {"type": "node", "id": 2204045627, "lat": 41.9258787, "lon": -87.6499796}, {"type": "node", "id": 2204045854, "lat": 41.9259521, "lon": -87.6496462}, {"type": "node", "id": 2204046188, "lat": 41.9260421, "lon": -87.649772}, {"type": "node", "id": 2204047387, "lat": 41.9264871, "lon": -87.641602}, {"type": "node", "id": 2204047439, "lat": 41.9265006, "lon": -87.6415578}, {"type": "node", "id": 2204047720, "lat": 41.9265733, "lon": -87.6413291}, {"type": "node", "id": 2204047724, "lat": 41.9265738, "lon": -87.6416507}, {"type": "node", "id": 2204047824, "lat": 41.9265941, "lon": -87.6415898}, {"type": "node", "id": 2204047916, "lat": 41.9266147, "lon": -87.6413691}, {"type": "node", "id": 2204047937, "lat": 41.9266201, "lon": -87.6413544}, {"type": "node", "id": 2204048116, "lat": 41.9266634, "lon": -87.6413965}, {"type": "node", "id": 2204048654, "lat": 41.9268133, "lon": -87.6486915}, {"type": "node", "id": 2204048686, "lat": 41.9268205, "lon": -87.648437}, {"type": "node", "id": 2204048959, "lat": 41.9268779, "lon": -87.6486948}, {"type": "node", "id": 2204048983, "lat": 41.9268851, "lon": -87.6484403}, {"type": "node", "id": 2204051362, "lat": 41.9275472, "lon": -87.6414714, "tags": {"addr:housenumber": "2473", "addr:postcode": "60614", "addr:street": "North Clark Street", "amenity": "restaurant", "cuisine": "japanese", "entrance": "main", "name": "Kabuki"}}, {"type": "node", "id": 2204054829, "lat": 41.9286645, "lon": -87.649427}, {"type": "node", "id": 2204054879, "lat": 41.9286698, "lon": -87.6489879}, {"type": "node", "id": 2204055130, "lat": 41.9287302, "lon": -87.6494285}, {"type": "node", "id": 2204055146, "lat": 41.9287355, "lon": -87.6489894}, {"type": "node", "id": 2204055723, "lat": 41.9289325, "lon": -87.6492998}, {"type": "node", "id": 2204055739, "lat": 41.9289362, "lon": -87.6489973}, {"type": "node", "id": 2204055852, "lat": 41.9289907, "lon": -87.6493014}, {"type": "node", "id": 2204055884, "lat": 41.9289944, "lon": -87.6489982}, {"type": "node", "id": 2204056515, "lat": 41.929182, "lon": -87.6475271}, {"type": "node", "id": 2204056518, "lat": 41.929182, "lon": -87.6474538}, {"type": "node", "id": 2204056556, "lat": 41.9291994, "lon": -87.6475478}, {"type": "node", "id": 2204057197, "lat": 41.9294237, "lon": -87.6475534}, {"type": "node", "id": 2204057201, "lat": 41.9294238, "lon": -87.6474613}, {"type": "node", "id": 2204060335, "lat": 41.9302881, "lon": -87.6441081}, {"type": "node", "id": 2204060429, "lat": 41.93032, "lon": -87.6442029}, {"type": "node", "id": 2204060506, "lat": 41.9303387, "lon": -87.6441329}, {"type": "node", "id": 2204060592, "lat": 41.9303605, "lon": -87.6438283}, {"type": "node", "id": 2204060626, "lat": 41.9303681, "lon": -87.6442244}, {"type": "node", "id": 2204060719, "lat": 41.9303963, "lon": -87.6441212}, {"type": "node", "id": 2204060869, "lat": 41.9304348, "lon": -87.644141}, {"type": "node", "id": 2204061102, "lat": 41.9304949, "lon": -87.6439063}, {"type": "node", "id": 2204064432, "lat": 41.9316382, "lon": -87.6572443}, {"type": "node", "id": 2204065117, "lat": 41.9318316, "lon": -87.6575142}, {"type": "node", "id": 2204065252, "lat": 41.9318735, "lon": -87.6569401}, {"type": "node", "id": 2204065568, "lat": 41.9319693, "lon": -87.6571342}, {"type": "node", "id": 2204065625, "lat": 41.9319924, "lon": -87.6571064}, {"type": "node", "id": 2204065636, "lat": 41.9319983, "lon": -87.6571725}, {"type": "node", "id": 2204065661, "lat": 41.9320051, "lon": -87.6571632}, {"type": "node", "id": 2204065833, "lat": 41.9320536, "lon": -87.6572307}, {"type": "node", "id": 2204071494, "lat": 41.9330306, "lon": -87.649374}, {"type": "node", "id": 2204071505, "lat": 41.9330372, "lon": -87.6491428}, {"type": "node", "id": 2204071515, "lat": 41.9330402, "lon": -87.6493757}, {"type": "node", "id": 2204071519, "lat": 41.9330404, "lon": -87.6494015}, {"type": "node", "id": 2204071681, "lat": 41.9330994, "lon": -87.6494027}, {"type": "node", "id": 2204071685, "lat": 41.9331017, "lon": -87.649331}, {"type": "node", "id": 2204071732, "lat": 41.9331157, "lon": -87.6493694}, {"type": "node", "id": 2204071737, "lat": 41.9331168, "lon": -87.6493308}, {"type": "node", "id": 2204071865, "lat": 41.9331472, "lon": -87.6493709}, {"type": "node", "id": 2204071867, "lat": 41.9331483, "lon": -87.6493158}, {"type": "node", "id": 2204071872, "lat": 41.9331519, "lon": -87.6492276}, {"type": "node", "id": 2204071875, "lat": 41.933153, "lon": -87.6491945}, {"type": "node", "id": 2204071893, "lat": 41.9331661, "lon": -87.6493174}, {"type": "node", "id": 2204071900, "lat": 41.9331683, "lon": -87.6492292}, {"type": "node", "id": 2204071907, "lat": 41.9331692, "lon": -87.6491484}, {"type": "node", "id": 2204071908, "lat": 41.9331692, "lon": -87.649152}, {"type": "node", "id": 2204071910, "lat": 41.9331695, "lon": -87.6491961}, {"type": "node", "id": 2207658045, "lat": 41.9243235, "lon": -87.6402119}, {"type": "node", "id": 2207658053, "lat": 41.9243479, "lon": -87.6402288}, {"type": "node", "id": 2207658054, "lat": 41.9243549, "lon": -87.6402415}, {"type": "node", "id": 2207658059, "lat": 41.9243595, "lon": -87.6400908}, {"type": "node", "id": 2207658063, "lat": 41.9243637, "lon": -87.6401073}, {"type": "node", "id": 2207658068, "lat": 41.9243769, "lon": -87.6402523}, {"type": "node", "id": 2207658069, "lat": 41.9243875, "lon": -87.6401953}, {"type": "node", "id": 2207658070, "lat": 41.9243929, "lon": -87.6401823}, {"type": "node", "id": 2207658071, "lat": 41.9243931, "lon": -87.6399857}, {"type": "node", "id": 2207658073, "lat": 41.9243958, "lon": -87.6402025}, {"type": "node", "id": 2207658074, "lat": 41.9244039, "lon": -87.6401767}, {"type": "node", "id": 2207658084, "lat": 41.924428, "lon": -87.6400754}, {"type": "node", "id": 2207658086, "lat": 41.9244309, "lon": -87.6400992}, {"type": "node", "id": 2207658094, "lat": 41.9244468, "lon": -87.6400182}, {"type": "node", "id": 2262371979, "lat": 41.9277431, "lon": -87.6486926, "tags": {"addr:city": "Chicago", "addr:housenumber": "2519", "addr:postcode": "60614", "addr:state": "IL", "addr:street": "North Halsted Street", "amenity": "bar", "name": "B.L.U.E.S.", "phone": "+1-773-528-1012", "website": "http://www.chicagobluesbar.com"}}, {"type": "node", "id": 2282742320, "lat": 41.9337677, "lon": -87.6536605, "tags": {"addr:city": "Chicago", "addr:housenumber": "2833", "addr:postcode": "60657", "addr:state": "IL", "addr:street": "North Sheffield Avenue", "amenity": "pub", "name": "Replay Lincoln Park", "phone": "+1-773-665-5660", "website": "https://www.replaylincolnpark.com/"}}, {"type": "node", "id": 2348349944, "lat": 41.9237168, "lon": -87.6496983, "tags": {"barrier": "gate"}}, {"type": "node", "id": 2361072388, "lat": 41.9300231, "lon": -87.643667, "tags": {"addr:housenumber": "2616", "addr:postcode": "60614", "addr:street": "North Clark Street", "amenity": "bar", "name": "Duke's Chicago Bar and Grill"}}, {"type": "node", "id": 2361072391, "lat": 41.9311283, "lon": -87.6439425, "tags": {"addr:housenumber": "2665", "addr:postcode": "60614", "addr:street": "North Clark Street", "amenity": "restaurant", "cuisine": "burger", "name": "Fatty's Burgers and More"}}, {"type": "node", "id": 2361072397, "lat": 41.9307707, "lon": -87.655881, "tags": {"addr:housenumber": "2679", "addr:street": "North Lincoln Avenue", "amenity": "restaurant", "cuisine": "pizza", "name": "Pat's Pizzeria"}}, {"type": "node", "id": 2399641185, "lat": 41.9272981, "lon": -87.6413164, "tags": {"addr:housenumber": "2465", "addr:postcode": "60614", "addr:street": "North Clark Street", "amenity": "restaurant", "cuisine": "italian", "name": "Basil Leaf", "phone": "773-935-3388"}}, {"type": "node", "id": 2399641189, "lat": 41.9270011, "lon": -87.6411338, "tags": {"addr:city": "Chicago", "addr:housenumber": "2452", "addr:postcode": "60614", "addr:state": "IL", "addr:street": "North Clark Street", "amenity": "cafe", "cuisine": "donut", "name": "Firecakes Donuts", "phone": "+1-773-666-5277", "website": "https://www.firecakesdonuts.com/"}}, {"type": "node", "id": 2399641190, "lat": 41.9268031, "lon": -87.6415082, "tags": {"addr:city": "Chicago", "addr:housenumber": "2450", "addr:postcode": "60614", "addr:state": "IL", "addr:street": "North Clark Street", "addr:street:name": "Clark", "addr:street:prefix": "North", "addr:street:type": "Street", "amenity": "cafe", "name": "Gaslight Coffee Roasters", "opening_hours": "Mo-Fr 11:00-02:00; Sa 09:30-03:00; Su 09:30-02:00", "phone": "+1-773-435-0007", "website": "https://gaslightbar.com/"}}, {"type": "node", "id": 2458410440, "lat": 41.9251354, "lon": -87.6590281}, {"type": "node", "id": 2607221649, "lat": 41.9229445, "lon": -87.6449862, "tags": {"addr:city": "Chicago", "addr:country": "US", "addr:housenumber": "2245", "addr:street": "North Lincoln Avenue", "amenity": "restaurant", "cuisine": "pizza", "name": "Lincoln Park Pizza"}}, {"type": "node", "id": 2607221651, "lat": 41.9235545, "lon": -87.6458622, "tags": {"amenity": "cafe", "brand": "Starbucks", "brand:wikidata": "Q37158", "brand:wikipedia": "en:Starbucks", "cuisine": "coffee_shop", "name": "Starbucks", "official_name": "Starbucks Coffee", "takeaway": "yes"}}, {"type": "node", "id": 2607221652, "lat": 41.9232808, "lon": -87.6459883, "tags": {"addr:city": "Chicago", "addr:country": "US", "addr:housenumber": "2270", "addr:postcode": "60614", "addr:street": "North Lincoln Avenue", "amenity": "pub", "name": "Wise Fools Pub"}}, {"type": "node", "id": 2607221928, "lat": 41.923172, "lon": -87.6457498}, {"type": "node", "id": 2946691473, "lat": 41.9238067, "lon": -87.6460523, "tags": {"amenity": "pub", "name": "John Barleycorn (Closed)"}}, {"type": "node", "id": 2946757911, "lat": 41.9328768, "lon": -87.647886, "tags": {"addr:housenumber": "730", "addr:street": "West Diversey Parkway", "amenity": "restaurant", "cuisine": "japanese", "name": "Sakura", "opening_hours": "Mo-Su 11:30-22:30"}}, {"type": "node", "id": 2951767683, "lat": 41.9284346, "lon": -87.653186, "tags": {"addr:city": "Chicago", "addr:housenumber": "2566", "addr:postcode": "60614", "addr:state": "IL", "addr:street": "North Lincoln Avenue", "amenity": "bar", "cuisine": "german", "name": "Prost", "phone": "+1-773-880-9900", "website": "https://www.prostchi.com/"}}, {"type": "node", "id": 2968230657, "lat": 41.9277243, "lon": -87.6516908, "tags": {"addr:city": "Chicago", "addr:housenumber": "2519", "addr:postcode": "60614", "addr:street": "North Lincoln Avenue", "amenity": "bar", "name": "Irish Eyes"}}, {"type": "node", "id": 3518291652, "lat": 41.9324546, "lon": -87.6459114, "tags": {"addr:city": "Chicago", "addr:housenumber": "659", "addr:postcode": "60614", "addr:state": "IL", "addr:street": "West Diversey Parkway", "amenity": "cafe", "name": "Next Door Cafe", "opening_hours": "Mo-Su 07:00-22:00", "phone": "+1-773-472-3667", "website": "https://www.nextdoorchicago.com"}}, {"type": "node", "id": 3627743049, "lat": 41.9293462, "lon": -87.6428605, "tags": {"addr:city": "Chicago", "addr:housenumber": "2568", "addr:postcode": "60614", "addr:state": "IL", "addr:street": "North Clark Street", "amenity": "restaurant", "capacity": "50", "cuisine": "korean", "delivery": "no", "name": "Del Seoul", "opening_hours": "Mo-Th 11:30-21:30; Fr-Sa 11:30-22:00; Su 11:30-21:00", "phone": "+1-773-248-4227", "website": "https://delseoul.com/", "wheelchair": "yes"}}, {"type": "node", "id": 3841977063, "lat": 41.9218198, "lon": -87.6541736}, {"type": "node", "id": 4045036123, "lat": 41.9233231, "lon": -87.6455687, "tags": {"addr:city": "Chicago", "addr:housenumber": "2265", "addr:postcode": "60614", "addr:state": "IL", "addr:street": "North Lincoln Avenue", "amenity": "bar", "name": "Kelsey's", "phone": "+1-773-348-1666", "website": "http://kelseysbar.com/"}}, {"type": "node", "id": 4045036124, "lat": 41.9232814, "lon": -87.6454858, "tags": {"addr:city": "Chicago", "addr:housenumber": "2263", "addr:postcode": "60614", "addr:state": "IL", "addr:street": "North Lincoln Avenue", "amenity": "bar", "name": "Lincoln Avenue Social", "phone": "+1-773-348-7200", "website": "https://lincolnavenuesocial.com/"}}, {"type": "node", "id": 4045036125, "lat": 41.9231514, "lon": -87.645214, "tags": {"amenity": "bar", "name": "The Apartment"}}, {"type": "node", "id": 4053862155, "lat": 41.929524, "lon": -87.6491944, "tags": {"addr:city": "Chicago", "addr:housenumber": "2610", "addr:postcode": "60614", "addr:state": "IL", "addr:street": "North Halsted Street", "amenity": "bar", "name": "The Wild Hare", "opening_hours": "18:00-02:00", "smoking": "no"}}, {"type": "node", "id": 4191676737, "lat": 41.9234681, "lon": -87.6393605, "tags": {"amenity": "restaurant", "cuisine": "sushi", "name": "Sushi Para II"}}, {"type": "node", "id": 4194646390, "lat": 41.9267147, "lon": -87.6485845, "tags": {"amenity": "restaurant", "cuisine": "thai", "name": "Paulas Thai Kitchen"}}, {"type": "node", "id": 4196262789, "lat": 41.9216939, "lon": -87.649093, "tags": {"addr:city": "Chicago", "addr:housenumber": "807", "addr:state": "IL", "addr:street": "West Webster Avenue", "amenity": "restaurant", "name": "Athenian Room", "phone": "+1-773-348-5155"}}, {"type": "node", "id": 4196262792, "lat": 41.9248791, "lon": -87.6482362, "tags": {"addr:city": "Chicago", "addr:housenumber": "2360", "addr:postcode": "60614", "addr:state": "IL", "addr:street": "North Lincoln Avenue", "amenity": "restaurant", "name": "La Crosta Woodfire Pizzeria Italiana", "phone": "+1-773-649-1000", "website": "http://lacrostachicago.com/"}}, {"type": "node", "id": 4196262795, "lat": 41.9219393, "lon": -87.6488352, "tags": {"amenity": "cafe", "brand": "Starbucks", "brand:wikidata": "Q37158", "brand:wikipedia": "en:Starbucks", "cuisine": "coffee_shop", "name": "Starbucks", "official_name": "Starbucks Coffee", "takeaway": "yes"}}, {"type": "node", "id": 4196262797, "lat": 41.9257387, "lon": -87.6494036, "tags": {"amenity": "restaurant", "cuisine": "thai", "name": "Thai Bowl"}}, {"type": "node", "id": 4196262798, "lat": 41.9219534, "lon": -87.648107, "tags": {"addr:city": "Chicago", "addr:housenumber": "746", "addr:postcode": "60614", "addr:state": "IL", "addr:street": "West Webster Avenue", "amenity": "restaurant", "name": "Toast", "phone": "+1-773-935-5600", "website": "http://chicago-toast.com/"}}, {"type": "node", "id": 4366103741, "lat": 41.929762, "lon": -87.6432957, "tags": {"amenity": "bar", "name": "D.O.C"}}, {"type": "node", "id": 4366103743, "lat": 41.9299851, "lon": -87.6431533, "tags": {"amenity": "restaurant", "cuisine": "mexican", "name": "Tarascas", "phone": "(773) 549-2595", "website": "http://www.cocinatarascas.com/"}}, {"type": "node", "id": 4366103744, "lat": 41.9291992, "lon": -87.6475232, "tags": {"amenity": "pub", "email": "burwoodtap724@gmail.com", "name": "The Burwood Tap", "phone": "(773) 525-2593", "website": "http://burwoodtap.com"}}, {"type": "node", "id": 4372831552, "lat": 41.9239848, "lon": -87.6469762, "tags": {"addr:city": "Chicago", "addr:country": "US", "addr:housenumber": "2312", "addr:postcode": "60614", "addr:state": "IL", "addr:street": "North Lincoln Avenue", "amenity": "restaurant", "cuisine": "international", "name": "Rickshaw Republic", "phone": "+1-773-697-4750", "website": "http://rickshawrepublic.com/", "wheelchair": "no"}}, {"type": "node", "id": 4460783569, "lat": 41.921899, "lon": -87.6524732, "tags": {"addr:city": "Chicago", "addr:country": "US", "addr:housenumber": "938", "addr:postcode": "60614", "addr:state": "IL", "addr:street": "West Webster Avenue", "amenity": "restaurant", "cuisine": "pizza", "name": "Homeslice", "opening_hours": "Mo-We 11:30-22:30; Th 11:30-23:00; Fr 11:30-00:00; Sa 10:30-00:00; Su 10:30-22:30", "phone": "+1-312-789-4600", "website": "http://www.getsomehomie.com"}}, {"type": "node", "id": 4497342599, "lat": 41.925567, "lon": -87.6497422, "tags": {"amenity": "cafe", "name": "Bee & Tea"}}, {"type": "node", "id": 4499383937, "lat": 41.923718, "lon": -87.649649, "tags": {"barrier": "gate"}}, {"type": "node", "id": 4499383938, "lat": 41.9237203, "lon": -87.6495479}, {"type": "node", "id": 4525512611, "lat": 41.9288349, "lon": -87.6425793, "tags": {"addr:city": "Chicago", "addr:housenumber": "2534", "addr:postcode": "60614", "addr:state": "IL", "addr:street": "North Clark Street", "amenity": "restaurant", "cuisine": "hawaiian", "name": "Aloha Eats", "opening_hours": "Su,Tu,Th 12:00-20:00; Fr,Sa 12:00-21:00", "phone": "+1-773-935-6828", "website": "https://www.alohaeats.com/"}}, {"type": "node", "id": 4525512613, "lat": 41.9280172, "lon": -87.6417258, "tags": {"addr:city": "Chicago", "addr:housenumber": "2503", "addr:postcode": "60614", "addr:state": "IL", "addr:street": "North Clark Street", "amenity": "bar", "name": "Frank\u2019s Bar", "phone": "+1-773-549-2700", "website": "http://www.franksbarchicago.com/"}}, {"type": "node", "id": 4525512617, "lat": 41.9286324, "lon": -87.6421131, "tags": {"amenity": "cafe", "brand": "Starbucks", "brand:wikidata": "Q37158", "brand:wikipedia": "en:Starbucks", "cuisine": "coffee_shop", "name": "Starbucks", "official_name": "Starbucks Coffee", "takeaway": "yes"}}, {"type": "node", "id": 4525512618, "lat": 41.9277023, "lon": -87.6415754, "tags": {"addr:city": "Chicago", "addr:housenumber": "2483", "addr:postcode": "60614", "addr:state": "IL", "addr:street": "North Clark Street", "amenity": "bar", "email": "info@thetinlizzie.com", "name": "The Tin Lizzie", "phone": "+1-773-549-1132", "website": "https://www.thetinlizzie.com/"}}, {"type": "node", "id": 4725308204, "lat": 41.9262623, "lon": -87.6501206, "tags": {"addr:city": "Chicago", "addr:housenumber": "2438", "addr:postcode": "60614", "addr:state": "IL", "addr:street": "North Lincoln Avenue", "amenity": "restaurant", "cuisine": "regional", "name": "Millie's Supper Club", "outdoor_seating": "no", "smoking": "no", "website": "http://www.millieschicago.com"}}, {"type": "node", "id": 4726115309, "lat": 41.9259491, "lon": -87.6409341, "tags": {"addr:city": "Chicago", "addr:housenumber": "444", "addr:postcode": "60614", "addr:state": "IL", "addr:street": "West Fullerton Parkway", "amenity": "restaurant", "cuisine": "pizza", "name": "Casati's Pizza Vino", "phone": "+1-773-857-1237", "website": "https://www.cpvino.com/"}}, {"type": "node", "id": 4726227996, "lat": 41.9327716, "lon": -87.6535024, "tags": {"addr:housenumber": "954", "addr:street": "West Diversey Parkway", "amenity": "restaurant", "name": "Nori Sushi Lincoln Park", "opening_hours": "Mo-Su 11:00-16:00, 17:00-22:00"}}, {"type": "node", "id": 4924475703, "lat": 41.9286556, "lon": -87.6425393, "tags": {"addr:city": "Chicago", "addr:housenumber": "2530", "addr:postcode": "60614", "addr:state": "IL", "addr:street": "North Clark Street", "amenity": "cafe", "name": "Colectivo Coffee", "outdoor_seating": "yes", "phone": "+1-773-687-8078", "website": "http://colectivocoffee.com/cafes/lincoln-park-cafe/"}}, {"type": "node", "id": 5161413729, "lat": 41.9327759, "lon": -87.6533288, "tags": {"amenity": "restaurant", "name": "Andy's Thai Kitchen"}}, {"type": "node", "id": 5184313955, "lat": 41.9631325, "lon": -87.6573781}, {"type": "node", "id": 5225519836, "lat": 41.9285968, "lon": -87.6534387}, {"type": "node", "id": 5225519837, "lat": 41.9286614, "lon": -87.6535329}, {"type": "node", "id": 5315542898, "lat": 41.9243247, "lon": -87.6529231}, {"type": "node", "id": 5315542899, "lat": 41.9238452, "lon": -87.652884}, {"type": "node", "id": 5393821521, "lat": 41.9286066, "lon": -87.6485213, "tags": {"addr:city": "Chicago", "addr:housenumber": "2545", "addr:postcode": "60614", "addr:state": "IL", "addr:street": "North Halsted Street", "amenity": "restaurant", "cuisine": "chinese", "email": "cdir.chicago@gmail.com", "name": "Chengdu Impression", "opening_hours": "Mo-Su 16:00-22:00", "phone": "+1-(773)477-6256", "website": "https://www.chengduimpression.com/"}}, {"type": "node", "id": 5640384005, "lat": 41.9293078, "lon": -87.6428324, "tags": {"amenity": "restaurant", "name": "Lito's Empanadas"}}, {"type": "node", "id": 5652012632, "lat": 41.9327782, "lon": -87.6533762, "tags": {"amenity": "restaurant", "name": "Penny's Noodle Shop"}}, {"type": "node", "id": 5652012634, "lat": 41.932768, "lon": -87.6541252, "tags": {"amenity": "cafe", "brand": "Starbucks", "brand:wikidata": "Q37158", "brand:wikipedia": "en:Starbucks", "cuisine": "coffee_shop", "name": "Starbucks", "official_name": "Starbucks Coffee", "takeaway": "yes"}}, {"type": "node", "id": 5652012636, "lat": 41.9327302, "lon": -87.6550447, "tags": {"addr:city": "Chicago", "addr:housenumber": "1028", "addr:postcode": "60614", "addr:state": "IL", "addr:street": "West Diversey Parkway", "amenity": "bar", "name": "Paddy Long\u2019s", "phone": "+1-773-290-6988", "website": "https://www.paddylongs.com/"}}, {"type": "node", "id": 5652012639, "lat": 41.9333106, "lon": -87.6537045, "tags": {"addr:city": "Chicago", "addr:housenumber": "2825", "addr:postcode": "60657", "addr:state": "IL", "addr:street": "North Sheffield Avenue", "amenity": "cafe", "name": "Zizi's Cafe", "phone": "+1-773-697-9228", "website": "http://www.ziziscafechicago.com/"}}, {"type": "node", "id": 5864459415, "lat": 41.9329255, "lon": -87.645183, "tags": {"addr:city": "Chicago", "addr:housenumber": "2800", "addr:postcode": "60657", "addr:state": "IL", "addr:street": "North Clark Street", "amenity": "cafe", "name": "Stan\u2019s Donuts & Coffee", "phone": "+1-773-883-4764", "website": "http://www.stansdonutschicago.com/"}}, {"type": "node", "id": 5872612136, "lat": 41.9317127, "lon": -87.6487652, "tags": {"addr:city": "Chicago", "addr:housenumber": "2703", "addr:postcode": "60614", "addr:state": "IL", "addr:street": "North Halsted Street", "amenity": "restaurant", "cuisine": "mexican", "name": "The Mayan Palace", "opening_hours": "Su-Mo 11:00-22:00; Tu-Sa 11:00-23:00", "phone": "+1-773-935-4200", "website": "https://www.themayanpalacechicago.com/"}}, {"type": "node", "id": 5964780985, "lat": 41.9332772, "lon": -87.6445976, "tags": {"addr:city": "Chicago", "addr:housenumber": "2813", "addr:postcode": "60657", "addr:state": "IL", "addr:street": "North Broadway", "amenity": "restaurant", "name": "Gyu-Kaku Japanese Bbq", "phone": "+1- 773-687-8110", "website": "https://www.gyu-kaku.com/chicago-lake-view/"}}, {"type": "node", "id": 6018664585, "lat": 41.9274485, "lon": -87.6513724, "tags": {"amenity": "restaurant", "name": "Ringo Japanese Restaurant", "opening_hours": "Mo,Fr,Sa 16:00-22:30", "phone": "+1-773-248-5788", "short_name": "Ringo Sushi", "website": "http://www.ringosushi.com/"}}, {"type": "node", "id": 6152474394, "lat": 41.9253198, "lon": -87.6554087}, {"type": "node", "id": 6152474396, "lat": 41.9258876, "lon": -87.6544944}, {"type": "node", "id": 6152474397, "lat": 41.9253782, "lon": -87.6523958}, {"type": "node", "id": 6152474398, "lat": 41.9249999, "lon": -87.6523833}, {"type": "node", "id": 6198363142, "lat": 41.9204702, "lon": -87.6487784, "tags": {"addr:city": "Chicago", "addr:housenumber": "2114", "addr:postcode": "60614", "addr:state": "IL", "addr:street": "North Halsted Street", "amenity": "restaurant", "cuisine": "breakfast, american", "name": "Nookies, too", "opening_hours": "Su-Sa 07:00-15:30", "phone": "+1-773-327-1400", "website": "http://www.nookieschicago.com/too_menu.php"}}, {"type": "node", "id": 6256206803, "lat": 41.9225682, "lon": -87.6443899, "tags": {"addr:city": "Chicago", "addr:housenumber": "2221", "addr:postcode": "60614", "addr:state": "IL", "addr:street": "North Lincoln Avenue", "amenity": "restaurant", "name": "7 Plates Cafe", "phone": "+1-773-687-8817", "website": "https://www.sevenplatescafe.com/"}}, {"type": "node", "id": 6261035288, "lat": 41.9314578, "lon": -87.6487892, "tags": {"addr:city": "Chicago", "addr:housenumber": "2683", "addr:postcode": "60614", "addr:state": "IL", "addr:street": "North Halsted Street", "amenity": "bar", "name": "aliveOne", "phone": "+1-773-348-9800", "website": "http://aliveone.com/"}}, {"type": "node", "id": 6261040049, "lat": 41.9252287, "lon": -87.6533693, "tags": {"addr:city": "Chicago", "addr:housenumber": "959", "addr:postcode": "60614", "addr:state": "IL", "addr:street": "West Fullerton Avenue", "amenity": "cafe", "name": "Allegro Coffee", "phone": "+1-773-868-5200"}}, {"type": "node", "id": 6268245739, "lat": 41.9275165, "lon": -87.6519592, "tags": {"addr:city": "Chicago", "addr:housenumber": "2518", "addr:postcode": "60657", "addr:state": "IL", "addr:street": "North Lincoln Avenue", "amenity": "restaurant", "name": "Bobby\u2019s Lincoln Park", "phone": "+1-773-799-8555", "website": "http://www.bobbysrestaurants.com/"}}, {"type": "node", "id": 6269368100, "lat": 41.9293029, "lon": -87.647509, "tags": {"addr:city": "Chicago", "addr:housenumber": "724", "addr:postcode": "60614", "addr:state": "IL", "addr:street": "West Wrightwood Avenue", "amenity": "bar", "name": "Burwood Tap", "phone": "+1-773-525-2593", "website": "http://www.burwoodtap.com/"}}, {"type": "node", "id": 6269851247, "lat": 41.9285045, "lon": -87.6420619, "tags": {"addr:city": "Chicago", "addr:housenumber": "2523", "addr:postcode": "60614", "addr:state": "IL", "addr:street": "North Clark Street", "amenity": "cafe", "name": "Cafe Vienna", "phone": "+1-773-244-9922", "website": "http://www.cafevienna.net/home"}}, {"type": "node", "id": 6280031591, "lat": 41.9219259, "lon": -87.6533381, "tags": {"addr:city": "Chicago", "addr:housenumber": "958", "addr:postcode": "60614", "addr:state": "IL", "addr:street": "West Webster Avenue", "amenity": "restaurant", "cuisine": "breakfast;brunch;american", "name": "Jam 'n Honey", "opening_hours": "Mo-Fr 08:00-21:00; Sa-Su 08:00-15:00", "phone": "+1- 773-327-5266", "website": "https://www.jamnhoney.com"}}, {"type": "node", "id": 6280044828, "lat": 41.9213591, "lon": -87.6533166, "tags": {"addr:city": "Chicago", "addr:housenumber": "2147", "addr:postcode": "60614", "addr:state": "IL", "addr:street": "North Sheffield Avenue", "amenity": "restaurant", "cuisine": "american", "name": "Devil Dawgs on Sheffield", "opening_hours": "Mo-Su 10:30-03:00", "phone": "+1-773-281-4300", "website": "https://devildawgs.com"}}, {"type": "node", "id": 6280046367, "lat": 41.9215816, "lon": -87.6530605, "tags": {"addr:city": "Chicago", "addr:housenumber": "953", "addr:postcode": "60614", "addr:state": "IL", "addr:street": "West Webster Avenue", "amenity": "restaurant", "cuisine": "mexican", "name": "Holy Taco", "opening_hours": "Mo-Th 11:00-23:00; Fr 11:00-02:00; Sa 10:00-02:00; Su 10:00-22:00", "phone": "+1-773-857-0844", "website": "https://www.holytacochicago.com"}}, {"type": "node", "id": 6282812182, "lat": 41.9199493, "lon": -87.6418258, "tags": {"addr:city": "Chicago", "addr:housenumber": "507", "addr:postcode": "60614", "addr:state": "IL", "addr:street": "West Dickens Avenue", "amenity": "cafe", "name": "CityGrounds Coffee Bar"}}, {"type": "node", "id": 6283371365, "lat": 41.9327184, "lon": -87.6407591, "tags": {"addr:city": "Chicago", "addr:housenumber": "433", "addr:postcode": "60614", "addr:state": "IL", "addr:street": "West Diversey Parkway", "amenity": "bar", "name": "Compass Bar", "phone": "+1-773-248-3230", "website": "https://www.compassbarchicago.com/"}}, {"type": "node", "id": 6284391360, "lat": 41.932851, "lon": -87.6492874, "tags": {"addr:city": "Chicago", "addr:housenumber": "800", "addr:postcode": "60614", "addr:state": "IL", "addr:street": "West Diversey Parkway", "amenity": "cafe", "cuisine": "coffee_shop", "name": "Department of Coffee and Social Affairs", "phone": "+1-773-697-9581", "website": "https://www.departmentofcoffee.com/"}}, {"type": "node", "id": 6284632373, "lat": 41.9267566, "lon": -87.650967, "tags": {"addr:city": "Chicago", "addr:housenumber": "2464", "addr:postcode": "60614", "addr:state": "IL", "addr:street": "North Lincoln Avenue", "amenity": "restaurant", "name": "Dog Haus Biergarten", "phone": "+1-773-935-3647", "website": "http://lincolnpark.doghaus.com/"}}, {"type": "node", "id": 6291738082, "lat": 41.9332106, "lon": -87.6416208, "tags": {"addr:city": "Chicago", "addr:housenumber": "500", "addr:postcode": "60657", "addr:state": "IL", "addr:street": "West Diversey Parkway", "amenity": "bar", "name": "Galway Bay", "phone": "+1-773-348-3750", "website": "http://www.galwaybaypub.com/"}}, {"type": "node", "id": 6291778778, "lat": 41.9199929, "lon": -87.6408687, "tags": {"addr:city": "Chicago", "addr:housenumber": "2075", "addr:postcode": "60614", "addr:state": "IL", "addr:street": "North Lincoln Avenue", "amenity": "restaurant", "name": "Gemini", "phone": "+1-773-525-2522", "website": "http://www.geminichicago.com/"}}, {"type": "node", "id": 6294060040, "lat": 41.9329983, "lon": -87.6465576, "tags": {"addr:city": "Chicago", "addr:housenumber": "676", "addr:postcode": "60614", "addr:state": "IL", "addr:street": "West Diversey Parkway", "amenity": "restaurant", "name": "Half Shell", "phone": "+1-773-549-1773", "website": "http://halfshellchicago.com/"}}, {"type": "node", "id": 6294169235, "lat": 41.9332916, "lon": -87.6492713, "tags": {"addr:city": "Chicago", "addr:housenumber": "2816", "addr:postcode": "60657", "addr:state": "IL", "addr:street": "North Halsted Street", "amenity": "bar", "name": "Harrigan\u2019s", "phone": "+1-773-248-5933", "website": "http://www.harriganspubchicago.com/"}}, {"type": "node", "id": 6294616307, "lat": 41.9233475, "lon": -87.6460503, "tags": {"addr:city": "Chicago", "addr:housenumber": "2270", "addr:postcode": "60614", "addr:state": "IL", "addr:street": "North Lincoln Avenue", "amenity": "bar", "name": "Hook and Ladder", "phone": "+1-773-857-0546", "website": "http://www.hookandladderchicago.com/"}}, {"type": "node", "id": 6297599701, "lat": 41.9316579, "lon": -87.6485447, "tags": {"addr:city": "Chicago", "addr:housenumber": "2701", "addr:postcode": "60614", "addr:state": "IL", "addr:street": "North Halsted Street", "amenity": "restaurant", "name": "Sapori Trattoria", "phone": "+1-312-967-9358", "website": "https://www.saporitrattoria.net/"}}, {"type": "node", "id": 6299336421, "lat": 41.9325966, "lon": -87.6408545, "tags": {"addr:city": "Chicago", "addr:housenumber": "435", "addr:postcode": "60614", "addr:state": "IL", "addr:street": "West Diversey Parkway", "amenity": "restaurant", "cuisine": "middle_eastern", "name": "Pars Cove Restaurant", "phone": "+1-773-549-1515", "website": "https://www.parscove.com/"}}, {"type": "node", "id": 6299354512, "lat": 41.9266392, "lon": -87.6485154, "tags": {"addr:city": "Chicago", "addr:housenumber": "2439", "addr:postcode": "60614", "addr:state": "IL", "addr:street": "North Halsted Street", "amenity": "bar", "name": "Parson\u2019s Chicken & Fish", "phone": "+1-773-661-6016", "website": "http://www.parsonschickenandfish.com/"}}, {"type": "node", "id": 6300413145, "lat": 41.9257267, "lon": -87.6477665, "tags": {"addr:city": "Chicago", "addr:housenumber": "734", "addr:postcode": "60614", "addr:state": "IL", "addr:street": "West Fullerton Avenue", "amenity": "restaurant", "name": "Philly Bros", "phone": "+1-773-278-2767", "website": "https://www.phillybros.com/"}}, {"type": "node", "id": 6300519480, "lat": 41.9270793, "lon": -87.6512541, "tags": {"addr:city": "Chicago", "addr:housenumber": "2482", "addr:postcode": "60614", "addr:state": "IL", "addr:street": "North Lincoln Avenue", "amenity": "cafe", "name": "Printer\u2019s Row Coffee", "phone": "+1-773-666-5394", "website": "http://www.printersrowcoffeeco.com/"}}, {"type": "node", "id": 6300564010, "lat": 41.9298635, "lon": -87.6552862, "tags": {"addr:city": "Chicago", "addr:housenumber": "2642", "addr:postcode": "60614", "addr:state": "IL", "addr:street": "North Lincoln Avenue", "amenity": "bar", "name": "Racine Plumbing Bar & Grill", "phone": "+1-773-871-1600", "website": "https://www.racineplumbingchicago.com/"}}, {"type": "node", "id": 6300729293, "lat": 41.9263244, "lon": -87.6504588, "tags": {"addr:city": "Chicago", "addr:housenumber": "2446", "addr:postcode": "60614", "addr:state": "IL", "addr:street": "North Lincoln Avenue", "amenity": "bar", "name": "The Red Lion Pub", "phone": "+1-773-883-2422", "website": "http://redlionchicago.com/"}}, {"type": "node", "id": 6301057031, "lat": 41.93012, "lon": -87.655636, "tags": {"addr:city": "Chicago", "addr:housenumber": "2656", "addr:postcode": "60614", "addr:state": "IL", "addr:street": "North Lincoln Avenue", "amenity": "bar", "name": "Rose\u2019s Lounge", "phone": "+1-773-327-4000"}}, {"type": "node", "id": 6303091617, "lat": 41.9326539, "lon": -87.6432988, "tags": {"addr:city": "Chicago", "addr:housenumber": "553", "addr:postcode": "60614", "addr:state": "IL", "addr:street": "West Diversey Parkway", "amenity": "restaurant", "name": "Tanaka Ramen", "phone": "+1-773-857-5140", "website": "https://tanakaramen.com/"}}, {"type": "node", "id": 6303119388, "lat": 41.9287226, "lon": -87.6558771, "tags": {"addr:city": "Chicago", "addr:housenumber": "1059", "addr:postcode": "60614", "addr:state": "IL", "addr:street": "West Wrightwood Avenue", "amenity": "bar", "name": "Tapster Lincoln Park", "phone": "+1-773-549-4949"}}, {"type": "node", "id": 6303939519, "lat": 41.9326796, "lon": -87.6433565, "tags": {"addr:city": "Chicago", "addr:housenumber": "557", "addr:postcode": "60614", "addr:state": "IL", "addr:street": "West Diversey Parkway", "amenity": "cafe", "name": "TeaGschwendner", "phone": "+1-773-360-8009", "website": "https://shop.tgtea.com/"}}, {"type": "node", "id": 6304253435, "lat": 41.930152, "lon": -87.6438156, "tags": {"addr:city": "Chicago", "addr:housenumber": "2622", "addr:postcode": "60614", "addr:state": "IL", "addr:street": "North Clark Street", "amenity": "restaurant", "facebook": "https://www.facebook.com/TheWienerCircle/", "name": "The Wiener\u2019s Circle", "name:en": "The Wiener\u2019s Circle", "name:zh": "\u7dad\u7d0d\u723e\u65af\u5c0f\u5403\u5e97", "opening_hours": "Su-Th 10:30-04:00; Fr-Sa 10:30-05:00", "phone": "+1-773-477-7444", "start_date": "1983", "website": "http://www.wienercircle.net/", "wikidata": "Q3523370", "wikipedia": "en:The Wieners Circle"}}, {"type": "node", "id": 6305147152, "lat": 41.9230946, "lon": -87.6451223, "tags": {"addr:city": "Chicago", "addr:housenumber": "2249", "addr:postcode": "60614", "addr:state": "IL", "addr:street": "North Lincoln Avenue", "amenity": "bar", "name": "Tobacco Road Tap Room", "phone": "+1-773-661-6416", "website": "https://www.tobaccoroadchi.com/"}}, {"type": "node", "id": 6305224799, "lat": 41.9269434, "lon": -87.6504598, "tags": {"addr:city": "Chicago", "addr:housenumber": "2461", "addr:postcode": "60614", "addr:state": "IL", "addr:street": "North Lincoln Avenue", "amenity": "cafe", "name": "The Bagelers Coffeehouse", "phone": "+1-872-802-0347", "website": "http://www.thebagelers.com/"}}, {"type": "node", "id": 6305252806, "lat": 41.9294688, "lon": -87.6547325, "tags": {"addr:city": "Chicago", "addr:housenumber": "2624", "addr:postcode": "60614", "addr:state": "IL", "addr:street": "North Lincoln Avenue", "amenity": "restaurant", "name": "The Barrelhouse Flat", "phone": "+1-773-857-0421", "website": "http://www.barrelhouseflat.com/"}}, {"type": "node", "id": 6305337839, "lat": 41.9321476, "lon": -87.6450562, "tags": {"addr:city": "Chicago", "addr:housenumber": "2546", "addr:postcode": "60614", "addr:state": "IL", "addr:street": "North Clark Street", "amenity": "restaurant", "name": "Toro Sushi", "phone": "+1-773-348-7255"}}, {"type": "node", "id": 6315211135, "lat": 41.9272419, "lon": -87.6417085, "tags": {"addr:city": "Chicago", "addr:housenumber": "2468", "addr:postcode": "60603", "addr:state": "IL", "addr:street": "North Clark Street", "amenity": "restaurant", "name": "The Fat Shallot - Lincoln Park", "phone": "+1-773-661-6335", "website": "http://thefatshallot.com/"}}, {"type": "node", "id": 6315216334, "lat": 41.9270976, "lon": -87.6412309, "tags": {"addr:city": "Chicago", "addr:housenumber": "2455", "addr:postcode": "60614", "addr:state": "IL", "addr:street": "North Clark Street", "amenity": "restaurant", "name": "The Field House", "phone": "+1-773-348-6489"}}, {"type": "node", "id": 6315649380, "lat": 41.9248961, "lon": -87.6482983, "tags": {"addr:city": "Chicago", "addr:housenumber": "2364", "addr:postcode": "60614", "addr:state": "IL", "addr:street": "North Lincoln Avenue", "amenity": "restaurant", "name": "The Little Meatball", "phone": "+1-773-360-8496", "website": "https://thelittlemeatball.com/"}}, {"type": "node", "id": 6315684067, "lat": 41.9264033, "lon": -87.6413997, "tags": {"addr:city": "Chicago", "addr:housenumber": "2436", "addr:postcode": "60614", "addr:state": "IL", "addr:street": "North Clark Street", "amenity": "bar", "name": "The Other Side Bar", "phone": "+1-773-525-8238"}}, {"type": "node", "id": 6315689961, "lat": 41.9263714, "lon": -87.6414025, "tags": {"addr:city": "Chicago", "addr:housenumber": "2434", "addr:postcode": "60614", "addr:state": "IL", "addr:street": "North Clark Street", "amenity": "restaurant", "name": "The Pasta Bowl", "phone": "+1-773-525-2695", "website": "https://www.pastabowl.com/"}}, {"type": "node", "id": 6319035481, "lat": 41.9297118, "lon": -87.6552373, "tags": {"addr:city": "Chicago", "addr:housenumber": "2638", "addr:postcode": "60614", "addr:state": "IL", "addr:street": "North Lincoln Avenue", "amenity": "restaurant", "name": "Juno", "phone": "+1-773-935-2000", "website": "http://junosushichicago.com/"}}, {"type": "node", "id": 6321594753, "lat": 41.9330575, "lon": -87.6465042, "tags": {"addr:city": "Chicago", "addr:housenumber": "674", "addr:postcode": "60614", "addr:state": "IL", "addr:street": "West Diversey Parkway", "amenity": "bar", "name": "Matisse Tavern & Grill", "phone": "+1-773-528-6670", "website": "https://www.matissetavernchicago.com/"}}, {"type": "node", "id": 6322600949, "lat": 41.9330704, "lon": -87.6408035, "tags": {"addr:city": "Chicago", "addr:housenumber": "432", "addr:postcode": "60657", "addr:state": "IL", "addr:street": "West Diversey Parkway", "amenity": "restaurant", "name": "MFK Restaurant", "phone": "+1-773-857-2540", "website": "https://mfkrestaurant.com/"}}, {"type": "node", "id": 6322937296, "lat": 41.9335786, "lon": -87.646062, "tags": {"addr:city": "Chicago", "addr:housenumber": "2828", "addr:postcode": "60657", "addr:state": "IL", "addr:street": "North Clark Street", "amenity": "bar", "name": "The Century Bar", "phone": "+1-773-248-7759", "website": "landmarktheatres.com/"}}, {"type": "node", "id": 6323038072, "lat": 41.9329303, "lon": -87.6464132, "tags": {"addr:city": "Chicago", "addr:country": "US", "addr:housenumber": "670", "addr:postcode": "60614", "addr:state": "IL", "addr:street": "West Diversey Parkway", "amenity": "restaurant", "brand": "Nando's", "brand:wikidata": "Q3472954", "brand:wikipedia": "en:Nando's", "cuisine": "chicken;portuguese", "name": "Nando's", "phone": "+1-773-634-7153", "website": "https://www.nandosperiperi.com/"}}, {"type": "node", "id": 6323140931, "lat": 41.9235791, "lon": -87.6457972, "tags": {"addr:city": "Chicago", "addr:housenumber": "2273", "addr:postcode": "60614", "addr:state": "IL", "addr:street": "North Lincoln Avenue", "amenity": "cafe", "name": "Nighthawk AM", "phone": "+1-773-697-8899", "website": "https://www.nighthawkam.com/"}}, {"type": "node", "id": 6323191927, "lat": 41.9269656, "lon": -87.6485799, "tags": {"addr:city": "Chicago", "addr:housenumber": "2453", "addr:postcode": "60614", "addr:state": "IL", "addr:street": "North Halsted Street", "amenity": "restaurant", "name": "Noodles In the Pot", "phone": "+1-773-975-6177", "website": "http://www.noodlesinthepot.com/"}}, {"type": "node", "id": 6323948118, "lat": 41.9293006, "lon": -87.653336, "tags": {"addr:city": "Chicago", "addr:housenumber": "950", "addr:postcode": "60614", "addr:state": "IL", "addr:street": "West Wrightwood Avenue", "amenity": "bar", "name": "Old Grounds Social", "phone": "+1-773-832-4000", "website": "https://www.ogschicago.com/"}}, {"type": "node", "id": 6324135870, "lat": 41.9330169, "lon": -87.6445527, "tags": {"addr:city": "Chicago", "addr:housenumber": "616", "addr:postcode": "60614", "addr:state": "IL", "addr:street": "West Diversey Parkway", "amenity": "restaurant", "brand": "The Original Pancake House", "brand:wikidata": "Q7755384", "brand:wikipedia": "en:The Original Pancake House", "cuisine": "breakfast;pancake", "name": "The Original Pancake House", "phone": "+1-773-929-8130", "website": "https://www.ophchicagoland.com/lincoln-park/"}}, {"type": "node", "id": 6324379534, "lat": 41.9318129, "lon": -87.6412205, "tags": {"addr:city": "Chicago", "addr:housenumber": "2732", "addr:postcode": "60614", "addr:state": "IL", "addr:street": "North Pine Grove Avenue", "amenity": "bar", "name": "Lakeview Men\u2019s Club", "phone": "+1-773-525-9533"}}, {"type": "node", "id": 6324601603, "lat": 41.9241811, "lon": -87.6498509}, {"type": "node", "id": 6459324305, "lat": 41.9262841, "lon": -87.6495306, "tags": {"addr:city": "Chicago", "addr:housenumber": "2429", "addr:postcode": "60614", "addr:state": "IL", "addr:street": "North Lincoln Avenue", "amenity": "restaurant", "cuisine": "middle_eastern", "name": "Galit", "phone": "+1-773-360-8755", "website": "https://www.galitrestaurant.com"}}, {"type": "node", "id": 6459327382, "lat": 41.9261095, "lon": -87.650008, "tags": {"addr:city": "Chicago", "addr:housenumber": "2432", "addr:postcode": "60614", "addr:state": "IL", "addr:street": "North Lincoln Avenue", "amenity": "restaurant", "cuisine": "american", "name": "Lincoln Station", "phone": "+1-773-472-8100", "website": "http://lincolnstation.com"}}, {"type": "node", "id": 6991264601, "lat": 41.8879908, "lon": -87.6339507}, {"type": "node", "id": 6991264603, "lat": 41.8882864, "lon": -87.6339642}, {"type": "node", "id": 6991264641, "lat": 41.8884627, "lon": -87.6339674}, {"type": "node", "id": 6991264647, "lat": 41.8867708, "lon": -87.6339505}, {"type": "node", "id": 6991264648, "lat": 41.8869837, "lon": -87.6339419}, {"type": "node", "id": 7277573845, "lat": 41.932665, "lon": -87.6450601, "tags": {"amenity": "cafe", "brand": "Starbucks", "brand:wikidata": "Q37158", "brand:wikipedia": "en:Starbucks", "cuisine": "coffee_shop", "name": "Starbucks", "official_name": "Starbucks Coffee", "takeaway": "yes"}}, {"type": "node", "id": 7330251178, "lat": 41.9219485, "lon": -87.6484614, "tags": {"addr:city": "Chicago", "addr:housenumber": "756", "addr:postcode": "60614", "addr:state": "IL", "addr:street": "West Webster Avenue", "amenity": "restaurant", "cuisine": "asian;sushi;thai", "name": "Shine and Rise", "phone": "+1-773-296-0101", "website": "https://www.shinerestaurant.com/"}}, {"type": "node", "id": 7330265557, "lat": 41.9329015, "lon": -87.6472424, "tags": {"addr:city": "Chicago", "addr:housenumber": "714", "addr:postcode": "60614", "addr:state": "IL", "addr:street": "West Diversey Parkway", "amenity": "restaurant", "cuisine": "indian", "name": "Mild 2 Spicy", "phone": "+1-773-661-6778"}}, {"type": "node", "id": 7675707617, "lat": 41.9270055, "lon": -87.652974, "tags": {"railway": "railway_crossing"}}, {"type": "node", "id": 7675707618, "lat": 41.9227796, "lon": -87.6528392, "tags": {"railway": "railway_crossing"}}, {"type": "node", "id": 7675707619, "lat": 41.9201914, "lon": -87.6527119, "tags": {"railway": "railway_crossing"}}, {"type": "node", "id": 7675707620, "lat": 41.9104156, "lon": -87.6415743}, {"type": "node", "id": 7675707646, "lat": 41.8941221, "lon": -87.6356157, "tags": {"railway": "switch"}}, {"type": "node", "id": 7675707649, "lat": 41.8909163, "lon": -87.6355288, "tags": {"railway": "switch"}}, {"type": "way", "id": 26150036, "nodes": [286369237, 416770215, 416770216, 2458410440, 286369226, 417255771, 417255772, 417255773, 417255774, 6152474394, 417255775, 6152474396, 417255776, 286369306, 286369307, 6152474397, 6152474398, 286369308, 308675507, 286369309, 286369232, 286369233, 1983549241, 1983549242, 286369234, 3841977063, 286369235, 286369311, 286369237], "tags": {"amenity": "university", "name": "DePaul University", "operator": "Depaul University", "operator:type": "university", "wheelchair": "yes", "wikipedia": "en:DePaul University"}}, {"type": "way", "id": 32853826, "nodes": [370093716, 307890165, 1983543632, 6324601603, 452377015, 452377016, 307890172, 2348349944, 4499383937, 4499383938, 370093749, 370093752, 370093716], "tags": {"amenity": "university", "name": "DePaul University", "operator": "DePaul University", "operator:type": "university"}}, {"type": "way", "id": 59221022, "nodes": [739322154, 739322404, 739322142, 739322185, 739322192, 739322178, 739322406, 739322407, 1984415181, 1710876944, 1983526823, 1984415196, 739322411, 2023910819, 1983526826, 1984415190, 1983526835, 1984415178, 739321893, 739321897, 739322415, 739322417, 739322418, 739322420, 739322424, 739322426, 739322427, 739322429, 739322431, 739322432, 739322434, 739322436, 739321898, 739322437, 739322439, 739322257, 739322209, 1984429360, 1983581003, 739322441, 1710876990, 2023910817, 734573145, 1983580999, 734562975, 734562978, 734562847, 734562834], "tags": {"bridge": "yes", "electrified": "rail", "gauge": "1435", "layer": "1", "name": "North Side Main Line", "oneway": "yes", "operator": "Chicago Transit Authority", "railway": "subway", "voltage": "600"}}, {"type": "way", "id": 59221032, "nodes": [734563141, 734563017, 734562821, 1983581012, 1983580989, 389151978, 739322272, 2014100269, 739322277, 739322278, 739322279, 739322280, 739322247, 739322253, 739322281, 739322282, 739322283, 739322284, 739322285, 739322286, 739322287, 739322288, 739322289, 739322290, 739322295, 739322296, 2004713106, 739322303, 739322306, 739322308, 739322309, 739322214, 739322223, 739322317, 739322319, 2012549082, 5315542898, 739322327, 5315542899, 739322333, 739322226, 739322149, 739322335, 739322172, 739322336, 739322196, 739322338, 739322025, 2012769524, 739322340, 739322341, 739322343, 739322344, 739322346, 739322347, 739322348, 739322350, 739322351, 739322353, 739322357, 739322358, 739322360, 739322362, 739322364, 739322366, 739322368, 739322370, 739322063], "tags": {"bridge": "yes", "electrified": "rail", "frequency": "0", "gauge": "1435", "layer": "1", "name": "North Side Main Line", "oneway": "yes", "operator": "Chicago Transit Authority", "railway": "subway", "voltage": "600"}}, {"type": "way", "id": 59221035, "nodes": [924678886, 6991264647, 6991264648, 924678871, 6991264601, 6991264603, 6991264641, 2012979495, 2012979496, 924678652, 924678604, 2012979499, 924678605, 924678606, 924678607, 924678608, 924678609, 2012979485, 924678610, 2012979487, 924678601, 924678602, 924678603, 2012979493, 7675707649, 924678512, 924678513, 924678511, 7675707646, 924678452, 924678447, 924678448, 2012967723, 924678449, 2003592886, 924678450, 2012967764, 924677837, 924677838, 2012967745, 2012967718, 924677841, 924677844, 924677939, 924677086, 924676026, 924676027, 924675644, 924675645, 924675646, 924675647, 924675572, 924675573, 924675574, 924675575, 924675576, 924675524, 924675523, 924675431, 924675233, 924675223, 924675186, 924675187, 924675188, 2012780443, 924675189, 2012780397, 924675190, 924675191, 2012780401, 924675192, 924675193, 2012780408, 924675178, 924675179, 924675180, 924675181, 924675152, 7675707620, 924675149, 924675118, 924675092, 924675093, 924675094, 924675095, 1432910167, 1432910169, 924675096, 924675097, 924674756, 1432910164, 924674757, 924674758, 924674759, 924674760, 1432910166, 924674761, 924674762, 924674763, 924674764, 1432910146, 924674765, 924674766, 924674767, 924674711, 739322500, 739322501, 739322503, 739322505, 739322508, 739322509, 739322511, 739322513, 739322516, 739322518, 739322520, 739322521, 739322523, 739322524, 739322526, 739322527, 739322024, 739322529, 739322141, 739322530, 739322179, 739322532, 739322533, 1984415195, 1710876945, 739322534, 1710876946, 739322535, 2012549083, 739322543, 739322545, 739322546, 739322548, 739322550, 739321890, 739321896, 739322560, 739322563, 739322565, 2004713101, 739322568, 739322570, 739322574, 739322575, 739322577, 739322578, 739322580, 739322581, 739321899, 2012532417, 739322583, 1634477276, 739322207, 739322259, 1710876988, 1984429368, 739322585, 739322586, 2014100270, 734563942, 1710876991, 1984429372, 1710876992, 1710876993, 734562832], "tags": {"bridge": "yes", "electrified": "rail", "frequency": "0", "gauge": "1435", "layer": "1", "level": "1", "name": "North Side Main Line", "oneway": "yes", "operator": "Chicago Transit Authority", "railway": "subway", "voltage": "600"}}, {"type": "way", "id": 59594735, "nodes": [739321896, 739321897], "tags": {"bridge": "yes", "electrified": "rail", "gauge": "1435", "layer": "1", "oneway": "yes", "operator": "Chicago Transit Authority", "railway": "subway", "voltage": "600"}}, {"type": "way", "id": 59594755, "nodes": [739322141, 739322142], "tags": {"bridge": "yes", "electrified": "rail", "gauge": "1435", "layer": "1", "oneway": "yes", "operator": "Chicago Transit Authority", "railway": "subway", "voltage": "600"}}, {"type": "way", "id": 59594756, "nodes": [739322147, 7675707618, 739322149], "tags": {"bridge": "yes", "electrified": "rail", "gauge": "1435", "layer": "1", "oneway": "yes", "operator": "Chicago Transit Authority", "railway": "subway", "voltage": "600"}}, {"type": "way", "id": 59594759, "nodes": [739322172, 739322174], "tags": {"bridge": "yes", "electrified": "rail", "gauge": "1435", "layer": "1", "oneway": "yes", "operator": "Chicago Transit Authority", "railway": "subway", "voltage": "600"}}, {"type": "way", "id": 59594760, "nodes": [739322178, 739322179], "tags": {"bridge": "yes", "electrified": "rail", "gauge": "1435", "layer": "1", "oneway": "yes", "operator": "Chicago Transit Authority", "railway": "subway", "voltage": "600"}}, {"type": "way", "id": 59594761, "nodes": [739322183, 7675707619, 739322185], "tags": {"bridge": "yes", "electrified": "rail", "gauge": "1435", "layer": "1", "operator": "Chicago Transit Authority", "railway": "subway", "voltage": "600"}}, {"type": "way", "id": 59594762, "nodes": [739322190, 7675707619, 739322192], "tags": {"bridge": "yes", "electrified": "rail", "gauge": "1435", "layer": "1", "operator": "Chicago Transit Authority", "railway": "subway", "voltage": "600"}}, {"type": "way", "id": 59594763, "nodes": [739322195, 739322196], "tags": {"bridge": "yes", "electrified": "rail", "gauge": "1435", "layer": "1", "oneway": "yes", "operator": "Chicago Transit Authority", "railway": "subway", "voltage": "600"}}, {"type": "way", "id": 59594765, "nodes": [739322214, 7675707617, 739322216], "tags": {"bridge": "yes", "electrified": "rail", "gauge": "1435", "layer": "1", "oneway": "yes", "operator": "Chicago Transit Authority", "railway": "subway", "voltage": "600"}}, {"type": "way", "id": 59594766, "nodes": [739322222, 7675707617, 739322223], "tags": {"bridge": "yes", "electrified": "rail", "gauge": "1435", "layer": "1", "oneway": "yes", "operator": "Chicago Transit Authority", "railway": "subway", "voltage": "600"}}, {"type": "way", "id": 59594767, "nodes": [739322226, 7675707618, 739322228], "tags": {"bridge": "yes", "electrified": "rail", "gauge": "1435", "layer": "1", "oneway": "yes", "operator": "Chicago Transit Authority", "railway": "subway", "voltage": "600"}}, {"type": "way", "id": 158977040, "nodes": [1710876951, 1710876953, 1710876954, 1710876952, 5225519836, 5225519837, 1710876951], "tags": {"addr:city": "Chicago", "addr:housenumber": "2576", "addr:postcode": "60614", "addr:state": "IL", "addr:street": "North Lincoln Avenue", "addr:street:name": "Lincoln", "addr:street:prefix": "North", "addr:street:type": "Avenue", "amenity": "restaurant", "building": "yes", "building:levels": "1", "chicago:building_id": "251413", "cuisine": "mexican", "name": "Broken English"}}, {"type": "way", "id": 210317387, "nodes": [2204024213, 2204024436, 2204024451, 2204024332, 2204024246, 2204024213], "tags": {"addr:city": "Chicago", "addr:housenumber": "2100", "addr:postcode": "60614", "addr:state": "IL", "addr:street": "North Halsted Street", "addr:street:name": "Halsted", "addr:street:prefix": "North", "addr:street:type": "Street", "amenity": "restaurant", "building": "yes", "chicago:building_id": "277405", "name": "Chez Moi", "phone": "+1-773-871-2100", "website": "https://www.chezmoichicago.com/"}}, {"type": "way", "id": 210318198, "nodes": [2204034790, 2204035452, 2204035430, 2204035138, 2204034369, 2204034790], "tags": {"addr:housenumber": "2251", "addr:street": "North Lincoln Avenue", "addr:street:name": "Lincoln", "addr:street:prefix": "North", "addr:street:type": "Avenue", "amenity": "pub", "building": "yes", "chicago:building_id": "851042", "name": "Lion Head Pub", "website": "http://www.lionheadpub.net/"}}, {"type": "way", "id": 210318212, "nodes": [2204034784, 2204034779, 2204034445, 2204034519, 2204034575, 2204035015, 2607221928, 2204034784], "tags": {"addr:housenumber": "2254-2264", "addr:street": "North Lincoln Avenue", "addr:street:name": "Lincoln", "addr:street:prefix": "North", "addr:street:type": "Avenue", "amenity": "cafe", "building": "yes", "chicago:building_id": "851014", "name": "Countryside Cafe"}}, {"type": "way", "id": 210318223, "nodes": [2204035573, 2204036024, 2204035943, 2204036056, 2204036147, 2204036347, 2204036210, 2204035410, 2204035573], "tags": {"addr:city": "Chicago", "addr:country": "US", "addr:housenumber": "2269", "addr:postcode": "60614", "addr:street": "North Lincoln Avenue", "addr:street:name": "Lincoln", "addr:street:prefix": "North", "addr:street:type": "Avenue", "amenity": "restaurant", "building": "yes", "chicago:building_id": "851040", "cuisine": "vietnamese", "name": "Simply it", "smoking": "no", "website": "http://www.chicagosimplyit.com/"}}, {"type": "way", "id": 210321368, "nodes": [2204045359, 2204045454, 2204045543, 2204045627, 2204046188, 2204045854, 2204045359], "tags": {"addr:city": "Chicago", "addr:housenumber": "2424", "addr:postcode": "60614", "addr:state": "IL", "addr:street": "North Lincoln Avenue", "addr:street:name": "Lincoln", "addr:street:prefix": "North", "addr:street:type": "Avenue", "amenity": "bar", "building": "yes", "building:levels": "2", "chicago:building_id": "260077", "name": "Lincoln Hall", "phone": "+1-773-525-2501", "website": "http://www.lh-st.com/", "wikidata": "Q6550694", "wikipedia": "en:Lincoln Hall (Chicago)"}}, {"type": "way", "id": 210321426, "nodes": [2204047724, 2204047824, 2204048116, 2204047916, 2204047937, 2204047720, 2204047439, 2204047387, 2204047724], "tags": {"addr:city": "Chicago", "addr:housenumber": "2442", "addr:postcode": "60614", "addr:state": "IL", "addr:street": "North Clark Street", "addr:street:name": "Clark", "addr:street:prefix": "North", "addr:street:type": "Street", "amenity": "bar", "building": "yes", "chicago:building_id": "850323", "name": "Galway Arms", "opening_hours": "Mo-Fr 12:00-02:00; Sa 11:00-03:00; Su 11:00-01:00", "phone": "+1-773-472-5555", "website": "http://www.galwayarms.com/"}}, {"type": "way", "id": 210321451, "nodes": [2204048654, 2204048959, 2204048983, 2204048686, 2204048654], "tags": {"addr:housenumber": "2447", "addr:street": "North Halsted Street", "addr:street:name": "Halsted", "addr:street:prefix": "North", "addr:street:type": "Street", "amenity": "bar", "building": "yes", "chicago:building_id": "257205", "name": "The Tonic Room"}}, {"type": "way", "id": 210321648, "nodes": [2204055130, 2204055146, 2204054879, 2204054829, 2204055130], "tags": {"addr:city": "Chicago", "addr:housenumber": "2548", "addr:postcode": "60614", "addr:state": "IL", "addr:street": "North Halsted Street", "addr:street:name": "Halsted", "addr:street:prefix": "North", "addr:street:type": "Street", "amenity": "bar", "building": "yes", "building:levels": "2", "chicago:building_id": "863343", "name": "Kingston Mines", "phone": "+1-773-477-4647", "website": "https://kingstonmines.com/"}}, {"type": "way", "id": 210321659, "nodes": [2204055739, 2204055723, 2204055852, 2204055884, 2204055739], "tags": {"addr:housenumber": "2558", "addr:street": "North Halsted Street", "addr:street:name": "Halsted", "addr:street:prefix": "North", "addr:street:type": "Street", "amenity": "restaurant", "building": "yes", "building:levels": "2", "chicago:building_id": "863337", "cuisine": "mexican", "name": "Las Fuentes"}}, {"type": "way", "id": 210321835, "nodes": [2204060592, 2204060335, 2204060506, 2204060429, 2204060626, 2204060719, 2204060869, 2204061102, 2204060592], "tags": {"addr:housenumber": "2630", "addr:street": "North Clark Street", "addr:street:name": "Clark", "addr:street:prefix": "North", "addr:street:type": "Street", "amenity": "pub", "building": "yes", "building:levels": "1", "chicago:building_id": "862162", "name": "Crossroads Public House", "website": "http://www.crossroadspublichouse.com/"}}, {"type": "way", "id": 210322417, "nodes": [2204065252, 2204064432, 2204065117, 2204065833, 2204065661, 2204065636, 2204065568, 2204065625, 2204065252], "tags": {"addr:city": "Chicago", "addr:housenumber": "2747", "addr:postcode": "60614", "addr:state": "IL", "addr:street": "North Lincoln Avenue", "addr:street:name": "Lincoln", "addr:street:prefix": "North", "addr:street:type": "Avenue", "amenity": "bar", "building": "yes", "building:levels": "2", "chicago:building_id": "862997", "microbrewery": "yes", "name": "Burnt City Brewing", "opening_hours": "Mo-Th 17:00-23:00; Fr 17:00-02:00; Sa 12:00-02:00; Su 12:00-23:00", "phone": "+1-773-295-1270", "website": "https://burntcitybrewing.com"}}, {"type": "way", "id": 210322867, "nodes": [2204056515, 2204056556, 2204057197, 2204057201, 2204056518, 2204056515], "tags": {"addr:city": "Chicago", "addr:housenumber": "724", "addr:postcode": "60614", "addr:state": "IL", "addr:street": "West Wrightwood Avenue", "addr:street:name": "Wrightwood", "addr:street:prefix": "West", "addr:street:type": "Avenue", "amenity": "bar", "building": "yes", "building:levels": "2", "chicago:building_id": "249238", "email": "burwoodtap724@gmail.com", "name": "Burwood Tap", "opening_hours": "11:00-03:00", "outdoor_seating": "no", "smoking": "outside"}}, {"type": "way", "id": 210322882, "nodes": [2204045265, 2204045344, 2204045352, 2204044972, 2204044971, 2204044944, 2204044941, 2204045107, 2204045130, 2204045252, 2204045265], "tags": {"addr:city": "Chicago", "addr:housenumber": "738", "addr:postcode": "60614", "addr:street": "West Fullerton Avenue", "addr:street:name": "Fullerton", "addr:street:prefix": "West", "addr:street:type": "Avenue", "amenity": "cafe", "building": "yes", "chicago:building_id": "850377", "name": "Bourgeois Pig Cafe", "opening_hours": "Mo-Sa 07:00-22:00; Su 08:00-22:00", "phone": "+1 773-883-5282", "website": "http://bpigcafe.com/"}}, {"type": "way", "id": 210325560, "nodes": [2204071505, 2204071494, 2204071515, 2204071519, 2204071681, 2204071685, 2204071737, 2204071732, 2204071865, 2204071867, 2204071893, 2204071900, 2204071872, 2204071875, 2204071910, 2204071908, 2204071907, 2204071505], "tags": {"addr:housenumber": "2808", "addr:street": "North Halsted Street", "addr:street:name": "Halsted", "addr:street:prefix": "North", "addr:street:type": "Street", "amenity": "restaurant", "building": "yes", "building:levels": "2", "chicago:building_id": "862810", "cuisine": "steak", "name": "Select Cut Steak House"}}, {"type": "way", "id": 210686862, "nodes": [2207658071, 2207658059, 2207658063, 2207658045, 2207658053, 2207658054, 2207658068, 2207658073, 2207658069, 2207658070, 2207658074, 2207658086, 2207658084, 2207658094, 2207658071], "tags": {"addr:city": "Chicago", "addr:housenumber": "2326", "addr:postcode": "60614", "addr:state": "IL", "addr:street": "North Clark Street", "addr:street:name": "Clark", "addr:street:prefix": "North", "addr:street:type": "Street", "amenity": "bar", "building": "yes", "building:levels": "3", "chicago:building_id": "866325", "name": "Ravens", "phone": "+1-773-348-1774", "website": "ravenschicago.com"}}, {"type": "way", "id": 534617797, "nodes": [5184313955, 734513169, 734513174, 734513347, 734513348, 734513350, 734513059, 734513351, 734513352, 734513354, 734565033, 734565043, 734565049, 734565056, 734565061, 734565069, 734565079, 734565084, 734565088, 734565092, 734565097, 734565102, 734565108, 734565111, 734565117, 734565126, 734565136, 2022110679, 734565144, 2022110661, 734565150, 734565156, 2022110673, 734565163, 2022110677, 734565167, 734565170, 734565173, 734565178, 734565206, 734565211, 734565215, 734565219, 734565223, 734565228, 734565232, 734565236, 734565240, 734565243, 734565245, 734565246, 734565247, 734565249, 734565252, 734565256, 734563920, 734562951, 734565261, 734565267, 734565272, 734565276, 734565281, 734565285, 734565289, 734565294, 734565300, 734565304, 734565307, 734565311, 734565316, 734565320, 734565333, 734565335, 734565337, 734565339, 734565345, 734565350, 734565355, 734565360, 734565366, 734565374, 734565385, 734565393, 734562891, 734562812, 734563039, 734563009, 734562998, 1984429361, 734565397, 2023910816, 1710876989, 1984429367, 739322454, 1984429364, 739322251, 739322248, 739322457, 739322458, 739322460, 739322461, 739322463, 739322464, 739322466, 739322467, 739322468, 739322470, 739322472, 739322475, 739322476, 739322222, 739322216, 1984416056, 1984415185, 1984415177, 1984415192, 739322481, 2023910818, 739322483, 1984415198, 1984415204, 1984415179, 1984415200, 739322147, 739322228, 739322484, 739322174, 739322183, 739322190, 739322195, 739322486, 739322136], "tags": {"bridge": "yes", "electrified": "rail", "gauge": "1435", "layer": "1", "name": "North Side Main Line", "oneway": "yes", "operator": "Chicago Transit Authority", "railway": "subway", "voltage": "600"}}, {"type": "relation", "id": 2527861, "members": [{"type": "way", "ref": 26150036, "role": "outer"}, {"type": "way", "ref": 32853826, "role": "outer"}], "tags": {"amenity": "university", "name": "DePaul University", "type": "multipolygon"}}]}