{"version": 0.6, "generator": "Overpass API 0.7.56.1004 6cd3eaec", "osm3s": {"timestamp_osm_base": "2020-07-22T01:27:03Z", "copyright": "The data included in this document is from www.openstreetmap.org. The data is made available under ODbL."}, "elements": [{"type": "node", "id": 2196013729, "lat": 41.8763532, "lon": -87.6966357}, {"type": "node", "id": 2196013731, "lat": 41.876354, "lon": -87.6965841}, {"type": "node", "id": 2196014181, "lat": 41.8763559, "lon": -87.6964683}, {"type": "node", "id": 2196014183, "lat": 41.8763561, "lon": -87.6965197}, {"type": "node", "id": 2196014239, "lat": 41.8764034, "lon": -87.6966367}, {"type": "node", "id": 2196014241, "lat": 41.8764066, "lon": -87.6964696}, {"type": "node", "id": 4482981117, "lat": 41.8843015, "lon": -87.6992832, "tags": {"addr:city": "Chicago", "addr:housenumber": "2908", "addr:postcode": "60612", "addr:state": "IL", "addr:street": "West Lake Street", "amenity": "restaurant", "cuisine": "burger", "name": "Al's Under the L"}}, {"type": "node", "id": 6188968653, "lat": 41.880808, "lon": -87.6849333, "tags": {"addr:city": "Chicago", "addr:housenumber": "2323", "addr:postcode": "60612", "addr:state": "IL", "addr:street": "West Madison Street", "amenity": "restaurant", "cuisine": "chinese", "name": "Chan's King Wok", "opening_hours": "24/7"}}, {"type": "node", "id": 6306612141, "lat": 41.8879186, "lon": -87.6825861, "tags": {"addr:city": "Chicago", "addr:housenumber": "324", "addr:postcode": "60612", "addr:state": "IL", "addr:street": "North Leavitt Street", "amenity": "restaurant", "name": "The Corner Farmacy", "phone": "+1-563-271-7936", "website": "https://www.thecornerfarmacy.com/"}}, {"type": "node", "id": 6319067420, "lat": 41.8878949, "lon": -87.6826783, "tags": {"addr:city": "Chicago", "addr:housenumber": "324", "addr:postcode": "60612", "addr:state": "IL", "addr:street": "North Leavitt Street", "amenity": "restaurant", "name": "Kaathis", "phone": "+1-872-222-0502", "website": "https://kaathis.com/"}}, {"type": "node", "id": 6322955756, "lat": 41.8881143, "lon": -87.6824802, "tags": {"addr:city": "Chicago", "addr:housenumber": "324", "addr:postcode": "60612", "addr:state": "IL", "addr:street": "North Bell Avenue", "amenity": "restaurant", "name": "The Corner Farmacy", "phone": "+1-563-271-7936", "website": "https://www.thecornerfarmacy.com/"}}, {"type": "node", "id": 6326055702, "lat": 41.8805912, "lon": -87.6866485, "tags": {"addr:city": "Chicago", "addr:housenumber": "16", "addr:postcode": "60612", "addr:state": "IL", "addr:street": "South Western Avenue", "amenity": "restaurant", "name": "Moon\u2019s Sandwich Shop", "phone": "+1-312-226-5094", "website": "https://www.moonschicago.com/"}}, {"type": "way", "id": 209382118, "nodes": [2196013729, 2196014239, 2196014241, 2196014181, 2196014183, 2196013731, 2196013729], "tags": {"addr:housenumber": "2808", "addr:street": "West Van Buren Street", "addr:street:name": "Van Buren", "addr:street:prefix": "West", "addr:street:type": "Street", "amenity": "restaurant", "building": "yes", "building:levels": "1", "chicago:building_id": "362980"}}]}