{"version": 0.6, "generator": "Overpass API 0.7.56.1004 6cd3eaec", "osm3s": {"timestamp_osm_base": "2020-07-21T22:48:02Z", "copyright": "The data included in this document is from www.openstreetmap.org. The data is made available under ODbL."}, "elements": [{"type": "node", "id": 529966338, "lat": 41.8854777, "lon": -87.6342975, "tags": {"addr:city": "Chicago", "addr:housenumber": "205", "addr:postcode": "60606", "addr:state": "IL", "addr:street": "West Lake Street", "amenity": "bar", "name": "Monk\u2019s Pub", "phone": "+1-312-357-6665", "website": "https://www.monkspubchicago.com/"}}, {"type": "node", "id": 1499592824, "lat": 41.8888545, "lon": -87.6355696, "tags": {"amenity": "restaurant", "name": "Nick's Fishmarket Grill"}}, {"type": "node", "id": 1606229344, "lat": 41.8854298, "lon": -87.6350969}, {"type": "node", "id": 1606229361, "lat": 41.885428, "lon": -87.635252}, {"type": "node", "id": 1606229367, "lat": 41.8853437, "lon": -87.6352491}, {"type": "node", "id": 1606229402, "lat": 41.8854289, "lon": -87.6351755}, {"type": "node", "id": 1606229403, "lat": 41.885346, "lon": -87.6350954}, {"type": "node", "id": 1699207283, "lat": 41.8855339, "lon": -87.6429355, "tags": {"addr:city": "Chicago", "addr:housenumber": "605", "addr:postcode": "60661", "addr:state": "IL", "addr:street": "West Lake Street", "amenity": "restaurant", "cuisine": "thai;asian", "delivery": "yes", "name": "Bang Chop Thai Kitchen", "opening_hours": "Mo-Fr 11:00-20:30", "phone": "+1-312-285-2800", "website": "http://www.bangchopthaikitchenchicago.com/"}}, {"type": "node", "id": 1699222278, "lat": 41.8909535, "lon": -87.6338839, "tags": {"addr:city": "Chicago", "addr:housenumber": "509", "addr:postcode": "60654", "addr:state": "IL", "addr:street": "North Wells Street", "amenity": "bar", "name": "Pepper Canister", "opening_hours": "Mo-Fr 11:00-02:00; Sa 11:00-03:00; Su 11:30-02:00", "phone": "+1-312-467-3300", "wheelchair": "yes"}}, {"type": "node", "id": 1715850315, "lat": 41.8899173, "lon": -87.6319531}, {"type": "node", "id": 1715850331, "lat": 41.8896338, "lon": -87.6319464}, {"type": "node", "id": 1715850343, "lat": 41.8899217, "lon": -87.6316702}, {"type": "node", "id": 1715850351, "lat": 41.8896382, "lon": -87.6316607}, {"type": "node", "id": 1923785547, "lat": 41.889393, "lon": -87.634271, "tags": {"addr:city": "Chicago", "addr:housenumber": "400", "addr:postcode": "60654", "addr:state": "IL", "addr:street": "North Wells Street", "amenity": "restaurant", "cuisine": "steak_house;steak", "name": "Kinzie Chophouse", "opening_hours": "Mo-Th 11:00-22:00; Fr 11:00-23:00; Sa 16:00-23:00; Su 16:00-21:00", "phone": "+1-312-822-0191", "source": "http://kinziechophouse.com", "website": "https://www.kinziechophouse.com/"}}, {"type": "node", "id": 1924394912, "lat": 41.8888174, "lon": -87.6328511, "tags": {"addr:housenumber": "350", "addr:postcode": "60654", "addr:street": "North La Salle Boulevard", "amenity": "university", "name": "IIT Institute of Design", "source": "http://id.iit.edu/"}}, {"type": "node", "id": 1924395814, "lat": 41.8881786, "lon": -87.6333711, "tags": {"addr:city": "Chicago", "addr:housenumber": "300", "addr:postcode": "60654", "addr:state": "IL", "addr:street": "North LaSalle Boulevard", "amenity": "restaurant", "cuisine": "steak_house;steak;seafood;fine_dining", "name": "Chicago Cut Steakhouse", "opening_hours": "Mo-Fr 07:00-02:00; Sa-Su 10:00-02:00", "phone": "+1-312-329-1800", "website": "http://www.chicagocutsteakhouse.com"}}, {"type": "node", "id": 2084949719, "lat": 41.8952165, "lon": -87.6344593, "tags": {"addr:city": "Chicago", "addr:housenumber": "710", "addr:postcode": "60654", "addr:state": "IL", "addr:street": "North Wells Street", "amenity": "restaurant", "name": "Prosecco", "opening_hours": "Mo-Th 11:30-22:00; Fr 11:30-23:00; Sa 17:00-23:00", "phone": "+1-312-951-9500", "website": "http://www.prosecco.us.com"}}, {"type": "node", "id": 2203578021, "lat": 41.8864495, "lon": -87.6485349}, {"type": "node", "id": 2203578023, "lat": 41.8864504, "lon": -87.6484469}, {"type": "node", "id": 2203578385, "lat": 41.8866769, "lon": -87.6485392}, {"type": "node", "id": 2203578387, "lat": 41.8866779, "lon": -87.6484512}, {"type": "node", "id": 2203578493, "lat": 41.8868516, "lon": -87.6520574}, {"type": "node", "id": 2203578494, "lat": 41.8868556, "lon": -87.6516901}, {"type": "node", "id": 2203578545, "lat": 41.8869125, "lon": -87.6461716}, {"type": "node", "id": 2203578549, "lat": 41.8869154, "lon": -87.6459586}, {"type": "node", "id": 2203578554, "lat": 41.886925, "lon": -87.6459585}, {"type": "node", "id": 2203578606, "lat": 41.8870717, "lon": -87.6516943}, {"type": "node", "id": 2203578659, "lat": 41.8871136, "lon": -87.6520583}, {"type": "node", "id": 2203578661, "lat": 41.8871156, "lon": -87.6516966}, {"type": "node", "id": 2203578777, "lat": 41.8872872, "lon": -87.6459601}, {"type": "node", "id": 2203578844, "lat": 41.8873764, "lon": -87.6461832}, {"type": "node", "id": 2203578846, "lat": 41.8873792, "lon": -87.6459665}, {"type": "node", "id": 2203580648, "lat": 41.8901189, "lon": -87.6551243}, {"type": "node", "id": 2203580662, "lat": 41.8901248, "lon": -87.6547276}, {"type": "node", "id": 2203580768, "lat": 41.8901779, "lon": -87.6551273}, {"type": "node", "id": 2203580772, "lat": 41.8901838, "lon": -87.6547288}, {"type": "node", "id": 2203936165, "lat": 41.8912981, "lon": -87.6472549}, {"type": "node", "id": 2203936451, "lat": 41.8914248, "lon": -87.6472556}, {"type": "node", "id": 2207544238, "lat": 41.890311, "lon": -87.6338916}, {"type": "node", "id": 2207544245, "lat": 41.8903176, "lon": -87.6335057}, {"type": "node", "id": 2207544298, "lat": 41.890381, "lon": -87.6338941}, {"type": "node", "id": 2207544300, "lat": 41.8903808, "lon": -87.6335076}, {"type": "node", "id": 2207544311, "lat": 41.8903857, "lon": -87.6336271}, {"type": "node", "id": 2207598209, "lat": 41.8908587, "lon": -87.6358823}, {"type": "node", "id": 2207598210, "lat": 41.8908633, "lon": -87.6356866}, {"type": "node", "id": 2207598237, "lat": 41.8908921, "lon": -87.6358837}, {"type": "node", "id": 2207598238, "lat": 41.8908912, "lon": -87.6359197}, {"type": "node", "id": 2207598239, "lat": 41.8908986, "lon": -87.6331312}, {"type": "node", "id": 2207598242, "lat": 41.8909021, "lon": -87.6327935}, {"type": "node", "id": 2207598243, "lat": 41.8909385, "lon": -87.6356898}, {"type": "node", "id": 2207598248, "lat": 41.8909331, "lon": -87.6359215}, {"type": "node", "id": 2207598261, "lat": 41.8910231, "lon": -87.6331335}, {"type": "node", "id": 2207598262, "lat": 41.8910254, "lon": -87.6329124}, {"type": "node", "id": 2207598283, "lat": 41.891177, "lon": -87.6329152}, {"type": "node", "id": 2207598284, "lat": 41.8911782, "lon": -87.6327988}, {"type": "node", "id": 2207598369, "lat": 41.8917241, "lon": -87.6315741}, {"type": "node", "id": 2207598371, "lat": 41.891725, "lon": -87.6312766}, {"type": "node", "id": 2207598414, "lat": 41.8918407, "lon": -87.6315692}, {"type": "node", "id": 2207598416, "lat": 41.8918408, "lon": -87.6315784}, {"type": "node", "id": 2207598417, "lat": 41.8918417, "lon": -87.6315104}, {"type": "node", "id": 2207598421, "lat": 41.8918512, "lon": -87.6314974}, {"type": "node", "id": 2207598422, "lat": 41.8918513, "lon": -87.6315103}, {"type": "node", "id": 2207598424, "lat": 41.8918526, "lon": -87.6312771}, {"type": "node", "id": 2207598427, "lat": 41.8918567, "lon": -87.6314937}, {"type": "node", "id": 2207598428, "lat": 41.8918567, "lon": -87.6314974}, {"type": "node", "id": 2207598449, "lat": 41.8919199, "lon": -87.6312782}, {"type": "node", "id": 2207598450, "lat": 41.8919212, "lon": -87.6314985}, {"type": "node", "id": 2207598453, "lat": 41.8919229, "lon": -87.6315444}, {"type": "node", "id": 2207598491, "lat": 41.891997, "lon": -87.6315436}, {"type": "node", "id": 2207598494, "lat": 41.8919981, "lon": -87.6312791}, {"type": "node", "id": 2207598524, "lat": 41.8920888, "lon": -87.6342329}, {"type": "node", "id": 2207598529, "lat": 41.8920916, "lon": -87.6344532}, {"type": "node", "id": 2207598531, "lat": 41.8920943, "lon": -87.6342328}, {"type": "node", "id": 2207598535, "lat": 41.8921053, "lon": -87.6342327}, {"type": "node", "id": 2207598540, "lat": 41.8921094, "lon": -87.634453}, {"type": "node", "id": 2207598541, "lat": 41.892119, "lon": -87.6344529}, {"type": "node", "id": 2207598542, "lat": 41.8921191, "lon": -87.6344713}, {"type": "node", "id": 2207598562, "lat": 41.8921713, "lon": -87.6344781}, {"type": "node", "id": 2207598611, "lat": 41.8922824, "lon": -87.6344714}, {"type": "node", "id": 2207598612, "lat": 41.8922851, "lon": -87.6342363}, {"type": "node", "id": 2207598743, "lat": 41.8926965, "lon": -87.6346505}, {"type": "node", "id": 2207598744, "lat": 41.8927009, "lon": -87.6342464}, {"type": "node", "id": 2207598826, "lat": 41.892857, "lon": -87.6346542}, {"type": "node", "id": 2207598828, "lat": 41.8928607, "lon": -87.6343585}, {"type": "node", "id": 2207598851, "lat": 41.8929156, "lon": -87.6343598}, {"type": "node", "id": 2207598853, "lat": 41.8929163, "lon": -87.6342514}, {"type": "node", "id": 2207599468, "lat": 41.8940894, "lon": -87.6346794}, {"type": "node", "id": 2207599470, "lat": 41.894094, "lon": -87.6343084}, {"type": "node", "id": 2207599480, "lat": 41.8941062, "lon": -87.6342844}, {"type": "node", "id": 2207599482, "lat": 41.8941142, "lon": -87.632457}, {"type": "node", "id": 2207599484, "lat": 41.8941279, "lon": -87.6317792}, {"type": "node", "id": 2207599544, "lat": 41.8941923, "lon": -87.6346819}, {"type": "node", "id": 2207599546, "lat": 41.8941953, "lon": -87.6345074}, {"type": "node", "id": 2207599565, "lat": 41.8942214, "lon": -87.634509}, {"type": "node", "id": 2207599566, "lat": 41.8942256, "lon": -87.6342867}, {"type": "node", "id": 2207599676, "lat": 41.8943846, "lon": -87.6324669}, {"type": "node", "id": 2207599686, "lat": 41.8943983, "lon": -87.6317873}, {"type": "node", "id": 2207599830, "lat": 41.8945803, "lon": -87.6375406}, {"type": "node", "id": 2207599831, "lat": 41.8945843, "lon": -87.637262}, {"type": "node", "id": 2207599832, "lat": 41.8945842, "lon": -87.6372747}, {"type": "node", "id": 2207599896, "lat": 41.8946462, "lon": -87.6375424}, {"type": "node", "id": 2207599898, "lat": 41.8946479, "lon": -87.6374296}, {"type": "node", "id": 2207599903, "lat": 41.8946573, "lon": -87.6374299}, {"type": "node", "id": 2207599904, "lat": 41.8946598, "lon": -87.637264}, {"type": "node", "id": 2207600074, "lat": 41.8948989, "lon": -87.6340039}, {"type": "node", "id": 2207600075, "lat": 41.8948992, "lon": -87.6336072}, {"type": "node", "id": 2207600078, "lat": 41.8949031, "lon": -87.6340131}, {"type": "node", "id": 2207600082, "lat": 41.89491, "lon": -87.6340148}, {"type": "node", "id": 2207600086, "lat": 41.8949223, "lon": -87.6340092}, {"type": "node", "id": 2207600101, "lat": 41.8949511, "lon": -87.6340107}, {"type": "node", "id": 2207600104, "lat": 41.8949528, "lon": -87.6336085}, {"type": "node", "id": 2207600283, "lat": 41.8951912, "lon": -87.6368789}, {"type": "node", "id": 2207600363, "lat": 41.8953221, "lon": -87.6354538}, {"type": "node", "id": 2207600364, "lat": 41.8953222, "lon": -87.6354666}, {"type": "node", "id": 2207600366, "lat": 41.8953236, "lon": -87.6354721}, {"type": "node", "id": 2207600370, "lat": 41.8953268, "lon": -87.6355492}, {"type": "node", "id": 2207600423, "lat": 41.8954649, "lon": -87.6368842}, {"type": "node", "id": 2207600427, "lat": 41.8954704, "lon": -87.6354724}, {"type": "node", "id": 2207600428, "lat": 41.8954731, "lon": -87.6354577}, {"type": "node", "id": 2207600429, "lat": 41.8954764, "lon": -87.6355531}, {"type": "node", "id": 2207600432, "lat": 41.8954787, "lon": -87.6354723}, {"type": "node", "id": 2262361242, "lat": 41.8853976, "lon": -87.6355645, "tags": {"addr:housenumber": "176", "addr:postcode": "60606", "addr:street": "North Franklin Street", "amenity": "restaurant", "cuisine": "italian", "name": "Taza", "source": "(312) 201-9885", "website": "http://www.tazacafechicago.com/"}}, {"type": "node", "id": 2262383294, "lat": 41.893768, "lon": -87.6358741, "tags": {"amenity": "bar", "name": "Hop H\u00e4us"}}, {"type": "node", "id": 2274005132, "lat": 41.888289, "lon": -87.6359031, "tags": {"addr:city": "Chicago", "addr:street": "Merchandise Mart Plaza", "amenity": "cafe", "brand": "Starbucks", "brand:wikidata": "Q37158", "brand:wikipedia": "en:Starbucks", "cuisine": "coffee_shop", "internet_access": "wlan", "name": "Starbucks", "official_name": "Starbucks Coffee", "opening_hours": "Mo-Fr 05:30-19:30; Sa 07:30-17:00", "takeaway": "yes", "website": "https://www.starbucks.com/store/16046/"}}, {"type": "node", "id": 2361008453, "lat": 41.8863143, "lon": -87.635621, "tags": {"addr:housenumber": "333", "addr:street": "West Wacker Drive", "amenity": "restaurant", "name": "Cafe 333"}}, {"type": "node", "id": 2361008458, "lat": 41.8860206, "lon": -87.6359332, "tags": {"addr:housenumber": "333", "addr:street": "West Wacker Drive", "amenity": "restaurant", "name": "Goodwin's"}}, {"type": "node", "id": 2478422403, "lat": 41.8854481, "lon": -87.635567, "tags": {"addr:housenumber": "178", "addr:street": "North Franklin Street", "amenity": "restaurant", "cuisine": "mexican", "name": "La Cocina"}}, {"type": "node", "id": 2478422406, "lat": 41.8897866, "lon": -87.6371788, "tags": {"amenity": "cafe", "brand": "Starbucks", "brand:wikidata": "Q37158", "brand:wikipedia": "en:Starbucks", "cuisine": "coffee_shop", "name": "Starbucks", "official_name": "Starbucks Coffee", "takeaway": "yes"}}, {"type": "node", "id": 2484981699, "lat": 41.8951897, "lon": -87.6370194}, {"type": "node", "id": 2484981700, "lat": 41.8954387, "lon": -87.6370242}, {"type": "node", "id": 2484981701, "lat": 41.8954638, "lon": -87.6369913}, {"type": "node", "id": 2527216735, "lat": 41.8893422, "lon": -87.6353587, "tags": {"addr:city": "Chicago", "addr:housenumber": "401 1/2", "addr:postcode": "60654", "addr:street": "North Franklin Street", "amenity": "cafe", "cuisine": "doughnut;doughnuts;american", "name": "Doughnut Vault", "phone": "+1-312-285-2830", "website": "http://doughnutvault.com/"}}, {"type": "node", "id": 2570892816, "lat": 41.8859048, "lon": -87.6430854, "tags": {"amenity": "cafe", "brand": "Starbucks", "brand:wikidata": "Q37158", "brand:wikipedia": "en:Starbucks", "cuisine": "coffee_shop", "name": "Starbucks", "official_name": "Starbucks Coffee", "takeaway": "yes"}}, {"type": "node", "id": 2800242836, "lat": 41.8901616, "lon": -87.6312859, "tags": {"amenity": "cafe", "brand": "Starbucks", "brand:wikidata": "Q37158", "brand:wikipedia": "en:Starbucks", "cuisine": "coffee_shop", "name": "Starbucks", "official_name": "Starbucks Coffee", "takeaway": "yes", "wheelchair": "yes"}}, {"type": "node", "id": 2800242842, "lat": 41.8903053, "lon": -87.6309828}, {"type": "node", "id": 2800242843, "lat": 41.8903052, "lon": -87.6307597}, {"type": "node", "id": 2800242844, "lat": 41.8901416, "lon": -87.6308782}, {"type": "node", "id": 2800242845, "lat": 41.8901376, "lon": -87.6309774}, {"type": "node", "id": 2870453012, "lat": 41.8970504, "lon": -87.6433416, "tags": {"addr:city": "Chicago", "addr:housenumber": "600", "addr:postcode": "60654", "addr:street": "West Chicago Avenue", "amenity": "restaurant", "cuisine": "Bar_Food", "name": "Motel Bar", "smoking": "no"}}, {"type": "node", "id": 2870454030, "lat": 41.897217, "lon": -87.6433446, "tags": {"addr:city": "Chicago", "addr:housenumber": "600", "addr:postcode": "60654", "addr:street": "West Chicago Avenue", "amenity": "restaurant", "cuisine": "sandwich", "name": "Snarf's"}}, {"type": "node", "id": 2870517023, "lat": 41.8992975, "lon": -87.6428845, "tags": {"amenity": "restaurant", "cuisine": "sandwich", "name": "Goddess & the Grocer"}}, {"type": "node", "id": 3076168990, "lat": 41.8895159, "lon": -87.6342277, "tags": {"amenity": "cafe", "name": "Bowtruss"}}, {"type": "node", "id": 3094702134, "lat": 41.8900946, "lon": -87.6357331, "tags": {"addr:city": "Chicago", "addr:housenumber": "300", "addr:postcode": "60654", "addr:state": "IL", "addr:street": "West Hubbard Street", "amenity": "restaurant", "cuisine": "italian", "name": "Coco Pazzo", "opening_hours": "Mo-Fr 11:30-14:30, Mo-Th 17:00-22:00, Fr-Sa 17:00-22:30, Su 17:00-21:30", "phone": "+1-312-836-0900", "website": "https://www.cocopazzochicago.com/"}}, {"type": "node", "id": 3094904880, "lat": 41.8912975, "lon": -87.6474278}, {"type": "node", "id": 3094904881, "lat": 41.8915099, "lon": -87.6472562}, {"type": "node", "id": 3094904882, "lat": 41.8915093, "lon": -87.6474291}, {"type": "node", "id": 3114037604, "lat": 41.9003844, "lon": -87.6377709, "tags": {"amenity": "restaurant", "cuisine": "kyrgyz", "name": "Dastorkon"}}, {"type": "node", "id": 3367138857, "lat": 41.8861273, "lon": -87.6484831}, {"type": "node", "id": 3367138858, "lat": 41.8861312, "lon": -87.648271}, {"type": "node", "id": 3367138859, "lat": 41.8861848, "lon": -87.6483855}, {"type": "node", "id": 3367138860, "lat": 41.8861869, "lon": -87.6482729}, {"type": "node", "id": 3367138861, "lat": 41.8861959, "lon": -87.6484855}, {"type": "node", "id": 3367138862, "lat": 41.8861978, "lon": -87.6483859}, {"type": "node", "id": 3445901558, "lat": 41.8937121, "lon": -87.6313453, "tags": {"amenity": "bar", "name": "Stout Barrel House and Galley", "phone": "+1 (312) 475-1390", "website": "http://stoutchicago.com/"}}, {"type": "node", "id": 3497471764, "lat": 41.8945543, "lon": -87.6333876, "tags": {"addr:city": "Chicago", "addr:housenumber": "676", "addr:postcode": "60654", "addr:state": "IL", "addr:street": "North LaSalle Boulevard", "amenity": "cafe", "cuisine": "coffee_shop;coffee", "name": "Heritage Outpost", "phone": "+1-312-709-1775", "website": "https://www.heritagebicycles.com"}}, {"type": "node", "id": 3575173111, "lat": 41.8865946, "lon": -87.6520069, "tags": {"addr:city": "Chicago", "addr:housenumber": "953", "addr:postcode": "60607", "addr:state": "IL", "addr:street": "West Fulton Market", "amenity": "restaurant", "cuisine": "fine_dining", "name": "Next", "phone": "+1-312-226-0858", "website": "https://www.nextrestaurant.com/", "wikidata": "Q7020950", "wikipedia": "en:Next (restaurant)"}}, {"type": "node", "id": 3575173112, "lat": 41.8865101, "lon": -87.6519209, "tags": {"addr:city": "Chicago", "addr:housenumber": "955", "addr:postcode": "60607", "addr:state": "IL", "addr:street": "West Fulton Market", "amenity": "bar", "name": "The Aviary", "opening_hours": "Su-We 17:00-00:00; Th-Fr 17:00-02:00; 17:00-03:00", "phone": "+1-312-226-0868", "website": "theaviary.com"}}, {"type": "node", "id": 3575231494, "lat": 41.8910574, "lon": -87.6471083, "tags": {"addr:city": "Chicago", "addr:housenumber": "495", "addr:postcode": "60654", "addr:state": "IL", "addr:street": "North Milwaukee Avenue", "amenity": "bar", "name": "Emmit's Irish Pub", "opening_hours": "Mo-Th 16:00-02:00; Fr 15:00-02:00; Sa 11:00-03:00; Su 11:00-02:00", "phone": "+1-312-563-9631", "website": "https://www.emmits.com/"}}, {"type": "node", "id": 3575231495, "lat": 41.8910436, "lon": -87.6470004, "tags": {"addr:city": "Chicago", "addr:housenumber": "491", "addr:postcode": "60654", "addr:state": "IL", "addr:street": "North Milwaukee Avenue", "amenity": "bar", "name": "Richard's Bar", "opening_hours": "Mo-Fr 08:00-02:00; Sa 09:00-03:00; Su 12:00-02:00", "phone": "+1-312-733-2251"}}, {"type": "node", "id": 3575231496, "lat": 41.8910439, "lon": -87.6468381, "tags": {"addr:city": "Chicago", "addr:housenumber": "721", "addr:postcode": "60654", "addr:state": "IL", "addr:street": "West Grand Avenue", "amenity": "restaurant", "cuisine": "italian", "name": "La Scarola", "opening_hours": "Mo-Fr 17:00-23:00; Sa 16:00-23:00; Su 16:00-22:00", "phone": "+1-312-243-1740", "website": "http://lascarola.com/"}}, {"type": "node", "id": 3575231700, "lat": 41.8896009, "lon": -87.6448653, "tags": {"addr:city": "Chicago", "addr:housenumber": "415", "addr:postcode": "60654", "addr:state": "IL", "addr:street": "North Milwaukee Avenue", "amenity": "bar", "name": "The Swill Inn"}}, {"type": "node", "id": 3958950098, "lat": 41.8858813, "lon": -87.6337901, "tags": {"addr:city": "Chicago", "addr:country": "US", "addr:housenumber": "201", "addr:postcode": "60606", "addr:state": "IL", "addr:street": "North Wells Street", "amenity": "restaurant", "cuisine": "japanese", "name": "Ajida", "takeaway": "yes", "wheelchair": "yes"}}, {"type": "node", "id": 4076939309, "lat": 41.8866569, "lon": -87.6488989, "tags": {"addr:city": "Chicago", "addr:housenumber": "837", "addr:postcode": "60607", "addr:state": "IL", "addr:street": "West Fulton Market", "amenity": "restaurant", "cuisine": "seafood;pork", "name": "The Publican", "opening_hours": "Mo-Th 15:30-21:30; Fr-Sa 15:30-22:30; Su 17:00-21:30", "phone": "+1-312-733-9555", "website": "thepublicanrestaurant.com"}}, {"type": "node", "id": 4428028173, "lat": 41.8879061, "lon": -87.6312647, "tags": {"addr:city": "Chicago", "addr:housenumber": "316", "addr:postcode": "60654", "addr:state": "IL", "addr:street": "North Clark Street", "amenity": "restaurant", "cuisine": "american", "name": "The Kitchen", "opening_hours": "Mo-Su 11:00-22:00", "phone": "+1-312-836-1300", "website": "https://www.thekitchenbistros.com/location/the-kitchen-chicago/"}}, {"type": "node", "id": 4567406790, "lat": 41.8962701, "lon": -87.6482164, "tags": {"addr:city": "Chicago", "addr:housenumber": "811", "addr:postcode": "60642", "addr:state": "IL", "addr:street": "West Chicago Avenue", "amenity": "cafe", "name": "Cafe Blue", "phone": "+1-312-763-2870", "website": "http://www.cafe.blue/"}}, {"type": "node", "id": 4629759398, "lat": 41.9025377, "lon": -87.6413921, "tags": {"amenity": "cafe"}}, {"type": "node", "id": 4629821760, "lat": 41.8889767, "lon": -87.6331771, "tags": {"addr:city": "Chicago", "addr:housenumber": "149", "addr:postcode": "60654", "addr:state": "IL", "addr:street": "West Kinzie Street", "amenity": "restaurant", "cuisine": "barbecue;bbq", "name": "Old Crow Smokehouse - River North", "opening_hours": "Su-Th 11:00-00:00; Fr 11:00-02:00; Sa 11:00-03:00", "phone": "+1-773-348-8899", "website": "http://oldcrowsmokehouse.com/"}}, {"type": "node", "id": 4726220389, "lat": 41.8858519, "lon": -87.648447, "tags": {"addr:city": "Chicago", "addr:housenumber": "820", "addr:postcode": "60607", "addr:state": "IL", "addr:street": "West Lake Street", "amenity": "restaurant", "cuisine": "japanese;sushi", "name": "The Izakaya at Momotaro", "opening_hours": "Su 16:30-22:30; Mo-Th 17:00-22:30; Fr 16:30-23:00; Sa 16:30-00:00", "phone": "+1-312-733-4818", "website": "http://momotarochicago.com"}}, {"type": "node", "id": 4729922490, "lat": 41.8945947, "lon": -87.6313754, "tags": {"addr:city": "Chicago", "addr:housenumber": "680", "addr:postcode": "60654", "addr:state": "IL", "addr:street": "North Clark Street", "amenity": "cafe", "cuisine": "coffee_shop", "name": "Big Shoulders Coffee", "opening_hours": "Mo-Su 07:00-15:00", "phone": "+1-312-202-9900", "website": "https://www.bigshoulderscoffee.com/"}}, {"type": "node", "id": 4731260221, "lat": 41.8869199, "lon": -87.652526, "tags": {"addr:city": "Chicago", "addr:housenumber": "1000", "addr:postcode": "60607", "addr:state": "IL", "addr:street": "West Fulton Market", "amenity": "restaurant", "cuisine": "seafood;sandwiches", "name": "Cold Storage", "name:en": "Cold Storage", "opening_hours": "Mo-Th 11:00-23:00; Sa 16:30-00:00; Su 16:30-22:30", "phone": "+1-312-638-6280", "website": "https://www.coldstoragechicago.com/"}}, {"type": "node", "id": 4826994222, "lat": 41.8879625, "lon": -87.6321748, "tags": {"addr:city": "Chicago", "addr:housenumber": "315", "addr:postcode": "60654", "addr:state": "IL", "addr:street": "North La Salle Drive", "amenity": "restaurant", "cuisine": "american", "name": "River Roast", "name:en": "River Roast", "opening_hours": "Mo-Th 11:30-22:00; Fr 11:30-23:00; Sa 11:00-23:00; Su 11:00-21:00", "phone": "+1-312-822-0100", "website": "http://www.riverroastchicago.com/", "wheelchair": "yes"}}, {"type": "node", "id": 4868621322, "lat": 41.8941897, "lon": -87.6353895, "tags": {"addr:city": "Chicago", "addr:housenumber": "230", "addr:postcode": "60654", "addr:state": "IL", "addr:street": "West Erie Street", "amenity": "restaurant", "cuisine": "sushi;barbecue;bbq", "name": "Union Sushi + Barbeque Bar", "opening_hours": "Mo-Fr 11:30-14:00; Mo-Th 17:00-22:00; Fr-Sa 17:00-23:00; Su 17:00-21:00", "phone": "+1-312-662-4888", "website": "https://eatatunion.com/"}}, {"type": "node", "id": 4888074922, "lat": 41.8891109, "lon": -87.6520123, "tags": {"addr:city": "Chicago", "addr:housenumber": "401", "addr:postcode": "60607", "addr:state": "IL", "addr:street": "North Morgan Street", "amenity": "restaurant", "delivery": "no", "description": "The Brass Monkey is a private event venue.", "name": "The Brass Monkey", "outdoor_seating": "no", "phone": "+1-312-763-3316", "takeaway": "no"}}, {"type": "node", "id": 4995784442, "lat": 41.8943477, "lon": -87.6343595, "tags": {"addr:city": "Chicago", "addr:housenumber": "668", "addr:postcode": "60654", "addr:state": "IL", "addr:street": "North Wells Street", "amenity": "restaurant", "cuisine": "japanese;sushi", "name": "Cocoro Restaurant", "opening_hours": "Mo-Fr 11:30-14:00; Mo-Sa 17:30-22:00", "phone": "+1-312-943-2220", "website": "http:/www.cocorosushi.com", "wheelchair": "yes"}}, {"type": "node", "id": 5028745127, "lat": 41.8917392, "lon": -87.6337796, "tags": {"addr:city": "Chicago", "addr:housenumber": "531", "addr:postcode": "60654", "addr:state": "IL", "addr:street": "North Wells Street", "amenity": "restaurant", "cuisine": "seafood;tapas", "name": "GT Fish & Oyster", "opening_hours": "Su-Th 17:00-22:00; Tu-Fr 11:30-14:30; Sa-Su 10:00-14:30; Sa 16:30-23:00", "phone": "+1-312-929-3501", "website": "https://www.gtoyster.com/"}}, {"type": "node", "id": 5028857721, "lat": 41.8909642, "lon": -87.6316624, "tags": {"addr:city": "Chicago", "addr:housenumber": "110", "addr:postcode": "60654", "addr:state": "IL", "addr:street": "West Illinois Street", "amenity": "restaurant", "cuisine": "sushi;asian", "name": "Sunda", "opening_hours": "Mo-We 11:30-23:00; Fr 11:30-00:00; Sa-Su 10:30-15:00; Sa 16:00-00:00; Su 16:00-23:00", "phone": "+1-312-644-0500", "website": "https://sundachicago.com/"}}, {"type": "node", "id": 5028929321, "lat": 41.8893414, "lon": -87.63491, "tags": {"addr:city": "Chicago", "addr:housenumber": "218", "addr:postcode": "60654", "addr:state": "IL", "addr:street": "West Kinzie Street", "amenity": "restaurant", "cuisine": "steak_house;steak;fine_dining", "name": "Bavette's Bar & Boeuf", "opening_hours": "Mo-Th 17:00-23:00; Fr-Sa 17:00-00:00; Su 17:00-22:00", "phone": "+1-312-624-8154", "website": "http://bavetteschicago.com"}}, {"type": "node", "id": 5299997866, "lat": 41.896462, "lon": -87.6550805, "tags": {"addr:city": "Chicago", "addr:housenumber": "1062", "addr:postcode": "60642", "addr:state": "IL", "addr:street": "West Chicago Avenue", "amenity": "restaurant", "name": "Windy City Cafe", "phone": "+1-312-492-8010", "website": "https://windycity-cafe.com/"}}, {"type": "node", "id": 5310397019, "lat": 41.8983773, "lon": -87.6374532, "tags": {"addr:city": "Chicago", "addr:housenumber": "860", "addr:postcode": "60610", "addr:state": "IL", "addr:street": "North Orleans Street", "amenity": "restaurant", "cuisine": "american", "description": "Hot dogs and fast food. Featured on Diners, Drive Ins, and Dives.", "name": "BIG & little's Restaurant", "opening_hours": "Mo-Fr 11:00-21:00; Sa 12:00-21:00; Su 12:00-20:00", "phone": "+1-312-943-0000", "website": "https://www.bigandlittleschicago.com/"}}, {"type": "node", "id": 5381764521, "lat": 41.8945518, "lon": -87.635457, "tags": {"addr:city": "Chicago", "addr:housenumber": "675", "addr:postcode": "60654", "addr:state": "IL", "addr:street": "North Franklin Street", "amenity": "restaurant", "name": "The Franklin Room", "phone": "+1-312-445-4686", "website": "https://franklinroom.com/"}}, {"type": "node", "id": 5398863224, "lat": 41.8913731, "lon": -87.648171, "tags": {"addr:city": "Chicago", "addr:housenumber": "506", "addr:postcode": "60642", "addr:state": "IL", "addr:street": "North Milwaukee Avenue", "amenity": "cafe", "cuisine": "coffee_shop", "name": "Starbucks"}}, {"type": "node", "id": 5441371907, "lat": 41.8872097, "lon": -87.650725, "tags": {"addr:city": "Chicago", "addr:housenumber": "311", "addr:postcode": "60607", "addr:state": "IL", "addr:street": "North Sangamon Street", "amenity": "restaurant", "cuisine": "american;drinks", "name": "Fulton Market Kitchen", "opening_hours": "Tu-Fr 17:00-02:00; Sa 17:00-03:00", "phone": "+1-312-733-6900", "website": "https://www.fultonmarketkitchen.com/"}}, {"type": "node", "id": 5441373072, "lat": 41.8866336, "lon": -87.6494008, "tags": {"addr:city": "Chicago", "addr:housenumber": "847", "addr:postcode": "60607", "addr:state": "IL", "addr:street": "West Fulton Market", "amenity": "restaurant", "cuisine": "southern;chicken;fried_chicken", "name": "Gus's World Famous Fried Chicken", "opening_hours": "Mo-Th 11:00-22:00; Fr-Sa 11:00-23:00; Su 11:00-21:00", "phone": "+1-312-733-1971", "website": "http://gusfriedchicken.com/"}}, {"type": "node", "id": 5441374473, "lat": 41.8866376, "lon": -87.6496341, "tags": {"addr:city": "Chicago", "addr:housenumber": "857", "addr:postcode": "60607", "addr:state": "IL", "addr:street": "West Fulton Market", "amenity": "restaurant", "cuisine": "chinese", "name": "Duck Duck Goat", "opening_hours": "Su-Th 16:30-22:30; Fr-Sa 16:30-23:30; Sa-Su 11:00-16:00", "phone": "+1-312-902-3825", "website": "duckduckgoatchicago.com"}}, {"type": "node", "id": 5441377149, "lat": 41.886605, "lon": -87.6518793, "tags": {"addr:city": "Chicago", "addr:housenumber": "951", "addr:postcode": "60607", "addr:state": "IL", "addr:street": "West Fulton Market", "amenity": "restaurant", "cuisine": "american", "name": "Roister Restaurant", "opening_hours": "Mo-Th 17:00-21:00; Fr-Su 10:00-14:00; Fr-Su 17:00-22:00", "website": "http://roisterrestaurant.com"}}, {"type": "node", "id": 5441383176, "lat": 41.8869381, "lon": -87.6488617, "tags": {"addr:city": "Chicago", "addr:housenumber": "834", "addr:postcode": "60607", "addr:state": "IL", "addr:street": "West Fulton Market", "amenity": "restaurant", "cuisine": "american;drinks", "name": "Beatrix Fulton Market", "opening_hours": "Mo-Fr 07:00-22:00; Sa 08:00-23:00; Su 08:00-21:00", "phone": "+1-312-733-0370", "website": "http://beatrixrestaurants.com"}}, {"type": "node", "id": 5441383743, "lat": 41.8869605, "lon": -87.6496187, "tags": {"addr:city": "Chicago", "addr:housenumber": "852", "addr:postcode": "60607", "addr:state": "IL", "addr:street": "West Fulton Market", "amenity": "restaurant", "cuisine": "burger", "name": "Kuma's Corner - West Loop", "opening_hours": "Su-Th 11:15-23:00; Fr-Sa 11:15-00:00", "phone": "+1-312-666-9090", "website": "https://kumascorner.com/"}}, {"type": "node", "id": 5441385374, "lat": 41.8866515, "lon": -87.6484218, "tags": {"addr:city": "Chicago", "addr:housenumber": "819", "addr:postcode": "60607", "addr:state": "IL", "addr:street": "West Fulton Market", "amenity": "restaurant", "cuisine": "ramen;noodle", "name": "Omakase Takeya", "opening_hours": "Tu-Su 11:30-14:30; We-Th 17:00-22:30; Fr-Sa 17:00-23:00; Su 17:00-21:30", "phone": "+1-312-666-7710", "website": "http://ramentakeya.com"}}, {"type": "node", "id": 5441388896, "lat": 41.8875203, "lon": -87.6519922, "tags": {"addr:city": "Chicago", "addr:housenumber": "311", "addr:postcode": "60607", "addr:state": "IL", "addr:street": "North Morgan Street", "amenity": "restaurant", "cuisine": "american;drinks", "name": "City Mouse Chicago", "opening_hours": "Mo-Su 07:00-23:00", "phone": "+1-312-764-1908", "website": "https://www.citymousechicago.com/"}}, {"type": "node", "id": 5441396526, "lat": 41.8876449, "lon": -87.6523807, "tags": {"addr:city": "Chicago", "addr:housenumber": "326", "addr:postcode": "60607", "addr:state": "IL", "addr:street": "North Morgan Street", "amenity": "restaurant", "cuisine": "american;street_food", "name": "Regards to Edith", "opening_hours": "Mo-Th 17:00-22:00; Fr 16:00-23:00; Sa 10:00-23:00; Su 10:00-22:00", "phone": "+1-312-763-6564", "website": "regardstoedith.com"}}, {"type": "node", "id": 5441403136, "lat": 41.8871969, "lon": -87.6524263, "tags": {"addr:city": "Chicago", "addr:housenumber": "1000", "addr:postcode": "60607", "addr:state": "IL", "addr:street": "West Fulton Market", "amenity": "restaurant", "cuisine": "steak;seafood", "name": "Swift & Sons", "opening_hours": "Mo-Th 16:30-23:00; Fr-Sa 16:30-00:00; Su 16:30-22:30", "phone": "+1-312-733-9420", "website": "https://www.swiftandsonschicago.com/"}}, {"type": "node", "id": 5452994604, "lat": 41.8853503, "lon": -87.6519829, "tags": {"addr:city": "Chicago", "addr:housenumber": "181", "addr:postcode": "60607", "addr:state": "IL", "addr:street": "North Morgan Street", "amenity": "cafe", "cuisine": "donut;coffee;chicken;sandwich", "name": "Do-Rite Donuts & Coffee", "opening_hours": "Mo-Th 06:30-19:00; Fr 06:30-01:00; Sa 07:00-01:00; Su 07:00-19:00", "phone": "+1-312-624-8878", "website": "http://doritedonuts.com/"}}, {"type": "node", "id": 5457146858, "lat": 41.8914868, "lon": -87.6313715, "tags": {"addr:city": "Chicago", "addr:housenumber": "516", "addr:postcode": "60654", "addr:state": "IL", "addr:street": "North Clark Street", "amenity": "restaurant", "name": "Maggiano's Little Italy", "opening_hours": "Mo-Th 11:30-22:00; Fr 11:30-23:00; Sa 10:30-23:00; Su 10:30-22:00", "phone": "+1-312-644-7700", "website": "https://www.maggianos.com"}}, {"type": "node", "id": 5457160034, "lat": 41.8906817, "lon": -87.6313803, "tags": {"addr:city": "Chicago", "addr:housenumber": "456", "addr:postcode": "60654", "addr:state": "IL", "addr:street": "North Clark Street", "amenity": "restaurant", "name": "Roka Akor - Chicago", "phone": "+1-312-477-7652", "website": "https://rokaakor.com/locations/chicago/"}}, {"type": "node", "id": 5457166292, "lat": 41.8902545, "lon": -87.6319006, "tags": {"addr:city": "Chicago", "addr:housenumber": "116", "addr:postcode": "60654", "addr:state": "IL", "addr:street": "West Hubbard Street", "amenity": "restaurant", "cuisine": "ramen;japanese", "name": "Slurping Turtle", "opening_hours": "Su-Th 11:30-22:00; Fr-Sa 11:30-23:00", "phone": "+1-312-464-0466", "website": "http://slurpingturtle.com/chicago/"}}, {"type": "node", "id": 5457182416, "lat": 41.8902584, "lon": -87.6316003, "tags": {"addr:city": "Chicago", "addr:housenumber": "110", "addr:postcode": "60654", "addr:state": "IL", "addr:street": "West Hubbard Street", "amenity": "restaurant", "cuisine": "european", "name": "Hubbard Inn", "opening_hours": "Mo-Fr 11:00-02:00; Sa 10:00-03:00; Su 10:00-00:00"}}, {"type": "node", "id": 5457211334, "lat": 41.8902824, "lon": -87.6317505, "tags": {"addr:city": "Chicago", "addr:housenumber": "112", "addr:postcode": "60654", "addr:state": "IL", "addr:street": "West Hubbard Street", "amenity": "restaurant", "cuisine": "american", "name": "Joy District Chicago", "opening_hours": "Mo-Fr 16:00-02:00; Sa 16:00-03:00", "phone": "+1-312-955-0339", "website": "https://www.joychicago.com/"}}, {"type": "node", "id": 5457219841, "lat": 41.8902576, "lon": -87.6314021, "tags": {"addr:city": "Chicago", "addr:housenumber": "436", "addr:postcode": "60654", "addr:state": "IL", "addr:street": "North Clark Street", "amenity": "bar", "name": "The Baton Show Lounge", "opening_hours": "We-Su 19:00-04:00", "phone": "+1-312-644-5269", "website": "http://www.thebatonshowlounge.com/"}}, {"type": "node", "id": 5457435673, "lat": 41.8901356, "lon": -87.6307521}, {"type": "node", "id": 5457454076, "lat": 41.8886577, "lon": -87.6312208, "tags": {"addr:city": "Chicago", "addr:housenumber": "340", "addr:postcode": "60654", "addr:state": "IL", "addr:street": "North Clark Street", "amenity": "restaurant", "cuisine": "italian", "name": "Nonnina", "opening_hours": "Mo-Th 11:00-22:30; Fr 11:00-23:00; Sa 17:00-23:00; Su 15:00-20:00", "phone": "+1-312-822-0077", "website": "http://nonninachicago.com/"}}, {"type": "node", "id": 5457461310, "lat": 41.8890014, "lon": -87.6317073, "tags": {"addr:city": "Chicago", "addr:housenumber": "111", "addr:postcode": "60654", "addr:state": "IL", "addr:street": "West Kinzie Street", "amenity": "restaurant", "cuisine": "american", "name": "Untitled Supper Club", "opening_hours": "Mo 16:30-00:00; Tu-We 16:30-01:00; Th-Fr 16:30-02:00; Sa 16:30-03:00", "phone": "+1-312-880-1511", "website": "https://www.untitledsupperclub.com/"}}, {"type": "node", "id": 5457600737, "lat": 41.8896818, "lon": -87.6314633, "tags": {"addr:city": "Chicago", "addr:housenumber": "412", "addr:postcode": "60654", "addr:state": "IL", "addr:street": "North Clark Street", "amenity": "restaurant", "cuisine": "latin_american", "name": "Havana Grill", "opening_hours": "Mo-Th 11:00-22:00; Fr 11:00-02:00; Sa 12:00-03:00; Su 16:00-02:00", "phone": "+1-312-644-1900", "website": "http://www.havanachicago.com/"}}, {"type": "node", "id": 5457607519, "lat": 41.8894067, "lon": -87.6319768, "tags": {"addr:city": "Chicago", "addr:housenumber": "108", "addr:postcode": "60654", "addr:state": "IL", "addr:street": "West Kinzie Street", "amenity": "restaurant", "cuisine": "mexican", "name": "Mercadito", "opening_hours": "Su-Mo 11:00-00:00; Tu 11:00-01:00; We 11:00-00:00; Th 11:00-01:00; Fr 11:00-02:00; Sa 11:00-03:00", "phone": "+1-312-329-9555", "website": "https://www.mercaditorestaurants.com/"}}, {"type": "node", "id": 5457612806, "lat": 41.8898493, "lon": -87.631628, "tags": {"addr:city": "Chicago", "addr:housenumber": "111", "addr:postcode": "60654", "addr:state": "IL", "addr:street": "West Hubbard Street", "amenity": "bar", "name": "Celeste", "opening_hours": "Tu-Fr 17:00-04:00; Sa 17:00-05:00", "phone": "+1-312-828-9000", "website": "http://www.celestechicago.com/"}}, {"type": "node", "id": 5457742356, "lat": 41.8889299, "lon": -87.6333394, "tags": {"addr:city": "Chicago", "addr:housenumber": "155", "addr:postcode": "60654", "addr:state": "IL", "addr:street": "West Kinzie Street", "amenity": "restaurant", "cuisine": "mexican", "name": "Moe's Cantina River North", "opening_hours": "Su-We 11:00-00:00; Th-Fr 11:00-02:00; Sa 11:00-03:00", "phone": "+1-312-245-2000", "website": "http://www.moescantina.com/"}}, {"type": "node", "id": 5457750245, "lat": 41.8893745, "lon": -87.6352681, "tags": {"addr:city": "Chicago", "addr:housenumber": "230", "addr:postcode": "60654", "addr:state": "IL", "addr:street": "West Kinzie Street", "amenity": "bar", "name": "Gilt Bar", "opening_hours": "Mo-Th 17:00-23:00; Fr-Sa 17:00-00:00; Su 17:00-22:00", "phone": "+1-312-464-9544", "website": "http://www.giltbarchicago.com/"}}, {"type": "node", "id": 5457753766, "lat": 41.8897479, "lon": -87.6329435, "tags": {"addr:city": "Chicago", "addr:housenumber": "400", "addr:postcode": "60654", "addr:state": "IL", "addr:street": "North La Salle Boulevard", "amenity": "restaurant", "cuisine": "sandwich", "name": "Hannah's Bretzel", "opening_hours": "Mo-Fr 07:00-19:00; Sa-Su 09:00-16:00", "phone": "+1-312-621-1111", "website": "https://www.hannahsbretzel.com/", "wheelchair": "yes"}}, {"type": "node", "id": 5457756133, "lat": 41.8890131, "lon": -87.6337965, "tags": {"addr:city": "Chicago", "addr:housenumber": "169", "addr:postcode": "60654", "addr:state": "IL", "addr:street": "West Kinzie Street", "amenity": "restaurant", "name": "Highline Bar + Lounge", "opening_hours": "Su-Fr 11:00-02:00; Sa 11:00-03:00", "phone": "+1-312-533-2742", "website": "https://highlinebarchicago.com/"}}, {"type": "node", "id": 5457761479, "lat": 41.8933938, "lon": -87.6333459, "tags": {"addr:city": "Chicago", "addr:housenumber": "158", "addr:postcode": "60654", "addr:state": "IL", "addr:street": "West Ontario Street", "amenity": "restaurant", "cuisine": "mexican;taco", "name": "Taco Joint", "opening_hours": "Mo-Th 11:00-22:00; Fr-Sa 11:00-00:00; Su 11:00-21:00", "phone": "+1-312-337-8226", "website": "https://www.tacojoint.com/"}}, {"type": "node", "id": 5457768988, "lat": 41.8911495, "lon": -87.6342632, "tags": {"addr:city": "Chicago", "addr:housenumber": "504", "addr:postcode": "60654", "addr:state": "IL", "addr:street": "North Wells Street", "amenity": "restaurant", "cuisine": "pizza;italian", "name": "Bottled Blonde", "opening_hours": "Mo-Fr 11:30-02:00; Sa 11:00-03:00; Su 11:00-02:00", "phone": "+1-312-982-7640", "website": "https://bottledblondechi.com/"}}, {"type": "node", "id": 5457777236, "lat": 41.8918045, "lon": -87.6320262, "tags": {"addr:city": "Chicago", "addr:housenumber": "118", "addr:postcode": "60654", "addr:state": "IL", "addr:street": "West Grand Avenue", "amenity": "restaurant", "name": "Tanta", "opening_hours": "Mo-Su 11:30-14:30, 17:00-22:00", "phone": "+1-312-222-9700", "website": "https://www.tantachicago.com/"}}, {"type": "node", "id": 5457782423, "lat": 41.8930144, "lon": -87.6339145, "tags": {"addr:city": "Chicago", "addr:housenumber": "169", "addr:postcode": "60654", "addr:state": "IL", "addr:street": "West Ontario Street", "amenity": "restaurant", "cuisine": "sandwich;italian", "name": "Al's Beef", "opening_hours": "Mo-Th 10:00-00:00; Fr-Sa 10:00-03:00; Su 11:00-21:00", "phone": "+1-312-943-3222", "website": "https://www.alsbeef.com/"}}, {"type": "node", "id": 5457975512, "lat": 41.8933778, "lon": -87.6350947, "tags": {"addr:city": "Chicago", "addr:housenumber": "222", "addr:postcode": "60654", "addr:state": "IL", "addr:street": "West Ontario Street", "amenity": "bar", "name": "Shay Chicago", "opening_hours": "Fr 23:00-04:00; Sa 23:00-05:00", "phone": "+1-312-374-4683", "website": "http://shaychicago.com/"}}, {"type": "node", "id": 5457978313, "lat": 41.893406, "lon": -87.6354147, "tags": {"addr:city": "Chicago", "addr:housenumber": "226", "addr:postcode": "60654", "addr:state": "IL", "addr:street": "West Ontario Street", "amenity": "bar", "name": "Sound-Bar", "opening_hours": "Mo-Su 22:00-04:00", "phone": "+1-312-787-4480", "website": "http://sound-bar.com/"}}, {"type": "node", "id": 5457982830, "lat": 41.896256, "lon": -87.6338443, "tags": {"addr:city": "Chicago", "addr:housenumber": "747", "addr:postcode": "60654", "addr:state": "IL", "addr:street": "North Wells Street", "amenity": "restaurant", "cuisine": "breakfast;american", "name": "Yolk - River North", "opening_hours": "Mo-Fr 06:00-15:00; Sa-Su 07:00-15:00", "phone": "+1-312-787-2277", "website": "https://www.eatyolk.com/", "wheelchair": "yes"}}, {"type": "node", "id": 5457984148, "lat": 41.8968239, "lon": -87.6354979, "tags": {"addr:city": "Chicago", "addr:housenumber": "228", "addr:postcode": "60654", "addr:state": "IL", "addr:street": "West Chicago Avenue", "amenity": "restaurant", "cuisine": "american", "name": "Farmhouse Chicago", "opening_hours": "Su-Fr 11:00-21:00; Sa 10:00-22:00", "phone": "+1-312-280-4960", "website": "http://farmhousechicago.com/"}}, {"type": "node", "id": 5457984857, "lat": 41.8971796, "lon": -87.6352763, "tags": {"addr:city": "Chicago", "addr:housenumber": "213", "addr:postcode": "60610", "addr:state": "IL", "addr:street": "West Institute Place", "amenity": "bar", "name": "Headquarters Beercade - River North", "opening_hours": "Mo-Th 17:00-02:00; Fr 15:00-02:00; Sa 11:00-03:00; Su 11:00-02:00", "phone": "+1-312-291-8735", "website": "https://www.hqrivernorth.com/", "wheelchair": "no"}}, {"type": "node", "id": 5457987935, "lat": 41.8945618, "lon": -87.6366882, "tags": {"addr:city": "Chicago", "addr:housenumber": "325", "addr:postcode": "60654", "addr:state": "IL", "addr:street": "West Huron Street", "amenity": "restaurant", "cuisine": "latin_american", "name": "Nacional 27", "opening_hours": "We-Th 17:30-21:30; Fr 17:30-02:00; Sa 17:30-03:00", "phone": "+1-312-664-2727", "website": "http://nacional27chicago.com/"}}, {"type": "node", "id": 5457988101, "lat": 41.8942263, "lon": -87.6362134, "tags": {"addr:city": "Chicago", "addr:housenumber": "308", "addr:postcode": "60654", "addr:state": "IL", "addr:street": "West Erie Street", "amenity": "bar", "name": "Cuve\u00e9 Chicago", "opening_hours": "We-Fr 23:00-04:00; Sa 23:00-05:00", "phone": "+1-312-702-1258", "website": "http://cuveechicago.com/"}}, {"type": "node", "id": 5457991024, "lat": 41.894611, "lon": -87.6369226, "tags": {"addr:city": "Chicago", "addr:housenumber": "325", "addr:postcode": "60654", "addr:state": "IL", "addr:street": "West Huron Street", "amenity": "restaurant", "cuisine": "mexican;tacos;taco", "name": "Tallboy Taco", "opening_hours": "Mo-Th 11:00-22:00; Fr 11:00-00:00; Sa 10:00-00:00", "phone": "+1-312-488-4917", "website": "http://tallboytaco.com/"}}, {"type": "node", "id": 5457991656, "lat": 41.8944231, "lon": -87.6373733, "tags": {"addr:city": "Chicago", "addr:housenumber": "666", "addr:postcode": "60654", "addr:state": "IL", "addr:street": "North Orleans Street", "amenity": "restaurant", "cuisine": "regional;italian", "name": "Mr. Beef on Orleans", "opening_hours": "Mo-Th 10:00-18:00; Fr 10:00-04:00; Sa 10:30-05:00", "phone": "+1-312-337-8500"}}, {"type": "node", "id": 5457994277, "lat": 41.8937476, "lon": -87.6373553, "tags": {"addr:city": "Chicago", "addr:housenumber": "644", "addr:postcode": "60654", "addr:state": "IL", "addr:street": "North Orleans Street", "amenity": "restaurant", "cuisine": "brunch;american", "name": "Brunch", "opening_hours": "Mo-Fr 07:00-15:00; Sa-Su 08:00-16:00", "phone": "+1-312-265-1411", "website": "https://www.brunchit.com/"}}, {"type": "node", "id": 5457997976, "lat": 41.8941144, "lon": -87.6373493, "tags": {"addr:city": "Chicago", "addr:housenumber": "660", "addr:postcode": "60654", "addr:state": "IL", "addr:street": "North Orleans Street", "amenity": "restaurant", "cuisine": "mediterranean", "name": "Bernie's Lunch & Supper", "opening_hours": "Mo-Th 11:00-22:00; Fr 11:00-23:00; Sa 10:00-23:00; Su 10:00-17:00", "phone": "+1-312-624-9892", "website": "http://bernieslunchandsupper.com/"}}, {"type": "node", "id": 5457999729, "lat": 41.8925297, "lon": -87.6348773, "tags": {"addr:city": "Chicago", "addr:housenumber": "216", "addr:postcode": "60654", "addr:state": "IL", "addr:street": "West Ohio Street", "amenity": "restaurant", "cuisine": "american", "name": "Municipal Bar + Dining Co.", "opening_hours": "Tu-Th 16:00-23:00; Fr 11:00-02:00; Sa 11:00-03:00; Su 11:00-23:00", "phone": "+1-312-951-2125", "website": "http://municipalbar.com/"}}, {"type": "node", "id": 5458001688, "lat": 41.8917434, "lon": -87.6342963, "tags": {"addr:city": "Chicago", "addr:housenumber": "540", "addr:postcode": "60654", "addr:state": "IL", "addr:street": "North Wells Street", "amenity": "restaurant", "cuisine": "american", "name": "Meli Cafe", "opening_hours": "Mo-Su 07:00-15:00", "phone": "+1-312-527-1850", "website": "https://www.melicafe.com/"}}, {"type": "node", "id": 5458005427, "lat": 41.8896816, "lon": -87.6372631, "tags": {"addr:city": "Chicago", "addr:housenumber": "414", "addr:postcode": "60654", "addr:state": "IL", "addr:street": "North Orleans Street", "amenity": "bar", "name": "Reverie", "opening_hours": "Th 21:00-02:00; Fr 15:00-02:00; Sa 21:00-03:00", "phone": "+1-312-467-4141", "website": "http://www.reveriechicago.com/"}}, {"type": "node", "id": 5458006342, "lat": 41.889785, "lon": -87.6376935, "tags": {"addr:city": "Chicago", "addr:housenumber": "353", "addr:postcode": "60654", "addr:state": "IL", "addr:street": "West Hubbard Street", "amenity": "restaurant", "cuisine": "seafood;american", "name": "The Hampton Social - River North", "opening_hours": "Mo-Tu 11:00-22:00; We-Th 11:00-23:00; Fr 11:00-00:00; Sa 10:00-00:00; Su 10:00-22:00", "phone": "+1-312-464-0500", "website": "https://www.thehamptonsocial.com/"}}, {"type": "node", "id": 5458006691, "lat": 41.8900951, "lon": -87.6377144, "tags": {"addr:city": "Chicago", "addr:housenumber": "354", "addr:postcode": "60654", "addr:state": "IL", "addr:street": "West Hubbard Street", "amenity": "restaurant", "cuisine": "burger;coffee", "name": "3 Greens Market", "opening_hours": "Mo-Fr 07:00-20:00; Sa-Su 08:00-15:00", "phone": "+1-312-888-9195", "website": "http://3greensmarket.com/"}}, {"type": "node", "id": 5458008229, "lat": 41.8951302, "lon": -87.6338676, "tags": {"addr:city": "Chicago", "addr:housenumber": "707", "addr:postcode": "60654", "addr:state": "IL", "addr:street": "North Wells Street", "amenity": "restaurant", "cuisine": "steak_house;steak;american", "name": "GT Prime Steakhouse", "opening_hours": "Su-Th 17:00-22:00; Fr-Sa 17:00-23:00", "phone": "+1-312-600-6305", "website": "https://gtprimerestaurant.com/", "wheelchair": "yes"}}, {"type": "node", "id": 5458008447, "lat": 41.8933455, "lon": -87.6391791, "tags": {"addr:city": "Chicago", "addr:housenumber": "416", "addr:postcode": "60654", "addr:state": "IL", "addr:street": "West Ontario Street", "amenity": "restaurant", "cuisine": "american", "name": "Hutch American Cafe", "opening_hours": "Mo-Su 08:00-15:00", "phone": "+1-312-300-4195", "website": "https://www.hutchchicago.com/"}}, {"type": "node", "id": 5458013772, "lat": 41.8959707, "lon": -87.6323718, "tags": {"addr:city": "Chicago", "addr:housenumber": "737", "addr:postcode": "60654", "addr:state": "IL", "addr:street": "North LaSalle Drive", "amenity": "restaurant", "cuisine": "tapas;spanish", "name": "Caf\u00e9 Iberico", "phone": "+1-312-573-1510", "website": "https://www.cafeiberico.com/"}}, {"type": "node", "id": 5458015773, "lat": 41.895831, "lon": -87.6323718, "tags": {"addr:city": "Chicago", "addr:housenumber": "733", "addr:postcode": "60654", "addr:state": "IL", "addr:street": "North LaSalle Drive", "amenity": "restaurant", "cuisine": "pub;american", "name": "Centennial Crafted Beer & Eatery", "opening_hours": "Mo-We 16:00-02:00; Th-Fr 11:30-02:00; Sa 10:30-03:00; Su 10:30-02:00", "phone": "+1-312-284-5353", "website": "https://www.centennialchicago.com/"}}, {"type": "node", "id": 5458017541, "lat": 41.8959468, "lon": -87.6316368, "tags": {"addr:city": "Chicago", "addr:housenumber": "736", "addr:postcode": "60654", "addr:state": "IL", "addr:street": "North Clark Street", "amenity": "restaurant", "cuisine": "hamburger;american", "name": "25 Degrees Chicago", "opening_hours": "Mo-Su 11:00-23:00; Th-Sa 11:00-00:00; Su 11:00-22:00", "phone": "+1-312-943-9700", "website": "http://25degreeschi.com/"}}, {"type": "node", "id": 5458017720, "lat": 41.8964671, "lon": -87.6315835, "tags": {"addr:city": "Chicago", "addr:housenumber": "742", "addr:postcode": "60654", "addr:state": "IL", "addr:street": "North Clark Street", "amenity": "bar", "name": "Clark Street Ale House - River North", "opening_hours": "Mo-Fr 16:00-04:00; Sa 11:00-05:00; Su 11:00-04:00", "phone": "+1-312-642-9253", "website": "https://clarkstreetalehouse.com/"}}, {"type": "node", "id": 5458024532, "lat": 41.8952824, "lon": -87.6315351, "tags": {"addr:city": "Chicago", "addr:housenumber": "712", "addr:postcode": "60654", "addr:state": "IL", "addr:street": "North Clark Street", "amenity": "restaurant", "cuisine": "burger;wings;american", "name": "Woodhaven Bar & Kitchen", "opening_hours": "Tu-Fr 17:00-02:00; Sa 17:00-03:00", "phone": "+1-312-624-9008", "website": "http://woodhavenchicago.com/"}}, {"type": "node", "id": 5458033621, "lat": 41.8917899, "lon": -87.6318345, "tags": {"addr:city": "Chicago", "addr:housenumber": "112", "addr:postcode": "60654", "addr:state": "IL", "addr:street": "West Grand Avenue", "amenity": "restaurant", "cuisine": "american", "name": "Arbella", "opening_hours": "Mo 17:00-00:00; Tu-Fr 17:00-02:00; Sa 17:00-03:00", "phone": "+1-312-846-6654", "website": "http://arbellachicago.com/"}}, {"type": "node", "id": 5458035081, "lat": 41.8926684, "lon": -87.6339185, "tags": {"addr:city": "Chicago", "addr:housenumber": "605", "addr:postcode": "60654", "addr:state": "IL", "addr:street": "North Wells Street", "amenity": "restaurant", "cuisine": "pizza;italian", "name": "Bar Cargo", "opening_hours": "Mo-Th 11:30-23:00; Fr 11:30-02:00; Sa 11:00-02:00; Su 11:00-22:00", "phone": "+1-312-929-0065", "website": "https://www.barcargo.com/", "wheelchair": "yes"}}, {"type": "node", "id": 5458035396, "lat": 41.8945791, "lon": -87.6351336, "tags": {"addr:city": "Chicago", "addr:housenumber": "217", "addr:postcode": "60654", "addr:state": "IL", "addr:street": "West Huron Street", "amenity": "bar", "name": "Bar Lupo", "opening_hours": "Tu 17:00-22:00; We-Th 11:00-22:00; Fr-Sa 23:00-02:00", "phone": "+1-312-643-3400", "website": "https://www.barlupochicago.com/"}}, {"type": "node", "id": 5458045413, "lat": 41.8964028, "lon": -87.6330293, "tags": {"addr:city": "Chicago", "addr:housenumber": "770", "addr:postcode": "60654", "addr:state": "IL", "addr:street": "North LaSalle Drive", "amenity": "restaurant", "cuisine": "mexican", "name": "Big Wig Tacos & Burritos", "opening_hours": "Su-Th 11:00-04:00; Fr-Sa 11:00-05:30", "phone": "+1-312-624-9568", "website": "https://www.bigwigtacos.com/", "wheelchair": "yes"}}, {"type": "node", "id": 5458045705, "lat": 41.896842, "lon": -87.6353199, "tags": {"addr:city": "Chicago", "addr:housenumber": "226", "addr:postcode": "60654", "addr:state": "IL", "addr:street": "West Chicago Avenue", "amenity": "restaurant", "cuisine": "french;bistro", "name": "Bistro Voltaire", "opening_hours": "Mo-Sa 17:00-22:00", "phone": "+1-312-265-0911", "website": "https://www.bistrovoltaire.com/"}}, {"type": "node", "id": 5458048963, "lat": 41.8899002, "lon": -87.6313597, "tags": {"addr:city": "Chicago", "addr:housenumber": "420", "addr:postcode": "60654", "addr:state": "IL", "addr:street": "North Clark Street", "amenity": "bar", "name": "The Boss Bar", "opening_hours": "Su-Mo 14:00-04:00; Tu-Fr 11:00-04:00; Sa 11:00-05:00", "phone": "+1-312-527-1203", "website": "http://thebossbar.com/"}}, {"type": "node", "id": 5458049042, "lat": 41.8918879, "lon": -87.631399, "tags": {"addr:city": "Chicago", "addr:housenumber": "534", "addr:postcode": "60654", "addr:state": "IL", "addr:street": "North Clark Street", "amenity": "restaurant", "cuisine": "french;fine_dining", "name": "Brindille", "opening_hours": "Mo-Sa 17:00-23:00", "phone": "+1-312-595-1616", "website": "https://brindille-chicago.com/"}}, {"type": "node", "id": 5458051764, "lat": 41.8889738, "lon": -87.633372, "tags": {"addr:city": "Chicago", "addr:housenumber": "155", "addr:postcode": "60654", "addr:state": "IL", "addr:street": "West Kinzie Street", "amenity": "bar", "name": "Cava", "opening_hours": "Fr 23:00-02:00; Sa 23:00-03:00", "phone": "+1-773-348-8899"}}, {"type": "node", "id": 5458052818, "lat": 41.8897504, "lon": -87.6313436, "tags": {"addr:city": "Chicago", "addr:housenumber": "416", "addr:postcode": "60654", "addr:state": "IL", "addr:street": "North Clark Street", "amenity": "restaurant", "cuisine": "seafood;american", "name": "Da Lobsta", "opening_hours": "Mo-Su 11:00-21:00", "phone": "+1-312-955-0894", "website": "http://www.dalobsta.com/"}}, {"type": "node", "id": 5458084386, "lat": 41.8905124, "lon": -87.631288, "tags": {"addr:city": "Chicago", "addr:housenumber": "450", "addr:postcode": "60654", "addr:state": "IL", "addr:street": "North Clark Street", "amenity": "bar", "name": "Enolo Wine Cafe", "opening_hours": "Mo-We 16:00-23:00; Th-Fr 16:00-00:00; Su 14:00-00:00", "phone": "+1-312-477-7674", "website": "https://enolowinecafe.com/"}}, {"type": "node", "id": 5458087082, "lat": 41.8952975, "lon": -87.6344707, "tags": {"addr:city": "Chicago", "addr:housenumber": "714", "addr:postcode": "60654", "addr:state": "IL", "addr:street": "North Wells Street", "amenity": "restaurant", "cuisine": "european;bistro;sandwich", "name": "Fabcakes", "opening_hours": "Mo-Fr 07:00-18:00; Sa 08:00-02:00", "phone": "+1-312-397-3300", "website": "http://fabcakeschicago.com/"}}, {"type": "node", "id": 5458090889, "lat": 41.8887468, "lon": -87.632869, "tags": {"addr:city": "Chicago", "addr:housenumber": "350", "addr:postcode": "60654", "addr:state": "IL", "addr:street": "North La Salle Boulevard", "amenity": "restaurant", "brand": "Freshii", "brand:wikidata": "Q5503051", "brand:wikipedia": "en:Freshii", "cuisine": "salad", "name": "Freshii", "opening_hours": "Mo-Fr 07:00-21:00", "phone": "+1-312-836-0160", "website": "https://www.freshii.com/"}}, {"type": "node", "id": 5458093497, "lat": 41.8910872, "lon": -87.6330725, "tags": {"addr:city": "Chicago", "addr:housenumber": "500", "addr:postcode": "60654", "addr:state": "IL", "addr:street": "North LaSalle Drive", "amenity": "bar", "name": "Gino's Brew Pub", "opening_hours": "Mo-Su 11:00-22:00", "phone": "+1-312-988-4200", "website": "http://www.ginosbrewpub.com/"}}, {"type": "node", "id": 5458095753, "lat": 41.8894187, "lon": -87.6315977, "tags": {"addr:city": "Chicago", "addr:housenumber": "108", "addr:postcode": "60654", "addr:state": "IL", "addr:street": "West Kinzie Street", "amenity": "bar", "name": "La Mez Agave Lounge", "opening_hours": "Tu 16:00-01:00; We 16:00-00:00; Th 16:00-01:00; Fr 16:00-02:00; Sa 18:00-03:00", "phone": "+1-312-329-9555", "website": "https://www.mercaditorestaurants.com/la-mez/"}}, {"type": "node", "id": 5458096799, "lat": 41.892242, "lon": -87.6343437, "tags": {"addr:city": "Chicago", "addr:housenumber": "546", "addr:postcode": "60654", "addr:state": "IL", "addr:street": "North Wells Street", "amenity": "restaurant", "cuisine": "american", "name": "Ironside Bar & Galley", "opening_hours": "Mo 16:00-02:00; Tu-Fr 11:30-02:00; Sa-Su 11:00-03:00", "phone": "+1-312-973-7792", "website": "http://ironsidechicago.com/"}}, {"type": "node", "id": 5458107322, "lat": 41.8954309, "lon": -87.6338964, "tags": {"addr:city": "Chicago", "addr:housenumber": "717", "addr:postcode": "60654", "addr:state": "IL", "addr:street": "North Wells Street", "amenity": "cafe", "name": "Left Coast Food", "opening_hours": "Mo-Fr 07:00-21:00; Sa-Su 08:00-21:00", "phone": "+1-312-877-5500", "website": "http://www.leftcoastfood.com/"}}, {"type": "node", "id": 5458112681, "lat": 41.8909981, "lon": -87.6314417, "tags": {"addr:city": "Chicago", "addr:housenumber": "500", "addr:postcode": "60654", "addr:state": "IL", "addr:street": "North Clark Street", "amenity": "restaurant", "cuisine": "middle_eastern", "name": "NAHA", "opening_hours": "Mo-Th 17:00-21:30; Tu-Fr 11:00-14:00; Fr-Sa 17:00-22:00", "phone": "+1-312-321-6242", "website": "http://naha-chicago.com/#&panel1-1"}}, {"type": "node", "id": 5458117354, "lat": 41.8922256, "lon": -87.6322873, "tags": {"addr:city": "Chicago", "addr:housenumber": "545", "addr:postcode": "60654", "addr:state": "IL", "addr:street": "North LaSalle Drive", "amenity": "restaurant", "cuisine": "pizza;regional", "name": "Pizzeria Ora Chicago", "opening_hours": "Mo-Su 06:30-00:00", "phone": "+1-312-464-1872", "website": "http://www.pizzeriaora.com/", "wheelchair": "no"}}, {"type": "node", "id": 5458126355, "lat": 41.8888371, "lon": -87.631237, "tags": {"addr:city": "Chicago", "addr:housenumber": "352", "addr:postcode": "60654", "addr:state": "IL", "addr:street": "North Clark Street", "amenity": "restaurant", "cuisine": "american", "name": "Protein Bar", "opening_hours": "Mo-Th 07:00-20:00; Fr 07:00-18:00; Sa-Su 09:00-17:00", "phone": "+1-312-527-0450", "website": "https://www.theproteinbar.com/"}}, {"type": "node", "id": 5458127509, "lat": 41.8882361, "lon": -87.6353676, "tags": {"addr:city": "Chicago", "addr:housenumber": "222", "addr:postcode": "60654", "addr:state": "IL", "addr:street": "Merchandise Mart Plaza", "amenity": "restaurant", "cuisine": "american", "name": "Protein Bar", "opening_hours": "Mo-Th 07:00-18:00; Fr 07:00-16:00", "phone": "+1-312-265-1185", "website": "https://www.theproteinbar.com/"}}, {"type": "node", "id": 5458131392, "lat": 41.8960195, "lon": -87.6315582, "tags": {"addr:city": "Chicago", "addr:housenumber": "738", "addr:postcode": "60654", "addr:state": "IL", "addr:street": "North Clark Street", "amenity": "restaurant", "cuisine": "korean;mexican", "name": "Seoul Taco", "opening_hours": "Mo-Th 11:00-22:00; Fr-Sa 11:00-16:00; Su 11:00-22:00", "phone": "+1-312-265-1607", "website": "http://www.seoultaco.com/"}}, {"type": "node", "id": 5458147665, "lat": 41.894668, "lon": -87.6316181, "tags": {"addr:city": "Chicago", "addr:housenumber": "111", "addr:postcode": "60654", "addr:state": "IL", "addr:street": "West Huron Street", "amenity": "restaurant", "cuisine": "sushi;japanese", "name": "Taketei Sushi River North", "opening_hours": "Mo-Su 17:00-22:00", "phone": "+1-312-202-9900", "website": "https://www.taketeisushi.com/"}}, {"type": "node", "id": 5458149906, "lat": 41.889796, "lon": -87.6378482, "tags": {"addr:city": "Chicago", "addr:housenumber": "353", "addr:postcode": "60654", "addr:state": "IL", "addr:street": "West Hubbard Street", "addr:unit": "Lower Level", "amenity": "bar", "name": "The Bassment", "opening_hours": "We-Fr 20:00-02:00; Sa 20:00-03:00", "phone": "+1-312-386-5778", "website": "https://www.thebassmentchicago.com/"}}, {"type": "node", "id": 5458152669, "lat": 41.894551, "lon": -87.6373962, "tags": {"addr:city": "Chicago", "addr:housenumber": "676", "addr:postcode": "60654", "addr:state": "IL", "addr:street": "North Orleans Street", "amenity": "bar", "name": "The Drifter Chicago", "phone": "+1-312-631-3887", "website": "https://www.thedrifterchicago.com/"}}, {"type": "node", "id": 5458153875, "lat": 41.8893166, "lon": -87.6352672, "tags": {"addr:city": "Chicago", "addr:housenumber": "230", "addr:postcode": "60654", "addr:state": "IL", "addr:street": "West Kinzie Street", "amenity": "bar", "name": "The Library", "opening_hours": "Th 18:00-23:00; Fr-Sa 18:00-00:00", "phone": "+1-312-464-9544", "website": "http://www.giltbarchicago.com/"}}, {"type": "node", "id": 5458157354, "lat": 41.8946715, "lon": -87.631559, "tags": {"addr:city": "Chicago", "addr:housenumber": "111", "addr:postcode": "60654", "addr:state": "IL", "addr:street": "West Huron Street", "amenity": "restaurant", "cuisine": "french", "name": "Troquet River North", "opening_hours": "Mo-Th 07:00-23:00; Fr-Sa 07:00-00:00; Su 07:00-22:00", "phone": "+1-312-202-9900", "website": "https://www.troquetrivernorth.com/"}}, {"type": "node", "id": 5460308912, "lat": 41.8855982, "lon": -87.6422429, "tags": {"addr:city": "Chicago", "addr:housenumber": "567", "addr:postcode": "60661", "addr:state": "IL", "addr:street": "West Lake Street", "amenity": "restaurant", "cuisine": "vietnamese;asian", "name": "Saigon Sisters", "opening_hours": "Mo 11:00-14:00; Tu-Th 11:00-21:00; Fr 11:00-22:00; Sa 17:00-22:00", "phone": "+1-312-496-0090", "website": "https://www.saigonsisters.com/"}}, {"type": "node", "id": 5460317300, "lat": 41.8854657, "lon": -87.6437925, "tags": {"addr:city": "Chicago", "addr:housenumber": "627", "addr:postcode": "60661", "addr:state": "IL", "addr:street": "West Lake Street", "amenity": "restaurant", "cuisine": "pizza;italian", "name": "Sarpino's Pizzeria West Loop", "opening_hours": "Su-Th 09:30-04:00; Fr-Sa 09:30-05:00", "phone": "+1-312-207-1777", "website": "https://www.gosarpinos.com/"}}, {"type": "node", "id": 5460343455, "lat": 41.8854936, "lon": -87.6439803, "tags": {"addr:city": "Chicago", "addr:housenumber": "629", "addr:postcode": "60661", "addr:state": "IL", "addr:street": "West Lake Street", "amenity": "restaurant", "cuisine": "italian;regional", "name": "Fast Track", "opening_hours": "Mo-Fr 06:00-16:00; Sa 08:30-16:00", "phone": "+1-312-993-9300"}}, {"type": "node", "id": 5460565146, "lat": 41.8854339, "lon": -87.6524622, "tags": {"addr:city": "Chicago", "addr:housenumber": "180", "addr:postcode": "60607", "addr:state": "IL", "addr:street": "North Morgan Street", "amenity": "restaurant", "cuisine": "mexican;barbecue;bbq;taco;tacos", "name": "Federales", "opening_hours": "Mo-Th 16:00-02:00; Fr 11:00-02:00; Sa 11:00-03:00; Su 11:00-02:00", "phone": "+1-773-831-9696", "website": "https://federaleschicago.com/"}}, {"type": "node", "id": 5460569481, "lat": 41.8854238, "lon": -87.6526362, "tags": {"addr:city": "Chicago", "addr:housenumber": "1009", "addr:postcode": "60607", "addr:state": "IL", "addr:street": "West Lake Street", "amenity": "restaurant", "cuisine": "sandwich;american", "name": "The Corned Beef Factory Sandwich Shop", "opening_hours": "Mo-Fr 06:00-15:00; Sa 10:00-15:00", "phone": "+1-312-666-2536", "website": "http://cornedbeeffactorychicago.com/"}}, {"type": "node", "id": 5460570321, "lat": 41.8857772, "lon": -87.6527738, "tags": {"addr:city": "Chicago", "addr:housenumber": "1012", "addr:postcode": "60607", "addr:state": "IL", "addr:street": "West Lake Street", "amenity": "cafe", "cuisine": "juice;american;organic", "name": "Harvest Juicery", "opening_hours": "Mo-Fr 07:00-19:00; Sa 08:00-14:00", "phone": "+1-312-265-0182", "website": "https://www.harvestjuicery.com/"}}, {"type": "node", "id": 5460571170, "lat": 41.8857512, "lon": -87.6519857, "tags": {"addr:city": "Chicago", "addr:housenumber": "201", "addr:postcode": "60607", "addr:state": "IL", "addr:street": "North Morgan Street", "amenity": "restaurant", "cuisine": "latin_american;tapas", "name": "Bar Takito", "opening_hours": "Mo-Tu 11:00-22:00; We-Th 11:00-23:00; Fr-Sa 11:00-01:00; Su 11:00-15:00", "phone": "+1-312-888-9602", "website": "http://bartakito.com/"}}, {"type": "node", "id": 5460575190, "lat": 41.8860045, "lon": -87.6451011, "tags": {"addr:city": "Chicago", "addr:housenumber": "661", "addr:postcode": "60661", "addr:state": "IL", "addr:street": "West Walnut Street", "amenity": "restaurant", "cuisine": "american;fine_dining", "name": "Oriole", "opening_hours": "Tu-Sa 17:30-21:30", "phone": "+1-312-877-5339", "website": "http://www.oriolechicago.com/", "wikidata": "Q48816428", "wikipedia": "en:Oriole (restaurant)"}}, {"type": "node", "id": 5460580000, "lat": 41.8858571, "lon": -87.6451137, "tags": {"addr:city": "Chicago", "addr:housenumber": "660", "addr:postcode": "60661", "addr:state": "IL", "addr:street": "West Lake Street", "amenity": "bar", "name": "Moneygun", "opening_hours": "Su-Fr 17:00-02:00; Sa 17:00-03:00", "phone": "+1-312-600-0600", "website": "https://www.moneygunchicago.com/"}}, {"type": "node", "id": 5460581461, "lat": 41.885901, "lon": -87.6452368, "tags": {"addr:city": "Chicago", "addr:housenumber": "664", "addr:postcode": "60661", "addr:state": "IL", "addr:street": "West Lake Street", "amenity": "restaurant", "name": "Saint Lou's Assembly", "phone": "+1-312-600-0600", "website": "https://www.saintlouschicago.com/"}}, {"type": "node", "id": 5460610021, "lat": 41.8855009, "lon": -87.648244, "tags": {"addr:city": "Chicago", "addr:housenumber": "817", "addr:postcode": "60607", "addr:state": "IL", "addr:street": "West Lake Street", "amenity": "restaurant", "cuisine": "american;fine_dining", "name": "BLVD", "opening_hours": "Su-Mo 17:00-22:00; Tu-Th 17:00-23:00; Fr-Sa 17:00-00:00", "phone": "+1-312-526-3116", "website": "https://blvdchicago.com/"}}, {"type": "node", "id": 5460648618, "lat": 41.8866344, "lon": -87.6482299, "tags": {"addr:city": "Chicago", "addr:housenumber": "817", "addr:postcode": "60607", "addr:state": "IL", "addr:street": "West Fulton Market", "amenity": "restaurant", "cuisine": "mexican;sandwich", "name": "Cemitas Puebla", "opening_hours": "Su-Th 11:00-21:00; Fr-Sa 11:00-22:30", "phone": "+1-312-455-9200", "website": "http://www.cemitaspuebla.com/"}}, {"type": "node", "id": 5460661639, "lat": 41.8909236, "lon": -87.6474629, "tags": {"addr:city": "Chicago", "addr:housenumber": "494", "addr:postcode": "60654", "addr:state": "IL", "addr:street": "North Milwaukee Avenue", "amenity": "restaurant", "cuisine": "american;burger", "name": "Maillard Tavern", "opening_hours": "Su-Th 11:00-23:00; Fr-Sa 11:00-01:00", "phone": "+1-312-766-2727", "website": "https://www.maillardtavern.com/"}}, {"type": "node", "id": 5460663376, "lat": 41.8866569, "lon": -87.6491936, "tags": {"addr:city": "Chicago", "addr:housenumber": "839", "addr:postcode": "60607", "addr:state": "IL", "addr:street": "West Fulton Market", "amenity": "bar", "name": "Emporium Arcade Bar", "opening_hours": "Mo-Th 16:00-02:00; Fr 15:00-02:00; Sa 12:00-03:00; Su 12:00-02:00", "phone": "+1-312-733-2222", "website": "http://www.emporiumchicago.com/"}}, {"type": "node", "id": 5460666621, "lat": 41.8872669, "lon": -87.6490322, "tags": {"addr:city": "Chicago", "addr:housenumber": "310", "addr:postcode": "60607", "addr:state": "IL", "addr:street": "North Green Street", "amenity": "restaurant", "name": "Punch Bowl Social Chicago", "phone": "+1-312-809-9551", "website": "https://www.punchbowlsocial.com/"}}, {"type": "node", "id": 5460671489, "lat": 41.8863297, "lon": -87.6401044, "tags": {"addr:city": "Chicago", "addr:housenumber": "233", "addr:postcode": "60606", "addr:state": "IL", "addr:street": "North Canal Street", "amenity": "restaurant", "cuisine": "italian", "name": "Gibsons Italia", "opening_hours": "Mo-Sa 11:00-00:00", "phone": "+1-312-414-1100", "website": "https://gibsonsitalia.com/"}}, {"type": "node", "id": 5460683108, "lat": 41.8875631, "lon": -87.6426214, "tags": {"addr:city": "Chicago", "addr:housenumber": "325", "addr:postcode": "60661", "addr:state": "IL", "addr:street": "North Jefferson Street", "amenity": "restaurant", "cuisine": "pub;american", "name": "Jefferson Tap & Grille", "opening_hours": "Su-We 11:00-02:00; Th-Fr 11:00-04:00; Sa 11:00-05:00", "phone": "+1-312-648-0100", "website": "https://www.jeffersontap.com/"}}, {"type": "node", "id": 5460708812, "lat": 41.8908598, "lon": -87.647944, "tags": {"addr:city": "Chicago", "addr:housenumber": "464", "addr:postcode": "60642", "addr:state": "IL", "addr:street": "North Halsted Street", "amenity": "restaurant", "cuisine": "italian", "name": "Piccolo Sogno", "opening_hours": "Mo-Th 11:30-14:30, 17:30-22:30; Fr 11:30-14:30, 17:00-23:00; Sa 17:00-23:00; Su 17:00-22:00", "phone": "+1-312-421-0077", "website": "https://www.piccolosognorestaurant.com/"}}, {"type": "node", "id": 5460714621, "lat": 41.887566, "lon": -87.6524066, "tags": {"addr:city": "Chicago", "addr:housenumber": "326", "addr:postcode": "60607", "addr:state": "IL", "addr:street": "North Morgan Street", "amenity": "bar", "name": "Prairie School", "opening_hours": "Su-We 16:00-02:00; Th 17:00-02:00; Fr-Sa 16:00-02:00", "phone": "+1-312-763-6564", "website": "https://www.prairieschoolchicago.com/"}}, {"type": "node", "id": 5460763042, "lat": 41.8875396, "lon": -87.6518407, "tags": {"addr:city": "Chicago", "addr:housenumber": "311", "addr:postcode": "60607", "addr:state": "IL", "addr:street": "North Morgan Street", "amenity": "restaurant", "cuisine": "american", "name": "Waydown", "opening_hours": "Su-Fr 16:00-02:00; Sa 16:00-03:00", "outdoor_seating": "no", "phone": "+1-312-764-1919", "website": "https://www.acehotel.com/"}}, {"type": "node", "id": 5460766489, "lat": 41.8876567, "lon": -87.6520507, "tags": {"addr:city": "Chicago", "addr:housenumber": "311", "addr:postcode": "60607", "addr:state": "IL", "addr:street": "North Morgan Street", "amenity": "cafe", "cuisine": "coffee_shop;coffee", "name": "Stumptown Coffee Roasters", "opening_hours": "Mo-Su 06:20-19:00", "phone": "+1-855-711-3385", "website": "http://www.stumptowncoffee.com/"}}, {"type": "node", "id": 5571138425, "lat": 41.8960104, "lon": -87.6314498, "tags": {"addr:city": "Chicago", "addr:housenumber": "738", "addr:postcode": "60654", "addr:state": "IL", "addr:street": "North Clark Street", "amenity": "restaurant", "name": "Seoul Taco", "phone": "+1-312-265-1607", "website": "http://www.seoultaco.com/contact-chicago.html"}}, {"type": "node", "id": 5794916615, "lat": 41.8854564, "lon": -87.6383532, "tags": {"addr:city": "Chicago", "addr:housenumber": "150", "addr:postcode": "60606", "addr:state": "IL", "addr:street": "North Riverside Plaza", "amenity": "restaurant", "name": "Small Cheval", "website": "http://smallcheval.com/"}}, {"type": "node", "id": 5794916617, "lat": 41.8854389, "lon": -87.6372981, "tags": {"addr:city": "Chicago", "addr:housenumber": "180", "addr:postcode": "60606", "addr:state": "IL", "addr:street": "North Upper Wacker Drive", "amenity": "restaurant", "name": "Beatnik On The River", "opening_hours": "Mo-Fr 11:00-22:00", "phone": "+1-312-526-3345", "website": "https://www.beatnikontheriver.com"}}, {"type": "node", "id": 5794916618, "lat": 41.8854228, "lon": -87.6371723, "tags": {"addr:city": "Chicago", "addr:housenumber": "180", "addr:postcode": "60606", "addr:state": "IL", "addr:street": "North Upper Wacker Drive", "amenity": "cafe", "name": "Cafe Bonhomme", "opening_hours": "Mo-Fr 07:00-22:00"}}, {"type": "node", "id": 6015195131, "lat": 41.8884091, "lon": -87.6355008, "tags": {"addr:city": "Chicago", "addr:housenumber": "222", "addr:postcode": "60654", "addr:state": "IL", "addr:street": "Merchandise Mart Plaza", "amenity": "cafe", "name": "Bentwood of Chicago", "phone": "+1-312-610-8050", "website": "https://www.marshallslanding.com/"}}, {"type": "node", "id": 6025987986, "lat": 41.8861336, "lon": -87.6484577, "tags": {"addr:city": "Chicago", "addr:housenumber": "217", "addr:postcode": "60607", "addr:state": "IL", "addr:street": "North Green Street", "amenity": "cafe", "name": "Limitless Coffee - Fulton Market", "phone": "+1-312-929-4643", "website": "https://limitlesscoffee.com/find-us/"}}, {"type": "node", "id": 6026364085, "lat": 41.8861214, "lon": -87.6488411, "tags": {"addr:city": "Chicago", "addr:housenumber": "212", "addr:postcode": "60607", "addr:state": "IL", "addr:street": "North Green Street", "amenity": "bar", "name": "Ballast Point Brewing", "phone": "+1-312-243-9570", "website": "https://www.ballastpoint.com/locations/"}}, {"type": "node", "id": 6026364086, "lat": 41.8861711, "lon": -87.6484558, "tags": {"addr:city": "Chicago", "addr:housenumber": "219", "addr:postcode": "60607", "addr:state": "IL", "addr:street": "North Green Street", "amenity": "restaurant", "cuisine": "japanese", "name": "Ramen-San", "phone": "+1-773-645-0085", "website": "https://www.ramensan.com/"}}, {"type": "node", "id": 6083307401, "lat": 41.8935814, "lon": -87.6339459, "tags": {"addr:city": "Chicago", "addr:housenumber": "643", "addr:postcode": "60654", "addr:state": "IL", "addr:street": "North Wells Street", "amenity": "cafe", "cuisine": "coffee_shop;coffee;tea", "name": "Dollop Coffee Co."}}, {"type": "node", "id": 6083307402, "lat": 41.894367, "lon": -87.6339595, "tags": {"addr:city": "Chicago", "addr:housenumber": "675", "addr:postcode": "60654", "addr:state": "IL", "addr:street": "North Wells Street", "amenity": "cafe", "name": "Limitless Coffee & Tea", "phone": "+1-312-624-9523", "website": "https://limitlesscoffee.com/"}}, {"type": "node", "id": 6110204217, "lat": 41.8937721, "lon": -87.6329701, "tags": {"addr:city": "Chicago", "addr:housenumber": "141", "addr:postcode": "60654", "addr:state": "IL", "addr:street": "West Erie Street", "amenity": "restaurant", "cuisine": "american", "name": "Pacific Standard Time", "opening_hours": "Su-Th 17:00-22:00; Fr-Sa 17:00-23:00", "phone": "+1-312-736-1778", "website": "https://www.pstchicago.com", "wheelchair": "yes"}}, {"type": "node", "id": 6146160785, "lat": 41.8893525, "lon": -87.6445067, "tags": {"addr:city": "Chicago", "addr:housenumber": "401", "addr:postcode": "60654", "addr:state": "IL", "addr:street": "North Milwaukee Avenue", "amenity": "restaurant", "cuisine": "korean", "name": "San Soo Korean BBQ"}}, {"type": "node", "id": 6146181554, "lat": 41.8903215, "lon": -87.6459897, "tags": {"addr:city": "Chicago", "addr:housenumber": "455", "addr:postcode": "60610", "addr:state": "IL", "addr:street": "North Milwaukee Avenue", "amenity": "restaurant", "cuisine": "fried_chicken", "name": "The Roost Carolina Kitchen", "phone": "+1-312-877-5738", "website": "https://www.theroostcarolinakitchen.com/"}}, {"type": "node", "id": 6159637958, "lat": 41.8860808, "lon": -87.6396188, "tags": {"addr:city": "Chicago", "addr:housenumber": "444", "addr:postcode": "60606", "addr:state": "IL", "addr:street": "West Lake Street", "amenity": "restaurant", "name": "Market Creations", "website": "http://marketcreationscafe.com"}}, {"type": "node", "id": 6223590073, "lat": 41.8967718, "lon": -87.6369735, "tags": {"addr:city": "Chicago", "addr:housenumber": "334", "addr:postcode": "60654", "addr:state": "IL", "addr:street": "West Chicago Avenue", "amenity": "restaurant", "cuisine": "american;breakfast", "name": "Griddle 24", "opening_hours": "24/7", "phone": "+1-312-943-2424", "website": "http://griddle24.com/"}}, {"type": "node", "id": 6250070145, "lat": 41.8864772, "lon": -87.631263, "tags": {"addr:city": "Chicago", "addr:housenumber": "230", "addr:postcode": "60601", "addr:state": "IL", "addr:street": "North Clark Street", "amenity": "restaurant", "name": "AceBounce", "phone": "+1-773-219-0900", "website": "https://acebounce.com/1901-restaurant"}}, {"type": "node", "id": 6256520187, "lat": 41.8869088, "lon": -87.6488326, "tags": {"addr:city": "Chicago", "addr:housenumber": "302", "addr:postcode": "60607", "addr:state": "IL", "addr:street": "North Green Street", "addr:unit": "FL 3", "amenity": "restaurant", "cuisine": "american", "name": "Aba", "phone": "+1-773-645-1400", "website": "http://abarestaurantchicago.com"}}, {"type": "node", "id": 6267363323, "lat": 41.8869576, "lon": -87.6518004, "tags": {"addr:city": "Chicago", "addr:housenumber": "948", "addr:postcode": "60607", "addr:state": "IL", "addr:street": "West Fulton Market", "amenity": "bar", "name": "Blind Barber", "outdoor_seating": "yes", "phone": "+1-312-405-9929", "website": "https://blindbarber.com/"}}, {"type": "node", "id": 6269035604, "lat": 41.891097, "lon": -87.6344024, "tags": {"addr:city": "Chicago", "addr:housenumber": "504", "addr:postcode": "60654", "addr:state": "IL", "addr:street": "North Wells Street", "amenity": "bar", "name": "Bottled Blonde Chicago", "phone": "+1-312-982-7640", "website": "https://bottledblondechi.com/"}}, {"type": "node", "id": 6269036962, "lat": 41.8968482, "lon": -87.6368163, "tags": {"addr:city": "Chicago", "addr:housenumber": "324", "addr:postcode": "60654", "addr:state": "IL", "addr:street": "West Chicago Avenue", "amenity": "bar", "name": "Bounce Chicago", "phone": "+1-312-313-7300", "website": "https://www.bouncesportingclub.com/"}}, {"type": "node", "id": 6272636603, "lat": 41.8883916, "lon": -87.6354632, "tags": {"addr:city": "Chicago", "addr:housenumber": "222", "addr:postcode": "60654", "addr:state": "IL", "addr:street": "Merchandise Mart Plaza", "amenity": "restaurant", "name": "Billy Goat Tavern - at the MART", "phone": "+1-312-464-1045", "website": "https://www.billygoattavern.com/locations/michigan/"}}, {"type": "node", "id": 6272851592, "lat": 41.8855254, "lon": -87.6361036, "tags": {"addr:city": "Chicago", "addr:housenumber": "307", "addr:postcode": "60606", "addr:state": "IL", "addr:street": "West Lake Street", "amenity": "restaurant", "name": "Blackwood BBQ", "phone": "+1-312-621-9663", "website": "https://www.blackwoodbbq.com/"}}, {"type": "node", "id": 6280526718, "lat": 41.8871143, "lon": -87.6460757, "tags": {"addr:city": "Chicago", "addr:housenumber": "702", "addr:postcode": "60661", "addr:state": "IL", "addr:street": "West Fulton Market", "amenity": "restaurant", "name": "Carnivale", "phone": "+1-312-850-5005", "website": "https://www.carnivalechicago.com/"}}, {"type": "node", "id": 6281910607, "lat": 41.8929378, "lon": -87.6416278, "tags": {"addr:city": "Chicago", "addr:housenumber": "600", "addr:postcode": "60610", "addr:state": "IL", "addr:street": "North Kingsbury Street", "amenity": "cafe", "name": "Caribou Coffee Store", "outdoor_seating": "yes", "phone": "+1-312-335-0576"}}, {"type": "node", "id": 6282373266, "lat": 41.8866528, "lon": -87.6311991, "tags": {"addr:city": "Chicago", "addr:housenumber": "221", "addr:postcode": "60601", "addr:state": "IL", "addr:street": "North Clark Street", "amenity": "bar", "name": "Chelsea Room", "phone": "+1-312-631-3991", "website": "https://www.chelsearoomchicago.com/"}}, {"type": "node", "id": 6282833425, "lat": 41.8882719, "lon": -87.6377875, "tags": {"addr:city": "Chicago", "addr:housenumber": "350", "addr:postcode": "60654", "addr:state": "IL", "addr:street": "West Wolf Point Plaza", "addr:unit": "15", "amenity": "bar", "name": "Cityscape Bar", "phone": "+1-312-836-5000", "website": "https://www.martplaza.com/food-drink/cityscape-bar.aspx"}}, {"type": "node", "id": 6282897113, "lat": 41.8913482, "lon": -87.6468352, "tags": {"addr:city": "Chicago", "addr:housenumber": "722", "addr:postcode": "60654", "addr:state": "IL", "addr:street": "West Grand Avenue", "amenity": "bar", "name": "Clover", "phone": "+1-312-344-1934", "website": "http://cloverchicago.com/"}}, {"type": "node", "id": 6283372731, "lat": 41.893829, "lon": -87.6358115, "tags": {"addr:city": "Chicago", "addr:housenumber": "646", "addr:postcode": "60654", "addr:state": "IL", "addr:street": "North Franklin Street", "amenity": "bar", "name": "Concrete Cowboy", "phone": "+1-312-477-9500", "website": "https://www.concretecowboybar.com/chicago.html"}}, {"type": "node", "id": 6284805617, "lat": 41.8986009, "lon": -87.6364088, "tags": {"addr:city": "Chicago", "addr:housenumber": "312", "addr:postcode": "60610", "addr:state": "IL", "addr:street": "West Chestnut Street", "amenity": "cafe", "cuisine": "coffee_shop;sandwiches;sandwich;empanada", "name": "DropShot Coffee & Snack Bar", "phone": "+1-312-496-3014", "website": "https://fieldhousejones.com/"}}, {"type": "node", "id": 6286203667, "lat": 41.893443, "lon": -87.6350756, "tags": {"addr:city": "Chicago", "addr:housenumber": "222", "addr:postcode": "60654", "addr:state": "IL", "addr:street": "West Ontario Street", "amenity": "bar", "name": "Electric Hotel", "phone": "+1-312-374-4683", "website": "https://electrichotelchicago.com/"}}, {"type": "node", "id": 6286444981, "lat": 41.8852921, "lon": -87.6550709, "tags": {"addr:city": "Chicago", "addr:housenumber": "1111", "addr:postcode": "60607", "addr:state": "IL", "addr:street": "West Lake Street", "amenity": "restaurant", "name": "Eleven Eleven", "phone": "+1-312-248-8942", "website": "https://elevenelevenchicago.com/"}}, {"type": "node", "id": 6286959503, "lat": 41.9003849, "lon": -87.6376591, "tags": {"addr:city": "Chicago", "addr:housenumber": "351", "addr:postcode": "60610", "addr:state": "IL", "addr:street": "West Oak Street", "addr:unit": "1", "amenity": "restaurant", "name": "EuroAsia Restaurant", "phone": "+1-312-988-0662", "website": "http://euroasiaca.com/"}}, {"type": "node", "id": 6291020554, "lat": 41.8942676, "lon": -87.6321162, "tags": {"addr:city": "Chicago", "addr:housenumber": "661", "addr:postcode": "60654", "addr:state": "IL", "addr:street": "North LaSalle Boulevard", "amenity": "restaurant", "cuisine": "brazilian", "name": "Fogo de Ch\u00e3o Brazilian Steakhouse", "phone": "+1-312-932-9330", "website": "https://fogodechao.com/"}}, {"type": "node", "id": 6291640639, "lat": 41.8859157, "lon": -87.6496107, "tags": {"addr:city": "Chicago", "addr:housenumber": "205", "addr:postcode": "60607", "addr:state": "IL", "addr:street": "North Peoria Street", "amenity": "restaurant", "name": "Fulton Market Company", "phone": "+1-312-989-9801", "website": "http://fultonmarketcompany.com/"}}, {"type": "node", "id": 6291927368, "lat": 41.8866833, "lon": -87.6321793, "tags": {"addr:city": "Chicago", "addr:housenumber": "225", "addr:postcode": "60601", "addr:state": "IL", "addr:street": "North LaSalle Street", "amenity": "cafe", "name": "Goddess And The Baker", "phone": "+1-312-374-3625", "website": "http://goddessandthebaker.com/"}}, {"type": "node", "id": 6292017713, "lat": 41.896807, "lon": -87.6353152, "tags": {"addr:city": "Chicago", "addr:housenumber": "226", "addr:postcode": "60654", "addr:state": "IL", "addr:street": "West Chicago Avenue", "amenity": "restaurant", "name": "Good Measure", "phone": "+1-312-600-9268", "website": "https://www.goodmeasurechicago.com/"}}, {"type": "node", "id": 6294433265, "lat": 41.8944234, "lon": -87.6338537, "tags": {"addr:city": "Chicago", "addr:housenumber": "675", "addr:postcode": "60654", "addr:state": "IL", "addr:street": "North Wells Street", "amenity": "cafe", "name": "HERO Coffee Bar", "phone": "+1-312-624-9523", "website": "https://www.herocoffeebars.com"}}, {"type": "node", "id": 6297793997, "lat": 41.8893882, "lon": -87.6346055, "tags": {"addr:city": "Chicago", "addr:housenumber": "210", "addr:postcode": "60654", "addr:state": "IL", "addr:street": "West Kinzie Street", "amenity": "bar", "name": "Shamrock Club", "phone": "+1-312-321-9314", "website": "https://www.shamrockclubchicago.com/"}}, {"type": "node", "id": 6297808319, "lat": 41.8918097, "lon": -87.6474344, "tags": {"addr:city": "Chicago", "addr:housenumber": "517", "addr:postcode": "60642", "addr:state": "IL", "addr:street": "North Halsted Street", "amenity": "cafe", "name": "Iguana Caf\u00e9", "phone": "+1-312432-0663", "website": "http://www.iguanacafe.com/"}}, {"type": "node", "id": 6298375107, "lat": 41.8895868, "lon": -87.6507598, "tags": {"addr:city": "Chicago", "addr:housenumber": "415", "addr:postcode": "60642", "addr:state": "IL", "addr:street": "North Sangamon Street", "amenity": "bar", "name": "Illuminated Brew Works", "website": "http://www.ibw-chicago.com/"}}, {"type": "node", "id": 6298396229, "lat": 41.8888338, "lon": -87.6373879, "tags": {"addr:city": "Chicago", "addr:housenumber": "350", "addr:postcode": "60654", "addr:state": "IL", "addr:street": "North Orleans Street", "amenity": "cafe", "name": "Infuse Coffee and Tea Bar", "phone": "+1-414-467-9866"}}, {"type": "node", "id": 6299349213, "lat": 41.8902577, "lon": -87.6318046, "tags": {"addr:city": "Chicago", "addr:housenumber": "112", "addr:postcode": "60654", "addr:state": "IL", "addr:street": "West Hubbard Street", "amenity": "bar", "name": "Parlay", "phone": "+1-312-955-0066", "website": "https://www.parlaychi.com/`"}}, {"type": "node", "id": 6299489483, "lat": 41.8936805, "lon": -87.634426, "tags": {"addr:city": "Chicago", "addr:housenumber": "636", "addr:postcode": "60654", "addr:state": "IL", "addr:street": "North Wells Street", "amenity": "cafe", "brand": "Peet's Coffee", "brand:wikidata": "Q1094101", "brand:wikipedia": "en:Peet's Coffee", "cuisine": "coffee_shop", "name": "Peet's Coffee", "phone": "+1-312-649-0769", "takeaway": "yes", "website": "https://www.peets.com/"}}, {"type": "node", "id": 6299500544, "lat": 41.8928813, "lon": -87.6414942, "tags": {"addr:city": "Chicago", "addr:housenumber": "600", "addr:postcode": "60654", "addr:state": "IL", "addr:street": "North Kingsbury Street", "amenity": "cafe", "brand": "Peet's Coffee", "brand:wikidata": "Q1094101", "brand:wikipedia": "en:Peet's Coffee", "cuisine": "coffee_shop", "name": "Peet's Coffee", "phone": "+1-312-489-5061", "takeaway": "yes", "website": "https://www.peets.com/"}}, {"type": "node", "id": 6300432356, "lat": 41.8852747, "lon": -87.6336647, "tags": {"addr:city": "Chicago", "addr:housenumber": "169", "addr:postcode": "60606", "addr:state": "IL", "addr:street": "North Wells Street", "amenity": "restaurant", "name": "Pierogi Heaven", "opening_hours": "Sa-Mo 11:00-17:00; Tu-Fr 11:00-19:00", "phone": "+1-312-263-9305", "website": "http://www.pierogiheaven.com/"}}, {"type": "node", "id": 6300503441, "lat": 41.8935013, "lon": -87.6315261, "tags": {"addr:city": "Chicago", "addr:housenumber": "100", "addr:postcode": "60654", "addr:state": "IL", "addr:street": "West Ontario Street", "amenity": "restaurant", "name": "Portillo\u2019s Hot Dogs", "phone": "+1-312-587-8910", "website": "https://www.portillos.com/locations/chicago/"}}, {"type": "node", "id": 6300565807, "lat": 41.889319, "lon": -87.6352023, "tags": {"addr:city": "Chicago", "addr:housenumber": "226", "addr:postcode": "60654", "addr:state": "IL", "addr:street": "West Kinzie Street", "amenity": "restaurant", "cuisine": "italian", "name": "Ciccio Mio", "phone": "+1-312-796-3316", "website": "http://cicciomio.com/"}}, {"type": "node", "id": 6300602813, "lat": 41.8949259, "lon": -87.6339491, "tags": {"addr:city": "Chicago", "addr:housenumber": "701", "addr:postcode": "60654", "addr:state": "IL", "addr:street": "North Wells Street", "amenity": "cafe", "name": "RealGood River North", "website": "https://realgoodstuffco.com/"}}, {"type": "node", "id": 6301013723, "lat": 41.8881548, "lon": -87.6320636, "tags": {"addr:city": "Chicago", "addr:housenumber": "315", "addr:postcode": "60611", "addr:state": "IL", "addr:street": "North LaSalle Boulevard", "amenity": "restaurant", "name": "River Roast", "phone": "+1-312-822-0100", "website": "http://www.riverroastchicago.com/"}}, {"type": "node", "id": 6301862903, "lat": 41.9015004, "lon": -87.6316474, "tags": {"addr:city": "Chicago", "addr:housenumber": "1028", "addr:postcode": "60610", "addr:state": "IL", "addr:street": "North Clark Street", "amenity": "restaurant", "name": "Sunny Side Up", "phone": "+1-312-967-0777", "website": "https://www.chicagosunnysideup.com/"}}, {"type": "node", "id": 6303028739, "lat": 41.8972221, "lon": -87.6382658, "tags": {"addr:city": "Chicago", "addr:housenumber": "820", "addr:postcode": "60610", "addr:state": "IL", "addr:street": "North Orleans Street", "amenity": "restaurant", "name": "Sweet Tooth Cafe", "phone": "+1-224-619-5837", "website": "https://sweetshotcookies.com/"}}, {"type": "node", "id": 6303791058, "lat": 41.8863931, "lon": -87.6401579, "tags": {"addr:city": "Chicago", "addr:housenumber": "222", "addr:postcode": "60606", "addr:state": "IL", "addr:street": "North Canal Street", "amenity": "restaurant", "name": "Taste222", "phone": "+1-312-383-6620", "website": "https://www.taste222chicago.com/"}}, {"type": "node", "id": 6306592684, "lat": 41.8857581, "lon": -87.6527639, "tags": {"addr:city": "Chicago", "addr:housenumber": "1016", "addr:postcode": "60607", "addr:state": "IL", "addr:street": "West Lake Street", "amenity": "restaurant", "name": "The Corned Beef Factory Sandwich Shop", "phone": "+1-312-666-2536", "website": "http://cornedbeeffactorychicago.com/"}}, {"type": "node", "id": 6315186963, "lat": 41.8989749, "lon": -87.6490724, "tags": {"addr:city": "Chicago", "addr:housenumber": "900", "addr:postcode": "60642", "addr:state": "IL", "addr:street": "North Branch Street", "amenity": "cafe", "name": "The Daily Grind", "phone": "+1-312-752-2000"}}, {"type": "node", "id": 6315188078, "lat": 41.8913788, "lon": -87.647221, "tags": {"addr:city": "Chicago", "addr:housenumber": "730", "addr:postcode": "60654", "addr:state": "IL", "addr:street": "West Grand Avenue", "amenity": "restaurant", "name": "The Dawson", "phone": "+1-312-243-8955", "website": "https://the-dawson.com/"}}, {"type": "node", "id": 6315665345, "lat": 41.8957112, "lon": -87.6548491, "tags": {"addr:city": "Chicago", "addr:housenumber": "770", "addr:postcode": "60642", "addr:state": "IL", "addr:street": "North Milwaukee Avenue", "amenity": "bar", "name": "The Matchbox", "phone": "+1-312-666-9292"}}, {"type": "node", "id": 6315679717, "lat": 41.8865111, "lon": -87.6518726, "tags": {"addr:city": "Chicago", "addr:housenumber": "955", "addr:postcode": "60607", "addr:state": "IL", "addr:street": "West Fulton Market", "amenity": "restaurant", "name": "The Office", "phone": "+1-312-226-0868", "website": "https://www.exploretock.com/theoffice/"}}, {"type": "node", "id": 6315729355, "lat": 41.8862099, "lon": -87.641136, "tags": {"addr:city": "Chicago", "addr:housenumber": "215", "addr:postcode": "60661", "addr:state": "IL", "addr:street": "North Clinton Street", "amenity": "bar", "name": "The Railcar Club", "phone": "+1-312-207-5490", "website": "http://www.therailcarclub.com/"}}, {"type": "node", "id": 6316916580, "lat": 41.8938121, "lon": -87.6335041, "tags": {"addr:city": "Chicago", "addr:housenumber": "159", "addr:postcode": "60654", "addr:state": "IL", "addr:street": "West Erie Street", "amenity": "restaurant", "cuisine": "steak_house;seafood", "name": "Wildfire", "phone": "+1-312-787-9000", "website": "http://www.wildfirerestaurant.com/chicago/"}}, {"type": "node", "id": 6316977574, "lat": 41.8952604, "lon": -87.6317088, "tags": {"addr:city": "Chicago", "addr:housenumber": "772", "addr:postcode": "60654", "addr:state": "IL", "addr:street": "North Clark Street", "amenity": "bar", "name": "Woodhaven Bar and Kitchen", "phone": "+1-312-624-9008", "website": "http://woodhavenchicago.com/"}}, {"type": "node", "id": 6317127651, "lat": 41.8918633, "lon": -87.6331058, "tags": {"addr:city": "Chicago", "addr:housenumber": "530", "addr:postcode": "60654", "addr:state": "IL", "addr:street": "North LaSalle Drive", "amenity": "restaurant", "cuisine": "mexican;taco", "name": "Zombie Taco", "phone": "+1-312-527-7200", "website": "https://www.zombietacochicago.com/"}}, {"type": "node", "id": 6318899936, "lat": 41.8897503, "lon": -87.6348376, "tags": {"addr:city": "Chicago", "addr:housenumber": "215", "addr:postcode": "60654", "addr:state": "IL", "addr:street": "West Hubbard Street", "amenity": "cafe", "brand": "Joe & The Juice", "brand:wikidata": "Q26221514", "brand:wikipedia": "en:Joe & The Juice", "cuisine": "coffee_shop", "name": "Joe & The Juice", "takeaway": "yes", "website": "https://www.joejuice.com/stores/usa/chicago-215-west-hubbard-412-north-wells/"}}, {"type": "node", "id": 6318921829, "lat": 41.8973534, "lon": -87.6330171, "tags": {"addr:city": "Chicago", "addr:housenumber": "820", "addr:postcode": "60610", "addr:state": "Il", "addr:street": "North LaSalle Boulevard", "amenity": "cafe", "name": "Joe\u2019s Coffee", "phone": "+1-312-329-2877"}}, {"type": "node", "id": 6319246272, "lat": 41.8993026, "lon": -87.6361223, "tags": {"addr:city": "Chicago", "addr:housenumber": "900", "addr:postcode": "60610", "addr:state": "IL", "addr:street": "North Franklin Street", "amenity": "restaurant", "name": "Kiki\u2019s Bistro", "phone": "+1-312-335-5454", "website": "https://www.kikisbistro.com/"}}, {"type": "node", "id": 6320631035, "lat": 41.8903788, "lon": -87.6336269}, {"type": "node", "id": 6321398186, "lat": 41.8909316, "lon": -87.6474389, "tags": {"addr:city": "Chicago", "addr:housenumber": "494", "addr:postcode": "60654", "addr:state": "IL", "addr:street": "North Milwaukee Avenue", "amenity": "bar", "name": "Maillard Tavern", "phone": "+1-312-766-2727", "website": "https://www.maillardtavern.com/"}}, {"type": "node", "id": 6321463234, "lat": 41.891884, "lon": -87.6338104, "tags": {"addr:city": "Chicago", "addr:housenumber": "535", "addr:postcode": "60654", "addr:state": "IL", "addr:street": "North Wells Street", "amenity": "bar", "name": "Marchesa", "phone": "+1-312-527-9535", "website": "https://www.marchesachicago.com/"}}, {"type": "node", "id": 6322560906, "lat": 41.8985537, "lon": -87.6427142, "tags": {"addr:city": "Chicago", "addr:housenumber": "869", "addr:postcode": "60610", "addr:state": "IL", "addr:street": "North Larrabee Street", "amenity": "restaurant", "name": "Texican", "phone": "+1-312-877-5441", "website": "https://www.texican-chicago.com/"}}, {"type": "node", "id": 6322760739, "lat": 41.9012153, "lon": -87.6476574, "tags": {"addr:city": "Chicago", "addr:housenumber": "1059", "addr:postcode": "60642", "addr:state": "IL", "addr:street": "North Halsted Street", "amenity": "restaurant", "name": "Mod Mex & Mod Mix With Rick Bayless"}}, {"type": "node", "id": 6322771416, "lat": 41.8998396, "lon": -87.63707, "tags": {"addr:city": "Chicago", "addr:housenumber": "931", "addr:postcode": "60610", "addr:state": "IL", "addr:street": "North Orleans Street", "amenity": "restaurant", "name": "Mogadishu Restaurant", "phone": "+1-312-265-1850"}}, {"type": "node", "id": 6322784614, "lat": 41.8859058, "lon": -87.6484698, "tags": {"addr:city": "Chicago", "addr:housenumber": "820", "addr:postcode": "60607", "addr:state": "IL", "addr:street": "West Lake Street", "amenity": "restaurant", "name": "Momotaro", "phone": "+1-312-733-4818", "website": "https://www.momotarochicago.com/"}}, {"type": "node", "id": 6322993588, "lat": 41.8918453, "lon": -87.6331098, "tags": {"addr:city": "Chicago", "addr:housenumber": "530", "addr:postcode": "60654", "addr:state": "IL", "addr:street": "North LaSalle Drive", "amenity": "bar", "name": "Moxy Chicago Downtown", "phone": "+1-312-527-7200", "website": "https://www.marriott.com/hotels/travel/chiox-moxy-chicago-downtown/"}}, {"type": "node", "id": 6324261230, "lat": 41.8859414, "lon": -87.6477162, "tags": {"addr:city": "Chicago", "addr:housenumber": "204", "addr:postcode": "60661", "addr:state": "IL", "addr:street": "North Halsted Street", "amenity": "bar", "name": "Paddy O\u2019Fegan\u2019s", "phone": "+1-312-997-3100", "website": "paddyofegans.com"}}, {"type": "node", "id": 6326375215, "lat": 41.8883937, "lon": -87.6355632, "tags": {"addr:city": "Chicago", "addr:housenumber": "222", "addr:postcode": "60654", "addr:state": "IL", "addr:street": "Merchandise Mart Plaza", "amenity": "cafe", "name": "Metropolis Cafe", "phone": "+1-312-888-4900", "website": "https://www.metropoliscoffee.com/"}}, {"type": "node", "id": 6397203818, "lat": 41.8949375, "lon": -87.6387433, "tags": {"addr:city": "Chicago", "addr:housenumber": "700", "addr:postcode": "60654", "addr:state": "IL", "addr:street": "North Sedgwick Street", "amenity": "restaurant", "cuisine": "american", "name": "Entente", "opening_hours": "Tu-Th 17:00-22:00; Fr-Sa 17:00-23:00", "phone": "+1-312-285-2247", "website": "https://www.ententechicago.com"}}, {"type": "node", "id": 6407178684, "lat": 41.8859191, "lon": -87.6488691, "tags": {"addr:city": "Chicago", "addr:housenumber": "200", "addr:postcode": "60607", "addr:state": "IL", "addr:street": "North Green Street", "amenity": "restaurant", "cuisine": "peruvian", "name": "Cabra", "opening_hours": "Su-Th 16:00-23:00; Fr-Sa 16:00-00:00", "phone": "+1-312-761-1717", "website": "https://www.cabrachicago.com"}}, {"type": "node", "id": 6407436054, "lat": 41.8858183, "lon": -87.6488637, "tags": {"addr:city": "Chicago", "addr:housenumber": "200", "addr:postcode": "60607", "addr:state": "IL", "addr:street": "North Green Street", "amenity": "restaurant", "cuisine": "breakfast;small_plates;tapas", "name": "Cira", "opening_hours": "Su-Th 07:00-23:00, Fr-Sa 07:00-00:00", "phone": "+1-312-761-1777", "website": "https://cirachicago.com/"}}, {"type": "node", "id": 6407444258, "lat": 41.8858782, "lon": -87.6488678, "tags": {"addr:city": "Chicago", "addr:housenumber": "200", "addr:postcode": "60607", "addr:state": "IL", "addr:street": "North Green Street", "amenity": "bar", "name": "Lazy Bird", "phone": "+1-312-761-1799", "website": "https://www.lazybirdchicago.com"}}, {"type": "node", "id": 6410347902, "lat": 41.8986768, "lon": -87.6364137, "tags": {"addr:city": "Chicago", "addr:housenumber": "312", "addr:postcode": "60610", "addr:state": "IL", "addr:street": "West Chestnut Street", "amenity": "bar", "name": "Janitor's Closet"}}, {"type": "node", "id": 6431343085, "lat": 41.8866245, "lon": -87.6497016, "tags": {"addr:city": "Chicago", "addr:housenumber": "857", "addr:postcode": "60607", "addr:state": "IL", "addr:street": "West Fulton Market", "amenity": "restaurant", "cuisine": "snackbar;snack;snacks;taiwanese", "name": "Baobing", "opening_hours": "Mo-Th 17:00-22:00; Fr 16:30-23:00; Sa 11:00-23:00; Su 11:00-22:00", "phone": "+1-312-902-3825", "website": "http://www.baobingchi.com"}}, {"type": "node", "id": 6459385008, "lat": 41.8894313, "lon": -87.6313319, "tags": {"addr:city": "Chicago", "addr:housenumber": "400", "addr:postcode": "60654", "addr:state": "IL", "addr:street": "North Clark Street", "amenity": "restaurant", "cuisine": "american", "name": "The Smith", "phone": "+1-312-312-5100"}}, {"type": "node", "id": 6459394817, "lat": 41.8858371, "lon": -87.6469637, "tags": {"addr:city": "Chicago", "addr:housenumber": "731", "addr:postcode": "60661", "addr:state": "IL", "addr:street": "West Lake Street", "amenity": "restaurant", "cuisine": "sushi;japanese;asian", "name": "Mako", "phone": "+1-312-988-0687", "website": "https://www.makochicago.com"}}, {"type": "node", "id": 6651861059, "lat": 41.8864305, "lon": -87.6341977, "tags": {"addr:city": "Chicago", "addr:housenumber": "205", "addr:postcode": "60606", "addr:state": "IL", "addr:street": "West Upper Wacker Drive", "amenity": "restaurant", "cuisine": "gyros;mediterranean;middle_eastern", "name": "Piggie Smalls Gyro Shop", "phone": "+1-312-980-1400", "website": "https://www.piggie-smalls.com/"}}, {"type": "node", "id": 6651862181, "lat": 41.8866242, "lon": -87.6342091, "tags": {"addr:city": "Chicago", "addr:housenumber": "205", "addr:postcode": "60606", "addr:state": "IL", "addr:street": "West Upper Wacker Drive", "amenity": "restaurant", "cuisine": "sushi;japanese;asian", "name": "Tabo Sushi", "phone": "+1-312-980-1405", "website": "https://www.tabosushi.com/"}}, {"type": "node", "id": 6651949787, "lat": 41.8885753, "lon": -87.6346277, "tags": {"addr:city": "Chicago", "addr:housenumber": "222", "addr:postcode": "60654", "addr:state": "IL", "addr:street": "Merchandise Mart Plaza", "amenity": "restaurant", "cuisine": "chicken;american", "name": "The Budlong Hot Chicken", "phone": "+1-773-270-9005", "website": "https://www.thebudlong.com/"}}, {"type": "node", "id": 6651956670, "lat": 41.8974765, "lon": -87.6433795, "tags": {"addr:city": "Chicago", "addr:housenumber": "600", "addr:postcode": "60654", "addr:state": "IL", "addr:street": "West Chicago Avenue", "amenity": "restaurant", "cuisine": "casual", "name": "Farmer's Fridge", "phone": "+1-312-229-0099", "website": "https://www.farmersfridge.com/"}}, {"type": "node", "id": 6757776653, "lat": 41.8865666, "lon": -87.6518679, "tags": {"addr:city": "Chicago", "addr:housenumber": "951", "addr:postcode": "60607", "addr:state": "IL", "addr:street": "West Fulton Market", "amenity": "restaurant", "cuisine": "american", "name": "St. Clair Supper Club", "phone": "+1-312-789-4896", "website": "http://stclairsupperclub.com"}}, {"type": "node", "id": 6831846585, "lat": 41.8855931, "lon": -87.6345626, "tags": {"amenity": "cafe", "internet_access": "wlan", "name": "Big Shoulders Coffee"}}, {"type": "node", "id": 6936048967, "lat": 41.8892241, "lon": -87.6490881, "tags": {"addr:city": "Chicago", "addr:housenumber": "838", "addr:postcode": "60607", "addr:state": "IL", "addr:street": "West Kinzie Street", "amenity": "restaurant", "name": "Recess", "phone": "+1-312-801-1181", "website": "https://chicagoinrecess.com"}}, {"type": "node", "id": 6997474713, "lat": 41.8869631, "lon": -87.6505461, "tags": {"addr:city": "Chicago", "addr:housenumber": "916", "addr:postcode": "60607", "addr:state": "IL", "addr:street": "West Fulton Market", "amenity": "restaurant", "cuisine": "food_hall;cafeteria", "name": "Time Out Market Chicago", "phone": "+1-312-637-7888", "website": "https://www.timeout.com/chicago/time-out-market"}}, {"type": "node", "id": 7025601432, "lat": 41.8870635, "lon": -87.6332322, "tags": {"amenity": "restaurant", "name": "Sweet Home Gelato"}}, {"type": "node", "id": 7073555751, "lat": 41.8942118, "lon": -87.6525505, "tags": {"addr:city": "Chicago", "addr:housenumber": "694", "addr:postcode": "60642", "addr:state": "IL", "addr:street": "North Milwaukee Avenue", "amenity": "bar", "name": "The Dandy Crown", "phone": "+1-312-846-6420", "website": "http://thedandycrown.com"}}, {"type": "node", "id": 7259838185, "lat": 41.891969, "lon": -87.6490538, "tags": {"addr:housenumber": "522", "addr:street": "North Milwaukee Avenue", "amenity": "restaurant", "name": "Stax Cafe", "opening_hours": "Mo-Fr 07:00-15:00; Sa-Su 07:00-15:30"}}, {"type": "node", "id": 7330240027, "lat": 41.8864627, "lon": -87.6327897, "tags": {"addr:city": "Chicago", "addr:housenumber": "222", "addr:postcode": "60601", "addr:state": "IL", "addr:street": "North LaSalle Street", "amenity": "restaurant", "cuisine": "steak_house;steak", "name": "Prime & Provisions", "phone": "+1-312-726-7777"}}, {"type": "way", "id": 147398356, "nodes": [1606229367, 1606229361, 1606229402, 1606229344, 1606229403, 1606229367], "tags": {"addr:city": "Chicago", "addr:housenumber": "185", "addr:postcode": "60606", "addr:state": "IL", "addr:street": "North Franklin Street", "addr:street:name": "Franklin", "addr:street:prefix": "North", "addr:street:type": "Street", "amenity": "restaurant", "building": "yes", "building:levels": "6", "chicago:building_id": "353251", "cuisine": "fast_food;burger;hotdog;hot_dogs", "name": "U.B. Dogs", "opening_hours": "Mo-Fr 09:00-15:00", "phone": "+1-312-251-7009", "postal_code": "60606", "website": "http://www.ubdogs.com"}}, {"type": "way", "id": 159470958, "nodes": [1715850315, 1715850343, 1715850351, 1715850331, 1715850315], "tags": {"addr:city": "Chicago", "addr:housenumber": "113", "addr:postcode": "60654", "addr:state": "IL", "addr:street": "West Hubbard Street", "addr:street:name": "Hubbard", "addr:street:prefix": "West", "addr:street:type": "Street", "amenity": "bar", "building": "yes", "building:levels": "5", "chicago:building_id": "814138", "name": "Point & Feather", "phone": "+1-312-595-0113", "website": "https://www.pointandfeatherchicago.com/"}}, {"type": "way", "id": 210270387, "nodes": [2203580648, 2203580768, 2203580772, 2203580662, 2203580648], "tags": {"addr:city": "Chicago", "addr:housenumber": "440", "addr:postcode": "60642", "addr:state": "IL", "addr:street": "North Aberdeen Street", "addr:street:name": "Aberdeen", "addr:street:prefix": "North", "addr:street:type": "Street", "amenity": "bar", "building": "yes", "chicago:building_id": "350040", "name": "The Aberdeen Tap", "opening_hours": "Su-Fr 11:00-02:00; Sa 11:00-03:00", "phone": "+1-312-929-3845", "website": "http://theaberdeentap.com/", "wheelchair": "limited"}}, {"type": "way", "id": 210270539, "nodes": [2203578554, 2203578549, 2203578545, 2203578844, 2203578846, 2203578777, 2203578554], "tags": {"addr:city": "Chicago", "addr:housenumber": "702", "addr:postcode": "60661", "addr:state": "IL", "addr:street": "West Fulton Street", "addr:street:name": "Fulton Market", "addr:street:prefix": "West", "amenity": "restaurant", "building": "yes", "chicago:building_id": "352236", "cuisine": "caribbean;spanish", "name": "Carnivale", "opening_hours": "Mo-Fr 11:30-14:30; Mo-Th 17:00-22:00; Fr-Sa 17:00-23:00; Su 10:30-15:00, 17:00-21:00", "phone": "+1-312-850-5005", "website": "https://www.carnivalechicago.com/"}}, {"type": "way", "id": 210270584, "nodes": [2203578023, 2203578021, 2203578385, 2203578387, 2203578023], "tags": {"addr:city": "Chicago", "addr:housenumber": "825", "addr:postcode": "60607", "addr:state": "IL", "addr:street": "West Fulton Market", "addr:street:name": "Fulton Market", "addr:street:prefix": "West", "amenity": "cafe", "building": "yes", "building:levels": "3", "chicago:building_id": "888189", "cuisine": "sandwich;american", "name": "Publican Quality Meats", "opening_hours": "Mo-Sa 10:00-18:00; Su 10:00-17:00", "phone": "+1-312-445-8977", "website": "http://publicanqualitymeats.com/"}}, {"type": "way", "id": 210270693, "nodes": [2203578606, 2203578494, 2203578493, 2203578659, 2203578661, 2203578606], "tags": {"addr:housenumber": "948-954", "addr:street": "West Fulton Market", "addr:street:name": "Fulton Market", "addr:street:prefix": "West", "amenity": "bar", "building": "yes", "building:levels": "2", "chicago:building_id": "879729"}}, {"type": "way", "id": 210671706, "nodes": [2207544311, 6320631035, 2207544300, 2207544245, 2207544238, 2207544298, 2207544311], "tags": {"addr:city": "Chicago", "addr:housenumber": "439", "addr:postcode": "60654", "addr:state": "IL", "addr:street": "North Wells Street", "addr:street:name": "Wells", "addr:street:prefix": "North", "addr:street:type": "Street", "amenity": "restaurant", "brand": "Lou Malnati's Pizzeria", "brand:wikidata": "Q6685628", "brand:wikipedia": "en:Lou Malnati's Pizzeria", "building": "yes", "building:levels": "3", "chicago:building_id": "349092", "cuisine": "pizza", "name": "Lou Malnati's Pizzeria", "opening_hours": "Su-Th 11:00-23:00; Fr-Sa 11:00-00:00", "phone": "+1-312-828-9800", "url": "http://www.loumalnatis.com/Locations/Details.aspx?ID=7", "website": "https://www.loumalnatis.com/chicago-river-north;https://www.loumalnatis.com/"}}, {"type": "way", "id": 210679092, "nodes": [2207600366, 2207600370, 2207600429, 2207600432, 2207600427, 2207600428, 2207600363, 2207600364, 2207600366], "tags": {"addr:city": "Chicago", "addr:housenumber": "233", "addr:postcode": "60654", "addr:state": "IL", "addr:street": "West Superior Street", "addr:street:name": "Superior", "addr:street:prefix": "West", "addr:street:type": "Street", "amenity": "restaurant", "building": "yes", "building:levels": "3", "chicago:building_id": "813713", "cuisine": "breakfast;sandwich", "name": "Brett's Kitchen", "opening_hours": "Mo-Fr 06:00-16:00; Sa 08:00-16:00", "phone": "+1-312-664-6354", "website": "http://www.brettskitchen.com/"}}, {"type": "way", "id": 210679114, "nodes": [2207598743, 2207598826, 2207598828, 2207598851, 2207598853, 2207598744, 2207598743], "tags": {"addr:city": "Chicago", "addr:housenumber": "612", "addr:postcode": "60654", "addr:state": "IL", "addr:street": "North Wells Street", "addr:street:name": "Wells", "addr:street:prefix": "North", "addr:street:type": "Street", "amenity": "restaurant", "building": "yes", "building:levels": "1", "chicago:building_id": "345243", "cuisine": "ribs", "name": "Carson's", "opening_hours": "Su-Th 11:30-22:00; Fr-Sa 11:30-23:00", "source": "https://www.ribs.com/chicago", "website": "https://www.ribs.com/chicago", "wheelchair": "yes"}}, {"type": "way", "id": 210679146, "nodes": [2207599484, 2207599482, 2207599676, 2207599686, 2207599484], "tags": {"addr:city": "Chicago", "addr:housenumber": "661", "addr:postcode": "60654", "addr:state": "IL", "addr:street": "North LaSalle Drive", "addr:street:name": "La Salle", "addr:street:prefix": "North", "addr:street:type": "Boulevard", "amenity": "restaurant", "building": "yes", "chicago:building_id": "342353", "cuisine": "brazilian;steak_house;steak", "name": "Fogo de Ch\u00e3o Brazilian Steakhouse", "opening_hours": "Mo-Fr 11:00-14:00; Mo-Th 17:00-22:00; Fr 17:00-22:30; Sa 11:30-22:30; Su 11:30-21:00", "phone": "+1-312-932-9330", "website": "https://fogodechao.com/location/chicago"}}, {"type": "way", "id": 210679155, "nodes": [2207598450, 2207598453, 2207598491, 2207598494, 2207598449, 2207598450], "tags": {"addr:city": "Chicago", "addr:housenumber": "536", "addr:postcode": "60654", "addr:state": "IL", "addr:street": "North Clark Street", "addr:street:name": "Clark", "addr:street:prefix": "North", "addr:street:type": "Street", "amenity": "bar", "building": "yes", "building:levels": "4", "chicago:building_id": "346846", "leisure": "music_venue", "name": "Blue Chicago", "opening_hours": "Su-Fr 20:00-01:30; Sa 20:00-02:30", "phone": "+1-312-661-0100", "website": "http://www.bluechicago.com"}}, {"type": "way", "id": 210679157, "nodes": [2207599566, 2207599480, 2207599470, 2207599468, 2207599544, 2207599546, 2207599565, 2207599566], "tags": {"addr:city": "Chicago", "addr:housenumber": "660", "addr:postcode": "60654", "addr:state": "IL", "addr:street": "North Wells Street", "addr:street:name": "Wells", "addr:street:prefix": "North", "addr:street:type": "Street", "amenity": "restaurant", "brand": "Hooters", "brand:wikidata": "Q1025921", "brand:wikipedia": "en:Hooters", "building": "yes", "building:levels": "1", "chicago:building_id": "341914", "cuisine": "burger", "name": "Hooters", "opening_hours": "Su-Th 11:00-23:00; Fr-Sa 11:00-00:00", "phone": "+1-312-944-8800", "website": "http://www.originalhooters.com/chicago", "wheelchair": "yes"}}, {"type": "way", "id": 210680038, "nodes": [2207598243, 2207598210, 2207598209, 2207598237, 2207598238, 2207598248, 2207598243], "tags": {"addr:city": "Chicago", "addr:housenumber": "500", "addr:postcode": "60654", "addr:state": "IL", "addr:street": "North Franklin Street", "addr:street:name": "Franklin", "addr:street:prefix": "North", "addr:street:type": "Street", "amenity": "restaurant", "building": "yes", "chicago:building_id": "814055", "cuisine": "steak_house;steak;italian", "name": "Gene & Georgetti", "opening_hours": "Mo-Th 11:00-23:00; Fr-Sa 11:00-00:00", "phone": "+1-312-527-3718", "website": "https://geneandgeorgetti.com/"}}, {"type": "way", "id": 210680201, "nodes": [2207599832, 2207599830, 2207599896, 2207599898, 2207599903, 2207599904, 2207599831, 2207599832], "tags": {"addr:city": "Chicago", "addr:housenumber": "678", "addr:postcode": "60654", "addr:state": "IL", "addr:street": "North Orleans Street", "addr:street:name": "Orleans", "addr:street:prefix": "North", "addr:street:type": "Street", "amenity": "restaurant", "building": "yes", "building:levels": "2", "chicago:building_id": "870787", "food": "yes", "name": "The Green Door Tavern", "opening_hours": "Mo-Fr 11:30-02:00; Sa 11:30-03:00; Su 12:00-21:00", "phone": "+1-312-664-5496", "start_date": "1872", "website": "http://www.greendoorchicago.com/", "wikidata": "Q16947573", "wikipedia": "en:Green Door Tavern"}}, {"type": "way", "id": 210680434, "nodes": [2207598424, 2207598371, 2207598369, 2207598416, 2207598414, 2207598417, 2207598422, 2207598421, 2207598428, 2207598427, 2207598424], "tags": {"addr:city": "Chicago", "addr:housenumber": "100", "addr:postcode": "60610", "addr:state": "IL", "addr:street": "West Grand Avenue", "addr:street:name": "Clark", "addr:street:prefix": "North", "addr:street:type": "Street", "amenity": "bar", "building": "yes", "building:levels": "3", "chicago:building_id": "814002", "internet_access": "wlan", "name": "Fado Irish Pub", "opening_hours": "Mo-Fr 11:30-02:00; Sa 07:30-03:00; Su 07:30-02:00", "phone": "+1-312-836-0066", "website": "https://www.fadoirishpub.com/chicago"}}, {"type": "way", "id": 210680443, "nodes": [2207598239, 2207598261, 2207598262, 2207598283, 2207598284, 2207598242, 2207598239], "tags": {"addr:city": "Chicago", "addr:housenumber": "500", "addr:postcode": "60654", "addr:state": "IL", "addr:street": "North La Salle Boulevard", "addr:street:name": "La Salle", "addr:street:prefix": "North", "addr:street:type": "Boulevard", "amenity": "restaurant", "building": "yes", "building:levels": "3", "chicago:building_id": "348309", "cuisine": "pizza", "name": "Gino's East - River North", "opening_hours": "Su-Th 11:00-21:00; Fr-Sa 11:00-22:00", "phone": "+1-312-988-4200", "website": "https://www.ginoseast.com/"}}, {"type": "way", "id": 210680502, "nodes": [2207600074, 2207600078, 2207600082, 2207600086, 2207600101, 2207600104, 2207600075, 2207600074], "tags": {"addr:housenumber": "701", "addr:street": "North Wells Street", "addr:street:name": "Wells", "addr:street:prefix": "North", "addr:street:type": "Street", "amenity": "cafe", "building": "yes", "building:levels": "4", "chicago:building_id": "341348", "name": "Seattle's Best Coffee"}}, {"type": "way", "id": 210680555, "nodes": [2207598611, 2207598612, 2207598535, 2207598531, 2207598524, 2207598529, 2207598540, 2207598541, 2207598542, 2207598562, 2207598611], "tags": {"addr:housenumber": "544-548", "addr:street": "North Wells Street", "addr:street:name": "Wells", "addr:street:prefix": "North", "addr:street:type": "Street", "amenity": "restaurant", "building": "yes", "building:levels": "3", "chicago:building_id": "813966", "cuisine": "chinese", "name": "Yu Choy"}}, {"type": "way", "id": 240806164, "nodes": [2207600423, 2484981701, 2484981700, 2484981699, 2207600283, 2207600423], "tags": {"addr:city": "Chicago", "addr:country": "US", "addr:housenumber": "331", "addr:postcode": "60654", "addr:state": "IL", "addr:street": "West Superior Street", "addr:street:name": "Superior", "addr:street:prefix": "West", "addr:street:type": "Street", "amenity": "restaurant", "building": "yes", "building:levels": "5", "cuisine": "italian", "name": "Club Lago", "opening_hours": "Mo-Th 11:00-22:00; Fr-Sa 11:00-23:00", "phone": "+1-312-951-2849", "url": "http://www.clublago.com/home.html", "website": "http://www.clublago.com/"}}, {"type": "way", "id": 275391882, "nodes": [2800242842, 2800242843, 5457435673, 2800242844, 2800242845, 2800242842], "tags": {"addr:city": "Chicago", "addr:housenumber": "435", "addr:postcode": "60654", "addr:state": "IL", "addr:street": "North Clark Street", "amenity": "restaurant", "building": "yes", "cuisine": "barbecue;bbq", "name": "Bub City", "opening_hours": "Mo-Fr 11:00-02:00; Sa 10:00-03:00; Su 10:00-00:00", "phone": "+1-312-610-4200", "website": "http://bub-city.com/"}}, {"type": "way", "id": 304920610, "nodes": [3094904880, 2203936165, 2203936451, 3094904881, 3094904882, 3094904880], "tags": {"amenity": "restaurant", "building": "yes", "name": "The Dawson"}}, {"type": "way", "id": 329775434, "nodes": [3367138861, 3367138857, 3367138858, 3367138860, 3367138859, 3367138862, 3367138861], "tags": {"amenity": "restaurant", "building": "yes"}}]}