{"version": 0.6, "generator": "Overpass API 0.7.56.1004 6cd3eaec", "osm3s": {"timestamp_osm_base": "2020-07-22T05:13:03Z", "copyright": "The data included in this document is from www.openstreetmap.org. The data is made available under ODbL."}, "elements": [{"type": "node", "id": 261148611, "lat": 41.7858999, "lon": -87.6028092}, {"type": "node", "id": 261148612, "lat": 41.7840862, "lon": -87.6027672}, {"type": "node", "id": 261157995, "lat": 41.7858843, "lon": -87.6044301}, {"type": "node", "id": 261157996, "lat": 41.7840685, "lon": -87.6043879}, {"type": "node", "id": 261176766, "lat": 41.7859156, "lon": -87.6011868}, {"type": "node", "id": 261176767, "lat": 41.7841039, "lon": -87.6011387}, {"type": "node", "id": 261192484, "lat": 41.7859533, "lon": -87.5979528}, {"type": "node", "id": 261192485, "lat": 41.7841392, "lon": -87.5979008}, {"type": "node", "id": 261217408, "lat": 41.7841214, "lon": -87.599535}, {"type": "node", "id": 261217409, "lat": 41.7841567, "lon": -87.5962901, "tags": {"highway": "traffic_signals"}}, {"type": "node", "id": 261266040, "lat": 41.7858705, "lon": -87.6058578}, {"type": "node", "id": 261266042, "lat": 41.7860071, "lon": -87.5963328}, {"type": "node", "id": 1395196786, "lat": 41.7859795, "lon": -87.596604}, {"type": "node", "id": 1587883237, "lat": 41.7859329, "lon": -87.5995821, "tags": {"crossing": "no", "highway": "crossing"}}, {"type": "node", "id": 1589258704, "lat": 41.7840598, "lon": -87.6051872}, {"type": "node", "id": 1589258737, "lat": 41.7852525, "lon": -87.605859}, {"type": "node", "id": 1589258757, "lat": 41.7852666, "lon": -87.6051983}, {"type": "node", "id": 1589300557, "lat": 41.7851017, "lon": -87.5963123}, {"type": "node", "id": 1658287430, "lat": 41.7852235, "lon": -87.5963152}, {"type": "node", "id": 1678655361, "lat": 41.7859378, "lon": -87.5992842}, {"type": "node", "id": 1678655478, "lat": 41.7859433, "lon": -87.5988461}, {"type": "node", "id": 1929835281, "lat": 41.784095, "lon": -87.6019586}, {"type": "node", "id": 1929835313, "lat": 41.7841481, "lon": -87.5970796}, {"type": "node", "id": 1929835332, "lat": 41.7841125, "lon": -87.6003491}, {"type": "node", "id": 1929835339, "lat": 41.7840772, "lon": -87.6035912}, {"type": "node", "id": 1929835452, "lat": 41.7841303, "lon": -87.5987184}, {"type": "node", "id": 2372687526, "lat": 41.7858798, "lon": -87.6048969}, {"type": "node", "id": 2372687562, "lat": 41.7858803, "lon": -87.6048432}, {"type": "node", "id": 2406147378, "lat": 41.7859199, "lon": -87.6008144}, {"type": "node", "id": 3034950802, "lat": 41.7803531, "lon": -87.5965069, "tags": {"addr:city": "Chicago", "addr:housenumber": "6300", "addr:postcode": "60637", "addr:street": "South Woodlawn Avenue", "amenity": "cafe", "cuisine": "coffee_shop", "name": "Robust Coffee Lounge", "phone": "+1-773-891-4240", "website": "http://robustcoffeelounge.com/", "wifi": "free"}}, {"type": "node", "id": 3235484969, "lat": 41.7858833, "lon": -87.6045285, "tags": {"highway": "crossing"}}, {"type": "node", "id": 3235484971, "lat": 41.7859502, "lon": -87.5982298, "tags": {"crossing": "no", "highway": "crossing"}}, {"type": "node", "id": 3378979829, "lat": 41.78597, "lon": -87.5962725}, {"type": "node", "id": 3378979830, "lat": 41.78423, "lon": -87.5962296}, {"type": "node", "id": 3378979831, "lat": 41.78427, "lon": -87.5923243}, {"type": "node", "id": 3378979832, "lat": 41.784272, "lon": -87.5922693}, {"type": "node", "id": 3378979833, "lat": 41.78433, "lon": -87.5922184}, {"type": "node", "id": 3378979834, "lat": 41.784916, "lon": -87.5922291}, {"type": "node", "id": 3378979835, "lat": 41.784924, "lon": -87.5914862}, {"type": "node", "id": 3378979837, "lat": 41.786016, "lon": -87.591513}, {"type": "node", "id": 3378979838, "lat": 41.785984, "lon": -87.5945519}, {"type": "node", "id": 3378979839, "lat": 41.785972, "lon": -87.5959225}, {"type": "node", "id": 3378983526, "lat": 41.786014, "lon": -87.5913604}, {"type": "node", "id": 3378983527, "lat": 41.786034, "lon": -87.5894292}, {"type": "node", "id": 3378983528, "lat": 41.78461, "lon": -87.5897511}, {"type": "node", "id": 3378983529, "lat": 41.783746, "lon": -87.5899764}, {"type": "node", "id": 3378983530, "lat": 41.78343, "lon": -87.5900622}, {"type": "node", "id": 3378983531, "lat": 41.783426, "lon": -87.5902124}, {"type": "node", "id": 3378983532, "lat": 41.784654, "lon": -87.5902553}, {"type": "node", "id": 3378983533, "lat": 41.784514, "lon": -87.5904645}, {"type": "node", "id": 3378983534, "lat": 41.784492, "lon": -87.590482}, {"type": "node", "id": 3378983535, "lat": 41.78437, "lon": -87.5907368}, {"type": "node", "id": 3378983536, "lat": 41.784256, "lon": -87.5911257}, {"type": "node", "id": 3378983537, "lat": 41.78425, "lon": -87.5913644}, {"type": "node", "id": 3378983538, "lat": 41.7853, "lon": -87.5913859}, {"type": "node", "id": 3378983539, "lat": 41.786016, "lon": -87.5913939}, {"type": "node", "id": 4047380721, "lat": 41.7841023, "lon": -87.6012858}, {"type": "node", "id": 4047380722, "lat": 41.7841053, "lon": -87.6010158}, {"type": "node", "id": 4047380730, "lat": 41.7859146, "lon": -87.6012933, "tags": {"highway": "crossing"}}, {"type": "node", "id": 4047380731, "lat": 41.7859169, "lon": -87.6010783, "tags": {"highway": "crossing"}}, {"type": "node", "id": 4047380732, "lat": 41.785994, "lon": -87.5964417, "tags": {"highway": "crossing"}}, {"type": "node", "id": 4706138495, "lat": 41.7842732, "lon": -87.6051945}, {"type": "node", "id": 5394546338, "lat": 41.7859224, "lon": -87.5963316, "tags": {"highway": "crossing"}}, {"type": "node", "id": 5827271177, "lat": 41.7859429, "lon": -87.5988791, "tags": {"bus": "yes", "local_ref": "17057", "name": "1111 E 60th Street", "network": "CTA", "operator": "Chicago Transit Authority", "public_transport": "stop_position"}}, {"type": "node", "id": 5827271178, "lat": 41.7859201, "lon": -87.6007936, "tags": {"bus": "yes", "local_ref": "14019", "name": "60th Street & Ellis", "network": "CTA", "operator": "Chicago Transit Authority", "public_transport": "stop_position"}}, {"type": "node", "id": 5827271179, "lat": 41.7859174, "lon": -87.6010195, "tags": {"bus": "yes", "local_ref": "14032", "name": "60th Street & Ellis", "network": "CTA", "operator": "Chicago Transit Authority", "public_transport": "stop_position"}}, {"type": "node", "id": 5827271180, "lat": 41.785893, "lon": -87.6035227, "tags": {"bus": "yes", "local_ref": "18050", "name": "915 E 60th Street", "network": "CTA", "operator": "Chicago Transit Authority", "public_transport": "stop_position"}}, {"type": "node", "id": 5827286705, "lat": 41.7859636, "lon": -87.5972658, "tags": {"bus": "yes", "local_ref": "14020", "name": "60th Street & University", "network": "CTA", "operator": "Chicago Transit Authority", "public_transport": "stop_position"}}, {"type": "node", "id": 5827286706, "lat": 41.7859506, "lon": -87.5981978, "tags": {"bus": "yes", "local_ref": "17903", "name": "60th Street & University", "network": "CTA", "operator": "Chicago Transit Authority", "public_transport": "stop_position"}}, {"type": "node", "id": 5827302680, "lat": 41.7859877, "lon": -87.5965023, "tags": {"bus": "yes", "local_ref": "15433", "name": "60th Street & Woodlawn", "network": "CTA", "operator": "Chicago Transit Authority", "public_transport": "stop_position"}}, {"type": "node", "id": 6682404925, "lat": 41.785917, "lon": -87.6010719}, {"type": "node", "id": 7205249195, "lat": 41.7725927, "lon": -87.5866872, "tags": {"addr:city": "Chicago", "addr:housenumber": "6700", "addr:postcode": "60649", "addr:state": "IL", "addr:street": "South Stony Island Avenue", "amenity": "restaurant", "brand": "Pizza Hut", "brand:wikidata": "Q191615", "brand:wikipedia": "en:Pizza Hut", "cuisine": "pizza", "name": "Pizza Hut", "website": "https://locations.pizzahut.com/il/chicago/6700-s-stony-island-ave"}}, {"type": "node", "id": 7211503770, "lat": 41.7851116, "lon": -87.5963125}, {"type": "way", "id": 145510717, "nodes": [261266042, 4047380732, 5827302680, 1395196786, 5827286705, 261192484, 5827286706, 3235484971, 1678655478, 5827271177, 1678655361, 1587883237, 5827271178, 2406147378, 5827271179, 6682404925, 4047380731, 261176766, 4047380730, 261148611, 5827271180, 261157995, 3235484969, 2372687562, 2372687526, 261266040, 1589258737, 1589258757, 4706138495, 1589258704, 261157996, 1929835339, 261148612, 1929835281, 4047380721, 261176767, 4047380722, 1929835332, 261217408, 1929835452, 261192485, 1929835313, 261217409, 1589300557, 7211503770, 1658287430, 5394546338, 261266042], "tags": {"addr:city": "Chicago", "addr:housenumber": "5801", "addr:postcode": "60637", "addr:state": "IL", "addr:street": "South Ellis Avenue", "amenity": "university", "name": "The University of Chicago", "website": "https://uchicago.edu", "wheelchair": "limited"}}, {"type": "way", "id": 330872732, "nodes": [3378979829, 3378979830, 3378979831, 3378979832, 3378979833, 3378979834, 3378979835, 3378979837, 3378979838, 3378979839, 3378979829], "tags": {"addr:city": "Chicago", "addr:housenumber": "5801", "addr:postcode": "60637", "addr:state": "IL", "addr:street": "South Ellis Avenue", "amenity": "university", "name": "The University of Chicago", "website": "https://uchicago.edu", "wikidata": "Q131252", "wikipedia": "en:University of Chicago"}}, {"type": "way", "id": 330872770, "nodes": [3378983526, 3378983527, 3378983528, 3378983529, 3378983530, 3378983531, 3378983532, 3378983533, 3378983534, 3378983535, 3378983536, 3378983537, 3378983538, 3378983539, 3378983526], "tags": {"addr:city": "Chicago", "addr:housenumber": "5801", "addr:postcode": "60637", "addr:state": "IL", "addr:street": "South Ellis Avenue", "amenity": "university", "name": "The University of Chicago", "website": "https://uchicago.edu", "wikidata": "Q131252", "wikipedia": "en:University of Chicago"}}]}