{"version": 0.6, "generator": "Overpass API 0.7.56.3 eb200aeb", "osm3s": {"timestamp_osm_base": "2020-07-04T02:34:02Z", "copyright": "The data included in this document is from www.openstreetmap.org. The data is made available under ODbL."}, "elements": [{"type": "node", "id": 1755754561, "lat": 41.9540486, "lon": -87.7096177}, {"type": "node", "id": 1755754568, "lat": 41.9540521, "lon": -87.7094982}, {"type": "node", "id": 1755755021, "lat": 41.9542394, "lon": -87.709625}, {"type": "node", "id": 1755755025, "lat": 41.9542406, "lon": -87.7096048}, {"type": "node", "id": 1755755105, "lat": 41.9542791, "lon": -87.7096062}, {"type": "node", "id": 1755755116, "lat": 41.9542813, "lon": -87.7095088}, {"type": "node", "id": 1756009344, "lat": 41.9611871, "lon": -87.7173869}, {"type": "node", "id": 1756009348, "lat": 41.9611888, "lon": -87.7169365}, {"type": "node", "id": 1756009690, "lat": 41.96129, "lon": -87.7173877}, {"type": "node", "id": 1756009692, "lat": 41.9612917, "lon": -87.7169373}, {"type": "node", "id": 2274265367, "lat": 41.9645511, "lon": -87.7088137, "tags": {"addr:city": "Chicago", "addr:housenumber": "4558", "addr:street": "North Kedzie Avenue", "amenity": "cafe", "brand": "Starbucks", "brand:wikidata": "Q37158", "brand:wikipedia": "en:Starbucks", "cuisine": "coffee_shop", "internet_access": "yes", "name": "Starbucks", "phone": "(773) 267-1579"}}, {"type": "node", "id": 2359636164, "lat": 41.9520045, "lon": -87.707771, "tags": {"addr:city": "Chicago", "addr:housenumber": "3859", "addr:postcode": "60618", "addr:street": "North Kedzie Avenue", "amenity": "restaurant", "cuisine": "mexican", "name": "Tamale's Garibay"}}, {"type": "node", "id": 3011054097, "lat": 41.954188, "lon": -87.7033678, "tags": {"addr:city": "Chicago", "addr:housenumber": "3000", "addr:postcode": "60618", "addr:street": "West Irving Park Road", "amenity": "bar", "cuisine": "burger", "name": "LeaderBar Drafthouse & Eatery", "opening_hours": "12:00-00:00", "phone": "+1-773-478-2337", "website": "http://www.leaderbar.com/"}}, {"type": "node", "id": 3015666651, "lat": 41.9537738, "lon": -87.7047186, "tags": {"amenity": "restaurant", "cuisine": "ecuadorian", "name": "Mi Cuidad"}}, {"type": "node", "id": 3015667206, "lat": 41.9537838, "lon": -87.702057, "tags": {"addr:city": "Chicago", "addr:housenumber": "2933", "addr:postcode": "60618", "addr:state": "IL", "addr:street": "West Irving Park Road", "amenity": "cafe", "cuisine": "serbian", "internet_access": "wlan", "name": "Beograd Cafe", "phone": "+1-773-478-7575", "website": "http://beogradchicago.com/index.html"}}, {"type": "node", "id": 3015668079, "lat": 41.9537639, "lon": -87.7060785, "tags": {"amenity": "restaurant", "cuisine": "thai", "name": "Dharma Garden"}}, {"type": "node", "id": 3015668740, "lat": 41.9537699, "lon": -87.7082814, "tags": {"amenity": "pub", "name": "Fuller's Pub"}}, {"type": "node", "id": 3463649049, "lat": 41.961125, "lon": -87.7019463, "tags": {"addr:city": "Chicago", "addr:housenumber": "2925", "addr:postcode": "60618", "addr:state": "Il", "addr:street": "West Montrose Avenue", "amenity": "pub", "microbrewery": "yes", "name": "Breakroom Brewery"}}, {"type": "node", "id": 3660383836, "lat": 41.9540962, "lon": -87.7073132, "tags": {"addr:city": "Chicago", "addr:housenumber": "3144", "addr:postcode": "60618", "addr:state": "IL", "addr:street": "West Irving Park Road", "amenity": "bar", "name": "Serbian Village", "phone": "+1-773-478-2900"}}, {"type": "node", "id": 5711720121, "lat": 41.9613028, "lon": -87.7067528, "tags": {"addr:housenumber": "3120", "addr:postcode": "60618", "amenity": "restaurant", "cuisine": "spanish", "name": "Brasa Roja", "name:en": "Brasa Roja Columbian Cuisine", "name:es": "Brasa Roja Columbian Cuisine", "opening_hours": "Mo-Su 09:00-22:00", "phone": "7738662252", "website": "http://brasarojarestaurant.com"}}, {"type": "node", "id": 6131450052, "lat": 41.9609383, "lon": -87.7099105, "tags": {"addr:city": "Chicago", "addr:housenumber": "3241", "addr:postcode": "60618", "addr:state": "IL", "addr:street": "West Montrose Avenue", "amenity": "bar", "brewery": "yes", "name": "Surge Coffee Bar & Billiards", "phone": "+1-773-961-8096", "website": "https://surgebilliards.com"}}, {"type": "node", "id": 6261234292, "lat": 41.9613634, "lon": -87.7043718, "tags": {"addr:city": "Chicago", "addr:housenumber": "3026", "addr:postcode": "60618", "addr:state": "IL", "addr:street": "West Montrose Avenue", "amenity": "bar", "name": "Angelo\u2019s Wine Bar", "outdoor_seating": "no", "phone": "+1-773-539-0111"}}, {"type": "node", "id": 6269067889, "lat": 41.9559106, "lon": -87.7078551, "tags": {"addr:city": "Chicago", "addr:housenumber": "3154", "addr:postcode": "60618", "addr:state": "IL", "addr:street": "North Kedzie Avenue", "amenity": "bar", "name": "Brickhouse Bar & Grill", "phone": "+1-773-677-9106"}}, {"type": "node", "id": 6282545846, "lat": 41.9539441, "lon": -87.7198151, "tags": {"addr:city": "Chicago", "addr:housenumber": "3658", "addr:postcode": "60618", "addr:state": "IL", "addr:street": "West Irving Park Road", "amenity": "restaurant", "name": "Chicken Works & Salad Company", "phone": "+1-773-588-5488", "website": "http://www.chickenworkschicago.com/"}}, {"type": "node", "id": 6294255482, "lat": 41.9541051, "lon": -87.718301, "tags": {"addr:city": "Chicago", "addr:housenumber": "3608", "addr:postcode": "60618", "addr:state": "IL", "addr:street": "West Irving Park Road", "amenity": "bar", "name": "Hearth And Crust", "phone": "+1-773-516-4800", "website": "https://hearthandcrust.com/"}}, {"type": "node", "id": 6294270411, "lat": 41.9614195, "lon": -87.712106, "tags": {"addr:city": "Chicago", "addr:housenumber": "3332", "addr:postcode": "60618", "addr:state": "IL", "addr:street": "West Montrose Avenue", "amenity": "cafe", "name": "Healthy Smoothies & Nutrition", "phone": "+1-773-588-5367"}}, {"type": "node", "id": 6299470725, "lat": 41.9613885, "lon": -87.7056383, "tags": {"addr:city": "Chicago", "addr:housenumber": "3056", "addr:postcode": "60618", "addr:state": "IL", "addr:street": "West Montrose Avenue", "amenity": "bar", "name": "Peacock Liquors", "phone": "+1-773-588-5148"}}, {"type": "node", "id": 6300570350, "lat": 41.9542487, "lon": -87.7028442, "tags": {"addr:city": "Chicago", "addr:housenumber": "2958", "addr:postcode": "60618", "addr:state": "IL", "addr:street": "West Irving Park Road", "amenity": "restaurant", "name": "Raisu Japanese Fine Dining", "phone": "+1-773-961-7299", "website": "http://www.raisusushi.com/"}}, {"type": "node", "id": 6303044522, "lat": 41.9573408, "lon": -87.7157832, "tags": {"addr:city": "Chicago", "addr:housenumber": "4156", "addr:postcode": "60618", "addr:state": "IL", "addr:street": "North Saint Louis Avenue", "amenity": "bar", "name": "T & A Too", "phone": "+1-312-555-1212"}}, {"type": "node", "id": 6314810327, "lat": 41.9613392, "lon": -87.7134362, "tags": {"addr:city": "Chicago", "addr:housenumber": "3402", "addr:postcode": "60618", "addr:state": "IL", "addr:street": "West Montrose Avenue", "amenity": "restaurant", "name": "Ixcateco Grill", "phone": "+1-773-539-5887", "website": "http://www.ixcatecogrill.com/"}}, {"type": "node", "id": 6315619705, "lat": 41.9559382, "lon": -87.7083207, "tags": {"addr:city": "Chicago", "addr:housenumber": "4100", "addr:postcode": "60618", "addr:state": "IL", "addr:street": "North Kedzie Avenue", "amenity": "bar", "name": "The Kedzie Inn", "phone": "+1-773-942-6771", "website": "https://kedzieinn.com/"}}, {"type": "node", "id": 6316930531, "lat": 41.9542269, "lon": -87.7039226, "tags": {"addr:city": "Chicago", "addr:housenumber": "3014", "addr:postcode": "60618", "addr:state": "IL", "addr:street": "West Irving Park Road", "amenity": "bar", "name": "Windy City Playhouse", "phone": "+1-773-891-8985", "website": "https://windycityplayhouse.com/"}}, {"type": "node", "id": 6320578107, "lat": 41.9541577, "lon": -87.7054052, "tags": {"addr:city": "Chicago", "addr:housenumber": "3058", "addr:postcode": "60618", "addr:state": "IL", "addr:street": "West Irving Park Road", "amenity": "bar", "name": "Lizard\u2019s Liquid Lounge", "phone": "+1-773-463-7599", "website": "http://www.lizardsliquidlounge.com/"}}, {"type": "node", "id": 6320668646, "lat": 41.9539316, "lon": -87.7179009, "tags": {"addr:city": "Chicago", "addr:housenumber": "3600", "addr:postcode": "60618", "addr:state": "IL", "addr:street": "West Irving Park Road", "amenity": "cafe", "name": "Lucky Charm Cafe", "phone": "+1-773-293-7207", "website": "http://luckycharmcafe.com/"}}, {"type": "node", "id": 6322817723, "lat": 41.9610702, "lon": -87.7023111, "tags": {"addr:city": "Chicago", "addr:housenumber": "2933", "addr:postcode": "60618", "addr:state": "Il", "addr:street": "West Montrose Avenue", "amenity": "bar", "name": "Montrose Saloon", "phone": "+1-773-463-7663", "website": "https://www.montrosesaloon.com/"}}, {"type": "way", "id": 163905432, "nodes": [1755754561, 1755755021, 1755755025, 1755755105, 1755755116, 1755754568, 1755754561], "tags": {"addr:housenumber": "3234", "addr:street": "West Irving Park Road", "addr:street:name": "Irving Park", "addr:street:prefix": "West", "addr:street:type": "Road", "amenity": "restaurant", "building": "yes", "building:levels": "2", "name": "Golden Nugget"}}, {"type": "way", "id": 163945047, "nodes": [1756009344, 1756009690, 1756009692, 1756009348, 1756009344], "tags": {"addr:city": "Chicago", "addr:housenumber": "3532", "addr:postcode": "60618", "addr:state": "IL", "addr:street": "West Montrose Avenue", "addr:street:name": "Montrose", "addr:street:prefix": "West", "addr:street:type": "Avenue", "amenity": "restaurant", "building": "yes", "building:levels": "3", "name": "Restaurant Los Molcajetes", "phone": "+1-773-267-1834"}}]}