{"version": 0.6, "generator": "Overpass API 0.7.56.1004 6cd3eaec", "osm3s": {"timestamp_osm_base": "2020-07-22T03:21:05Z", "copyright": "The data included in this document is from www.openstreetmap.org. The data is made available under ODbL."}, "elements": [{"type": "node", "id": 2201072801, "lat": 42.0080084, "lon": -87.6664311}, {"type": "node", "id": 2201072810, "lat": 42.0080123, "lon": -87.6662492}, {"type": "node", "id": 2201072880, "lat": 42.0080363, "lon": -87.6649399}, {"type": "node", "id": 2201072894, "lat": 42.0080393, "lon": -87.6647606}, {"type": "node", "id": 2201073213, "lat": 42.0082034, "lon": -87.6648987}, {"type": "node", "id": 2201073217, "lat": 42.0082054, "lon": -87.6647644}, {"type": "node", "id": 2201073451, "lat": 42.0083044, "lon": -87.6649481}, {"type": "node", "id": 2201073453, "lat": 42.008305, "lon": -87.6649014}, {"type": "node", "id": 2201074220, "lat": 42.0084739, "lon": -87.666445}, {"type": "node", "id": 2201074224, "lat": 42.0084776, "lon": -87.6662665}, {"type": "node", "id": 2201092919, "lat": 42.0161525, "lon": -87.6686338}, {"type": "node", "id": 2201092922, "lat": 42.0161539, "lon": -87.6685506}, {"type": "node", "id": 2201093678, "lat": 42.0164545, "lon": -87.6685548}, {"type": "node", "id": 2201093681, "lat": 42.016455, "lon": -87.6686431}, {"type": "node", "id": 2201099531, "lat": 42.0191354, "lon": -87.6773646}, {"type": "node", "id": 2201099535, "lat": 42.0191376, "lon": -87.6774989}, {"type": "node", "id": 2201099626, "lat": 42.0193083, "lon": -87.6773592}, {"type": "node", "id": 2201099627, "lat": 42.0193104, "lon": -87.6774935}, {"type": "node", "id": 2204713451, "lat": 42.0106061, "lon": -87.6602281}, {"type": "node", "id": 2204713453, "lat": 42.0106462, "lon": -87.6602737}, {"type": "node", "id": 2204713455, "lat": 42.0106557, "lon": -87.660257}, {"type": "node", "id": 2204713457, "lat": 42.0106578, "lon": -87.6601466}, {"type": "node", "id": 2204713459, "lat": 42.010675, "lon": -87.6602807}, {"type": "node", "id": 2204713461, "lat": 42.0106883, "lon": -87.6602052}, {"type": "node", "id": 2204713462, "lat": 42.0106978, "lon": -87.6601903}, {"type": "node", "id": 2204713466, "lat": 42.0107076, "lon": -87.6602289}, {"type": "node", "id": 2990179090, "lat": 42.010791, "lon": -87.67421, "tags": {"amenity": "restaurant", "cuisine": "ice_cream", "name": "Something North"}}, {"type": "node", "id": 4069098504, "lat": 42.0124817, "lon": -87.6744293, "tags": {"addr:housenumber": "7137", "addr:street": "North Clark Street", "amenity": "restaurant", "contact:phone": "773-961-7676", "name": "Markello's Dining Restaurant", "website": "http://markellosonline.com/"}}, {"type": "node", "id": 4999003045, "lat": 42.0106314, "lon": -87.6601889, "tags": {"entrance": "yes"}}, {"type": "node", "id": 6280611838, "lat": 42.0161558, "lon": -87.6683124, "tags": {"addr:city": "Chicago", "addr:housenumber": "1500", "addr:postcode": "60626", "addr:state": "IL", "addr:street": "West Jarvis Avenue", "amenity": "cafe", "name": "Charmers Cafe", "phone": "+1-773-743-2233", "website": "http://charmerscafe.com/"}}, {"type": "node", "id": 6291637578, "lat": 42.00826, "lon": -87.6665329, "tags": {"addr:city": "Chicago", "addr:housenumber": "1412", "addr:postcode": "60626", "addr:state": "IL", "addr:street": "West Morse Avenue", "amenity": "bar", "name": "Fudy T\u2019s", "phone": "+1-773-856-0328", "website": "http://fudytultrabar.com/"}}, {"type": "node", "id": 6298772685, "lat": 42.0099898, "lon": -87.6745597, "tags": {"addr:city": "Chicago", "addr:housenumber": "7030", "addr:postcode": "60626", "addr:state": "IL", "addr:street": "North Clark Street", "amenity": "bar", "name": "Silvana Bar", "phone": "+1-773-465-8590"}}, {"type": "node", "id": 6298916801, "lat": 42.0192074, "lon": -87.6720795, "tags": {"addr:city": "Chicago", "addr:housenumber": "1615", "addr:postcode": "60626", "addr:state": "IL", "addr:street": "West Howard Street", "amenity": "cafe", "name": "Sol Cafe", "phone": "+1-773-961-8289", "website": "http://www.solcafechi.com/"}}, {"type": "node", "id": 6315237873, "lat": 42.0083767, "lon": -87.6663564, "tags": {"addr:city": "Chicago", "addr:housenumber": "6962", "addr:postcode": "60626", "addr:state": "IL", "addr:street": "North Glenwood Avenue", "amenity": "bar", "name": "The Glenwood", "phone": "+1-773-764-7363", "website": "http://www.theglenwoodbar.com/cgi-sys/suspendedpage.cgi"}}, {"type": "node", "id": 6317044756, "lat": 42.0089187, "lon": -87.6617454, "tags": {"addr:city": "Chicago", "addr:housenumber": "6977", "addr:postcode": "60626", "addr:state": "IL", "addr:street": "North Sheridan Road", "amenity": "cafe", "name": "XO Marshmallow", "phone": "+1-872-484-0011", "website": "https://www.xomarshmallow.com/"}}, {"type": "node", "id": 6318237820, "lat": 42.0087285, "lon": -87.6663449, "tags": {"addr:city": "Chicago", "addr:housenumber": "6970", "addr:postcode": "60626", "addr:state": "IL", "addr:street": "North Glenwood Avenue", "amenity": "bar", "name": "Le Piano", "phone": "+1-773-209-7631", "website": "https://www.lepianochicago.com/"}}, {"type": "node", "id": 6318383044, "lat": 42.0141796, "lon": -87.6637602, "tags": {"addr:city": "Chicago", "addr:housenumber": "7301", "addr:postcode": "60626", "addr:state": "IL", "addr:street": "North Sheridan Road", "amenity": "bar", "name": "Lighthouse Tavern", "phone": "+1-773-764-9414"}}, {"type": "node", "id": 6323105128, "lat": 42.0089538, "lon": -87.6615548, "tags": {"addr:city": "Chicago", "addr:housenumber": "6981", "addr:postcode": "60626", "addr:state": "IL", "addr:street": "North Sheridan Road", "amenity": "cafe", "name": "Nibbles and Nosh", "phone": "+1-872-208-6004", "website": "https://nibblesandnoshchicago.com/"}}, {"type": "node", "id": 6412790908, "lat": 42.0097903, "lon": -87.6744103, "tags": {"addr:city": "Chicago", "addr:housenumber": "7024", "addr:postcode": "60626", "addr:state": "IL", "addr:street": "North Clark Street", "amenity": "restaurant", "cuisine": "mexican", "name": "Tamales Lo Mejor De Guerrero", "opening_hours": "Tu-Su 05:00-20:00", "phone": "+1-773-338-6450"}}, {"type": "node", "id": 6412790976, "lat": 42.0099178, "lon": -87.6739865, "tags": {"addr:city": "Chicago", "addr:housenumber": "7027", "addr:postcode": "60626", "addr:state": "IL", "addr:street": "North Clark Street", "amenity": "restaurant", "cuisine": "mexican", "name": "El Sabor Pobloano", "opening_hours": "Su-Mo 08:00-21:00; We-Th 08:00-21:00; Fr-Sa 08:00-22:00"}}, {"type": "node", "id": 6412792357, "lat": 42.0097145, "lon": -87.6744344, "tags": {"addr:city": "Chicago", "addr:housenumber": "7022", "addr:postcode": "60626", "addr:state": "IL", "addr:street": "North Clark Street", "amenity": "restaurant", "cuisine": "mexican", "name": "La Choza Mexican Grill", "phone": "+1-773-465-2162", "website": "Su-Th 10:00-00:00;Fr-Sa 10:00-02:00"}}, {"type": "node", "id": 6412795318, "lat": 42.0096687, "lon": -87.6739181, "tags": {"addr:city": "Chicago", "addr:housenumber": "7021", "addr:postcode": "60626", "addr:state": "IL", "addr:street": "North Clark Street", "amenity": "restaurant", "cuisine": "mexican", "name": "Birrier\u00eda Y Carnitas El Gallito", "opening_hours": "Mo-Su 09:00-21:00", "phone": "+1-773-901-9067", "website": "http://orderbirreriaycarnitaselgallito.com"}}, {"type": "node", "id": 6412805955, "lat": 42.015552, "lon": -87.6753864, "tags": {"addr:city": "Chicago", "addr:housenumber": "7360", "addr:postcode": "60626", "addr:state": "IL", "addr:street": "North Clark Street", "amenity": "restaurant", "cuisine": "mexican;tacos", "name": "Restaurante Cuetzala Gro", "phone": "+1-773-262-9417", "website": "http://www.restaurantcuetzala.com"}}, {"type": "node", "id": 6412818519, "lat": 42.0193762, "lon": -87.6669593, "tags": {"addr:city": "Chicago", "addr:housenumber": "1418", "addr:postcode": "60626", "addr:state": "IL", "addr:street": "West Howard Street", "amenity": "restaurant", "name": "TJam Kitchen", "phone": "+1-773-381-8011"}}, {"type": "node", "id": 6412822104, "lat": 42.0080429, "lon": -87.6667483, "tags": {"addr:city": "Chicago", "addr:housenumber": "1416", "addr:postcode": "60626", "addr:state": "IL", "addr:street": "West Morse Avenue", "amenity": "restaurant", "cuisine": "mexican", "name": "South Of The Border Restaurant & Bar", "phone": "+1-773-856-0427"}}, {"type": "node", "id": 6412822257, "lat": 42.0104528, "lon": -87.6740973, "tags": {"addr:city": "Chicago", "addr:housenumber": "7047", "addr:postcode": "60626", "addr:state": "IL", "addr:street": "North Clark Street", "amenity": "restaurant", "cuisine": "mexican", "name": "El Famous Burrito", "phone": "+1-773-465-0377"}}, {"type": "node", "id": 6412827080, "lat": 42.0103581, "lon": -87.674002, "tags": {"addr:city": "Chicago", "addr:housenumber": "7043", "addr:postcode": "60626", "addr:state": "IL", "addr:street": "North Clark Street", "amenity": "restaurant", "cuisine": "tacos;mexican", "name": "Rocky's Tacos", "phone": "+1-773-274-4555"}}, {"type": "node", "id": 6412828571, "lat": 42.0123579, "lon": -87.6749547, "tags": {"addr:city": "Chicago", "addr:housenumber": "7138", "addr:postcode": "60626", "addr:state": "IL", "addr:street": "North Clark Street", "amenity": "restaurant", "cuisine": "mexican", "name": "Su Taqueria El Rey Del Taco y Sus Mariscos", "phone": "+1-773-274-9004"}}, {"type": "node", "id": 6651820248, "lat": 42.0093864, "lon": -87.6730635, "tags": {"addr:city": "Chicago", "addr:housenumber": "1716", "addr:postcode": "60626", "addr:state": "IL", "addr:street": "West Lunt Avenue", "amenity": "restaurant", "cuisine": "indian;vegetarean", "name": "Krishna Lunch", "phone": "+1-773-973-0900", "website": "http://www.iskconchicago.com/programs/krishna-lunch/"}}, {"type": "node", "id": 6981473578, "lat": 42.015884, "lon": -87.6698798, "tags": {"addr:city": "Chicago", "addr:housenumber": "1547", "addr:postcode": "60626", "addr:state": "IL", "addr:street": "West Jarvis Avenue", "amenity": "restaurant", "description": "Relaxed, modern eatery offering Italian starters, salads, pasta & pizza slices over the counter.", "name": "Anto Pizza & Pasta Chicago", "opening_hours": "Mo-Th, Su 12:00-21:00; Fr, Sa 12:00-22:00", "phone": "+1 773-942-7427"}}, {"type": "way", "id": 209956969, "nodes": [2201073451, 2201073453, 2201073213, 2201073217, 2201072894, 2201072880, 2201073451], "tags": {"addr:city": "Chicago", "addr:housenumber": "1326", "addr:postcode": "60626", "addr:street": "West Morse Avenue", "addr:street:name": "Morse", "addr:street:prefix": "West", "addr:street:type": "Avenue", "amenity": "restaurant", "building": "yes", "building:levels": "1", "chicago:building_id": "842453", "cuisine": "pizza", "name": "J.B. Alberto's", "phone": "017739731700", "website": "http://jbalbertos.com"}}, {"type": "way", "id": 209957070, "nodes": [2201074220, 2201074224, 2201072810, 2201072801, 2201074220], "tags": {"addr:city": "Chicago", "addr:housenumber": "1406", "addr:postcode": "60626", "addr:state": "IL", "addr:street": "West Morse Avenue", "addr:street:name": "Morse", "addr:street:prefix": "West", "addr:street:type": "Avenue", "amenity": "bar", "building": "yes", "building:levels": "1", "chicago:building_id": "842438", "name": "Pub 626", "phone": "+1-773-764-0626", "website": "http://www.pub626.com/"}}, {"type": "way", "id": 209957272, "nodes": [2201093681, 2201093678, 2201092922, 2201092919, 2201093681], "tags": {"addr:city": "Chicago", "addr:housenumber": "1508", "addr:postcode": "60626", "addr:state": "IL", "addr:street": "West Jarvis Avenue", "addr:street:name": "Jarvis", "addr:street:prefix": "West", "addr:street:type": "Avenue", "amenity": "bar", "building": "yes", "building:levels": "1", "chicago:building_id": "841858", "name": "R Public House", "phone": "+1-872-208-7916", "website": "http://rpublichouse.com/"}}, {"type": "way", "id": 209958942, "nodes": [2201099531, 2201099535, 2201099627, 2201099626, 2201099531], "tags": {"addr:city": "Chicago", "addr:housenumber": "1841", "addr:postcode": "60626", "addr:street": "West Howard Street", "addr:street:name": "Howard", "addr:street:prefix": "West", "addr:street:type": "Street", "amenity": "restaurant", "building": "yes", "building:levels": "1", "chicago:building_id": "440", "cuisine": "chicken", "name": "Buffalo Joe's"}}, {"type": "way", "id": 210396329, "nodes": [2204713451, 2204713453, 2204713455, 2204713459, 2204713466, 2204713461, 2204713462, 2204713457, 4999003045, 2204713451], "tags": {"amenity": "restaurant", "building": "yes", "building:levels": "1", "chicago:building_id": "8552", "contact:website": "http://www.elcampeonpinacolada.com/", "internet_access": "no", "name": "El Campe\u00f3n Pi\u00f1a Colada", "opening_hours": "\"Weather permitting\"", "outdoor_seating": "yes"}}]}