{"version": 0.6, "generator": "Overpass API 0.7.56.3 eb200aeb", "osm3s": {"timestamp_osm_base": "2020-07-04T01:52:02Z", "copyright": "The data included in this document is from www.openstreetmap.org. The data is made available under ODbL."}, "elements": [{"type": "node", "id": 34877685, "lat": 41.9566801, "lon": -87.7359515}, {"type": "node", "id": 266648820, "lat": 41.9560978, "lon": -87.7347805}, {"type": "node", "id": 310319075, "lat": 41.9549797, "lon": -87.7328025}, {"type": "node", "id": 310319162, "lat": 41.9578366, "lon": -87.737989}, {"type": "node", "id": 1282296213, "lat": 41.9561318, "lon": -87.7347546}, {"type": "node", "id": 1282296222, "lat": 41.9550187, "lon": -87.7328007}, {"type": "node", "id": 1282296224, "lat": 41.9556067, "lon": -87.7338312}, {"type": "node", "id": 1282296272, "lat": 41.9578835, "lon": -87.7379933}, {"type": "node", "id": 1282296278, "lat": 41.9567117, "lon": -87.7359172}, {"type": "node", "id": 1282296349, "lat": 41.9558859, "lon": -87.7343221}, {"type": "node", "id": 1282296385, "lat": 41.9555007, "lon": -87.7337215}, {"type": "node", "id": 1282296408, "lat": 41.9569291, "lon": -87.7363149}, {"type": "node", "id": 1743362366, "lat": 41.9485109, "lon": -87.7399363}, {"type": "node", "id": 1743362409, "lat": 41.9485193, "lon": -87.7399546}, {"type": "node", "id": 1743362669, "lat": 41.948555, "lon": -87.7399727}, {"type": "node", "id": 1743363082, "lat": 41.9486, "lon": -87.7399098}, {"type": "node", "id": 1743363161, "lat": 41.9486055, "lon": -87.7399171}, {"type": "node", "id": 1743363787, "lat": 41.9486719, "lon": -87.7397584}, {"type": "node", "id": 1743363906, "lat": 41.9486982, "lon": -87.7398023}, {"type": "node", "id": 1743380087, "lat": 41.9536271, "lon": -87.7414366}, {"type": "node", "id": 1743380090, "lat": 41.9536279, "lon": -87.7413384}, {"type": "node", "id": 1743380204, "lat": 41.9537039, "lon": -87.7414414}, {"type": "node", "id": 1743380211, "lat": 41.9537162, "lon": -87.7414266}, {"type": "node", "id": 1743380496, "lat": 41.953955, "lon": -87.7414317}, {"type": "node", "id": 1743380498, "lat": 41.9539564, "lon": -87.7413446}, {"type": "node", "id": 1745050038, "lat": 41.9530466, "lon": -87.7510885}, {"type": "node", "id": 1745050041, "lat": 41.9530476, "lon": -87.751004}, {"type": "node", "id": 1745050117, "lat": 41.9531056, "lon": -87.7510788}, {"type": "node", "id": 1745050118, "lat": 41.9531056, "lon": -87.751088}, {"type": "node", "id": 1745050172, "lat": 41.9531523, "lon": -87.7510931}, {"type": "node", "id": 1745050175, "lat": 41.9531536, "lon": -87.7510802}, {"type": "node", "id": 1745050295, "lat": 41.9532374, "lon": -87.7510941}, {"type": "node", "id": 1745050296, "lat": 41.9532383, "lon": -87.7510059}, {"type": "node", "id": 2262977450, "lat": 41.9533541, "lon": -87.7378643, "tags": {"amenity": "cafe", "cuisine": "coffee_shop", "name": "Starbucks", "operator": "Starbucks Corporation", "shop": "beverages", "source": "local_knowledge", "wifi": "free"}}, {"type": "node", "id": 2274089912, "lat": 41.9531743, "lon": -87.7510333, "tags": {"addr:city": "Chicago", "addr:housenumber": "4929", "addr:postcode": "60641", "addr:state": "IL", "addr:street": "West Irving Park Road", "amenity": "restaurant", "cuisine": "mexican;tacos", "name": "Tata's Tacos", "website": "tatastacos.com"}}, {"type": "node", "id": 2274089913, "lat": 41.9535803, "lon": -87.7508294, "tags": {"addr:city": "Chicago", "addr:street": "West Irving Park Road", "amenity": "restaurant", "cuisine": "brazilian;steak_house", "name": "Las Tablas"}}, {"type": "node", "id": 2274164962, "lat": 41.9535859, "lon": -87.7530918, "tags": {"addr:city": "Chicago", "addr:street": "West Irving Park Road", "amenity": "restaurant", "cuisine": "seafood", "name": "Frank's Shrimp House"}}, {"type": "node", "id": 2274184613, "lat": 41.9523262, "lon": -87.7476877, "tags": {"addr:city": "Chicago", "addr:street": "North Cicero Avenue", "amenity": "restaurant", "cuisine": "Sub,_hot_dogs", "name": "Mr. Submarine"}}, {"type": "node", "id": 2274184616, "lat": 41.9518201, "lon": -87.747461, "tags": {"addr:city": "Chicago", "addr:street": "North Cicero Avenue", "amenity": "restaurant", "cuisine": "chinese", "name": "Hong Kong Restaurant"}}, {"type": "node", "id": 3988701726, "lat": 41.9540976, "lon": -87.7487651, "tags": {"amenity": "restaurant", "name": "Community Tavern"}}, {"type": "node", "id": 4087337669, "lat": 41.9547129, "lon": -87.7498426, "tags": {"amenity": "restaurant", "name": "Subway"}}, {"type": "node", "id": 4087337679, "lat": 41.9547429, "lon": -87.7490264, "tags": {"amenity": "restaurant", "name": "Lomas Verdes"}}, {"type": "node", "id": 4090881252, "lat": 41.9536254, "lon": -87.7503536, "tags": {"amenity": "restaurant", "cuisine": "asian", "name": "Ysabel\u2019s Grill"}}, {"type": "node", "id": 4090881268, "lat": 41.9527417, "lon": -87.747483, "tags": {"amenity": "restaurant", "name": "Shila's"}}, {"type": "node", "id": 4090881270, "lat": 41.9526032, "lon": -87.7474843, "tags": {"amenity": "restaurant", "name": "Six Corners Bistro"}}, {"type": "node", "id": 5791127121, "lat": 41.9538493, "lon": -87.7342629, "tags": {"addr:city": "Chicago", "addr:housenumber": "4240", "addr:postcode": "60641", "addr:state": "IL", "addr:street": "West Irving Park Road", "amenity": "pub", "name": "ERIS Brewery amd Cider House", "outdoor_seating": "yes", "phone": "+1-773-943-6200", "website": "https://www.erischicago.com"}}, {"type": "node", "id": 6261302022, "lat": 41.9572465, "lon": -87.7517861, "tags": {"addr:city": "Chicago", "addr:housenumber": "4208", "addr:postcode": "60641", "addr:state": "IL", "addr:street": "North Milwaukee Avenue", "amenity": "cafe", "name": "Antojitos Colombianos", "phone": "+1-773-685-2100"}}, {"type": "node", "id": 6267140751, "lat": 41.9461358, "lon": -87.7361651, "tags": {"addr:city": "Chicago", "addr:housenumber": "4323", "addr:postcode": "60641", "addr:state": "IL", "addr:street": "North Lowell Avenue", "amenity": "cafe", "cuisine": "sandwiches;coffee_shop;coffee", "diet:vegetarian": "no", "name": "Bia\u2019s Caf\u00e9 Marianao", "opening_hours": "Mo-Sa 06:00-18:00; Su 08:00-16:00", "phone": "+1-773-993-0178"}}, {"type": "node", "id": 6282669896, "lat": 41.9541352, "lon": -87.7475371, "tags": {"addr:city": "Chicago", "addr:housenumber": "4018", "addr:postcode": "60641", "addr:state": "IL", "addr:street": "North Cicero Avenue", "amenity": "cafe", "name": "City News Cafe", "phone": "+1-773-545-7377", "website": "http://citynewsstand.com/"}}, {"type": "node", "id": 6322558056, "lat": 41.9517836, "lon": -87.7475295, "tags": {"addr:city": "Chicago", "addr:housenumber": "3906", "addr:postcode": "60641", "addr:state": "IL", "addr:street": "North Cicero Avenue", "amenity": "bar", "name": "MCM Pub and Eatery", "phone": "+1-773-736-2644", "website": "http://mcmpub.com/"}}, {"type": "node", "id": 6322565621, "lat": 41.9537514, "lon": -87.7366287, "tags": {"addr:city": "Chicago", "addr:housenumber": "4328", "addr:postcode": "60641", "addr:state": "IL", "addr:street": "West Irving Park Road", "amenity": "bar", "name": "McNamara\u2019s", "phone": "+1-77-725-1800", "website": "http://www.mcnamaras.com/"}}, {"type": "node", "id": 7087369219, "lat": 41.9531266, "lon": -87.7526236, "tags": {"amenity": "pub", "brewery": "yes", "name": "Foundation Tavern and Grill", "outdoor_seating": "yes"}}, {"type": "way", "id": 24521463, "nodes": [266648820, 1282296385, 310319075], "tags": {"electrified": "rail", "frequency": "0", "gauge": "1435", "name": "O'Hare Branch", "oneway": "yes", "operator": "Chicago Transit Authority", "railway": "subway", "voltage": "600"}}, {"type": "way", "id": 24521464, "nodes": [34877685, 266648820], "tags": {"electrified": "rail", "frequency": "0", "gauge": "1435", "layer": "-1", "name": "O'Hare Branch", "oneway": "yes", "operator": "Chicago Transit Authority", "railway": "subway", "tunnel": "yes", "voltage": "600"}}, {"type": "way", "id": 28256535, "nodes": [310319162, 34877685], "tags": {"electrified": "rail", "frequency": "0", "gauge": "1435", "name": "O'Hare Branch", "oneway": "yes", "operator": "Chicago Transit Authority", "railway": "subway", "voltage": "600"}}, {"type": "way", "id": 112926179, "nodes": [1282296222, 1282296224, 1282296349, 1282296213], "tags": {"electrified": "rail", "frequency": "0", "gauge": "1435", "name": "O'Hare Branch", "oneway": "yes", "operator": "Chicago Transit Authority", "railway": "subway", "voltage": "600"}}, {"type": "way", "id": 162449023, "nodes": [1743362366, 1743362409, 1743362669, 1743363161, 1743363082, 1743363906, 1743363787, 1743362366], "tags": {"addr:city": "Chicago", "addr:housenumber": "3734", "addr:postcode": "60641", "addr:state": "IL", "addr:street": "North Milwaukee Avenue", "addr:street:name": "Milwaukee", "amenity": "bar", "name": "The Booze Hound", "phone": "+1-773-736-1010"}}, {"type": "way", "id": 162452435, "nodes": [1743380204, 1743380211, 1743380496, 1743380498, 1743380090, 1743380087, 1743380204], "tags": {"addr:city": "Chicago", "addr:housenumber": "4520", "addr:state": "IL", "addr:street": "West Irving Park Road", "addr:street:name": "Irving Park", "addr:street:prefix": "West", "addr:street:type": "Road", "amenity": "restaurant", "building": "yes", "building:levels": "2", "chicago:building_id": "846310", "cuisine": "pizza", "name": "Chicago's Pizza"}}, {"type": "way", "id": 162642513, "nodes": [1745050038, 1745050118, 1745050117, 1745050175, 1745050172, 1745050295, 1745050296, 1745050041, 1745050038], "tags": {"addr:housenumber": "4929", "addr:street": "West Irving Park Road", "addr:street:name": "Irving Park", "addr:street:prefix": "West", "addr:street:type": "Road", "amenity": "restaurant", "building": "yes", "building:levels": "2", "chicago:building_id": "156020"}}, {"type": "way", "id": 198961574, "nodes": [1282296213, 1282296278], "tags": {"electrified": "rail", "frequency": "0", "gauge": "1435", "layer": "-1", "name": "O'Hare Branch", "oneway": "yes", "operator": "Chicago Transit Authority", "railway": "subway", "tunnel": "yes", "voltage": "600"}}, {"type": "way", "id": 198961575, "nodes": [1282296278, 1282296408, 1282296272], "tags": {"electrified": "rail", "frequency": "0", "gauge": "1435", "name": "O'Hare Branch", "oneway": "yes", "operator": "Chicago Transit Authority", "railway": "subway", "voltage": "600"}}]}