{"version": 0.6, "generator": "Overpass API 0.7.56.3 eb200aeb", "osm3s": {"timestamp_osm_base": "2020-07-17T21:20:03Z", "copyright": "The data included in this document is from www.openstreetmap.org. The data is made available under ODbL."}, "elements": [{"type": "node", "id": 1724441444, "lat": 41.9106374, "lon": -87.6345311, "tags": {"addr:city": "Chicago", "addr:housename": "1551", "addr:housenumber": "1551", "addr:postcode": "60610", "addr:state": "IL", "addr:street": "North Wells Street", "amenity": "restaurant", "cuisine": "pizza;italian", "name": "Dinotto", "opening_hours": "Tu-Th 16:30-22:00; Fr-Sa 12:00-22:00; Su 16:00-22:00", "phone": "+1-312-202-0302", "website": "https://dinotto.business.site/"}}, {"type": "node", "id": 1724441449, "lat": 41.9105842, "lon": -87.6345302, "tags": {"addr:city": "Chicago", "addr:country": "US", "addr:housenumber": "1549", "addr:state": "IL", "addr:street": "North Wells Street", "amenity": "restaurant", "cuisine": "sandwich", "name": "Einstein Bagels"}}, {"type": "node", "id": 2084949719, "lat": 41.8952165, "lon": -87.6344593, "tags": {"addr:city": "Chicago", "addr:housenumber": "710", "addr:postcode": "60654", "addr:state": "IL", "addr:street": "North Wells Street", "amenity": "restaurant", "name": "Prosecco", "opening_hours": "Mo-Th 11:30-22:00; Fr 11:30-23:00; Sa 17:00-23:00", "phone": "+1-312-951-9500", "website": "http://www.prosecco.us.com"}}, {"type": "node", "id": 2166039854, "lat": 41.9106416, "lon": -87.6351225}, {"type": "node", "id": 2166039855, "lat": 41.9106425, "lon": -87.635053}, {"type": "node", "id": 2166039857, "lat": 41.9106453, "lon": -87.6348451}, {"type": "node", "id": 2166039861, "lat": 41.9106971, "lon": -87.6351239}, {"type": "node", "id": 2166039862, "lat": 41.9107008, "lon": -87.6348464}, {"type": "node", "id": 2203995852, "lat": 41.9087776, "lon": -87.652174}, {"type": "node", "id": 2203995936, "lat": 41.9088731, "lon": -87.6522512}, {"type": "node", "id": 2203996004, "lat": 41.908952, "lon": -87.6517844}, {"type": "node", "id": 2203996117, "lat": 41.9090475, "lon": -87.6518616}, {"type": "node", "id": 2203998611, "lat": 41.9101419, "lon": -87.6491644}, {"type": "node", "id": 2203998642, "lat": 41.9101919, "lon": -87.6492343}, {"type": "node", "id": 2203998691, "lat": 41.9103457, "lon": -87.6489012}, {"type": "node", "id": 2203998709, "lat": 41.91038, "lon": -87.6506163}, {"type": "node", "id": 2203998712, "lat": 41.9103813, "lon": -87.6503404}, {"type": "node", "id": 2203998719, "lat": 41.9103958, "lon": -87.648971}, {"type": "node", "id": 2203998741, "lat": 41.9104459, "lon": -87.6436874}, {"type": "node", "id": 2203998747, "lat": 41.9104492, "lon": -87.6435478}, {"type": "node", "id": 2203998749, "lat": 41.9104542, "lon": -87.6436892}, {"type": "node", "id": 2203998788, "lat": 41.9105184, "lon": -87.6436407}, {"type": "node", "id": 2203998793, "lat": 41.9105206, "lon": -87.6435507}, {"type": "node", "id": 2203998810, "lat": 41.9105404, "lon": -87.6506176}, {"type": "node", "id": 2203998811, "lat": 41.9105433, "lon": -87.6503417}, {"type": "node", "id": 2203998812, "lat": 41.9105435, "lon": -87.6502776}, {"type": "node", "id": 2203998908, "lat": 41.9106836, "lon": -87.6503386}, {"type": "node", "id": 2203998910, "lat": 41.9106838, "lon": -87.6502787}, {"type": "node", "id": 2203998933, "lat": 41.910726, "lon": -87.6502951}, {"type": "node", "id": 2203998935, "lat": 41.9107259, "lon": -87.650339}, {"type": "node", "id": 2203998973, "lat": 41.9107911, "lon": -87.6502956}, {"type": "node", "id": 2207598743, "lat": 41.8926965, "lon": -87.6346505}, {"type": "node", "id": 2207598744, "lat": 41.8927009, "lon": -87.6342464}, {"type": "node", "id": 2207598826, "lat": 41.892857, "lon": -87.6346542}, {"type": "node", "id": 2207598828, "lat": 41.8928607, "lon": -87.6343585}, {"type": "node", "id": 2207598851, "lat": 41.8929156, "lon": -87.6343598}, {"type": "node", "id": 2207598853, "lat": 41.8929163, "lon": -87.6342514}, {"type": "node", "id": 2207599468, "lat": 41.8940894, "lon": -87.6346794}, {"type": "node", "id": 2207599470, "lat": 41.894094, "lon": -87.6343084}, {"type": "node", "id": 2207599480, "lat": 41.8941062, "lon": -87.6342844}, {"type": "node", "id": 2207599544, "lat": 41.8941923, "lon": -87.6346819}, {"type": "node", "id": 2207599546, "lat": 41.8941953, "lon": -87.6345074}, {"type": "node", "id": 2207599565, "lat": 41.8942214, "lon": -87.634509}, {"type": "node", "id": 2207599566, "lat": 41.8942256, "lon": -87.6342867}, {"type": "node", "id": 2207599830, "lat": 41.8945803, "lon": -87.6375406}, {"type": "node", "id": 2207599831, "lat": 41.8945843, "lon": -87.637262}, {"type": "node", "id": 2207599832, "lat": 41.8945842, "lon": -87.6372747}, {"type": "node", "id": 2207599896, "lat": 41.8946462, "lon": -87.6375424}, {"type": "node", "id": 2207599898, "lat": 41.8946479, "lon": -87.6374296}, {"type": "node", "id": 2207599903, "lat": 41.8946573, "lon": -87.6374299}, {"type": "node", "id": 2207599904, "lat": 41.8946598, "lon": -87.637264}, {"type": "node", "id": 2207600074, "lat": 41.8948989, "lon": -87.6340039}, {"type": "node", "id": 2207600075, "lat": 41.8948992, "lon": -87.6336072}, {"type": "node", "id": 2207600078, "lat": 41.8949031, "lon": -87.6340131}, {"type": "node", "id": 2207600082, "lat": 41.89491, "lon": -87.6340148}, {"type": "node", "id": 2207600086, "lat": 41.8949223, "lon": -87.6340092}, {"type": "node", "id": 2207600101, "lat": 41.8949511, "lon": -87.6340107}, {"type": "node", "id": 2207600104, "lat": 41.8949528, "lon": -87.6336085}, {"type": "node", "id": 2207600283, "lat": 41.8951912, "lon": -87.6368789}, {"type": "node", "id": 2207600363, "lat": 41.8953221, "lon": -87.6354538}, {"type": "node", "id": 2207600364, "lat": 41.8953222, "lon": -87.6354666}, {"type": "node", "id": 2207600366, "lat": 41.8953236, "lon": -87.6354721}, {"type": "node", "id": 2207600370, "lat": 41.8953268, "lon": -87.6355492}, {"type": "node", "id": 2207600423, "lat": 41.8954649, "lon": -87.6368842}, {"type": "node", "id": 2207600427, "lat": 41.8954704, "lon": -87.6354724}, {"type": "node", "id": 2207600428, "lat": 41.8954731, "lon": -87.6354577}, {"type": "node", "id": 2207600429, "lat": 41.8954764, "lon": -87.6355531}, {"type": "node", "id": 2207600432, "lat": 41.8954787, "lon": -87.6354723}, {"type": "node", "id": 2207607263, "lat": 41.9039337, "lon": -87.6361013}, {"type": "node", "id": 2207607264, "lat": 41.9039326, "lon": -87.6362491}, {"type": "node", "id": 2207607343, "lat": 41.9040848, "lon": -87.6361034}, {"type": "node", "id": 2207607348, "lat": 41.9040836, "lon": -87.6362512}, {"type": "node", "id": 2207608395, "lat": 41.9050307, "lon": -87.6350389}, {"type": "node", "id": 2207608406, "lat": 41.9050381, "lon": -87.634666}, {"type": "node", "id": 2207608564, "lat": 41.9050966, "lon": -87.6350233}, {"type": "node", "id": 2207608565, "lat": 41.9050962, "lon": -87.6350412}, {"type": "node", "id": 2207608584, "lat": 41.9051036, "lon": -87.6346683}, {"type": "node", "id": 2207608926, "lat": 41.9052211, "lon": -87.6348978}, {"type": "node", "id": 2207608949, "lat": 41.9052256, "lon": -87.6346727}, {"type": "node", "id": 2207609009, "lat": 41.9052681, "lon": -87.6348995}, {"type": "node", "id": 2207609010, "lat": 41.9052679, "lon": -87.6349087}, {"type": "node", "id": 2207609030, "lat": 41.9052784, "lon": -87.6348583}, {"type": "node", "id": 2207609040, "lat": 41.905282, "lon": -87.6346747}, {"type": "node", "id": 2207609057, "lat": 41.9052917, "lon": -87.6348588}, {"type": "node", "id": 2207609060, "lat": 41.9052907, "lon": -87.6349095}, {"type": "node", "id": 2207609172, "lat": 41.9053678, "lon": -87.6350447}, {"type": "node", "id": 2207609174, "lat": 41.9053698, "lon": -87.6349183}, {"type": "node", "id": 2207609177, "lat": 41.9053694, "lon": -87.6349183}, {"type": "node", "id": 2207609180, "lat": 41.9053714, "lon": -87.6347878}, {"type": "node", "id": 2207609186, "lat": 41.9053717, "lon": -87.6347592}, {"type": "node", "id": 2207609188, "lat": 41.9053728, "lon": -87.6346746}, {"type": "node", "id": 2207609269, "lat": 41.9054415, "lon": -87.6350463}, {"type": "node", "id": 2207609270, "lat": 41.9054429, "lon": -87.6349285}, {"type": "node", "id": 2207609278, "lat": 41.9054461, "lon": -87.6346763}, {"type": "node", "id": 2207635538, "lat": 41.907732, "lon": -87.6344762}, {"type": "node", "id": 2207635541, "lat": 41.9077358, "lon": -87.6341393}, {"type": "node", "id": 2207635615, "lat": 41.9078347, "lon": -87.6341407}, {"type": "node", "id": 2207635617, "lat": 41.9078376, "lon": -87.634469}, {"type": "node", "id": 2207635618, "lat": 41.9078253, "lon": -87.6344782}, {"type": "node", "id": 2207637696, "lat": 41.9090034, "lon": -87.6341272}, {"type": "node", "id": 2207637705, "lat": 41.909016, "lon": -87.6341274}, {"type": "node", "id": 2207637706, "lat": 41.909016, "lon": -87.6341331}, {"type": "node", "id": 2207637782, "lat": 41.9090487, "lon": -87.6342489}, {"type": "node", "id": 2207637785, "lat": 41.909049, "lon": -87.6342002}, {"type": "node", "id": 2207637813, "lat": 41.9090601, "lon": -87.6344978}, {"type": "node", "id": 2207637819, "lat": 41.9090613, "lon": -87.634249}, {"type": "node", "id": 2207637826, "lat": 41.9090661, "lon": -87.6342003}, {"type": "node", "id": 2207637827, "lat": 41.9090665, "lon": -87.6341336}, {"type": "node", "id": 2207638564, "lat": 41.9094986, "lon": -87.6384087}, {"type": "node", "id": 2207638569, "lat": 41.9095013, "lon": -87.6380817}, {"type": "node", "id": 2207638657, "lat": 41.9095425, "lon": -87.6384094}, {"type": "node", "id": 2207638661, "lat": 41.9095453, "lon": -87.6380823}, {"type": "node", "id": 2207638953, "lat": 41.9097401, "lon": -87.6345198}, {"type": "node", "id": 2207638957, "lat": 41.9097469, "lon": -87.6342361}, {"type": "node", "id": 2207638967, "lat": 41.9097543, "lon": -87.6339208}, {"type": "node", "id": 2207638968, "lat": 41.9097544, "lon": -87.6339318}, {"type": "node", "id": 2207639299, "lat": 41.9099564, "lon": -87.6345238}, {"type": "node", "id": 2207639310, "lat": 41.9099639, "lon": -87.6339253}, {"type": "node", "id": 2207640348, "lat": 41.9107678, "lon": -87.634064}, {"type": "node", "id": 2207640351, "lat": 41.9107718, "lon": -87.6338215}, {"type": "node", "id": 2207640358, "lat": 41.9107802, "lon": -87.6340786}, {"type": "node", "id": 2207640378, "lat": 41.9108036, "lon": -87.6340783}, {"type": "node", "id": 2207640380, "lat": 41.9108046, "lon": -87.6340214}, {"type": "node", "id": 2207640484, "lat": 41.911042, "lon": -87.634028}, {"type": "node", "id": 2207640485, "lat": 41.9110449, "lon": -87.6338295}, {"type": "node", "id": 2262383294, "lat": 41.893768, "lon": -87.6358741, "tags": {"amenity": "bar", "name": "Hop H\u00e4us"}}, {"type": "node", "id": 2280301588, "lat": 41.9102437, "lon": -87.6488384, "tags": {"addr:city": "Chicago", "addr:housenumber": "1578", "addr:postcode": "60642", "addr:state": "IL", "addr:street": "North Clybourn Avenue", "amenity": "restaurant", "cuisine": "burger", "name": "Burger Bar Chicago - Lincoln Park", "opening_hours": "Mo-Th 11:30-22:00; Fr-Sa 11:00-23:00; Su 11:00-21:00", "phone": "+1-312-255-0055", "website": "http://burgerbarchicago.com/"}}, {"type": "node", "id": 2393465775, "lat": 41.9096394, "lon": -87.6348401, "tags": {"addr:city": "Chicago", "addr:country": "US", "addr:housenumber": "1514", "addr:postcode": "60610", "addr:state": "IL", "addr:street": "North Wells Street", "amenity": "restaurant", "cuisine": "italian", "name": "Topo Gigio Ristorante", "opening_hours": "Mo-Sa 11:30-22:30; Su 16:00-21:30", "phone": "+1-312-266-9355", "website": "https://www.topogigiochicago.com/"}}, {"type": "node", "id": 2393465796, "lat": 41.9090017, "lon": -87.6344973}, {"type": "node", "id": 2393465797, "lat": 41.9090029, "lon": -87.6342414}, {"type": "node", "id": 2479668242, "lat": 41.9089305, "lon": -87.6383817}, {"type": "node", "id": 2479668243, "lat": 41.9089363, "lon": -87.6380474}, {"type": "node", "id": 2479668244, "lat": 41.9089981, "lon": -87.6383838}, {"type": "node", "id": 2479668245, "lat": 41.909004, "lon": -87.6380495}, {"type": "node", "id": 2480059861, "lat": 41.9048924, "lon": -87.6390534, "tags": {"amenity": "cafe", "brand": "Starbucks", "brand:wikidata": "Q37158", "brand:wikipedia": "en:Starbucks", "cuisine": "coffee_shop", "name": "Starbucks", "official_name": "Starbucks Coffee", "takeaway": "yes"}}, {"type": "node", "id": 2480104438, "lat": 41.9040444, "lon": -87.6346483, "tags": {"addr:city": "Chicago", "addr:housenumber": "1202", "addr:postcode": "60610", "addr:state": "IL", "addr:street": "North Wells Street", "amenity": "restaurant", "cuisine": "english", "name": "Glunz Tavern", "opening_hours": "Tu-Th 17:00-00:00; Fr 12:00-02:00; Sa 10:00-02:00; Su 10:00-23:00", "phone": "+1-312-642-3001", "website": "http://www.glunztavern.com"}}, {"type": "node", "id": 2484981699, "lat": 41.8951897, "lon": -87.6370194}, {"type": "node", "id": 2484981700, "lat": 41.8954387, "lon": -87.6370242}, {"type": "node", "id": 2484981701, "lat": 41.8954638, "lon": -87.6369913}, {"type": "node", "id": 2485876240, "lat": 41.9105426, "lon": -87.653618, "tags": {"amenity": "cafe", "brand": "Starbucks", "brand:wikidata": "Q37158", "brand:wikipedia": "en:Starbucks", "cuisine": "coffee_shop", "name": "Starbucks", "official_name": "Starbucks Coffee", "takeaway": "yes"}}, {"type": "node", "id": 2577813545, "lat": 41.910787, "lon": -87.6490879, "tags": {"addr:city": "Chicago", "addr:country": "US", "addr:housenumber": "1599", "addr:postcode": "60642", "addr:state": "IL", "addr:street": "North Clybourn Avenue", "amenity": "cafe", "brand": "Starbucks", "brand:wikidata": "Q37158", "brand:wikipedia": "en:Starbucks", "cuisine": "coffee_shop", "name": "Starbucks", "official_name": "Starbucks Coffee", "takeaway": "yes"}}, {"type": "node", "id": 2870453012, "lat": 41.8970504, "lon": -87.6433416, "tags": {"addr:city": "Chicago", "addr:housenumber": "600", "addr:postcode": "60654", "addr:street": "West Chicago Avenue", "amenity": "restaurant", "cuisine": "Bar_Food", "name": "Motel Bar", "smoking": "no"}}, {"type": "node", "id": 2870454030, "lat": 41.897217, "lon": -87.6433446, "tags": {"addr:city": "Chicago", "addr:housenumber": "600", "addr:postcode": "60654", "addr:street": "West Chicago Avenue", "amenity": "restaurant", "cuisine": "sandwich", "name": "Snarf's"}}, {"type": "node", "id": 2870517023, "lat": 41.8992975, "lon": -87.6428845, "tags": {"amenity": "restaurant", "cuisine": "sandwich", "name": "Goddess & the Grocer"}}, {"type": "node", "id": 2980328058, "lat": 41.9046047, "lon": -87.6404009, "tags": {"amenity": "cafe", "brand": "Starbucks", "brand:wikidata": "Q37158", "brand:wikipedia": "en:Starbucks", "cuisine": "coffee_shop", "name": "Starbucks", "note": "This Starbucks and the other one inside Jewel exists.", "official_name": "Starbucks Coffee", "takeaway": "yes"}}, {"type": "node", "id": 2986607620, "lat": 41.9107897, "lon": -87.6506196}, {"type": "node", "id": 3114037604, "lat": 41.9003844, "lon": -87.6377709, "tags": {"amenity": "restaurant", "cuisine": "kyrgyz", "name": "Dastorkon"}}, {"type": "node", "id": 3497471764, "lat": 41.8945543, "lon": -87.6333876, "tags": {"addr:city": "Chicago", "addr:housenumber": "676", "addr:postcode": "60654", "addr:state": "IL", "addr:street": "North LaSalle Boulevard", "amenity": "cafe", "cuisine": "coffee_shop;coffee", "name": "Heritage Outpost", "phone": "+1-312-709-1775", "website": "https://www.heritagebicycles.com"}}, {"type": "node", "id": 3618178425, "lat": 41.8961397, "lon": -87.6554969, "tags": {"addr:city": "Chicago", "addr:housenumber": "1105", "addr:postcode": "60622", "addr:state": "IL", "addr:street": "West Chicago Avenue", "amenity": "cafe", "name": "Big Shoulders Coffee", "opening_hours": "Mo-Fr 06:00-19:00; Sa-Su 07:30-17:00"}}, {"type": "node", "id": 4131053948, "lat": 41.908293, "lon": -87.6468872, "tags": {"addr:city": "Chicago", "addr:housenumber": "1500", "addr:postcode": "60610", "addr:state": "IL", "addr:street": "North Clybourn Avenue", "amenity": "restaurant", "brand": "Nando's", "brand:wikidata": "Q3472954", "brand:wikipedia": "en:Nando's", "cuisine": "chicken;portuguese", "name": "Nando's", "phone": "+1-312-546-9723", "website": "https://www.nandosperiperi.com/"}}, {"type": "node", "id": 4191676738, "lat": 41.9100421, "lon": -87.6493042, "tags": {"addr:city": "Chicago", "addr:housenumber": "1555", "addr:postcode": "60642", "addr:state": "IL", "addr:street": "North Dayton Street", "amenity": "bar", "name": "Weeds Tavern", "phone": "+1-312-943-7815", "website": "http://weedstavern.com/"}}, {"type": "node", "id": 4214191957, "lat": 41.9100021, "lon": -87.6343992, "tags": {"amenity": "restaurant", "cuisine": "mexican", "name": "Buzz Bait Tacos - PERMANENTLY CLOSED"}}, {"type": "node", "id": 4567406790, "lat": 41.8962701, "lon": -87.6482164, "tags": {"addr:city": "Chicago", "addr:housenumber": "811", "addr:postcode": "60642", "addr:state": "IL", "addr:street": "West Chicago Avenue", "amenity": "cafe", "name": "Cafe Blue", "phone": "+1-312-763-2870", "website": "http://www.cafe.blue/"}}, {"type": "node", "id": 4629759398, "lat": 41.9025377, "lon": -87.6413921, "tags": {"amenity": "cafe"}}, {"type": "node", "id": 4868621322, "lat": 41.8941897, "lon": -87.6353895, "tags": {"addr:city": "Chicago", "addr:housenumber": "230", "addr:postcode": "60654", "addr:state": "IL", "addr:street": "West Erie Street", "amenity": "restaurant", "cuisine": "sushi;barbecue;bbq", "name": "Union Sushi + Barbeque Bar", "opening_hours": "Mo-Fr 11:30-14:00; Mo-Th 17:00-22:00; Fr-Sa 17:00-23:00; Su 17:00-21:00", "phone": "+1-312-662-4888", "website": "https://eatatunion.com/"}}, {"type": "node", "id": 4995784442, "lat": 41.8943477, "lon": -87.6343595, "tags": {"addr:city": "Chicago", "addr:housenumber": "668", "addr:postcode": "60654", "addr:state": "IL", "addr:street": "North Wells Street", "amenity": "restaurant", "cuisine": "japanese;sushi", "name": "Cocoro Restaurant", "opening_hours": "Mo-Fr 11:30-14:00; Mo-Sa 17:30-22:00", "phone": "+1-312-943-2220", "website": "http:/www.cocorosushi.com", "wheelchair": "yes"}}, {"type": "node", "id": 5299997866, "lat": 41.896462, "lon": -87.6550805, "tags": {"addr:city": "Chicago", "addr:housenumber": "1062", "addr:postcode": "60642", "addr:state": "IL", "addr:street": "West Chicago Avenue", "amenity": "restaurant", "name": "Windy City Cafe", "phone": "+1-312-492-8010", "website": "https://windycity-cafe.com/"}}, {"type": "node", "id": 5310397019, "lat": 41.8983773, "lon": -87.6374532, "tags": {"addr:city": "Chicago", "addr:housenumber": "860", "addr:postcode": "60610", "addr:state": "IL", "addr:street": "North Orleans Street", "amenity": "restaurant", "cuisine": "american", "description": "Hot dogs and fast food. Featured on Diners, Drive Ins, and Dives.", "name": "BIG & little's Restaurant", "opening_hours": "Mo-Fr 11:00-21:00; Sa 12:00-21:00; Su 12:00-20:00", "phone": "+1-312-943-0000", "website": "https://www.bigandlittleschicago.com/"}}, {"type": "node", "id": 5381764521, "lat": 41.8945518, "lon": -87.635457, "tags": {"addr:city": "Chicago", "addr:housenumber": "675", "addr:postcode": "60654", "addr:state": "IL", "addr:street": "North Franklin Street", "amenity": "restaurant", "name": "The Franklin Room", "phone": "+1-312-445-4686", "website": "https://franklinroom.com/"}}, {"type": "node", "id": 5457761479, "lat": 41.8933938, "lon": -87.6333459, "tags": {"addr:city": "Chicago", "addr:housenumber": "158", "addr:postcode": "60654", "addr:state": "IL", "addr:street": "West Ontario Street", "amenity": "restaurant", "cuisine": "mexican;taco", "name": "Taco Joint", "opening_hours": "Mo-Th 11:00-22:00; Fr-Sa 11:00-00:00; Su 11:00-21:00", "phone": "+1-312-337-8226", "website": "https://www.tacojoint.com/"}}, {"type": "node", "id": 5457782423, "lat": 41.8930144, "lon": -87.6339145, "tags": {"addr:city": "Chicago", "addr:housenumber": "169", "addr:postcode": "60654", "addr:state": "IL", "addr:street": "West Ontario Street", "amenity": "restaurant", "cuisine": "sandwich;italian", "name": "Al's Beef", "opening_hours": "Mo-Th 10:00-00:00; Fr-Sa 10:00-03:00; Su 11:00-21:00", "phone": "+1-312-943-3222", "website": "https://www.alsbeef.com/"}}, {"type": "node", "id": 5457975512, "lat": 41.8933778, "lon": -87.6350947, "tags": {"addr:city": "Chicago", "addr:housenumber": "222", "addr:postcode": "60654", "addr:state": "IL", "addr:street": "West Ontario Street", "amenity": "bar", "name": "Shay Chicago", "opening_hours": "Fr 23:00-04:00; Sa 23:00-05:00", "phone": "+1-312-374-4683", "website": "http://shaychicago.com/"}}, {"type": "node", "id": 5457978313, "lat": 41.893406, "lon": -87.6354147, "tags": {"addr:city": "Chicago", "addr:housenumber": "226", "addr:postcode": "60654", "addr:state": "IL", "addr:street": "West Ontario Street", "amenity": "bar", "name": "Sound-Bar", "opening_hours": "Mo-Su 22:00-04:00", "phone": "+1-312-787-4480", "website": "http://sound-bar.com/"}}, {"type": "node", "id": 5457982830, "lat": 41.896256, "lon": -87.6338443, "tags": {"addr:city": "Chicago", "addr:housenumber": "747", "addr:postcode": "60654", "addr:state": "IL", "addr:street": "North Wells Street", "amenity": "restaurant", "cuisine": "breakfast;american", "name": "Yolk - River North", "opening_hours": "Mo-Fr 06:00-15:00; Sa-Su 07:00-15:00", "phone": "+1-312-787-2277", "website": "https://www.eatyolk.com/", "wheelchair": "yes"}}, {"type": "node", "id": 5457984148, "lat": 41.8968239, "lon": -87.6354979, "tags": {"addr:city": "Chicago", "addr:housenumber": "228", "addr:postcode": "60654", "addr:state": "IL", "addr:street": "West Chicago Avenue", "amenity": "restaurant", "cuisine": "american", "name": "Farmhouse Chicago", "opening_hours": "Su-Fr 11:00-21:00; Sa 10:00-22:00", "phone": "+1-312-280-4960", "website": "http://farmhousechicago.com/"}}, {"type": "node", "id": 5457984857, "lat": 41.8971796, "lon": -87.6352763, "tags": {"addr:city": "Chicago", "addr:housenumber": "213", "addr:postcode": "60610", "addr:state": "IL", "addr:street": "West Institute Place", "amenity": "bar", "name": "Headquarters Beercade - River North", "opening_hours": "Mo-Th 17:00-02:00; Fr 15:00-02:00; Sa 11:00-03:00; Su 11:00-02:00", "phone": "+1-312-291-8735", "website": "https://www.hqrivernorth.com/", "wheelchair": "no"}}, {"type": "node", "id": 5457987935, "lat": 41.8945618, "lon": -87.6366882, "tags": {"addr:city": "Chicago", "addr:housenumber": "325", "addr:postcode": "60654", "addr:state": "IL", "addr:street": "West Huron Street", "amenity": "restaurant", "cuisine": "latin_american", "name": "Nacional 27", "opening_hours": "We-Th 17:30-21:30; Fr 17:30-02:00; Sa 17:30-03:00", "phone": "+1-312-664-2727", "website": "http://nacional27chicago.com/"}}, {"type": "node", "id": 5457988101, "lat": 41.8942263, "lon": -87.6362134, "tags": {"addr:city": "Chicago", "addr:housenumber": "308", "addr:postcode": "60654", "addr:state": "IL", "addr:street": "West Erie Street", "amenity": "bar", "name": "Cuve\u00e9 Chicago", "opening_hours": "We-Fr 23:00-04:00; Sa 23:00-05:00", "phone": "+1-312-702-1258", "website": "http://cuveechicago.com/"}}, {"type": "node", "id": 5457991024, "lat": 41.894611, "lon": -87.6369226, "tags": {"addr:city": "Chicago", "addr:housenumber": "325", "addr:postcode": "60654", "addr:state": "IL", "addr:street": "West Huron Street", "amenity": "restaurant", "cuisine": "mexican;tacos;taco", "name": "Tallboy Taco", "opening_hours": "Mo-Th 11:00-22:00; Fr 11:00-00:00; Sa 10:00-00:00", "phone": "+1-312-488-4917", "website": "http://tallboytaco.com/"}}, {"type": "node", "id": 5457991656, "lat": 41.8944231, "lon": -87.6373733, "tags": {"addr:city": "Chicago", "addr:housenumber": "666", "addr:postcode": "60654", "addr:state": "IL", "addr:street": "North Orleans Street", "amenity": "restaurant", "cuisine": "regional;italian", "name": "Mr. Beef on Orleans", "opening_hours": "Mo-Th 10:00-18:00; Fr 10:00-04:00; Sa 10:30-05:00", "phone": "+1-312-337-8500"}}, {"type": "node", "id": 5457994277, "lat": 41.8937476, "lon": -87.6373553, "tags": {"addr:city": "Chicago", "addr:housenumber": "644", "addr:postcode": "60654", "addr:state": "IL", "addr:street": "North Orleans Street", "amenity": "restaurant", "cuisine": "brunch;american", "name": "Brunch", "opening_hours": "Mo-Fr 07:00-15:00; Sa-Su 08:00-16:00", "phone": "+1-312-265-1411", "website": "https://www.brunchit.com/"}}, {"type": "node", "id": 5457997976, "lat": 41.8941144, "lon": -87.6373493, "tags": {"addr:city": "Chicago", "addr:housenumber": "660", "addr:postcode": "60654", "addr:state": "IL", "addr:street": "North Orleans Street", "amenity": "restaurant", "cuisine": "mediterranean", "name": "Bernie's Lunch & Supper", "opening_hours": "Mo-Th 11:00-22:00; Fr 11:00-23:00; Sa 10:00-23:00; Su 10:00-17:00", "phone": "+1-312-624-9892", "website": "http://bernieslunchandsupper.com/"}}, {"type": "node", "id": 5458008229, "lat": 41.8951302, "lon": -87.6338676, "tags": {"addr:city": "Chicago", "addr:housenumber": "707", "addr:postcode": "60654", "addr:state": "IL", "addr:street": "North Wells Street", "amenity": "restaurant", "cuisine": "steak_house;steak;american", "name": "GT Prime Steakhouse", "opening_hours": "Su-Th 17:00-22:00; Fr-Sa 17:00-23:00", "phone": "+1-312-600-6305", "website": "https://gtprimerestaurant.com/", "wheelchair": "yes"}}, {"type": "node", "id": 5458008447, "lat": 41.8933455, "lon": -87.6391791, "tags": {"addr:city": "Chicago", "addr:housenumber": "416", "addr:postcode": "60654", "addr:state": "IL", "addr:street": "West Ontario Street", "amenity": "restaurant", "cuisine": "american", "name": "Hutch American Cafe", "opening_hours": "Mo-Su 08:00-15:00", "phone": "+1-312-300-4195", "website": "https://www.hutchchicago.com/"}}, {"type": "node", "id": 5458035396, "lat": 41.8945791, "lon": -87.6351336, "tags": {"addr:city": "Chicago", "addr:housenumber": "217", "addr:postcode": "60654", "addr:state": "IL", "addr:street": "West Huron Street", "amenity": "bar", "name": "Bar Lupo", "opening_hours": "Tu 17:00-22:00; We-Th 11:00-22:00; Fr-Sa 23:00-02:00", "phone": "+1-312-643-3400", "website": "https://www.barlupochicago.com/"}}, {"type": "node", "id": 5458045705, "lat": 41.896842, "lon": -87.6353199, "tags": {"addr:city": "Chicago", "addr:housenumber": "226", "addr:postcode": "60654", "addr:state": "IL", "addr:street": "West Chicago Avenue", "amenity": "restaurant", "cuisine": "french;bistro", "name": "Bistro Voltaire", "opening_hours": "Mo-Sa 17:00-22:00", "phone": "+1-312-265-0911", "website": "https://www.bistrovoltaire.com/"}}, {"type": "node", "id": 5458087082, "lat": 41.8952975, "lon": -87.6344707, "tags": {"addr:city": "Chicago", "addr:housenumber": "714", "addr:postcode": "60654", "addr:state": "IL", "addr:street": "North Wells Street", "amenity": "restaurant", "cuisine": "european;bistro;sandwich", "name": "Fabcakes", "opening_hours": "Mo-Fr 07:00-18:00; Sa 08:00-02:00", "phone": "+1-312-397-3300", "website": "http://fabcakeschicago.com/"}}, {"type": "node", "id": 5458107322, "lat": 41.8954309, "lon": -87.6338964, "tags": {"addr:city": "Chicago", "addr:housenumber": "717", "addr:postcode": "60654", "addr:state": "IL", "addr:street": "North Wells Street", "amenity": "cafe", "name": "Left Coast Food", "opening_hours": "Mo-Fr 07:00-21:00; Sa-Su 08:00-21:00", "phone": "+1-312-877-5500", "website": "http://www.leftcoastfood.com/"}}, {"type": "node", "id": 5458152669, "lat": 41.894551, "lon": -87.6373962, "tags": {"addr:city": "Chicago", "addr:housenumber": "676", "addr:postcode": "60654", "addr:state": "IL", "addr:street": "North Orleans Street", "amenity": "bar", "name": "The Drifter Chicago", "phone": "+1-312-631-3887", "website": "https://www.thedrifterchicago.com/"}}, {"type": "node", "id": 6050593220, "lat": 41.9079334, "lon": -87.6520136, "tags": {"addr:city": "Chicago", "addr:housenumber": "1460", "addr:postcode": "60642", "addr:state": "IL", "addr:street": "North Kingsbury Street", "amenity": "bar", "name": "Off Color Mousetrap", "phone": "+1-312-929-2916", "website": "http://www.offcolorbrewing.com/"}}, {"type": "node", "id": 6081060319, "lat": 41.9090489, "lon": -87.6342218}, {"type": "node", "id": 6081060321, "lat": 41.9090608, "lon": -87.6343593}, {"type": "node", "id": 6083307401, "lat": 41.8935814, "lon": -87.6339459, "tags": {"addr:city": "Chicago", "addr:housenumber": "643", "addr:postcode": "60654", "addr:state": "IL", "addr:street": "North Wells Street", "amenity": "cafe", "cuisine": "coffee_shop;coffee;tea", "name": "Dollop Coffee Co."}}, {"type": "node", "id": 6083307402, "lat": 41.894367, "lon": -87.6339595, "tags": {"addr:city": "Chicago", "addr:housenumber": "675", "addr:postcode": "60654", "addr:state": "IL", "addr:street": "North Wells Street", "amenity": "cafe", "name": "Limitless Coffee & Tea", "phone": "+1-312-624-9523", "website": "https://limitlesscoffee.com/"}}, {"type": "node", "id": 6223590073, "lat": 41.8967718, "lon": -87.6369735, "tags": {"addr:city": "Chicago", "addr:housenumber": "334", "addr:postcode": "60654", "addr:state": "IL", "addr:street": "West Chicago Avenue", "amenity": "restaurant", "cuisine": "american;breakfast", "name": "Griddle 24", "opening_hours": "24/7", "phone": "+1-312-943-2424", "website": "http://griddle24.com/"}}, {"type": "node", "id": 6226279492, "lat": 41.9041723, "lon": -87.6347462, "tags": {"addr:city": "Chicago", "addr:housenumber": "1208", "addr:postcode": "60610", "addr:state": "IL", "addr:street": "North Wells Street", "amenity": "bar", "name": "The Rabbit Hole", "phone": "+1-312-274-1824", "website": "https://www.therabbitholechicago.com/"}}, {"type": "node", "id": 6256290024, "lat": 41.9093, "lon": -87.6348661, "tags": {"addr:city": "Chicago", "addr:housenumber": "1500", "addr:postcode": "60610", "addr:state": "IL", "addr:street": "North Wells Street", "amenity": "bar", "name": "80 Proof", "phone": "+1-773-966-0404", "website": "https://80proofchi.com/"}}, {"type": "node", "id": 6261025487, "lat": 41.9090121, "lon": -87.63492, "tags": {"addr:city": "Chicago", "addr:housenumber": "1446", "addr:postcode": "60610", "addr:state": "IL", "addr:street": "North Wells Street", "amenity": "bar", "name": "SUITE Lounge", "phone": "+1-312-787-6103", "website": "http://www.suite-lounge.com"}}, {"type": "node", "id": 6261028501, "lat": 41.909098, "lon": -87.6348744, "tags": {"addr:city": "Chicago", "addr:housenumber": "1448", "addr:postcode": "60610", "addr:state": "IL", "addr:street": "North Wells Street", "amenity": "restaurant", "cuisine": "barbecue;bbq;american;southern", "name": "The Fireplace Inn", "opening_hours": "Tu-Th 16:30-00:00; Fr 11:00-02:00; Sa 11:00-03:00; Su 11:00-00:00", "phone": "+1-312-664-5264", "website": "https://fireplaceinn.com"}}, {"type": "node", "id": 6261029018, "lat": 41.9095177, "lon": -87.6349428, "tags": {"addr:city": "Chicago", "addr:housenumber": "1510", "addr:postcode": "60610", "addr:state": "IL", "addr:street": "North Wells Street", "amenity": "restaurant", "cuisine": "bar;grill", "name": "Benchmark", "opening_hours": "Mo-Fr 17:00-02:00; Sa 10:00-03:00; Su 10:00-02:00", "phone": "+1-312-649-9640", "website": "https://benchmarkchicago.com"}}, {"type": "node", "id": 6261031287, "lat": 41.9082856, "lon": -87.6343138, "tags": {"addr:city": "Chicago", "addr:housenumber": "1419", "addr:postcode": "60610", "addr:state": "IL", "addr:street": "North Wells Street", "amenity": "restaurant", "cuisine": "american", "name": "Old Town Pour House", "opening_hours": "Mo 16:00-23:00; Tu-Th 16:00-00:00; Fr 11:30-02:00; Sa 11:30-03:00; Su 10:30-23:00", "outdoor_seating": "no", "phone": "+1-312-477-2800", "website": "https://www.oldtownpourhouse.com/"}}, {"type": "node", "id": 6261032304, "lat": 41.9082037, "lon": -87.6343058, "tags": {"addr:city": "Chicago", "addr:housenumber": "1421", "addr:postcode": "60610", "addr:state": "IL", "addr:street": "North Wells Street", "amenity": "restaurant", "cuisine": "italian", "name": "Mama Milano Pizza Bar", "opening_hours": "We-Th 16:30-21:30; Fr 16:30-22:30; Sa 11:30-22:30; Su 11:30-21:00", "phone": "+1-312-787-3710", "website": "https://www.mamamilanopizzamenu.com"}}, {"type": "node", "id": 6261040332, "lat": 41.9077491, "lon": -87.634853, "tags": {"addr:city": "Chicago", "addr:housenumber": "1400", "addr:postcode": "60610", "addr:state": "IL", "addr:street": "North Wells Street", "amenity": "restaurant", "cuisine": "mexican", "name": "Broken English Taco Pub", "opening_hours": "Mo-Th 17:00-23:00; Fr 17:00-01:00; Sa 11:00-01:00; Su 11:00-21:00", "outdoor_seating": "yes", "phone": "+1-312-951-7667", "website": "https://www.tacopub.com"}}, {"type": "node", "id": 6267305751, "lat": 41.9089601, "lon": -87.6520568}, {"type": "node", "id": 6267305752, "lat": 41.908942, "lon": -87.6520576, "tags": {"addr:city": "Chicago", "addr:housenumber": "1523", "addr:postcode": "60642", "addr:state": "IL", "addr:street": "North Kingsbury Street", "amenity": "bar", "name": "Bistec Bar and Grill", "phone": "+1-312-929-3182", "website": "https://www.bistecbargrill.com/"}}, {"type": "node", "id": 6269036962, "lat": 41.8968482, "lon": -87.6368163, "tags": {"addr:city": "Chicago", "addr:housenumber": "324", "addr:postcode": "60654", "addr:state": "IL", "addr:street": "West Chicago Avenue", "amenity": "bar", "name": "Bounce Chicago", "phone": "+1-312-313-7300", "website": "https://www.bouncesportingclub.com/"}}, {"type": "node", "id": 6272419651, "lat": 41.9100648, "lon": -87.6343821, "tags": {"addr:city": "Chicago", "addr:housenumber": "1531", "addr:postcode": "60610", "addr:state": "IL", "addr:street": "North Wells Street", "amenity": "bar", "name": "BATSU! Chicago", "phone": "+1-312-664-3663", "website": "http://batsuchicago.com/"}}, {"type": "node", "id": 6280019306, "lat": 41.9042068, "lon": -87.6342984, "tags": {"addr:city": "Chicago", "addr:housenumber": "1209", "addr:postcode": "60610", "addr:state": "IL", "addr:street": "North Wells Street", "amenity": "restaurant", "cuisine": "pizza", "name": "Happy Camper Pizzeria", "opening_hours": "Mo-We 16:00-02:00; Th 16:00-02:00; Fr 11:00-02:00; Sa 10:30-03:00; Su 10:30-00:00", "phone": "+1-312-344-1634", "website": "http://www.happycamperchicago.com"}}, {"type": "node", "id": 6281910607, "lat": 41.8929378, "lon": -87.6416278, "tags": {"addr:city": "Chicago", "addr:housenumber": "600", "addr:postcode": "60610", "addr:state": "IL", "addr:street": "North Kingsbury Street", "amenity": "cafe", "name": "Caribou Coffee Store", "outdoor_seating": "yes", "phone": "+1-312-335-0576"}}, {"type": "node", "id": 6283372731, "lat": 41.893829, "lon": -87.6358115, "tags": {"addr:city": "Chicago", "addr:housenumber": "646", "addr:postcode": "60654", "addr:state": "IL", "addr:street": "North Franklin Street", "amenity": "bar", "name": "Concrete Cowboy", "phone": "+1-312-477-9500", "website": "https://www.concretecowboybar.com/chicago.html"}}, {"type": "node", "id": 6284805617, "lat": 41.8986009, "lon": -87.6364088, "tags": {"addr:city": "Chicago", "addr:housenumber": "312", "addr:postcode": "60610", "addr:state": "IL", "addr:street": "West Chestnut Street", "amenity": "cafe", "cuisine": "coffee_shop;sandwiches;sandwich;empanada", "name": "DropShot Coffee & Snack Bar", "phone": "+1-312-496-3014", "website": "https://fieldhousejones.com/"}}, {"type": "node", "id": 6284902474, "lat": 41.9092439, "lon": -87.6475313, "tags": {"addr:city": "Chicago", "addr:housenumber": "1538", "addr:postcode": "60642", "addr:state": "IL", "addr:street": "North Clybourn Avenue", "amenity": "restaurant", "cuisine": "american", "name": "Earls Kitchen + Bar", "phone": "+1-312-929-3952", "website": "https://earls.ca/locations/lincoln-park"}}, {"type": "node", "id": 6286203667, "lat": 41.893443, "lon": -87.6350756, "tags": {"addr:city": "Chicago", "addr:housenumber": "222", "addr:postcode": "60654", "addr:state": "IL", "addr:street": "West Ontario Street", "amenity": "bar", "name": "Electric Hotel", "phone": "+1-312-374-4683", "website": "https://electrichotelchicago.com/"}}, {"type": "node", "id": 6286959503, "lat": 41.9003849, "lon": -87.6376591, "tags": {"addr:city": "Chicago", "addr:housenumber": "351", "addr:postcode": "60610", "addr:state": "IL", "addr:street": "West Oak Street", "addr:unit": "1", "amenity": "restaurant", "name": "EuroAsia Restaurant", "phone": "+1-312-988-0662", "website": "http://euroasiaca.com/"}}, {"type": "node", "id": 6292017713, "lat": 41.896807, "lon": -87.6353152, "tags": {"addr:city": "Chicago", "addr:housenumber": "226", "addr:postcode": "60654", "addr:state": "IL", "addr:street": "West Chicago Avenue", "amenity": "restaurant", "name": "Good Measure", "phone": "+1-312-600-9268", "website": "https://www.goodmeasurechicago.com/"}}, {"type": "node", "id": 6292027817, "lat": 41.903415, "lon": -87.652989, "tags": {"addr:city": "Chicago", "addr:housenumber": "1011", "addr:postcode": "60642", "addr:state": "IL", "addr:street": "West Division Street", "amenity": "restaurant", "name": "Goose Island Shrimp House Chicago", "phone": "+1-312-642-3640", "website": "http://gooseislandshrimphouse.com/"}}, {"type": "node", "id": 6294433265, "lat": 41.8944234, "lon": -87.6338537, "tags": {"addr:city": "Chicago", "addr:housenumber": "675", "addr:postcode": "60654", "addr:state": "IL", "addr:street": "North Wells Street", "amenity": "cafe", "name": "HERO Coffee Bar", "phone": "+1-312-624-9523", "website": "https://www.herocoffeebars.com"}}, {"type": "node", "id": 6294479336, "lat": 41.9081132, "lon": -87.6425061, "tags": {"addr:city": "Chicago", "addr:housenumber": "1416", "addr:postcode": "60610", "addr:state": "IL", "addr:street": "North Mohawk Street", "amenity": "bar", "name": "Hogan, Dean, and Cox", "phone": "+1-314-288-6562"}}, {"type": "node", "id": 6298873064, "lat": 41.9071048, "lon": -87.6343148, "tags": {"addr:city": "Chicago", "addr:housenumber": "1345", "addr:postcode": "60610", "addr:state": "IL", "addr:street": "North Wells Street", "amenity": "restaurant", "name": "Small Cheval - Wells", "website": "http://smallcheval.com/"}}, {"type": "node", "id": 6299489483, "lat": 41.8936805, "lon": -87.634426, "tags": {"addr:city": "Chicago", "addr:housenumber": "636", "addr:postcode": "60654", "addr:state": "IL", "addr:street": "North Wells Street", "amenity": "cafe", "brand": "Peet's Coffee", "brand:wikidata": "Q1094101", "brand:wikipedia": "en:Peet's Coffee", "cuisine": "coffee_shop", "name": "Peet's Coffee", "phone": "+1-312-649-0769", "takeaway": "yes", "website": "https://www.peets.com/"}}, {"type": "node", "id": 6299500544, "lat": 41.8928813, "lon": -87.6414942, "tags": {"addr:city": "Chicago", "addr:housenumber": "600", "addr:postcode": "60654", "addr:state": "IL", "addr:street": "North Kingsbury Street", "amenity": "cafe", "brand": "Peet's Coffee", "brand:wikidata": "Q1094101", "brand:wikipedia": "en:Peet's Coffee", "cuisine": "coffee_shop", "name": "Peet's Coffee", "phone": "+1-312-489-5061", "takeaway": "yes", "website": "https://www.peets.com/"}}, {"type": "node", "id": 6300071822, "lat": 41.9049988, "lon": -87.6341556, "tags": {"addr:city": "Chicago", "addr:housenumber": "1233", "addr:postcode": "60610", "addr:state": "IL", "addr:street": "North Wells Street", "amenity": "cafe", "name": "Intelligentsia Coffee", "phone": "+1-312-229-1400", "website": "https://www.intelligentsiacoffee.com/old-town-coffeebar"}}, {"type": "node", "id": 6300459970, "lat": 41.9090638, "lon": -87.6508302, "tags": {"addr:city": "Chicago", "addr:housenumber": "1521", "addr:postcode": "60642", "addr:state": "IL", "addr:street": "North Fremont Street", "amenity": "restaurant", "name": "Pizzeria Bebu", "phone": "+1-312-280-6000", "website": "https://bebu.pizza/"}}, {"type": "node", "id": 6300602813, "lat": 41.8949259, "lon": -87.6339491, "tags": {"addr:city": "Chicago", "addr:housenumber": "701", "addr:postcode": "60654", "addr:state": "IL", "addr:street": "North Wells Street", "amenity": "cafe", "name": "RealGood River North", "website": "https://realgoodstuffco.com/"}}, {"type": "node", "id": 6301823618, "lat": 41.9086893, "lon": -87.6491398, "tags": {"addr:city": "Chicago", "addr:housenumber": "1501", "addr:postcode": "60642", "addr:state": "IL", "addr:street": "North Dayton Street", "amenity": "bar", "name": "Sully\u2019s House", "phone": "+1-773-244-1234", "website": "https://www.sullyshousechicagoil.com/"}}, {"type": "node", "id": 6303028739, "lat": 41.8972221, "lon": -87.6382658, "tags": {"addr:city": "Chicago", "addr:housenumber": "820", "addr:postcode": "60610", "addr:state": "IL", "addr:street": "North Orleans Street", "amenity": "restaurant", "name": "Sweet Tooth Cafe", "phone": "+1-224-619-5837", "website": "https://sweetshotcookies.com/"}}, {"type": "node", "id": 6304176252, "lat": 41.9099123, "lon": -87.6344869, "tags": {"addr:city": "Chicago", "addr:housenumber": "1527", "addr:postcode": "60610", "addr:state": "IL", "addr:street": "North Wells Street", "amenity": "restaurant", "name": "The VIG Chicago", "phone": "+1-312-982-2186", "website": "http://www.thevigchicago.com/"}}, {"type": "node", "id": 6315186963, "lat": 41.8989749, "lon": -87.6490724, "tags": {"addr:city": "Chicago", "addr:housenumber": "900", "addr:postcode": "60642", "addr:state": "IL", "addr:street": "North Branch Street", "amenity": "cafe", "name": "The Daily Grind", "phone": "+1-312-752-2000"}}, {"type": "node", "id": 6315665345, "lat": 41.8957112, "lon": -87.6548491, "tags": {"addr:city": "Chicago", "addr:housenumber": "770", "addr:postcode": "60642", "addr:state": "IL", "addr:street": "North Milwaukee Avenue", "amenity": "bar", "name": "The Matchbox", "phone": "+1-312-666-9292"}}, {"type": "node", "id": 6316916580, "lat": 41.8938121, "lon": -87.6335041, "tags": {"addr:city": "Chicago", "addr:housenumber": "159", "addr:postcode": "60654", "addr:state": "IL", "addr:street": "West Erie Street", "amenity": "restaurant", "cuisine": "steak_house;seafood", "name": "Wildfire", "phone": "+1-312-787-9000", "website": "http://www.wildfirerestaurant.com/chicago/"}}, {"type": "node", "id": 6318364009, "lat": 41.909856, "lon": -87.634225, "tags": {"addr:city": "Chicago", "addr:housenumber": "1525", "addr:postcode": "60610", "addr:state": "IL", "addr:street": "North Wells Street", "amenity": "bar", "name": "LG\u2019s Bar", "phone": "+1-312-888-9368", "website": "https://ladygregorys.com/"}}, {"type": "node", "id": 6318996267, "lat": 41.9101115, "lon": -87.6521126, "tags": {"addr:city": "Chicago", "addr:housenumber": "940", "addr:postcode": "60642", "addr:state": "IL", "addr:street": "West Weed Street", "amenity": "bar", "name": "Joe\u2019s On Weed St", "phone": "+1-312-337-3486", "website": "http://joesbar.com/"}}, {"type": "node", "id": 6319154670, "lat": 41.9100715, "lon": -87.6344749, "tags": {"addr:city": "Chicago", "addr:housenumber": "1531", "addr:postcode": "60610", "addr:state": "IL", "addr:street": "North Wells Street", "amenity": "restaurant", "name": "Kamehachi", "phone": "+1-312-664-3663", "website": "http://www.kamehachi.com/"}}, {"type": "node", "id": 6319246272, "lat": 41.8993026, "lon": -87.6361223, "tags": {"addr:city": "Chicago", "addr:housenumber": "900", "addr:postcode": "60610", "addr:state": "IL", "addr:street": "North Franklin Street", "amenity": "restaurant", "name": "Kiki\u2019s Bistro", "phone": "+1-312-335-5454", "website": "https://www.kikisbistro.com/"}}, {"type": "node", "id": 6319305750, "lat": 41.9082297, "lon": -87.6466173, "tags": {"addr:city": "Chicago", "addr:housenumber": "1500", "addr:postcode": "60610", "addr:state": "IL", "addr:street": "North Clybourn Avenue", "addr:unit": "102", "amenity": "restaurant", "name": "Kings Dining & Entertainment - Chicago Lincoln Park", "phone": "+1-312-973-4920", "website": "https://www.kings-de.com/lincoln-park"}}, {"type": "node", "id": 6319691545, "lat": 41.9094212, "lon": -87.6478311, "tags": {"addr:city": "Chicago", "addr:housenumber": "1538", "addr:postcode": "60610", "addr:state": "IL", "addr:street": "North Clybourn Avenue", "amenity": "restaurant", "name": "Kizuki Ramen & Izakaya", "phone": "+1-312-631-3165", "website": "https://www.kizuki.com/"}}, {"type": "node", "id": 6322560906, "lat": 41.8985537, "lon": -87.6427142, "tags": {"addr:city": "Chicago", "addr:housenumber": "869", "addr:postcode": "60610", "addr:state": "IL", "addr:street": "North Larrabee Street", "amenity": "restaurant", "name": "Texican", "phone": "+1-312-877-5441", "website": "https://www.texican-chicago.com/"}}, {"type": "node", "id": 6322760739, "lat": 41.9012153, "lon": -87.6476574, "tags": {"addr:city": "Chicago", "addr:housenumber": "1059", "addr:postcode": "60642", "addr:state": "IL", "addr:street": "North Halsted Street", "amenity": "restaurant", "name": "Mod Mex & Mod Mix With Rick Bayless"}}, {"type": "node", "id": 6322771416, "lat": 41.8998396, "lon": -87.63707, "tags": {"addr:city": "Chicago", "addr:housenumber": "931", "addr:postcode": "60610", "addr:state": "IL", "addr:street": "North Orleans Street", "amenity": "restaurant", "name": "Mogadishu Restaurant", "phone": "+1-312-265-1850"}}, {"type": "node", "id": 6323965477, "lat": 41.9069115, "lon": -87.634332, "tags": {"addr:city": "Chicago", "addr:housenumber": "1339", "addr:postcode": "60610", "addr:state": "IL", "addr:street": "North Wells Street", "amenity": "bar", "name": "Old Town Pub", "phone": "+1-312-266-6789", "website": "otpchicago.com"}}, {"type": "node", "id": 6323975670, "lat": 41.9105421, "lon": -87.6536447, "tags": {"addr:city": "Chicago", "addr:housenumber": "1001", "addr:postcode": "60642", "addr:state": "IL", "addr:street": "West North Avenue", "amenity": "restaurant", "name": "Olive Mediterranean Grill", "phone": "+1-312-274-5525", "website": "http://eatomg.com/"}}, {"type": "node", "id": 6325995436, "lat": 41.9102129, "lon": -87.6344, "tags": {"addr:city": "Chicago", "addr:housenumber": "1535", "addr:postcode": "60610", "addr:state": "IL", "addr:street": "North Wells Street", "amenity": "restaurant", "name": "Woodie\u2019s Flat", "phone": "+1-312-643-0093", "website": "https://www.woodieschicago.com/"}}, {"type": "node", "id": 6326008885, "lat": 41.9081791, "lon": -87.6465338, "tags": {"addr:city": "Chicago", "addr:housenumber": "1500", "addr:postcode": "60610", "addr:state": "IL", "addr:street": "North Clybourn Avenue", "alcohol": "yes", "amenity": "restaurant", "brand": "Yard House", "brand:wikidata": "Q21189156", "brand:wikipedia": "en:Yard House", "cuisine": "american", "name": "Yard House", "phone": "+1-312-951-7317"}}, {"type": "node", "id": 6326478100, "lat": 41.9080596, "lon": -87.6342858, "tags": {"addr:city": "Chicago", "addr:housenumber": "1411", "addr:postcode": "60610", "addr:state": "IL", "addr:street": "North Wells Street", "amenity": "restaurant", "name": "Old Jerusalem", "phone": "+1-312-944-0459", "website": "http://oldjerusalemrestaurant.net/"}}, {"type": "node", "id": 6397203818, "lat": 41.8949375, "lon": -87.6387433, "tags": {"addr:city": "Chicago", "addr:housenumber": "700", "addr:postcode": "60654", "addr:state": "IL", "addr:street": "North Sedgwick Street", "amenity": "restaurant", "cuisine": "american", "name": "Entente", "opening_hours": "Tu-Th 17:00-22:00; Fr-Sa 17:00-23:00", "phone": "+1-312-285-2247", "website": "https://www.ententechicago.com"}}, {"type": "node", "id": 6407268648, "lat": 41.9100061, "lon": -87.6344756, "tags": {"addr:city": "Chicago", "addr:housenumber": "1529", "addr:postcode": "60610", "addr:state": "IL", "addr:street": "North Wells Street", "amenity": "restaurant", "cuisine": "sandwich;dessert", "name": "Bombobar - Old Town", "opening_hours": "Mo-We 08:00-22:00; Fr 08:00-02:30; Sa 09:00-03:30; Su 09:00-22:00", "phone": "+1-312-549-8433", "website": "https://www.bombobar.com"}}, {"type": "node", "id": 6410347902, "lat": 41.8986768, "lon": -87.6364137, "tags": {"addr:city": "Chicago", "addr:housenumber": "312", "addr:postcode": "60610", "addr:state": "IL", "addr:street": "West Chestnut Street", "amenity": "bar", "name": "Janitor's Closet"}}, {"type": "node", "id": 6425689677, "lat": 41.9068335, "lon": -87.6347845, "tags": {"addr:city": "Chicago", "addr:housenumber": "1342", "addr:postcode": "60610", "addr:state": "IL", "addr:street": "North Wells Street", "amenity": "restaurant", "cuisine": "sushi;japanese", "name": "Cafe Sushi", "opening_hours": "Mo-Th 17:00-22:30; Fr-Sa 17:00-23:30; Su 16:00-21:30", "phone": "+1-312-337-0700", "website": "http://www.cafesushiwells.com/"}}, {"type": "node", "id": 6651956670, "lat": 41.8974765, "lon": -87.6433795, "tags": {"addr:city": "Chicago", "addr:housenumber": "600", "addr:postcode": "60654", "addr:state": "IL", "addr:street": "West Chicago Avenue", "amenity": "restaurant", "cuisine": "casual", "name": "Farmer's Fridge", "phone": "+1-312-229-0099", "website": "https://www.farmersfridge.com/"}}, {"type": "node", "id": 7073555751, "lat": 41.8942118, "lon": -87.6525505, "tags": {"addr:city": "Chicago", "addr:housenumber": "694", "addr:postcode": "60642", "addr:state": "IL", "addr:street": "North Milwaukee Avenue", "amenity": "bar", "name": "The Dandy Crown", "phone": "+1-312-846-6420", "website": "http://thedandycrown.com"}}, {"type": "way", "id": 206585437, "nodes": [2166039857, 2166039862, 2166039861, 2166039854, 2166039855, 2166039857], "tags": {"addr:city": "Chicago", "addr:country": "US", "addr:housenumber": "1552", "addr:postcode": "60610", "addr:state": "IL", "addr:street": "North Wells Street", "addr:street:name": "Wells", "addr:street:prefix": "North", "addr:street:type": "Street", "amenity": "cafe", "building": "yes", "building:levels": "2", "chicago:building_id": "304450", "name": "Kanela Breakfast Club", "phone": "+1-312-255-1206", "source": "Bing 2012", "website": "http://kanelacafe.com/"}}, {"type": "way", "id": 210315300, "nodes": [2203995936, 6267305751, 2203996117, 2203996004, 2203995852, 2203995936], "tags": {"addr:housenumber": "1523", "addr:street": "North Kingsbury Street", "addr:street:name": "Kingsbury", "addr:street:prefix": "North", "addr:street:type": "Street", "amenity": "cafe", "building": "yes", "chicago:building_id": "878193", "name": "Kingsbury Street Cafe"}}, {"type": "way", "id": 210315354, "nodes": [2203998741, 2203998749, 2203998788, 2203998793, 2203998747, 2203998741], "tags": {"addr:housenumber": "1548", "addr:street": "North Larrabee Street", "addr:street:name": "Larrabee", "addr:street:prefix": "North", "addr:street:type": "Street", "amenity": "restaurant", "building": "yes", "building:levels": "1", "chicago:building_id": "305179", "cuisine": "burger"}}, {"type": "way", "id": 210318550, "nodes": [2986607620, 2203998973, 2203998933, 2203998935, 2203998908, 2203998910, 2203998812, 2203998811, 2203998712, 2203998709, 2203998810, 2986607620], "tags": {"addr:city": "Chicago", "addr:housenumber": "855", "addr:postcode": "60642", "addr:state": "IL", "addr:street": "West North Avenue", "addr:street:name": "North", "addr:street:prefix": "West", "addr:street:type": "Avenue", "amenity": "restaurant", "building": "yes", "chicago:building_id": "304440", "cuisine": "mexican", "name": "Uncle Julio's"}}, {"type": "way", "id": 210318903, "nodes": [2203998691, 2203998611, 2203998642, 2203998719, 2203998691], "tags": {"addr:city": "Chicago", "addr:housenumber": "1582", "addr:postcode": "60642", "addr:state": "IL", "addr:street": "North Clybourn Avenue", "amenity": "restaurant", "building": "yes", "chicago:building_id": "878191", "name": "Sono Wood Fired"}}, {"type": "way", "id": 210679092, "nodes": [2207600366, 2207600370, 2207600429, 2207600432, 2207600427, 2207600428, 2207600363, 2207600364, 2207600366], "tags": {"addr:city": "Chicago", "addr:housenumber": "233", "addr:postcode": "60654", "addr:state": "IL", "addr:street": "West Superior Street", "addr:street:name": "Superior", "addr:street:prefix": "West", "addr:street:type": "Street", "amenity": "restaurant", "building": "yes", "building:levels": "3", "chicago:building_id": "813713", "cuisine": "breakfast;sandwich", "name": "Brett's Kitchen", "opening_hours": "Mo-Fr 06:00-16:00; Sa 08:00-16:00", "phone": "+1-312-664-6354", "website": "http://www.brettskitchen.com/"}}, {"type": "way", "id": 210679114, "nodes": [2207598743, 2207598826, 2207598828, 2207598851, 2207598853, 2207598744, 2207598743], "tags": {"addr:city": "Chicago", "addr:housenumber": "612", "addr:postcode": "60654", "addr:state": "IL", "addr:street": "North Wells Street", "addr:street:name": "Wells", "addr:street:prefix": "North", "addr:street:type": "Street", "amenity": "restaurant", "building": "yes", "building:levels": "1", "chicago:building_id": "345243", "cuisine": "ribs", "name": "Carson's", "opening_hours": "Su-Th 11:30-22:00; Fr-Sa 11:30-23:00", "source": "https://www.ribs.com/chicago", "website": "https://www.ribs.com/chicago", "wheelchair": "yes"}}, {"type": "way", "id": 210679157, "nodes": [2207599566, 2207599480, 2207599470, 2207599468, 2207599544, 2207599546, 2207599565, 2207599566], "tags": {"addr:city": "Chicago", "addr:housenumber": "660", "addr:postcode": "60654", "addr:state": "IL", "addr:street": "North Wells Street", "addr:street:name": "Wells", "addr:street:prefix": "North", "addr:street:type": "Street", "amenity": "restaurant", "brand": "Hooters", "brand:wikidata": "Q1025921", "brand:wikipedia": "en:Hooters", "building": "yes", "building:levels": "1", "chicago:building_id": "341914", "cuisine": "burger", "name": "Hooters", "opening_hours": "Su-Th 11:00-23:00; Fr-Sa 11:00-00:00", "phone": "+1-312-944-8800", "website": "http://www.originalhooters.com/chicago", "wheelchair": "yes"}}, {"type": "way", "id": 210679421, "nodes": [2207608584, 2207608406, 2207608395, 2207608565, 2207608564, 2207608584], "tags": {"addr:housenumber": "1240", "addr:street": "North Wells Street", "addr:street:name": "Wells", "addr:street:prefix": "North", "addr:street:type": "Street", "amenity": "bar", "building": "yes", "building:levels": "3", "chicago:building_id": "815408", "name": "Declan's"}}, {"type": "way", "id": 210679437, "nodes": [2207608926, 2207609009, 2207609010, 2207609060, 2207609057, 2207609030, 2207609040, 2207608949, 2207608926], "tags": {"addr:housenumber": "1246", "addr:street": "North Wells Street", "addr:street:name": "Wells", "addr:street:prefix": "North", "addr:street:type": "Street", "amenity": "restaurant", "building": "yes", "building:levels": "3", "chicago:building_id": "317889", "cuisine": "chinese", "name": "China Doll"}}, {"type": "way", "id": 210679449, "nodes": [2207609278, 2207609188, 2207609186, 2207609180, 2207609174, 2207609177, 2207609172, 2207609269, 2207609270, 2207609278], "tags": {"addr:housenumber": "1252", "addr:street": "North Wells Street", "addr:street:name": "Wells", "addr:street:prefix": "North", "addr:street:type": "Street", "amenity": "restaurant", "building": "yes", "building:levels": "3", "chicago:building_id": "815387", "cuisine": "mexican", "name": "Salpicon"}}, {"type": "way", "id": 210679752, "nodes": [2207607263, 2207607264, 2207607348, 2207607343, 2207607263], "tags": {"addr:housenumber": "238", "addr:street": "West Division Street", "addr:street:name": "Division", "addr:street:prefix": "West", "addr:street:type": "Street", "amenity": "restaurant", "building": "yes", "building:levels": "1", "chicago:building_id": "320662", "cuisine": "pizza", "name": "Sammy's Red Hots", "opening_hours": "09:00-02:00", "phone": "312-266-7290", "website": "http://sammysredhotschicago.com/"}}, {"type": "way", "id": 210680201, "nodes": [2207599832, 2207599830, 2207599896, 2207599898, 2207599903, 2207599904, 2207599831, 2207599832], "tags": {"addr:city": "Chicago", "addr:housenumber": "678", "addr:postcode": "60654", "addr:state": "IL", "addr:street": "North Orleans Street", "addr:street:name": "Orleans", "addr:street:prefix": "North", "addr:street:type": "Street", "amenity": "restaurant", "building": "yes", "building:levels": "2", "chicago:building_id": "870787", "food": "yes", "name": "The Green Door Tavern", "opening_hours": "Mo-Fr 11:30-02:00; Sa 11:30-03:00; Su 12:00-21:00", "phone": "+1-312-664-5496", "start_date": "1872", "website": "http://www.greendoorchicago.com/", "wikidata": "Q16947573", "wikipedia": "en:Green Door Tavern"}}, {"type": "way", "id": 210680502, "nodes": [2207600074, 2207600078, 2207600082, 2207600086, 2207600101, 2207600104, 2207600075, 2207600074], "tags": {"addr:housenumber": "701", "addr:street": "North Wells Street", "addr:street:name": "Wells", "addr:street:prefix": "North", "addr:street:type": "Street", "amenity": "cafe", "building": "yes", "building:levels": "4", "chicago:building_id": "341348", "name": "Seattle's Best Coffee"}}, {"type": "way", "id": 210684438, "nodes": [2207635617, 2207635615, 2207635541, 2207635538, 2207635618, 2207635617], "tags": {"addr:city": "Chicago", "addr:housenumber": "1401", "addr:postcode": "60610", "addr:state": "IL", "addr:street": "North Wells Street", "addr:street:name": "Wells", "addr:street:prefix": "North", "addr:street:type": "Street", "amenity": "restaurant", "building": "yes", "building:levels": "3", "chicago:building_id": "815317", "cuisine": "italian", "name": "Orso's", "opening_hours": "Mo-Th 11:00-23:00; Fr-Sa 11:00-00:00; Su 10:00-22:00", "phone": "+1-312-787-6604", "website": "http://www.orsosrestaurant.com"}}, {"type": "way", "id": 210684661, "nodes": [2393465796, 2207637813, 6081060321, 2207637819, 2207637782, 6081060319, 2207637785, 2207637826, 2207637827, 2207637706, 2207637705, 2207637696, 2393465797, 2393465796], "tags": {"addr:city": "Chicago", "addr:housenumber": "1447", "addr:postcode": "60610", "addr:state": "IL", "addr:street": "North Wells Street", "addr:street:name": "Wells", "addr:street:prefix": "North", "addr:street:type": "Street", "amenity": "bar", "building": "yes", "building:levels": "3", "chicago:building_id": "309192", "name": "Burton Place", "phone": "+1-312-664-4699"}}, {"type": "way", "id": 210684734, "nodes": [2207638564, 2207638657, 2207638661, 2207638569, 2207638564], "tags": {"addr:housenumber": "1507", "addr:street": "North Sedgwick Street", "addr:street:name": "Sedgwick", "addr:street:prefix": "North", "addr:street:type": "Street", "amenity": "restaurant", "building": "yes", "building:levels": "1", "chicago:building_id": "815577", "cuisine": "chinese", "name": "Lan's China Bistro"}}, {"type": "way", "id": 210684816, "nodes": [2207639310, 2207638967, 2207638968, 2207638957, 2207638953, 2207639299, 2207639310], "tags": {"addr:housenumber": "1525-1527", "addr:street": "North Wells Street", "addr:street:name": "Wells", "addr:street:prefix": "North", "addr:street:type": "Street", "amenity": "bar", "building": "yes", "building:levels": "1", "chicago:building_id": "815256"}}, {"type": "way", "id": 210684908, "nodes": [2207640485, 2207640351, 2207640348, 2207640358, 2207640378, 2207640380, 2207640484, 2207640485], "tags": {"addr:housenumber": "157", "addr:street": "West North Avenue", "addr:street:name": "North", "addr:street:prefix": "West", "addr:street:type": "Avenue", "amenity": "restaurant", "building": "yes", "building:levels": "2", "chicago:building_id": "815206"}}, {"type": "way", "id": 240217310, "nodes": [2479668244, 2479668242, 2479668243, 2479668245, 2479668244], "tags": {"addr:city": "Chicago", "addr:housenumber": "1447", "addr:postcode": "60610", "addr:state": "IL", "addr:street": "North Sedgwick Street", "addr:street:name": "Sedgwick", "addr:street:prefix": "North", "addr:street:type": "Street", "amenity": "cafe", "building": "yes", "name": "Eva's Cafe", "phone": "+1-312-280-8900", "website": "https://evascafeoldtown.com/"}}, {"type": "way", "id": 240806164, "nodes": [2207600423, 2484981701, 2484981700, 2484981699, 2207600283, 2207600423], "tags": {"addr:city": "Chicago", "addr:country": "US", "addr:housenumber": "331", "addr:postcode": "60654", "addr:state": "IL", "addr:street": "West Superior Street", "addr:street:name": "Superior", "addr:street:prefix": "West", "addr:street:type": "Street", "amenity": "restaurant", "building": "yes", "building:levels": "5", "cuisine": "italian", "name": "Club Lago", "opening_hours": "Mo-Th 11:00-22:00; Fr-Sa 11:00-23:00", "phone": "+1-312-951-2849", "url": "http://www.clublago.com/home.html", "website": "http://www.clublago.com/"}}]}