{"version": 0.6, "generator": "Overpass API 0.7.56.1004 6cd3eaec", "osm3s": {"timestamp_osm_base": "2020-07-22T01:10:02Z", "copyright": "The data included in this document is from www.openstreetmap.org. The data is made available under ODbL."}, "elements": [{"type": "node", "id": 1741514077, "lat": 41.7777828, "lon": -87.7428312}, {"type": "node", "id": 1741514109, "lat": 41.7777885, "lon": -87.742547}, {"type": "node", "id": 1741514552, "lat": 41.7779059, "lon": -87.7424928}, {"type": "node", "id": 1741514561, "lat": 41.7779079, "lon": -87.7425481}, {"type": "node", "id": 1741514697, "lat": 41.7779571, "lon": -87.7428381}, {"type": "node", "id": 1741514711, "lat": 41.7779633, "lon": -87.7424956}, {"type": "node", "id": 1741616540, "lat": 41.7748632, "lon": -87.7427095}, {"type": "node", "id": 1741616545, "lat": 41.7748907, "lon": -87.7424635}, {"type": "node", "id": 1741616564, "lat": 41.7749608, "lon": -87.7423998}, {"type": "node", "id": 1741616728, "lat": 41.7750785, "lon": -87.7423903}, {"type": "node", "id": 1741616771, "lat": 41.7750725, "lon": -87.742724}, {"type": "node", "id": 4382397717, "lat": 41.7878088, "lon": -87.7422142}, {"type": "node", "id": 4382397719, "lat": 41.7878436, "lon": -87.74217}, {"type": "node", "id": 4382397722, "lat": 41.7878591, "lon": -87.7421503}, {"type": "node", "id": 4382397724, "lat": 41.7878756, "lon": -87.7423076}, {"type": "node", "id": 4382397726, "lat": 41.787909, "lon": -87.74222}, {"type": "node", "id": 4382397727, "lat": 41.7879102, "lon": -87.7422631}, {"type": "node", "id": 4382397728, "lat": 41.7879116, "lon": -87.7420837}, {"type": "node", "id": 4382397731, "lat": 41.7879431, "lon": -87.7422208}, {"type": "node", "id": 4382397732, "lat": 41.7879445, "lon": -87.7421299}, {"type": "node", "id": 4382397736, "lat": 41.7880123, "lon": -87.7421318}, {"type": "node", "id": 4382397782, "lat": 41.7884023, "lon": -87.742153}, {"type": "node", "id": 4382397783, "lat": 41.7884447, "lon": -87.7421529}, {"type": "node", "id": 4382397784, "lat": 41.7884755, "lon": -87.7423901}, {"type": "node", "id": 4382397785, "lat": 41.7884757, "lon": -87.7423545}, {"type": "node", "id": 4382397786, "lat": 41.7884771, "lon": -87.7422711}, {"type": "node", "id": 4382397787, "lat": 41.7884782, "lon": -87.7421997}, {"type": "node", "id": 4382397788, "lat": 41.7884845, "lon": -87.7420475}, {"type": "node", "id": 4382397991, "lat": 41.7885322, "lon": -87.7421144}, {"type": "node", "id": 4382397994, "lat": 41.7886064, "lon": -87.7420191}, {"type": "node", "id": 4382397995, "lat": 41.7886254, "lon": -87.7420196}, {"type": "node", "id": 4382397998, "lat": 41.7886917, "lon": -87.7421125}, {"type": "node", "id": 4382447203, "lat": 41.7840406, "lon": -87.7420487, "tags": {"amenity": "cafe", "level": "1", "name": "Barista"}}, {"type": "node", "id": 4382447206, "lat": 41.7852246, "lon": -87.743308, "tags": {"amenity": "cafe", "level": "1", "name": "Bin 5700"}}, {"type": "node", "id": 4382447207, "lat": 41.7860608, "lon": -87.7418872, "tags": {"amenity": "restaurant", "level": "1", "name": "Midway Pour House"}}, {"type": "node", "id": 4382447210, "lat": 41.7883815, "lon": -87.7436473, "tags": {"amenity": "restaurant", "level": "1", "name": "Big City Chicken"}}, {"type": "node", "id": 4382447211, "lat": 41.7883979, "lon": -87.7417936, "tags": {"addr:city": "Chicago", "addr:housenumber": "5700", "addr:postcode": "60638", "addr:state": "IL", "addr:street": "South Cicero Avenue", "amenity": "cafe", "cuisine": "coffee_shop", "level": "1", "name": "Caf\u00e9 Espresso"}}, {"type": "node", "id": 4382447212, "lat": 41.786106, "lon": -87.7418148, "tags": {"amenity": "restaurant", "level": "1", "name": "True Burger Co."}}, {"type": "node", "id": 5100753502, "lat": 41.7867443, "lon": -87.7455507, "tags": {"amenity": "cafe", "name": "Dunkin' Donut Express"}}, {"type": "node", "id": 5503463802, "lat": 41.7748764, "lon": -87.7425229}, {"type": "node", "id": 6273584492, "lat": 41.7885065, "lon": -87.7418255, "tags": {"addr:city": "Chicago", "addr:housenumber": "5700", "addr:postcode": "60638", "addr:state": "IL", "addr:street": "South Cicero Avenue", "amenity": "cafe", "name": "Cafe L\u2019Appetito", "phone": "+1-773-838-8835", "website": "https://www.lappetito.com/"}}, {"type": "node", "id": 6286872700, "lat": 41.7883766, "lon": -87.7418454, "tags": {"addr:city": "Chicago", "addr:housenumber": "5700", "addr:postcode": "60638", "addr:state": "IL", "addr:street": "South Cicero Avenue", "amenity": "cafe", "name": "Euro Cafe", "phone": "+1-773-735-0505"}}, {"type": "node", "id": 6322996165, "lat": 41.7786634, "lon": -87.739553, "tags": {"addr:city": "Chicago", "addr:housenumber": "4654", "addr:postcode": "60629", "addr:state": "IL", "addr:street": "West 63rd Street", "amenity": "bar", "name": "Mr C\u2019s Midway Bar", "phone": "+1-773-582-0833"}}, {"type": "node", "id": 6344848990, "lat": 41.7849903, "lon": -87.7432557, "tags": {"amenity": "cafe", "cuisine": "coffee_shop", "name": "Big Shoulders Coffee", "opening_hours": "Su-Sa 05:00-21:00"}}, {"type": "node", "id": 6344848995, "lat": 41.7857298, "lon": -87.7423605, "tags": {"amenity": "restaurant", "name": "Reilly's Daughter"}}, {"type": "node", "id": 6396302985, "lat": 41.7782039, "lon": -87.7404588, "tags": {"amenity": "restaurant", "cuisine": "diner", "name": "Top View"}}, {"type": "node", "id": 7191160100, "lat": 41.7880096, "lon": -87.7424411, "tags": {"amenity": "restaurant", "indoor": "room", "level": "1", "name": "Reilly's Daughter"}}, {"type": "node", "id": 7256768785, "lat": 41.7854343, "lon": -87.7428534, "tags": {"amenity": "bar", "name": "Harry Carry\u2019s Shortstop"}}, {"type": "way", "id": 162229264, "nodes": [1741514697, 1741514711, 1741514552, 1741514561, 1741514109, 1741514077, 1741514697], "tags": {"addr:city": "Chicago", "addr:housenumber": "6314", "addr:postcode": "60638", "addr:street": "South Cicero Avenue", "addr:street:name": "Cicero", "addr:street:prefix": "South", "addr:street:type": "Avenue", "amenity": "restaurant", "building": "yes", "chicago:building_id": "828288", "cuisine": "pizza", "name": "Giordano's"}}, {"type": "way", "id": 162237485, "nodes": [1741616540, 1741616771, 1741616728, 1741616564, 1741616545, 5503463802, 1741616540], "tags": {"addr:city": "Chicago", "addr:housenumber": "6456", "addr:postcode": "60638", "addr:street": "South Cicero Avenue", "addr:street:name": "Cicero", "addr:street:prefix": "South", "addr:street:type": "Avenue", "amenity": "restaurant", "building": "yes", "building:levels": "1", "chicago:building_id": "551100", "cuisine": "pizza", "name": "Lou Malnati's Pizza", "website": "https://www.loumalnatis.com/chicago-midway"}}, {"type": "way", "id": 440500159, "nodes": [4382397995, 4382397998, 4382397784, 4382397785, 4382397786, 4382397787, 4382397783, 4382397782, 4382397788, 4382397991, 4382397994, 4382397995], "tags": {"amenity": "restaurant", "indoor": "room", "level": "1", "name": "Go-Go White Sox Grill"}}, {"type": "way", "id": 440500160, "nodes": [4382397727, 4382397719, 4382397717, 4382397724, 4382397727], "tags": {"amenity": "restaurant", "indoor": "room", "level": "1", "name": "Reilly's Daughter"}}, {"type": "way", "id": 440500165, "nodes": [4382397722, 4382397726, 4382397731, 4382397736, 4382397732, 4382397728, 4382397722], "tags": {"amenity": "restaurant", "cuisine": "italian", "indoor": "room", "level": "1", "name": "Cafe L'Appetito"}}]}