{"version": 0.6, "generator": "Overpass API 0.7.56.3 eb200aeb", "osm3s": {"timestamp_osm_base": "2020-07-20T21:55:03Z", "copyright": "The data included in this document is from www.openstreetmap.org. The data is made available under ODbL."}, "elements": [{"type": "node", "id": 1755554091, "lat": 41.9224754, "lon": -87.7168095}, {"type": "node", "id": 1755554092, "lat": 41.9224763, "lon": -87.7167176}, {"type": "node", "id": 1755555028, "lat": 41.9226314, "lon": -87.7167216}, {"type": "node", "id": 1755555031, "lat": 41.9226318, "lon": -87.7168135}, {"type": "node", "id": 1755555286, "lat": 41.922684, "lon": -87.7168148}, {"type": "node", "id": 1755555306, "lat": 41.9226862, "lon": -87.7167229}, {"type": "node", "id": 3536901255, "lat": 41.9170988, "lon": -87.7190481, "tags": {"addr:city": "Chicago", "addr:housenumber": "3659", "addr:postcode": "60647", "addr:state": "IL", "addr:street": "West Armitage Avenue", "amenity": "bar", "name": "Weegee's Lounge", "opening_hours": "17:00-02:00", "phone": "+1-773-384-0707", "smoking": "outside", "website": "http://weegeeslounge.com/"}}, {"type": "node", "id": 3551863194, "lat": 41.9173772, "lon": -87.7195852, "tags": {"amenity": "restaurant", "cuisine": "puerto_rican", "name": "Juanita's Puerto Rican Cuisine"}}, {"type": "node", "id": 6300446247, "lat": 41.9183165, "lon": -87.7260329, "tags": {"addr:city": "Chicago", "addr:housenumber": "3912", "addr:postcode": "60647", "addr:state": "IL", "addr:street": "West McLean Avenue", "amenity": "bar", "name": "Pipeworks Brewing", "phone": "+1-773-698-6154", "website": "http://pdubs.net/"}}, {"type": "node", "id": 6300907553, "lat": 41.9168599, "lon": -87.7337071, "tags": {"addr:city": "Chicago", "addr:housenumber": "4253", "addr:postcode": "60639", "addr:state": "IL", "addr:street": "West Armitage Avenue", "amenity": "restaurant", "name": "Rica Arepa", "phone": "+1-773-543-3000", "website": "https://www.ricaarepachicago.com/"}}, {"type": "node", "id": 6307087254, "lat": 41.9172825, "lon": -87.7270677, "tags": {"addr:city": "Chicago", "addr:housenumber": "4010", "addr:postcode": "60639", "addr:state": "IL", "addr:street": "West Armitage Avenue", "amenity": "bar", "name": "Uncle Mikes Sports Bar", "phone": "+1-773-263-1257"}}, {"type": "node", "id": 6320088299, "lat": 41.9101643, "lon": -87.7212799, "tags": {"addr:city": "Chicago", "addr:housenumber": "3758", "addr:postcode": "60647", "addr:state": "IL", "addr:street": "West North Avenue", "amenity": "bar", "name": "La Lena Restaurant", "phone": "+1-773-687-9848", "website": "http://www.lalenarestaurant.com/"}}, {"type": "way", "id": 163886441, "nodes": [1755554091, 1755555031, 1755555286, 1755555306, 1755555028, 1755554092, 1755554091], "tags": {"addr:city": "Chicago", "addr:housenumber": "3581", "addr:postcode": "60647", "addr:state": "IL", "addr:street": "West Belden Avenue", "addr:street:name": "Belden", "addr:street:prefix": "West", "addr:street:type": "Avenue", "amenity": "restaurant", "building": "yes", "building:levels": "1", "construction": "restaurant", "cuisine": "american", "name": "Wyler Road", "phone": "+1-773-661-0675", "website": "http://www.wylerroad.com/"}}]}