{"version": 0.6, "generator": "Overpass API 0.7.56.3 eb200aeb", "osm3s": {"timestamp_osm_base": "2020-07-17T21:20:03Z", "copyright": "The data included in this document is from www.openstreetmap.org. The data is made available under ODbL."}, "elements": [{"type": "node", "id": 846810579, "lat": 41.8993137, "lon": -87.6818666, "tags": {"addr:city": "Chicago", "addr:housenumber": "957", "addr:postcode": "60622", "addr:state": "IL", "addr:street": "North Leavitt Street", "amenity": "bar", "name": "J&M Tap", "phone": "+1-773-235-0499", "website": "https://www.jmtap.com/"}}, {"type": "node", "id": 1092085195, "lat": 41.8980584, "lon": -87.6745111, "tags": {"addr:city": "Chicago", "addr:housenumber": "1858", "addr:postcode": "60622", "addr:state": "IL", "addr:street": "West Iowa Street", "amenity": "bar", "name": "Nilda's Place"}}, {"type": "node", "id": 1092085206, "lat": 41.9012796, "lon": -87.6745795, "tags": {"addr:city": "Chicago", "addr:housenumber": "1059", "addr:postcode": "60622", "addr:state": "IL", "addr:street": "North Wolcott Avenue", "amenity": "bar", "name": "Happy Village", "phone": "+1-773-486-1512"}}, {"type": "node", "id": 1092085208, "lat": 41.9012696, "lon": -87.6761271, "tags": {"addr:city": "Chicago", "addr:housenumber": "1935", "addr:postcode": "60622", "addr:state": "IL", "addr:street": "West Thomas Street", "amenity": "bar", "name": "Innertown Pub", "phone": "+1-773-235-9795", "website": "https://www.innertownpub.com/"}}, {"type": "node", "id": 1786793062, "lat": 41.8994033, "lon": -87.6965093, "tags": {"addr:city": "Chicago", "addr:housenumber": "1001", "addr:postcode": "60622", "addr:state": "IL", "addr:street": "North California Avenue", "amenity": "cafe", "name": "Cafe Marie-Jeanne", "phone": "+1-773-904-7660", "website": "http://www.cafe-marie-jeanne.com/"}}, {"type": "node", "id": 1786793073, "lat": 41.8994722, "lon": -87.6969571, "tags": {"addr:city": "Chicago", "addr:housenumber": "1002", "addr:postcode": "60622", "addr:state": "IL", "addr:street": "North California Avenue", "amenity": "bar", "name": "California Clipper", "phone": "+1-773-384-2547", "website": "http://californiaclipper.com/", "wikidata": "Q42539292"}}, {"type": "node", "id": 1786793074, "lat": 41.8958438, "lon": -87.6904051, "tags": {"addr:city": "Chicago", "addr:housenumber": "2524", "addr:postcode": "60622", "addr:state": "IL", "addr:street": "West Chicago Avenue", "amenity": "restaurant", "name": "Shokolad", "phone": "+1-773-276-6402", "website": "https://www.shokoladpastryandcafe.com/"}}, {"type": "node", "id": 1786793076, "lat": 41.8987428, "lon": -87.686696, "tags": {"addr:city": "Chicago", "addr:housenumber": "939", "addr:postcode": "60622", "addr:state": "IL", "addr:street": "North Western Avenue", "amenity": "cafe", "name": "Cafe Ballou", "phone": "+1-773-661-2114"}}, {"type": "node", "id": 1786793079, "lat": 41.897642, "lon": -87.6919568, "tags": {"addr:city": "Chicago", "addr:housenumber": "2600", "addr:postcode": "60622", "addr:state": "IL", "addr:street": "West Iowa Street", "amenity": "bar", "name": "Archie's", "phone": "+1-872-206-5119", "wifi": "no"}}, {"type": "node", "id": 1786793085, "lat": 41.8958185, "lon": -87.6906931, "tags": {"amenity": "bar", "name": "Black Beetle"}}, {"type": "node", "id": 2196077182, "lat": 41.8959062, "lon": -87.6842781}, {"type": "node", "id": 2196077190, "lat": 41.8959072, "lon": -87.6842138}, {"type": "node", "id": 2196077551, "lat": 41.8960283, "lon": -87.6842805}, {"type": "node", "id": 2196077574, "lat": 41.8960294, "lon": -87.6842181}, {"type": "node", "id": 2196100859, "lat": 41.9005157, "lon": -87.6966727}, {"type": "node", "id": 2196100869, "lat": 41.9005181, "lon": -87.6964112}, {"type": "node", "id": 2196100913, "lat": 41.9005473, "lon": -87.6963896}, {"type": "node", "id": 2196100915, "lat": 41.9005474, "lon": -87.6964116}, {"type": "node", "id": 2196101394, "lat": 41.9005726, "lon": -87.6965032}, {"type": "node", "id": 2196101395, "lat": 41.9005728, "lon": -87.6965307}, {"type": "node", "id": 2196101452, "lat": 41.9005846, "lon": -87.6966739}, {"type": "node", "id": 2196101455, "lat": 41.9005851, "lon": -87.6965325}, {"type": "node", "id": 2196101458, "lat": 41.9005863, "lon": -87.6965031}, {"type": "node", "id": 2196101461, "lat": 41.9005871, "lon": -87.696391}, {"type": "node", "id": 2200061284, "lat": 41.8954081, "lon": -87.6806487}, {"type": "node", "id": 2200061318, "lat": 41.8954122, "lon": -87.6804026}, {"type": "node", "id": 2200061528, "lat": 41.895441, "lon": -87.6804023}, {"type": "node", "id": 2200061557, "lat": 41.8954433, "lon": -87.6803178}, {"type": "node", "id": 2200063472, "lat": 41.8955482, "lon": -87.6806693}, {"type": "node", "id": 2200063479, "lat": 41.8955495, "lon": -87.6806528}, {"type": "node", "id": 2200064291, "lat": 41.8956277, "lon": -87.6806575}, {"type": "node", "id": 2200064294, "lat": 41.8956278, "lon": -87.6806722}, {"type": "node", "id": 2200064702, "lat": 41.8956648, "lon": -87.680659}, {"type": "node", "id": 2200064728, "lat": 41.8956717, "lon": -87.6806736}, {"type": "node", "id": 2200065237, "lat": 41.895739, "lon": -87.6806747}, {"type": "node", "id": 2200065283, "lat": 41.8957439, "lon": -87.6803276}, {"type": "node", "id": 2789533723, "lat": 41.9018656, "lon": -87.6966658, "tags": {"addr:city": "Chicago", "addr:housenumber": "1123", "addr:postcode": "60622", "addr:state": "IL", "addr:street": "North California Avenue", "amenity": "restaurant", "name": "Flying Saucer", "phone": "+1-773-342-9076", "wheelchair": "no"}}, {"type": "node", "id": 3575021393, "lat": 41.9006069, "lon": -87.6867497, "tags": {"addr:city": "Chicago", "addr:housenumber": "1039", "addr:postcode": "60622", "addr:state": "IL", "addr:street": "North Western Avenue", "amenity": "restaurant", "name": "Bite Cafe"}}, {"type": "node", "id": 3575025688, "lat": 41.8998468, "lon": -87.6871843, "tags": {"addr:city": "Chicago", "addr:housenumber": "1012", "addr:postcode": "60622", "addr:state": "IL", "addr:street": "North Western Avenue", "amenity": "restaurant", "name": "Boeufhaus", "phone": "+1-773-661-2116", "website": "http://www.boeufhaus.com/"}}, {"type": "node", "id": 3575025689, "lat": 41.8989825, "lon": -87.6872868, "tags": {"addr:city": "Chicago", "addr:housenumber": "948", "addr:postcode": "60622", "addr:state": "IL", "addr:street": "North Western Avenue", "amenity": "bar", "name": "Sportsman's Club", "phone": "+1-872-206-8054", "website": "https://drinkingandgathering.com/"}}, {"type": "node", "id": 3575025690, "lat": 41.8986011, "lon": -87.6866989, "tags": {"amenity": "bar", "name": "Stella's Tap"}}, {"type": "node", "id": 3575029393, "lat": 41.8955111, "lon": -87.6969684, "tags": {"addr:city": "Chicago", "addr:housenumber": "2803", "addr:postcode": "60622", "addr:state": "IL", "addr:street": "West Chicago Avenue", "amenity": "restaurant", "cuisine": "chicken", "name": "Feed", "phone": "+1-773-489-4600", "website": "http://feedrestaurantchicago.com/"}}, {"type": "node", "id": 3575084300, "lat": 41.8972953, "lon": -87.6866638, "tags": {"addr:city": "Chicago", "addr:housenumber": "853", "addr:postcode": "60622", "addr:state": "IL", "addr:street": "North Western Avenue", "amenity": "bar", "name": "Blind Robin", "phone": "+1-773-395-3002", "website": "http://theblindrobin.com/"}}, {"type": "node", "id": 3712617658, "lat": 41.8960881, "lon": -87.6756709, "tags": {"addr:city": "chicago", "addr:housenumber": "1924", "addr:state": "il", "addr:street": "West Chicago Avenue", "amenity": "restaurant", "cuisine": "pizza", "name": "Roots Handmade Pizza"}}, {"type": "node", "id": 3908762561, "lat": 41.8993899, "lon": -87.6970785, "tags": {"addr:city": "Chicago", "addr:country": "US", "addr:housenumber": "2806", "addr:postcode": "60622", "addr:state": "IL", "addr:street": "West Augusta Boulevard", "amenity": "cafe", "name": "CC Ferns Coffee Bar & Spirits", "phone": "+1-773-384-2547", "website": "http://ccferns.com/"}}, {"type": "node", "id": 4085259564, "lat": 41.8905641, "lon": -87.6855565, "tags": {"addr:city": "Chicago", "addr:country": "US", "addr:housenumber": "2333", "addr:postcode": "60612", "addr:state": "IL", "addr:street": "West Grand Avenue", "amenity": "restaurant", "name": "Chavas Tacos El Original", "phone": "+1-312-226-1129", "website": "http://chavastacoseloriginal.com/"}}, {"type": "node", "id": 4119390732, "lat": 41.8996708, "lon": -87.6773815, "tags": {"addr:city": "Chicago", "addr:housenumber": "1000", "addr:postcode": "60622", "addr:state": "IL", "addr:street": "North Damen Avenue", "amenity": "cafe", "cuisine": "coffee_shop", "name": "Dollop", "website": "https://dollop.coffee/"}}, {"type": "node", "id": 4564043789, "lat": 41.8960919, "lon": -87.6754459, "tags": {"addr:city": "Chicago", "addr:housenumber": "1916", "addr:postcode": "60622", "addr:state": "IL", "addr:street": "West Chicago Avenue", "amenity": "restaurant", "cuisine": "american", "name": "West Town Bakery & Diner"}}, {"type": "node", "id": 4564043790, "lat": 41.8960435, "lon": -87.6778486, "tags": {"addr:city": "Chicago", "addr:housenumber": "2018", "addr:postcode": "60622", "addr:state": "IL", "addr:street": "West Chicago Avenue", "amenity": "restaurant", "cuisine": "american", "name": "Whisk"}}, {"type": "node", "id": 4564043791, "lat": 41.896048, "lon": -87.6776697, "tags": {"addr:city": "Chicago", "addr:housenumber": "2012", "addr:postcode": "60622", "addr:state": "IL", "addr:street": "West Chicago Avenue", "amenity": "restaurant", "cuisine": "american", "name": "Sunrise Cafe", "phone": "+1-773-276-8290", "website": "http://www.sunrisecafechicago.com/"}}, {"type": "node", "id": 4599123098, "lat": 41.8992629, "lon": -87.6867058, "tags": {"addr:city": "Chicago", "addr:housenumber": "959", "addr:postcode": "60622", "addr:state": "IL", "addr:street": "North Western Avenue", "amenity": "restaurant", "cuisine": "american", "name": "Leghorn Chicken", "website": "http://www.leghornchicken.com"}}, {"type": "node", "id": 4724858615, "lat": 41.8982098, "lon": -87.6866754, "tags": {"addr:city": "Chicago", "addr:housenumber": "921", "addr:postcode": "60622", "addr:state": "IL", "addr:street": "North Western Avenue", "amenity": "bar", "name": "EZ Inn", "opening_hours": "Su-Fr 17:00-02:00; Sa 17:00-03:00", "phone": "+1-773-698-7372", "website": "http://www.ez-inn.com"}}, {"type": "node", "id": 4728267690, "lat": 41.8959197, "lon": -87.6831752, "tags": {"addr:postcode": "60622", "amenity": "cafe", "name": "Old Lviv", "name:ru": "\u0421\u0442\u0430\u0440\u044b\u0439 \u041b\u044c\u0432\u043e\u0432", "opening_hours": "Tu-Su 11:00-20:00", "phone": "+17737727250"}}, {"type": "node", "id": 4858475595, "lat": 41.8958169, "lon": -87.693432, "tags": {"addr:city": "Chicago", "addr:housenumber": "2640", "addr:postcode": "60622", "addr:state": "IL", "addr:street": "West Chicago Avenue", "amenity": "restaurant", "cuisine": "mexican", "name": "Yoli's Tacos", "opening_hours": "Mo-Su 10:00-22:00", "phone": "+1-872-802-4544"}}, {"type": "node", "id": 5195156460, "lat": 41.8942344, "lon": -87.676849, "tags": {"addr:city": "Chicago", "addr:housenumber": "701", "addr:postcode": "60622", "addr:state": "IL", "addr:street": "North Damen Avenue", "amenity": "bar", "name": "Damen Tavern", "outdoor_seating": "no", "phone": "+1-312-796-3191", "smoking": "no"}}, {"type": "node", "id": 5794886652, "lat": 41.8868879, "lon": -87.6776977, "tags": {"addr:city": "Chicago", "addr:housenumber": "2010", "addr:postcode": "60612", "addr:state": "IL", "addr:street": "West Fulton Street", "amenity": "bar", "craft": "distillery", "name": "Rhine Hall Distillery", "note": "Rhine Hall Distillery has a tasting room that's open to the public.", "opening_hours": "We-Fr 17:00-21:00; Sa 14:00-19:00", "phone": "+1-312-243-4313", "product": "brandy", "website": "https://www.rhinehall.com/"}}, {"type": "node", "id": 5794890475, "lat": 41.886502, "lon": -87.6783765, "tags": {"addr:city": "Chicago", "addr:housenumber": "2021", "addr:postcode": "60612", "addr:state": "IL", "addr:street": "West Fulton Street", "addr:unit": "K-101B", "amenity": "cafe", "name": "Metric Coffee", "opening_hours": "Mo-Fr 07:00-16:00; Sa 08:00-14:00", "phone": "+1-312-982-2196", "website": "https://metriccoffee.com/pages/metric-west-fulton"}}, {"type": "node", "id": 5952502358, "lat": 41.8957821, "lon": -87.676877, "tags": {"addr:city": "Chicago", "addr:housenumber": "1959", "addr:postcode": "60622", "addr:state": "IL", "addr:street": "West Chicago Avenue", "amenity": "restaurant", "cuisine": "mexican", "name": "El Metro Mexican Cantina"}}, {"type": "node", "id": 6256421651, "lat": 41.8959957, "lon": -87.6814225, "tags": {"addr:city": "Chicago", "addr:housenumber": "2148", "addr:postcode": "60622", "addr:state": "IL", "addr:street": "West Chicago Avenue", "amenity": "restaurant", "name": "A Tavola", "phone": "+1-773-276-7567", "website": "https://www.atavolachi.com/"}}, {"type": "node", "id": 6263059442, "lat": 41.8899164, "lon": -87.6782682, "tags": {"addr:city": "Chicago", "addr:housenumber": "2032", "addr:postcode": "60612", "addr:state": "IL", "addr:street": "West Hubbard Street", "amenity": "restaurant", "name": "Art Of Dosa", "phone": "+1-312-899-6238"}}, {"type": "node", "id": 6267353609, "lat": 41.8892412, "lon": -87.6875116, "tags": {"addr:city": "Chicago", "addr:housenumber": "2427", "addr:postcode": "60612", "addr:state": "IL", "addr:street": "West Hubbard Street", "amenity": "cafe", "name": "Blend Cafe", "phone": "+1-312-265-1121"}}, {"type": "node", "id": 6269127897, "lat": 41.8956638, "lon": -87.680397, "tags": {"addr:city": "Chicago", "addr:housenumber": "2119", "addr:postcode": "60622", "addr:state": "IL", "addr:street": "West Chicago Avenue", "amenity": "bar", "name": "Brothers and Sisters", "phone": "+1-773-661-1599", "website": "https://www.brothersandsisters.fun/"}}, {"type": "node", "id": 6282893511, "lat": 41.8956943, "lon": -87.6759915, "tags": {"addr:city": "chicago", "addr:housenumber": "1935", "addr:postcode": "60622", "addr:state": "IL", "addr:street": "West Chicago Avenue", "amenity": "restaurant", "name": "Cleos", "phone": "+1-312-243-5600", "website": "http://www.cleospub.com/"}}, {"type": "node", "id": 6284202956, "lat": 41.8950429, "lon": -87.687107, "tags": {"addr:city": "Chicago", "addr:housenumber": "738", "addr:postcode": "60612", "addr:state": "IL", "addr:street": "North Western Avenue", "amenity": "cafe", "contact:facebook": "https://www.facebook.com/DarkMatterCoffee/", "contact:instagram": "https://www.instagram.com/darkmattercoffee/", "contact:phone": "+1 773 697 8472", "contact:pinterest": "https://www.pinterest.de/darkmattercoffe/", "contact:twitter": "https://twitter.com/DarkMatter2521", "contact:website": "https://www.darkmattercoffee.com/", "contact:youtube": "https://www.youtube.com/channel/UCUa0veV32dQbEr8nX78eSUw", "cuisine": "coffee_shop", "name": "Dark Matter Coffee - The Mothership", "opening_hours": "Mo-Su 07:00-17:00", "payment:american_express": "yes", "payment:diners_club": "yes", "payment:mastercard": "yes", "payment:visa": "yes"}}, {"type": "node", "id": 6290064774, "lat": 41.8932472, "lon": -87.6841486, "tags": {"addr:city": "Chicago", "addr:housenumber": "2258", "addr:postcode": "60612", "addr:state": "IL", "addr:street": "West Erie Street", "amenity": "restaurant", "name": "Fiore Delicatessen", "phone": "+1-312-942-9419", "website": "http://www.fioresdelicatessen.com/"}}, {"type": "node", "id": 6291245713, "lat": 41.8975737, "lon": -87.6773583, "tags": {"addr:city": "Chicago", "addr:housenumber": "852", "addr:postcode": "60622", "addr:state": "IL", "addr:street": "North Damen Avenue", "amenity": "cafe", "name": "Francesca\u2019s Cafe", "phone": "+1-630-440-8306", "website": "http://francescasondamen.com/"}}, {"type": "node", "id": 6291791910, "lat": 41.897562, "lon": -87.6772721, "tags": {"addr:city": "Chicago", "addr:housenumber": "852", "addr:postcode": "60622", "addr:state": "IL", "addr:street": "North Damen Avenue", "amenity": "cafe", "name": "Gigi\u2019s Cafe & Juicery", "phone": "+1-312-675-8174", "website": "https://gigis-cafe-juicery.business.site/#details"}}, {"type": "node", "id": 6294339445, "lat": 41.8959484, "lon": -87.694408, "tags": {"addr:city": "Chicago", "addr:housenumber": "2700", "addr:postcode": "60622", "addr:state": "IL", "addr:street": "West Chicago Avenue", "amenity": "restaurant", "name": "Heritage Restaurant and Caviar Bar", "phone": "+1-773-661-9577", "website": "https://heritage-chicago.com/"}}, {"type": "node", "id": 6294445903, "lat": 41.8961863, "lon": -87.6761921, "tags": {"addr:city": "Chicago", "addr:housenumber": "1938", "addr:postcode": "60622", "addr:state": "IL", "addr:street": "West Chicago Avenue", "amenity": "bar", "name": "High Dive", "phone": "+1-773-235-3483", "website": "http://www.highdivechicago.com/"}}, {"type": "node", "id": 6294541117, "lat": 41.8962749, "lon": -87.6756534, "tags": {"addr:city": "Chicago", "addr:housenumber": "1924", "addr:postcode": "60622", "addr:state": "IL", "addr:street": "West Chicago Avenue", "amenity": "restaurant", "name": "Homestead on the Roof", "phone": "+1-773-332-2354", "website": "http://www.homesteadontheroof.com/"}}, {"type": "node", "id": 6298048500, "lat": 41.8875309, "lon": -87.6778969, "tags": {"addr:city": "Chicago", "addr:housenumber": "2023", "addr:postcode": "60612", "addr:state": "IL", "addr:street": "West Carroll Avenue", "amenity": "cafe", "name": "Ineeka", "phone": "+1-312-661-1550", "website": "http://www.treleela.com/"}}, {"type": "node", "id": 6298939468, "lat": 41.8957548, "lon": -87.6758258, "tags": {"addr:city": "chicago", "addr:housenumber": "1931", "addr:postcode": "60622", "addr:state": "IL", "addr:street": "West Chicago Avenue", "amenity": "restaurant", "name": "Soule", "phone": "+1-312-526-3825", "website": "https://www.soulechicago.com/"}}, {"type": "node", "id": 6300078345, "lat": 41.8870697, "lon": -87.6740659, "tags": {"addr:city": "Chicago", "addr:housenumber": "1850", "addr:postcode": "60612", "addr:state": "IL", "addr:street": "West Fulton Street", "amenity": "cafe", "name": "Intelligentsia Roasting Works & Offices", "phone": "+1-888-945-9786", "website": "https://www.intelligentsiacoffee.com/"}}, {"type": "node", "id": 6300304352, "lat": 41.899407, "lon": -87.6971852, "tags": {"addr:city": "Chicago", "addr:housenumber": "1000", "addr:postcode": "60622", "addr:state": "IL", "addr:street": "North California Avenue", "amenity": "cafe", "name": "Spinning J", "phone": "+1-872-829-2793", "website": "http://www.spinningj.com/"}}, {"type": "node", "id": 6300313243, "lat": 41.895924, "lon": -87.689589, "tags": {"addr:city": "Chicago", "addr:housenumber": "2500", "addr:postcode": "60622", "addr:state": "IL", "addr:street": "West Chicago Avenue", "amenity": "restaurant", "cuisine": "american;chicken", "name": "Split-Rail", "phone": "+1-773-697-4413", "website": "http://www.splitrailchicago.com"}}, {"type": "node", "id": 6300686046, "lat": 41.8955719, "lon": -87.6901818, "tags": {"addr:city": "Chicago", "addr:housenumber": "2521", "addr:postcode": "60622", "addr:state": "IL", "addr:street": "West Chicago Avenue", "amenity": "cafe", "name": "Star Lounge Coffee Bar", "phone": "+1-773-384-7827", "website": "https://www.darkmattercoffee.com/"}}, {"type": "node", "id": 6300782077, "lat": 41.8989745, "lon": -87.6865757, "tags": {"addr:city": "Chicago", "addr:housenumber": "949", "addr:postcode": "60622", "addr:state": "IL", "addr:street": "North Western Avenue", "amenity": "restaurant", "name": "Salsa Picante", "phone": "+1-773-904-8406", "website": "http://www.salsapicante949.com/"}}, {"type": "node", "id": 6300877131, "lat": 41.8956256, "lon": -87.6799662, "tags": {"addr:city": "Chicago", "addr:housenumber": "2109", "addr:postcode": "60622", "addr:state": "IL", "addr:street": "West Chicago Avenue", "amenity": "bar", "name": "The Rookery", "phone": "+1-773-772-0406", "website": "http://www.rookery.pub/"}}, {"type": "node", "id": 6301042528, "lat": 41.8990442, "lon": -87.6969506, "tags": {"addr:city": "Chicago", "addr:housenumber": "954", "addr:postcode": "60622", "addr:state": "IL", "addr:street": "North California Avenue", "amenity": "bar", "name": "Rootstock Wine & Beer Bar", "phone": "+1-773-292-1616", "website": "https://www.rootstockbar.com/"}}, {"type": "node", "id": 6301585470, "lat": 41.8989024, "lon": -87.6766499, "tags": {"addr:city": "Chicago", "addr:housenumber": "941", "addr:postcode": "60622", "addr:state": "IL", "addr:street": "North Damen Avenue", "amenity": "restaurant", "name": "Sabroso! Mexican Grill", "phone": "+1-773-253-5001", "website": "http://sabrosochicago.com/"}}, {"type": "node", "id": 6301725940, "lat": 41.8986252, "lon": -87.6866105, "tags": {"addr:city": "Chicago", "addr:housenumber": "935", "addr:postcode": "60622", "addr:state": "IL", "addr:street": "West Walton Street", "amenity": "bar", "name": "Stella\u2019s Sports Bar", "phone": "+1-773-384-0077"}}, {"type": "node", "id": 6305259456, "lat": 41.89596, "lon": -87.6907321, "tags": {"addr:city": "Chicago", "addr:housenumber": "2532", "addr:postcode": "60622", "addr:state": "IL", "addr:street": "West Chicago Avenue", "amenity": "bar", "name": "The Beetle Bar and Grill", "phone": "+1-773-384-0701", "website": "https://www.thebeetlechicago.com/"}}, {"type": "node", "id": 6306586520, "lat": 41.8954045, "lon": -87.6968487, "tags": {"addr:city": "Chicago", "addr:housenumber": "2801", "addr:postcode": "60622", "addr:state": "IL", "addr:street": "West Chicago Avenue", "amenity": "bar", "name": "The Continental", "phone": "+1-773-292-1200"}}, {"type": "node", "id": 6306612141, "lat": 41.8879186, "lon": -87.6825861, "tags": {"addr:city": "Chicago", "addr:housenumber": "324", "addr:postcode": "60612", "addr:state": "IL", "addr:street": "North Leavitt Street", "amenity": "restaurant", "name": "The Corner Farmacy", "phone": "+1-563-271-7936", "website": "https://www.thecornerfarmacy.com/"}}, {"type": "node", "id": 6306783213, "lat": 41.8955443, "lon": -87.6821999, "tags": {"addr:city": "Chicago", "addr:housenumber": "2201", "addr:postcode": "60622", "addr:state": "IL", "addr:street": "West Chicago Avenue", "amenity": "restaurant", "name": "Tryzub Ukrainian Kitchen", "phone": "+1-773-698-8624", "website": "https://tryzubchicago.com/"}}, {"type": "node", "id": 6306811233, "lat": 41.8955557, "lon": -87.6817912, "tags": {"addr:city": "Chicago", "addr:housenumber": "2159", "addr:postcode": "60622", "addr:state": "IL", "addr:street": "West Chicago Avenue", "amenity": "bar", "name": "Tuman\u2019s Tap and Grill", "phone": "+1-773-782-1400", "website": "http://www.tumanstapandgrill.com/"}}, {"type": "node", "id": 6315209496, "lat": 41.9004807, "lon": -87.6866529, "tags": {"addr:city": "Chicago", "addr:housenumber": "1035", "addr:postcode": "60622", "addr:state": "IL", "addr:street": "North Western Avenue", "amenity": "bar", "name": "The Empty Bottle", "phone": "+1-773-276-3600", "website": "http://emptybottle.com/"}}, {"type": "node", "id": 6316808950, "lat": 41.8962538, "lon": -87.6754191, "tags": {"addr:city": "Chicago", "addr:housenumber": "1916", "addr:postcode": "60622", "addr:state": "IL", "addr:street": "West Chicago Avenue", "amenity": "restaurant", "name": "West Town Bakery & Diner", "phone": "+1-773-904-1414", "website": "https://www.westtownbakery.com/"}}, {"type": "node", "id": 6319067420, "lat": 41.8878949, "lon": -87.6826783, "tags": {"addr:city": "Chicago", "addr:housenumber": "324", "addr:postcode": "60612", "addr:state": "IL", "addr:street": "North Leavitt Street", "amenity": "restaurant", "name": "Kaathis", "phone": "+1-872-222-0502", "website": "https://kaathis.com/"}}, {"type": "node", "id": 6319134431, "lat": 41.8955355, "lon": -87.691556, "tags": {"addr:city": "Chicago", "addr:housenumber": "2557", "addr:postcode": "60622", "addr:state": "IL", "addr:street": "West Chicago Avenue", "amenity": "restaurant", "name": "Kai Zan", "phone": "+1-773-278-5776", "website": "http://www.eatatkaizan.com/"}}, {"type": "node", "id": 6319238724, "lat": 41.8903498, "lon": -87.677052, "tags": {"addr:city": "Chicago", "addr:housenumber": "456", "addr:postcode": "60612", "addr:state": "IL", "addr:street": "North Damen Avenue", "amenity": "restaurant", "cuisine": "american", "name": "Lilly Bell's Diner"}}, {"type": "node", "id": 6320597249, "lat": 41.9001764, "lon": -87.6873202, "tags": {"addr:city": "Chicago", "addr:housenumber": "1024", "addr:postcode": "60622", "addr:state": "IL", "addr:street": "North Western Avenue", "amenity": "restaurant", "name": "Lockdown Bar & Grill", "phone": "+1-773-451-5625", "website": "http://www.lockdownbar.com/"}}, {"type": "node", "id": 6320599857, "lat": 41.9001086, "lon": -87.6872894, "tags": {"addr:city": "Chicago", "addr:housenumber": "1022", "addr:postcode": "60622", "addr:state": "IL", "addr:street": "North Western Avenue", "amenity": "restaurant", "name": "Lockdown Smoked", "phone": "+1-773-270-5987"}}, {"type": "node", "id": 6322126530, "lat": 41.8988016, "lon": -87.6767479, "tags": {"addr:city": "Chicago", "addr:housenumber": "937", "addr:postcode": "60622", "addr:state": "IL", "addr:street": "North Damen Avenue", "amenity": "restaurant", "name": "Tai Nang", "phone": "+1-773-666-5996"}}, {"type": "node", "id": 6322955756, "lat": 41.8881143, "lon": -87.6824802, "tags": {"addr:city": "Chicago", "addr:housenumber": "324", "addr:postcode": "60612", "addr:state": "IL", "addr:street": "North Bell Avenue", "amenity": "restaurant", "name": "The Corner Farmacy", "phone": "+1-563-271-7936", "website": "https://www.thecornerfarmacy.com/"}}, {"type": "node", "id": 6322995244, "lat": 41.8955065, "lon": -87.6845512, "tags": {"addr:city": "Chicago", "addr:housenumber": "2301", "addr:postcode": "60612", "addr:state": "IL", "addr:street": "West Chicago Avenue", "amenity": "bar", "name": "Mr Brown\u2019s Lounge", "phone": "+1-773-278-4445", "website": "https://mrbrownslounge.com/"}}, {"type": "node", "id": 6323927179, "lat": 41.8991171, "lon": -87.6769007, "tags": {"addr:city": "Chicago", "addr:housenumber": "947", "addr:postcode": "60622", "addr:state": "IL", "addr:street": "North Damen Avenue", "amenity": "bar", "name": "Ola\u2019s Liquor", "phone": "+1-773-384-7250"}}, {"type": "node", "id": 6386781829, "lat": 41.8910136, "lon": -87.6792392}, {"type": "node", "id": 6386781838, "lat": 41.8910189, "lon": -87.6789727}, {"type": "node", "id": 6386781854, "lat": 41.8908915, "lon": -87.6792348}, {"type": "node", "id": 6386781855, "lat": 41.8908967, "lon": -87.6789684}, {"type": "way", "id": 209388381, "nodes": [2196100869, 2196100859, 2196101452, 2196101455, 2196101395, 2196101394, 2196101458, 2196101461, 2196100913, 2196100915, 2196100869], "tags": {"addr:city": "Chicago", "addr:housenumber": "1043", "addr:postcode": "60622", "addr:state": "IL", "addr:street": "North California Avenue", "addr:street:name": "California", "addr:street:prefix": "North", "addr:street:type": "Avenue", "amenity": "bar", "building": "yes", "building:levels": "2", "chicago:building_id": "867167", "name": "Lucy\u2019s", "phone": "+1-312-675-8385", "website": "http://www.lucyschicago.com/"}}, {"type": "way", "id": 209389468, "nodes": [2196077182, 2196077551, 2196077574, 2196077190, 2196077182], "tags": {"addr:city": "Chicago", "addr:housenumber": "2258", "addr:postcode": "60622", "addr:state": "IL", "addr:street": "West Chicago Avenue", "addr:street:name": "Chicago", "addr:street:prefix": "West", "addr:street:type": "Avenue", "amenity": "restaurant", "building": "commercial", "building:levels": "1", "chicago:building_id": "339921", "name": "Fatso's Last Stand", "phone": "+1-773-245-3287", "website": "http://www.fatsoslaststand.com/"}}, {"type": "way", "id": 209841304, "nodes": [2200061284, 2200063479, 2200063472, 2200064294, 2200064291, 2200064702, 2200064728, 2200065237, 2200065283, 2200061557, 2200061528, 2200061318, 2200061284], "tags": {"addr:housenumber": "2119-2127", "addr:street": "West Chicago Avenue", "addr:street:name": "Chicago", "addr:street:prefix": "West", "addr:street:type": "Avenue", "amenity": "bar", "building": "yes", "building:levels": "3", "chicago:building_id": "340465"}}, {"type": "way", "id": 682002315, "nodes": [6386781829, 6386781838, 6386781855, 6386781854, 6386781829], "tags": {"addr:city": "Chicago", "addr:housenumber": "2054", "addr:postcode": "60612", "addr:state": "IL", "addr:street": "West Grand Avenue", "amenity": "restaurant", "building": "yes", "name": "Upton\u2019s Breakroom", "phone": "+1-312-666-7838", "website": "http://www.uptonsnaturals.com/breakroom"}}]}