{"version": 0.6, "generator": "Overpass API 0.7.56.1004 6cd3eaec", "osm3s": {"timestamp_osm_base": "2020-07-22T01:30:02Z", "copyright": "The data included in this document is from www.openstreetmap.org. The data is made available under ODbL."}, "elements": [{"type": "node", "id": 1130094835, "lat": 41.922644, "lon": -87.697483, "tags": {"addr:city": "Chicago", "addr:housenumber": "2230", "addr:postcode": "60647", "addr:street": "North California Avenue", "amenity": "bar", "food": "yes", "name": "Logan Bar", "outdoor_seating": "yes", "phone": "+1-773-252-1110", "website": "loganchicago.com", "wheelchair": "yes"}}, {"type": "node", "id": 1262345400, "lat": 41.923399, "lon": -87.698384, "tags": {"addr:city": "Chicago", "addr:housenumber": "2320", "addr:postcode": "60647", "addr:street": "North Milwaukee Avenue", "amenity": "restaurant", "cuisine": "mexican", "name": "2 Amigos", "smoking": "no", "takeaway": "yes"}}, {"type": "node", "id": 1585389610, "lat": 41.9165513, "lon": -87.6876454, "tags": {"addr:city": "Chicago", "addr:housenumber": "2403", "addr:postcode": "60647", "addr:state": "IL", "addr:street": "West Homer Street", "amenity": "bar", "name": "Green Eye Lounge", "phone": "+1-773-227-8851", "website": "https://greeneyelounge.com/"}}, {"type": "node", "id": 1585392218, "lat": 41.9162779, "lon": -87.6876159, "tags": {"addr:housenumber": "1912", "addr:postcode": "60647", "addr:street": "North Western Avenue", "amenity": "restaurant", "delivery": "yes", "name": "Belly Shack", "phone": "773-252-1414", "takeaway": "yes", "website": "http://www.bellyshack.com/", "wheelchair": "yes"}}, {"type": "node", "id": 1585431689, "lat": 41.9175173, "lon": -87.7092157, "tags": {"amenity": "restaurant", "cuisine": "mexican", "name": "Soul del Sur"}}, {"type": "node", "id": 2196193268, "lat": 41.9159196, "lon": -87.6867571}, {"type": "node", "id": 2196193451, "lat": 41.9159617, "lon": -87.6868213}, {"type": "node", "id": 2196193545, "lat": 41.915989, "lon": -87.6867898}, {"type": "node", "id": 2196193552, "lat": 41.9159898, "lon": -87.6867913}, {"type": "node", "id": 2196194592, "lat": 41.9161233, "lon": -87.6865173}, {"type": "node", "id": 2196194760, "lat": 41.916162, "lon": -87.6865768}, {"type": "node", "id": 2196202533, "lat": 41.9175502, "lon": -87.7012866}, {"type": "node", "id": 2196202677, "lat": 41.9176383, "lon": -87.691975}, {"type": "node", "id": 2196202683, "lat": 41.9176422, "lon": -87.6917584}, {"type": "node", "id": 2196202720, "lat": 41.9176585, "lon": -87.6872249}, {"type": "node", "id": 2196202730, "lat": 41.9176651, "lon": -87.6869235}, {"type": "node", "id": 2196202738, "lat": 41.9177234, "lon": -87.7014016}, {"type": "node", "id": 2196202741, "lat": 41.9177234, "lon": -87.7012512}, {"type": "node", "id": 2196202833, "lat": 41.917758, "lon": -87.6917659}, {"type": "node", "id": 2196202841, "lat": 41.9177261, "lon": -87.6872275}, {"type": "node", "id": 2196202858, "lat": 41.9177353, "lon": -87.6869261}, {"type": "node", "id": 2196202906, "lat": 41.9177593, "lon": -87.6918226}, {"type": "node", "id": 2196202907, "lat": 41.9177896, "lon": -87.6918307}, {"type": "node", "id": 2196202979, "lat": 41.9177639, "lon": -87.6918958}, {"type": "node", "id": 2196202980, "lat": 41.9177911, "lon": -87.6918836}, {"type": "node", "id": 2196203152, "lat": 41.9178575, "lon": -87.6872324}, {"type": "node", "id": 2196203213, "lat": 41.9178665, "lon": -87.6869311}, {"type": "node", "id": 2196206485, "lat": 41.9187496, "lon": -87.6872131}, {"type": "node", "id": 2196206495, "lat": 41.9187509, "lon": -87.6870606}, {"type": "node", "id": 2196206652, "lat": 41.9188065, "lon": -87.6872141}, {"type": "node", "id": 2196206656, "lat": 41.9188078, "lon": -87.6870616}, {"type": "node", "id": 2196211921, "lat": 41.9197956, "lon": -87.6878427}, {"type": "node", "id": 2196211927, "lat": 41.9197964, "lon": -87.6877379}, {"type": "node", "id": 2196212294, "lat": 41.9198464, "lon": -87.687844}, {"type": "node", "id": 2196212302, "lat": 41.9198486, "lon": -87.6877393}, {"type": "node", "id": 2196212544, "lat": 41.9199429, "lon": -87.693305}, {"type": "node", "id": 2196212651, "lat": 41.9199844, "lon": -87.6933707}, {"type": "node", "id": 2196213642, "lat": 41.9201501, "lon": -87.6930714}, {"type": "node", "id": 2196213756, "lat": 41.9201916, "lon": -87.6931372}, {"type": "node", "id": 2196219001, "lat": 41.9215776, "lon": -87.6956256}, {"type": "node", "id": 2196219109, "lat": 41.9216007, "lon": -87.6955813}, {"type": "node", "id": 2196219159, "lat": 41.9216076, "lon": -87.6955922}, {"type": "node", "id": 2196219243, "lat": 41.9216164, "lon": -87.6956877}, {"type": "node", "id": 2196219263, "lat": 41.9216286, "lon": -87.6956595}, {"type": "node", "id": 2196219376, "lat": 41.9216341, "lon": -87.6956673}, {"type": "node", "id": 2196219430, "lat": 41.9216422, "lon": -87.6956433}, {"type": "node", "id": 2196219524, "lat": 41.9216498, "lon": -87.6955275}, {"type": "node", "id": 2196219791, "lat": 41.9216762, "lon": -87.6955934}, {"type": "node", "id": 2196219836, "lat": 41.9216817, "lon": -87.6956007}, {"type": "node", "id": 2196219846, "lat": 41.9216844, "lon": -87.6955841}, {"type": "node", "id": 2196223815, "lat": 41.9222373, "lon": -87.6970668}, {"type": "node", "id": 2196224182, "lat": 41.92233, "lon": -87.6972055}, {"type": "node", "id": 2196224337, "lat": 41.9223909, "lon": -87.6970506}, {"type": "node", "id": 2196224360, "lat": 41.9224214, "lon": -87.6970962}, {"type": "node", "id": 2196224379, "lat": 41.9224336, "lon": -87.6968315}, {"type": "node", "id": 2196224793, "lat": 41.9224959, "lon": -87.6969228}, {"type": "node", "id": 2393555254, "lat": 41.9175501, "lon": -87.7013997}, {"type": "node", "id": 2461374190, "lat": 41.922552, "lon": -87.697519, "tags": {"addr:city": "Chicago", "addr:housenumber": "2226", "addr:postcode": "60647", "addr:state": "IL", "addr:street": "North California Avenue", "amenity": "restaurant", "cuisine": "mexican", "name": "Taqueria Moran", "phone": "+1-773-235-2663", "wheelchair": "limited"}}, {"type": "node", "id": 2665801433, "lat": 41.917717, "lon": -87.6919771}, {"type": "node", "id": 2665801438, "lat": 41.9177654, "lon": -87.6919791}, {"type": "node", "id": 2732205615, "lat": 41.9233284, "lon": -87.6978085, "tags": {"addr:city": "Chicago", "addr:housenumber": "2313", "addr:postcode": "60647", "addr:state": "IL", "addr:street": "North Milwaukee Avenue", "amenity": "cafe", "name": "Cafe Mustache", "phone": "+1-773-687-9063", "website": "http://www.cafemustache.com/"}}, {"type": "node", "id": 2761689189, "lat": 41.921848, "lon": -87.6974778, "tags": {"amenity": "bar", "name": "Township"}}, {"type": "node", "id": 2761695654, "lat": 41.91902, "lon": -87.6971023, "tags": {"amenity": "cafe", "name": "Bang Bang Pie Shop"}}, {"type": "node", "id": 2789537651, "lat": 41.9173555, "lon": -87.6984206, "tags": {"addr:city": "Chicago", "addr:housenumber": "2829", "addr:postcode": "60647", "addr:state": "IL", "addr:street": "West Armitage Avenue", "amenity": "restaurant", "cuisine": "mexican", "name": "Dos Urban Cantina", "opening_hours": "Tu-Th 17:00-21:00; Fr-Sa 17:00-23:00; Su 17:00-21:00", "phone": "+1-773-661-6452", "website": "https://dosurbancantina.com", "wheelchair": "no"}}, {"type": "node", "id": 3232688565, "lat": 41.9220029, "lon": -87.6974958, "tags": {"amenity": "restaurant", "name": "Masada"}}, {"type": "node", "id": 3551841162, "lat": 41.9176933, "lon": -87.6982559, "tags": {"addr:city": "Chicago", "addr:housenumber": "2824", "addr:postcode": "60647", "addr:state": "IL", "addr:street": "West Armitage Avenue", "amenity": "restaurant", "cuisine": "italian", "name": "Osteria Langhe", "phone": "+1-773-661-1582", "website": "https://www.osterialanghe.com/"}}, {"type": "node", "id": 3551845150, "lat": 41.9172774, "lon": -87.7072038, "tags": {"addr:city": "Chicago", "addr:housenumber": "3201", "addr:postcode": "60647", "addr:state": "IL", "addr:street": "West Armitage Avenue", "amenity": "restaurant", "name": "Scofflaw", "phone": "+1-773-252-9700", "website": "https://www.scofflawchicago.com/"}}, {"type": "node", "id": 3551845848, "lat": 41.9172729, "lon": -87.7075819, "tags": {"amenity": "restaurant", "name": "Sink|Swim"}}, {"type": "node", "id": 3563902071, "lat": 41.9196387, "lon": -87.691747, "tags": {"amenity": "restaurant", "brand": "Wasabi", "brand:wikidata": "Q23891278", "brand:wikipedia": "en:Wasabi (restaurant)", "cuisine": "japanese", "name": "Wasabi"}}, {"type": "node", "id": 3570191046, "lat": 41.9128303, "lon": -87.6972374, "tags": {"amenity": "restaurant", "cuisine": "puerto_rican", "name": "El Nuevo Borinquen"}}, {"type": "node", "id": 3570243600, "lat": 41.91811, "lon": -87.6978544, "tags": {"amenity": "restaurant", "cuisine": "chinese", "name": "China Fast Wok"}}, {"type": "node", "id": 3570245693, "lat": 41.917622, "lon": -87.7012335}, {"type": "node", "id": 3570245694, "lat": 41.9176832, "lon": -87.7012494}, {"type": "node", "id": 3570245695, "lat": 41.9176832, "lon": -87.7012371}, {"type": "node", "id": 3570245696, "lat": 41.9176213, "lon": -87.7012893}, {"type": "node", "id": 3574998907, "lat": 41.9172747, "lon": -87.7078352, "tags": {"amenity": "restaurant", "cuisine": "puerto_rican", "name": "La Bomba"}}, {"type": "node", "id": 3575018318, "lat": 41.9183967, "lon": -87.6970911, "tags": {"addr:city": "Chicago", "addr:housenumber": "2023", "addr:postcode": "60647", "addr:state": "IL", "addr:street": "North California Avenue", "amenity": "cafe", "cuisine": "coffee_shop", "name": "La Strada Cafe Bar", "phone": "+1-708-627-0403", "website": "https://www.lastradacafebar.com/"}}, {"type": "node", "id": 3575120599, "lat": 41.9104695, "lon": -87.68575, "tags": {"amenity": "restaurant", "cuisine": "thai", "name": "Thai Lagoon"}}, {"type": "node", "id": 3575120600, "lat": 41.9101455, "lon": -87.6881071, "tags": {"addr:city": "Chicago", "addr:housenumber": "2421", "addr:postcode": "60647", "addr:state": "IL", "addr:street": "West North Avenue", "amenity": "restaurant", "cuisine": "indian", "delivery": "yes", "name": "Rangoli", "phone": "+1-773-697-7114", "takeaway": "yes", "website": "http://rangolifeast.com/"}}, {"type": "node", "id": 3575150416, "lat": 41.918645, "lon": -87.6872335, "tags": {"addr:city": "Chicago", "addr:housenumber": "2035", "addr:postcode": "60647", "addr:state": "IL", "addr:street": "North Western Avenue", "amenity": "cafe", "cuisine": "coffee_shop", "name": "Ipsento", "phone": "+1-773-904-8177", "website": "http://ipsento.com/"}}, {"type": "node", "id": 3575150418, "lat": 41.9201039, "lon": -87.687727, "tags": {"amenity": "restaurant", "cuisine": "pizza", "name": "John's Pizzeria"}}, {"type": "node", "id": 3575150419, "lat": 41.9227343, "lon": -87.6873596, "tags": {"amenity": "restaurant", "cuisine": "mexican", "name": "Quesadilla la Reyna del Sur"}}, {"type": "node", "id": 3575150420, "lat": 41.9226026, "lon": -87.6877914, "tags": {"amenity": "restaurant", "cuisine": "mexican", "name": "Birrieria Estilo Jalisco"}}, {"type": "node", "id": 3575152789, "lat": 41.9222677, "lon": -87.6877992, "tags": {"addr:city": "Chicago", "addr:housenumber": "2218", "addr:postcode": "60647", "addr:state": "IL", "addr:street": "North Western Avenue", "amenity": "bar", "name": "Tap Room", "phone": "+1-773-489-3622"}}, {"type": "node", "id": 3581811864, "lat": 41.917563, "lon": -87.703649, "tags": {"amenity": "restaurant", "cuisine": "pizza", "name": "Dante's Pizzeria"}}, {"type": "node", "id": 3581811866, "lat": 41.9107207, "lon": -87.7070256, "tags": {"amenity": "restaurant", "cuisine": "sushi", "name": "Zoku Sushi"}}, {"type": "node", "id": 3652955076, "lat": 41.9101567, "lon": -87.6878456, "tags": {"amenity": "restaurant", "name": "China Station"}}, {"type": "node", "id": 3659163381, "lat": 41.9171509, "lon": -87.7065151, "tags": {"addr:city": "Chicago", "addr:housenumber": "3129", "addr:postcode": "60647", "addr:state": "IL", "addr:street": "West Armitage Avenue", "amenity": "restaurant", "name": "Logan Eats", "phone": "+1-773-697-7330", "website": "https://www.loganeats.com/"}}, {"type": "node", "id": 3659163383, "lat": 41.9175442, "lon": -87.70471, "tags": {"amenity": "restaurant", "name": "Cheng Chopsticks"}}, {"type": "node", "id": 3659169362, "lat": 41.9176017, "lon": -87.698441, "tags": {"amenity": "restaurant", "name": "SFR"}}, {"type": "node", "id": 3659172691, "lat": 41.9100888, "lon": -87.6938521, "tags": {"addr:city": "Chicago", "addr:housenumber": "2465", "addr:postcode": "60622", "addr:state": "IL", "addr:street": "West North Avenue", "amenity": "bar", "name": "Boulevard Sports Lounge", "phone": "+1-773-687-8456", "website": "http://www.boulevardsportslounge.com/"}}, {"type": "node", "id": 3659172692, "lat": 41.910114, "lon": -87.6927745, "tags": {"amenity": "cafe", "name": "Se\u00f1or Pan Cafe"}}, {"type": "node", "id": 3673559735, "lat": 41.9103602, "lon": -87.7013592, "tags": {"addr:city": "Chicago", "addr:housenumber": "2958", "addr:postcode": "60647", "addr:state": "IL", "addr:street": "West North Avenue", "amenity": "restaurant", "name": "Humboldt Haus", "phone": "+1-773-697-9590"}}, {"type": "node", "id": 3673564376, "lat": 41.9103428, "lon": -87.703029, "tags": {"addr:city": "Chicago", "addr:housenumber": "3018", "addr:postcode": "60647", "addr:state": "IL", "addr:street": "West North Avenue", "amenity": "bar", "name": "Humble Bar & Lounge", "phone": "+1-773-661-2419"}}, {"type": "node", "id": 3675060651, "lat": 41.9065532, "lon": -87.6868969, "tags": {"addr:city": "Chicago", "addr:housenumber": "1357", "addr:postcode": "60622", "addr:state": "IL", "addr:street": "North Western Avenue", "amenity": "restaurant", "cuisine": "american;breakfast;brunch", "name": "Hash Chicago", "opening_hours": "Su-Mo 08:00-15:00; We-Sa 08:00-15:00", "phone": "+1-773-661-2964", "website": "https://www.hashchicago.com/"}}, {"type": "node", "id": 3996419870, "lat": 41.917355, "lon": -87.698579, "tags": {"amenity": "restaurant", "cuisine": "pizza", "name": "Ugo's"}}, {"type": "node", "id": 4039273390, "lat": 41.9135894, "lon": -87.6972582, "tags": {"addr:city": "Chicago", "addr:country": "US", "addr:housenumber": "1752", "addr:postcode": "60647", "addr:state": "IL", "addr:street": "North California Avenue", "amenity": "cafe", "name": "Donut Delight"}}, {"type": "node", "id": 4072448988, "lat": 41.9172859, "lon": -87.7074829, "tags": {"addr:city": "Chicago", "addr:housenumber": "3209", "addr:postcode": "60647", "addr:state": "IL", "addr:street": "West Armitage Avenue", "amenity": "restaurant", "cuisine": "american;american_new;new_american", "name": "Giant", "phone": "+1-773-252-0997", "website": "http://www.giantrestaurant.com"}}, {"type": "node", "id": 4499383715, "lat": 41.9099427, "lon": -87.7090096, "tags": {"amenity": "restaurant", "cuisine": "mexican", "name": "La Perla Tapatia"}}, {"type": "node", "id": 4718913030, "lat": 41.9160583, "lon": -87.6875926, "tags": {"addr:city": "Chicago", "addr:housenumber": "1904", "addr:postcode": "60647", "addr:state": "IL", "addr:street": "North Western Avenue", "amenity": "restaurant", "cuisine": "italian", "name": "Animale", "opening_hours": "Su 12:00-21:00; Mo-Sa 12:00-22:00", "website": "http://www.animalechicago.com/"}}, {"type": "node", "id": 4886579356, "lat": 41.9207382, "lon": -87.693428, "tags": {"addr:city": "Chicago", "addr:housenumber": "2169", "addr:postcode": "60647", "addr:state": "IL", "addr:street": "North Milwaukee Avenue", "amenity": "restaurant", "name": "Serai", "phone": "+1-872-206-8368", "website": "http://www.seraichicago.com/"}}, {"type": "node", "id": 5171385697, "lat": 41.9209586, "lon": -87.6938554, "tags": {"addr:city": "Chicago", "addr:housenumber": "2211", "addr:postcode": "60647", "addr:state": "IL", "addr:street": "North Milwaukee Avenue", "amenity": "bar", "name": "Navigator Taproom", "phone": "+1-773-687-9135", "smoking": "no", "website": "https://www.navigatortaproom.com/"}}, {"type": "node", "id": 5301228166, "lat": 41.9196328, "lon": -87.6969945, "tags": {"addr:city": "Chicago", "addr:housenumber": "2101", "addr:postcode": "60647", "addr:state": "IL", "addr:street": "North California Avenue", "addr:unit": "Basement", "amenity": "bar", "name": "Golden Teardrops", "operator": "Land & Sea Dept.", "phone": "+1-773-770-3414", "website": "http://goldenteardrops.com/"}}, {"type": "node", "id": 5301228167, "lat": 41.9195959, "lon": -87.6970841, "tags": {"addr:city": "Chicago", "addr:housenumber": "2101", "addr:postcode": "60647", "addr:state": "IL", "addr:street": "North California Avenue", "amenity": "restaurant", "name": "Lonesome Rose", "operator": "Land & Sea Dept.", "phone": "+1-773-770-3414", "website": "http://lonesomerose.com/"}}, {"type": "node", "id": 5701445166, "lat": 41.9175853, "lon": -87.6998369, "tags": {"addr:city": "Chicago", "addr:housenumber": "2910", "addr:postcode": "60647", "addr:state": "IL", "addr:street": "West Armitage Avenue", "amenity": "restaurant", "cuisine": "mexican", "facebook": "https://www.facebook.com/Freshjapeno/", "fax": "+1-773-227-9840", "name": "Super Jalapeno Grill", "opening_hours": "Mo-Sa 10:00-22:00; Su 11:00-22:00", "payment:american_express": "yes", "payment:cash": "yes", "payment:discover_card": "yes", "payment:mastercard": "yes", "payment:visa": "yes", "phone": "+1-773-227-9850", "website": "http://superjalapenochicago.com"}}, {"type": "node", "id": 5718019379, "lat": 41.9175048, "lon": -87.708007, "tags": {"addr:city": "Chicago", "addr:housenumber": "3222", "addr:postcode": "60647", "addr:state": "IL", "addr:street": "West Armitage Avenue", "amenity": "restaurant", "cuisine": "mexican", "name": "El Heredero", "outdoor_seating": "no", "smoking": "no", "takeaway": "yes"}}, {"type": "node", "id": 5769288152, "lat": 41.9177215, "lon": -87.7072785, "tags": {"addr:city": "Chicago", "addr:housenumber": "3204", "addr:postcode": "60647", "addr:state": "IL", "addr:street": "West Armitage Avenue", "amenity": "bar", "name": "The Moonlighter", "operator": "Scofflaw Group", "outdoor_seating": "yes"}}, {"type": "node", "id": 5794904574, "lat": 41.909773, "lon": -87.7071905, "tags": {"addr:city": "Chicago", "addr:housenumber": "1552", "addr:postcode": "60651", "addr:state": "IL", "addr:street": "North Kedzie Avenue", "amenity": "restaurant", "cuisine": "colombian", "delivery": "yes", "name": "ArePA George", "opening_hours": "Tu-Fr 11:00-19:00; Sa 11:00-20:00; Su 11:00-16:00", "outdoor_seating": "no", "phone": "+1-773-969-7945", "smoking": "no", "takeaway": "yes"}}, {"type": "node", "id": 6249982165, "lat": 41.9101156, "lon": -87.6927943, "tags": {"addr:city": "Chicago", "addr:housenumber": "2615", "addr:postcode": "60647", "addr:state": "IL", "addr:street": "West North Avenue", "amenity": "restaurant", "cuisine": "cuban", "name": "1492 Cuban Fusion", "phone": "+1-773 227-9601", "website": "http://1492cubanfusion.com/"}}, {"type": "node", "id": 6269184366, "lat": 41.9100775, "lon": -87.6900295, "tags": {"addr:city": "Chicago", "addr:housenumber": "2507", "addr:postcode": "60647", "addr:state": "IL", "addr:street": "West North Avenue", "amenity": "restaurant", "name": "Bulerias Tapas Bar", "phone": "+1-773-404-2855", "website": "http://www.buleriastapas.com/"}}, {"type": "node", "id": 6283266140, "lat": 41.9222963, "lon": -87.6958529, "tags": {"addr:city": "Chicago", "addr:housenumber": "2261", "addr:postcode": "60647", "addr:state": "IL", "addr:street": "North Milwaukee Avenue", "amenity": "cafe", "name": "Colectivo Coffee", "phone": "+1-773-799-8557", "website": "http://colectivocoffee.com/cafes/logan-square/"}}, {"type": "node", "id": 6284020693, "lat": 41.9101324, "lon": -87.6880221, "tags": {"addr:city": "Chicago", "addr:housenumber": "2415", "addr:postcode": "60647", "addr:state": "IL", "addr:street": "West North Avenue", "amenity": "restaurant", "name": "Cup & Spoon", "phone": "+1-773-697-4421", "website": "http://www.cupandspoonchicago.com/"}}, {"type": "node", "id": 6284196705, "lat": 41.9155759, "lon": -87.6876655, "tags": {"addr:city": "Chicago", "addr:housenumber": "1856", "addr:postcode": "60647", "addr:state": "IL", "addr:street": "North Western Avenue", "amenity": "cafe", "cuisine": "coffee_shop", "name": "Dark Matter Coffee - Electric Mud Coffee Bar", "phone": "+1-773-698-6086", "website": "https://www.darkmattercoffee.com/"}}, {"type": "node", "id": 6291889411, "lat": 41.9172303, "lon": -87.7078513, "tags": {"addr:city": "Chicago", "addr:housenumber": "3219", "addr:postcode": "60647", "addr:state": "IL", "addr:street": "West Armitage Avenue", "amenity": "bar", "name": "Go Tavern and Liquors", "phone": "+1-773-227-4052", "website": "https://www.gotavern.com/"}}, {"type": "node", "id": 6300575607, "lat": 41.9195848, "lon": -87.6915995, "tags": {"addr:city": "Chicago", "addr:housenumber": "2101", "addr:postcode": "60647", "addr:state": "IL", "addr:street": "North Milwaukee Avenue", "amenity": "restaurant", "name": "Ramen Wasabi", "phone": "+1-773-227-8180", "website": "http://www.wasabichicago.com/"}}, {"type": "node", "id": 6300841827, "lat": 41.9226924, "lon": -87.6878062, "tags": {"addr:city": "Chicago", "addr:housenumber": "2234", "addr:postcode": "60647", "addr:state": "IL", "addr:street": "North Western Avenue", "amenity": "restaurant", "cuisine": "mexican", "name": "Restaurante El Comalito", "phone": "+1-773-666-5558"}}, {"type": "node", "id": 6302052366, "lat": 41.9176452, "lon": -87.6997624, "tags": {"addr:city": "Chicago", "addr:housenumber": "2906", "addr:postcode": "60647", "addr:state": "IL", "addr:street": "West Armitage Avenue", "amenity": "restaurant", "name": "The Spice Room", "phone": "+1-773-360-8689", "website": "http://thespiceroomchicago.com/"}}, {"type": "node", "id": 6303047086, "lat": 41.9176924, "lon": -87.695898, "tags": {"addr:city": "Chicago", "addr:housenumber": "2728", "addr:postcode": "60647", "addr:state": "IL", "addr:street": "West Armitage Avenue", "amenity": "restaurant", "name": "Table, Donkey and Stick", "phone": "+1-773-486-8525", "website": "http://tabledonkeystick.com/"}}, {"type": "node", "id": 6303119987, "lat": 41.9175485, "lon": -87.7079694, "tags": {"addr:city": "Chicago", "addr:housenumber": "3222", "addr:postcode": "60647", "addr:state": "IL", "addr:street": "West Armitage Avenue", "amenity": "restaurant", "name": "Taqueria El Heredero", "phone": "+1-312-267-2431", "website": "http://taqueriaelheredero.com/"}}, {"type": "node", "id": 6306837969, "lat": 41.9185363, "lon": -87.6905608, "tags": {"addr:city": "Chicago", "addr:housenumber": "2050", "addr:postcode": "60647", "addr:state": "IL", "addr:street": "North Milwaukee Avenue", "amenity": "restaurant", "name": "Turbo Tacos", "phone": "+1-773-360-8892"}}, {"type": "node", "id": 6315668706, "lat": 41.9175996, "lon": -87.7073905, "tags": {"addr:city": "Chicago", "addr:housenumber": "3204", "addr:postcode": "60647", "addr:state": "IL", "addr:street": "West Armitage Avenue", "amenity": "restaurant", "name": "The Moonlighter", "phone": "+1-773-360-8896", "website": "https://www.themoonlighterchicago.com/"}}, {"type": "node", "id": 6319221993, "lat": 41.9173465, "lon": -87.6965099, "tags": {"addr:city": "Chicago", "addr:housenumber": "2745", "addr:postcode": "60647", "addr:state": "IL", "addr:street": "West Armitage Avenue", "amenity": "cafe", "name": "Katherine Anne Confections", "phone": "+1-773-245-1630", "website": "http://www.katherine-anne.com/"}}, {"type": "node", "id": 6323737136, "lat": 41.9189197, "lon": -87.6877538, "tags": {"addr:city": "Chicago", "addr:housenumber": "2044", "addr:postcode": "60647", "addr:state": "IL", "addr:street": "North Western Avenue", "amenity": "bar", "name": "O\u2019s Tap", "phone": "+1-773-850-5451"}}, {"type": "node", "id": 6324263888, "lat": 41.9231811, "lon": -87.6879259, "tags": {"addr:city": "Chicago", "addr:housenumber": "2252", "addr:postcode": "60647", "addr:state": "IL", "addr:street": "North Western Avenue", "amenity": "restaurant", "cuisine": "cuban", "name": "Paladar", "phone": "+1-773-252-4747", "website": "http://paladarchicago.com/"}}, {"type": "node", "id": 6324384805, "lat": 41.9160456, "lon": -87.6876461, "tags": {"addr:city": "Chicago", "addr:housenumber": "1904", "addr:postcode": "60647", "addr:state": "IL", "addr:street": "North Western Avenue", "amenity": "restaurant", "name": "Langhe Market", "phone": "+1-872-315-3912", "website": "http://langhemarket.com/"}}, {"type": "node", "id": 7185921676, "lat": 41.9174218, "lon": -87.6879726, "tags": {"addr:city": "Chicago", "addr:housenumber": "1965", "addr:postcode": "60647", "addr:state": "IL", "addr:street": "North Milwaukee Avenue", "amenity": "cafe", "name": "Chicago Board Game Cafe", "phone": "+1-(224) 208-5346", "website": "https://www.chicagogamecafe.com"}}, {"type": "way", "id": 209403393, "nodes": [2196193451, 2196193545, 2196193552, 2196194760, 2196194592, 2196193268, 2196193451], "tags": {"addr:city": "Chicago", "addr:housenumber": "1910", "addr:postcode": "60647", "addr:state": "IL", "addr:street": "North Milwaukee Avenue", "addr:street:name": "Milwaukee", "addr:street:prefix": "North", "addr:street:type": "Avenue", "amenity": "bar", "building": "yes", "building:levels": "2", "chicago:building_id": "843412", "name": "Remedy", "phone": "+1-773-698-7715", "website": "http://remedybarchicago.com/"}}, {"type": "way", "id": 209403724, "nodes": [2196202841, 2196202858, 2196202730, 2196202720, 2196202841], "tags": {"addr:housenumber": "2001", "addr:street": "North Western Avenue", "addr:street:name": "Western", "addr:street:prefix": "North", "addr:street:type": "Avenue", "amenity": "restaurant", "building": "yes", "building:levels": "1", "chicago:building_id": "831855", "cuisine": "mexican", "name": "Arturo's Tacos"}}, {"type": "way", "id": 209403727, "nodes": [2196203152, 2196203213, 2196202858, 2196202841, 2196203152], "tags": {"addr:housenumber": "2003", "addr:street": "North Western Avenue", "addr:street:name": "Western", "addr:street:prefix": "North", "addr:street:type": "Avenue", "amenity": "restaurant", "building": "yes", "building:levels": "1", "chicago:building_id": "831857", "cuisine": "mexican", "name": "Lazo's"}}, {"type": "way", "id": 209403858, "nodes": [2196206485, 2196206652, 2196206656, 2196206495, 2196206485], "tags": {"addr:housenumber": "2041", "addr:postcode": "60647", "addr:street": "North Western Avenue", "addr:street:name": "Western", "addr:street:prefix": "North", "addr:street:type": "Avenue", "amenity": "restaurant", "building": "yes", "building:levels": "2", "chicago:building_id": "282784", "cuisine": "chicken", "name": "The Art of Chicken"}}, {"type": "way", "id": 209404000, "nodes": [2196211921, 2196212294, 2196212302, 2196211927, 2196211921], "tags": {"addr:housenumber": "2072-2076", "addr:street": "North Western Avenue", "addr:street:name": "Western", "addr:street:prefix": "North", "addr:street:type": "Avenue", "amenity": "restaurant", "building": "yes", "building:levels": "1", "chicago:building_id": "279088", "cuisine": "Hot_dog,Polish sausage,Fried shrimp", "name": "Red Hot Ranch", "note": "Cash only.  There is an atm outside."}}, {"type": "way", "id": 209404317, "nodes": [2196212544, 2196212651, 2196213756, 2196213642, 2196212544], "tags": {"addr:housenumber": "2148", "addr:street": "North Milwaukee Avenue", "addr:street:name": "Milwaukee", "addr:street:prefix": "North", "addr:street:type": "Avenue", "amenity": "restaurant", "building": "yes", "building:levels": "1", "chicago:building_id": "278149", "cuisine": "mexican", "name": "Taqueria Los Comales #11"}}, {"type": "way", "id": 209404898, "nodes": [2196219001, 2196219243, 2196219376, 2196219263, 2196219430, 2196219836, 2196219791, 2196219846, 2196219524, 2196219109, 2196219159, 2196219001], "tags": {"addr:housenumber": "2246", "addr:street": "North Milwaukee Avenue", "addr:street:name": "Milwaukee", "addr:street:prefix": "North", "addr:street:type": "Avenue", "amenity": "restaurant", "building": "yes", "building:levels": "1", "chicago:building_id": "273261", "cuisine": "american", "name": "Victory Grill", "takeaway": "only"}}, {"type": "way", "id": 209404946, "nodes": [2196223815, 2196224182, 2196224360, 2196224337, 2196224793, 2196224379, 2196223815], "tags": {"addr:city": "Chicago", "addr:housenumber": "2294", "addr:postcode": "60647", "addr:state": "IL", "addr:street": "North Milwaukee Avenue", "addr:street:name": "Milwaukee", "addr:street:prefix": "North", "addr:street:type": "Avenue", "amenity": "restaurant", "building": "retail", "building:levels": "1", "chicago:building_id": "270777", "name": "Cozy Corner Diner", "phone": "+1-773-276-2215", "website": "http://www.cozycornerrestaurant.com/cozy-corner-logan-square/"}}, {"type": "way", "id": 209405949, "nodes": [2196202677, 2665801433, 2665801438, 2196202979, 2196202980, 2196202907, 2196202906, 2196202833, 2196202683, 2196202677], "tags": {"addr:city": "Chicago", "addr:housenumber": "2540", "addr:postcode": "60647", "addr:state": "IL", "addr:street": "West Armitage Avenue", "addr:street:name": "Armitage", "addr:street:prefix": "West", "addr:street:type": "Avenue", "amenity": "restaurant", "building": "yes", "building:levels": "1", "chicago:building_id": "286278", "cuisine": "Hispanic,_Cuban", "name": "90 Miles Cuban Cafe", "phone": "+1-773-227-2822", "website": "https://www.90milescubancafe.com/"}}, {"type": "way", "id": 209406792, "nodes": [2196202738, 2196202741, 3570245694, 3570245695, 3570245693, 3570245696, 2196202533, 2393555254, 2196202738], "tags": {"addr:city": "Chicago", "addr:housenumber": "2952", "addr:postcode": "60647", "addr:state": "IL", "addr:street": "West Armitage Avenue", "addr:street:name": "Armitage", "addr:street:prefix": "West", "addr:street:type": "Avenue", "amenity": "restaurant", "building": "yes", "building:levels": "1", "chicago:building_id": "286728", "cuisine": "american", "name": "Parson's Chicken & Fish", "outdoor_seating": "yes", "phone": "+1-773-384-3333", "smoking": "no", "website": "http://www.parsonschickenandfish.com/"}}]}