{"version": 0.6, "generator": "Overpass API 0.7.56.1004 6cd3eaec", "osm3s": {"timestamp_osm_base": "2020-07-21T23:42:03Z", "copyright": "The data included in this document is from www.openstreetmap.org. The data is made available under ODbL."}, "elements": [{"type": "node", "id": 757813580, "lat": 41.9775729, "lon": -87.688747, "tags": {"amenity": "restaurant", "cuisine": "korean, sushi, japanese", "name": "San Soo Gab San"}}, {"type": "node", "id": 1526962143, "lat": 41.9665273, "lon": -87.6938614, "tags": {"amenity": "restaurant", "name": "Pizza Art Cafe"}}, {"type": "node", "id": 1526962145, "lat": 41.966629, "lon": -87.6938828, "tags": {"amenity": "cafe", "name": "Beans and Bagels"}}, {"type": "node", "id": 1557244584, "lat": 41.9674616, "lon": -87.687611, "tags": {"addr:city": "Chicago", "addr:housenumber": "4729", "addr:postcode": "60625", "addr:state": "IL", "addr:street": "North Lincoln Avenue", "amenity": "restaurant", "cuisine": "american", "name": "Cafe Selmarie", "phone": "+1-773-989-5595", "website": "http://cafeselmarie.com/"}}, {"type": "node", "id": 1627026644, "lat": 41.9670666, "lon": -87.679341, "tags": {"addr:city": "Chicago", "addr:housenumber": "4700", "addr:postcode": "60625", "addr:state": "IL", "addr:street": "North Damen Avenue", "amenity": "cafe", "name": "The Perfect Cup", "phone": "+1-773-989-4177", "website": "http://perfectcupchicago.com/"}}, {"type": "node", "id": 2196877059, "lat": 41.9674433, "lon": -87.6882328}, {"type": "node", "id": 2196877474, "lat": 41.9675074, "lon": -87.6882714}, {"type": "node", "id": 2196877628, "lat": 41.9675108, "lon": -87.688259}, {"type": "node", "id": 2196877665, "lat": 41.9675389, "lon": -87.6879648}, {"type": "node", "id": 2196877836, "lat": 41.9675721, "lon": -87.6882999}, {"type": "node", "id": 2196878328, "lat": 41.9676606, "lon": -87.6880444}, {"type": "node", "id": 2196932933, "lat": 41.975692, "lon": -87.6870174}, {"type": "node", "id": 2196932936, "lat": 41.9756933, "lon": -87.6869954}, {"type": "node", "id": 2196932948, "lat": 41.9756979, "lon": -87.6868445}, {"type": "node", "id": 2196933199, "lat": 41.9758293, "lon": -87.6870252}, {"type": "node", "id": 2196933200, "lat": 41.9758305, "lon": -87.686994}, {"type": "node", "id": 2196933201, "lat": 41.9758352, "lon": -87.6868523}, {"type": "node", "id": 2200916994, "lat": 41.9685628, "lon": -87.6740172}, {"type": "node", "id": 2200917010, "lat": 41.9685654, "lon": -87.6737613}, {"type": "node", "id": 2200917307, "lat": 41.9687151, "lon": -87.6740211}, {"type": "node", "id": 2200917324, "lat": 41.9687191, "lon": -87.6737646}, {"type": "node", "id": 2200917499, "lat": 41.9688156, "lon": -87.6827497}, {"type": "node", "id": 2200917502, "lat": 41.9688176, "lon": -87.68261}, {"type": "node", "id": 2200917928, "lat": 41.9691546, "lon": -87.6827591}, {"type": "node", "id": 2200917932, "lat": 41.9691566, "lon": -87.6826194}, {"type": "node", "id": 2200925529, "lat": 41.9718151, "lon": -87.6791283}, {"type": "node", "id": 2200925539, "lat": 41.9718192, "lon": -87.6788873}, {"type": "node", "id": 2200925875, "lat": 41.9719742, "lon": -87.6791321}, {"type": "node", "id": 2200925896, "lat": 41.9719784, "lon": -87.6788912}, {"type": "node", "id": 2200940301, "lat": 41.9756343, "lon": -87.6792399}, {"type": "node", "id": 2200940309, "lat": 41.9756351, "lon": -87.6791425}, {"type": "node", "id": 2200940323, "lat": 41.9756387, "lon": -87.6790597}, {"type": "node", "id": 2200940325, "lat": 41.9756389, "lon": -87.6790873}, {"type": "node", "id": 2200940338, "lat": 41.9756474, "lon": -87.6791424}, {"type": "node", "id": 2200940339, "lat": 41.9756485, "lon": -87.6790872}, {"type": "node", "id": 2200940433, "lat": 41.9756732, "lon": -87.6790869}, {"type": "node", "id": 2200940436, "lat": 41.9756744, "lon": -87.6790612}, {"type": "node", "id": 2200940455, "lat": 41.9756794, "lon": -87.6789802}, {"type": "node", "id": 2200940488, "lat": 41.9756849, "lon": -87.678743}, {"type": "node", "id": 2200940770, "lat": 41.9757594, "lon": -87.6790456}, {"type": "node", "id": 2200940772, "lat": 41.9757604, "lon": -87.6789831}, {"type": "node", "id": 2200940775, "lat": 41.9757632, "lon": -87.6787458}, {"type": "node", "id": 2200940780, "lat": 41.9757641, "lon": -87.6789132}, {"type": "node", "id": 2200940781, "lat": 41.9757642, "lon": -87.6786815}, {"type": "node", "id": 2200940784, "lat": 41.9757663, "lon": -87.6788138}, {"type": "node", "id": 2200940901, "lat": 41.9758005, "lon": -87.679047}, {"type": "node", "id": 2200940905, "lat": 41.9758008, "lon": -87.6790911}, {"type": "node", "id": 2200941207, "lat": 41.9759087, "lon": -87.67925}, {"type": "node", "id": 2200941229, "lat": 41.9759151, "lon": -87.678919}, {"type": "node", "id": 2200941235, "lat": 41.9759159, "lon": -87.6788197}, {"type": "node", "id": 2200941244, "lat": 41.9759192, "lon": -87.6786872}, {"type": "node", "id": 2200942025, "lat": 41.9761688, "lon": -87.6755422}, {"type": "node", "id": 2200942034, "lat": 41.9761715, "lon": -87.6755219}, {"type": "node", "id": 2200942037, "lat": 41.9761734, "lon": -87.6756193}, {"type": "node", "id": 2200942038, "lat": 41.9761744, "lon": -87.675555}, {"type": "node", "id": 2200942069, "lat": 41.9761851, "lon": -87.6755089}, {"type": "node", "id": 2200942079, "lat": 41.9761961, "lon": -87.6755088}, {"type": "node", "id": 2200942087, "lat": 41.976203, "lon": -87.6755179}, {"type": "node", "id": 2200942145, "lat": 41.9762324, "lon": -87.6756206}, {"type": "node", "id": 2200942172, "lat": 41.9762433, "lon": -87.6756094}, {"type": "node", "id": 2200942190, "lat": 41.9762584, "lon": -87.6756111}, {"type": "node", "id": 2200942197, "lat": 41.9762667, "lon": -87.6756221}, {"type": "node", "id": 2200942315, "lat": 41.9763271, "lon": -87.6756233}, {"type": "node", "id": 2200942320, "lat": 41.9763292, "lon": -87.6755221}, {"type": "node", "id": 2200949373, "lat": 41.9779451, "lon": -87.6792843}, {"type": "node", "id": 2200949385, "lat": 41.9779483, "lon": -87.6791243}, {"type": "node", "id": 2200949394, "lat": 41.9779535, "lon": -87.6793026}, {"type": "node", "id": 2200949437, "lat": 41.9779686, "lon": -87.6793098}, {"type": "node", "id": 2200949760, "lat": 41.9781141, "lon": -87.6793157}, {"type": "node", "id": 2200949768, "lat": 41.9781171, "lon": -87.6791299}, {"type": "node", "id": 2274028613, "lat": 41.9682002, "lon": -87.6936095, "tags": {"addr:city": "Chicago", "addr:housenumber": "4749", "addr:postcode": "60625", "addr:state": "IL", "addr:street": "North Rockwell Street", "amenity": "bar", "name": "The Red Lion Lincoln Square", "phone": "+1-773-654-1341", "website": "https://www.theredlionlincolnsquare.com/"}}, {"type": "node", "id": 2276407295, "lat": 41.9667045, "lon": -87.6793194, "tags": {"amenity": "restaurant", "name": "Aroy Thai"}}, {"type": "node", "id": 2303382277, "lat": 41.9770576, "lon": -87.6792537, "tags": {"addr:city": "Chicago", "addr:housenumber": "5233", "addr:postcode": "60640", "addr:state": "Illinois", "addr:street": "North Damen Avenue", "amenity": "bar", "name": "Leadway Bar & Grill", "phone": "+1-773-728-2663", "website": "http://www.leadwaybar.com/"}}, {"type": "node", "id": 2380796805, "lat": 41.9757473, "lon": -87.6921891, "tags": {"addr:city": "Chicago", "addr:housenumber": "5159", "addr:postcode": "60625", "addr:state": "IL", "addr:street": "North Lincoln Avenue", "amenity": "cafe", "name": "Jimmys Pizza Cafe", "note": "Cash ONLY", "outdoor_seating": "no", "phone": "+1-773-293-6992", "smoking": "no", "source": "local_knowledge", "takeaway": "yes"}}, {"type": "node", "id": 2406124091, "lat": 41.975703, "lon": -87.6921867, "tags": {"addr:city": "Chicago", "addr:housenumber": "5157", "addr:postcode": "60625", "addr:street": "North Lincoln Avenue", "amenity": "restaurant", "cuisine": "mexican", "name": "La Cabana De Don Luis", "outdoor_seating": "no", "phone": "1 (773)-271-5176", "smoking": "no", "takeaway": "yes"}}, {"type": "node", "id": 2673354533, "lat": 41.9684173, "lon": -87.6882204, "tags": {"amenity": "restaurant", "cuisine": "italian", "name": "Trattoria Trullo"}}, {"type": "node", "id": 2673354534, "lat": 41.9682471, "lon": -87.6881332, "tags": {"amenity": "restaurant", "cuisine": "greek", "name": "Barba Yianni"}}, {"type": "node", "id": 2969264559, "lat": 41.9680798, "lon": -87.6884053, "tags": {"addr:city": "Chicago", "addr:housenumber": "4752", "addr:postcode": "60625", "addr:street": "North Lincoln Avenue", "amenity": "restaurant", "cuisine": "mexican", "name": "Garcia's", "toilets:wheelchair": "yes", "wheelchair": "yes"}}, {"type": "node", "id": 3409239467, "lat": 41.9719499, "lon": -87.6790776, "tags": {"addr:city": "Chicago", "addr:housenumber": "4947", "addr:postcode": "60625", "addr:state": "IL", "addr:street": "North Damen Avenue", "amenity": "restaurant", "cuisine": "coffee_shop", "name": "Bang Bang Pie & Biscuits", "phone": "+1-312-644-3524", "website": "https://banderarestaurants.com"}}, {"type": "node", "id": 3409239468, "lat": 41.9718542, "lon": -87.6790803, "tags": {"addr:city": "Chicago", "addr:housenumber": "4943", "addr:postcode": "60625", "addr:state": "IL", "addr:street": "North Damen Avenue", "amenity": "restaurant", "cuisine": "american", "name": "Over Easy Cafe", "phone": "+1-773-506-2605", "website": "https://www.overeasycafechicago.com/"}}, {"type": "node", "id": 3784144930, "lat": 41.968987, "lon": -87.6733021, "tags": {"amenity": "restaurant", "cuisine": "mexican", "name": "Garcia's Restaurant", "takeaway": "yes"}}, {"type": "node", "id": 3809208225, "lat": 41.9682723, "lon": -87.688678, "tags": {"amenity": "restaurant", "cuisine": "Breakfast_and_lunch", "name": "Pannekoken"}}, {"type": "node", "id": 5143534457, "lat": 41.9799271, "lon": -87.6814957, "tags": {"addr:city": "Chicago", "addr:housenumber": "2050", "addr:postcode": "60625", "addr:state": "IL", "addr:street": "West Balmoral Avenue", "amenity": "cafe", "description": "entrance is one block north on Rancher, through the parking lot", "name": "Half Acre Beer Co. Balmoral Tap Room & Garden", "opening_hours": "Th 16:00-23:00; Fr,Sa 11:00-00:00; Su 11:00-22:00", "phone": "+1-773-754-8488", "website": "https://www.halfacrebeer.com/balmoral-brewery/"}}, {"type": "node", "id": 5714331232, "lat": 41.9787636, "lon": -87.692894, "tags": {"addr:city": "Chicago", "addr:housenumber": "5336", "addr:postcode": "60625", "addr:state": "IL", "addr:street": "North Lincoln Avenue", "amenity": "bar", "description": "dive bar, karaoke", "name": "Hidden Cove", "phone": "+1-773-275-6711"}}, {"type": "node", "id": 5714336861, "lat": 41.9818853, "lon": -87.6936097, "tags": {"addr:city": "Chicago", "addr:housenumber": "5526", "addr:postcode": "60625", "addr:state": "IL", "addr:street": "North Lincoln Avenue", "amenity": "bar", "description": "Karaoke venue, private rooms", "name": "Lincoln Karaoke", "phone": "+1-773-895-2299", "website": "https://www.lincolnkaraokechicago.com/"}}, {"type": "node", "id": 5791106932, "lat": 41.9675954, "lon": -87.6750827, "tags": {"addr:city": "Chicago", "addr:housenumber": "4710", "addr:postcode": "60640", "addr:state": "IL", "addr:street": "North Ravenswood Avenue", "amenity": "restaurant", "cuisine": "american;new_american;american_new", "name": "Band of Bohemia", "phone": "+1-773-271-4710", "website": "http://www.bandofbohemia.com"}}, {"type": "node", "id": 6006397414, "lat": 41.9758946, "lon": -87.6766423, "tags": {"addr:city": "Chicago", "addr:housenumber": "1905", "addr:postcode": "60640", "addr:state": "IL", "addr:street": "West Foster Avenue", "amenity": "restaurant", "cuisine": "mexican", "name": "El Catrin", "outdoor_seating": "yes"}}, {"type": "node", "id": 6260995467, "lat": 41.9684136, "lon": -87.6947404, "tags": {"addr:city": "Chicago", "addr:housenumber": "2621", "addr:postcode": "60625", "addr:state": "IL", "addr:street": "West Lawrence Avenue", "amenity": "cafe", "cuisine": "coffee_shop;turkish", "name": "Albert\u2019s Place Turkish Cafe", "phone": "+1-773-681-0275"}}, {"type": "node", "id": 6263275388, "lat": 41.9734206, "lon": -87.6918767, "tags": {"addr:city": "Chicago", "addr:housenumber": "5062", "addr:postcode": "60625", "addr:state": "IL", "addr:street": "North Lincoln Avenue", "amenity": "bar", "name": "Atlantic Bar & Grill", "phone": "+1-773-506-7090", "website": "http://www.theatlanticbar.com/"}}, {"type": "node", "id": 6269858125, "lat": 41.9790793, "lon": -87.6929126, "tags": {"addr:city": "Chicago", "addr:housenumber": "5350", "addr:postcode": "60625", "addr:state": "IL", "addr:street": "North Lincoln Avenue", "amenity": "cafe", "name": "Cafe Utjeha", "phone": "+1-773-907-8853"}}, {"type": "node", "id": 6272493132, "lat": 41.9819119, "lon": -87.6936136, "tags": {"addr:city": "Chicago", "addr:housenumber": "5530", "addr:postcode": "60625", "addr:state": "IL", "addr:street": "North Lincoln Avenue", "amenity": "cafe", "name": "Bel-Ami", "phone": "+1-773-878-2808"}}, {"type": "node", "id": 6282835886, "lat": 41.9761285, "lon": -87.6871299, "tags": {"addr:city": "Chicago", "addr:housenumber": "2306", "addr:postcode": "60625", "addr:state": "IL", "addr:street": "West Foster Avenue", "amenity": "bar", "name": "Claddagh Ring", "phone": "+1-773-271-4794"}}, {"type": "node", "id": 6283230832, "lat": 41.9682487, "lon": -87.6917466, "tags": {"addr:city": "Chicago", "addr:housenumber": "2501", "addr:postcode": "60625", "addr:state": "IL", "addr:street": "West Lawrence Avenue", "amenity": "cafe", "name": "Coffee Slasticarna Drina", "phone": "+1-773-275-5568"}}, {"type": "node", "id": 6284731178, "lat": 41.9716883, "lon": -87.6901182, "tags": {"addr:city": "Chicago", "addr:housenumber": "4925", "addr:postcode": "60625", "addr:state": "IL", "addr:street": "North Lincoln Avenue", "amenity": "cafe", "name": "Dorothy\u2019s Can Do Cafe", "phone": "+1-773-784-3200"}}, {"type": "node", "id": 6286561753, "lat": 41.9695753, "lon": -87.6886037, "tags": {"addr:city": "Chicago", "addr:housenumber": "4835", "addr:postcode": "60625", "addr:state": "IL", "addr:street": "North Western Avenue", "amenity": "restaurant", "cuisine": "fine_dining;american", "name": "Elizabeth Restaurant", "phone": "+1-773-681-0651", "website": "https://www.elizabeth-restaurant.com/"}}, {"type": "node", "id": 6291787688, "lat": 41.9678492, "lon": -87.6877745, "tags": {"addr:city": "Chicago", "addr:housenumber": "4743", "addr:postcode": "60625", "addr:state": "IL", "addr:street": "North Lincoln Avenue", "amenity": "cafe", "name": "Geraldine\u2019s", "phone": "+1-", "toilets:wheelchair": "yes", "wheelchair": "yes"}}, {"type": "node", "id": 6292035122, "lat": 41.9687174, "lon": -87.6959965, "tags": {"addr:city": "Chicago", "addr:housenumber": "2656", "addr:postcode": "60625", "addr:state": "IL", "addr:street": "West Lawrence Avenue", "amenity": "restaurant", "cuisine": "fine_dining", "name": "goosefoot", "phone": "+1-773-942-7547", "website": "http://www.goosefoot.net/"}}, {"type": "node", "id": 6292161039, "lat": 41.97212, "lon": -87.6911666, "tags": {"addr:city": "Chicago", "addr:housenumber": "5008", "addr:postcode": "60625", "addr:state": "IL", "addr:street": "North Lincoln Avenue", "amenity": "cafe", "name": "Groundswell Coffee Roasters", "phone": "+1-763-293-7129", "website": "https://groundswellcoffeeroasters.com/"}}, {"type": "node", "id": 6297501127, "lat": 41.9672827, "lon": -87.6874715, "tags": {"addr:city": "Chicago", "addr:housenumber": "4721", "addr:postcode": "60625", "addr:state": "IL", "addr:street": "North Lincoln Avenue", "amenity": "bar", "name": "H\u00fcettenbar", "phone": "+1-773-561-2507", "website": "http://www.huettenbar.com/"}}, {"type": "node", "id": 6300307387, "lat": 41.9798668, "lon": -87.6806858, "tags": {"addr:city": "Chicago", "addr:housenumber": "2024", "addr:postcode": "60625", "addr:state": "IL", "addr:street": "West Balmoral Avenue", "amenity": "bar", "name": "Spiteful Brewing", "website": "http://www.spitefulbrewing.com/"}}, {"type": "node", "id": 6301079972, "lat": 41.9737441, "lon": -87.6920884, "tags": {"addr:city": "Chicago", "addr:housenumber": "5074", "addr:postcode": "60625", "addr:state": "IL", "addr:street": "North Lincoln Avenue", "amenity": "cafe", "name": "Royal Cafe"}}, {"type": "node", "id": 6303022935, "lat": 41.9688043, "lon": -87.6941954, "tags": {"addr:city": "Chicago", "addr:housenumber": "2604", "addr:postcode": "60625", "addr:state": "IL", "addr:street": "West Lawrence Avenue", "amenity": "restaurant", "name": "Sweet Pepper Venezuelan Food Bar", "phone": "+1-872-208-5665", "website": "https://www.sweetpepperchgo.com/"}}, {"type": "node", "id": 6303029665, "lat": 41.9758238, "lon": -87.6789867, "tags": {"addr:city": "Chicago", "addr:housenumber": "5131", "addr:postcode": "60625", "addr:state": "IL", "addr:street": "North Damen Avenue", "amenity": "restaurant", "name": "Sweet Virginia\u2019s Kitchen", "phone": "+1-773-654-3223", "website": "https://www.sweetvirginiaskitchen.com/"}}, {"type": "node", "id": 6314808938, "lat": 41.9682955, "lon": -87.6916405, "tags": {"addr:city": "Chicago", "addr:housenumber": "2501", "addr:postcode": "60625", "addr:state": "IL", "addr:street": "West Lawrence Avenue", "amenity": "restaurant", "name": "Isla Pilipina", "phone": "+1-773-271-2988", "website": "https://www.islapilipina.com/"}}, {"type": "node", "id": 6315715649, "lat": 41.9750479, "lon": -87.6895168, "tags": {"addr:city": "Chicago", "addr:housenumber": "5130", "addr:postcode": "60625", "addr:state": "IL", "addr:street": "North Western Avenue", "amenity": "cafe", "name": "The Priory Bar & Kitchen", "phone": "+1-773-942-7200", "website": "https://www.priorychicago.com/"}}, {"type": "node", "id": 6320585974, "lat": 41.9687446, "lon": -87.6939674, "tags": {"addr:city": "Chicago", "addr:housenumber": "2600", "addr:postcode": "60625", "addr:state": "IL", "addr:street": "West Lawrence Avenue", "amenity": "bar", "name": "Loafers", "phone": "+1-773-275-6020"}}, {"type": "node", "id": 6322814494, "lat": 41.9682798, "lon": -87.6948315, "tags": {"addr:city": "Chicago", "addr:housenumber": "4757", "addr:postcode": "60625", "addr:state": "IL", "addr:street": "North Talman Avenue", "amenity": "restaurant", "name": "Monti\u2019s", "phone": "+1-773-942-6012", "website": "http://www.ilovemontis.com/"}}, {"type": "node", "id": 6324000046, "lat": 41.9683705, "lon": -87.6944679, "tags": {"addr:city": "Chicago", "addr:housenumber": "2615", "addr:postcode": "60625", "addr:state": "IL", "addr:street": "West Lawrence Avenue", "amenity": "cafe", "name": "Olympic Club", "phone": "+1-773-293-1450"}}, {"type": "node", "id": 6324150054, "lat": 41.9668775, "lon": -87.6871357, "tags": {"addr:city": "Chicago", "addr:housenumber": "4703", "addr:postcode": "60625", "addr:state": "IL", "addr:street": "North Lincoln Avenue", "amenity": "cafe", "name": "Oromo Cafe", "phone": "+1-773-799-1931", "website": "http://www.oromocafechicago.com/"}}, {"type": "node", "id": 6324325182, "lat": 41.9682926, "lon": -87.6885894, "tags": {"addr:city": "Chicago", "addr:housenumber": "4757", "addr:postcode": "60625", "addr:state": "IL", "addr:street": "North Western Avenue", "amenity": "restaurant", "name": "Pannenkoeken Cafe", "phone": "+1-773-769-8800", "website": "http://www.pannenkoekencafe.com/"}}, {"type": "node", "id": 6324417621, "lat": 41.9688927, "lon": -87.6842967, "tags": {"addr:city": "Chicago", "addr:housenumber": "2200", "addr:postcode": "60625", "addr:state": "IL", "addr:street": "West Lawrence Avenue", "amenity": "bar", "name": "The Sixth", "phone": "+1-773-645-4949", "website": "https://www.thesixthbar.com/"}}, {"type": "node", "id": 6326148074, "lat": 41.9689558, "lon": -87.6759509, "tags": {"addr:city": "Chicago", "addr:housenumber": "1840", "addr:postcode": "60640", "addr:state": "IL", "addr:street": "West Lawrence Avenue", "amenity": "bar", "name": "Nob\u2019s Wine Bar"}}, {"type": "node", "id": 6403035842, "lat": 41.9745374, "lon": -87.6924826, "tags": {"addr:city": "Chicago", "addr:housenumber": "5114", "addr:postcode": "60625", "addr:state": "IL", "addr:street": "North Lincoln Avenue", "amenity": "restaurant", "cuisine": "korean", "name": "Dancen", "opening_hours": "Mo-Su 18:00-01:00", "phone": "+1-773-878-2400"}}, {"type": "node", "id": 7016096314, "lat": 41.9731321, "lon": -87.6912821, "tags": {"addr:housenumber": "5047", "addr:street": "North Lincoln Avenue", "amenity": "restaurant", "description": "Central Asian cuisine", "name": "Jibek Jolu", "opening_hours": "Mo, Tu, Th, Su 11:00-22:00; Fr, Sa 11:00-23:00", "phone": "7738788394", "website": "https://jibekjolu.us/"}}, {"type": "way", "id": 209478172, "nodes": [2196877836, 2196878328, 2196877665, 2196877059, 2196877474, 2196877628, 2196877836], "tags": {"addr:city": "Chicago", "addr:housenumber": "4736-4738", "addr:postcode": "60625", "addr:state": "IL", "addr:street": "North Lincoln Avenue", "addr:street:name": "Lincoln", "addr:street:prefix": "North", "addr:street:type": "Avenue", "amenity": "cafe", "building": "yes", "chicago:building_id": "857720", "cuisine": "coffee_shop", "internet_access": "wlan", "name": "The Book Cellar", "phone": "+1-773-293-2665", "shop": "books", "website": "https://www.bookcellarinc.com/", "wheelchair": "yes"}}, {"type": "way", "id": 209484318, "nodes": [2196932933, 2196933199, 2196933200, 2196933201, 2196932948, 2196932936, 2196932933], "tags": {"addr:city": "Chicago", "addr:housenumber": "2301", "addr:postcode": "60625", "addr:state": "IL", "addr:street": "West Foster Avenue", "addr:street:name": "Foster", "addr:street:prefix": "West", "addr:street:type": "Avenue", "amenity": "restaurant", "building": "yes", "building:levels": "1", "chicago:building_id": "78108", "name": "Baobab Bbq", "phone": "+1-872-888-8922", "website": "https://www.baobabbbq.com/"}}, {"type": "way", "id": 209938737, "nodes": [2200916994, 2200917307, 2200917324, 2200917010, 2200916994], "tags": {"addr:city": "Chicago", "addr:housenumber": "1765", "addr:postcode": "60640", "addr:street": "West Lawrence Avenue", "addr:street:name": "Lawrence", "addr:street:prefix": "West", "addr:street:type": "Avenue", "amenity": "restaurant", "building": "yes", "building:levels": "1", "chicago:building_id": "103912", "cuisine": "american", "name": "Golden Nugget Pancake House", "website": "https://goldennuggetpancake.com/"}}, {"type": "way", "id": 209938915, "nodes": [2200917499, 2200917928, 2200917932, 2200917502, 2200917499], "tags": {"addr:housenumber": "2124", "addr:street": "West Lawrence Avenue", "addr:street:name": "Lawrence", "addr:street:prefix": "West", "addr:street:type": "Avenue", "amenity": "restaurant", "building": "yes", "building:levels": "2", "chicago:building_id": "102377", "cuisine": "pizza", "name": "Borelli's Pizza"}}, {"type": "way", "id": 209939969, "nodes": [2200925529, 2200925875, 2200925896, 2200925539, 2200925529], "tags": {"addr:city": "Chicago", "addr:housenumber": "4947", "addr:postcode": "9020", "addr:state": "IL", "addr:street": "North Damen Avenue", "addr:street:name": "Damen", "addr:street:prefix": "North", "addr:street:type": "Avenue", "amenity": "restaurant", "building": "yes", "building:levels": "1", "chicago:building_id": "91201", "name": "Bang Bang Pie & Biscuits", "phone": "+1-773-530-9020", "website": "http://www.bangbangpie.com/"}}, {"type": "way", "id": 209942402, "nodes": [2200942025, 2200942038, 2200942037, 2200942145, 2200942172, 2200942190, 2200942197, 2200942315, 2200942320, 2200942087, 2200942079, 2200942069, 2200942034, 2200942025], "tags": {"addr:city": "Chicago", "addr:housenumber": "1818", "addr:postcode": "60640", "addr:state": "IL", "addr:street": "West Foster Avenue", "addr:street:name": "Foster", "addr:street:prefix": "West", "addr:street:type": "Avenue", "amenity": "bar", "building": "yes", "building:levels": "2", "chicago:building_id": "76414", "name": "Big Joe\u2019s", "phone": "+1-773-784-8755"}}, {"type": "way", "id": 209942894, "nodes": [2200940301, 2200941207, 2200941229, 2200940780, 2200940784, 2200941235, 2200941244, 2200940781, 2200940775, 2200940488, 2200940455, 2200940772, 2200940770, 2200940901, 2200940905, 2200940433, 2200940436, 2200940323, 2200940325, 2200940339, 2200940338, 2200940309, 2200940301], "tags": {"addr:city": "Chicago", "addr:housenumber": "5131", "addr:postcode": "60625", "addr:state": "Illinois", "addr:street": "North Damen Avenue", "addr:street:name": "Damen", "addr:street:prefix": "North", "addr:street:type": "Avenue", "amenity": "cafe", "building": "yes", "chicago:building_id": "77752", "name": "Big E\u2019s Coffee Lounge", "phone": "+1-773-561-7008"}}, {"type": "way", "id": 209943162, "nodes": [2200949373, 2200949394, 2200949437, 2200949760, 2200949768, 2200949385, 2200949373], "tags": {"addr:city": "Chicago", "addr:housenumber": "5305", "addr:postcode": "60640", "addr:state": "Illinois", "addr:street": "North Damen Avenue", "addr:street:name": "Damen", "addr:street:prefix": "North", "addr:street:type": "Avenue", "amenity": "bar", "building": "yes", "chicago:building_id": "70707", "name": "Bobbie\u2019s Runaway", "phone": "+1-773-271-6488"}}]}