{"version": 0.6, "generator": "Overpass API 0.7.56.3 eb200aeb", "osm3s": {"timestamp_osm_base": "2020-07-04T01:44:02Z", "copyright": "The data included in this document is from www.openstreetmap.org. The data is made available under ODbL."}, "elements": [{"type": "node", "id": 34877713, "lat": 41.9117017, "lon": -87.6804428}, {"type": "node", "id": 258025450, "lat": 41.9049662, "lon": -87.6699526}, {"type": "node", "id": 349255925, "lat": 41.9103567, "lon": -87.6776669, "tags": {"amenity": "cafe", "brand": "Starbucks", "brand:wikidata": "Q37158", "brand:wikipedia": "en:Starbucks", "cuisine": "coffee_shop", "name": "Starbucks", "takeaway": "yes"}}, {"type": "node", "id": 736035799, "lat": 41.9073321, "lon": -87.6737319}, {"type": "node", "id": 736035800, "lat": 41.9068893, "lon": -87.6730682}, {"type": "node", "id": 736035834, "lat": 41.910777, "lon": -87.6789671}, {"type": "node", "id": 736035835, "lat": 41.9105003, "lon": -87.6785423}, {"type": "node", "id": 736035836, "lat": 41.9103713, "lon": -87.6783655}, {"type": "node", "id": 736035837, "lat": 41.910279, "lon": -87.6782669}, {"type": "node", "id": 736035838, "lat": 41.9101991, "lon": -87.6781624}, {"type": "node", "id": 736035839, "lat": 41.9101331, "lon": -87.6780606}, {"type": "node", "id": 736035840, "lat": 41.9098778, "lon": -87.6776609, "tags": {"name": "Damen", "public_transport": "stop_position", "railway": "stop", "subway": "yes"}}, {"type": "node", "id": 736035841, "lat": 41.9092997, "lon": -87.6767619}, {"type": "node", "id": 736035842, "lat": 41.9077195, "lon": -87.6742936}, {"type": "node", "id": 1282296216, "lat": 41.9066111, "lon": -87.6725526}, {"type": "node", "id": 1282296225, "lat": 41.9080662, "lon": -87.6747824}, {"type": "node", "id": 1282296257, "lat": 41.9126241, "lon": -87.6818499}, {"type": "node", "id": 1282296294, "lat": 41.9101887, "lon": -87.6780816}, {"type": "node", "id": 1282296296, "lat": 41.9108408, "lon": -87.6790096}, {"type": "node", "id": 1282296314, "lat": 41.9103498, "lon": -87.6782854}, {"type": "node", "id": 1282296316, "lat": 41.9073615, "lon": -87.6737116}, {"type": "node", "id": 1282296324, "lat": 41.9064674, "lon": -87.6724186}, {"type": "node", "id": 1282296353, "lat": 41.9076841, "lon": -87.6741852}, {"type": "node", "id": 1282296370, "lat": 41.9104235, "lon": -87.6783703}, {"type": "node", "id": 1282296384, "lat": 41.9131622, "lon": -87.682601}, {"type": "node", "id": 1282296389, "lat": 41.9102919, "lon": -87.6782263}, {"type": "node", "id": 1282296401, "lat": 41.9057987, "lon": -87.6712902}, {"type": "node", "id": 1282296418, "lat": 41.9093677, "lon": -87.6768128}, {"type": "node", "id": 1282296426, "lat": 41.9069209, "lon": -87.6730341}, {"type": "node", "id": 1282296436, "lat": 41.910242, "lon": -87.6781593}, {"type": "node", "id": 1699464583, "lat": 41.9175667, "lon": -87.677763, "tags": {"addr:city": "Chicago", "addr:housenumber": "1958", "addr:postcode": "60647", "addr:state": "IL", "addr:street": "North Damen Avenue", "amenity": "restaurant", "cuisine": "french", "name": "Le Bouchon", "phone": "+1-773-862-6600", "website": "http://www.lebouchonofchicago.com/"}}, {"type": "node", "id": 1777277102, "lat": 41.9102937, "lon": -87.6760621, "tags": {"addr:city": "Chicago", "addr:housenumber": "1927", "addr:postcode": "60622", "addr:state": "IL", "addr:street": "West North Avenue", "amenity": "restaurant", "name": "Piece Brewery & Pizzeria", "opening_hours": "Mo-We 11:00-22:30; Th 11:00-23:00; Fr-Sa 11:00-00:30; Su 11:00-22:00", "phone": "+1-773-772-4422", "website": "http://www.piecechicago.com/"}}, {"type": "node", "id": 1888714216, "lat": 41.9103282, "lon": -87.6783226}, {"type": "node", "id": 1888714574, "lat": 41.910236, "lon": -87.6782116}, {"type": "node", "id": 1888714639, "lat": 41.9104235, "lon": -87.6784235}, {"type": "node", "id": 1888715009, "lat": 41.9103848, "lon": -87.6783263}, {"type": "node", "id": 2075147078, "lat": 41.9117225, "lon": -87.6803994}, {"type": "node", "id": 2090176575, "lat": 41.9096328, "lon": -87.6772433, "tags": {"name": "Damen", "network": "CTA", "operator": "Chicago Transit Authority", "public_transport": "stop_position", "railway": "stop", "subway": "yes"}}, {"type": "node", "id": 2166647858, "lat": 41.9137167, "lon": -87.6835347}, {"type": "node", "id": 2166647859, "lat": 41.9137443, "lon": -87.6835083}, {"type": "node", "id": 2200140516, "lat": 41.9063093, "lon": -87.6719543}, {"type": "node", "id": 2200140601, "lat": 41.9063359, "lon": -87.6718053}, {"type": "node", "id": 2200140631, "lat": 41.9063522, "lon": -87.6720219}, {"type": "node", "id": 2200140699, "lat": 41.906376, "lon": -87.6718692}, {"type": "node", "id": 2200141105, "lat": 41.9065103, "lon": -87.6716051}, {"type": "node", "id": 2200141388, "lat": 41.9065519, "lon": -87.671669}, {"type": "node", "id": 2200141393, "lat": 41.906556, "lon": -87.6716744}, {"type": "node", "id": 2200141491, "lat": 41.9065842, "lon": -87.6713325}, {"type": "node", "id": 2200141547, "lat": 41.9065989, "lon": -87.6717419}, {"type": "node", "id": 2200141626, "lat": 41.9066244, "lon": -87.6713945}, {"type": "node", "id": 2200141645, "lat": 41.9066271, "lon": -87.6713982}, {"type": "node", "id": 2200141869, "lat": 41.9066673, "lon": -87.671462}, {"type": "node", "id": 2200142316, "lat": 41.9067798, "lon": -87.6712221}, {"type": "node", "id": 2200142327, "lat": 41.906786, "lon": -87.6711008}, {"type": "node", "id": 2200142394, "lat": 41.9068164, "lon": -87.6711483}, {"type": "node", "id": 2200142412, "lat": 41.9068213, "lon": -87.671286}, {"type": "node", "id": 2200142430, "lat": 41.9068273, "lon": -87.6711353}, {"type": "node", "id": 2200142442, "lat": 41.906837, "lon": -87.6711499}, {"type": "node", "id": 2200143057, "lat": 41.9070093, "lon": -87.6720022}, {"type": "node", "id": 2200143124, "lat": 41.9070509, "lon": -87.6720661}, {"type": "node", "id": 2200143646, "lat": 41.9072247, "lon": -87.6717557}, {"type": "node", "id": 2200143719, "lat": 41.9072649, "lon": -87.6718196}, {"type": "node", "id": 2200189921, "lat": 41.9073868, "lon": -87.6734549}, {"type": "node", "id": 2200189962, "lat": 41.9074164, "lon": -87.6674133}, {"type": "node", "id": 2200189974, "lat": 41.9074212, "lon": -87.6670532}, {"type": "node", "id": 2200189982, "lat": 41.9074269, "lon": -87.6735188}, {"type": "node", "id": 2200190097, "lat": 41.9074768, "lon": -87.6674145}, {"type": "node", "id": 2200190112, "lat": 41.9074829, "lon": -87.6670563}, {"type": "node", "id": 2200190328, "lat": 41.9075626, "lon": -87.6732529}, {"type": "node", "id": 2200190416, "lat": 41.9076028, "lon": -87.6733186}, {"type": "node", "id": 2200190479, "lat": 41.9076288, "lon": -87.6723577}, {"type": "node", "id": 2200190489, "lat": 41.907635, "lon": -87.6720068}, {"type": "node", "id": 2200190513, "lat": 41.9076413, "lon": -87.6723722}, {"type": "node", "id": 2200190781, "lat": 41.9076907, "lon": -87.6723736}, {"type": "node", "id": 2200190831, "lat": 41.9076954, "lon": -87.672008}, {"type": "node", "id": 2200195059, "lat": 41.908603, "lon": -87.6745041}, {"type": "node", "id": 2200195097, "lat": 41.9084576, "lon": -87.6753585}, {"type": "node", "id": 2200195300, "lat": 41.9086459, "lon": -87.6745735}, {"type": "node", "id": 2200195628, "lat": 41.9086753, "lon": -87.6744225}, {"type": "node", "id": 2200196256, "lat": 41.9086759, "lon": -87.6745401}, {"type": "node", "id": 2200196388, "lat": 41.9087007, "lon": -87.6757393}, {"type": "node", "id": 2200196493, "lat": 41.9085858, "lon": -87.6755563}, {"type": "node", "id": 2200196593, "lat": 41.9087172, "lon": -87.6750547}, {"type": "node", "id": 2200196639, "lat": 41.9087436, "lon": -87.675805}, {"type": "node", "id": 2200196709, "lat": 41.9087625, "lon": -87.6743225}, {"type": "node", "id": 2200196837, "lat": 41.9088068, "lon": -87.67439}, {"type": "node", "id": 2200196886, "lat": 41.9088454, "lon": -87.6752525}, {"type": "node", "id": 2200197125, "lat": 41.9089433, "lon": -87.6754595}, {"type": "node", "id": 2200197127, "lat": 41.9089445, "lon": -87.6754282}, {"type": "node", "id": 2200197240, "lat": 41.9089692, "lon": -87.6754298}, {"type": "node", "id": 2200197246, "lat": 41.9089707, "lon": -87.6754555}, {"type": "node", "id": 2200197419, "lat": 41.9089984, "lon": -87.675503}, {"type": "node", "id": 2200197714, "lat": 41.9090645, "lon": -87.6771411}, {"type": "node", "id": 2200197719, "lat": 41.9091025, "lon": -87.6770996}, {"type": "node", "id": 2200197827, "lat": 41.9091083, "lon": -87.6772298}, {"type": "node", "id": 2200197830, "lat": 41.9091075, "lon": -87.6771715}, {"type": "node", "id": 2200198037, "lat": 41.9092222, "lon": -87.6769592}, {"type": "node", "id": 2200198076, "lat": 41.9092402, "lon": -87.6772327}, {"type": "node", "id": 2200198085, "lat": 41.9092443, "lon": -87.676992}, {"type": "node", "id": 2200199931, "lat": 41.9098366, "lon": -87.6764385}, {"type": "node", "id": 2200200048, "lat": 41.9098768, "lon": -87.6765024}, {"type": "node", "id": 2200200690, "lat": 41.9100848, "lon": -87.6761549}, {"type": "node", "id": 2200200807, "lat": 41.9101249, "lon": -87.6762188}, {"type": "node", "id": 2200201023, "lat": 41.9102042, "lon": -87.6780861}, {"type": "node", "id": 2200201025, "lat": 41.9102053, "lon": -87.6780439}, {"type": "node", "id": 2200201093, "lat": 41.9102374, "lon": -87.6781299}, {"type": "node", "id": 2200201390, "lat": 41.9103856, "lon": -87.6781357}, {"type": "node", "id": 2200201393, "lat": 41.9103865, "lon": -87.6780475}, {"type": "node", "id": 2200201414, "lat": 41.9104123, "lon": -87.6679902}, {"type": "node", "id": 2200201416, "lat": 41.9104145, "lon": -87.667891}, {"type": "node", "id": 2200201423, "lat": 41.9104267, "lon": -87.6678688}, {"type": "node", "id": 2200201429, "lat": 41.9104411, "lon": -87.667977}, {"type": "node", "id": 2200201430, "lat": 41.9104411, "lon": -87.6679899}, {"type": "node", "id": 2200201500, "lat": 41.9104877, "lon": -87.6679784}, {"type": "node", "id": 2200201514, "lat": 41.9105001, "lon": -87.6679911}, {"type": "node", "id": 2200201548, "lat": 41.9105269, "lon": -87.6678733}, {"type": "node", "id": 2200201564, "lat": 41.9105372, "lon": -87.6679925}, {"type": "node", "id": 2200201566, "lat": 41.9105393, "lon": -87.6678878}, {"type": "node", "id": 2200201646, "lat": 41.9106141, "lon": -87.6749041}, {"type": "node", "id": 2200201648, "lat": 41.9106163, "lon": -87.6748177}, {"type": "node", "id": 2200201934, "lat": 41.9108254, "lon": -87.6749093}, {"type": "node", "id": 2200201938, "lat": 41.9108263, "lon": -87.6748247}, {"type": "node", "id": 2200202220, "lat": 41.9109539, "lon": -87.678174}, {"type": "node", "id": 2200202308, "lat": 41.9109954, "lon": -87.6782397}, {"type": "node", "id": 2200203017, "lat": 41.911161, "lon": -87.6779331}, {"type": "node", "id": 2200203161, "lat": 41.911204, "lon": -87.6779988}, {"type": "node", "id": 2200219542, "lat": 41.9136457, "lon": -87.6774098}, {"type": "node", "id": 2200219565, "lat": 41.9136529, "lon": -87.6769799}, {"type": "node", "id": 2200219709, "lat": 41.9137061, "lon": -87.677411}, {"type": "node", "id": 2200219736, "lat": 41.9137132, "lon": -87.6769811}, {"type": "node", "id": 2200226517, "lat": 41.9151977, "lon": -87.6779157}, {"type": "node", "id": 2200226541, "lat": 41.9152021, "lon": -87.6777246}, {"type": "node", "id": 2200226949, "lat": 41.9152554, "lon": -87.6779187}, {"type": "node", "id": 2200226977, "lat": 41.9152584, "lon": -87.6777258}, {"type": "node", "id": 2200230349, "lat": 41.9156231, "lon": -87.6762322}, {"type": "node", "id": 2200230367, "lat": 41.9156253, "lon": -87.6761477}, {"type": "node", "id": 2200231880, "lat": 41.9158522, "lon": -87.6762391}, {"type": "node", "id": 2200232041, "lat": 41.9158741, "lon": -87.6762168}, {"type": "node", "id": 2200232050, "lat": 41.9158751, "lon": -87.6761543}, {"type": "node", "id": 2203998713, "lat": 41.910386, "lon": -87.6609658}, {"type": "node", "id": 2203998714, "lat": 41.9103847, "lon": -87.6610456}, {"type": "node", "id": 2203998859, "lat": 41.9106295, "lon": -87.6610529}, {"type": "node", "id": 2203998860, "lat": 41.9106308, "lon": -87.6609731}, {"type": "node", "id": 2324557210, "lat": 41.9124475, "lon": -87.6749268, "tags": {"addr:housenumber": "1858", "addr:postcode": "60622", "addr:street": "West Wabansia Avenue", "amenity": "bar", "name": "Lincoln Tavern", "note": "Closed", "website": "http://lincolntavern.com/"}}, {"type": "node", "id": 2324557958, "lat": 41.9124814, "lon": -87.6737117, "tags": {"addr:city": "Chicago", "addr:housenumber": "1824", "addr:postcode": "60622", "addr:state": "IL", "addr:street": "West Wabansia Avenue", "amenity": "restaurant", "cuisine": "italian", "name": "Club Lucky", "phone": "+1-773-227-2300", "website": "https://www.clubluckychicago.com/"}}, {"type": "node", "id": 2324561683, "lat": 41.9104118, "lon": -87.6736316, "tags": {"addr:city": "Chicago", "addr:housenumber": "1825", "addr:postcode": "60622", "addr:state": "IL", "addr:street": "West North Avenue", "amenity": "restaurant", "cuisine": "italian", "name": "Lucia\u2019s Gourmet Italian Cuisine", "phone": "+1-773-292-9700", "website": "http://luciaschicago.com/"}}, {"type": "node", "id": 2361008461, "lat": 41.9098468, "lon": -87.6768908, "tags": {"addr:city": "Chicago", "addr:housenumber": "1562", "addr:postcode": "60622", "addr:state": "IL", "addr:street": "North Milwaukee Avenue", "amenity": "restaurant", "name": "Bru Chicago", "phone": "+1-872-802-0800", "website": "https://www.bruchicago.com/"}}, {"type": "node", "id": 2366009390, "lat": 41.9159692, "lon": -87.6698518, "tags": {"addr:city": "Chicago", "addr:housenumber": "1653-1655", "addr:postcode": "60622", "addr:street": "West Cortland Street", "amenity": "restaurant", "cuisine": "american", "name": "Jane's Restaurant", "opening_hours": "Tu-Th 17:00-22:00; Fr 11:00-15:00; Fr 17:00-22:00; Sa-Su 08:00-22:00", "phone": "773-862-5263", "website": "http://janesrestaurant.com/"}}, {"type": "node", "id": 2389087654, "lat": 41.9049233, "lon": -87.6699939}, {"type": "node", "id": 3077035639, "lat": 41.909001, "lon": -87.6755861, "tags": {"amenity": "pub", "name": "Nicks"}}, {"type": "node", "id": 3077039736, "lat": 41.9085297, "lon": -87.6748239, "tags": {"addr:city": "Chicago", "addr:housenumber": "1470", "addr:postcode": "60622", "addr:state": "IL", "addr:street": "North Milwaukee Avenue", "amenity": "restaurant", "name": "The Bongo Room", "phone": "+1-773-489-0690", "website": "http://thebongoroom.com/"}}, {"type": "node", "id": 3077044833, "lat": 41.9097388, "lon": -87.6776917, "tags": {"addr:city": "Chicago", "addr:housenumber": "1552", "addr:postcode": "60622", "addr:state": "IL", "addr:street": "North Damen Avenue", "amenity": "cafe", "name": "La Colombe Coffee", "phone": "+1-872-829-3681", "website": "https://www.lacolombe.com/"}}, {"type": "node", "id": 3080898768, "lat": 41.9083871, "lon": -87.6746231, "tags": {"addr:city": "Chicago", "addr:housenumber": "1462", "addr:postcode": "60622", "addr:state": "IL", "addr:street": "North Milwaukee Avenue", "amenity": "restaurant", "name": "The Wormhole Coffee", "opening_hours": "Mo-Su 07:00-23:00", "phone": "+1-773-661-2468", "website": "https://www.thewormhole.us/"}}, {"type": "node", "id": 3080898770, "lat": 41.9064474, "lon": -87.6716054, "tags": {"addr:city": "Chicago", "addr:housenumber": "1360", "addr:postcode": "60622", "addr:state": "IL", "addr:street": "North Milwaukee Avenue", "amenity": "restaurant", "cuisine": "mexican", "name": "Antique Taco", "phone": "+1-773-687-8697", "website": "http://www.antiquetaco.com/"}}, {"type": "node", "id": 3570110793, "lat": 41.909438, "lon": -87.6772965, "tags": {"addr:city": "Chicago", "addr:housenumber": "1545", "addr:postcode": "60622", "addr:state": "IL", "addr:street": "North Damen Avenue", "amenity": "restaurant", "cuisine": "mexican;tex-mex", "name": "Dove's Luncheonette", "phone": "+1-773-645-4060", "website": "http://doveschicago.com/"}}, {"type": "node", "id": 3570112793, "lat": 41.9090451, "lon": -87.6775907, "tags": {"addr:city": "Chicago", "addr:housenumber": "1520", "addr:postcode": "60622", "addr:state": "IL", "addr:street": "North Damen Avenue", "amenity": "bar", "name": "The Violet Hour", "phone": "+1-773-252-1500", "website": "http://www.theviolethour.com"}}, {"type": "node", "id": 3570207893, "lat": 41.9152965, "lon": -87.6777367, "tags": {"addr:city": "Chicago", "addr:housenumber": "1850", "addr:postcode": "60647", "addr:state": "IL", "addr:street": "North Damen Avenue", "amenity": "bar", "name": "Lemming\u2019s Tavern", "phone": "+1-773-862-1688", "website": "http://www.lemmingstavern.com/"}}, {"type": "node", "id": 3570220109, "lat": 41.9101151, "lon": -87.6767615, "tags": {"addr:city": "Chicago", "addr:housenumber": "1571", "addr:postcode": "60622", "addr:state": "IL", "addr:street": "North Milwaukee Avenue", "amenity": "restaurant", "cuisine": "japanese", "name": "Furious Spoon - Wicker Park", "opening_hours": "Su-Th 11:00-01:00; Fr-Sa 11:00-02:00", "phone": "+1- 773-687-8445", "website": "http://furiousramen.com"}}, {"type": "node", "id": 3570220893, "lat": 41.9100848, "lon": -87.6772656, "tags": {"addr:city": "Chicago", "addr:housenumber": "1576", "addr:postcode": "60622", "addr:state": "IL", "addr:street": "North Milwaukee Avenue", "amenity": "restaurant", "cuisine": "french", "name": "Caf\u00e9 Cancale", "phone": "+1-773-904-1121", "website": "https://www.cafecancale.com"}}, {"type": "node", "id": 3570221193, "lat": 41.9096809, "lon": -87.6776173, "tags": {"addr:city": "Chicago", "addr:housenumber": "1548", "addr:postcode": "60622", "addr:state": "IL", "addr:street": "North Damen Avenue", "amenity": "bar", "name": "Blue Line Lounge & Grill", "phone": "+1-773-395-3700", "website": "http://www.bluelineclubcar.com/"}}, {"type": "node", "id": 3575496169, "lat": 41.9150958, "lon": -87.6777415, "tags": {"addr:city": "Chicago", "addr:housenumber": "1840", "addr:postcode": "60647", "addr:state": "IL", "addr:street": "North Damen Avenue", "amenity": "restaurant", "cuisine": "korean", "name": "En Hakkore", "phone": "+1-773-772-9880", "website": "http://www.enhakkorechicago.com/"}}, {"type": "node", "id": 3575496170, "lat": 41.9153652, "lon": -87.6777415, "tags": {"amenity": "restaurant", "cuisine": "pizza", "name": "Sarpino's"}}, {"type": "node", "id": 3575496171, "lat": 41.9176357, "lon": -87.6778131, "tags": {"addr:city": "Chicago", "addr:housenumber": "1960", "addr:postcode": "60647", "addr:state": "IL", "addr:street": "North Damen Avenue", "amenity": "restaurant", "cuisine": "japanese", "name": "Izakaya Mita", "phone": "+1-773-799-8677", "website": "http://www.izakayamita.com/"}}, {"type": "node", "id": 3575497026, "lat": 41.9137424, "lon": -87.6773235, "tags": {"amenity": "restaurant", "name": "Presidio"}}, {"type": "node", "id": 3581500506, "lat": 41.9162108, "lon": -87.6701232, "tags": {"addr:city": "Chicago", "addr:housenumber": "1658", "addr:postcode": "60622", "addr:state": "IL", "addr:street": "West Cortland Street", "amenity": "pub", "name": "Bucktown Pub", "phone": "+1-773- 394-9898", "website": "http://www.bucktownpub.com/"}}, {"type": "node", "id": 3581500507, "lat": 41.9162108, "lon": -87.6699784, "tags": {"amenity": "cafe", "name": "Riverside Cafe"}}, {"type": "node", "id": 3581500508, "lat": 41.9159633, "lon": -87.6695814, "tags": {"addr:city": "Chicago", "addr:housenumber": "1645", "addr:postcode": "60622", "addr:state": "IL", "addr:street": "West Cortland Street", "amenity": "pub", "name": "Cortland Garage", "phone": "+1-773-862-7877", "website": "https://www.cortlandsgarage.com/"}}, {"type": "node", "id": 3651370985, "lat": 41.9097007, "lon": -87.6766755, "tags": {"addr:city": "Chicago", "addr:housenumber": "1558", "addr:postcode": "60622", "addr:state": "IL", "addr:street": "North Milwaukee Avenue", "amenity": "restaurant", "name": "Taxim", "phone": "+1-773-252-1558", "website": "http://www.taximchicago.com/"}}, {"type": "node", "id": 3651371479, "lat": 41.9094091, "lon": -87.6761995, "tags": {"addr:city": "Chicago", "addr:housenumber": "1540", "addr:postcode": "60622", "addr:state": "IL", "addr:street": "North Milwaukee Avenue", "amenity": "bar", "name": "Little Olive Lounge"}}, {"type": "node", "id": 3651371958, "lat": 41.9096819, "lon": -87.6761279, "tags": {"addr:city": "Chicago", "addr:housenumber": "1547", "addr:postcode": "60622", "addr:state": "IL", "addr:street": "North Milwaukee Avenue", "amenity": "pub", "name": "Pint", "opening_hours": "Tu-Th 14:00-02:00; Fr-Su 12:00-02:00", "phone": "+1-773-772-0990"}}, {"type": "node", "id": 3651399156, "lat": 41.9087015, "lon": -87.6745817, "tags": {"amenity": "restaurant", "cuisine": "mexican", "name": "Xoco"}}, {"type": "node", "id": 3651409041, "lat": 41.9072414, "lon": -87.6722879, "tags": {"amenity": "restaurant", "cuisine": "sushi", "name": "Nori"}}, {"type": "node", "id": 3651409044, "lat": 41.9071907, "lon": -87.6719887, "tags": {"addr:city": "Chicago", "addr:housenumber": "1385", "addr:postcode": "60622", "addr:state": "IL", "addr:street": "North Milwaukee Avenue", "amenity": "restaurant", "name": "Oiistar", "phone": "+1-773-360-8791", "website": "http://www.oiistar.com/"}}, {"type": "node", "id": 3652928204, "lat": 41.905826, "lon": -87.6705844, "tags": {"addr:city": "Chicago", "addr:housenumber": "1332", "addr:postcode": "60622", "addr:state": "IL", "addr:street": "North Milwaukee Avenue", "amenity": "bar", "name": "The Standard"}}, {"type": "node", "id": 3652928207, "lat": 41.9058744, "lon": -87.6701576, "tags": {"addr:city": "Chicago", "addr:housenumber": "1317", "addr:postcode": "60622", "addr:state": "IL", "addr:street": "North Milwaukee Avenue", "amenity": "cafe", "name": "Falafel & Grill", "phone": "+1-773-292-8888", "website": "http://falafelngrill.com/"}}, {"type": "node", "id": 3652970966, "lat": 41.9062101, "lon": -87.6771901, "tags": {"amenity": "restaurant", "name": "The Tamale Spaceship"}}, {"type": "node", "id": 3656001344, "lat": 41.9090649, "lon": -87.6771668}, {"type": "node", "id": 3656001345, "lat": 41.9088352, "lon": -87.6779484, "tags": {"amenity": "restaurant", "cuisine": "pizza", "name": "Lou Malnati's"}}, {"type": "node", "id": 3656001352, "lat": 41.9106249, "lon": -87.6771302, "tags": {"amenity": "restaurant", "cuisine": "sushi", "name": "Bluefin"}}, {"type": "node", "id": 3656001358, "lat": 41.9106779, "lon": -87.6753699, "tags": {"addr:city": "Chicago", "addr:housenumber": "1904", "addr:postcode": "60622", "addr:state": "IL", "addr:street": "West North Avenue", "amenity": "restaurant", "cuisine": "latin_american", "name": "Amaru", "phone": "+1-773-687-9790", "website": "https://www.amaruchicago.com"}}, {"type": "node", "id": 3656001360, "lat": 41.9106544, "lon": -87.6746901, "tags": {"addr:city": "Chicago", "addr:housenumber": "1852", "addr:postcode": "60622", "addr:state": "IL", "addr:street": "West North Avenue", "amenity": "restaurant", "cuisine": "italian", "name": "Pasta Bowl - Wicker Park", "phone": "+1-773-935-2695", "website": "https://www.pastabowl.com/"}}, {"type": "node", "id": 3656001364, "lat": 41.9106839, "lon": -87.6724275, "tags": {"addr:city": "Chicago", "addr:housenumber": "1760", "addr:postcode": "60622", "addr:state": "IL", "addr:street": "West North Avenue", "amenity": "cafe", "name": "Gallery Cafe", "phone": "+1-773-252-8228", "website": "https://www.gallerycafechicago.com/"}}, {"type": "node", "id": 3656028533, "lat": 41.9109478, "lon": -87.6773351, "tags": {"amenity": "restaurant", "name": "Enso Sushi & Bar"}}, {"type": "node", "id": 3656028534, "lat": 41.9110097, "lon": -87.6773378, "tags": {"amenity": "restaurant", "name": "Dimo's Pizza"}}, {"type": "node", "id": 4307715832, "lat": 41.9054188, "lon": -87.669943, "tags": {"addr:city": "Chicago", "addr:country": "US", "addr:housenumber": "1310", "addr:postcode": "60622", "addr:state": "IL", "addr:street": "North Milwaukee Avenue", "amenity": "restaurant", "internet_access": "yes", "name": "BIG & little\u2019s Restaurant", "phone": "+1-773-698-7777", "takeaway": "yes", "website": "https://www.bigandlittleschicago.com/", "wheelchair": "yes"}}, {"type": "node", "id": 5067231314, "lat": 41.9140129, "lon": -87.6631317, "tags": {"addr:housenumber": "1427", "addr:street": "West Willow Street", "amenity": "restaurant", "name": "The Butcher and Larder", "phone": "312 432 6575", "website": "www.localfoods.com/butcher"}}, {"type": "node", "id": 5418578561, "lat": 41.9094984, "lon": -87.6775992, "tags": {"addr:city": "Chicago", "addr:housenumber": "1542", "addr:postcode": "60622", "addr:state": "IL", "addr:street": "North Damen Avenue", "amenity": "restaurant", "cuisine": "dumplings;asian", "delivery": "yes", "name": "Urbanbelly", "opening_hours": "Su-Th 11:00-22:00; Fr-Sa 11:00-23:00", "outdoor_seating": "yes", "phone": "+1-773-904-8606", "takeaway": "yes", "website": "http://urbanbellychicago.com"}}, {"type": "node", "id": 5597509422, "lat": 41.9087344, "lon": -87.6751574, "tags": {"addr:city": "Chicago", "addr:housenumber": "1482", "addr:postcode": "60622", "addr:state": "IL", "addr:street": "North Milwaukee Avenue", "amenity": "restaurant", "cuisine": "japanese;ramen", "name": "Kizuki Ramen & Izakaya", "phone": "+1-773-270-4150", "website": "https://www.kizuki.com/"}}, {"type": "node", "id": 5597512422, "lat": 41.910436, "lon": -87.6739514, "tags": {"addr:city": "Chicago", "addr:housenumber": "1835", "addr:postcode": "60622", "addr:state": "IL", "addr:street": "West North Avenue", "amenity": "restaurant", "cuisine": "mexican", "name": "Las Palmas", "phone": "+1-773-289-4991", "website": "http://www.laspalmaschicago.com/"}}, {"type": "node", "id": 5618026461, "lat": 41.9169557, "lon": -87.664928, "tags": {"addr:city": "Chicago", "addr:housenumber": "1438", "addr:postcode": "60614", "addr:state": "IL", "addr:street": "West Cortland Street", "amenity": "restaurant", "name": "Interurban Boathouse", "opening_hours": "Mo-Th 08:00-21:00; Fr,Sa 08:00-22:00; Su 08:00-15:00", "phone": "+1-773-698-7739", "website": "https://interurbanchicago.com/"}}, {"type": "node", "id": 5856756285, "lat": 41.9102279, "lon": -87.675639, "tags": {"addr:city": "Chicago", "addr:housenumber": "1913", "addr:postcode": "60622", "addr:state": "IL", "addr:street": "West North Avenue", "amenity": "restaurant", "cuisine": "pizza", "name": "Paradise Park", "opening_hours": "Mo-We 16:00-02:00; Th 16:00-02:00; Fr 11:00-02:00; Sa 10:30-03:00; Su 10:30-00:00", "phone": "+1-773-687-9117", "website": "https://paradisepark.pizza"}}, {"type": "node", "id": 6070815826, "lat": 41.9101378, "lon": -87.6776238, "tags": {"addr:city": "Chicago", "addr:housenumber": "1566", "addr:postcode": "60622", "addr:state": "IL", "addr:street": "North Damen Avenue", "amenity": "restaurant", "cuisine": "italian_pizza", "delivery": "yes", "name": "Bonci", "outdoor_seating": "no", "phone": "+1-872-829-3144", "smoking": "no", "takeaway": "yes", "website": "https://bonciusa.com/"}}, {"type": "node", "id": 6247705346, "lat": 41.9104444, "lon": -87.6691985, "tags": {"addr:city": "Chicago", "addr:housenumber": "1637", "addr:postcode": "60622", "addr:state": "IL", "addr:street": "West North Avenue", "amenity": "bar", "name": "@North Bar", "phone": "+1-773-697-3563", "website": "http://www.liveatnorthbar.com/"}}, {"type": "node", "id": 6258016118, "lat": 41.9125365, "lon": -87.6623445, "tags": {"addr:city": "Chicago", "addr:housenumber": "1664", "addr:postcode": "60642", "addr:state": "IL", "addr:street": "North Ada Street", "amenity": "restaurant", "name": "Ada Street", "phone": "+1-773-697-7069", "website": "https://www.adastreetchicago.com/"}}, {"type": "node", "id": 6258328991, "lat": 41.9169917, "lon": -87.6774345, "tags": {"addr:city": "Chicago", "addr:housenumber": "1935", "addr:postcode": "60647", "addr:state": "IL", "addr:street": "North Damen Avenue", "amenity": "restaurant", "name": "6 Degrees", "phone": "+1-773-904-8812", "website": "https://www.6degreesbucktown.com/"}}, {"type": "node", "id": 6280546662, "lat": 41.9074471, "lon": -87.6672296, "tags": {"addr:city": "Chicago", "addr:housenumber": "1413", "addr:postcode": "60622", "addr:state": "IL", "addr:street": "North Ashland Avenue", "amenity": "restaurant", "name": "Caspian Kabab Fine Persian Cuisine", "phone": "+1-773-666-5767", "website": "http://caspiankabab.com/"}}, {"type": "node", "id": 6283090050, "lat": 41.9189969, "lon": -87.6773565, "tags": {"addr:city": "Chicago", "addr:housenumber": "2045", "addr:postcode": "60647", "addr:state": "IL", "addr:street": "North Damen Avenue", "amenity": "restaurant", "name": "Coast Sushi Bar", "phone": "+1-773-235-5775", "website": "http://www.coastsushi.net/"}}, {"type": "node", "id": 6284097746, "lat": 41.9194305, "lon": -87.6772409, "tags": {"addr:city": "Chicago", "addr:housenumber": "1951", "addr:postcode": "60647", "addr:state": "IL", "addr:street": "West Dickens Avenue", "amenity": "bar", "name": "Danny\u2019s Tavern", "phone": "+1-773-489-6457"}}, {"type": "node", "id": 6284308831, "lat": 41.9117562, "lon": -87.6773347, "tags": {"addr:city": "Chicago", "addr:housenumber": "1645A", "addr:postcode": "60647", "addr:state": "IL", "addr:street": "North Damen Avenue", "addr:unit": "2", "amenity": "cafe", "name": "DAVIDsTEA", "phone": "+1-773-697-9737", "website": "https://www.davidstea.com/us_en/home/"}}, {"type": "node", "id": 6284714257, "lat": 41.9103836, "lon": -87.6765997, "tags": {"addr:city": "Chicago", "addr:housenumber": "1939", "addr:postcode": "60622", "addr:state": "IL", "addr:street": "West North Avenue", "amenity": "restaurant", "name": "Dorian\u2019s", "phone": "+1-773-687-9824", "website": "http://throughtherecordshop.com/"}}, {"type": "node", "id": 6286671643, "lat": 41.9086779, "lon": -87.6743561, "tags": {"addr:city": "Chicago", "addr:housenumber": "1467", "addr:postcode": "60622", "addr:state": "IL", "addr:street": "North Milwaukee Avenue", "amenity": "restaurant", "name": "En Hakkore 2.0", "phone": "+1-773-278-5959", "website": "http://www.enhakkore2chicago.com/"}}, {"type": "node", "id": 6291111390, "lat": 41.9137616, "lon": -87.6640205, "tags": {"addr:city": "Chicago", "addr:housenumber": "1721", "addr:postcode": "60642", "addr:state": "IL", "addr:street": "North Elston Avenue", "amenity": "restaurant", "name": "Fort Willow", "phone": "+1-773-687-8898", "website": "https://www.fort-willow.com/"}}, {"type": "node", "id": 6291799872, "lat": 41.9179762, "lon": -87.6773811, "tags": {"addr:city": "Chicago", "addr:housenumber": "1954", "addr:postcode": "60622", "addr:state": "IL", "addr:street": "West Armitage Avenue", "amenity": "bar", "name": "Gigi\u2019s Kitchen", "phone": "+1-773-799-8290", "website": "https://www.gigischicago.com/"}}, {"type": "node", "id": 6291896890, "lat": 41.9119269, "lon": -87.6772749, "tags": {"addr:city": "Chicago", "addr:housenumber": "1649", "addr:postcode": "60647", "addr:state": "IL", "addr:street": "North Damen Avenue", "amenity": "restaurant", "name": "Goddess and Grocer", "phone": "+1-773-342-3200", "website": "http://goddessandgrocer.com/"}}, {"type": "node", "id": 6292488927, "lat": 41.9069146, "lon": -87.6718303, "tags": {"addr:city": "Chicago", "addr:housenumber": "1375", "addr:postcode": "60622", "addr:state": "IL", "addr:street": "North Milwaukee Avenue", "amenity": "cafe", "name": "Rakki Cafe", "phone": "+1-773-661-2387"}}, {"type": "node", "id": 6294238506, "lat": 41.9061579, "lon": -87.6705213, "tags": {"addr:city": "Chicago", "addr:housenumber": "1329", "addr:postcode": "60622", "addr:state": "IL", "addr:street": "North Milwaukee Avenue", "addr:unit": "1", "amenity": "cafe", "name": "Haven Lounge", "phone": "+1-773-904-7197", "website": "https://havenloungechicago.com/"}}, {"type": "node", "id": 6297643296, "lat": 41.9089441, "lon": -87.6678825, "tags": {"addr:city": "Chicago", "addr:housenumber": "1466", "addr:postcode": "60622", "addr:state": "IL", "addr:street": "North Ashland Avenue", "amenity": "restaurant", "name": "Schwa", "phone": "+1-773-252-1466", "website": "https://schwarestaurant.com/", "wikidata": "Q7433122", "wikipedia": "en:Schwa (restaurant)"}}, {"type": "node", "id": 6297996219, "lat": 41.9076755, "lon": -87.67229, "tags": {"addr:city": "Chicago", "addr:housenumber": "1415", "addr:postcode": "60622", "addr:state": "IL", "addr:street": "North Wood Street", "amenity": "restaurant", "name": "Ina Mae Tavern & Packaged Goods", "phone": "+1-773-527-1335.", "website": "https://www.inamaetavern.com/"}}, {"type": "node", "id": 6298052230, "lat": 41.9108524, "lon": -87.6695412, "tags": {"addr:city": "Chicago", "addr:housenumber": "1644", "addr:postcode": "60622", "addr:state": "IL", "addr:street": "West North Avenue", "amenity": "cafe", "name": "Infiniteus Rocks & Juice", "phone": "+1-773-661-1418", "website": "https://www.infiniteusrocksandjuice.com/"}}, {"type": "node", "id": 6300350387, "lat": 41.910051, "lon": -87.6776148, "tags": {"addr:city": "Chicago", "addr:housenumber": "1560", "addr:postcode": "60622", "addr:state": "IL", "addr:street": "North Damen Avenue", "amenity": "cafe", "name": "Stan\u2019s Donuts & Coffee", "phone": "+1-773-360-7386", "website": "http://www.stansdonutschicago.com/"}}, {"type": "node", "id": 6300600678, "lat": 41.9089404, "lon": -87.67563, "tags": {"addr:city": "Chicago", "addr:housenumber": "1514", "addr:postcode": "60622", "addr:state": "IL", "addr:street": "North Milwaukee Avenue", "amenity": "cafe", "name": "Rapha - Chicago", "phone": "+1-773-394-4029", "website": "https://www.rapha.cc/rd/en/clubhouses/chicago"}}, {"type": "node", "id": 6300825544, "lat": 41.9098184, "lon": -87.6771283, "tags": {"addr:city": "Chicago", "addr:housenumber": "1566", "addr:postcode": "60622", "addr:state": "IL", "addr:street": "North Milwaukee Avenue", "amenity": "bar", "name": "The Revel Room", "phone": "1-773-278-1600", "website": "https://revelroom.com/"}}, {"type": "node", "id": 6305175550, "lat": 41.9108863, "lon": -87.6771631, "tags": {"addr:city": "Chicago", "addr:housenumber": "1611", "addr:postcode": "60647", "addr:state": "IL", "addr:street": "North Damen Avenue", "amenity": "cafe", "name": "Toms Roasting Co", "phone": "+1-773-486-5882", "website": "https://www.toms.com/coffee/"}}, {"type": "node", "id": 6306657812, "lat": 41.9124463, "lon": -87.6777172, "tags": {"addr:city": "Chicago", "addr:housenumber": "1700", "addr:postcode": "60647", "addr:state": "IL", "addr:street": "North Damen Avenue", "amenity": "restaurant", "name": "Tricycle Chicago", "phone": "+1-773-697-9275", "website": "https://www.tricyclechicago.com/"}}, {"type": "node", "id": 6307081675, "lat": 41.9086806, "lon": -87.6750586, "tags": {"addr:city": "Chicago", "addr:housenumber": "1480", "addr:postcode": "60622", "addr:state": "IL", "addr:street": "North Milwaukee Avenue", "amenity": "restaurant", "name": "Umami Burger - Wicker Park", "phone": "+1-773-423-2005", "website": "https://www.umamiburger.com/locations/wicker-park/"}}, {"type": "node", "id": 6315193314, "lat": 41.9104081, "lon": -87.6718379, "tags": {"addr:city": "Chicago", "addr:housenumber": "1745", "addr:postcode": "60622", "addr:state": "IL", "addr:street": "West North Avenue", "amenity": "restaurant", "name": "The Delta", "phone": "+1-773-360-1793", "website": "https://www.thedeltachicago.com/"}}, {"type": "node", "id": 6315217965, "lat": 41.9100689, "lon": -87.6766782, "tags": {"addr:city": "Chicago", "addr:housenumber": "1565", "addr:postcode": "60622", "addr:state": "IL", "addr:street": "North Milwaukee Avenue", "amenity": "bar", "name": "The Flat Iron", "phone": "+1-773-365-9000", "website": "theflatironchicago.com/"}}, {"type": "node", "id": 6315597292, "lat": 41.9139157, "lon": -87.6626385, "tags": {"addr:city": "Chicago", "addr:housenumber": "1354", "addr:postcode": "60622", "addr:state": "IL", "addr:street": "West Wabansia Avenue", "amenity": "bar", "name": "The Hideout", "phone": "+1-773-227-4433", "website": "https://www.hideoutchicago.com/", "wikidata": "Q25344890", "wikipedia": "en:The Hideout Inn"}}, {"type": "node", "id": 6316627292, "lat": 41.9085052, "lon": -87.6751097, "tags": {"addr:city": "Chicago", "addr:housenumber": "1474", "addr:postcode": "60622", "addr:state": "IL", "addr:street": "North Milwaukee Avenue", "amenity": "cafe", "name": "Volumes Bookcafe", "phone": "+1-773-697-8066", "website": "https://www.volumesbooks.com/"}}, {"type": "node", "id": 6316791069, "lat": 41.9150346, "lon": -87.6640623, "tags": {"addr:city": "Chicago", "addr:housenumber": "1765", "addr:postcode": "60642", "addr:state": "IL", "addr:street": "North Elston Avenue", "amenity": "cafe", "name": "Werewolf Coffee Bar", "phone": "+1-773-977-7673", "website": "http://www.werewolfcoffee.com/"}}, {"type": "node", "id": 6316881553, "lat": 41.9067711, "lon": -87.6715408, "tags": {"addr:city": "Chicago", "addr:housenumber": "1367", "addr:postcode": "60622", "addr:state": "IL", "addr:street": "North Milwaukee Avenue", "amenity": "bar", "name": "Whiskey Business", "phone": "+1-773-698-7362", "website": "http://www.whiskeybusinesschicago.com/"}}, {"type": "node", "id": 6316934643, "lat": 41.9107715, "lon": -87.6719672, "tags": {"addr:city": "Chicago", "addr:housenumber": "1746", "addr:postcode": "60622", "addr:state": "IL", "addr:street": "West North Avenue", "amenity": "restaurant", "name": "Windy Kitty Cat Cafe", "website": "https://www.windykittychicago.com/"}}, {"type": "node", "id": 6319024840, "lat": 41.9161269, "lon": -87.6778008, "tags": {"addr:city": "Chicago", "addr:housenumber": "1880", "addr:postcode": "60647", "addr:state": "IL", "addr:street": "North Damen Avenue", "amenity": "restaurant", "name": "JuiceRx", "phone": "+1-312-252-4938", "website": "https://drinkjuicerx.com/"}}, {"type": "node", "id": 6319200186, "lat": 41.9073729, "lon": -87.6731807, "tags": {"addr:city": "Chicago", "addr:housenumber": "1408", "addr:postcode": "60622", "addr:state": "IL", "addr:street": "North Milwaukee Avenue", "amenity": "cafe", "name": "Kanela Breakfast Club", "phone": "+1-773-661-1010", "website": "http://www.kanelabreakfastclub.com/"}}, {"type": "node", "id": 6319779697, "lat": 41.9056671, "lon": -87.6703957, "tags": {"addr:city": "Chicago", "addr:housenumber": "1324", "addr:postcode": "60622", "addr:state": "IL", "addr:street": "North Milwaukee Avenue", "amenity": "restaurant", "name": "Komorebi Sushi", "phone": "+1-773-661-1243", "website": "https://www.komorebisushi.com/"}}, {"type": "node", "id": 6320623852, "lat": 41.9157481, "lon": -87.6761961, "tags": {"addr:city": "Chicago", "addr:housenumber": "1925", "addr:postcode": "60647", "addr:state": "IL", "addr:street": "West Cortland Street", "amenity": "bar", "name": "Lottie\u2019s Pub", "phone": "+1-773-489-0738", "website": "http://www.lottiespub.com/"}}, {"type": "node", "id": 6321781325, "lat": 41.9162275, "lon": -87.6737745, "tags": {"addr:city": "Chicago", "addr:housenumber": "1824", "addr:postcode": "60647", "addr:state": "IL", "addr:street": "West Cortland Street", "amenity": "bar", "name": "Rory Lake\u2019s Karaoke Dreams", "phone": "+1-773-278-0093", "website": "http://www.rorylakepresents.com/"}}, {"type": "node", "id": 6322987207, "lat": 41.907172, "lon": -87.6673201, "tags": {"addr:city": "Chicago", "addr:housenumber": "1401", "addr:postcode": "60622", "addr:state": "IL", "addr:street": "North Ashland Avenue", "amenity": "restaurant", "name": "Mott St", "phone": "+1-773-687-9977", "website": "http://www.mottstreetchicago.com/"}}, {"type": "node", "id": 6323181243, "lat": 41.9103715, "lon": -87.6767531, "tags": {"addr:city": "Chicago", "addr:housenumber": "1943", "addr:postcode": "60622", "addr:state": "IL", "addr:street": "West North Avenue", "amenity": "bar", "name": "No Bones Beach Club", "website": "https://nobonesbeachclub.com/"}}, {"type": "node", "id": 6356675231, "lat": 41.9107219, "lon": -87.6742462, "tags": {"addr:city": "Chicago", "addr:housenumber": "1840", "addr:postcode": "60622", "addr:state": "IL", "addr:street": "West North Avenue", "amenity": "restaurant", "cuisine": "american;brunch;breakfast", "name": "etta", "opening_hours": "Mo-Th 17:00-22:00; Fr 16:30-23:00; Sa-Su 10:00-14:00, 16:30-23:00", "phone": "+1-312-757-4444", "website": "https://ettarestaurant.com/"}}, {"type": "way", "id": 59343229, "nodes": [736035799, 736035800], "tags": {"bridge": "yes", "electrified": "rail", "frequency": "0", "gauge": "1435", "layer": "2", "name": "O'Hare Branch", "operator": "Chicago Transit Authority", "railway": "subway", "voltage": "600"}}, {"type": "way", "id": 59343233, "nodes": [736035800, 1282296324, 2389087654], "tags": {"electrified": "rail", "frequency": "0", "gauge": "1435", "name": "O'Hare Branch", "operator": "Chicago Transit Authority", "railway": "subway", "voltage": "600"}}, {"type": "way", "id": 112926183, "nodes": [258025450, 1282296401, 1282296216, 1282296426], "tags": {"electrified": "rail", "frequency": "0", "gauge": "1435", "name": "O'Hare Branch", "oneway": "yes", "operator": "Chicago Transit Authority", "railway": "subway", "voltage": "600"}}, {"type": "way", "id": 206629205, "nodes": [1282296426, 1282296316, 1282296353, 1282296225, 1282296418, 2090176575, 1282296294, 1282296436, 1282296389, 1282296314, 1888715009, 1282296370, 1282296296, 2075147078, 1282296384, 2166647859], "tags": {"bridge": "yes", "electrified": "rail", "frequency": "0", "gauge": "1435", "name": "O'Hare Branch", "oneway": "yes", "operator": "Chicago Transit Authority", "railway": "subway", "voltage": "600"}}, {"type": "way", "id": 206629206, "nodes": [2166647858, 1282296257, 34877713, 736035834, 736035835, 1888714639, 736035836, 1888714216, 736035837, 1888714574, 736035838, 736035839, 736035840, 736035841, 736035842, 736035799], "tags": {"bridge": "yes", "electrified": "rail", "frequency": "0", "gauge": "1435", "layer": "2", "name": "O'Hare Branch", "old_name": "Logan Square Branch", "oneway": "yes", "operator": "Chicago Transit Authority", "railway": "subway", "voltage": "600"}}, {"type": "way", "id": 209853520, "nodes": [2200141491, 2200141626, 2200142442, 2200142430, 2200142394, 2200142327, 2200141491], "tags": {"addr:housenumber": "1359", "addr:street": "North Milwaukee Avenue", "addr:street:name": "Milwaukee", "addr:street:prefix": "North", "addr:street:type": "Avenue", "amenity": "restaurant", "building": "yes", "building:levels": "2", "chicago:building_id": "314733", "name": "Columbus' Curry"}}, {"type": "way", "id": 209853533, "nodes": [2200141645, 2200141869, 2200142412, 2200142316, 2200141645], "tags": {"addr:housenumber": "1361", "addr:street": "North Milwaukee Avenue", "addr:street:name": "Milwaukee", "addr:street:prefix": "North", "addr:street:type": "Avenue", "amenity": "restaurant", "building": "yes", "building:levels": "1", "chicago:building_id": "314763", "cuisine": "chicken", "name": "Harold's Chicken #36"}}, {"type": "way", "id": 209853538, "nodes": [2200140601, 2200140699, 2200141388, 2200141105, 2200140601], "tags": {"addr:housenumber": "1362", "addr:street": "North Milwaukee Avenue", "addr:street:name": "Milwaukee", "addr:street:prefix": "North", "addr:street:type": "Avenue", "amenity": "restaurant", "building": "yes", "building:levels": "1", "chicago:building_id": "315433", "cuisine": "thai", "name": "Pot Pan"}}, {"type": "way", "id": 209853549, "nodes": [2200140516, 2200140631, 2200141547, 2200141393, 2200140516], "tags": {"addr:city": "Chicago", "addr:housenumber": "1366", "addr:postcode": "60622", "addr:street": "North Milwaukee Avenue", "addr:street:name": "Milwaukee", "addr:street:prefix": "North", "addr:street:type": "Avenue", "amenity": "pub", "building": "yes", "building:levels": "1", "chicago:building_id": "315320", "name": "Emporium Arcade Bar", "opening_hours": "Mo-Th 17:00-02:00; Fr 15:00-02:00; Sa 12:00-03:00; Su 12:00-02:00", "phone": "(773) 697-7922", "website": "https://emporiumchicago.com/"}}, {"type": "way", "id": 209853578, "nodes": [2200143057, 2200143124, 2200143719, 2200143646, 2200143057], "tags": {"addr:city": "Chicago", "addr:housenumber": "1383", "addr:postcode": "60622", "addr:state": "IL", "addr:street": "North Milwaukee Avenue", "addr:street:name": "Milwaukee", "addr:street:prefix": "North", "addr:street:type": "Avenue", "amenity": "bar", "building": "yes", "building:levels": "1", "chicago:building_id": "313967", "name": "Davenport's", "phone": "+1-773-278-1830", "website": "http://davenportspianobar.com/"}}, {"type": "way", "id": 209863979, "nodes": [2200189962, 2200190097, 2200190112, 2200189974, 2200189962], "tags": {"addr:housenumber": "1413", "addr:street": "North Ashland Avenue", "addr:street:name": "Ashland", "addr:street:prefix": "North", "addr:street:type": "Avenue", "amenity": "restaurant", "building": "yes", "building:levels": "2", "chicago:building_id": "313398"}}, {"type": "way", "id": 209863988, "nodes": [2200189921, 2200189982, 2200190416, 2200190328, 2200189921], "tags": {"addr:city": "Chicago", "addr:housenumber": "1414", "addr:postcode": "60622", "addr:state": "IL", "addr:street": "North Milwaukee Avenue", "addr:street:name": "Milwaukee", "addr:street:prefix": "North", "addr:street:type": "Avenue", "amenity": "restaurant", "building": "yes", "building:levels": "1", "chicago:building_id": "313166", "cuisine": "Nepalese_and_Indian_cuisine", "name": "Cumin", "phone": "+1-773-342-1414", "smoking": "outside", "website": "http://www.cumin-chicago.com/"}}, {"type": "way", "id": 209864002, "nodes": [2200190479, 2200190513, 2200190781, 2200190831, 2200190489, 2200190479], "tags": {"addr:housenumber": "1415", "addr:street": "North Wood Street", "addr:street:name": "Wood", "addr:street:prefix": "North", "addr:street:type": "Street", "amenity": "pub", "building": "yes", "chicago:building_id": "312905", "name": "Beachwood Inn"}}, {"type": "way", "id": 209864429, "nodes": [2200195059, 2200195300, 2200196256, 2200196837, 2200196709, 2200195628, 2200195059], "tags": {"addr:city": "Chicago", "addr:housenumber": "1469", "addr:postcode": "60622", "addr:state": "IL", "addr:street": "North Milwaukee Avenue", "addr:street:name": "Milwaukee", "addr:street:prefix": "North", "addr:street:type": "Avenue", "amenity": "bar", "building": "yes", "building:levels": "1", "chicago:building_id": "310254", "name": "Swig", "phone": "+1-773-384-1439", "website": "http://www.swigchicago.com/"}}, {"type": "way", "id": 209864465, "nodes": [2200195097, 2200196493, 2200196886, 2200196593, 2200195097], "tags": {"addr:housenumber": "1484", "addr:street": "North Milwaukee Avenue", "addr:street:name": "Milwaukee", "addr:street:prefix": "North", "addr:street:type": "Avenue", "amenity": "restaurant", "building": "yes", "building:levels": "1", "chicago:building_id": "310229", "name": "Native Foods Cafe"}}, {"type": "way", "id": 209864736, "nodes": [2200196388, 2200196639, 2200197419, 2200197246, 2200197240, 2200197127, 2200197125, 2200196388], "tags": {"addr:housenumber": "1514", "addr:street": "North Milwaukee Avenue", "addr:street:name": "Milwaukee", "addr:street:prefix": "North", "addr:street:type": "Avenue", "amenity": "cafe", "building": "yes", "building:levels": "3", "chicago:building_id": "309898", "phone": "+1-773-394-4029", "website": "https://www.rapha.cc/rd/en/clubhouses/chicago"}}, {"type": "way", "id": 209864952, "nodes": [2200197714, 3656001344, 2200197830, 2200197827, 2200198076, 2200198085, 2200198037, 2200197719, 2200197714], "tags": {"addr:city": "Chicago", "addr:housenumber": "1531", "addr:postcode": "60622", "addr:state": "IL", "addr:street": "North Damen Avenue", "addr:street:name": "Damen", "addr:street:prefix": "North", "addr:street:type": "Avenue", "amenity": "restaurant", "building": "yes", "building:levels": "1", "chicago:building_id": "309390", "cuisine": "mexican", "name": "Big Star", "phone": "+1-773-235-4039", "website": "http://www.bigstarchicago.com/"}}, {"type": "way", "id": 209865102, "nodes": [2200199931, 2200200048, 2200200807, 2200200690, 2200199931], "tags": {"addr:city": "Chicago", "addr:housenumber": "1559", "addr:postcode": "60622", "addr:state": "IL", "addr:street": "North Milwaukee Avenue", "addr:street:name": "Milwaukee", "addr:street:prefix": "North", "addr:street:type": "Avenue", "amenity": "bar", "building": "yes", "building:levels": "1", "chicago:building_id": "306894", "name": "Links Taproom", "opening_hours": "Mo-Su 11:30-02:00", "phone": "+1- 773-360-7692", "website": "http://www.linkstaproom.com"}}, {"type": "way", "id": 209865119, "nodes": [2200201414, 2200201430, 2200201429, 2200201500, 2200201514, 2200201564, 2200201566, 2200201548, 2200201423, 2200201416, 2200201414], "tags": {"addr:housenumber": "1601", "addr:street": "West North Avenue", "addr:street:name": "North", "addr:street:prefix": "West", "addr:street:type": "Avenue", "amenity": "restaurant", "building": "yes", "chicago:building_id": "305522", "name": "Hollywood Grill"}}, {"type": "way", "id": 209865386, "nodes": [2200202220, 2200202308, 2200203161, 2200203017, 2200202220], "tags": {"addr:city": "Chicago", "addr:housenumber": "1623", "addr:postcode": "60647", "addr:state": "IL", "addr:street": "North Milwaukee Avenue", "addr:street:name": "Milwaukee", "addr:street:prefix": "North", "addr:street:type": "Avenue", "amenity": "restaurant", "building": "yes", "building:levels": "1", "chicago:building_id": "303574", "name": "Pork & Mindy\u2019s", "phone": "+1-773-799-8759", "website": "https://porkandmindys.com/"}}, {"type": "way", "id": 209866943, "nodes": [2200219542, 2200219709, 2200219736, 2200219565, 2200219542], "tags": {"addr:city": "Chicago", "addr:housenumber": "1747", "addr:postcode": "60647", "addr:state": "IL", "addr:street": "North Damen Avenue", "addr:street:type": "Avenue", "amenity": "restaurant", "name": "Mindy's Hot Chocolate", "phone": "+1-773-489-1747", "website": "http://www.hotchocolatechicago.com/"}}, {"type": "way", "id": 209867401, "nodes": [2200226517, 2200226949, 2200226977, 2200226541, 2200226517], "tags": {"addr:housenumber": "1846", "addr:street": "North Damen Avenue", "addr:street:name": "Damen", "addr:street:prefix": "North", "addr:street:type": "Avenue", "amenity": "restaurant", "building": "yes", "building:levels": "2", "chicago:building_id": "292431", "cuisine": "ice_cream", "name": "Miko's Italian Ice"}}, {"type": "way", "id": 209867466, "nodes": [2200201646, 2200201934, 2200201938, 2200201648, 2200201646], "tags": {"addr:city": "Chicago", "addr:housenumber": "1856", "addr:postcode": "60622", "addr:street": "West North Avenue", "addr:street:name": "North", "addr:street:prefix": "West", "addr:street:type": "Avenue", "amenity": "restaurant", "building": "yes", "building:levels": "3", "chicago:building_id": "304816", "cuisine": "barbecue", "name": "Lillie's Q", "phone": "773-772-5500", "website": "https://lilliesq.com/"}}, {"type": "way", "id": 209867804, "nodes": [2200230349, 2200231880, 2200232041, 2200232050, 2200230367, 2200230349], "tags": {"addr:city": "Chicago", "addr:housenumber": "1925", "addr:postcode": "60647", "addr:state": "IL", "addr:street": "West Cortland Street", "addr:street:name": "Cortland", "addr:street:prefix": "West", "addr:street:type": "Street", "amenity": "bar", "building": "yes", "building:levels": "1", "chicago:building_id": "290841", "name": "Lottie's Pub", "phone": "+1-773-489-0738", "website": "http://www.lottiespub.com/"}}, {"type": "way", "id": 209868248, "nodes": [2200201023, 2200201093, 2200201390, 2200201393, 2200201025, 2200201023], "tags": {"addr:housenumber": "2013", "addr:street": "West North Avenue", "addr:street:name": "North", "addr:street:prefix": "West", "addr:street:type": "Avenue", "amenity": "bar", "building": "yes", "building:levels": "3", "chicago:building_id": "306183", "name": "Estelle's"}}, {"type": "way", "id": 210315048, "nodes": [2203998714, 2203998859, 2203998860, 2203998713, 2203998714], "tags": {"addr:city": "Chicago", "addr:housenumber": "1315", "addr:postcode": "60642", "addr:state": "IL", "addr:street": "West North Avenue", "addr:street:name": "North", "addr:street:prefix": "West", "addr:street:type": "Avenue", "amenity": "bar", "building": "yes", "building:levels": "2", "chicago:building_id": "878182", "name": "Exit Chicago", "phone": "+1-312-788-7040", "website": "https://www.exit-chicago.com/"}}]}