{"version": 0.6, "generator": "Overpass API 0.7.56.1004 6cd3eaec", "osm3s": {"timestamp_osm_base": "2020-07-22T01:05:01Z", "copyright": "The data included in this document is from www.openstreetmap.org. The data is made available under ODbL."}, "elements": [{"type": "node", "id": 1700855288, "lat": 41.9297395, "lon": -87.7072028, "tags": {"amenity": "restaurant", "name": "El Cid #2"}}, {"type": "node", "id": 1700855335, "lat": 41.9355781, "lon": -87.7053238, "tags": {"addr:city": "Chicago", "addr:housenumber": "2956", "addr:postcode": "60618", "addr:state": "IL", "addr:street": "North Albany Avenue", "amenity": "bar", "name": "Small Bar", "phone": "+1-773-509-9888", "website": "http://www.theoriginalsmallbar.com/"}}, {"type": "node", "id": 1743245275, "lat": 41.9313728, "lon": -87.7267107}, {"type": "node", "id": 1743245279, "lat": 41.9313746, "lon": -87.7265398}, {"type": "node", "id": 1743245610, "lat": 41.9316212, "lon": -87.7267157}, {"type": "node", "id": 1743245611, "lat": 41.931623, "lon": -87.7265448}, {"type": "node", "id": 1755629936, "lat": 41.9297941, "lon": -87.7092072}, {"type": "node", "id": 1755629943, "lat": 41.9297965, "lon": -87.7093006}, {"type": "node", "id": 1755630510, "lat": 41.9299571, "lon": -87.7090524}, {"type": "node", "id": 1755630748, "lat": 41.930032, "lon": -87.707248}, {"type": "node", "id": 1755630750, "lat": 41.9300326, "lon": -87.7070918}, {"type": "node", "id": 1755630752, "lat": 41.930034, "lon": -87.7071102}, {"type": "node", "id": 1755630754, "lat": 41.9300348, "lon": -87.7069944}, {"type": "node", "id": 1755630784, "lat": 41.9300545, "lon": -87.7070916}, {"type": "node", "id": 1755630786, "lat": 41.9300546, "lon": -87.7071118}, {"type": "node", "id": 1755630822, "lat": 41.9300955, "lon": -87.7093237}, {"type": "node", "id": 1755630825, "lat": 41.9301063, "lon": -87.7092979}, {"type": "node", "id": 1755630828, "lat": 41.9301102, "lon": -87.7072491}, {"type": "node", "id": 1755630831, "lat": 41.930113, "lon": -87.7069955}, {"type": "node", "id": 1755640402, "lat": 41.9326003, "lon": -87.7130001}, {"type": "node", "id": 1755640571, "lat": 41.9326391, "lon": -87.7130659}, {"type": "node", "id": 1755641653, "lat": 41.9328554, "lon": -87.7127349}, {"type": "node", "id": 1755641768, "lat": 41.9328928, "lon": -87.7128007}, {"type": "node", "id": 1755651481, "lat": 41.9353526, "lon": -87.7183265}, {"type": "node", "id": 1755651625, "lat": 41.9353913, "lon": -87.7183904}, {"type": "node", "id": 1755651879, "lat": 41.9354689, "lon": -87.7182702}, {"type": "node", "id": 1755651931, "lat": 41.9354812, "lon": -87.7182573}, {"type": "node", "id": 1755651933, "lat": 41.9354814, "lon": -87.7182922}, {"type": "node", "id": 1755651980, "lat": 41.935495, "lon": -87.7182792}, {"type": "node", "id": 1755652034, "lat": 41.9355108, "lon": -87.7181559}, {"type": "node", "id": 1755652178, "lat": 41.9355496, "lon": -87.7182198}, {"type": "node", "id": 1755728238, "lat": 41.946427, "lon": -87.7071721}, {"type": "node", "id": 1755728239, "lat": 41.9464279, "lon": -87.7070949}, {"type": "node", "id": 1755728377, "lat": 41.9465445, "lon": -87.7070956}, {"type": "node", "id": 1755728378, "lat": 41.946545, "lon": -87.7071747}, {"type": "node", "id": 1755728543, "lat": 41.9466784, "lon": -87.7107702}, {"type": "node", "id": 1755728544, "lat": 41.9466791, "lon": -87.7106416}, {"type": "node", "id": 1755728868, "lat": 41.9467923, "lon": -87.710771}, {"type": "node", "id": 1755728869, "lat": 41.9467924, "lon": -87.710793}, {"type": "node", "id": 1755728890, "lat": 41.9467985, "lon": -87.7106423}, {"type": "node", "id": 1755728892, "lat": 41.9467986, "lon": -87.7106753}, {"type": "node", "id": 1755729136, "lat": 41.9468542, "lon": -87.7107943}, {"type": "node", "id": 1755729139, "lat": 41.9468554, "lon": -87.7107722}, {"type": "node", "id": 1755729226, "lat": 41.946892, "lon": -87.7106763}, {"type": "node", "id": 1755729228, "lat": 41.9468925, "lon": -87.7107718}, {"type": "node", "id": 2196790368, "lat": 41.942518, "lon": -87.7026838}, {"type": "node", "id": 2196790640, "lat": 41.9426438, "lon": -87.7028645}, {"type": "node", "id": 2196790727, "lat": 41.9426699, "lon": -87.7028661}, {"type": "node", "id": 2196790730, "lat": 41.9426714, "lon": -87.7026327}, {"type": "node", "id": 2285167402, "lat": 41.9339805, "lon": -87.7072158, "tags": {"addr:housenumber": "2901", "addr:street": "North Kedzie Avenue", "amenity": "restaurant", "cuisine": "mexican", "name": "La Cocina"}}, {"type": "node", "id": 2285171996, "lat": 41.936156, "lon": -87.7193663, "tags": {"addr:city": "Chicago", "addr:housenumber": "3030", "addr:postcode": "60618", "addr:state": "IL", "addr:street": "North Milwaukee Avenue", "amenity": "restaurant", "name": "Staropolska Restaurant", "phone": "+1-773-342-0779", "website": "http://www.staropolskarestaurant.com/"}}, {"type": "node", "id": 2601627512, "lat": 41.9421788, "lon": -87.7082946, "tags": {"addr:city": "Chicago", "addr:housenumber": "3340", "addr:postcode": "60618", "addr:state": "IL", "addr:street": "North Kedzie Avenue", "amenity": "bar", "name": "Revolution Brewing - Kedzie Brewery", "phone": "+1-773-588-2267", "website": "https://revbrew.com/visit/brewery"}}, {"type": "node", "id": 2612373491, "lat": 41.9335938, "lon": -87.7073464, "tags": {"addr:city": "Chicago", "addr:housenumber": "2853", "addr:street": "North Kedzie Avenue", "amenity": "restaurant", "cuisine": "Yakitori", "name": "Yusho", "phone": "(773) 904-8558", "website": "https://yusho-chicago.com/"}}, {"type": "node", "id": 2712290135, "lat": 41.944524, "lon": -87.7055174, "tags": {"addr:city": "Chicago", "addr:housenumber": "3471", "addr:postcode": "60618", "addr:state": "IL", "addr:street": "North Elston Avenue", "amenity": "bar", "name": "Chief O\u2019Neill\u2019s Pub & Restaurant", "opening_hours": "Mo-Th 16:00-02:00; Fr 11:00-02:00; Sa 11:00-03:00; Su 10:00-02:00", "phone": "+1-773-583-3066", "website": "https://www.chiefoneillspub.com/"}}, {"type": "node", "id": 2923574401, "lat": 41.929118, "lon": -87.707174, "tags": {"addr:city": "Chicago", "addr:housenumber": "2607", "addr:postcode": "60647", "addr:state": "IL", "addr:street": "North Milwaukee Avenue", "amenity": "restaurant", "cuisine": "italian", "name": "Reno", "phone": "+1-773-697-4234", "smoking": "no", "website": "https://www.renochicago.com/"}}, {"type": "node", "id": 3268302073, "lat": 41.9307708, "lon": -87.7104473, "tags": {"addr:city": "Chicago", "addr:country": "US", "addr:housenumber": "2732", "addr:place": "Logan Square", "addr:postcode": "60647", "addr:state": "IL", "addr:street": "North Milwaukee Avenue", "amenity": "bar", "cuisine": "burger", "name": "The Harding Tavern", "phone": "+1-773-697-9340", "website": "https://www.thehardingtavern.com/"}}, {"type": "node", "id": 3430976823, "lat": 41.9289586, "lon": -87.7069536, "tags": {"addr:city": "Chicago", "addr:housenumber": "2610", "addr:postcode": "60647", "addr:state": "IL", "addr:street": "North Milwaukee Avenue", "amenity": "bar", "name": "Webster's Wine Bar"}}, {"type": "node", "id": 3551740566, "lat": 41.9296241, "lon": -87.7085498, "tags": {"amenity": "restaurant", "cuisine": "chinese", "name": "Choi's Chinese"}}, {"type": "node", "id": 3551741498, "lat": 41.9298264, "lon": -87.7072052, "tags": {"amenity": "restaurant", "cuisine": "tapas", "name": "Azucar"}}, {"type": "node", "id": 3551742205, "lat": 41.929915, "lon": -87.7072122, "tags": {"amenity": "cafe", "name": "Flipside Cafe"}}, {"type": "node", "id": 3551744333, "lat": 41.929747, "lon": -87.7087557, "tags": {"addr:city": "Chicago", "addr:housenumber": "2642", "addr:postcode": "60647", "addr:state": "IL", "addr:street": "North Milwaukee Avenue", "amenity": "cafe", "cuisine": "coffee_shop", "name": "Intelligentsia", "phone": "+1-773-945-1690", "website": "https://www.intelligentsiacoffee.com/logan-square-coffeebar"}}, {"type": "node", "id": 3551766819, "lat": 41.9321449, "lon": -87.7071859, "tags": {"addr:city": "Chicago", "addr:housenumber": "3154", "addr:postcode": "60647", "addr:state": "IL", "addr:street": "West Diversey Avenue", "amenity": "bar", "name": "Lost Lake", "phone": "+1-773-293-6048", "website": "http://www.lostlaketiki.com/"}}, {"type": "node", "id": 3551769093, "lat": 41.93214, "lon": -87.7071042, "tags": {"amenity": "restaurant", "cuisine": "chinese", "name": "Thank You.", "takeaway": "only"}}, {"type": "node", "id": 3551892777, "lat": 41.9343813, "lon": -87.7158349, "tags": {"amenity": "restaurant", "cuisine": "mexican", "name": "Tacos Tequilas"}}, {"type": "node", "id": 3551896302, "lat": 41.9337049, "lon": -87.7152636, "tags": {"amenity": "restaurant", "cuisine": "thai", "name": "The Spice"}}, {"type": "node", "id": 3551904715, "lat": 41.9333478, "lon": -87.713791, "tags": {"amenity": "restaurant", "brand": "Giordano's Pizzeria", "brand:wikidata": "Q5563393", "brand:wikipedia": "en:Giordano's Pizzeria", "cuisine": "pizza", "name": "Giordano's Pizzeria"}}, {"type": "node", "id": 3551926769, "lat": 41.9377162, "lon": -87.7212864, "tags": {"amenity": "restaurant", "cuisine": "polish", "name": "Red Apple Buffet"}}, {"type": "node", "id": 3551945144, "lat": 41.9393459, "lon": -87.7163315, "tags": {"amenity": "bar", "name": "Late Bar"}}, {"type": "node", "id": 3551946808, "lat": 41.9393511, "lon": -87.7172411, "tags": {"addr:city": "Chicago", "addr:housenumber": "3556", "addr:postcode": "60618", "addr:state": "IL", "addr:street": "West Belmont Avenue", "amenity": "bar", "name": "Chuck's & Ed's Tavern"}}, {"type": "node", "id": 3563909260, "lat": 41.931975, "lon": -87.7223584, "tags": {"amenity": "restaurant", "cuisine": "salvadoran", "name": "El Guanaco"}}, {"type": "node", "id": 3572450423, "lat": 41.939013, "lon": -87.7241868, "tags": {"amenity": "restaurant", "cuisine": "mexican", "name": "El Gallo Bravo #2"}}, {"type": "node", "id": 3575010907, "lat": 41.9325834, "lon": -87.7134313, "tags": {"amenity": "restaurant", "cuisine": "chinese", "name": "Friendship Chinese"}}, {"type": "node", "id": 3575016093, "lat": 41.9293918, "lon": -87.7071842, "tags": {"addr:city": "Chicago", "addr:housenumber": "2631", "addr:postcode": "60647", "addr:state": "IL", "addr:street": "North Kedzie Avenue", "amenity": "cafe", "cuisine": "coffee_shop", "name": "Passion House Caf\u00e9", "website": "https://www.passionhousecoffee.com"}}, {"type": "node", "id": 3627809229, "lat": 41.9345296, "lon": -87.7174228, "tags": {"amenity": "bar", "name": "Podhale"}}, {"type": "node", "id": 3627809230, "lat": 41.93435, "lon": -87.7174148, "tags": {"amenity": "bar", "name": "Podlasie Club"}}, {"type": "node", "id": 3627809231, "lat": 41.9354831, "lon": -87.7219538, "tags": {"amenity": "bar", "name": "Ski's Lounge"}}, {"type": "node", "id": 3631689565, "lat": 41.9460697, "lon": -87.7173789}, {"type": "node", "id": 3631689566, "lat": 41.9460727, "lon": -87.7171106}, {"type": "node", "id": 3631689567, "lat": 41.9461846, "lon": -87.7171187}, {"type": "node", "id": 3631689568, "lat": 41.9461861, "lon": -87.7170313}, {"type": "node", "id": 3631689569, "lat": 41.9462466, "lon": -87.7170313}, {"type": "node", "id": 3631689570, "lat": 41.9462466, "lon": -87.7170598}, {"type": "node", "id": 3631689571, "lat": 41.9463207, "lon": -87.7170638}, {"type": "node", "id": 3631689572, "lat": 41.9463177, "lon": -87.7171207}, {"type": "node", "id": 3631689573, "lat": 41.9463343, "lon": -87.7171228}, {"type": "node", "id": 3631689574, "lat": 41.9463343, "lon": -87.7171858}, {"type": "node", "id": 3631689575, "lat": 41.946357, "lon": -87.7171878}, {"type": "node", "id": 3631689576, "lat": 41.946354, "lon": -87.7173931}, {"type": "node", "id": 3631689577, "lat": 41.9463026, "lon": -87.7173952}, {"type": "node", "id": 3631689578, "lat": 41.9463026, "lon": -87.7174318}, {"type": "node", "id": 3631689579, "lat": 41.9460758, "lon": -87.7174196}, {"type": "node", "id": 3649631221, "lat": 41.9316589, "lon": -87.7124643, "tags": {"amenity": "restaurant", "cuisine": "chinese", "name": "Van Phat"}}, {"type": "node", "id": 3649643207, "lat": 41.9325547, "lon": -87.7128675, "tags": {"amenity": "restaurant", "cuisine": "pizza", "name": "Dante's Pizzeria"}}, {"type": "node", "id": 3649650842, "lat": 41.9390585, "lon": -87.711587, "tags": {"amenity": "restaurant", "cuisine": "chinese", "name": "Eat First"}}, {"type": "node", "id": 3649684145, "lat": 41.9394821, "lon": -87.7038124, "tags": {"amenity": "restaurant", "cuisine": "chicken", "name": "Mr. Pollo"}}, {"type": "node", "id": 3649687382, "lat": 41.9392432, "lon": -87.7034485, "tags": {"addr:city": "Chicago", "addr:housenumber": "3017", "addr:postcode": "60618", "addr:state": "IL", "addr:street": "West Belmont Avenue", "amenity": "bar", "name": "Reed's Local", "phone": "+1-872-806-0520"}}, {"type": "node", "id": 3652967808, "lat": 41.9447791, "lon": -87.7064642, "tags": {"addr:city": "Chicago", "addr:housenumber": "3500", "addr:postcode": "60618", "addr:state": "IL", "addr:street": "North Elston Avenue", "amenity": "restaurant", "cuisine": "korean;asian", "name": "Parachute", "phone": "+1-773-654-1460", "website": "http://www.parachuterestaurant.com"}}, {"type": "node", "id": 3660417021, "lat": 41.931227, "lon": -87.7103111, "tags": {"amenity": "restaurant", "name": "D'Noche"}}, {"type": "node", "id": 3814460048, "lat": 41.9319324, "lon": -87.7035762, "tags": {"amenity": "cafe", "name": "Cellar Door Provisions"}}, {"type": "node", "id": 3882580215, "lat": 41.9410645, "lon": -87.7262185, "tags": {"amenity": "bar", "name": "Milano Cafe & Bar"}}, {"type": "node", "id": 3882580216, "lat": 41.9406036, "lon": -87.7260147, "tags": {"amenity": "cafe", "name": "Outdoor Grill"}}, {"type": "node", "id": 5759671055, "lat": 41.9309154, "lon": -87.7101777, "tags": {"addr:city": "Chicago", "addr:housenumber": "2727", "addr:postcode": "60647", "addr:state": "IL", "addr:street": "North Milwaukee Avenue", "amenity": "bar", "brewery": "yes", "name": "The Walk In Chicago", "opening_hours": "Mo-Fr 17:00-02:00; Sa 12:00-03:00; Su 12:00-02:00", "outdoor_seating": "yes", "phone": "+1-773-227-7033", "smoking": "no", "website": "https://www.thewalkinchicago.com"}}, {"type": "node", "id": 5916842248, "lat": 41.9322708, "lon": -87.7035248, "tags": {"addr:city": "Chicago", "addr:housenumber": "3022", "addr:postcode": "60647", "addr:state": "IL", "addr:street": "West Diversey Avenue", "amenity": "cafe", "name": "Four Letter Word", "phone": "+1-773-360-8932", "website": "http://www.4lwcoffee.com/"}}, {"type": "node", "id": 6050593221, "lat": 41.9392866, "lon": -87.7212467, "tags": {"addr:city": "Chicago", "addr:housenumber": "3734", "addr:postcode": "60618", "addr:state": "IL", "addr:street": "West Belmont Avenue", "amenity": "bar", "name": "Sleeping Village", "phone": "+1-773-654-3971", "website": "https://sleeping-village.com/"}}, {"type": "node", "id": 6261014741, "lat": 41.9394182, "lon": -87.7172402, "tags": {"addr:city": "Chicago", "addr:housenumber": "3420", "addr:postcode": "60618", "addr:state": "IL", "addr:street": "West Belmont Avenue", "amenity": "bar", "name": "Alice\u2019s Lounge", "phone": "+1-773-279-9382"}}, {"type": "node", "id": 6263777970, "lat": 41.9394421, "lon": -87.718779, "tags": {"addr:city": "Chicago", "addr:housenumber": "3634", "addr:postcode": "60618", "addr:state": "IL", "addr:street": "West Belmont Avenue", "amenity": "bar", "name": "Avondale Tap", "phone": "+1-773-754-8341", "website": "https://www.avondaletap.com/"}}, {"type": "node", "id": 6269109513, "lat": 41.9371647, "lon": -87.721029, "tags": {"addr:city": "Chicago", "addr:housenumber": "3804", "addr:postcode": "60618", "addr:state": "IL", "addr:street": "North Milwaukee Avenue", "amenity": "bar", "name": "Bristol Lounge", "phone": "+1-773-545-7072"}}, {"type": "node", "id": 6280584751, "lat": 41.9319324, "lon": -87.7035762, "tags": {"addr:city": "Chicago", "addr:housenumber": "3025", "addr:postcode": "60647", "addr:state": "IL", "addr:street": "West Diversey Avenue", "amenity": "restaurant", "name": "Cellar Door Provisions", "phone": "+1-773-697-8337", "website": "https://www.cellardoorprovisions.com/"}}, {"type": "node", "id": 6282566260, "lat": 41.931393, "lon": -87.7115622, "tags": {"addr:city": "Chicago", "addr:housenumber": "2770", "addr:postcode": "60647", "addr:state": "IL", "addr:street": "North Milwaukee Avenue", "amenity": "restaurant", "name": "Chiya Chai Cafe", "phone": "+1-773-360-7541", "website": "https://www.chiyachai.com/"}}, {"type": "node", "id": 6294625891, "lat": 41.9312206, "lon": -87.7113891, "tags": {"addr:city": "Chicago", "addr:housenumber": "2760", "addr:postcode": "60647", "addr:state": "IL", "addr:street": "North Milwaukee Avenue", "amenity": "bar", "name": "Hopewell Brewing Company", "phone": "+1-773-698-6178", "website": "http://www.hopewellbrewing.com/"}}, {"type": "node", "id": 6297571063, "lat": 41.9298873, "lon": -87.7072225, "tags": {"addr:city": "Chicago", "addr:housenumber": "2651", "addr:postcode": "60647", "addr:state": "IL", "addr:street": "North Kedzie Avenue", "amenity": "restaurant", "name": "Same Day Cafe", "phone": "+1-773-342-7040", "website": "http://www.samedaycafe.com/"}}, {"type": "node", "id": 6301180417, "lat": 41.9313998, "lon": -87.7114512, "tags": {"addr:city": "Chicago", "addr:housenumber": "2766", "addr:postcode": "60647", "addr:state": "IL", "addr:street": "North Milwaukee Avenue", "amenity": "restaurant", "name": "RYUU Asian BBQ & Sushi", "phone": "+1-773-661-1919", "website": "https://www.ryuubbq.com/"}}, {"type": "node", "id": 6301185685, "lat": 41.9306627, "lon": -87.7096689, "tags": {"addr:city": "Chicago", "addr:housenumber": "2715", "addr:postcode": "60647", "addr:state": "IL", "addr:street": "North Milwaukee Avenue", "amenity": "restaurant", "name": "SABA Italian Bar + Kitchen", "phone": "+1-773-697-9273", "website": "https://www.sabaitalian.com/"}}, {"type": "node", "id": 6314882497, "lat": 41.9336022, "lon": -87.707152, "tags": {"addr:city": "Chicago", "addr:housenumber": "2853", "addr:postcode": "60647", "addr:state": "IL", "addr:street": "North Kedzie Avenue", "amenity": "restaurant", "name": "JAM", "phone": "+1-773-292-6011", "website": "https://www.jamrestaurant.com/"}}, {"type": "node", "id": 6319244927, "lat": 41.9345972, "lon": -87.7168267, "tags": {"addr:city": "Chicago", "addr:housenumber": "2934", "addr:postcode": "60618", "addr:state": "IL", "addr:street": "North Milwaukee Avenue", "amenity": "cafe", "name": "Kerelys Cuban Cafe & Pizzeria", "phone": "+1-773-394-4040", "website": "https://www.kerelysmenu.com/"}}, {"type": "node", "id": 6320092211, "lat": 41.9429489, "lon": -87.7201809, "tags": {"addr:city": "Chicago", "addr:housenumber": "3400", "addr:postcode": "60618", "addr:state": "IL", "addr:street": "North Lawndale Avenue", "amenity": "restaurant", "cuisine": "argentinian", "name": "La Nonna", "phone": "+1-773-253-4741", "website": "https://www.lanonnail.com/"}}, {"type": "node", "id": 6320612692, "lat": 41.9300695, "lon": -87.7071164, "tags": {"addr:city": "Chicago", "addr:housenumber": "2657", "addr:postcode": "60647", "addr:state": "IL", "addr:street": "North Kedzie Avenue", "amenity": "restaurant", "name": "Longman & Eagle", "phone": "+1-773-276-7110", "website": "http://www.longmanandeagle.com/"}}, {"type": "node", "id": 6322769552, "lat": 41.934803, "lon": -87.7164307, "tags": {"addr:city": "Chicago", "addr:housenumber": "2937", "addr:postcode": "60618", "addr:state": "IL", "addr:street": "North Milwaukee Avenue", "amenity": "bar", "name": "Moe\u2019s Tavern", "phone": "+1-773-227-2937"}}, {"type": "node", "id": 6326194251, "lat": 41.9300975, "lon": -87.7071662, "tags": {"addr:city": "Chicago", "addr:housenumber": "2657", "addr:postcode": "60647", "addr:state": "IL", "addr:street": "North Kedzie Avenue", "amenity": "bar", "name": "Off Site Bar", "phone": "+1-773-276-7110", "website": "http://www.longmanandeagle.com/blog/2013/02/soon/"}}, {"type": "node", "id": 6610493967, "lat": 41.9319096, "lon": -87.7048257, "tags": {"addr:city": "Chicago", "addr:housenumber": "3059", "addr:postcode": "60647", "addr:state": "IL", "addr:street": "West Diversey Avenue", "amenity": "restaurant", "cuisine": "indian", "name": "Superkhana International", "phone": "+1-773-661-9028", "website": "https://superkhanachicago.com"}}, {"type": "node", "id": 6757772787, "lat": 41.9442156, "lon": -87.705642, "tags": {"addr:city": "Chicago", "addr:housenumber": "3472", "addr:postcode": "60618", "addr:state": "IL", "addr:street": "North Elston Avenue", "amenity": "restaurant", "cuisine": "american", "name": "Wherewithall", "phone": "+1-773-692-2192", "website": "https://www.wherewithallchi.com"}}, {"type": "node", "id": 7202666507, "lat": 41.9302301, "lon": -87.7095424, "tags": {"addr:city": "Chicago", "addr:housenumber": "2700", "addr:postcode": "60647", "addr:state": "IL", "addr:street": "North Milwaukee Avenue", "amenity": "restaurant", "name": "The Old Plank"}}, {"type": "way", "id": 162436410, "nodes": [1743245275, 1743245610, 1743245611, 1743245279, 1743245275], "tags": {"addr:city": "Chicago", "addr:housenumber": "3959", "addr:postcode": "60647", "addr:street": "West Diversey Avenue", "addr:street:name": "Diversey", "addr:street:prefix": "West", "addr:street:type": "Avenue", "amenity": "restaurant", "building": "yes", "building:levels": "1", "chicago:building_id": "244081", "cuisine": "american", "name": "Golden Nugget Pancake House", "website": "https://www.goldennuggetpancake.com/"}}, {"type": "way", "id": 163893027, "nodes": [1755630748, 1755630828, 1755630831, 1755630754, 1755630750, 1755630784, 1755630786, 1755630752, 1755630748], "tags": {"addr:city": "Chicago", "addr:housenumber": "2657", "addr:postcode": "60647", "addr:street": "North Kedzie Avenue", "addr:street:name": "Kedzie", "addr:street:prefix": "North", "addr:street:type": "Avenue", "amenity": "restaurant", "building": "yes", "chicago:building_id": "248070", "cuisine": "american", "name": "Longman & Eagle", "phone": "+1-773-276-7110", "website": "http://www.longmanandeagle.com/"}}, {"type": "way", "id": 163893035, "nodes": [1755630510, 1755629936, 1755629943, 1755630822, 1755630825, 1755630510], "tags": {"addr:housenumber": "2658", "addr:street": "North Milwaukee Avenue", "addr:street:name": "Milwaukee", "addr:street:prefix": "North", "addr:street:type": "Avenue", "amenity": "restaurant", "building": "retail", "chicago:building_id": "870060", "cuisine": "mexican", "name": "Puebla Restaurant"}}, {"type": "way", "id": 163893589, "nodes": [1755640402, 1755640571, 1755641768, 1755641653, 1755640402], "tags": {"addr:housenumber": "2829", "addr:street": "North Milwaukee Avenue", "addr:street:name": "Milwaukee", "addr:street:prefix": "North", "addr:street:type": "Avenue", "amenity": "restaurant", "building": "yes", "building:levels": "1", "chicago:building_id": "239526", "cuisine": "mexican", "name": "Taqueria El Ranchito"}}, {"type": "way", "id": 163894553, "nodes": [1755651481, 1755651625, 1755651933, 1755651879, 1755651931, 1755651980, 1755652178, 1755652034, 1755651481], "tags": {"addr:housenumber": "2988", "addr:street": "North Milwaukee Avenue", "addr:street:name": "Milwaukee", "addr:street:prefix": "North", "addr:street:type": "Avenue", "amenity": "bar", "building": "yes", "building:levels": "3", "chicago:building_id": "228506", "name": "Regina & Joe Tap"}}, {"type": "way", "id": 163905395, "nodes": [1755728238, 1755728378, 1755728377, 1755728239, 1755728238], "tags": {"addr:housenumber": "3145", "addr:street": "West Addison Street", "addr:street:name": "Addison", "addr:street:prefix": "West", "addr:street:type": "Street", "amenity": "restaurant", "building": "yes", "building:levels": "1", "cuisine": "mexican", "name": "Burrito House"}}, {"type": "way", "id": 163905623, "nodes": [1755728543, 1755728868, 1755728869, 1755729136, 1755729139, 1755729228, 1755729226, 1755728892, 1755728890, 1755728544, 1755728543], "tags": {"addr:housenumber": "3310", "addr:street": "West Addison Street", "addr:street:name": "Addison", "addr:street:prefix": "West", "addr:street:type": "Street", "amenity": "cafe", "building": "yes", "building:levels": "1", "cuisine": "donut", "name": "Dunkin' Donuts"}}, {"type": "way", "id": 209465036, "nodes": [2196790368, 2196790640, 2196790727, 2196790730, 2196790368], "tags": {"addr:city": "Chicago", "addr:housenumber": "3361", "addr:postcode": "60618", "addr:state": "IL", "addr:street": "North Elston Avenue", "addr:street:name": "Elston", "addr:street:prefix": "North", "addr:street:type": "Avenue", "amenity": "restaurant", "building": "retail", "chicago:building_id": "197335", "name": "Honey Butter Fried Chicken", "outdoor_seating": "yes", "phone": "+1-773-478-4000", "smoking": "no", "toilets:wheelchair": "yes", "website": "https://www.honeybutter.com/", "wheelchair": "yes"}}, {"type": "way", "id": 358208525, "nodes": [3631689565, 3631689566, 3631689567, 3631689568, 3631689569, 3631689570, 3631689571, 3631689572, 3631689573, 3631689574, 3631689575, 3631689576, 3631689577, 3631689578, 3631689579, 3631689565], "tags": {"addr:city": "Chicago", "addr:housenumber": "3555", "addr:postcode": "60618", "addr:state": "IL", "addr:street": "West Addison Street", "amenity": "restaurant", "building": "retail", "building:levels": "1", "cuisine": "italian", "name": "Olive Garden", "opening_hours": "Mo-Fr 11:00-22:00; Sa-Su 11:00-23:00", "outdoor_seating": "no"}}]}