{"version": 0.6, "generator": "Overpass API 0.7.56.3 eb200aeb", "osm3s": {"timestamp_osm_base": "2020-07-20T22:18:03Z", "copyright": "The data included in this document is from www.openstreetmap.org. The data is made available under ODbL."}, "elements": [{"type": "node", "id": 495655712, "lat": 41.9359674, "lon": -87.6632892, "tags": {"addr:housenumber": "2971", "addr:street": "North Lincoln Avenue", "amenity": "restaurant", "name": "Golden Apple", "phone": "773-528-1413"}}, {"type": "node", "id": 495655717, "lat": 41.9376211, "lon": -87.6660205, "tags": {"addr:housenumber": "3045", "addr:street": "North Greenview Avenue", "amenity": "cafe", "brand": "Starbucks", "brand:wikidata": "Q37158", "brand:wikipedia": "en:Starbucks", "cuisine": "coffee_shop", "name": "Starbucks", "official_name": "Starbucks Coffee", "takeaway": "yes"}}, {"type": "node", "id": 503799637, "lat": 41.9439463, "lon": -87.6641268, "tags": {"amenity": "cafe", "name": "Ann Sather"}}, {"type": "node", "id": 1892429574, "lat": 41.9440434, "lon": -87.66374, "tags": {"amenity": "restaurant", "brand": "Noodles & Company", "brand:wikidata": "Q7049673", "brand:wikipedia": "en:Noodles & Company", "cuisine": "pasta", "name": "Noodles & Company"}}, {"type": "node", "id": 1892429616, "lat": 41.9441566, "lon": -87.6637577, "tags": {"amenity": "restaurant", "name": "Cooba", "wheelchair": "yes"}}, {"type": "node", "id": 1892450589, "lat": 41.9440789, "lon": -87.6641263, "tags": {"addr:housenumber": "3418", "addr:street": "North Southport Avenue", "amenity": "restaurant", "name": "Sopo Lounge & Grill"}}, {"type": "node", "id": 2167184271, "lat": 41.9278273, "lon": -87.6636143, "tags": {"addr:city": "Chicago", "addr:housenumber": "2524", "addr:postcode": "60614", "addr:street": "North Southport Avenue", "amenity": "restaurant", "name": "The Monkey's Paw", "smoking": "no"}}, {"type": "node", "id": 2200366030, "lat": 41.9329518, "lon": -87.6641628}, {"type": "node", "id": 2200366044, "lat": 41.9329587, "lon": -87.6637242}, {"type": "node", "id": 2200366395, "lat": 41.933012, "lon": -87.6641645}, {"type": "node", "id": 2200366402, "lat": 41.933019, "lon": -87.663726}, {"type": "node", "id": 2200369775, "lat": 41.9343189, "lon": -87.6682783}, {"type": "node", "id": 2200369788, "lat": 41.934323, "lon": -87.6680339}, {"type": "node", "id": 2200369846, "lat": 41.9343503, "lon": -87.6680042}, {"type": "node", "id": 2200369850, "lat": 41.9343505, "lon": -87.6680354}, {"type": "node", "id": 2200370017, "lat": 41.9343903, "lon": -87.6682813}, {"type": "node", "id": 2200370036, "lat": 41.9343942, "lon": -87.6680056}, {"type": "node", "id": 2200375034, "lat": 41.9361355, "lon": -87.6682595}, {"type": "node", "id": 2200375035, "lat": 41.9361356, "lon": -87.6682833}, {"type": "node", "id": 2200375051, "lat": 41.9361415, "lon": -87.6683494}, {"type": "node", "id": 2200375055, "lat": 41.9361423, "lon": -87.6682484}, {"type": "node", "id": 2200375056, "lat": 41.9361426, "lon": -87.6682943}, {"type": "node", "id": 2200375058, "lat": 41.9361475, "lon": -87.6679543}, {"type": "node", "id": 2200375143, "lat": 41.9361938, "lon": -87.664126}, {"type": "node", "id": 2200375144, "lat": 41.936194, "lon": -87.6641535}, {"type": "node", "id": 2200375147, "lat": 41.9361955, "lon": -87.664646}, {"type": "node", "id": 2200375151, "lat": 41.9361974, "lon": -87.6640304}, {"type": "node", "id": 2200375152, "lat": 41.9361975, "lon": -87.6640451}, {"type": "node", "id": 2200375154, "lat": 41.9361976, "lon": -87.6643042}, {"type": "node", "id": 2200375165, "lat": 41.9362006, "lon": -87.6641167}, {"type": "node", "id": 2200375167, "lat": 41.9362009, "lon": -87.6641627}, {"type": "node", "id": 2200375169, "lat": 41.9362014, "lon": -87.6640193}, {"type": "node", "id": 2200375170, "lat": 41.9362016, "lon": -87.6640542}, {"type": "node", "id": 2200375176, "lat": 41.9362035, "lon": -87.6643354}, {"type": "node", "id": 2200375179, "lat": 41.9362045, "lon": -87.6643041}, {"type": "node", "id": 2200375183, "lat": 41.936206, "lon": -87.6683506}, {"type": "node", "id": 2200375192, "lat": 41.9362096, "lon": -87.6640137}, {"type": "node", "id": 2200375200, "lat": 41.936212, "lon": -87.6679573}, {"type": "node", "id": 2200375224, "lat": 41.9362178, "lon": -87.6640118}, {"type": "node", "id": 2200375246, "lat": 41.9362261, "lon": -87.6640135}, {"type": "node", "id": 2200375257, "lat": 41.9362302, "lon": -87.6640172}, {"type": "node", "id": 2200375268, "lat": 41.9362344, "lon": -87.6640245}, {"type": "node", "id": 2200375269, "lat": 41.9362344, "lon": -87.6640355}, {"type": "node", "id": 2200375272, "lat": 41.9362354, "lon": -87.6643365}, {"type": "node", "id": 2200375315, "lat": 41.9362442, "lon": -87.6647131}, {"type": "node", "id": 2200375475, "lat": 41.9362842, "lon": -87.6642816}, {"type": "node", "id": 2200375703, "lat": 41.9363444, "lon": -87.6642042}, {"type": "node", "id": 2200375720, "lat": 41.9363501, "lon": -87.6641967}, {"type": "node", "id": 2200376304, "lat": 41.9364942, "lon": -87.664397}, {"type": "node", "id": 2200391526, "lat": 41.9391951, "lon": -87.6830711}, {"type": "node", "id": 2200391530, "lat": 41.939196, "lon": -87.6829902}, {"type": "node", "id": 2200391693, "lat": 41.9392513, "lon": -87.6830724}, {"type": "node", "id": 2200391751, "lat": 41.9392596, "lon": -87.6830833}, {"type": "node", "id": 2200391864, "lat": 41.9392788, "lon": -87.6830831}, {"type": "node", "id": 2200391876, "lat": 41.9392824, "lon": -87.682993}, {"type": "node", "id": 2200391880, "lat": 41.9392843, "lon": -87.683072}, {"type": "node", "id": 2200391887, "lat": 41.939288, "lon": -87.6830003}, {"type": "node", "id": 2200391936, "lat": 41.9393099, "lon": -87.6830019}, {"type": "node", "id": 2200391950, "lat": 41.9393167, "lon": -87.6829927}, {"type": "node", "id": 2200391982, "lat": 41.9393322, "lon": -87.6782272}, {"type": "node", "id": 2200391984, "lat": 41.9393333, "lon": -87.6781739}, {"type": "node", "id": 2200391989, "lat": 41.9393344, "lon": -87.6781409}, {"type": "node", "id": 2200392020, "lat": 41.9393552, "lon": -87.6829941}, {"type": "node", "id": 2200392021, "lat": 41.9393552, "lon": -87.6829996}, {"type": "node", "id": 2200392173, "lat": 41.9393689, "lon": -87.6829903}, {"type": "node", "id": 2200392174, "lat": 41.9393689, "lon": -87.6830013}, {"type": "node", "id": 2200392234, "lat": 41.9393968, "lon": -87.6830746}, {"type": "node", "id": 2200392245, "lat": 41.9394037, "lon": -87.6830837}, {"type": "node", "id": 2200392290, "lat": 41.9394188, "lon": -87.6830854}, {"type": "node", "id": 2200392308, "lat": 41.9394241, "lon": -87.6830449}, {"type": "node", "id": 2200392311, "lat": 41.9394251, "lon": -87.6829916}, {"type": "node", "id": 2200392339, "lat": 41.939431, "lon": -87.683054}, {"type": "node", "id": 2200392341, "lat": 41.9394311, "lon": -87.6830724}, {"type": "node", "id": 2200392508, "lat": 41.9394845, "lon": -87.678233}, {"type": "node", "id": 2200392513, "lat": 41.9394854, "lon": -87.6781467}, {"type": "node", "id": 2200392514, "lat": 41.9394856, "lon": -87.6781724}, {"type": "node", "id": 2200517049, "lat": 41.9408113, "lon": -87.6698575}, {"type": "node", "id": 2200517060, "lat": 41.9408122, "lon": -87.6697748}, {"type": "node", "id": 2200517417, "lat": 41.9408416, "lon": -87.6698811}, {"type": "node", "id": 2200517588, "lat": 41.9408703, "lon": -87.6696235}, {"type": "node", "id": 2200518044, "lat": 41.9409295, "lon": -87.6696615}, {"type": "node", "id": 2200532931, "lat": 41.942628, "lon": -87.6710535}, {"type": "node", "id": 2200533571, "lat": 41.9426969, "lon": -87.6708727}, {"type": "node", "id": 2200533849, "lat": 41.9427203, "lon": -87.670639}, {"type": "node", "id": 2200536114, "lat": 41.942865, "lon": -87.6702663}, {"type": "node", "id": 2200536507, "lat": 41.942897, "lon": -87.6710618}, {"type": "node", "id": 2200536534, "lat": 41.9428981, "lon": -87.6710103}, {"type": "node", "id": 2200536565, "lat": 41.9428994, "lon": -87.670764}, {"type": "node", "id": 2200537391, "lat": 41.9429545, "lon": -87.6703279}, {"type": "node", "id": 2200537423, "lat": 41.9429562, "lon": -87.6706182}, {"type": "node", "id": 2200538922, "lat": 41.943044, "lon": -87.6703913}, {"type": "node", "id": 2600420844, "lat": 41.9431284, "lon": -87.6758683, "tags": {"addr:city": "Chicago", "addr:housenumber": "1847", "addr:postcode": "60657", "addr:state": "IL", "addr:street": "West Roscoe Street", "amenity": "bar", "name": "Four Moon Tavern", "phone": "+1-773-929-6666", "website": "http://fourmoontavern.com/"}}, {"type": "node", "id": 2933401201, "lat": 41.9399274, "lon": -87.6612013, "tags": {"addr:city": "Chicago", "addr:housenumber": "1258", "addr:postcode": "60657", "addr:state": "IL", "addr:street": "West Belmont Avenue", "amenity": "restaurant", "delivery": "no", "name": "Fahlstrom's Fresh Fish Market", "opening_hours": "Mo-Fr 11:00-22:00; Sa 09:00-22:00; Su 09:00-21:00", "phone": "+1-773-281-6000", "takeaway": "yes", "website": "https://www.fahlstromsfreshfish.com/"}}, {"type": "node", "id": 4049483564, "lat": 41.9368582, "lon": -87.6650564, "tags": {"amenity": "restaurant", "cuisine": "american", "level": "0", "name": "Grand River"}}, {"type": "node", "id": 4427769308, "lat": 41.9433508, "lon": -87.6786084, "tags": {"addr:city": "Chicago", "addr:country": "US", "addr:housenumber": "2000", "addr:postcode": "60618", "addr:state": "IL", "addr:street": "West Roscoe Street", "amenity": "restaurant", "cuisine": "american", "name": "Commonwealth Tavern", "outdoor_seating": "yes", "phone": "+1-773-697-7965", "website": "https://www.commonwealthchicago.com/"}}, {"type": "node", "id": 4427769309, "lat": 41.9434066, "lon": -87.6783201, "tags": {"addr:city": "Chicago", "addr:country": "US", "addr:housenumber": "1958", "addr:postcode": "60657", "addr:state": "IL", "addr:street": "West Roscoe Street", "amenity": "restaurant", "cuisine": "american", "name": "Riverview Tavern", "outdoor_seating": "yes", "wheelchair": "yes"}}, {"type": "node", "id": 5460785521, "lat": 41.9395264, "lon": -87.6636243, "tags": {"addr:city": "Chicago", "addr:housenumber": "3157", "addr:postcode": "60657", "addr:state": "IL", "addr:street": "North Southport Avenue", "amenity": "restaurant", "cuisine": "american;new_american;american_new", "name": "Tied House", "opening_hours": "Su-Th 16:30-23:00; Fr-Sa 16:30-00:00", "phone": "+1-773-697-4632", "website": "https://www.tiedhousechicago.com"}}, {"type": "node", "id": 5460886933, "lat": 41.9398722, "lon": -87.6696522, "tags": {"addr:city": "Chicago", "addr:housenumber": "1622", "addr:postcode": "60657", "addr:state": "IL", "addr:street": "West Belmont Avenue", "amenity": "restaurant", "cuisine": "american;pub", "name": "Flagship Tavern and Grill", "opening_hours": "Mo-Th 17:00-02:00; Fr 15:00-02:00; Sa 11:00-03:00; Su 11:00-02:00", "phone": "+1-773-281-3805", "website": "https://www.flagshipchicago.com/"}}, {"type": "node", "id": 5460893286, "lat": 41.9426479, "lon": -87.6635911, "tags": {"addr:city": "Chicago", "addr:housenumber": "3335", "addr:postcode": "60657", "addr:state": "IL", "addr:street": "North Southport Avenue", "amenity": "restaurant", "cuisine": "italian", "name": "Coda di Volpe", "opening_hours": "Mo-Th 16:30-22:00; Fr 16:30-23:00; Sa 10:00-23:00; Su 10:00-22:00", "phone": "+1-773-687-8568", "website": "http://www.cdvolpe.com/"}}, {"type": "node", "id": 5567716998, "lat": 41.9433216, "lon": -87.682255, "tags": {"addr:city": "Chicago", "addr:housenumber": "2132", "addr:state": "IL", "addr:street": "West Roscoe Street", "amenity": "restaurant", "cuisine": "burger;regional", "delivery": "no", "name": "John's Place", "outdoor_seating": "yes", "smoking": "no", "takeaway": "yes"}}, {"type": "node", "id": 5567717000, "lat": 41.9433386, "lon": -87.6810414, "tags": {"addr:city": "Chicago", "addr:housenumber": "2100", "addr:state": "IL", "addr:street": "West Roscoe Street", "amenity": "restaurant", "cuisine": "Vegan;brunch", "name": "Victory's Banner", "outdoor_seating": "yes", "smoking": "no", "takeaway": "no"}}, {"type": "node", "id": 5567717001, "lat": 41.9430634, "lon": -87.6794891, "tags": {"addr:city": "Chicago", "addr:housenumber": "2023-25", "addr:state": "IL", "addr:street": "West Roscoe Street", "amenity": "restaurant", "cuisine": "coffee_shop", "name": "Satrbucks", "outdoor_seating": "yes", "smoking": "no", "takeaway": "yes"}}, {"type": "node", "id": 5567717002, "lat": 41.9403305, "lon": -87.6785481, "tags": {"amenity": "restaurant", "cuisine": "burger;hot_dogs", "name": "Man Jo Vin's", "outdoor_seating": "no", "smoking": "no", "takeaway": "yes"}}, {"type": "node", "id": 5651992039, "lat": 41.9396498, "lon": -87.6636315, "tags": {"amenity": "bar", "name": "Schuba's"}}, {"type": "node", "id": 5791122717, "lat": 41.9447594, "lon": -87.6643524, "tags": {"addr:city": "Chicago", "addr:housenumber": "3446", "addr:postcode": "60657", "addr:state": "IL", "addr:street": "North Southport Avenue", "amenity": "restaurant", "name": "Corridor Brewery and Provisions", "phone": "+1-773-270-4272", "website": "https://www.corridorchicago.com/"}}, {"type": "node", "id": 5914601985, "lat": 41.9433087, "lon": -87.6640752, "tags": {"addr:city": "Chicago", "addr:housenumber": "3358", "addr:postcode": "60657", "addr:state": "IL", "addr:street": "North Southport Avenue", "amenity": "restaurant", "cuisine": "mexican;tacos;taco", "name": "Tuco and Blondie", "opening_hours": "Mo-Th 11:00-22:00; Fr 11:00-00:00; Sa 10:00-00:00; Su 10:00-22:00", "phone": "+1-773-327-8226", "website": "http://www.tucoandblondie.com"}}, {"type": "node", "id": 6263471199, "lat": 41.9286184, "lon": -87.6715995, "tags": {"addr:city": "Chicago", "addr:housenumber": "1721", "addr:postcode": "60614", "addr:state": "IL", "addr:street": "West Wrightwood Avenue", "amenity": "bar", "name": "Augie\u2019s", "phone": "+1-773-296-0018", "website": "http://augiesbooze.homestead.com/"}}, {"type": "node", "id": 6263526427, "lat": 41.9286414, "lon": -87.6623901, "tags": {"addr:city": "Chicago", "addr:housenumber": "1335", "addr:postcode": "60614", "addr:state": "IL", "addr:street": "West Wrightwood Avenue", "amenity": "restaurant", "name": "Avli Taverna", "phone": "+1-773-857-5577", "website": "http://avli.us/"}}, {"type": "node", "id": 6267320530, "lat": 41.9428732, "lon": -87.6705192, "tags": {"addr:city": "Chicago", "addr:housenumber": "3345", "addr:postcode": "60657", "addr:state": "IL", "addr:street": "North Lincoln Avenue", "amenity": "bar", "name": "Bitter Pops", "phone": "+1-773-857-7677", "website": "https://www.bitterpops.com/"}}, {"type": "node", "id": 6269118585, "lat": 41.9284536, "lon": -87.6636452, "tags": {"addr:city": "Chicago", "addr:housenumber": "2548", "addr:postcode": "60614", "addr:state": "IL", "addr:street": "North Southport Avenue", "amenity": "bar", "name": "Broken Barrel Bar", "phone": "+1-773-327-4900", "website": "https://www.brokenbarrelbar.com/"}}, {"type": "node", "id": 6269670151, "lat": 41.9435259, "lon": -87.6690303, "tags": {"addr:city": "Chicago", "addr:housenumber": "3400", "addr:postcode": "60657", "addr:state": "IL", "addr:street": "North Ashland Avenue", "amenity": "restaurant", "name": "Cafe El Tapatio", "phone": "+1-773-327-5475", "website": "http://cafetapatio.com/"}}, {"type": "node", "id": 6280486513, "lat": 41.9445167, "lon": -87.6637447, "tags": {"addr:city": "Chicago", "addr:housenumber": "3425", "addr:postcode": "60657", "addr:state": "IL", "addr:street": "North Southport Avenue", "amenity": "cafe", "name": "Capital One Caf\u00e9", "phone": "+1-312-279-8061", "website": "https://www.capitalone.com/local/chicago-southport"}}, {"type": "node", "id": 6282433414, "lat": 41.9385233, "lon": -87.6675367, "tags": {"addr:city": "Chicago", "addr:housenumber": "3134", "addr:postcode": "60657", "addr:state": "IL", "addr:street": "North Lincoln Avenue", "amenity": "cafe", "cuisine": "coffee_shop", "name": "Chicago Diplomat Cafe", "phone": "+1-773-262-2722", "website": "https://chicago-diplomat-cafe.business.site/"}}, {"type": "node", "id": 6283178216, "lat": 41.938034, "lon": -87.6709073, "tags": {"addr:city": "Chicago", "addr:housenumber": "1658", "addr:postcode": "60657", "addr:state": "IL", "addr:street": "West Barry Avenue", "amenity": "bar", "name": "Cody\u2019s Public House", "phone": "+1-773-528-4050"}}, {"type": "node", "id": 6283974838, "lat": 41.9451152, "lon": -87.6637061, "tags": {"addr:city": "Chicago", "addr:housenumber": "3455", "addr:postcode": "60657", "addr:state": "IL", "addr:street": "North Southport Avenue", "amenity": "restaurant", "cuisine": "american", "name": "Crosby\u2019s Kitchen", "phone": "+1-773-883-2525", "website": "http://crosbyschicago.com/"}}, {"type": "node", "id": 6283989241, "lat": 41.9433969, "lon": -87.6806315, "tags": {"addr:city": "Chicago", "addr:housenumber": "2054", "addr:postcode": "60618", "addr:state": "IL", "addr:street": "West Roscoe Street", "amenity": "restaurant", "name": "Cuba 312", "phone": "+1-773-281-2822", "website": "http://www.cuba312.com/"}}, {"type": "node", "id": 6286580076, "lat": 41.9451277, "lon": -87.6634876, "tags": {"addr:city": "Chicago", "addr:housenumber": "1349", "addr:postcode": "60657", "addr:state": "IL", "addr:street": "West Cornelia Avenue", "amenity": "restaurant", "cuisine": "italian;mediterranean", "name": "Ella Elli", "phone": "+1-773-935-3552", "website": "http://www.ellaellichicago.com/"}}, {"type": "node", "id": 6289397250, "lat": 41.9363597, "lon": -87.6614074, "tags": {"addr:city": "Chicago", "addr:housenumber": "1300", "addr:postcode": "60657", "addr:state": "Il", "addr:street": "West Wellington Avenue", "amenity": "restaurant", "name": "Farm Bar Lakeview", "phone": "+1-773-281-2599", "website": "http://farm-bar.com/"}}, {"type": "node", "id": 6289909793, "lat": 41.9398986, "lon": -87.6707542, "tags": {"addr:city": "Chicago", "addr:housenumber": "1652", "addr:postcode": "60657", "addr:state": "IL", "addr:street": "West Belmont Avenue", "amenity": "restaurant", "name": "Fennel & Iris", "phone": "+1-773-687-8442", "website": "http://fennelandiris.com/"}}, {"type": "node", "id": 6290025752, "lat": 41.9447486, "lon": -87.672566, "tags": {"addr:city": "Chicago", "addr:housenumber": "3458", "addr:postcode": "60657", "addr:state": "IL", "addr:street": "North Lincoln Avenue", "amenity": "bar", "name": "Finley Dunnes Tavern", "phone": "+1-773-477-7311"}}, {"type": "node", "id": 6291153865, "lat": 41.9322813, "lon": -87.6687371, "tags": {"addr:city": "Chicago", "addr:housenumber": "2758", "addr:postcode": "60657", "addr:state": "IL", "addr:street": "North Ashland Avenue", "amenity": "bar", "name": "Four Shadows", "phone": "+1-773-248-9160", "website": "http://fourshadows.net/"}}, {"type": "node", "id": 6291523976, "lat": 41.9431375, "lon": -87.6714232, "tags": {"addr:city": "Chicago", "addr:housenumber": "3358", "addr:postcode": "60657", "addr:state": "IL", "addr:street": "North Paulina Street", "amenity": "restaurant", "cuisine": "pizza;italian", "name": "Frasca Pizzeria and Wine Bar", "phone": "+1-773-248-5222", "website": "http://www.frascapizzeria.com/"}}, {"type": "node", "id": 6294293052, "lat": 41.9357623, "lon": -87.6628497, "tags": {"addr:city": "Chicago", "addr:housenumber": "2959", "addr:postcode": "60657", "addr:state": "IL", "addr:street": "North Lincoln Avenue", "amenity": "cafe", "name": "Heritage Bicycles General Store", "phone": "+1-773-245-3005", "website": "https://www.heritagebicycles.com/"}}, {"type": "node", "id": 6294381684, "lat": 41.9429794, "lon": -87.6813882, "tags": {"addr:city": "Chicago", "addr:housenumber": "2111", "addr:postcode": "60618", "addr:state": "IL", "addr:street": "West Roscoe Street", "amenity": "cafe", "name": "HERO Coffee Bar", "phone": "+1-773-687-9431", "website": "https://www.herocoffeebars.com/"}}, {"type": "node", "id": 6297537502, "lat": 41.9335076, "lon": -87.6638856, "tags": {"addr:city": "Chicago", "addr:housenumber": "2834", "addr:postcode": "60657", "addr:state": "IL", "addr:street": "North Southport Avenue", "amenity": "restaurant", "name": "Sal\u2019s Trattoria", "phone": "+1-773-857-1401", "website": "http://salstrattoria.com/"}}, {"type": "node", "id": 6297566248, "lat": 41.9362512, "lon": -87.6641824, "tags": {"addr:city": "Chicago", "addr:housenumber": "3000", "addr:postcode": "60657", "addr:state": "IL", "addr:street": "North Lincoln Avenue", "amenity": "restaurant", "name": "Sam & George\u2019s", "phone": "+1-773-935-4025", "website": "http://www.sandg-chicago.com/"}}, {"type": "node", "id": 6297639056, "lat": 41.9396579, "lon": -87.6633518, "tags": {"addr:city": "Chicago", "addr:housenumber": "3159", "addr:postcode": "60657", "addr:state": "IL", "addr:street": "North Southport Avenue", "amenity": "bar", "name": "Schubas Tavern", "phone": "+1-773-525-2508", "website": "https://www.schubastavern.com/"}}, {"type": "node", "id": 6297827190, "lat": 41.9344543, "lon": -87.6658815, "tags": {"addr:city": "Chicago", "addr:housenumber": "1456", "addr:postcode": "60657", "addr:state": "IL", "addr:street": "West George Street", "amenity": "bar", "name": "Side Street Saloon", "phone": "+1-773-327-1127"}}, {"type": "node", "id": 6298966885, "lat": 41.9423222, "lon": -87.6635629, "tags": {"addr:city": "Chicago", "addr:housenumber": "3325", "addr:postcode": "60657", "addr:state": "IL", "addr:street": "North Southport Avenue", "amenity": "bar", "name": "Southport Lanes", "phone": "+1-773-472-6600", "website": "https://southportlanes.com/"}}, {"type": "node", "id": 6300438457, "lat": 41.9434531, "lon": -87.6827389, "tags": {"addr:city": "Chicago", "addr:housenumber": "2144", "addr:postcode": "60618", "addr:state": "IL", "addr:street": "West Roscoe Street", "amenity": "restaurant", "name": "Pilates + Coffee", "phone": "+1-630-749-5729", "website": "https://pilatesandcoffee.com/"}}, {"type": "node", "id": 6300845648, "lat": 41.9435223, "lon": -87.6783231, "tags": {"addr:city": "Chicago", "addr:housenumber": "3403", "addr:postcode": "60657", "addr:state": "IL", "addr:street": "North Damen Avenue", "amenity": "bar", "name": "The Reveler", "phone": "+1-773-248-9523", "website": "http://www.revelerchicago.com/"}}, {"type": "node", "id": 6302030514, "lat": 41.9400544, "lon": -87.663414, "tags": {"addr:city": "Chicago", "addr:housenumber": "1358", "addr:postcode": "60657", "addr:state": "IL", "addr:street": "West Belmont Avenue", "amenity": "restaurant", "name": "The Spanish Square", "phone": "+1-773-717-7900", "website": "http://www.thespanishsquare.com/"}}, {"type": "node", "id": 6304074588, "lat": 41.9371009, "lon": -87.6681753, "tags": {"addr:city": "Chicago", "addr:housenumber": "3033", "addr:postcode": "60657", "addr:state": "IL", "addr:street": "North Ashland Avenue", "amenity": "restaurant", "name": "The Art of Pizza", "phone": "+1-773-327-5600", "website": "http://www.artofpizzachicago.com/"}}, {"type": "node", "id": 6306842968, "lat": 41.9428974, "lon": -87.6826786, "tags": {"addr:city": "Chicago", "addr:housenumber": "2147", "addr:postcode": "60618", "addr:state": "IL", "addr:street": "West Roscoe Street", "amenity": "restaurant", "name": "Turquoise Restaurant", "phone": "+1-773-549-3523", "website": "https://www.turquoisedining.com/"}}, {"type": "node", "id": 6306915776, "lat": 41.9343553, "lon": -87.6681643, "tags": {"addr:city": "Chicago", "addr:housenumber": "2901", "addr:postcode": "60657", "addr:state": "IL", "addr:street": "North Ashland Avenue", "amenity": "restaurant", "name": "Tutto Fresco", "phone": "+1-773-661-9009", "website": "http://www.tuttofrescochicago.com/"}}, {"type": "node", "id": 6307022465, "lat": 41.9348552, "lon": -87.661554, "tags": {"addr:city": "Chicago", "addr:housenumber": "1913", "addr:postcode": "60657", "addr:state": "IL", "addr:street": "North Lincoln Avenue", "amenity": "bar", "name": "Twisted Tap"}}, {"type": "node", "id": 6315194719, "lat": 41.934158, "lon": -87.6639155, "tags": {"addr:city": "Chicago", "addr:housenumber": "2856", "addr:postcode": "60657", "addr:state": "IL", "addr:street": "North Southport Avenue", "amenity": "bar", "name": "The Diag", "phone": "+1-773-404-8400", "website": "https://www.diagchicago.com/"}}, {"type": "node", "id": 6315206885, "lat": 41.9342202, "lon": -87.6607793, "tags": {"addr:city": "Chicago", "addr:housenumber": "2871", "addr:postcode": "60657", "addr:state": "IL", "addr:street": "North Lincoln Avenue", "amenity": "bar", "name": "The Elbo Room", "phone": "+1-773-549-5549", "website": "elboroomlive.com"}}, {"type": "node", "id": 6315245428, "lat": 41.9423073, "lon": -87.6707332, "tags": {"addr:city": "Chicago", "addr:housenumber": "3328", "addr:postcode": "60657", "addr:state": "IL", "addr:street": "North Lincoln Avenue", "amenity": "bar", "name": "The Green Lady", "phone": "+1-773-525-5571", "website": "http://thegreenlady-chicago.com/"}}, {"type": "node", "id": 6315632339, "lat": 41.9367992, "lon": -87.6649701, "tags": {"addr:city": "Chicago", "addr:housenumber": "3032", "addr:postcode": "60657", "addr:state": "IL", "addr:street": "North Lincoln Avenue", "amenity": "bar", "name": "The Land on Lincoln", "phone": "+1-872-802-0111", "website": "https://www.thelandonlincoln.com/"}}, {"type": "node", "id": 6315711823, "lat": 41.9398934, "lon": -87.6701961, "tags": {"addr:city": "Chicago", "addr:housenumber": "1638", "addr:postcode": "60657", "addr:state": "IL", "addr:street": "West Belmont Avenue", "amenity": "bar", "name": "The Pony Inn", "phone": "+1-312-453-9397", "website": "http://theponychicago.com/"}}, {"type": "node", "id": 6316590982, "lat": 41.9429831, "lon": -87.6806006, "tags": {"addr:city": "Chicago", "addr:housenumber": "2055", "addr:postcode": "60618", "addr:state": "IL", "addr:street": "West Roscoe Street", "amenity": "bar", "name": "Village Tap", "phone": "+1-773-883-0817", "website": "https://www.villagetap.com/"}}, {"type": "node", "id": 6316695865, "lat": 41.9435937, "lon": -87.6709918, "tags": {"addr:city": "Chicago", "addr:housenumber": "3407", "addr:postcode": "60657", "addr:state": "IL", "addr:street": "North Paulina Street", "amenity": "bar", "name": "Waterhouse", "phone": "+1-773-871-1200", "website": "https://waterhousechicago.com/"}}, {"type": "node", "id": 6316960393, "lat": 41.9416503, "lon": -87.670303, "tags": {"addr:city": "Chicago", "addr:housenumber": "3300", "addr:postcode": "60657", "addr:state": "IL", "addr:street": "North Lincoln Avenue", "amenity": "restaurant", "cuisine": "southern", "name": "Wishbone", "phone": "+1-773-549-2663", "website": "http://www.wishbonenorth.com/"}}, {"type": "node", "id": 6318428983, "lat": 41.9363406, "lon": -87.6643657, "tags": {"addr:city": "Chicago", "addr:housenumber": "3010", "addr:postcode": "60657", "addr:state": "IL", "addr:street": "North Lincoln Avenue", "amenity": "bar", "name": "Lincoln Tap Room", "phone": "+1-773-868-0060", "website": "https://www.lincolntaproom.com/"}}, {"type": "node", "id": 6320588149, "lat": 41.9439336, "lon": -87.6718975, "tags": {"addr:city": "Chicago", "addr:housenumber": "3422", "addr:postcode": "60657", "addr:state": "IL", "addr:street": "North Lincoln Avenue", "amenity": "cafe", "name": "Loba Pastry + Coffee", "phone": "+1-773-456-9266", "website": "http://www.lobapastry.com/"}}, {"type": "node", "id": 6324383593, "lat": 41.9454037, "lon": -87.6641828, "tags": {"addr:city": "Chicago", "addr:housenumber": "3500", "addr:postcode": "60657", "addr:state": "IL", "addr:street": "North Southport Avenue", "amenity": "bar", "name": "Lange\u2019s Lounge", "phone": "+1-773-472-6030"}}, {"type": "node", "id": 6326466249, "lat": 41.9340181, "lon": -87.6610034, "tags": {"addr:city": "Chicago", "addr:housenumber": "2878", "addr:postcode": "60657", "addr:state": "IL", "addr:street": "North Lincoln Avenue", "amenity": "restaurant", "name": "Left Coast Food + Juice", "phone": "+1-773-880-5338", "website": "http://www.leftcoastfood.com/"}}, {"type": "node", "id": 6326496079, "lat": 41.9352165, "lon": -87.6627816, "tags": {"addr:city": "Chicago", "addr:housenumber": "2942", "addr:postcode": "60657", "addr:state": "IL", "addr:street": "North Lincoln Avenue", "amenity": "restaurant", "name": "Las Tablas Colombian Steakhouse", "phone": "+1-773-871-2414", "website": "http://www.lastablas.com/"}}, {"type": "node", "id": 7182570708, "lat": 41.9325338, "lon": -87.6789663, "tags": {"addr:city": "Chicago", "addr:housenumber": "2000", "addr:postcode": "60614", "addr:state": "IL", "addr:street": "West Diversey Parkway", "amenity": "cafe", "name": "Hexe Coffee Co.", "website": "https://www.hexecoffee.com"}}, {"type": "node", "id": 7222776080, "lat": 41.94332, "lon": -87.6816617, "tags": {"addr:city": "Chicago", "addr:housenumber": "2116", "addr:postcode": "60618", "addr:state": "IL", "addr:street": "West Roscoe Street", "amenity": "restaurant", "cuisine": "latin_american", "name": "Altiro Latin Fusion", "phone": "+1 (773) 935-4000", "website": "https://www.altirolatinfusion.com/locations/roscoevillage"}}, {"type": "node", "id": 7237325570, "lat": 41.9435413, "lon": -87.6641016, "tags": {"amenity": "cafe", "brand": "Starbucks", "brand:wikidata": "Q37158", "brand:wikipedia": "en:Starbucks", "cuisine": "coffee_shop", "name": "Starbucks", "official_name": "Starbucks Coffee", "takeaway": "yes"}}, {"type": "node", "id": 7237325571, "lat": 41.9432141, "lon": -87.6689925, "tags": {"amenity": "restaurant", "name": "McGuigan\u2019s"}}, {"type": "way", "id": 209882061, "nodes": [2200391982, 2200392508, 2200392514, 2200392513, 2200391989, 2200391984, 2200391982], "tags": {"addr:city": "Chicago", "addr:housenumber": "1957", "addr:street": "West Belmont Avenue", "addr:street:name": "Belmont", "addr:street:prefix": "West", "addr:street:type": "Avenue", "amenity": "restaurant", "building": "yes", "building:levels": "3", "chicago:building_id": "211256", "cuisine": "mexican", "name": "Tony's Burrito Mex"}}, {"type": "way", "id": 209884980, "nodes": [2200366030, 2200366395, 2200366402, 2200366044, 2200366030], "tags": {"addr:housenumber": "2814", "addr:street": "North Southport Avenue", "addr:street:name": "Southport", "addr:street:prefix": "North", "addr:street:type": "Avenue", "amenity": "restaurant", "building": "yes", "building:levels": "2", "chicago:building_id": "238031", "cuisine": "mexican", "name": "Que Rico"}}, {"type": "way", "id": 209885154, "nodes": [2200369775, 2200370017, 2200370036, 2200369846, 2200369850, 2200369788, 2200369775], "tags": {"addr:housenumber": "2901", "addr:street": "North Ashland Avenue", "addr:street:name": "Ashland", "addr:street:prefix": "North", "addr:street:type": "Avenue", "amenity": "restaurant", "building": "yes", "building:levels": "1", "chicago:building_id": "232184", "cuisine": "latin", "name": "Flo", "opening_hours": "Tu-Fr 17:00-22:00; Sa 09:00-23:00; Su 09:00-15:00; PH off", "outdoor_seating": "no", "smoking": "no"}}, {"type": "way", "id": 209885452, "nodes": [2200375176, 2200375272, 2200375475, 2200375703, 2200375720, 2200375269, 2200375268, 2200375257, 2200375246, 2200375224, 2200375192, 2200375169, 2200375151, 2200375152, 2200375170, 2200375165, 2200375143, 2200375144, 2200375167, 2200375154, 2200375179, 2200375176], "tags": {"addr:housenumber": "3000-3004", "addr:street": "North Lincoln Avenue", "addr:street:name": "Lincoln", "addr:street:prefix": "North", "addr:street:type": "Avenue", "amenity": "restaurant", "building": "yes", "building:levels": "3", "chicago:building_id": "853921", "cuisine": "american", "level": "0", "name": "S&G Restaurant"}}, {"type": "way", "id": 209885453, "nodes": [2200375034, 2200375035, 2200375056, 2200375051, 2200375183, 2200375200, 2200375058, 2200375055, 2200375034], "tags": {"addr:city": "Chicago", "addr:housenumber": "3001", "addr:postcode": "60657", "addr:state": "IL", "addr:street": "North Ashland Avenue", "addr:street:name": "Ashland", "addr:street:prefix": "North", "addr:street:type": "Avenue", "amenity": "restaurant", "building": "yes", "building:levels": "2", "chicago:building_id": "224618", "name": "Breakfast House", "phone": "+1-773-666-5522", "website": "http://www.breakfast-house.com/index.html"}}, {"type": "way", "id": 209885467, "nodes": [2200375720, 2200375703, 2200375475, 2200375272, 2200375176, 2200375147, 2200375315, 2200376304, 2200375720], "tags": {"addr:housenumber": "3008-3012", "addr:street": "North Lincoln Avenue", "addr:street:name": "Lincoln", "addr:street:prefix": "North", "addr:street:type": "Avenue", "amenity": "restaurant", "building": "yes", "building:levels": "2", "chicago:building_id": "882783"}}, {"type": "way", "id": 209885839, "nodes": [2200391526, 2200391693, 2200391751, 2200391864, 2200391880, 2200392234, 2200392245, 2200392290, 2200392341, 2200392339, 2200392308, 2200392311, 2200392173, 2200392174, 2200392021, 2200392020, 2200391950, 2200391936, 2200391887, 2200391876, 2200391530, 2200391526], "tags": {"addr:housenumber": "3155-3159", "addr:street": "North Leavitt Street", "addr:street:name": "Leavitt", "addr:street:prefix": "North", "addr:street:type": "Street", "amenity": "cafe", "brand": "Starbucks", "brand:wikidata": "Q37158", "brand:wikipedia": "en:Starbucks", "building": "yes", "building:levels": "2", "chicago:building_id": "211602", "cuisine": "coffee_shop", "name": "Starbucks", "official_name": "Starbucks Coffee", "takeaway": "yes"}}, {"type": "way", "id": 209895909, "nodes": [2200517049, 2200517417, 2200518044, 2200517588, 2200517060, 2200517049], "tags": {"addr:housenumber": "3244", "addr:street": "North Lincoln Avenue", "addr:street:name": "Lincoln", "addr:street:prefix": "North", "addr:street:type": "Avenue", "amenity": "bar", "building": "yes", "chicago:building_id": "204563", "name": "Northdown Taproom"}}, {"type": "way", "id": 209896758, "nodes": [2200532931, 2200536507, 2200536534, 2200533571, 2200532931], "tags": {"addr:housenumber": "3344-3352", "addr:street": "North Lincoln Avenue", "addr:street:name": "Lincoln", "addr:street:prefix": "North", "addr:street:type": "Avenue", "amenity": "cafe", "brand": "Starbucks", "brand:wikidata": "Q37158", "brand:wikipedia": "en:Starbucks", "building": "yes", "building:levels": "3", "chicago:building_id": "195770", "cuisine": "coffee_shop", "name": "Starbucks", "official_name": "Starbucks Coffee", "takeaway": "yes"}}, {"type": "way", "id": 209896761, "nodes": [2200533849, 2200536565, 2200537423, 2200538922, 2200537391, 2200536114, 2200533849], "tags": {"addr:housenumber": "3345-3349", "addr:street": "North Lincoln Avenue", "addr:street:name": "Lincoln", "addr:street:prefix": "North", "addr:street:type": "Avenue", "amenity": "bar", "building": "yes", "building:levels": "2", "chicago:building_id": "195128"}}]}