{"version": 0.6, "generator": "Overpass API 0.7.56.3 eb200aeb", "osm3s": {"timestamp_osm_base": "2020-07-03T23:45:02Z", "copyright": "The data included in this document is from www.openstreetmap.org. The data is made available under ODbL."}, "elements": [{"type": "node", "id": 479652780, "lat": 41.8846406, "lon": -87.6476069, "tags": {"addr:city": "Chicago", "addr:housenumber": "800", "addr:postcode": "60607", "addr:state": "IL", "addr:street": "West Randolph Street", "amenity": "restaurant", "cuisine": "upscale_\"diner\";burger;american", "name": "Au Cheval", "opening_hours": "Mo-Sa 10:00-01:00; Su 09:00-00:00", "phone": "1-312-929-4580", "website": "http://auchevalchicago.com/"}}, {"type": "node", "id": 479652785, "lat": 41.8829421, "lon": -87.6502947, "tags": {"addr:city": "Chicago", "addr:housenumber": "913", "addr:postcode": "60607", "addr:state": "IL", "addr:street": "West Washington Street", "amenity": "restaurant", "cuisine": "japanese", "name": "Sushi Pink", "opening_hours": "Mo-Th 11:00-15:00; Mo-Th 16:00-21:45; Fr-Sa 11:30-21:45; Su 16:30-21:30", "phone": "+1-312-226-1666", "website": "sushipinkchicago.com"}}, {"type": "node", "id": 1080820913, "lat": 41.8815234, "lon": -87.6541666, "tags": {"addr:city": "Chicago", "addr:housenumber": "1061", "addr:postcode": "60607", "addr:state": "IL", "addr:street": "West Madison Street", "amenity": "pub", "name": "The Beer Bistro", "opening_hours": "Su-Fr 11:00-02:00; Sa 11:00-03:00", "phone": "+1-312-433-0013", "website": "http://www.thebeerbistro.com/"}}, {"type": "node", "id": 1686470577, "lat": 41.8794375, "lon": -87.6489426}, {"type": "node", "id": 1686470592, "lat": 41.8794468, "lon": -87.6485953}, {"type": "node", "id": 1686470595, "lat": 41.8795636, "lon": -87.6486009}, {"type": "node", "id": 1686470603, "lat": 41.8795543, "lon": -87.6489483}, {"type": "node", "id": 2203566979, "lat": 41.8827912, "lon": -87.6523111, "tags": {"addr:city": "Chicago", "addr:housenumber": "1001", "addr:postcode": "60607", "addr:state": "IL", "addr:street": "West Washington Boulevard", "amenity": "restaurant", "cuisine": "southern;cajun", "name": "Wishbone Restaurant", "opening_hours": "Mo-Th 06:00-21:00; Fr 06:00-22:00; Sa 08:00-15:00; Sa 17:00-22:00; Su 08:00-15:00", "phone": "+1-312-850-2663", "website": "https://www.wishbonechicago.com/"}}, {"type": "node", "id": 2203572596, "lat": 41.8785717, "lon": -87.6478399}, {"type": "node", "id": 2203572598, "lat": 41.8785808, "lon": -87.647396}, {"type": "node", "id": 2203572653, "lat": 41.8788373, "lon": -87.6474055}, {"type": "node", "id": 2203572674, "lat": 41.8787221, "lon": -87.6477496}, {"type": "node", "id": 2203572685, "lat": 41.878748, "lon": -87.6478464}, {"type": "node", "id": 2203572687, "lat": 41.87875, "lon": -87.6477506}, {"type": "node", "id": 2203572712, "lat": 41.8787255, "lon": -87.6475866}, {"type": "node", "id": 2203572713, "lat": 41.8788335, "lon": -87.6475906}, {"type": "node", "id": 2203572828, "lat": 41.8793034, "lon": -87.6478112}, {"type": "node", "id": 2203572832, "lat": 41.8793084, "lon": -87.6474}, {"type": "node", "id": 2203572838, "lat": 41.879337, "lon": -87.647812}, {"type": "node", "id": 2203572839, "lat": 41.8793368, "lon": -87.6478269}, {"type": "node", "id": 2203572846, "lat": 41.8793717, "lon": -87.6478277}, {"type": "node", "id": 2203572848, "lat": 41.8793718, "lon": -87.6478115}, {"type": "node", "id": 2203572849, "lat": 41.8794168, "lon": -87.6478125}, {"type": "node", "id": 2203572851, "lat": 41.8794218, "lon": -87.6474025}, {"type": "node", "id": 2203572860, "lat": 41.8794498, "lon": -87.6478159}, {"type": "node", "id": 2203572861, "lat": 41.87945, "lon": -87.6478416}, {"type": "node", "id": 2203572880, "lat": 41.8795652, "lon": -87.6478477}, {"type": "node", "id": 2203572882, "lat": 41.8795666, "lon": -87.6478367}, {"type": "node", "id": 2203572885, "lat": 41.8795681, "lon": -87.6474107}, {"type": "node", "id": 2203578545, "lat": 41.8869125, "lon": -87.6461716}, {"type": "node", "id": 2203578549, "lat": 41.8869154, "lon": -87.6459586}, {"type": "node", "id": 2203578554, "lat": 41.886925, "lon": -87.6459585}, {"type": "node", "id": 2203578777, "lat": 41.8872872, "lon": -87.6459601}, {"type": "node", "id": 2203578844, "lat": 41.8873764, "lon": -87.6461832}, {"type": "node", "id": 2203578846, "lat": 41.8873792, "lon": -87.6459665}, {"type": "node", "id": 2203666226, "lat": 41.8789853, "lon": -87.6475092, "tags": {"addr:city": "Chicago", "addr:housenumber": "200", "addr:postcode": "60661", "addr:state": "IL", "addr:street": "South Halsted Street", "amenity": "restaurant", "cuisine": "greek", "name": "Greek Islands Restaurant", "opening_hours": "Su-Th 11:00-23:00; Fr-Sa 11:00-01:00", "outdoor_seating": "yes", "phone": "+1-312-782-9855", "website": "https://greekislands.net/", "wheelchair": "yes", "wikidata": "Q5601794"}}, {"type": "node", "id": 2277981385, "lat": 41.8857777, "lon": -87.6476055}, {"type": "node", "id": 2277981386, "lat": 41.8857785, "lon": -87.6477464}, {"type": "node", "id": 2277981390, "lat": 41.8860364, "lon": -87.647603}, {"type": "node", "id": 2277981391, "lat": 41.8860371, "lon": -87.6477439}, {"type": "node", "id": 2357293589, "lat": 41.8846322, "lon": -87.6484701, "tags": {"addr:city": "Chicago", "addr:housenumber": "820", "addr:postcode": "60607", "addr:state": "IL", "addr:street": "West Randolph Street", "amenity": "restaurant", "cuisine": "american", "name": "Little Goat Diner", "opening_hours": "Mo-Th 07:00-22:00; Fr-Sa 07:00-00:00; Su 07:00-22:00", "phone": "+1-312-888-3455", "website": "https://littlegoatchicago.com/"}}, {"type": "node", "id": 3367138857, "lat": 41.8861273, "lon": -87.6484831}, {"type": "node", "id": 3367138858, "lat": 41.8861312, "lon": -87.648271}, {"type": "node", "id": 3367138859, "lat": 41.8861848, "lon": -87.6483855}, {"type": "node", "id": 3367138860, "lat": 41.8861869, "lon": -87.6482729}, {"type": "node", "id": 3367138861, "lat": 41.8861959, "lon": -87.6484855}, {"type": "node", "id": 3367138862, "lat": 41.8861978, "lon": -87.6483859}, {"type": "node", "id": 3407985511, "lat": 41.8836989, "lon": -87.6488496, "tags": {"addr:city": "Chicago", "addr:housenumber": "112", "addr:postcode": "60607", "addr:state": "IL", "addr:street": "North Green Street", "amenity": "restaurant", "cuisine": "japanese;ramen", "name": "High Five Ramen", "opening_hours": "Su-Mo 17:00-23:00; Tu-We 17:00-00:00; Th-Sa 17:00-01:00", "phone": "+1-312-754-0431", "website": "http://highfiveramen.com/"}}, {"type": "node", "id": 3407985512, "lat": 41.8836999, "lon": -87.6489623, "tags": {"addr:city": "Chicago", "addr:housenumber": "112", "addr:postcode": "60607", "addr:state": "IL", "addr:street": "North Green Street", "amenity": "restaurant", "cuisine": "american;barbecue;bbq;barbeque", "name": "Green Street Smoked Meats", "opening_hours": "Su-Mo 11:00-23:00; Tu-We 11:00-00:00; Th-Sa 11:00-01:00", "phone": "+1-312-754-0431", "website": "http://greenstreetmeats.com/"}}, {"type": "node", "id": 3445953661, "lat": 41.8836201, "lon": -87.6483845, "tags": {"addr:city": "Chicago", "addr:housenumber": "113-125", "addr:postcode": "60661", "addr:state": "IL", "addr:street": "North Green Street", "amenity": "restaurant", "cuisine": "american", "name": "Chicken & Farm Shop", "opening_hours": "Mo-Fr 11:30-23:00; Sa 10:00-23:00; Su 10:00-21:00", "phone": "+1-312-521-8000", "website": "http://www.chickenshop.com/en/chicago"}}, {"type": "node", "id": 3575173111, "lat": 41.8865946, "lon": -87.6520069, "tags": {"addr:city": "Chicago", "addr:housenumber": "953", "addr:postcode": "60607", "addr:state": "IL", "addr:street": "West Fulton Market", "amenity": "restaurant", "cuisine": "fine_dining", "name": "Next", "phone": "+1-312-226-0858", "website": "https://www.nextrestaurant.com/", "wikidata": "Q7020950", "wikipedia": "en:Next (restaurant)"}}, {"type": "node", "id": 4076939309, "lat": 41.8866569, "lon": -87.6488989, "tags": {"addr:city": "Chicago", "addr:housenumber": "837", "addr:postcode": "60607", "addr:state": "IL", "addr:street": "West Fulton Market", "amenity": "restaurant", "cuisine": "seafood;pork", "name": "The Publican", "opening_hours": "Mo-Th 15:30-21:30; Fr-Sa 15:30-22:30; Su 17:00-21:30", "phone": "+1-312-733-9555", "website": "thepublicanrestaurant.com"}}, {"type": "node", "id": 4076939313, "lat": 41.8841155, "lon": -87.6517618, "tags": {"addr:city": "Chicago", "addr:housenumber": "953", "addr:postcode": "60607", "addr:state": "IL", "addr:street": "West Randolph Street", "amenity": "restaurant", "cuisine": "portuguese;latin_american", "name": "Nando's Peri-Peri", "opening_hours": "Su-Th 11:00-22:00; Fr-Sa 11:00-23:00", "phone": "+1-312-488-3062", "website": "https://www.nandosperiperi.com/"}}, {"type": "node", "id": 4076939315, "lat": 41.8841204, "lon": -87.651497, "tags": {"addr:city": "Chicago", "addr:housenumber": "941", "addr:postcode": "60607", "addr:state": "IL", "addr:street": "West Randolph Street", "amenity": "restaurant", "cuisine": "american;barbecue;bbq;barbeque", "name": "Porkchop", "opening_hours": "Mo-Tu 11:30-23:00; We-Sa 11:30-01:00; Su 10:30-23:00", "phone": "+1-312-733-9333", "website": "http://www.chicagoporkchop.com/"}}, {"type": "node", "id": 4076939317, "lat": 41.8846219, "lon": -87.6492059, "tags": {"addr:city": "Chicago", "addr:housenumber": "844", "addr:postcode": "60607", "addr:state": "IL", "addr:street": "West Randolph Street", "amenity": "restaurant", "cuisine": "burger;american", "name": "Grange Hall Burger Bar", "opening_hours": "Tu-th 17:00-22:00; Fr 11:30-23:00; Sa 09:00-23:00; Su 09:00-16:00", "phone": "+1-312-491-0844", "website": "http://grangehallburgerbar.com"}}, {"type": "node", "id": 4076939318, "lat": 41.8841463, "lon": -87.6487698, "tags": {"addr:city": "Chicago", "addr:housenumber": "833", "addr:postcode": "60607", "addr:state": "IL", "addr:street": "West Randolph Street", "amenity": "restaurant", "cuisine": "european;small_plates", "name": "Nellc\u00f4te", "opening_hours": "Mo-Th 17:00-22:00; Fr 17:00-00:00; Sa 11:00-00:00; Su 11:00-22:00", "phone": "+1-312-432-0500", "website": "http://nellcoterestaurant.com"}}, {"type": "node", "id": 4076939321, "lat": 41.8841711, "lon": -87.6480454, "tags": {"addr:city": "Chicago", "addr:housenumber": "809", "addr:postcode": "60607", "addr:state": "IL", "addr:street": "West Randolph Street", "amenity": "restaurant", "cuisine": "small_plates", "name": "Girl & The Goat", "opening_hours": "Su-Th 16:30-23:00; Fr-Sa 16:30-00:00", "phone": "+1-312-492-6262", "website": "https://girlandthegoat.com/"}}, {"type": "node", "id": 4457007838, "lat": 41.8846234, "lon": -87.6488209, "tags": {"addr:city": "Chicago", "addr:country": "US", "addr:housenumber": "832", "addr:postcode": "60607", "addr:state": "IL", "addr:street": "West Randolph Street", "amenity": "restaurant", "name": "Bar Siena", "opening_hours": "Tu-Fr 11:30-02:00; Sa 09:00-03:00; Su 09:00-02:00; Mo 11:30-02:00", "phone": "+1-312-492-7775", "website": "http://barsiena.com"}}, {"type": "node", "id": 4565654594, "lat": 41.8837848, "lon": -87.6484457, "tags": {"addr:city": "Chicago", "addr:housenumber": "113-125", "addr:postcode": "60661", "addr:state": "IL", "addr:street": "North Green Street", "amenity": "restaurant", "name": "The Allis", "opening_hours": "Mo-Th 07:00-01:00; Fr-Sa 07:00-02:00; Su 08:00-23:00", "phone": "+1-312-521-8000", "website": "http://www.theallis.com/"}}, {"type": "node", "id": 4708759698, "lat": 41.8841197, "lon": -87.6516078, "tags": {"addr:city": "Chicago", "addr:housenumber": "945", "addr:postcode": "60607", "addr:state": "IL", "addr:street": "West Randolph Street", "amenity": "restaurant", "cuisine": "american;burger", "name": "Umami Burger", "opening_hours": "Su-Th 11:30-23:00; Fr-Sa 11:30-00:00", "phone": "+1-312-226-9919", "website": "https://www.umamiburger.com/locations/west-loop/"}}, {"type": "node", "id": 4726220389, "lat": 41.8858519, "lon": -87.648447, "tags": {"addr:city": "Chicago", "addr:housenumber": "820", "addr:postcode": "60607", "addr:state": "IL", "addr:street": "West Lake Street", "amenity": "restaurant", "cuisine": "japanese;sushi", "name": "The Izakaya at Momotaro", "opening_hours": "Su 16:30-22:30; Mo-Th 17:00-22:30; Fr 16:30-23:00; Sa 16:30-00:00", "phone": "+1-312-733-4818", "website": "http://momotarochicago.com"}}, {"type": "node", "id": 4731260221, "lat": 41.8869199, "lon": -87.652526, "tags": {"addr:city": "Chicago", "addr:housenumber": "1000", "addr:postcode": "60607", "addr:state": "IL", "addr:street": "West Fulton Market", "amenity": "restaurant", "cuisine": "seafood;sandwiches", "name": "Cold Storage", "name:en": "Cold Storage", "opening_hours": "Mo-Th 11:00-23:00; Sa 16:30-00:00; Su 16:30-22:30", "phone": "+1-312-638-6280", "website": "https://www.coldstoragechicago.com/"}}, {"type": "node", "id": 4934342974, "lat": 41.881958, "lon": -87.6530228, "tags": {"addr:city": "Chicago", "addr:housenumber": "1020", "addr:postcode": "60607", "addr:state": "IL", "addr:street": "W. Madison St.", "amenity": "restaurant", "cuisine": "italian", "name": "Monteverde Restaurant & Pastificio", "opening_hours": "Tu-Fr 17:00-22:30; Sa 11:30-22:30; Su 11:30-21:00", "phone": "+1-312-888-3041", "website": "http://monteverdechicago.com/"}}, {"type": "node", "id": 5141715525, "lat": 41.884627, "lon": -87.6479979, "tags": {"addr:housenumber": "802", "addr:street": "West Randolph Street", "amenity": "restaurant", "name": "Bad Hunter"}}, {"type": "node", "id": 5168249921, "lat": 41.884148, "lon": -87.6493685, "tags": {"addr:city": "Chicago", "addr:housenumber": "847", "addr:postcode": "60607", "addr:state": "IL", "addr:street": "West Randolph Street", "amenity": "restaurant", "cuisine": "indian", "description": "Bib Gourmand recommendation", "name": "Jaipur", "opening_hours": "Mo-Su 11:00-14:30, 17:00-20:45", "phone": "+1-312-526-3655", "website": "http://jaipurindiancuisinechicago.com/"}}, {"type": "node", "id": 5249789676, "lat": 41.8848398, "lon": -87.6507983, "tags": {"addr:city": "Chicago", "addr:housenumber": "161", "addr:postcode": "60607", "addr:state": "IL", "addr:street": "North Sangamon Street", "amenity": "restaurant", "cuisine": "roman;italian", "name": "Bonci Pizzeria", "opening_hours": "Mo-Th 11:00-22:00; Fr-Sa 11:00-23:00; Su 11:00-21:00", "phone": "+1-312-243-4016", "website": "https://bonciusa.com/"}}, {"type": "node", "id": 5249818041, "lat": 41.8834327, "lon": -87.6487445, "tags": {"addr:city": "Chicago", "addr:country": "US", "addr:housenumber": "108", "addr:postcode": "60067", "addr:state": "IL", "addr:street": "North Green Street", "amenity": "restaurant", "cuisine": "pizza;american", "name": "Parlor Pizza Bar - West Loop", "opening_hours": "Su-Th 11:30-01:00; Fr 11:30-02:00; Sa 10:30-02:00", "phone": "+1-312-600-6090", "website": "http://parlorchicago.com"}}, {"type": "node", "id": 5441371907, "lat": 41.8872097, "lon": -87.650725, "tags": {"addr:city": "Chicago", "addr:housenumber": "311", "addr:postcode": "60607", "addr:state": "IL", "addr:street": "North Sangamon Street", "amenity": "restaurant", "cuisine": "american;drinks", "name": "Fulton Market Kitchen", "opening_hours": "Tu-Fr 17:00-02:00; Sa 17:00-03:00", "phone": "+1-312-733-6900", "website": "https://www.fultonmarketkitchen.com/"}}, {"type": "node", "id": 5441373072, "lat": 41.8866336, "lon": -87.6494008, "tags": {"addr:city": "Chicago", "addr:housenumber": "847", "addr:postcode": "60607", "addr:state": "IL", "addr:street": "West Fulton Market", "amenity": "restaurant", "cuisine": "southern;chicken;fried_chicken", "name": "Gus's World Famous Fried Chicken", "opening_hours": "Mo-Th 11:00-22:00; Fr-Sa 11:00-23:00; Su 11:00-21:00", "phone": "+1-312-733-1971", "website": "http://gusfriedchicken.com/"}}, {"type": "node", "id": 5441374473, "lat": 41.8866376, "lon": -87.6496341, "tags": {"addr:city": "Chicago", "addr:housenumber": "857", "addr:postcode": "60607", "addr:state": "IL", "addr:street": "West Fulton Market", "amenity": "restaurant", "cuisine": "chinese", "name": "Duck Duck Goat", "opening_hours": "Su-Th 16:30-22:30; Fr-Sa 16:30-23:30; Sa-Su 11:00-16:00", "phone": "+1-312-902-3825", "website": "duckduckgoatchicago.com"}}, {"type": "node", "id": 5441377149, "lat": 41.886605, "lon": -87.6518793, "tags": {"addr:city": "Chicago", "addr:housenumber": "951", "addr:postcode": "60607", "addr:state": "IL", "addr:street": "West Fulton Market", "amenity": "restaurant", "cuisine": "american", "name": "Roister Restaurant", "opening_hours": "Mo-Th 17:00-21:00; Fr-Su 10:00-14:00; Fr-Su 17:00-22:00", "website": "http://roisterrestaurant.com"}}, {"type": "node", "id": 5441383176, "lat": 41.8869381, "lon": -87.6488617, "tags": {"addr:city": "Chicago", "addr:housenumber": "834", "addr:postcode": "60607", "addr:state": "IL", "addr:street": "West Fulton Market", "amenity": "restaurant", "cuisine": "american;drinks", "name": "Beatrix Fulton Market", "opening_hours": "Mo-Fr 07:00-22:00; Sa 08:00-23:00; Su 08:00-21:00", "phone": "+1-312-733-0370", "website": "http://beatrixrestaurants.com"}}, {"type": "node", "id": 5441383743, "lat": 41.8869605, "lon": -87.6496187, "tags": {"addr:city": "Chicago", "addr:housenumber": "852", "addr:postcode": "60607", "addr:state": "IL", "addr:street": "West Fulton Market", "amenity": "restaurant", "cuisine": "burger", "name": "Kuma's Corner - West Loop", "opening_hours": "Su-Th 11:15-23:00; Fr-Sa 11:15-00:00", "phone": "+1-312-666-9090", "website": "https://kumascorner.com/"}}, {"type": "node", "id": 5441385374, "lat": 41.8866515, "lon": -87.6484218, "tags": {"addr:city": "Chicago", "addr:housenumber": "819", "addr:postcode": "60607", "addr:state": "IL", "addr:street": "West Fulton Market", "amenity": "restaurant", "cuisine": "ramen;noodle", "name": "Omakase Takeya", "opening_hours": "Tu-Su 11:30-14:30; We-Th 17:00-22:30; Fr-Sa 17:00-23:00; Su 17:00-21:30", "phone": "+1-312-666-7710", "website": "http://ramentakeya.com"}}, {"type": "node", "id": 5441388896, "lat": 41.8875203, "lon": -87.6519922, "tags": {"addr:city": "Chicago", "addr:housenumber": "311", "addr:postcode": "60607", "addr:state": "IL", "addr:street": "North Morgan Street", "amenity": "restaurant", "cuisine": "american;drinks", "name": "City Mouse Chicago", "opening_hours": "Mo-Su 07:00-23:00", "phone": "+1-312-764-1908", "website": "https://www.citymousechicago.com/"}}, {"type": "node", "id": 5441403136, "lat": 41.8871969, "lon": -87.6524263, "tags": {"addr:city": "Chicago", "addr:housenumber": "1000", "addr:postcode": "60607", "addr:state": "IL", "addr:street": "West Fulton Market", "amenity": "restaurant", "cuisine": "steak;seafood", "name": "Swift & Sons", "opening_hours": "Mo-Th 16:30-23:00; Fr-Sa 16:30-00:00; Su 16:30-22:30", "phone": "+1-312-733-9420", "website": "https://www.swiftandsonschicago.com/"}}, {"type": "node", "id": 5448875263, "lat": 41.8786737, "lon": -87.6474148, "tags": {"addr:city": "Chicago", "addr:housenumber": "212", "addr:postcode": "60661", "addr:state": "IL", "addr:street": "South Halsted Street", "amenity": "restaurant", "cuisine": "greek", "name": "Athena Greek Restaurant", "opening_hours": "Su-Th 11:00-23:00; Fr-Sa 11:00-00:00", "phone": "+1-312-655-0000", "website": "athenarestaurantchicago.com", "wheelchair": "yes"}}, {"type": "node", "id": 5448884424, "lat": 41.8793267, "lon": -87.6476079, "tags": {"addr:city": "Chicago", "addr:housenumber": "800", "addr:postcode": "60661", "addr:state": "IL", "addr:street": "West Adams Street", "amenity": "restaurant", "cuisine": "Greek;seafood", "name": "Santorini", "opening_hours": "Su-Th 11:00-22:00; Fr-Sa 11:00-00:00", "phone": "+1-312-829-8820", "website": "santorinichicago.com"}}, {"type": "node", "id": 5448894821, "lat": 41.8845857, "lon": -87.6542009, "tags": {"addr:city": "Chicago", "addr:housenumber": "1048", "addr:postcode": "60607", "addr:state": "IL", "addr:street": "West Randolph Street", "amenity": "restaurant", "cuisine": "pizza;italian", "email": "Fornorossochicago@gmail.com", "name": "Forno Rosso Pizzeria Napoletana", "opening_hours": "Su-Th 11:00-22:00; Fr-Sa 11:00-00:00", "phone": "+1-773-716-3000", "website": "http://www.fornorossopizzeria.com/"}}, {"type": "node", "id": 5460377110, "lat": 41.8847628, "lon": -87.6472909, "tags": {"addr:city": "Chicago", "addr:housenumber": "738", "addr:postcode": "60661", "addr:state": "IL", "addr:street": "West Randolph Street", "amenity": "restaurant", "name": "Ronero", "phone": "+1-312-600-6105", "website": "https://www.ronerochicago.com/"}}, {"type": "node", "id": 5460380983, "lat": 41.8847049, "lon": -87.646666, "tags": {"addr:city": "Chicago", "addr:housenumber": "720", "addr:postcode": "60661", "addr:state": "IL", "addr:street": "West Randolph Street", "amenity": "restaurant", "cuisine": "japanese;sushi;asian", "name": "Tanoshii", "opening_hours": "Mo-Fr 11:30-14:30; Su-Th 16:30-22:00; Fr-Sa 16:30-23:00", "phone": "+1-312-207-8894", "website": "http://tanoshiisushi.com/"}}, {"type": "node", "id": 5460389674, "lat": 41.8841852, "lon": -87.6477165, "tags": {"amenity": "restaurant", "cuisine": "mediterranean;tapas", "name": "Nia Mediterranean Tapas", "opening_hours": "Su-Th 16:30-22:00; Fr-Sa 16:30-23:00", "phone": "+1-312-226-3110", "website": "https://www.niarestaurant.com/"}}, {"type": "node", "id": 5460391091, "lat": 41.8848667, "lon": -87.6477496, "tags": {"addr:city": "Chicago", "addr:housenumber": "160", "addr:postcode": "60661", "addr:state": "IL", "addr:street": "North Halsted Street", "amenity": "restaurant", "cuisine": "american;breakfast;sandwich;burger", "name": "Johnnies Snack Shop", "opening_hours": "Mo-Sa 06:00-15:00; Su 07:00-14:00", "phone": "+1-312-226-7769", "website": "http://johnniessnackshop.com/"}}, {"type": "node", "id": 5460409431, "lat": 41.884171, "lon": -87.6484133, "tags": {"addr:city": "Chicago", "addr:housenumber": "823", "addr:postcode": "60607", "addr:state": "IL", "addr:street": "West Randolph Street", "amenity": "restaurant", "cuisine": "japanese;sushi;asian", "name": "sushiDOKKU", "opening_hours": "Tu-Th 12:00-22:00; Fr 12:00-23:00; Sa 17:00-23:00", "phone": "+1-312-455-8238", "website": "http://sushidokku.com/"}}, {"type": "node", "id": 5460533351, "lat": 41.883987, "lon": -87.6487746, "tags": {"addr:city": "Chicago", "addr:housenumber": "841", "addr:postcode": "60661", "addr:state": "IL", "addr:street": "West Randolph Street", "amenity": "restaurant", "cuisine": "american", "name": "Gideon Sweet", "opening_hours": "Tu-Fr 17:00-02:00; Sa 17:00-03:00; Su 17:00-02:00", "phone": "+1-312-888-2258", "website": "https://www.gideonsweet.com/"}}, {"type": "node", "id": 5460537098, "lat": 41.8839985, "lon": -87.6508002, "tags": {"addr:city": "Chicago", "addr:housenumber": "925", "addr:postcode": "60607", "addr:state": "IL", "addr:street": "West Randolph Street", "amenity": "restaurant", "cuisine": "sandwich;sub;italian;pizza", "name": "Nonna's Sandwiches and Sundries", "opening_hours": "Mo-Sa 11:00-22:00; Su 11:00-21:00", "phone": "+1-312-690-7323", "website": "http://www.nonnaschicago.com/"}}, {"type": "node", "id": 5460540248, "lat": 41.8828777, "lon": -87.649295, "tags": {"addr:city": "Chicago", "addr:housenumber": "845", "addr:postcode": "60607", "addr:state": "IL", "addr:street": "West Washington Street", "amenity": "restaurant", "cuisine": "argentinian;american", "name": "El Che Steakhouse & Bar", "opening_hours": "Mo-Th 17:00-22:00; Fr-Sa 17:00-23:00", "phone": "+1-312-265-1130", "website": "https://www.elchebarchicago.com/"}}, {"type": "node", "id": 5460545276, "lat": 41.8841395, "lon": -87.6507162, "tags": {"addr:city": "Chicago", "addr:housenumber": "925", "addr:postcode": "60607", "addr:state": "IL", "addr:street": "West Randolph Street", "amenity": "restaurant", "cuisine": "italian", "name": "Formento's", "opening_hours": "Mo-Th 16:30-22:00; Fr-Sa 16:30-23:00; Su 16:30-21:00", "phone": "+1-312-690-7295", "website": "http://www.formentos.com/"}}, {"type": "node", "id": 5460552331, "lat": 41.8841234, "lon": -87.6514226, "tags": {"addr:city": "Chicago", "addr:housenumber": "939", "addr:postcode": "60607", "addr:state": "IL", "addr:street": "West Randolph Street", "amenity": "restaurant", "cuisine": "american;breakfast", "name": "The Eastman Egg Company", "opening_hours": "Mo-Su 07:00-15:00", "phone": "+1-773-231-8865", "website": "https://www.eastmanegg.com/"}}, {"type": "node", "id": 5460557532, "lat": 41.8834059, "lon": -87.6529414, "tags": {"addr:city": "Chicago", "addr:housenumber": "111", "addr:postcode": "60607", "addr:state": "IL", "addr:street": "North Carpenter Street", "amenity": "restaurant", "cuisine": "french", "name": "La Sardine", "opening_hours": "Mo-Fr 11:30-15:00; Mo-Th 17:00-22:00; Fr-Sa 17:00-23:00", "phone": "+1-312-421-2800", "website": "http://www.lasardine.com/"}}, {"type": "node", "id": 5460565146, "lat": 41.8854339, "lon": -87.6524622, "tags": {"addr:city": "Chicago", "addr:housenumber": "180", "addr:postcode": "60607", "addr:state": "IL", "addr:street": "North Morgan Street", "amenity": "restaurant", "cuisine": "mexican;barbecue;bbq;taco;tacos", "name": "Federales", "opening_hours": "Mo-Th 16:00-02:00; Fr 11:00-02:00; Sa 11:00-03:00; Su 11:00-02:00", "phone": "+1-773-831-9696", "website": "https://federaleschicago.com/"}}, {"type": "node", "id": 5460569481, "lat": 41.8854238, "lon": -87.6526362, "tags": {"addr:city": "Chicago", "addr:housenumber": "1009", "addr:postcode": "60607", "addr:state": "IL", "addr:street": "West Lake Street", "amenity": "restaurant", "cuisine": "sandwich;american", "name": "The Corned Beef Factory Sandwich Shop", "opening_hours": "Mo-Fr 06:00-15:00; Sa 10:00-15:00", "phone": "+1-312-666-2536", "website": "http://cornedbeeffactorychicago.com/"}}, {"type": "node", "id": 5460571170, "lat": 41.8857512, "lon": -87.6519857, "tags": {"addr:city": "Chicago", "addr:housenumber": "201", "addr:postcode": "60607", "addr:state": "IL", "addr:street": "North Morgan Street", "amenity": "restaurant", "cuisine": "latin_american;tapas", "name": "Bar Takito", "opening_hours": "Mo-Tu 11:00-22:00; We-Th 11:00-23:00; Fr-Sa 11:00-01:00; Su 11:00-15:00", "phone": "+1-312-888-9602", "website": "http://bartakito.com/"}}, {"type": "node", "id": 5460586766, "lat": 41.8846081, "lon": -87.6499579, "tags": {"addr:city": "Chicago", "addr:housenumber": "900", "addr:postcode": "60607", "addr:state": "IL", "addr:street": "West Randolph Street", "amenity": "restaurant", "cuisine": "mexican;latin_american", "name": "Le\u00f1a Brava", "opening_hours": "Tu-Th 17:30-22:00; Fr-Sa 17:30-23:00; Su 17:30-21:00", "phone": "+1-312-733-1975", "website": "http://www.rickbayless.com/restaurants/lena-brava/"}}, {"type": "node", "id": 5460599291, "lat": 41.8846013, "lon": -87.6501403, "tags": {"addr:city": "Chicago", "addr:housenumber": "904", "addr:postcode": "60607", "addr:state": "IL", "addr:street": "West Randolph Street", "amenity": "restaurant", "cuisine": "taco;mexican", "name": "Cruz Blanca Brewery & Taquer\u00eda", "opening_hours": "Tu-Th 11:00-22:00; Fr-Sa 11:00-00:00; Su 11:00-21:00", "phone": "+1-312-733-1975", "website": "http://cruzblanca.com"}}, {"type": "node", "id": 5460610021, "lat": 41.8855009, "lon": -87.648244, "tags": {"addr:city": "Chicago", "addr:housenumber": "817", "addr:postcode": "60607", "addr:state": "IL", "addr:street": "West Lake Street", "amenity": "restaurant", "cuisine": "american;fine_dining", "name": "BLVD", "opening_hours": "Su-Mo 17:00-22:00; Tu-Th 17:00-23:00; Fr-Sa 17:00-00:00", "phone": "+1-312-526-3116", "website": "https://blvdchicago.com/"}}, {"type": "node", "id": 5460628921, "lat": 41.8817927, "lon": -87.6560815, "tags": {"addr:city": "Chicago", "addr:housenumber": "1140", "addr:postcode": "60607", "addr:state": "IL", "addr:street": "West Madison Street", "amenity": "restaurant", "cuisine": "american", "name": "MAD Social", "opening_hours": "Mo-Th 17:00-22:00; Fr 17:00-23:00; Sa 10:00-23:00; Su 10:00-16:00", "phone": "+1-312-243-2097", "website": "https://www.madsocialchicago.com/"}}, {"type": "node", "id": 5460629402, "lat": 41.8815052, "lon": -87.6555558, "tags": {"addr:city": "Chicago", "addr:housenumber": "1131", "addr:postcode": "60607", "addr:state": "IL", "addr:street": "West Madison Street", "amenity": "restaurant", "cuisine": "sushi;asian", "name": "Butterfly Sushi", "opening_hours": "Mo-Th 11:00-22:00; Fr 11:00-23:00; Sa 12:00-23:00; Su 12:00-22:00", "phone": "+1-312-997-9988", "website": "http://www.butterflysushi2go.com/"}}, {"type": "node", "id": 5460630690, "lat": 41.8818127, "lon": -87.655309, "tags": {"addr:city": "Chicago", "addr:housenumber": "1120", "addr:postcode": "60607", "addr:state": "IL", "addr:street": "West Madison Street", "amenity": "restaurant", "cuisine": "southern;american", "name": "The CrossRoads Bar & Grill", "opening_hours": "Su-Fr 11:00-02:00; Sa 11:00-03:00", "phone": "+1-312-243-1113", "website": "http://www.thecrossroadschicago.com/"}}, {"type": "node", "id": 5460635417, "lat": 41.8818267, "lon": -87.6565401, "tags": {"addr:city": "Chicago", "addr:housenumber": "1154", "addr:postcode": "60607", "addr:state": "IL", "addr:street": "West Madison Street", "amenity": "restaurant", "cuisine": "american", "name": "The Great American Bagel", "opening_hours": "Mo-Fr 05:30-19:00; Sa 06:00-17:00; Su 06:00-15:00", "phone": "+1-312-763-3970", "website": "https://www.greatamericanbagel.com/"}}, {"type": "node", "id": 5460640424, "lat": 41.8814314, "lon": -87.6533058, "tags": {"addr:city": "Chicago", "addr:housenumber": "1027", "addr:postcode": "60607", "addr:state": "IL", "addr:street": "West Madison Street", "amenity": "restaurant", "cuisine": "american", "name": "The Madison Bar & Kitchen", "opening_hours": "Mo-Th 17:00-22:30; Fr 17:00-00:00; Sa-Su 10:30-14:30; Sa 17:00-00:00; Su 17:00-21:30", "phone": "+1-312-566-4121", "website": "http://www.eatatmadison.com/"}}, {"type": "node", "id": 5460648618, "lat": 41.8866344, "lon": -87.6482299, "tags": {"addr:city": "Chicago", "addr:housenumber": "817", "addr:postcode": "60607", "addr:state": "IL", "addr:street": "West Fulton Market", "amenity": "restaurant", "cuisine": "mexican;sandwich", "name": "Cemitas Puebla", "opening_hours": "Su-Th 11:00-21:00; Fr-Sa 11:00-22:30", "phone": "+1-312-455-9200", "website": "http://www.cemitaspuebla.com/"}}, {"type": "node", "id": 5460651116, "lat": 41.8814441, "lon": -87.6511383, "tags": {"addr:city": "Chicago", "addr:housenumber": "939", "addr:postcode": "60607", "addr:state": "IL", "addr:street": "West Madison Street", "amenity": "restaurant", "cuisine": "italian;tapas", "name": "Ciao! Cafe & Wine Lounge", "opening_hours": "Mo-Th 16:00-21:00; Fr 16:00-01:00; Sa 17:00-01:00", "phone": "+1-312-850-2426", "website": "https://cafeciaochicagowinebar.weebly.com/"}}, {"type": "node", "id": 5460666621, "lat": 41.8872669, "lon": -87.6490322, "tags": {"addr:city": "Chicago", "addr:housenumber": "310", "addr:postcode": "60607", "addr:state": "IL", "addr:street": "North Green Street", "amenity": "restaurant", "name": "Punch Bowl Social Chicago", "phone": "+1-312-809-9551", "website": "https://www.punchbowlsocial.com/"}}, {"type": "node", "id": 5460679519, "lat": 41.8840763, "lon": -87.6499969, "tags": {"addr:city": "Chicago", "addr:housenumber": "901", "addr:postcode": "60607", "addr:state": "IL", "addr:street": "West Randolph Street", "amenity": "restaurant", "cuisine": "italian;sandwich", "name": "J.P. Graziano Grocery", "opening_hours": "Mo-Fr 09:00-17:00; Sa 09:00-16:00", "phone": "+1-312-666-4587", "website": "http://www.jpgraziano.com/"}}, {"type": "node", "id": 5460688022, "lat": 41.8846734, "lon": -87.6472823, "tags": {"addr:city": "Chicago", "addr:housenumber": "740", "addr:postcode": "60661", "addr:state": "IL", "addr:street": "West Randolph Street", "amenity": "restaurant", "cuisine": "mexican", "name": "La Josie", "opening_hours": "Mo-Th 11:00-01:00; Fr-Sa 11:00-02:00; Su 11:00-00:00", "phone": "+1-312-929-2900", "website": "https://www.lajosie.com/"}}, {"type": "node", "id": 5460701279, "lat": 41.8846236, "lon": -87.6489767, "tags": {"addr:city": "Chicago", "addr:housenumber": "838", "addr:postcode": "60607", "addr:state": "IL", "addr:street": "West Randolph Street", "amenity": "restaurant", "cuisine": "american", "name": "Nosh & Booze", "opening_hours": "Tu-Th 16:00-23:00; Fr 12:00-23:00; Sa 10:00-23:00; Su 10:00-17:00", "phone": "+1-312-733-6090", "website": "http://www.noshingaround.com/"}}, {"type": "node", "id": 5460738295, "lat": 41.8832439, "lon": -87.6559345, "tags": {"addr:city": "Chicago, IL", "addr:housenumber": "1134", "addr:postcode": "60607", "addr:street": "West Washington Boulevard", "amenity": "restaurant", "name": "The Press Room", "opening_hours": "Mo 17:00-23:00; Tu-Sa 17:00-01:00", "phone": "+1-331-240-1914", "website": "https://www.pressroomchicago.com/"}}, {"type": "node", "id": 5460763042, "lat": 41.8875396, "lon": -87.6518407, "tags": {"addr:city": "Chicago", "addr:housenumber": "311", "addr:postcode": "60607", "addr:state": "IL", "addr:street": "North Morgan Street", "amenity": "restaurant", "cuisine": "american", "name": "Waydown", "opening_hours": "Su-Fr 16:00-02:00; Sa 16:00-03:00", "outdoor_seating": "no", "phone": "+1-312-764-1919", "website": "https://www.acehotel.com/"}}, {"type": "node", "id": 5460836745, "lat": 41.8850614, "lon": -87.654223, "tags": {"addr:city": "Chicago", "addr:housenumber": "171", "addr:postcode": "60607", "addr:state": "IL", "addr:street": "North Aberdeen Street", "amenity": "restaurant", "cuisine": "american;sandwich", "name": "Capriotti's Sandwich Shop", "opening_hours": "Mo-Th 09:00-20:30; Fr 09:00-22:00; Sa 11:00-22:00; Su 11:00-20:30", "phone": "+1-312-988-0670", "website": "https://www.capriottis.com/"}}, {"type": "node", "id": 5661489621, "lat": 41.8818953, "lon": -87.6547408, "tags": {"addr:housenumber": "1104", "addr:street": "West Madison Street", "amenity": "restaurant", "name": "Chicago Waffles"}}, {"type": "node", "id": 6026364086, "lat": 41.8861711, "lon": -87.6484558, "tags": {"addr:city": "Chicago", "addr:housenumber": "219", "addr:postcode": "60607", "addr:state": "IL", "addr:street": "North Green Street", "amenity": "restaurant", "cuisine": "japanese", "name": "Ramen-San", "phone": "+1-773-645-0085", "website": "https://www.ramensan.com/"}}, {"type": "node", "id": 6256520187, "lat": 41.8869088, "lon": -87.6488326, "tags": {"addr:city": "Chicago", "addr:housenumber": "302", "addr:postcode": "60607", "addr:state": "IL", "addr:street": "North Green Street", "addr:unit": "FL 3", "amenity": "restaurant", "cuisine": "american", "name": "Aba", "phone": "+1-773-645-1400", "website": "http://abarestaurantchicago.com"}}, {"type": "node", "id": 6280526718, "lat": 41.8871143, "lon": -87.6460757, "tags": {"addr:city": "Chicago", "addr:housenumber": "702", "addr:postcode": "60661", "addr:state": "IL", "addr:street": "West Fulton Market", "amenity": "restaurant", "name": "Carnivale", "phone": "+1-312-850-5005", "website": "https://www.carnivalechicago.com/"}}, {"type": "node", "id": 6286444981, "lat": 41.8852921, "lon": -87.6550709, "tags": {"addr:city": "Chicago", "addr:housenumber": "1111", "addr:postcode": "60607", "addr:state": "IL", "addr:street": "West Lake Street", "amenity": "restaurant", "name": "Eleven Eleven", "phone": "+1-312-248-8942", "website": "https://elevenelevenchicago.com/"}}, {"type": "node", "id": 6291640639, "lat": 41.8859157, "lon": -87.6496107, "tags": {"addr:city": "Chicago", "addr:housenumber": "205", "addr:postcode": "60607", "addr:state": "IL", "addr:street": "North Peoria Street", "amenity": "restaurant", "name": "Fulton Market Company", "phone": "+1-312-989-9801", "website": "http://fultonmarketcompany.com/"}}, {"type": "node", "id": 6306592684, "lat": 41.8857581, "lon": -87.6527639, "tags": {"addr:city": "Chicago", "addr:housenumber": "1016", "addr:postcode": "60607", "addr:state": "IL", "addr:street": "West Lake Street", "amenity": "restaurant", "name": "The Corned Beef Factory Sandwich Shop", "phone": "+1-312-666-2536", "website": "http://cornedbeeffactorychicago.com/"}}, {"type": "node", "id": 6315679717, "lat": 41.8865111, "lon": -87.6518726, "tags": {"addr:city": "Chicago", "addr:housenumber": "955", "addr:postcode": "60607", "addr:state": "IL", "addr:street": "West Fulton Market", "amenity": "restaurant", "name": "The Office", "phone": "+1-312-226-0868", "website": "https://www.exploretock.com/theoffice/"}}, {"type": "node", "id": 6321321039, "lat": 41.8813726, "lon": -87.653808, "tags": {"addr:city": "Chicago", "addr:housenumber": "1045", "addr:postcode": "60607", "addr:state": "IL", "addr:street": "West Madison Street", "amenity": "restaurant", "name": "Mad Boiler", "phone": "+1-312-600-9996", "website": "http://www.madboiler.com/"}}, {"type": "node", "id": 6321599274, "lat": 41.8846847, "lon": -87.6491444, "tags": {"addr:city": "Chicago", "addr:housenumber": "840", "addr:postcode": "60607", "addr:state": "IL", "addr:street": "West Randolph Street", "amenity": "restaurant", "name": "Maude\u2019s Liquor Bar", "phone": "+1-312-243-9712", "website": "http://www.maudesliquorbar.com/"}}, {"type": "node", "id": 6322784614, "lat": 41.8859058, "lon": -87.6484698, "tags": {"addr:city": "Chicago", "addr:housenumber": "820", "addr:postcode": "60607", "addr:state": "IL", "addr:street": "West Lake Street", "amenity": "restaurant", "name": "Momotaro", "phone": "+1-312-733-4818", "website": "https://www.momotarochicago.com/"}}, {"type": "node", "id": 6407178684, "lat": 41.8859191, "lon": -87.6488691, "tags": {"addr:city": "Chicago", "addr:housenumber": "200", "addr:postcode": "60607", "addr:state": "IL", "addr:street": "North Green Street", "amenity": "restaurant", "cuisine": "peruvian", "name": "Cabra", "opening_hours": "Su-Th 16:00-23:00; Fr-Sa 16:00-00:00", "phone": "+1-312-761-1717", "website": "https://www.cabrachicago.com"}}, {"type": "node", "id": 6407436054, "lat": 41.8858183, "lon": -87.6488637, "tags": {"addr:city": "Chicago", "addr:housenumber": "200", "addr:postcode": "60607", "addr:state": "IL", "addr:street": "North Green Street", "amenity": "restaurant", "cuisine": "breakfast;small_plates;tapas", "name": "Cira", "opening_hours": "Su-Th 07:00-23:00, Fr-Sa 07:00-00:00", "phone": "+1-312-761-1777", "website": "https://cirachicago.com/"}}, {"type": "node", "id": 6431343085, "lat": 41.8866245, "lon": -87.6497016, "tags": {"addr:city": "Chicago", "addr:housenumber": "857", "addr:postcode": "60607", "addr:state": "IL", "addr:street": "West Fulton Market", "amenity": "restaurant", "cuisine": "snackbar;snack;snacks;taiwanese", "name": "Baobing", "opening_hours": "Mo-Th 17:00-22:00; Fr 16:30-23:00; Sa 11:00-23:00; Su 11:00-22:00", "phone": "+1-312-902-3825", "website": "http://www.baobingchi.com"}}, {"type": "node", "id": 6459394817, "lat": 41.8858371, "lon": -87.6469637, "tags": {"addr:city": "Chicago", "addr:housenumber": "731", "addr:postcode": "60661", "addr:state": "IL", "addr:street": "West Lake Street", "amenity": "restaurant", "cuisine": "sushi;japanese;asian", "name": "Mako", "phone": "+1-312-988-0687", "website": "https://www.makochicago.com"}}, {"type": "node", "id": 6486884117, "lat": 41.8832492, "lon": -87.6541467, "tags": {"addr:city": "Chicago", "addr:housenumber": "111", "addr:postcode": "60607", "addr:state": "IL", "addr:street": "North Aberdeen Street", "amenity": "restaurant", "cuisine": "indian", "name": "Thattu"}}, {"type": "node", "id": 6757767546, "lat": 41.886506, "lon": -87.6554061, "tags": {"addr:city": "Chicago", "addr:housenumber": "115", "addr:postcode": "60607", "addr:state": "IL", "addr:street": "West Fulton Market", "amenity": "restaurant", "cuisine": "regional", "name": "Fulton Galley", "phone": "+1-312-210-0920"}}, {"type": "node", "id": 6757776653, "lat": 41.8865666, "lon": -87.6518679, "tags": {"addr:city": "Chicago", "addr:housenumber": "951", "addr:postcode": "60607", "addr:state": "IL", "addr:street": "West Fulton Market", "amenity": "restaurant", "cuisine": "american", "name": "St. Clair Supper Club", "phone": "+1-312-789-4896", "website": "http://stclairsupperclub.com"}}, {"type": "node", "id": 6757797206, "lat": 41.8846497, "lon": -87.6471365, "tags": {"addr:city": "Chicago", "addr:housenumber": "736", "addr:postcode": "60661", "addr:state": "IL", "addr:street": "West Randolph Street", "amenity": "restaurant", "cuisine": "indian", "name": "ROOH", "phone": "+1-312-267-2323", "website": "https://www.roohchicago.com"}}, {"type": "node", "id": 6997474713, "lat": 41.8869631, "lon": -87.6505461, "tags": {"addr:city": "Chicago", "addr:housenumber": "916", "addr:postcode": "60607", "addr:state": "IL", "addr:street": "West Fulton Market", "amenity": "restaurant", "cuisine": "food_hall;cafeteria", "name": "Time Out Market Chicago", "phone": "+1-312-637-7888", "website": "https://www.timeout.com/chicago/time-out-market"}}, {"type": "node", "id": 7283913812, "lat": 41.8849437, "lon": -87.6508212, "tags": {"addr:housenumber": "163", "addr:street": "North Sangamon", "amenity": "restaurant", "description": "Ramen", "name": "Kinton Ramen", "phone": "312-374-3942", "website": "kintonramen.com"}}, {"type": "way", "id": 156403648, "nodes": [1686470592, 1686470595, 1686470603, 1686470577, 1686470592], "tags": {"addr:city": "Chicago", "addr:housenumber": "130", "addr:postcode": "60607", "addr:state": "IL", "addr:street": "South Green Street", "amenity": "restaurant", "building": "yes", "cuisine": "american", "diet:vegetarian": "only", "name": "Green Street Local", "phone": "+1-312-226-6565", "website": "http://greenstreetlocal.com/"}}, {"type": "way", "id": 210269888, "nodes": [2203572882, 2203572885, 2203572851, 2203572849, 2203572860, 2203572861, 2203572880, 2203572882], "tags": {"addr:housenumber": "130", "addr:street": "South Halsted Street", "addr:street:name": "Halsted", "addr:street:prefix": "South", "addr:street:type": "Street", "amenity": "restaurant", "building": "yes", "building:levels": "1", "chicago:building_id": "814714", "cuisine": "greek", "fixme": "Business is PERMANENTLY closed.", "name": "Pegasus", "opening_hours": "Closed", "outdoor_seating": "no"}}, {"type": "way", "id": 210270038, "nodes": [2203572851, 2203572832, 2203572828, 2203572838, 2203572839, 2203572846, 2203572848, 2203572849, 2203572851], "tags": {"addr:housenumber": "138", "addr:street": "South Halsted Street", "addr:street:name": "Halsted", "addr:street:prefix": "South", "addr:street:type": "Street", "amenity": "restaurant", "building": "yes", "building:levels": "1", "chicago:building_id": "814726", "cuisine": "greek", "name": "Santorini", "outdoor_seating": "yes"}}, {"type": "way", "id": 210270131, "nodes": [2203572713, 2203572653, 2203572598, 2203572596, 2203572685, 2203572687, 2203572674, 2203572712, 2203572713], "tags": {"addr:housenumber": "212", "addr:street": "South Halsted Street", "addr:street:name": "Halsted", "addr:street:prefix": "South", "addr:street:type": "Street", "amenity": "restaurant", "building": "yes", "building:levels": "1", "chicago:building_id": "814765", "cuisine": "greek", "name": "Athena"}}, {"type": "way", "id": 210270539, "nodes": [2203578554, 2203578549, 2203578545, 2203578844, 2203578846, 2203578777, 2203578554], "tags": {"addr:city": "Chicago", "addr:housenumber": "702", "addr:postcode": "60661", "addr:state": "IL", "addr:street": "West Fulton Street", "addr:street:name": "Fulton Market", "addr:street:prefix": "West", "amenity": "restaurant", "building": "yes", "chicago:building_id": "352236", "cuisine": "caribbean;spanish", "name": "Carnivale", "opening_hours": "Mo-Fr 11:30-14:30; Mo-Th 17:00-22:00; Fr-Sa 17:00-23:00; Su 10:30-15:00, 17:00-21:00", "phone": "+1-312-850-5005", "website": "https://www.carnivalechicago.com/"}}, {"type": "way", "id": 218557528, "nodes": [2277981391, 2277981390, 2277981385, 2277981386, 2277981391], "tags": {"addr:city": "Chicago", "addr:housenumber": "204", "addr:postcode": "60661", "addr:state": "IL", "addr:street": "North Halsted Street", "amenity": "pub", "building": "yes", "name": "Paddy O'Fegan's Irish Pub & Restaurant", "opening_hours": "Su-Fr 11:00-02:00; Sa 11:00-03:00", "phone": "+1-312-997-3100", "website": "http://paddyofegans.com/"}}, {"type": "way", "id": 329775434, "nodes": [3367138861, 3367138857, 3367138858, 3367138860, 3367138859, 3367138862, 3367138861], "tags": {"amenity": "restaurant", "building": "yes"}}]}