{"version": 0.6, "generator": "Overpass API 0.7.56.3 eb200aeb", "osm3s": {"timestamp_osm_base": "2020-07-04T01:28:02Z", "copyright": "The data included in this document is from www.openstreetmap.org. The data is made available under ODbL."}, "elements": [{"type": "node", "id": 34877708, "lat": 41.9204448, "lon": -87.694344}, {"type": "node", "id": 34877709, "lat": 41.918438, "lon": -87.6910759}, {"type": "node", "id": 34877711, "lat": 41.9159812, "lon": -87.6870645, "tags": {"name": "Western", "network": "CTA", "operator": "Chicago Transit Authority", "public_transport": "stop_position", "railway": "stop", "subway": "yes"}}, {"type": "node", "id": 34877713, "lat": 41.9117017, "lon": -87.6804428}, {"type": "node", "id": 258282968, "lat": 41.9258971, "lon": -87.7033574}, {"type": "node", "id": 258282969, "lat": 41.9253248, "lon": -87.7024136}, {"type": "node", "id": 258282970, "lat": 41.9242887, "lon": -87.7007116}, {"type": "node", "id": 349255925, "lat": 41.9103567, "lon": -87.6776669, "tags": {"amenity": "cafe", "brand": "Starbucks", "brand:wikidata": "Q37158", "brand:wikipedia": "en:Starbucks", "cuisine": "coffee_shop", "name": "Starbucks", "takeaway": "yes"}}, {"type": "node", "id": 736035799, "lat": 41.9073321, "lon": -87.6737319}, {"type": "node", "id": 736035834, "lat": 41.910777, "lon": -87.6789671}, {"type": "node", "id": 736035835, "lat": 41.9105003, "lon": -87.6785423}, {"type": "node", "id": 736035836, "lat": 41.9103713, "lon": -87.6783655}, {"type": "node", "id": 736035837, "lat": 41.910279, "lon": -87.6782669}, {"type": "node", "id": 736035838, "lat": 41.9101991, "lon": -87.6781624}, {"type": "node", "id": 736035839, "lat": 41.9101331, "lon": -87.6780606}, {"type": "node", "id": 736035840, "lat": 41.9098778, "lon": -87.6776609, "tags": {"name": "Damen", "public_transport": "stop_position", "railway": "stop", "subway": "yes"}}, {"type": "node", "id": 736035841, "lat": 41.9092997, "lon": -87.6767619}, {"type": "node", "id": 736035842, "lat": 41.9077195, "lon": -87.6742936}, {"type": "node", "id": 1282296225, "lat": 41.9080662, "lon": -87.6747824}, {"type": "node", "id": 1282296244, "lat": 41.9216326, "lon": -87.6962535}, {"type": "node", "id": 1282296250, "lat": 41.9162829, "lon": -87.6874563}, {"type": "node", "id": 1282296257, "lat": 41.9126241, "lon": -87.6818499}, {"type": "node", "id": 1282296292, "lat": 41.9221445, "lon": -87.6970834, "tags": {"name": "California", "network": "CTA", "operator": "Chicago Transit Authority", "public_transport": "stop_position", "railway": "stop", "subway": "yes"}}, {"type": "node", "id": 1282296294, "lat": 41.9101887, "lon": -87.6780816}, {"type": "node", "id": 1282296296, "lat": 41.9108408, "lon": -87.6790096}, {"type": "node", "id": 1282296303, "lat": 41.9248197, "lon": -87.7015347}, {"type": "node", "id": 1282296314, "lat": 41.9103498, "lon": -87.6782854}, {"type": "node", "id": 1282296316, "lat": 41.9073615, "lon": -87.6737116}, {"type": "node", "id": 1282296339, "lat": 41.9256878, "lon": -87.702967}, {"type": "node", "id": 1282296350, "lat": 41.9168846, "lon": -87.6884461}, {"type": "node", "id": 1282296353, "lat": 41.9076841, "lon": -87.6741852}, {"type": "node", "id": 1282296364, "lat": 41.9184433, "lon": -87.6910232}, {"type": "node", "id": 1282296369, "lat": 41.9220155, "lon": -87.6969301, "tags": {"name": "California", "network": "CTA", "operator": "Chicago Transit Authority", "public_transport": "stop_position", "railway": "stop", "subway": "yes"}}, {"type": "node", "id": 1282296370, "lat": 41.9104235, "lon": -87.6783703}, {"type": "node", "id": 1282296375, "lat": 41.9175991, "lon": -87.6896231}, {"type": "node", "id": 1282296381, "lat": 41.9206427, "lon": -87.6946254}, {"type": "node", "id": 1282296384, "lat": 41.9131622, "lon": -87.682601}, {"type": "node", "id": 1282296389, "lat": 41.9102919, "lon": -87.6782263}, {"type": "node", "id": 1282296410, "lat": 41.9259235, "lon": -87.7033303}, {"type": "node", "id": 1282296415, "lat": 41.9241411, "lon": -87.7004082}, {"type": "node", "id": 1282296418, "lat": 41.9093677, "lon": -87.6768128}, {"type": "node", "id": 1282296426, "lat": 41.9069209, "lon": -87.6730341}, {"type": "node", "id": 1282296431, "lat": 41.9154908, "lon": -87.6862997}, {"type": "node", "id": 1282296435, "lat": 41.9233189, "lon": -87.6990483}, {"type": "node", "id": 1282296436, "lat": 41.910242, "lon": -87.6781593}, {"type": "node", "id": 1585419572, "lat": 41.9212374, "lon": -87.67314, "tags": {"addr:city": "Chicago", "addr:housenumber": "1809", "addr:postcode": "60614", "addr:state": "IL", "addr:street": "West Webster Avenue", "amenity": "cafe", "cuisine": "coffee_shop", "name": "Little Beans", "phone": "+1-773-251-1025", "website": "https://littlebeanscafe.com/"}}, {"type": "node", "id": 1585420540, "lat": 41.9220517, "lon": -87.6734351, "tags": {"addr:housenumber": "2222", "addr:postcode": "60614", "addr:street": "North Elston Avenue", "amenity": "restaurant", "cuisine": "sandwich", "name": "The Goddess and Grocer", "website": "http://www.goddessandgrocer.com/elston.php"}}, {"type": "node", "id": 1585423403, "lat": 41.9212295, "lon": -87.6779251, "tags": {"addr:housenumber": "2158", "addr:street": "North Damen Avenue", "amenity": "cafe", "cuisine": "coffee_shop", "name": "Bucktown Beanery", "wifi": "free"}}, {"type": "node", "id": 1666244561, "lat": 41.9103339, "lon": -87.6797489, "tags": {"addr:city": "Chicago", "addr:housenumber": "2057", "addr:postcode": "60647", "addr:state": "IL", "addr:street": "West North Avenue", "amenity": "restaurant", "name": "Sultan's Market", "phone": "+1-773-235-3072", "website": "http://chicagofalafel.com/"}}, {"type": "node", "id": 1685093555, "lat": 41.9198795, "lon": -87.6804824, "tags": {"addr:city": "Chicago", "addr:housenumber": "2076", "addr:postcode": "60647", "addr:state": "IL", "addr:street": "North Hoyne Avenue", "amenity": "bar", "name": "Charleston", "phone": "+1-773-489-4757", "website": "https://www.charlestonchicago.com/"}}, {"type": "node", "id": 1699464559, "lat": 41.9178252, "lon": -87.6795216, "tags": {"amenity": "restaurant", "name": "Jack & Ginger's"}}, {"type": "node", "id": 1699464583, "lat": 41.9175667, "lon": -87.677763, "tags": {"addr:city": "Chicago", "addr:housenumber": "1958", "addr:postcode": "60647", "addr:state": "IL", "addr:street": "North Damen Avenue", "amenity": "restaurant", "cuisine": "french", "name": "Le Bouchon", "phone": "+1-773-862-6600", "website": "http://www.lebouchonofchicago.com/"}}, {"type": "node", "id": 1699464827, "lat": 41.9175758, "lon": -87.6802739, "tags": {"amenity": "cafe", "brand": "Starbucks", "brand:wikidata": "Q37158", "brand:wikipedia": "en:Starbucks", "cuisine": "coffee_shop", "name": "Starbucks", "takeaway": "yes"}}, {"type": "node", "id": 1700855290, "lat": 41.9174886, "lon": -87.6851722, "tags": {"addr:city": "Chicago", "addr:housenumber": "1944", "addr:postcode": "60647", "addr:state": "IL", "addr:street": "North Oakley Avenue", "amenity": "bar", "name": "Floyd's Pub", "phone": "+1-773-276-6060", "website": "http://floydspub.net/"}}, {"type": "node", "id": 1777277102, "lat": 41.9102937, "lon": -87.6760621, "tags": {"addr:city": "Chicago", "addr:housenumber": "1927", "addr:postcode": "60622", "addr:state": "IL", "addr:street": "West North Avenue", "amenity": "restaurant", "name": "Piece Brewery & Pizzeria", "opening_hours": "Mo-We 11:00-22:30; Th 11:00-23:00; Fr-Sa 11:00-00:30; Su 11:00-22:00", "phone": "+1-773-772-4422", "website": "http://www.piecechicago.com/"}}, {"type": "node", "id": 1888714216, "lat": 41.9103282, "lon": -87.6783226}, {"type": "node", "id": 1888714574, "lat": 41.910236, "lon": -87.6782116}, {"type": "node", "id": 1888714639, "lat": 41.9104235, "lon": -87.6784235}, {"type": "node", "id": 1888715009, "lat": 41.9103848, "lon": -87.6783263}, {"type": "node", "id": 2075140757, "lat": 41.9139307, "lon": -87.6838647}, {"type": "node", "id": 2075140759, "lat": 41.9166407, "lon": -87.688114}, {"type": "node", "id": 2075147078, "lat": 41.9117225, "lon": -87.6803994}, {"type": "node", "id": 2090176575, "lat": 41.9096328, "lon": -87.6772433, "tags": {"name": "Damen", "network": "CTA", "operator": "Chicago Transit Authority", "public_transport": "stop_position", "railway": "stop", "subway": "yes"}}, {"type": "node", "id": 2090182927, "lat": 41.9160063, "lon": -87.6870338, "tags": {"name": "Western", "network": "CTA", "operator": "Chicago Transit Authority", "public_transport": "stop_position", "railway": "stop", "subway": "yes"}}, {"type": "node", "id": 2166647858, "lat": 41.9137167, "lon": -87.6835347}, {"type": "node", "id": 2166647859, "lat": 41.9137443, "lon": -87.6835083}, {"type": "node", "id": 2166647920, "lat": 41.9142308, "lon": -87.6843331}, {"type": "node", "id": 2166647923, "lat": 41.9142442, "lon": -87.6842874}, {"type": "node", "id": 2196191472, "lat": 41.9153855, "lon": -87.6850008}, {"type": "node", "id": 2196191717, "lat": 41.9155028, "lon": -87.6850109}, {"type": "node", "id": 2196191866, "lat": 41.9155111, "lon": -87.6851987}, {"type": "node", "id": 2196192238, "lat": 41.9155961, "lon": -87.6850155}, {"type": "node", "id": 2196192241, "lat": 41.9155966, "lon": -87.6850963}, {"type": "node", "id": 2196192517, "lat": 41.9156236, "lon": -87.6850152}, {"type": "node", "id": 2196192520, "lat": 41.9156252, "lon": -87.6850648}, {"type": "node", "id": 2196193268, "lat": 41.9159196, "lon": -87.6867571}, {"type": "node", "id": 2196193451, "lat": 41.9159617, "lon": -87.6868213}, {"type": "node", "id": 2196193545, "lat": 41.915989, "lon": -87.6867898}, {"type": "node", "id": 2196193552, "lat": 41.9159898, "lon": -87.6867913}, {"type": "node", "id": 2196194592, "lat": 41.9161233, "lon": -87.6865173}, {"type": "node", "id": 2196194760, "lat": 41.916162, "lon": -87.6865768}, {"type": "node", "id": 2200201023, "lat": 41.9102042, "lon": -87.6780861}, {"type": "node", "id": 2200201025, "lat": 41.9102053, "lon": -87.6780439}, {"type": "node", "id": 2200201093, "lat": 41.9102374, "lon": -87.6781299}, {"type": "node", "id": 2200201390, "lat": 41.9103856, "lon": -87.6781357}, {"type": "node", "id": 2200201393, "lat": 41.9103865, "lon": -87.6780475}, {"type": "node", "id": 2200201414, "lat": 41.9104123, "lon": -87.6679902}, {"type": "node", "id": 2200201416, "lat": 41.9104145, "lon": -87.667891}, {"type": "node", "id": 2200201423, "lat": 41.9104267, "lon": -87.6678688}, {"type": "node", "id": 2200201429, "lat": 41.9104411, "lon": -87.667977}, {"type": "node", "id": 2200201430, "lat": 41.9104411, "lon": -87.6679899}, {"type": "node", "id": 2200201500, "lat": 41.9104877, "lon": -87.6679784}, {"type": "node", "id": 2200201514, "lat": 41.9105001, "lon": -87.6679911}, {"type": "node", "id": 2200201548, "lat": 41.9105269, "lon": -87.6678733}, {"type": "node", "id": 2200201564, "lat": 41.9105372, "lon": -87.6679925}, {"type": "node", "id": 2200201566, "lat": 41.9105393, "lon": -87.6678878}, {"type": "node", "id": 2200201646, "lat": 41.9106141, "lon": -87.6749041}, {"type": "node", "id": 2200201648, "lat": 41.9106163, "lon": -87.6748177}, {"type": "node", "id": 2200201934, "lat": 41.9108254, "lon": -87.6749093}, {"type": "node", "id": 2200201938, "lat": 41.9108263, "lon": -87.6748247}, {"type": "node", "id": 2200202220, "lat": 41.9109539, "lon": -87.678174}, {"type": "node", "id": 2200202308, "lat": 41.9109954, "lon": -87.6782397}, {"type": "node", "id": 2200203017, "lat": 41.911161, "lon": -87.6779331}, {"type": "node", "id": 2200203161, "lat": 41.911204, "lon": -87.6779988}, {"type": "node", "id": 2200203181, "lat": 41.9112141, "lon": -87.6785791}, {"type": "node", "id": 2200203246, "lat": 41.9112404, "lon": -87.6786211}, {"type": "node", "id": 2200203589, "lat": 41.9113164, "lon": -87.6784605}, {"type": "node", "id": 2200204258, "lat": 41.9113781, "lon": -87.6784599}, {"type": "node", "id": 2200204292, "lat": 41.9113859, "lon": -87.678379}, {"type": "node", "id": 2200204442, "lat": 41.9114122, "lon": -87.678421}, {"type": "node", "id": 2200219542, "lat": 41.9136457, "lon": -87.6774098}, {"type": "node", "id": 2200219565, "lat": 41.9136529, "lon": -87.6769799}, {"type": "node", "id": 2200219709, "lat": 41.9137061, "lon": -87.677411}, {"type": "node", "id": 2200219736, "lat": 41.9137132, "lon": -87.6769811}, {"type": "node", "id": 2200226517, "lat": 41.9151977, "lon": -87.6779157}, {"type": "node", "id": 2200226541, "lat": 41.9152021, "lon": -87.6777246}, {"type": "node", "id": 2200226949, "lat": 41.9152554, "lon": -87.6779187}, {"type": "node", "id": 2200226977, "lat": 41.9152584, "lon": -87.6777258}, {"type": "node", "id": 2200230349, "lat": 41.9156231, "lon": -87.6762322}, {"type": "node", "id": 2200230367, "lat": 41.9156253, "lon": -87.6761477}, {"type": "node", "id": 2200231880, "lat": 41.9158522, "lon": -87.6762391}, {"type": "node", "id": 2200232041, "lat": 41.9158741, "lon": -87.6762168}, {"type": "node", "id": 2200232050, "lat": 41.9158751, "lon": -87.6761543}, {"type": "node", "id": 2200242724, "lat": 41.9182738, "lon": -87.682951}, {"type": "node", "id": 2200242734, "lat": 41.918279, "lon": -87.6826497}, {"type": "node", "id": 2200242950, "lat": 41.9183383, "lon": -87.6829522}, {"type": "node", "id": 2200243001, "lat": 41.9183448, "lon": -87.6826527}, {"type": "node", "id": 2324557210, "lat": 41.9124475, "lon": -87.6749268, "tags": {"addr:housenumber": "1858", "addr:postcode": "60622", "addr:street": "West Wabansia Avenue", "amenity": "bar", "name": "Lincoln Tavern", "note": "Closed", "website": "http://lincolntavern.com/"}}, {"type": "node", "id": 2324557958, "lat": 41.9124814, "lon": -87.6737117, "tags": {"addr:city": "Chicago", "addr:housenumber": "1824", "addr:postcode": "60622", "addr:state": "IL", "addr:street": "West Wabansia Avenue", "amenity": "restaurant", "cuisine": "italian", "name": "Club Lucky", "phone": "+1-773-227-2300", "website": "https://www.clubluckychicago.com/"}}, {"type": "node", "id": 2324561683, "lat": 41.9104118, "lon": -87.6736316, "tags": {"addr:city": "Chicago", "addr:housenumber": "1825", "addr:postcode": "60622", "addr:state": "IL", "addr:street": "West North Avenue", "amenity": "restaurant", "cuisine": "italian", "name": "Lucia\u2019s Gourmet Italian Cuisine", "phone": "+1-773-292-9700", "website": "http://luciaschicago.com/"}}, {"type": "node", "id": 2366009390, "lat": 41.9159692, "lon": -87.6698518, "tags": {"addr:city": "Chicago", "addr:housenumber": "1653-1655", "addr:postcode": "60622", "addr:street": "West Cortland Street", "amenity": "restaurant", "cuisine": "american", "name": "Jane's Restaurant", "opening_hours": "Tu-Th 17:00-22:00; Fr 11:00-15:00; Fr 17:00-22:00; Sa-Su 08:00-22:00", "phone": "773-862-5263", "website": "http://janesrestaurant.com/"}}, {"type": "node", "id": 2671405828, "lat": 41.9175718, "lon": -87.680526, "tags": {"amenity": "restaurant", "cuisine": "cuban", "name": "Cafe Laguardia"}}, {"type": "node", "id": 3080898769, "lat": 41.9112092, "lon": -87.6785386, "tags": {"amenity": "restaurant", "cuisine": "sandwich", "name": "Lucky's Sandwich Co."}}, {"type": "node", "id": 3570187860, "lat": 41.915257, "lon": -87.6847129, "tags": {"addr:city": "Chicago", "addr:housenumber": "1861", "addr:postcode": "60647", "addr:state": "IL", "addr:street": "North Milwaukee Avenue", "amenity": "bar", "name": "Red & White Wine Bar", "opening_hours": "Mo-We 12:00-21:00; Th-Sa 12:00-22:00; Su 12:00-19:00", "phone": "+1-773-486-4769", "website": "https://www.redandwhitewineschicago.com/"}}, {"type": "node", "id": 3570188608, "lat": 41.9149624, "lon": -87.6847822, "tags": {"addr:city": "Chicago", "addr:housenumber": "1846", "addr:postcode": "60647", "addr:state": "Il", "addr:street": "North Milwaukee Avenue", "amenity": "restaurant", "cuisine": "thai", "name": "Silom 12", "phone": "+1-773-489-1212", "website": "http://www.silom12chicago.com/"}}, {"type": "node", "id": 3570207893, "lat": 41.9152965, "lon": -87.6777367, "tags": {"addr:city": "Chicago", "addr:housenumber": "1850", "addr:postcode": "60647", "addr:state": "IL", "addr:street": "North Damen Avenue", "amenity": "bar", "name": "Lemming\u2019s Tavern", "phone": "+1-773-862-1688", "website": "http://www.lemmingstavern.com/"}}, {"type": "node", "id": 3575036693, "lat": 41.9182746, "lon": -87.6851707, "tags": {"addr:city": "Chicago", "addr:housenumber": "2020", "addr:postcode": "60647", "addr:state": "IL", "addr:street": "North Oakley Avenue", "amenity": "bar", "name": "The Gallery Cabaret", "phone": "+1-773-489-5471", "website": "https://www.gallerycabaret.com/"}}, {"type": "node", "id": 3575120594, "lat": 41.9103246, "lon": -87.6787813, "tags": {"amenity": "restaurant", "name": "Chop Shop"}}, {"type": "node", "id": 3575120598, "lat": 41.910214, "lon": -87.6853111, "tags": {"addr:city": "Chicago", "addr:housenumber": "2311", "addr:postcode": "60647", "addr:state": "IL", "addr:street": "West North Avenue", "amenity": "restaurant", "diet:vegan": "yes", "diet:vegetarian": "only", "name": "Handlebar", "opening_hours": "Mo-Su 10:00-01:00", "phone": "+1-773-384-9546", "website": "https://www.handlebarchicago.com/"}}, {"type": "node", "id": 3575120599, "lat": 41.9104695, "lon": -87.68575, "tags": {"amenity": "restaurant", "cuisine": "thai", "name": "Thai Lagoon"}}, {"type": "node", "id": 3575496169, "lat": 41.9150958, "lon": -87.6777415, "tags": {"addr:city": "Chicago", "addr:housenumber": "1840", "addr:postcode": "60647", "addr:state": "IL", "addr:street": "North Damen Avenue", "amenity": "restaurant", "cuisine": "korean", "name": "En Hakkore", "phone": "+1-773-772-9880", "website": "http://www.enhakkorechicago.com/"}}, {"type": "node", "id": 3575496170, "lat": 41.9153652, "lon": -87.6777415, "tags": {"amenity": "restaurant", "cuisine": "pizza", "name": "Sarpino's"}}, {"type": "node", "id": 3575496171, "lat": 41.9176357, "lon": -87.6778131, "tags": {"addr:city": "Chicago", "addr:housenumber": "1960", "addr:postcode": "60647", "addr:state": "IL", "addr:street": "North Damen Avenue", "amenity": "restaurant", "cuisine": "japanese", "name": "Izakaya Mita", "phone": "+1-773-799-8677", "website": "http://www.izakayamita.com/"}}, {"type": "node", "id": 3575497026, "lat": 41.9137424, "lon": -87.6773235, "tags": {"amenity": "restaurant", "name": "Presidio"}}, {"type": "node", "id": 3581500506, "lat": 41.9162108, "lon": -87.6701232, "tags": {"addr:city": "Chicago", "addr:housenumber": "1658", "addr:postcode": "60622", "addr:state": "IL", "addr:street": "West Cortland Street", "amenity": "pub", "name": "Bucktown Pub", "phone": "+1-773- 394-9898", "website": "http://www.bucktownpub.com/"}}, {"type": "node", "id": 3581500507, "lat": 41.9162108, "lon": -87.6699784, "tags": {"amenity": "cafe", "name": "Riverside Cafe"}}, {"type": "node", "id": 3581500508, "lat": 41.9159633, "lon": -87.6695814, "tags": {"addr:city": "Chicago", "addr:housenumber": "1645", "addr:postcode": "60622", "addr:state": "IL", "addr:street": "West Cortland Street", "amenity": "pub", "name": "Cortland Garage", "phone": "+1-773-862-7877", "website": "https://www.cortlandsgarage.com/"}}, {"type": "node", "id": 3656001352, "lat": 41.9106249, "lon": -87.6771302, "tags": {"amenity": "restaurant", "cuisine": "sushi", "name": "Bluefin"}}, {"type": "node", "id": 3656001358, "lat": 41.9106779, "lon": -87.6753699, "tags": {"addr:city": "Chicago", "addr:housenumber": "1904", "addr:postcode": "60622", "addr:state": "IL", "addr:street": "West North Avenue", "amenity": "restaurant", "cuisine": "latin_american", "name": "Amaru", "phone": "+1-773-687-9790", "website": "https://www.amaruchicago.com"}}, {"type": "node", "id": 3656001360, "lat": 41.9106544, "lon": -87.6746901, "tags": {"addr:city": "Chicago", "addr:housenumber": "1852", "addr:postcode": "60622", "addr:state": "IL", "addr:street": "West North Avenue", "amenity": "restaurant", "cuisine": "italian", "name": "Pasta Bowl - Wicker Park", "phone": "+1-773-935-2695", "website": "https://www.pastabowl.com/"}}, {"type": "node", "id": 3656001364, "lat": 41.9106839, "lon": -87.6724275, "tags": {"addr:city": "Chicago", "addr:housenumber": "1760", "addr:postcode": "60622", "addr:state": "IL", "addr:street": "West North Avenue", "amenity": "cafe", "name": "Gallery Cafe", "phone": "+1-773-252-8228", "website": "https://www.gallerycafechicago.com/"}}, {"type": "node", "id": 3656015215, "lat": 41.9103408, "lon": -87.6793224, "tags": {"addr:city": "Chicago", "addr:housenumber": "2045", "addr:postcode": "60647", "addr:state": "IL", "addr:street": "West North Avenue", "amenity": "restaurant", "cuisine": "empanada;argentinian", "name": "5411 Empanadas - Wicker Park", "opening_hours": "Su-Th 11:00-22:00; Fr-Sa 11:00-00:00", "phone": "+1-773-276-8344", "website": "http://www.5411empanadas.com"}}, {"type": "node", "id": 3656023047, "lat": 41.9111767, "lon": -87.6784624, "tags": {"amenity": "restaurant", "name": "Sushi Para M"}}, {"type": "node", "id": 3656028533, "lat": 41.9109478, "lon": -87.6773351, "tags": {"amenity": "restaurant", "name": "Enso Sushi & Bar"}}, {"type": "node", "id": 3656028534, "lat": 41.9110097, "lon": -87.6773378, "tags": {"amenity": "restaurant", "name": "Dimo's Pizza"}}, {"type": "node", "id": 3791781401, "lat": 41.9212458, "lon": -87.6745362}, {"type": "node", "id": 3791781402, "lat": 41.9212687, "lon": -87.6745054}, {"type": "node", "id": 3791781403, "lat": 41.9213604, "lon": -87.6745054}, {"type": "node", "id": 3791781404, "lat": 41.9213833, "lon": -87.6735657}, {"type": "node", "id": 3791781405, "lat": 41.9209615, "lon": -87.6735626}, {"type": "node", "id": 3791781406, "lat": 41.9209615, "lon": -87.6736334}, {"type": "node", "id": 3791781407, "lat": 41.9209088, "lon": -87.6736797}, {"type": "node", "id": 3791781408, "lat": 41.9208881, "lon": -87.6736396}, {"type": "node", "id": 3791781409, "lat": 41.9207941, "lon": -87.6737351}, {"type": "node", "id": 3863476802, "lat": 41.9215071, "lon": -87.6788359, "tags": {"addr:city": "Chicago", "addr:housenumber": "2026", "addr:postcode": "60647", "addr:state": "IL", "addr:street": "West Webster Avenue", "amenity": "bar", "name": "Burke\u2019s Web Pub", "phone": "+1-773-276-3411"}}, {"type": "node", "id": 3863476803, "lat": 41.9220332, "lon": -87.6828391, "tags": {"addr:city": "Chicago", "addr:housenumber": "2224", "addr:postcode": "60647", "addr:state": "IL", "addr:street": "North Leavitt Street", "amenity": "bar", "name": "The Corner Bar", "website": "http://cornerbarchicago.com/"}}, {"type": "node", "id": 5025496847, "lat": 41.9144268, "lon": -87.6832788, "tags": {"addr:city": "Chicago", "addr:housenumber": "1813", "addr:postcode": "60647", "addr:state": "IL", "addr:street": "North Milwaukee Avenue", "amenity": "cafe", "cuisine": "coffee_shop", "name": "Ipsento 606", "phone": "+1-872-206-8697", "website": "http://ipsento.com/"}}, {"type": "node", "id": 5597509421, "lat": 41.9103358, "lon": -87.6800494, "tags": {"amenity": "restaurant", "cuisine": "italian_pizza;pizza", "name": "Knead"}}, {"type": "node", "id": 5597509423, "lat": 41.9131516, "lon": -87.6819688, "tags": {"addr:city": "Chicago", "addr:housenumber": "1750", "addr:postcode": "606476", "addr:state": "IL", "addr:street": "North Milwaukee Avenue", "amenity": "bar", "name": "The Royal Palms Shuffleboard Club", "name:en": "Royal Palms Shuffleboard Club", "phone": "+1-773-486-8682", "website": "https://www.royalpalmschicago.com/"}}, {"type": "node", "id": 5597509522, "lat": 41.9143219, "lon": -87.6838026, "tags": {"addr:city": "Chicago", "addr:housenumber": "1812", "addr:postcode": "60647", "addr:state": "IL", "addr:street": "North Milwaukee Avenue", "amenity": "restaurant", "cuisine": "pizza;burger;american", "name": "The Stop Along", "phone": "1+773-394-4694", "website": "https://www.thestopalong.com/"}}, {"type": "node", "id": 5597512422, "lat": 41.910436, "lon": -87.6739514, "tags": {"addr:city": "Chicago", "addr:housenumber": "1835", "addr:postcode": "60622", "addr:state": "IL", "addr:street": "West North Avenue", "amenity": "restaurant", "cuisine": "mexican", "name": "Las Palmas", "phone": "+1-773-289-4991", "website": "http://www.laspalmaschicago.com/"}}, {"type": "node", "id": 5856756285, "lat": 41.9102279, "lon": -87.675639, "tags": {"addr:city": "Chicago", "addr:housenumber": "1913", "addr:postcode": "60622", "addr:state": "IL", "addr:street": "West North Avenue", "amenity": "restaurant", "cuisine": "pizza", "name": "Paradise Park", "opening_hours": "Mo-We 16:00-02:00; Th 16:00-02:00; Fr 11:00-02:00; Sa 10:30-03:00; Su 10:30-00:00", "phone": "+1-773-687-9117", "website": "https://paradisepark.pizza"}}, {"type": "node", "id": 6239205557, "lat": 41.9103281, "lon": -87.6785033, "tags": {"addr:city": "Chicago", "addr:housenumber": "2027", "addr:postcode": "60647", "addr:state": "IL", "addr:street": "West North Avenue", "amenity": "bar", "name": "Tapster", "phone": "+1-773-661-2182", "website": "http://www.tapsterchicago.com/"}}, {"type": "node", "id": 6247705346, "lat": 41.9104444, "lon": -87.6691985, "tags": {"addr:city": "Chicago", "addr:housenumber": "1637", "addr:postcode": "60622", "addr:state": "IL", "addr:street": "West North Avenue", "amenity": "bar", "name": "@North Bar", "phone": "+1-773-697-3563", "website": "http://www.liveatnorthbar.com/"}}, {"type": "node", "id": 6258328991, "lat": 41.9169917, "lon": -87.6774345, "tags": {"addr:city": "Chicago", "addr:housenumber": "1935", "addr:postcode": "60647", "addr:state": "IL", "addr:street": "North Damen Avenue", "amenity": "restaurant", "name": "6 Degrees", "phone": "+1-773-904-8812", "website": "https://www.6degreesbucktown.com/"}}, {"type": "node", "id": 6283090050, "lat": 41.9189969, "lon": -87.6773565, "tags": {"addr:city": "Chicago", "addr:housenumber": "2045", "addr:postcode": "60647", "addr:state": "IL", "addr:street": "North Damen Avenue", "amenity": "restaurant", "name": "Coast Sushi Bar", "phone": "+1-773-235-5775", "website": "http://www.coastsushi.net/"}}, {"type": "node", "id": 6284097746, "lat": 41.9194305, "lon": -87.6772409, "tags": {"addr:city": "Chicago", "addr:housenumber": "1951", "addr:postcode": "60647", "addr:state": "IL", "addr:street": "West Dickens Avenue", "amenity": "bar", "name": "Danny\u2019s Tavern", "phone": "+1-773-489-6457"}}, {"type": "node", "id": 6284308831, "lat": 41.9117562, "lon": -87.6773347, "tags": {"addr:city": "Chicago", "addr:housenumber": "1645A", "addr:postcode": "60647", "addr:state": "IL", "addr:street": "North Damen Avenue", "addr:unit": "2", "amenity": "cafe", "name": "DAVIDsTEA", "phone": "+1-773-697-9737", "website": "https://www.davidstea.com/us_en/home/"}}, {"type": "node", "id": 6284714257, "lat": 41.9103836, "lon": -87.6765997, "tags": {"addr:city": "Chicago", "addr:housenumber": "1939", "addr:postcode": "60622", "addr:state": "IL", "addr:street": "West North Avenue", "amenity": "restaurant", "name": "Dorian\u2019s", "phone": "+1-773-687-9824", "website": "http://throughtherecordshop.com/"}}, {"type": "node", "id": 6285013873, "lat": 41.9179598, "lon": -87.6789791, "tags": {"addr:city": "Chicago", "addr:housenumber": "2032", "addr:postcode": "60647", "addr:state": "IL", "addr:street": "West Armitage Avenue", "amenity": "bar", "name": "Ed and Jean\u2019s Tavern", "phone": "+1-773-851-8054", "website": "http://www.edandjeanstavern.com/"}}, {"type": "node", "id": 6291799872, "lat": 41.9179762, "lon": -87.6773811, "tags": {"addr:city": "Chicago", "addr:housenumber": "1954", "addr:postcode": "60622", "addr:state": "IL", "addr:street": "West Armitage Avenue", "amenity": "bar", "name": "Gigi\u2019s Kitchen", "phone": "+1-773-799-8290", "website": "https://www.gigischicago.com/"}}, {"type": "node", "id": 6291896890, "lat": 41.9119269, "lon": -87.6772749, "tags": {"addr:city": "Chicago", "addr:housenumber": "1649", "addr:postcode": "60647", "addr:state": "IL", "addr:street": "North Damen Avenue", "amenity": "restaurant", "name": "Goddess and Grocer", "phone": "+1-773-342-3200", "website": "http://goddessandgrocer.com/"}}, {"type": "node", "id": 6298052230, "lat": 41.9108524, "lon": -87.6695412, "tags": {"addr:city": "Chicago", "addr:housenumber": "1644", "addr:postcode": "60622", "addr:state": "IL", "addr:street": "West North Avenue", "amenity": "cafe", "name": "Infiniteus Rocks & Juice", "phone": "+1-773-661-1418", "website": "https://www.infiniteusrocksandjuice.com/"}}, {"type": "node", "id": 6300965222, "lat": 41.920137, "lon": -87.6779363, "tags": {"addr:city": "Chicago", "addr:housenumber": "2118", "addr:postcode": "60647", "addr:state": "IL", "addr:street": "North Damen Avenue", "amenity": "restaurant", "name": "The Royal Grocer & Co", "phone": "+1-773-904-7805", "website": "http://www.royalgrocer.com/"}}, {"type": "node", "id": 6301103471, "lat": 41.9101746, "lon": -87.6846028, "tags": {"addr:city": "Chicago", "addr:housenumber": "2257", "addr:postcode": "60647", "addr:state": "IL", "addr:street": "West North Avenue", "amenity": "restaurant", "name": "Runa Japanese", "phone": "+1-773-278-8887", "website": "http://www.runajapanesechicago.com/"}}, {"type": "node", "id": 6302695669, "lat": 41.9112765, "lon": -87.6784697, "tags": {"addr:city": "Chicago", "addr:housenumber": "1635", "addr:postcode": "60647", "addr:state": "IL", "addr:street": "North Milwaukee Avenue", "amenity": "restaurant", "name": "The Tankard", "phone": "+1-773-292-2765", "website": "https://www.tankardchicago.com/"}}, {"type": "node", "id": 6305175550, "lat": 41.9108863, "lon": -87.6771631, "tags": {"addr:city": "Chicago", "addr:housenumber": "1611", "addr:postcode": "60647", "addr:state": "IL", "addr:street": "North Damen Avenue", "amenity": "cafe", "name": "Toms Roasting Co", "phone": "+1-773-486-5882", "website": "https://www.toms.com/coffee/"}}, {"type": "node", "id": 6305261850, "lat": 41.9178287, "lon": -87.6843751, "tags": {"addr:city": "Chicago", "addr:housenumber": "2246", "addr:postcode": "60647", "addr:state": "IL", "addr:street": "West Armitage Avenue", "amenity": "restaurant", "name": "The Bento Box", "phone": "+1-773-278-3932"}}, {"type": "node", "id": 6306494893, "lat": 41.9210516, "lon": -87.6779871, "tags": {"addr:city": "Chicago", "addr:housenumber": "2152", "addr:postcode": "60647", "addr:state": "IL", "addr:street": "North Damen Avenue", "amenity": "restaurant", "name": "The Bristol", "phone": "+1-773-862-5555", "website": "http://www.thebristolchicago.com/"}}, {"type": "node", "id": 6306657812, "lat": 41.9124463, "lon": -87.6777172, "tags": {"addr:city": "Chicago", "addr:housenumber": "1700", "addr:postcode": "60647", "addr:state": "IL", "addr:street": "North Damen Avenue", "amenity": "restaurant", "name": "Tricycle Chicago", "phone": "+1-773-697-9275", "website": "https://www.tricyclechicago.com/"}}, {"type": "node", "id": 6315193314, "lat": 41.9104081, "lon": -87.6718379, "tags": {"addr:city": "Chicago", "addr:housenumber": "1745", "addr:postcode": "60622", "addr:state": "IL", "addr:street": "West North Avenue", "amenity": "restaurant", "name": "The Delta", "phone": "+1-773-360-1793", "website": "https://www.thedeltachicago.com/"}}, {"type": "node", "id": 6315663847, "lat": 41.917591, "lon": -87.6798155, "tags": {"addr:city": "Chicago", "addr:housenumber": "1949", "addr:postcode": "60647", "addr:state": "IL", "addr:street": "North Hoyne Avenue", "amenity": "bar", "name": "The Map Room", "phone": "+1-773-252-7636", "website": "http://www.maproom.com/"}}, {"type": "node", "id": 6316934643, "lat": 41.9107715, "lon": -87.6719672, "tags": {"addr:city": "Chicago", "addr:housenumber": "1746", "addr:postcode": "60622", "addr:state": "IL", "addr:street": "West North Avenue", "amenity": "restaurant", "name": "Windy Kitty Cat Cafe", "website": "https://www.windykittychicago.com/"}}, {"type": "node", "id": 6317085920, "lat": 41.9136888, "lon": -87.6820343, "tags": {"addr:city": "Chicago", "addr:housenumber": "1767", "addr:postcode": "60647", "addr:state": "IL", "addr:street": "North Milwaukee Avenue", "amenity": "restaurant", "name": "Yolk Test Kitchen - Bucktown", "phone": "(312) 348-1333", "website": "https://www.eatyolk.com/"}}, {"type": "node", "id": 6319024840, "lat": 41.9161269, "lon": -87.6778008, "tags": {"addr:city": "Chicago", "addr:housenumber": "1880", "addr:postcode": "60647", "addr:state": "IL", "addr:street": "North Damen Avenue", "amenity": "restaurant", "name": "JuiceRx", "phone": "+1-312-252-4938", "website": "https://drinkjuicerx.com/"}}, {"type": "node", "id": 6319774899, "lat": 41.910295, "lon": -87.6803201, "tags": {"addr:city": "Chicago", "addr:housenumber": "2101", "addr:postcode": "60647", "addr:state": "IL", "addr:street": "West North Avenue", "amenity": "restaurant", "name": "Knead", "phone": "+1-773-974-6004", "website": "https://kneadpizzas.com/"}}, {"type": "node", "id": 6320623852, "lat": 41.9157481, "lon": -87.6761961, "tags": {"addr:city": "Chicago", "addr:housenumber": "1925", "addr:postcode": "60647", "addr:state": "IL", "addr:street": "West Cortland Street", "amenity": "bar", "name": "Lottie\u2019s Pub", "phone": "+1-773-489-0738", "website": "http://www.lottiespub.com/"}}, {"type": "node", "id": 6321781325, "lat": 41.9162275, "lon": -87.6737745, "tags": {"addr:city": "Chicago", "addr:housenumber": "1824", "addr:postcode": "60647", "addr:state": "IL", "addr:street": "West Cortland Street", "amenity": "bar", "name": "Rory Lake\u2019s Karaoke Dreams", "phone": "+1-773-278-0093", "website": "http://www.rorylakepresents.com/"}}, {"type": "node", "id": 6321986649, "lat": 41.912826, "lon": -87.681489, "tags": {"addr:city": "Chicago", "addr:housenumber": "1732", "addr:postcode": "60647", "addr:state": "Il", "addr:street": "North Milwaukee Avenue", "amenity": "restaurant", "name": "Small Cheval", "website": "http://smallcheval.com/"}}, {"type": "node", "id": 6323181243, "lat": 41.9103715, "lon": -87.6767531, "tags": {"addr:city": "Chicago", "addr:housenumber": "1943", "addr:postcode": "60622", "addr:state": "IL", "addr:street": "West North Avenue", "amenity": "bar", "name": "No Bones Beach Club", "website": "https://nobonesbeachclub.com/"}}, {"type": "node", "id": 6325945247, "lat": 41.9207648, "lon": -87.6691269, "tags": {"addr:city": "Chicago", "addr:housenumber": "2112", "addr:postcode": "60614", "addr:state": "IL", "addr:street": "North Ashland Avenue", "amenity": "cafe", "name": "Vero Coffee & Gelato", "phone": "+1-773-342-6585", "website": "https://verocoffeeandgelato.com/"}}, {"type": "node", "id": 6356675231, "lat": 41.9107219, "lon": -87.6742462, "tags": {"addr:city": "Chicago", "addr:housenumber": "1840", "addr:postcode": "60622", "addr:state": "IL", "addr:street": "West North Avenue", "amenity": "restaurant", "cuisine": "american;brunch;breakfast", "name": "etta", "opening_hours": "Mo-Th 17:00-22:00; Fr 16:30-23:00; Sa-Su 10:00-14:00, 16:30-23:00", "phone": "+1-312-757-4444", "website": "https://ettarestaurant.com/"}}, {"type": "node", "id": 6459369044, "lat": 41.9102472, "lon": -87.6828793, "tags": {"addr:city": "Chicago", "addr:housenumber": "2211", "addr:postcode": "60647", "addr:state": "IL", "addr:street": "West North Avenue", "amenity": "restaurant", "cuisine": "filipino", "name": "Cebu", "phone": "+1-773-799-8650", "website": "https://cebuchicago.com"}}, {"type": "node", "id": 6842444182, "lat": 41.9144405, "lon": -87.6839628, "tags": {"addr:city": "Chicago", "addr:housenumber": "1818", "addr:street": "North Milwaukee Avenue", "amenity": "cafe", "name": "Easthill Tea"}}, {"type": "node", "id": 7411640772, "lat": 41.9212534, "lon": -87.6731346, "tags": {"amenity": "cafe", "name": "Little Beans Cafe & Playspace"}}, {"type": "way", "id": 59343237, "nodes": [258282968, 258282969, 258282970, 1282296369, 34877708, 34877709, 2075140759, 34877711, 1282296431, 2166647920], "tags": {"bridge": "yes", "electrified": "rail", "frequency": "0", "gauge": "1435", "layer": "2", "name": "O'Hare Branch", "old_name": "Logan Square Branch", "oneway": "yes", "operator": "Chicago Transit Authority", "railway": "subway", "voltage": "600"}}, {"type": "way", "id": 112926174, "nodes": [2166647923, 2090182927, 1282296250, 1282296350, 1282296375, 1282296364, 1282296381, 1282296244, 1282296292, 1282296435, 1282296415, 1282296303, 1282296339, 1282296410], "tags": {"bridge": "yes", "electrified": "rail", "frequency": "0", "gauge": "1435", "name": "O'Hare Branch", "oneway": "yes", "operator": "Chicago Transit Authority", "railway": "subway", "voltage": "600"}}, {"type": "way", "id": 206629205, "nodes": [1282296426, 1282296316, 1282296353, 1282296225, 1282296418, 2090176575, 1282296294, 1282296436, 1282296389, 1282296314, 1888715009, 1282296370, 1282296296, 2075147078, 1282296384, 2166647859], "tags": {"bridge": "yes", "electrified": "rail", "frequency": "0", "gauge": "1435", "name": "O'Hare Branch", "oneway": "yes", "operator": "Chicago Transit Authority", "railway": "subway", "voltage": "600"}}, {"type": "way", "id": 206629206, "nodes": [2166647858, 1282296257, 34877713, 736035834, 736035835, 1888714639, 736035836, 1888714216, 736035837, 1888714574, 736035838, 736035839, 736035840, 736035841, 736035842, 736035799], "tags": {"bridge": "yes", "electrified": "rail", "frequency": "0", "gauge": "1435", "layer": "2", "name": "O'Hare Branch", "old_name": "Logan Square Branch", "oneway": "yes", "operator": "Chicago Transit Authority", "railway": "subway", "voltage": "600"}}, {"type": "way", "id": 206629207, "nodes": [2166647923, 2166647859], "tags": {"bridge": "yes", "electrified": "rail", "frequency": "0", "gauge": "1435", "layer": "2", "name": "O'Hare Branch", "operator": "Chicago Transit Authority", "railway": "subway", "voltage": "600"}}, {"type": "way", "id": 206629208, "nodes": [2166647920, 2075140757, 2166647858], "tags": {"bridge": "yes", "electrified": "rail", "frequency": "0", "gauge": "1435", "layer": "2", "name": "O'Hare Branch", "old_name": "Logan Square Branch", "operator": "Chicago Transit Authority", "railway": "subway", "voltage": "600"}}, {"type": "way", "id": 209403314, "nodes": [2196191472, 2196191866, 2196192241, 2196192520, 2196192517, 2196192238, 2196191717, 2196191472], "tags": {"addr:housenumber": "1865", "addr:street": "North Milwaukee Avenue", "addr:street:name": "Milwaukee", "addr:street:prefix": "North", "addr:street:type": "Avenue", "amenity": "restaurant", "building": "yes", "building:levels": "1", "chicago:building_id": "291593", "cuisine": "costa_rican", "description": "Costa Rican restaurant, BYOB", "name": "Irazu", "opening_hours": "Mo-Sa 11:30-21:30", "phone": "+1 773-252-5687", "website": "http://www.irazuchicago.com/phone/index.html"}}, {"type": "way", "id": 209403393, "nodes": [2196193451, 2196193545, 2196193552, 2196194760, 2196194592, 2196193268, 2196193451], "tags": {"addr:city": "Chicago", "addr:housenumber": "1910", "addr:postcode": "60647", "addr:state": "IL", "addr:street": "North Milwaukee Avenue", "addr:street:name": "Milwaukee", "addr:street:prefix": "North", "addr:street:type": "Avenue", "amenity": "bar", "building": "yes", "building:levels": "2", "chicago:building_id": "843412", "name": "Remedy", "phone": "+1-773-698-7715", "website": "http://remedybarchicago.com/"}}, {"type": "way", "id": 209865119, "nodes": [2200201414, 2200201430, 2200201429, 2200201500, 2200201514, 2200201564, 2200201566, 2200201548, 2200201423, 2200201416, 2200201414], "tags": {"addr:housenumber": "1601", "addr:street": "West North Avenue", "addr:street:name": "North", "addr:street:prefix": "West", "addr:street:type": "Avenue", "amenity": "restaurant", "building": "yes", "chicago:building_id": "305522", "name": "Hollywood Grill"}}, {"type": "way", "id": 209865386, "nodes": [2200202220, 2200202308, 2200203161, 2200203017, 2200202220], "tags": {"addr:city": "Chicago", "addr:housenumber": "1623", "addr:postcode": "60647", "addr:state": "IL", "addr:street": "North Milwaukee Avenue", "addr:street:name": "Milwaukee", "addr:street:prefix": "North", "addr:street:type": "Avenue", "amenity": "restaurant", "building": "yes", "building:levels": "1", "chicago:building_id": "303574", "name": "Pork & Mindy\u2019s", "phone": "+1-773-799-8759", "website": "https://porkandmindys.com/"}}, {"type": "way", "id": 209865630, "nodes": [2200203181, 2200203246, 2200204258, 2200204442, 2200204292, 2200203589, 2200203181], "tags": {"addr:housenumber": "1639", "addr:street": "North Milwaukee Avenue", "addr:street:name": "Milwaukee", "addr:street:prefix": "North", "addr:street:type": "Avenue", "amenity": "restaurant", "brand": "Wingstop", "brand:wikidata": "Q8025339", "brand:wikipedia": "en:Wingstop", "building": "yes", "chicago:building_id": "302761", "cuisine": "wings", "name": "Wingstop"}}, {"type": "way", "id": 209866943, "nodes": [2200219542, 2200219709, 2200219736, 2200219565, 2200219542], "tags": {"addr:city": "Chicago", "addr:housenumber": "1747", "addr:postcode": "60647", "addr:state": "IL", "addr:street": "North Damen Avenue", "addr:street:type": "Avenue", "amenity": "restaurant", "name": "Mindy's Hot Chocolate", "phone": "+1-773-489-1747", "website": "http://www.hotchocolatechicago.com/"}}, {"type": "way", "id": 209867401, "nodes": [2200226517, 2200226949, 2200226977, 2200226541, 2200226517], "tags": {"addr:housenumber": "1846", "addr:street": "North Damen Avenue", "addr:street:name": "Damen", "addr:street:prefix": "North", "addr:street:type": "Avenue", "amenity": "restaurant", "building": "yes", "building:levels": "2", "chicago:building_id": "292431", "cuisine": "ice_cream", "name": "Miko's Italian Ice"}}, {"type": "way", "id": 209867466, "nodes": [2200201646, 2200201934, 2200201938, 2200201648, 2200201646], "tags": {"addr:city": "Chicago", "addr:housenumber": "1856", "addr:postcode": "60622", "addr:street": "West North Avenue", "addr:street:name": "North", "addr:street:prefix": "West", "addr:street:type": "Avenue", "amenity": "restaurant", "building": "yes", "building:levels": "3", "chicago:building_id": "304816", "cuisine": "barbecue", "name": "Lillie's Q", "phone": "773-772-5500", "website": "https://lilliesq.com/"}}, {"type": "way", "id": 209867804, "nodes": [2200230349, 2200231880, 2200232041, 2200232050, 2200230367, 2200230349], "tags": {"addr:city": "Chicago", "addr:housenumber": "1925", "addr:postcode": "60647", "addr:state": "IL", "addr:street": "West Cortland Street", "addr:street:name": "Cortland", "addr:street:prefix": "West", "addr:street:type": "Street", "amenity": "bar", "building": "yes", "building:levels": "1", "chicago:building_id": "290841", "name": "Lottie's Pub", "phone": "+1-773-489-0738", "website": "http://www.lottiespub.com/"}}, {"type": "way", "id": 209868248, "nodes": [2200201023, 2200201093, 2200201390, 2200201393, 2200201025, 2200201023], "tags": {"addr:housenumber": "2013", "addr:street": "West North Avenue", "addr:street:name": "North", "addr:street:prefix": "West", "addr:street:type": "Avenue", "amenity": "bar", "building": "yes", "building:levels": "3", "chicago:building_id": "306183", "name": "Estelle's"}}, {"type": "way", "id": 209868352, "nodes": [2200242724, 2200242950, 2200243001, 2200242734, 2200242724], "tags": {"addr:city": "Chicago", "addr:housenumber": "2020", "addr:postcode": "60647", "addr:state": "IL", "addr:street": "North Leavitt Street", "addr:street:name": "Leavitt", "addr:street:prefix": "North", "addr:street:type": "Street", "amenity": "cafe", "building": "yes", "building:levels": "2", "chicago:building_id": "284167", "name": "Red June", "phone": "+1-773-227-2600", "website": "http://www.redjunecafe.com/"}}, {"type": "way", "id": 375835721, "nodes": [3791781401, 3791781402, 3791781403, 3791781404, 3791781405, 3791781406, 3791781407, 3791781408, 3791781409, 3791781401], "tags": {"amenity": "bar", "building": "yes", "building:levels": "2", "name": "WhirlyBall"}}]}