{"version": 0.6, "generator": "Overpass API 0.7.56.1004 6cd3eaec", "osm3s": {"timestamp_osm_base": "2020-07-09T04:46:02Z", "copyright": "The data included in this document is from www.openstreetmap.org. The data is made available under ODbL."}, "elements": [{"type": "node", "id": 286369226, "lat": 41.9252157, "lon": -87.6590264}, {"type": "node", "id": 286369232, "lat": 41.9236965, "lon": -87.6511635}, {"type": "node", "id": 286369233, "lat": 41.9236653, "lon": -87.6529154}, {"type": "node", "id": 286369234, "lat": 41.9218369, "lon": -87.6536137}, {"type": "node", "id": 286369235, "lat": 41.9218071, "lon": -87.6545905}, {"type": "node", "id": 286369237, "lat": 41.9235769, "lon": -87.6582718}, {"type": "node", "id": 286369306, "lat": 41.9263468, "lon": -87.6529996}, {"type": "node", "id": 286369307, "lat": 41.9253718, "lon": -87.6529784}, {"type": "node", "id": 286369308, "lat": 41.9250203, "lon": -87.6512022}, {"type": "node", "id": 286369309, "lat": 41.9243434, "lon": -87.6511679}, {"type": "node", "id": 286369311, "lat": 41.9236164, "lon": -87.6546637}, {"type": "node", "id": 307890165, "lat": 41.9253504, "lon": -87.6498796}, {"type": "node", "id": 307890172, "lat": 41.9237168, "lon": -87.6497863}, {"type": "node", "id": 308675507, "lat": 41.9244322, "lon": -87.6511724}, {"type": "node", "id": 308677177, "lat": 41.9254401, "lon": -87.6568567, "tags": {"amenity": "restaurant", "cuisine": "burger", "name": "Branko's Submarines"}}, {"type": "node", "id": 346210195, "lat": 41.9291497, "lon": -87.6535647, "tags": {"addr:city": "Chicago", "addr:housenumber": "958", "addr:postcode": "60614", "addr:state": "IL", "addr:street": "West Wrightwood Avenue", "amenity": "restaurant", "brand": "Lou Malnati's Pizzeria", "brand:wikidata": "Q6685628", "brand:wikipedia": "en:Lou Malnati's Pizzeria", "cuisine": "pizza", "name": "Lou Malnati's Pizzeria"}}, {"type": "node", "id": 347162170, "lat": 41.9285367, "lon": -87.6534874, "tags": {"amenity": "cafe", "name": "Savor the Flavor"}}, {"type": "node", "id": 347433848, "lat": 41.9288055, "lon": -87.6584501, "tags": {"amenity": "cafe", "brand": "Starbucks", "brand:wikidata": "Q37158", "brand:wikipedia": "en:Starbucks", "cuisine": "coffee_shop", "name": "Starbucks", "official_name": "Starbucks Coffee", "takeaway": "yes"}}, {"type": "node", "id": 370093716, "lat": 41.9253655, "lon": -87.6489723}, {"type": "node", "id": 370093749, "lat": 41.9237371, "lon": -87.64883}, {"type": "node", "id": 370093752, "lat": 41.9253329, "lon": -87.6488812}, {"type": "node", "id": 416770215, "lat": 41.9243826, "lon": -87.6582994}, {"type": "node", "id": 416770216, "lat": 41.9243744, "lon": -87.6589981}, {"type": "node", "id": 416772583, "lat": 41.9250835, "lon": -87.6603561, "tags": {"amenity": "cafe", "brand": "Starbucks", "brand:wikidata": "Q37158", "brand:wikipedia": "en:Starbucks", "cuisine": "coffee_shop", "name": "Starbucks", "official_name": "Starbucks Coffee", "takeaway": "yes"}}, {"type": "node", "id": 417255771, "lat": 41.925225, "lon": -87.6583375}, {"type": "node", "id": 417255772, "lat": 41.9258596, "lon": -87.6583677}, {"type": "node", "id": 417255773, "lat": 41.9258724, "lon": -87.6576982}, {"type": "node", "id": 417255774, "lat": 41.9252849, "lon": -87.6576725}, {"type": "node", "id": 417255775, "lat": 41.9258658, "lon": -87.6554215}, {"type": "node", "id": 417255776, "lat": 41.9263308, "lon": -87.6545006}, {"type": "node", "id": 452377015, "lat": 41.9241152, "lon": -87.6498508}, {"type": "node", "id": 452377016, "lat": 41.9237193, "lon": -87.6498337}, {"type": "node", "id": 463772253, "lat": 41.9217681, "lon": -87.6585218, "tags": {"addr:city": "Chicago", "addr:housenumber": "1200", "addr:postcode": "60614", "addr:state": "IL", "addr:street": "West Webster Avenue", "amenity": "restaurant", "cuisine": "mexican", "name": "Old Pueblo Cantina", "phone": "+1-773-697-3727", "website": "http://oldpueblochicago.com/"}}, {"type": "node", "id": 463772258, "lat": 41.9215701, "lon": -87.6568052, "tags": {"amenity": "restaurant", "name": "La Canasta Grill"}}, {"type": "node", "id": 463772264, "lat": 41.9217238, "lon": -87.6647779, "tags": {"addr:city": "Chicago", "addr:housenumber": "2200", "addr:postcode": "60614", "addr:state": "IL", "addr:street": "North Clybourn Avenue", "amenity": "cafe", "cuisine": "coffee_shop;american", "name": "CornerStone Cafe", "phone": "+1-773-270-4343", "website": "https://www.cornerstonecafechicago.com/"}}, {"type": "node", "id": 463772319, "lat": 41.9251017, "lon": -87.6593544, "tags": {"amenity": "restaurant", "name": "Duck Walk"}}, {"type": "node", "id": 477087119, "lat": 41.9251337, "lon": -87.6631281, "tags": {"amenity": "bar", "name": "Faith and Whiskey"}}, {"type": "node", "id": 477087140, "lat": 41.9233904, "lon": -87.6460993, "tags": {"addr:city": "Chicago", "addr:housenumber": "2274", "addr:postcode": "60614", "addr:state": "IL", "addr:street": "North Lincoln Avenue", "amenity": "bar", "name": "Halligan Bar", "phone": "+1-773-472-7940", "website": "https://halliganbarchicago.com/"}}, {"type": "node", "id": 477087270, "lat": 41.9216452, "lon": -87.6529693, "tags": {"addr:city": "Chicago", "addr:housenumber": "949", "addr:postcode": "60614", "addr:state": "IL", "addr:street": "West Webster Avenue", "amenity": "bar", "name": "Kelly's Pub", "opening_hours": "Su-Fr 11:00-02:00; Sa 11:00-03:00", "phone": "+1-773-281-0656", "website": "http://www.kellyspub.com"}}, {"type": "node", "id": 477087276, "lat": 41.9216551, "lon": -87.6525244, "tags": {"addr:city": "Chicago", "addr:housenumber": "935", "addr:postcode": "60614", "addr:state": "IL", "addr:street": "West Webster Avenue", "amenity": "restaurant", "cuisine": "american", "name": "State Restaurant", "opening_hours": "Mo-Th 16:00-00:00; Fr 11:00-02:00; Sa 11:00-03:00; Su 11:00-00:00", "phone": "+1-773-975-8030", "website": "http://www.state-chicago.com"}}, {"type": "node", "id": 477087310, "lat": 41.9216973, "lon": -87.6488467, "tags": {"addr:city": "Chicago", "addr:housenumber": "2158", "addr:postcode": "60614", "addr:state": "IL", "addr:street": "North Halsted Street", "amenity": "bar", "name": "Glasscott's", "phone": "+1-773-281-1205", "website": "http://www.glascotts.com/"}}, {"type": "node", "id": 1710876951, "lat": 41.9286198, "lon": -87.6535883}, {"type": "node", "id": 1710876952, "lat": 41.928635, "lon": -87.6533929}, {"type": "node", "id": 1710876953, "lat": 41.9287461, "lon": -87.6535901}, {"type": "node", "id": 1710876954, "lat": 41.9287621, "lon": -87.6535758}, {"type": "node", "id": 1983543632, "lat": 41.924302, "lon": -87.649851}, {"type": "node", "id": 1983549241, "lat": 41.9222116, "lon": -87.6528996}, {"type": "node", "id": 1983549242, "lat": 41.9222019, "lon": -87.6536129}, {"type": "node", "id": 2167184271, "lat": 41.9278273, "lon": -87.6636143, "tags": {"addr:city": "Chicago", "addr:housenumber": "2524", "addr:postcode": "60614", "addr:street": "North Southport Avenue", "amenity": "restaurant", "name": "The Monkey's Paw", "smoking": "no"}}, {"type": "node", "id": 2200342512, "lat": 41.9248385, "lon": -87.6640738}, {"type": "node", "id": 2200342513, "lat": 41.9248405, "lon": -87.6639918}, {"type": "node", "id": 2200342626, "lat": 41.9248526, "lon": -87.6641558}, {"type": "node", "id": 2200342628, "lat": 41.9248537, "lon": -87.6640849}, {"type": "node", "id": 2200342663, "lat": 41.9250315, "lon": -87.6640901}, {"type": "node", "id": 2200342664, "lat": 41.9250329, "lon": -87.6640901}, {"type": "node", "id": 2200342676, "lat": 41.9250497, "lon": -87.6641561}, {"type": "node", "id": 2200342678, "lat": 41.9250498, "lon": -87.664169}, {"type": "node", "id": 2200342680, "lat": 41.9251254, "lon": -87.6640834}, {"type": "node", "id": 2200342682, "lat": 41.9251254, "lon": -87.6639971}, {"type": "node", "id": 2200342730, "lat": 41.9251129, "lon": -87.664172}, {"type": "node", "id": 2200342732, "lat": 41.9251152, "lon": -87.6640948}, {"type": "node", "id": 2200343250, "lat": 41.9257322, "lon": -87.668746}, {"type": "node", "id": 2200343251, "lat": 41.925733, "lon": -87.6686339}, {"type": "node", "id": 2200343272, "lat": 41.9257412, "lon": -87.6686338}, {"type": "node", "id": 2200343276, "lat": 41.925745, "lon": -87.6683509}, {"type": "node", "id": 2200343368, "lat": 41.9257995, "lon": -87.668749}, {"type": "node", "id": 2200343378, "lat": 41.925804, "lon": -87.6683521}, {"type": "node", "id": 2200344091, "lat": 41.9260067, "lon": -87.6687597}, {"type": "node", "id": 2200344094, "lat": 41.9260088, "lon": -87.6686403}, {"type": "node", "id": 2200344103, "lat": 41.9260117, "lon": -87.6684344}, {"type": "node", "id": 2200344106, "lat": 41.9260127, "lon": -87.6683609}, {"type": "node", "id": 2200344121, "lat": 41.9260156, "lon": -87.6686402}, {"type": "node", "id": 2200344140, "lat": 41.9260186, "lon": -87.6684344}, {"type": "node", "id": 2200344284, "lat": 41.9260712, "lon": -87.6687609}, {"type": "node", "id": 2200344309, "lat": 41.9260772, "lon": -87.6683621}, {"type": "node", "id": 2200366030, "lat": 41.9329518, "lon": -87.6641628}, {"type": "node", "id": 2200366044, "lat": 41.9329587, "lon": -87.6637242}, {"type": "node", "id": 2200366395, "lat": 41.933012, "lon": -87.6641645}, {"type": "node", "id": 2200366402, "lat": 41.933019, "lon": -87.663726}, {"type": "node", "id": 2200369775, "lat": 41.9343189, "lon": -87.6682783}, {"type": "node", "id": 2200369788, "lat": 41.934323, "lon": -87.6680339}, {"type": "node", "id": 2200369846, "lat": 41.9343503, "lon": -87.6680042}, {"type": "node", "id": 2200369850, "lat": 41.9343505, "lon": -87.6680354}, {"type": "node", "id": 2200370017, "lat": 41.9343903, "lon": -87.6682813}, {"type": "node", "id": 2200370036, "lat": 41.9343942, "lon": -87.6680056}, {"type": "node", "id": 2204016078, "lat": 41.9178169, "lon": -87.6542708}, {"type": "node", "id": 2204016082, "lat": 41.9178192, "lon": -87.6541936}, {"type": "node", "id": 2204016642, "lat": 41.9180035, "lon": -87.6542761}, {"type": "node", "id": 2204016644, "lat": 41.9180045, "lon": -87.6542008}, {"type": "node", "id": 2204016973, "lat": 41.9181518, "lon": -87.6559206}, {"type": "node", "id": 2204016974, "lat": 41.9181519, "lon": -87.6559335}, {"type": "node", "id": 2204017003, "lat": 41.91816, "lon": -87.6559095}, {"type": "node", "id": 2204017008, "lat": 41.9181602, "lon": -87.6559481}, {"type": "node", "id": 2204017011, "lat": 41.9181606, "lon": -87.6560087}, {"type": "node", "id": 2204017058, "lat": 41.9181737, "lon": -87.6559112}, {"type": "node", "id": 2204017086, "lat": 41.9181806, "lon": -87.6559185}, {"type": "node", "id": 2204017354, "lat": 41.9183154, "lon": -87.6560137}, {"type": "node", "id": 2204017355, "lat": 41.9183165, "lon": -87.6559262}, {"type": "node", "id": 2204017997, "lat": 41.918528, "lon": -87.6490047}, {"type": "node", "id": 2204018017, "lat": 41.9185342, "lon": -87.6486592}, {"type": "node", "id": 2204018019, "lat": 41.9185354, "lon": -87.648647}, {"type": "node", "id": 2204018237, "lat": 41.9185966, "lon": -87.6490156}, {"type": "node", "id": 2204018278, "lat": 41.9186054, "lon": -87.6486499}, {"type": "node", "id": 2204024213, "lat": 41.9200758, "lon": -87.6491571}, {"type": "node", "id": 2204024246, "lat": 41.9200822, "lon": -87.6487242}, {"type": "node", "id": 2204024332, "lat": 41.9201013, "lon": -87.6486982}, {"type": "node", "id": 2204024436, "lat": 41.9201452, "lon": -87.6491589}, {"type": "node", "id": 2204024451, "lat": 41.9201521, "lon": -87.6486996}, {"type": "node", "id": 2204034445, "lat": 41.9230531, "lon": -87.6459254}, {"type": "node", "id": 2204034519, "lat": 41.9230715, "lon": -87.6459558}, {"type": "node", "id": 2204034575, "lat": 41.9230861, "lon": -87.6459754}, {"type": "node", "id": 2204034779, "lat": 41.9231343, "lon": -87.6458217}, {"type": "node", "id": 2204034784, "lat": 41.9231356, "lon": -87.6458033}, {"type": "node", "id": 2204035015, "lat": 41.9232155, "lon": -87.6458109}, {"type": "node", "id": 2204035410, "lat": 41.9233282, "lon": -87.6456194}, {"type": "node", "id": 2204035573, "lat": 41.9233681, "lon": -87.645674}, {"type": "node", "id": 2204035943, "lat": 41.9234782, "lon": -87.6455002}, {"type": "node", "id": 2204036024, "lat": 41.9234865, "lon": -87.6455203}, {"type": "node", "id": 2204036056, "lat": 41.9234904, "lon": -87.6454853}, {"type": "node", "id": 2204036147, "lat": 41.9235015, "lon": -87.6454999}, {"type": "node", "id": 2204036210, "lat": 41.9235131, "lon": -87.6453767}, {"type": "node", "id": 2204036347, "lat": 41.9235532, "lon": -87.6454314}, {"type": "node", "id": 2204044941, "lat": 41.9255989, "lon": -87.6479266}, {"type": "node", "id": 2204044944, "lat": 41.9256, "lon": -87.6478825}, {"type": "node", "id": 2204044971, "lat": 41.9256247, "lon": -87.6478859}, {"type": "node", "id": 2204044972, "lat": 41.9256249, "lon": -87.6478796}, {"type": "node", "id": 2204045107, "lat": 41.9257046, "lon": -87.6479365}, {"type": "node", "id": 2204045130, "lat": 41.9257114, "lon": -87.6479272}, {"type": "node", "id": 2204045252, "lat": 41.9257553, "lon": -87.6479267}, {"type": "node", "id": 2204045265, "lat": 41.9257595, "lon": -87.6479377}, {"type": "node", "id": 2204045344, "lat": 41.9257855, "lon": -87.6479319}, {"type": "node", "id": 2204045352, "lat": 41.9257874, "lon": -87.6478827}, {"type": "node", "id": 2204045359, "lat": 41.9257887, "lon": -87.6498519}, {"type": "node", "id": 2204045454, "lat": 41.9258178, "lon": -87.6498939}, {"type": "node", "id": 2204045543, "lat": 41.9258482, "lon": -87.6499358}, {"type": "node", "id": 2204045627, "lat": 41.9258787, "lon": -87.6499796}, {"type": "node", "id": 2204045854, "lat": 41.9259521, "lon": -87.6496462}, {"type": "node", "id": 2204046188, "lat": 41.9260421, "lon": -87.649772}, {"type": "node", "id": 2204048654, "lat": 41.9268133, "lon": -87.6486915}, {"type": "node", "id": 2204048686, "lat": 41.9268205, "lon": -87.648437}, {"type": "node", "id": 2204048959, "lat": 41.9268779, "lon": -87.6486948}, {"type": "node", "id": 2204048983, "lat": 41.9268851, "lon": -87.6484403}, {"type": "node", "id": 2204054829, "lat": 41.9286645, "lon": -87.649427}, {"type": "node", "id": 2204054879, "lat": 41.9286698, "lon": -87.6489879}, {"type": "node", "id": 2204055130, "lat": 41.9287302, "lon": -87.6494285}, {"type": "node", "id": 2204055146, "lat": 41.9287355, "lon": -87.6489894}, {"type": "node", "id": 2204055723, "lat": 41.9289325, "lon": -87.6492998}, {"type": "node", "id": 2204055739, "lat": 41.9289362, "lon": -87.6489973}, {"type": "node", "id": 2204055852, "lat": 41.9289907, "lon": -87.6493014}, {"type": "node", "id": 2204055884, "lat": 41.9289944, "lon": -87.6489982}, {"type": "node", "id": 2204056515, "lat": 41.929182, "lon": -87.6475271}, {"type": "node", "id": 2204056518, "lat": 41.929182, "lon": -87.6474538}, {"type": "node", "id": 2204056556, "lat": 41.9291994, "lon": -87.6475478}, {"type": "node", "id": 2204057197, "lat": 41.9294237, "lon": -87.6475534}, {"type": "node", "id": 2204057201, "lat": 41.9294238, "lon": -87.6474613}, {"type": "node", "id": 2204064432, "lat": 41.9316382, "lon": -87.6572443}, {"type": "node", "id": 2204065117, "lat": 41.9318316, "lon": -87.6575142}, {"type": "node", "id": 2204065252, "lat": 41.9318735, "lon": -87.6569401}, {"type": "node", "id": 2204065299, "lat": 41.9318836, "lon": -87.6575026}, {"type": "node", "id": 2204065421, "lat": 41.9319279, "lon": -87.6575646}, {"type": "node", "id": 2204065568, "lat": 41.9319693, "lon": -87.6571342}, {"type": "node", "id": 2204065575, "lat": 41.9319735, "lon": -87.6573878}, {"type": "node", "id": 2204065617, "lat": 41.9319887, "lon": -87.6574096}, {"type": "node", "id": 2204065625, "lat": 41.9319924, "lon": -87.6571064}, {"type": "node", "id": 2204065636, "lat": 41.9319983, "lon": -87.6571725}, {"type": "node", "id": 2204065661, "lat": 41.9320051, "lon": -87.6571632}, {"type": "node", "id": 2204065675, "lat": 41.9320078, "lon": -87.6573856}, {"type": "node", "id": 2204065782, "lat": 41.9320369, "lon": -87.6574257}, {"type": "node", "id": 2204065833, "lat": 41.9320536, "lon": -87.6572307}, {"type": "node", "id": 2204071494, "lat": 41.9330306, "lon": -87.649374}, {"type": "node", "id": 2204071505, "lat": 41.9330372, "lon": -87.6491428}, {"type": "node", "id": 2204071515, "lat": 41.9330402, "lon": -87.6493757}, {"type": "node", "id": 2204071519, "lat": 41.9330404, "lon": -87.6494015}, {"type": "node", "id": 2204071681, "lat": 41.9330994, "lon": -87.6494027}, {"type": "node", "id": 2204071685, "lat": 41.9331017, "lon": -87.649331}, {"type": "node", "id": 2204071732, "lat": 41.9331157, "lon": -87.6493694}, {"type": "node", "id": 2204071737, "lat": 41.9331168, "lon": -87.6493308}, {"type": "node", "id": 2204071865, "lat": 41.9331472, "lon": -87.6493709}, {"type": "node", "id": 2204071867, "lat": 41.9331483, "lon": -87.6493158}, {"type": "node", "id": 2204071872, "lat": 41.9331519, "lon": -87.6492276}, {"type": "node", "id": 2204071875, "lat": 41.933153, "lon": -87.6491945}, {"type": "node", "id": 2204071893, "lat": 41.9331661, "lon": -87.6493174}, {"type": "node", "id": 2204071900, "lat": 41.9331683, "lon": -87.6492292}, {"type": "node", "id": 2204071907, "lat": 41.9331692, "lon": -87.6491484}, {"type": "node", "id": 2204071908, "lat": 41.9331692, "lon": -87.649152}, {"type": "node", "id": 2204071910, "lat": 41.9331695, "lon": -87.6491961}, {"type": "node", "id": 2262371979, "lat": 41.9277431, "lon": -87.6486926, "tags": {"addr:city": "Chicago", "addr:housenumber": "2519", "addr:postcode": "60614", "addr:state": "IL", "addr:street": "North Halsted Street", "amenity": "bar", "name": "B.L.U.E.S.", "phone": "+1-773-528-1012", "website": "http://www.chicagobluesbar.com"}}, {"type": "node", "id": 2348349944, "lat": 41.9237168, "lon": -87.6496983, "tags": {"barrier": "gate"}}, {"type": "node", "id": 2361072397, "lat": 41.9307707, "lon": -87.655881, "tags": {"addr:housenumber": "2679", "addr:street": "North Lincoln Avenue", "amenity": "restaurant", "cuisine": "pizza", "name": "Pat's Pizzeria"}}, {"type": "node", "id": 2458410440, "lat": 41.9251354, "lon": -87.6590281}, {"type": "node", "id": 2607221651, "lat": 41.9235545, "lon": -87.6458622, "tags": {"amenity": "cafe", "brand": "Starbucks", "brand:wikidata": "Q37158", "brand:wikipedia": "en:Starbucks", "cuisine": "coffee_shop", "name": "Starbucks", "official_name": "Starbucks Coffee", "takeaway": "yes"}}, {"type": "node", "id": 2607221928, "lat": 41.923172, "lon": -87.6457498}, {"type": "node", "id": 2623896621, "lat": 41.9179369, "lon": -87.6483425, "tags": {"addr:city": "Chicago", "addr:housenumber": "1969", "addr:postcode": "60614", "addr:street": "North Halsted Street", "amenity": "restaurant", "cuisine": "Taqueria/Cantina", "name": "Taco Joint", "phone": "+1-312-951-2457", "website": "https://www.tacojoint.com/"}}, {"type": "node", "id": 2623896633, "lat": 41.917875, "lon": -87.648321, "tags": {"addr:city": "Chicago", "addr:housenumber": "1967", "addr:postcode": "60614", "addr:street": "North Halsted Street", "amenity": "restaurant", "name": "Rustic House"}}, {"type": "node", "id": 2623896642, "lat": 41.9179319, "lon": -87.6486675, "tags": {"addr:city": "Chicago", "addr:housenumber": "1966", "addr:postcode": "60614", "addr:state": "IL", "addr:street": "North Halsted Street", "amenity": "restaurant", "name": "Pasta Palazzo", "phone": "+1-773-248-1400", "takeaway": "yes", "website": "http://pastapalazzo.com/"}}, {"type": "node", "id": 2624050319, "lat": 41.9180677, "lon": -87.6483402, "tags": {"addr:city": "Chicago", "addr:housenumber": "1973", "addr:postcode": "60614", "addr:state": "IL", "addr:street": "North Halsted Street", "amenity": "bar", "name": "Marquee Lounge"}}, {"type": "node", "id": 2624050324, "lat": 41.9177852, "lon": -87.6486715, "tags": {"addr:city": "Chicago", "addr:housenumber": "1962", "addr:postcode": "60614", "addr:street": "North Halsted Street", "amenity": "restaurant", "name": "Coppervine"}}, {"type": "node", "id": 2624050329, "lat": 41.9180886, "lon": -87.6471654, "tags": {"addr:city": "Chicago", "addr:housenumber": "732", "addr:postcode": "60614", "addr:street": "West Armitage Avenue", "amenity": "restaurant", "cuisine": "fast_food", "name": "Brothers Beef"}}, {"type": "node", "id": 2946757911, "lat": 41.9328768, "lon": -87.647886, "tags": {"addr:housenumber": "730", "addr:street": "West Diversey Parkway", "amenity": "restaurant", "cuisine": "japanese", "name": "Sakura", "opening_hours": "Mo-Su 11:30-22:30"}}, {"type": "node", "id": 2951767683, "lat": 41.9284346, "lon": -87.653186, "tags": {"addr:city": "Chicago", "addr:housenumber": "2566", "addr:postcode": "60614", "addr:state": "IL", "addr:street": "North Lincoln Avenue", "amenity": "bar", "cuisine": "german", "name": "Prost", "phone": "+1-773-880-9900", "website": "https://www.prostchi.com/"}}, {"type": "node", "id": 2968230657, "lat": 41.9277243, "lon": -87.6516908, "tags": {"addr:city": "Chicago", "addr:housenumber": "2519", "addr:postcode": "60614", "addr:street": "North Lincoln Avenue", "amenity": "bar", "name": "Irish Eyes"}}, {"type": "node", "id": 2968844771, "lat": 41.9189763, "lon": -87.6487203, "tags": {"addr:city": "Chicago", "addr:housenumber": "2024", "addr:postcode": "60614", "addr:state": "IL", "addr:street": "North Halsted Street", "amenity": "restaurant", "name": "Cafe Ba-Ba-Reeba!", "phone": "+1-773-935-5000", "website": "http://cafebabareeba.com/"}}, {"type": "node", "id": 3269064603, "lat": 41.9181092, "lon": -87.6465719, "tags": {"amenity": "restaurant", "cuisine": "pizza", "name": "Armitage Pizza", "takeaway": "yes"}}, {"type": "node", "id": 3518291652, "lat": 41.9324546, "lon": -87.6459114, "tags": {"addr:city": "Chicago", "addr:housenumber": "659", "addr:postcode": "60614", "addr:state": "IL", "addr:street": "West Diversey Parkway", "amenity": "cafe", "name": "Next Door Cafe", "opening_hours": "Mo-Su 07:00-22:00", "phone": "+1-773-472-3667", "website": "https://www.nextdoorchicago.com"}}, {"type": "node", "id": 3518312182, "lat": 41.9353036, "lon": -87.6471628, "tags": {"addr:city": "Chicago", "addr:housenumber": "2914", "addr:postcode": "60657", "addr:state": "IL", "addr:street": "North Clark Street", "amenity": "restaurant", "cuisine": "mexican", "delivery": "yes", "name": "El Nuevo Mexicano", "opening_hours": "Mo-Su 11:30-22:00; Fr-Sa 11:30-23:30", "outdoor_seating": "yes", "phone": "+1-773-528 2131", "takeaway": "yes", "website": "https://www.elnuevomexicano.net/"}}, {"type": "node", "id": 3617756790, "lat": 41.921758, "lon": -87.6643563, "tags": {"amenity": "bar", "name": "The Drinkingbird"}}, {"type": "node", "id": 3660922643, "lat": 41.9252887, "lon": -87.6678214, "tags": {"amenity": "cafe", "name": "Nada Tea & Coffee"}}, {"type": "node", "id": 3841977063, "lat": 41.9218198, "lon": -87.6541736}, {"type": "node", "id": 3883912233, "lat": 41.9219437, "lon": -87.664624, "tags": {"amenity": "restaurant", "cuisine": "italian", "name": "Filippos Ristorante"}}, {"type": "node", "id": 3883912234, "lat": 41.9217988, "lon": -87.6644169, "tags": {"amenity": "restaurant", "cuisine": "thai", "name": "Rice Cafe"}}, {"type": "node", "id": 4045036123, "lat": 41.9233231, "lon": -87.6455687, "tags": {"addr:city": "Chicago", "addr:housenumber": "2265", "addr:postcode": "60614", "addr:state": "IL", "addr:street": "North Lincoln Avenue", "amenity": "bar", "name": "Kelsey's", "phone": "+1-773-348-1666", "website": "http://kelseysbar.com/"}}, {"type": "node", "id": 4045036124, "lat": 41.9232814, "lon": -87.6454858, "tags": {"addr:city": "Chicago", "addr:housenumber": "2263", "addr:postcode": "60614", "addr:state": "IL", "addr:street": "North Lincoln Avenue", "amenity": "bar", "name": "Lincoln Avenue Social", "phone": "+1-773-348-7200", "website": "https://lincolnavenuesocial.com/"}}, {"type": "node", "id": 4053862155, "lat": 41.929524, "lon": -87.6491944, "tags": {"addr:city": "Chicago", "addr:housenumber": "2610", "addr:postcode": "60614", "addr:state": "IL", "addr:street": "North Halsted Street", "amenity": "bar", "name": "The Wild Hare", "opening_hours": "18:00-02:00", "smoking": "no"}}, {"type": "node", "id": 4194646390, "lat": 41.9267147, "lon": -87.6485845, "tags": {"amenity": "restaurant", "cuisine": "thai", "name": "Paulas Thai Kitchen"}}, {"type": "node", "id": 4196262789, "lat": 41.9216939, "lon": -87.649093, "tags": {"addr:city": "Chicago", "addr:housenumber": "807", "addr:state": "IL", "addr:street": "West Webster Avenue", "amenity": "restaurant", "name": "Athenian Room", "phone": "+1-773-348-5155"}}, {"type": "node", "id": 4196262792, "lat": 41.9248791, "lon": -87.6482362, "tags": {"addr:city": "Chicago", "addr:housenumber": "2360", "addr:postcode": "60614", "addr:state": "IL", "addr:street": "North Lincoln Avenue", "amenity": "restaurant", "name": "La Crosta Woodfire Pizzeria Italiana", "phone": "+1-773-649-1000", "website": "http://lacrostachicago.com/"}}, {"type": "node", "id": 4196262795, "lat": 41.9219393, "lon": -87.6488352, "tags": {"amenity": "cafe", "brand": "Starbucks", "brand:wikidata": "Q37158", "brand:wikipedia": "en:Starbucks", "cuisine": "coffee_shop", "name": "Starbucks", "official_name": "Starbucks Coffee", "takeaway": "yes"}}, {"type": "node", "id": 4196262797, "lat": 41.9257387, "lon": -87.6494036, "tags": {"amenity": "restaurant", "cuisine": "thai", "name": "Thai Bowl"}}, {"type": "node", "id": 4196262798, "lat": 41.9219534, "lon": -87.648107, "tags": {"addr:city": "Chicago", "addr:housenumber": "746", "addr:postcode": "60614", "addr:state": "IL", "addr:street": "West Webster Avenue", "amenity": "restaurant", "name": "Toast", "phone": "+1-773-935-5600", "website": "http://chicago-toast.com/"}}, {"type": "node", "id": 4372831552, "lat": 41.9239848, "lon": -87.6469762, "tags": {"addr:city": "Chicago", "addr:country": "US", "addr:housenumber": "2312", "addr:postcode": "60614", "addr:state": "IL", "addr:street": "North Lincoln Avenue", "amenity": "restaurant", "cuisine": "international", "name": "Rickshaw Republic", "phone": "+1-773-697-4750", "website": "http://rickshawrepublic.com/", "wheelchair": "no"}}, {"type": "node", "id": 4460783569, "lat": 41.921899, "lon": -87.6524732, "tags": {"addr:city": "Chicago", "addr:country": "US", "addr:housenumber": "938", "addr:postcode": "60614", "addr:state": "IL", "addr:street": "West Webster Avenue", "amenity": "restaurant", "cuisine": "pizza", "name": "Homeslice", "opening_hours": "Mo-We 11:30-22:30; Th 11:30-23:00; Fr 11:30-00:00; Sa 10:30-00:00; Su 10:30-22:30", "phone": "+1-312-789-4600", "website": "http://www.getsomehomie.com"}}, {"type": "node", "id": 4497342599, "lat": 41.925567, "lon": -87.6497422, "tags": {"amenity": "cafe", "name": "Bee & Tea"}}, {"type": "node", "id": 4499383937, "lat": 41.923718, "lon": -87.649649, "tags": {"barrier": "gate"}}, {"type": "node", "id": 4499383938, "lat": 41.9237203, "lon": -87.6495479}, {"type": "node", "id": 4692788467, "lat": 41.9347553, "lon": -87.6537697, "tags": {"addr:city": "Chicago", "addr:housenumber": "2909", "addr:postcode": "60657", "addr:street": "North Sheffield Avenue", "amenity": "restaurant", "cuisine": "bar&grill", "name": "The River Kitchen and Bar", "opening_hours": "Mo-Fr 17:00-02:00; Sa 11:00-03:00; Su 11:00-02:00", "phone": "+1 773 935 7500", "website": "https://www.theriverchicago.com"}}, {"type": "node", "id": 4725308204, "lat": 41.9262623, "lon": -87.6501206, "tags": {"addr:city": "Chicago", "addr:housenumber": "2438", "addr:postcode": "60614", "addr:state": "IL", "addr:street": "North Lincoln Avenue", "amenity": "restaurant", "cuisine": "regional", "name": "Millie's Supper Club", "outdoor_seating": "no", "smoking": "no", "website": "http://www.millieschicago.com"}}, {"type": "node", "id": 4726227996, "lat": 41.9327716, "lon": -87.6535024, "tags": {"addr:housenumber": "954", "addr:street": "West Diversey Parkway", "amenity": "restaurant", "name": "Nori Sushi Lincoln Park", "opening_hours": "Mo-Su 11:00-16:00, 17:00-22:00"}}, {"type": "node", "id": 5161413725, "lat": 41.9354732, "lon": -87.6541061, "tags": {"addr:city": "Chicago", "addr:housenumber": "2934", "addr:postcode": "60657", "addr:state": "IL", "addr:street": "North Sheffield Avenue", "amenity": "restaurant", "cuisine": "american;pub", "name": "Kirkwood Bar & Grill", "opening_hours": "Mo-Fr 17:00-02:00; Sa 11:00-03:00; Su 11:00-02:00", "phone": "+1-773-770-0700", "website": "https://kirkwoodbar.com/"}}, {"type": "node", "id": 5161413726, "lat": 41.9346785, "lon": -87.6537664, "tags": {"addr:city": "Chicago", "addr:housenumber": "2901", "addr:postcode": "60657", "addr:state": "IL", "addr:street": "North Sheffield Avenue", "amenity": "restaurant", "cuisine": "mexican", "name": "Barcocina", "opening_hours": "Mo-Th 17:00-00:00; Fr 17:00-02:00; Sa 11:00-03:00; Su 11:00-00:00", "outdoor_seating": "yes", "phone": "+1-773-687-9949", "website": "https://barcocinachicago.com"}}, {"type": "node", "id": 5161413727, "lat": 41.934997, "lon": -87.6538, "tags": {"addr:city": "Chicago", "addr:housenumber": "2917", "addr:postcode": "60657", "addr:state": "IL", "addr:street": "North Sheffield Avenue", "amenity": "bar", "name": "Vaughan\u2019s Pub - Lakeview", "phone": "+1-773-281-8188", "website": "https://vaughanhospitality.com/"}}, {"type": "node", "id": 5161413729, "lat": 41.9327759, "lon": -87.6533288, "tags": {"amenity": "restaurant", "name": "Andy's Thai Kitchen"}}, {"type": "node", "id": 5225519836, "lat": 41.9285968, "lon": -87.6534387}, {"type": "node", "id": 5225519837, "lat": 41.9286614, "lon": -87.6535329}, {"type": "node", "id": 5393821521, "lat": 41.9286066, "lon": -87.6485213, "tags": {"addr:city": "Chicago", "addr:housenumber": "2545", "addr:postcode": "60614", "addr:state": "IL", "addr:street": "North Halsted Street", "amenity": "restaurant", "cuisine": "chinese", "email": "cdir.chicago@gmail.com", "name": "Chengdu Impression", "opening_hours": "Mo-Su 16:00-22:00", "phone": "+1-(773)477-6256", "website": "https://www.chengduimpression.com/"}}, {"type": "node", "id": 5460822466, "lat": 41.9351065, "lon": -87.6465617, "tags": {"addr:city": "Chicago", "addr:housenumber": "2909", "addr:postcode": "60657", "addr:state": "IL", "addr:street": "North Clark Street", "amenity": "restaurant", "name": "The Gundis", "opening_hours": "Mo 09:00-21:00; We-Th 09:00-21:00; Fr-Sa 09:00-22:00; Su 09:00-20:00", "phone": "+1-773-904-8120", "website": "http://thegundis.com/"}}, {"type": "node", "id": 5652012632, "lat": 41.9327782, "lon": -87.6533762, "tags": {"amenity": "restaurant", "name": "Penny's Noodle Shop"}}, {"type": "node", "id": 5652012634, "lat": 41.932768, "lon": -87.6541252, "tags": {"amenity": "cafe", "brand": "Starbucks", "brand:wikidata": "Q37158", "brand:wikipedia": "en:Starbucks", "cuisine": "coffee_shop", "name": "Starbucks", "official_name": "Starbucks Coffee", "takeaway": "yes"}}, {"type": "node", "id": 5652012636, "lat": 41.9327302, "lon": -87.6550447, "tags": {"addr:city": "Chicago", "addr:housenumber": "1028", "addr:postcode": "60614", "addr:state": "IL", "addr:street": "West Diversey Parkway", "amenity": "bar", "name": "Paddy Long\u2019s", "phone": "+1-773-290-6988", "website": "https://www.paddylongs.com/"}}, {"type": "node", "id": 5652012639, "lat": 41.9333106, "lon": -87.6537045, "tags": {"addr:city": "Chicago", "addr:housenumber": "2825", "addr:postcode": "60657", "addr:state": "IL", "addr:street": "North Sheffield Avenue", "amenity": "cafe", "name": "Zizi's Cafe", "phone": "+1-773-697-9228", "website": "http://www.ziziscafechicago.com/"}}, {"type": "node", "id": 5689237336, "lat": 41.9328066, "lon": -87.6593929, "tags": {"addr:housenumber": "2812", "addr:street": "North Lincoln Avenue", "amenity": "bar", "name": "Beermiscuous", "phone": "+1-773-698-6824", "website": "https://beermiscuous.com/"}}, {"type": "node", "id": 5872612136, "lat": 41.9317127, "lon": -87.6487652, "tags": {"addr:city": "Chicago", "addr:housenumber": "2703", "addr:postcode": "60614", "addr:state": "IL", "addr:street": "North Halsted Street", "amenity": "restaurant", "cuisine": "mexican", "name": "The Mayan Palace", "opening_hours": "Su-Mo 11:00-22:00; Tu-Sa 11:00-23:00", "phone": "+1-773-935-4200", "website": "https://www.themayanpalacechicago.com/"}}, {"type": "node", "id": 6018664585, "lat": 41.9274485, "lon": -87.6513724, "tags": {"amenity": "restaurant", "name": "Ringo Japanese Restaurant", "opening_hours": "Mo,Fr,Sa 16:00-22:30", "phone": "+1-773-248-5788", "short_name": "Ringo Sushi", "website": "http://www.ringosushi.com/"}}, {"type": "node", "id": 6152474394, "lat": 41.9253198, "lon": -87.6554087}, {"type": "node", "id": 6152474396, "lat": 41.9258876, "lon": -87.6544944}, {"type": "node", "id": 6152474397, "lat": 41.9253782, "lon": -87.6523958}, {"type": "node", "id": 6152474398, "lat": 41.9249999, "lon": -87.6523833}, {"type": "node", "id": 6198363142, "lat": 41.9204702, "lon": -87.6487784, "tags": {"addr:city": "Chicago", "addr:housenumber": "2114", "addr:postcode": "60614", "addr:state": "IL", "addr:street": "North Halsted Street", "amenity": "restaurant", "cuisine": "breakfast, american", "name": "Nookies, too", "opening_hours": "Su-Sa 07:00-15:30", "phone": "+1-773-327-1400", "website": "http://www.nookieschicago.com/too_menu.php"}}, {"type": "node", "id": 6238609220, "lat": 41.9354147, "lon": -87.6467863, "tags": {"addr:city": "Chicago", "addr:housenumber": "2921", "addr:postcode": "60657", "addr:state": "IL", "addr:street": "North Clark Street", "amenity": "restaurant", "cuisine": "sandwich", "name": "ChiTown Sandwich Club", "opening_hours": "Mo,Th,Fr 10:00-16:00; Sa,Su 09:00-16:00", "outdoor_seating": "yes", "phone": "+1-773-697-2371", "website": "https://chitownsandwichclub.com/"}}, {"type": "node", "id": 6261035288, "lat": 41.9314578, "lon": -87.6487892, "tags": {"addr:city": "Chicago", "addr:housenumber": "2683", "addr:postcode": "60614", "addr:state": "IL", "addr:street": "North Halsted Street", "amenity": "bar", "name": "aliveOne", "phone": "+1-773-348-9800", "website": "http://aliveone.com/"}}, {"type": "node", "id": 6261040049, "lat": 41.9252287, "lon": -87.6533693, "tags": {"addr:city": "Chicago", "addr:housenumber": "959", "addr:postcode": "60614", "addr:state": "IL", "addr:street": "West Fullerton Avenue", "amenity": "cafe", "name": "Allegro Coffee", "phone": "+1-773-868-5200"}}, {"type": "node", "id": 6263526427, "lat": 41.9286414, "lon": -87.6623901, "tags": {"addr:city": "Chicago", "addr:housenumber": "1335", "addr:postcode": "60614", "addr:state": "IL", "addr:street": "West Wrightwood Avenue", "amenity": "restaurant", "name": "Avli Taverna", "phone": "+1-773-857-5577", "website": "http://avli.us/"}}, {"type": "node", "id": 6265680688, "lat": 41.9217939, "lon": -87.6643172, "tags": {"addr:city": "Chicago", "addr:housenumber": "2201", "addr:postcode": "60614", "addr:state": "IL", "addr:street": "North Clybourn Avenue", "amenity": "restaurant", "name": "Beck\u2019s Chicago", "phone": "+1-773-661-1573", "website": "https://beckschicago.com/"}}, {"type": "node", "id": 6267385985, "lat": 41.9185677, "lon": -87.6488313, "tags": {"addr:city": "Chicago", "addr:housenumber": "2010", "addr:postcode": "60614", "addr:state": "IL", "addr:street": "North Halsted Street", "amenity": "restaurant", "name": "Blue Door Farm Stand", "phone": "+1-312- 265-0259", "website": "https://bluedoorfarmstand.com/"}}, {"type": "node", "id": 6267402083, "lat": 41.9344594, "lon": -87.6460027, "tags": {"addr:city": "Chicago", "addr:housenumber": "2863", "addr:postcode": "60657", "addr:state": "IL", "addr:street": "North Clark Street", "amenity": "restaurant", "name": "Bluebird", "phone": "+1-773-661-1531", "website": "https://bluebirdchi.com/"}}, {"type": "node", "id": 6268245739, "lat": 41.9275165, "lon": -87.6519592, "tags": {"addr:city": "Chicago", "addr:housenumber": "2518", "addr:postcode": "60657", "addr:state": "IL", "addr:street": "North Lincoln Avenue", "amenity": "restaurant", "name": "Bobby\u2019s Lincoln Park", "phone": "+1-773-799-8555", "website": "http://www.bobbysrestaurants.com/"}}, {"type": "node", "id": 6269118585, "lat": 41.9284536, "lon": -87.6636452, "tags": {"addr:city": "Chicago", "addr:housenumber": "2548", "addr:postcode": "60614", "addr:state": "IL", "addr:street": "North Southport Avenue", "amenity": "bar", "name": "Broken Barrel Bar", "phone": "+1-773-327-4900", "website": "https://www.brokenbarrelbar.com/"}}, {"type": "node", "id": 6269367678, "lat": 41.9318459, "lon": -87.6572325, "tags": {"addr:city": "Chicago", "addr:housenumber": "2747", "addr:postcode": "60614", "addr:state": "IL", "addr:street": "North Lincoln Avenue", "amenity": "bar", "name": "Burnt City Brewing", "phone": "+1-773-295-1270", "website": "https://burntcitybrewing.com/"}}, {"type": "node", "id": 6269368100, "lat": 41.9293029, "lon": -87.647509, "tags": {"addr:city": "Chicago", "addr:housenumber": "724", "addr:postcode": "60614", "addr:state": "IL", "addr:street": "West Wrightwood Avenue", "amenity": "bar", "name": "Burwood Tap", "phone": "+1-773-525-2593", "website": "http://www.burwoodtap.com/"}}, {"type": "node", "id": 6269382429, "lat": 41.9179047, "lon": -87.6542335, "tags": {"addr:city": "Chicago", "addr:housenumber": "1021", "addr:postcode": "60614", "addr:state": "IL", "addr:street": "West Armitage Avenue", "amenity": "restaurant", "name": "Butcher & The Burger", "phone": "+1-773-697-3735", "website": "http://www.butcherandtheburger.com/"}}, {"type": "node", "id": 6270078272, "lat": 41.9253339, "lon": -87.6667824, "tags": {"addr:city": "Chicago", "addr:housenumber": "1524", "addr:postcode": "60614", "addr:state": "IL", "addr:street": "West Fullerton Avenue", "amenity": "restaurant", "name": "Cairo Kebab", "phone": "+1-773-687-8413"}}, {"type": "node", "id": 6280031591, "lat": 41.9219259, "lon": -87.6533381, "tags": {"addr:city": "Chicago", "addr:housenumber": "958", "addr:postcode": "60614", "addr:state": "IL", "addr:street": "West Webster Avenue", "amenity": "restaurant", "cuisine": "breakfast;brunch;american", "name": "Jam 'n Honey", "opening_hours": "Mo-Fr 08:00-21:00; Sa-Su 08:00-15:00", "phone": "+1- 773-327-5266", "website": "https://www.jamnhoney.com"}}, {"type": "node", "id": 6280044828, "lat": 41.9213591, "lon": -87.6533166, "tags": {"addr:city": "Chicago", "addr:housenumber": "2147", "addr:postcode": "60614", "addr:state": "IL", "addr:street": "North Sheffield Avenue", "amenity": "restaurant", "cuisine": "american", "name": "Devil Dawgs on Sheffield", "opening_hours": "Mo-Su 10:30-03:00", "phone": "+1-773-281-4300", "website": "https://devildawgs.com"}}, {"type": "node", "id": 6280046367, "lat": 41.9215816, "lon": -87.6530605, "tags": {"addr:city": "Chicago", "addr:housenumber": "953", "addr:postcode": "60614", "addr:state": "IL", "addr:street": "West Webster Avenue", "amenity": "restaurant", "cuisine": "mexican", "name": "Holy Taco", "opening_hours": "Mo-Th 11:00-23:00; Fr 11:00-02:00; Sa 10:00-02:00; Su 10:00-22:00", "phone": "+1-773-857-0844", "website": "https://www.holytacochicago.com"}}, {"type": "node", "id": 6280558497, "lat": 41.9180485, "lon": -87.6456973, "tags": {"addr:city": "Chicago", "addr:housenumber": "655", "addr:postcode": "60614", "addr:state": "IL", "addr:street": "West Armitage Avenue", "amenity": "restaurant", "name": "Cedar Palace", "phone": "+1-312-643-0933", "website": "https://www.cedarpalacechicago.com/"}}, {"type": "node", "id": 6280801554, "lat": 41.9179286, "lon": -87.6530197, "tags": {"addr:city": "Chicago", "addr:housenumber": "953", "addr:postcode": "60614", "addr:state": "IL", "addr:street": "West Armitage Avenue", "amenity": "restaurant", "name": "Chicago Bagel Authority", "phone": "+1-773-248-9606", "website": "https://eatcba.com/"}}, {"type": "node", "id": 6283213091, "lat": 41.9332915, "lon": -87.6593217, "tags": {"addr:city": "Chicago", "addr:housenumber": "2823", "addr:postcode": "60614", "addr:state": "IL", "addr:street": "North Lincoln Avenue", "amenity": "cafe", "name": "Coffee Lab & Roasters", "phone": "+1-773-687-9453", "website": "https://www.bcbccoffeelab.com/"}}, {"type": "node", "id": 6283943982, "lat": 41.9177735, "lon": -87.6487892, "tags": {"addr:city": "Chicago", "addr:housenumber": "1962", "addr:postcode": "60614", "addr:state": "IL", "addr:street": "North Halsted Street", "amenity": "restaurant", "cuisine": "seafood", "name": "Crab Cellar", "phone": "+1-773-248-1737", "website": "https://www.crabcellar.com/"}}, {"type": "node", "id": 6284367730, "lat": 41.9322843, "lon": -87.6580892, "tags": {"addr:city": "Chicago", "addr:housenumber": "2771", "addr:postcode": "60614", "addr:state": "IL", "addr:street": "North Lincoln Avenue", "amenity": "bar", "name": "Delilah\u2019", "phone": "+1-773-472-2771", "website": "http://www.delilahschicago.com/"}}, {"type": "node", "id": 6284391360, "lat": 41.932851, "lon": -87.6492874, "tags": {"addr:city": "Chicago", "addr:housenumber": "800", "addr:postcode": "60614", "addr:state": "IL", "addr:street": "West Diversey Parkway", "amenity": "cafe", "cuisine": "coffee_shop", "name": "Department of Coffee and Social Affairs", "phone": "+1-773-697-9581", "website": "https://www.departmentofcoffee.com/"}}, {"type": "node", "id": 6284426181, "lat": 41.9217431, "lon": -87.6651378, "tags": {"addr:city": "Chicago", "addr:housenumber": "1450", "addr:postcode": "60614", "addr:state": "IL", "addr:street": "West Webster Avenue", "amenity": "restaurant", "name": "Devour 312", "phone": "+1-773-360-7312", "website": "https://www.devour312.com/"}}, {"type": "node", "id": 6284478880, "lat": 41.921811, "lon": -87.666291, "tags": {"addr:city": "Chicago", "addr:housenumber": "1480", "addr:postcode": "60614", "addr:state": "IL", "addr:street": "West Webster Avenue", "amenity": "bar", "name": "Distilled Chicago", "phone": "+1-773-770-3703", "website": "http://distilledchicago.com/"}}, {"type": "node", "id": 6284632373, "lat": 41.9267566, "lon": -87.650967, "tags": {"addr:city": "Chicago", "addr:housenumber": "2464", "addr:postcode": "60614", "addr:state": "IL", "addr:street": "North Lincoln Avenue", "amenity": "restaurant", "name": "Dog Haus Biergarten", "phone": "+1-773-935-3647", "website": "http://lincolnpark.doghaus.com/"}}, {"type": "node", "id": 6284856480, "lat": 41.9352735, "lon": -87.6466516, "tags": {"addr:city": "Chicago", "addr:housenumber": "2913", "addr:postcode": "60657", "addr:state": "IL", "addr:street": "North Clark Street", "amenity": "restaurant", "name": "Duke Of Perth", "phone": "+1-773-477-1741", "website": "http://dukeofperth.com/"}}, {"type": "node", "id": 6290965033, "lat": 41.9218926, "lon": -87.659204, "tags": {"addr:city": "Chicago", "addr:housenumber": "1220", "addr:postcode": "60614", "addr:state": "IL", "addr:street": "West Webster Avenue", "amenity": "restaurant", "name": "Floriole Cafe & Bakery", "phone": "+1-773-883-1313", "website": "http://www.floriole.com/"}}, {"type": "node", "id": 6291153865, "lat": 41.9322813, "lon": -87.6687371, "tags": {"addr:city": "Chicago", "addr:housenumber": "2758", "addr:postcode": "60657", "addr:state": "IL", "addr:street": "North Ashland Avenue", "amenity": "bar", "name": "Four Shadows", "phone": "+1-773-248-9160", "website": "http://fourshadows.net/"}}, {"type": "node", "id": 6291781728, "lat": 41.9344071, "lon": -87.6492749, "tags": {"addr:city": "Chicago", "addr:housenumber": "2858", "addr:postcode": "60614", "addr:state": "IL", "addr:street": "North Halsted Street", "amenity": "bar", "name": "George Street Pub", "phone": "+1-773-661-6635", "website": "http://www.gspchicago.com/"}}, {"type": "node", "id": 6292131019, "lat": 41.9250291, "lon": -87.6640426, "tags": {"addr:city": "Chicago", "addr:housenumber": "1417", "addr:postcode": "60614", "addr:state": "IL", "addr:street": "West Fullerton Avenue", "amenity": "restaurant", "name": "Grand Trunk Road", "phone": "+1-773-857-1269", "website": "https://www.grandtrunkroad.co/"}}, {"type": "node", "id": 6294042612, "lat": 41.9249886, "lon": -87.6604965, "tags": {"addr:city": "Chicago", "addr:housenumber": "1251", "addr:postcode": "60614", "addr:state": "IL", "addr:street": "West Fullerton Avenue", "amenity": "restaurant", "cuisine": "indian", "name": "Hakka Bakka Indian Kati Rolls", "phone": "+1-872-802-3968", "website": "http://hakkabakkarolls.com/"}}, {"type": "node", "id": 6294060040, "lat": 41.9329983, "lon": -87.6465576, "tags": {"addr:city": "Chicago", "addr:housenumber": "676", "addr:postcode": "60614", "addr:state": "IL", "addr:street": "West Diversey Parkway", "amenity": "restaurant", "name": "Half Shell", "phone": "+1-773-549-1773", "website": "http://halfshellchicago.com/"}}, {"type": "node", "id": 6294169235, "lat": 41.9332916, "lon": -87.6492713, "tags": {"addr:city": "Chicago", "addr:housenumber": "2816", "addr:postcode": "60657", "addr:state": "IL", "addr:street": "North Halsted Street", "amenity": "bar", "name": "Harrigan\u2019s", "phone": "+1-773-248-5933", "website": "http://www.harriganspubchicago.com/"}}, {"type": "node", "id": 6294616307, "lat": 41.9233475, "lon": -87.6460503, "tags": {"addr:city": "Chicago", "addr:housenumber": "2270", "addr:postcode": "60614", "addr:state": "IL", "addr:street": "North Lincoln Avenue", "amenity": "bar", "name": "Hook and Ladder", "phone": "+1-773-857-0546", "website": "http://www.hookandladderchicago.com/"}}, {"type": "node", "id": 6297537502, "lat": 41.9335076, "lon": -87.6638856, "tags": {"addr:city": "Chicago", "addr:housenumber": "2834", "addr:postcode": "60657", "addr:state": "IL", "addr:street": "North Southport Avenue", "amenity": "restaurant", "name": "Sal\u2019s Trattoria", "phone": "+1-773-857-1401", "website": "http://salstrattoria.com/"}}, {"type": "node", "id": 6297599701, "lat": 41.9316579, "lon": -87.6485447, "tags": {"addr:city": "Chicago", "addr:housenumber": "2701", "addr:postcode": "60614", "addr:state": "IL", "addr:street": "North Halsted Street", "amenity": "restaurant", "name": "Sapori Trattoria", "phone": "+1-312-967-9358", "website": "https://www.saporitrattoria.net/"}}, {"type": "node", "id": 6297644135, "lat": 41.9250705, "lon": -87.6650212, "tags": {"addr:city": "Chicago", "addr:housenumber": "1443", "addr:postcode": "60614", "addr:state": "IL", "addr:street": "West Fullerton Avenue", "amenity": "restaurant", "name": "Jumbo Crab"}}, {"type": "node", "id": 6297827190, "lat": 41.9344543, "lon": -87.6658815, "tags": {"addr:city": "Chicago", "addr:housenumber": "1456", "addr:postcode": "60657", "addr:state": "IL", "addr:street": "West George Street", "amenity": "bar", "name": "Side Street Saloon", "phone": "+1-773-327-1127"}}, {"type": "node", "id": 6299354512, "lat": 41.9266392, "lon": -87.6485154, "tags": {"addr:city": "Chicago", "addr:housenumber": "2439", "addr:postcode": "60614", "addr:state": "IL", "addr:street": "North Halsted Street", "amenity": "bar", "name": "Parson\u2019s Chicken & Fish", "phone": "+1-773-661-6016", "website": "http://www.parsonschickenandfish.com/"}}, {"type": "node", "id": 6299449463, "lat": 41.9333248, "lon": -87.6594383, "tags": {"addr:city": "Chicago", "addr:housenumber": "2825", "addr:postcode": "60657", "addr:state": "IL", "addr:street": "North Lincoln Avenue", "amenity": "restaurant", "name": "Patsy\u2019s Place", "phone": "+1-773-248-2825", "website": "http://www.patsyspub.com/"}}, {"type": "node", "id": 6300393195, "lat": 41.9219536, "lon": -87.6643402, "tags": {"addr:city": "Chicago", "addr:housenumber": "2207", "addr:postcode": "60614", "addr:state": "IL", "addr:street": "North Clybourn Avenue", "amenity": "restaurant", "cuisine": "pizza", "name": "Pequod\u2019s Pizzeria", "outdoor_seating": "yes", "phone": "+1-773-327-1512", "website": "https://pequodspizza.com"}}, {"type": "node", "id": 6300413145, "lat": 41.9257267, "lon": -87.6477665, "tags": {"addr:city": "Chicago", "addr:housenumber": "734", "addr:postcode": "60614", "addr:state": "IL", "addr:street": "West Fullerton Avenue", "amenity": "restaurant", "name": "Philly Bros", "phone": "+1-773-278-2767", "website": "https://www.phillybros.com/"}}, {"type": "node", "id": 6300519480, "lat": 41.9270793, "lon": -87.6512541, "tags": {"addr:city": "Chicago", "addr:housenumber": "2482", "addr:postcode": "60614", "addr:state": "IL", "addr:street": "North Lincoln Avenue", "amenity": "cafe", "name": "Printer\u2019s Row Coffee", "phone": "+1-773-666-5394", "website": "http://www.printersrowcoffeeco.com/"}}, {"type": "node", "id": 6300564010, "lat": 41.9298635, "lon": -87.6552862, "tags": {"addr:city": "Chicago", "addr:housenumber": "2642", "addr:postcode": "60614", "addr:state": "IL", "addr:street": "North Lincoln Avenue", "amenity": "bar", "name": "Racine Plumbing Bar & Grill", "phone": "+1-773-871-1600", "website": "https://www.racineplumbingchicago.com/"}}, {"type": "node", "id": 6300729293, "lat": 41.9263244, "lon": -87.6504588, "tags": {"addr:city": "Chicago", "addr:housenumber": "2446", "addr:postcode": "60614", "addr:state": "IL", "addr:street": "North Lincoln Avenue", "amenity": "bar", "name": "The Red Lion Pub", "phone": "+1-773-883-2422", "website": "http://redlionchicago.com/"}}, {"type": "node", "id": 6301057031, "lat": 41.93012, "lon": -87.655636, "tags": {"addr:city": "Chicago", "addr:housenumber": "2656", "addr:postcode": "60614", "addr:state": "IL", "addr:street": "North Lincoln Avenue", "amenity": "bar", "name": "Rose\u2019s Lounge", "phone": "+1-773-327-4000"}}, {"type": "node", "id": 6302665610, "lat": 41.9183755, "lon": -87.6487346, "tags": {"addr:city": "Chicago", "addr:housenumber": "2002", "addr:postcode": "60614", "addr:state": "IL", "addr:street": "North Halsted Street", "amenity": "bar", "name": "The Store", "phone": "+1-773-327-7766", "website": "http://www.thestoretil4.com/"}}, {"type": "node", "id": 6303119388, "lat": 41.9287226, "lon": -87.6558771, "tags": {"addr:city": "Chicago", "addr:housenumber": "1059", "addr:postcode": "60614", "addr:state": "IL", "addr:street": "West Wrightwood Avenue", "amenity": "bar", "name": "Tapster Lincoln Park", "phone": "+1-773-549-4949"}}, {"type": "node", "id": 6304066996, "lat": 41.9251122, "lon": -87.663056, "tags": {"addr:city": "Chicago", "addr:housenumber": "1365", "addr:postcode": "60614", "addr:state": "IL", "addr:street": "West Fullerton Avenue", "amenity": "bar", "name": "The Arrogant Frog Bar", "phone": "+1-773-248-9119", "website": "https://www.thearrogantfrogbar.com/"}}, {"type": "node", "id": 6304238326, "lat": 41.9250423, "lon": -87.664123, "tags": {"addr:city": "Chicago", "addr:housenumber": "1419", "addr:postcode": "60614", "addr:state": "IL", "addr:street": "West Fullerton Avenue", "amenity": "bar", "name": "The Warehouse Bar & Pizzeria Chicago", "phone": "+1-(773) 661-6454", "website": "https://www.thewarehousechicago.com/"}}, {"type": "node", "id": 6305224799, "lat": 41.9269434, "lon": -87.6504598, "tags": {"addr:city": "Chicago", "addr:housenumber": "2461", "addr:postcode": "60614", "addr:state": "IL", "addr:street": "North Lincoln Avenue", "amenity": "cafe", "name": "The Bagelers Coffeehouse", "phone": "+1-872-802-0347", "website": "http://www.thebagelers.com/"}}, {"type": "node", "id": 6305252806, "lat": 41.9294688, "lon": -87.6547325, "tags": {"addr:city": "Chicago", "addr:housenumber": "2624", "addr:postcode": "60614", "addr:state": "IL", "addr:street": "North Lincoln Avenue", "amenity": "restaurant", "name": "The Barrelhouse Flat", "phone": "+1-773-857-0421", "website": "http://www.barrelhouseflat.com/"}}, {"type": "node", "id": 6305256043, "lat": 41.9187992, "lon": -87.648845, "tags": {"addr:city": "Chicago", "addr:housenumber": "2020", "addr:postcode": "60614", "addr:state": "IL", "addr:street": "North Halsted Street", "amenity": "bar", "name": "The Beaumont", "phone": "+1-773-281-0177"}}, {"type": "node", "id": 6306510591, "lat": 41.9182866, "lon": -87.653811, "tags": {"addr:city": "Chicago", "addr:housenumber": "1008", "addr:postcode": "60614", "addr:state": "IL", "addr:street": "West Armitage Avenue", "amenity": "restaurant", "name": "The Budlong Hot Chicken", "phone": "+1-773-270-9005", "website": "https://www.thebudlong.com/"}}, {"type": "node", "id": 6306665116, "lat": 41.9178322, "lon": -87.6572715, "tags": {"addr:city": "Chicago", "addr:housenumber": "1147", "addr:postcode": "60614", "addr:state": "IL", "addr:street": "West Armitage Avenue", "amenity": "bar", "name": "Tripoli Ta", "phone": "+1-773-477-4400", "website": "http://www.tripolitap.com/"}}, {"type": "node", "id": 6306915776, "lat": 41.9343553, "lon": -87.6681643, "tags": {"addr:city": "Chicago", "addr:housenumber": "2901", "addr:postcode": "60657", "addr:state": "IL", "addr:street": "North Ashland Avenue", "amenity": "restaurant", "name": "Tutto Fresco", "phone": "+1-773-661-9009", "website": "http://www.tuttofrescochicago.com/"}}, {"type": "node", "id": 6307022465, "lat": 41.9348552, "lon": -87.661554, "tags": {"addr:city": "Chicago", "addr:housenumber": "1913", "addr:postcode": "60657", "addr:state": "IL", "addr:street": "North Lincoln Avenue", "amenity": "bar", "name": "Twisted Tap"}}, {"type": "node", "id": 6314860238, "lat": 41.9177296, "lon": -87.6483011, "tags": {"addr:city": "Chicago", "addr:housenumber": "1961", "addr:postcode": "60614", "addr:state": "IL", "addr:street": "North Halsted Street", "amenity": "bar", "name": "J9 Wine Bar", "phone": "+1-312-982-2488", "website": "http://www.j9winebar.com/"}}, {"type": "node", "id": 6314880236, "lat": 41.9357245, "lon": -87.6475622, "tags": {"addr:city": "Chicago", "addr:housenumber": "2932", "addr:postcode": "60657", "addr:state": "IL", "addr:street": "North Clark Street", "amenity": "bar", "name": "Jake\u2019s Pub", "phone": "+1-773-248-3318", "website": "http://www.jakespub.net/"}}, {"type": "node", "id": 6315194719, "lat": 41.934158, "lon": -87.6639155, "tags": {"addr:city": "Chicago", "addr:housenumber": "2856", "addr:postcode": "60657", "addr:state": "IL", "addr:street": "North Southport Avenue", "amenity": "bar", "name": "The Diag", "phone": "+1-773-404-8400", "website": "https://www.diagchicago.com/"}}, {"type": "node", "id": 6315206885, "lat": 41.9342202, "lon": -87.6607793, "tags": {"addr:city": "Chicago", "addr:housenumber": "2871", "addr:postcode": "60657", "addr:state": "IL", "addr:street": "North Lincoln Avenue", "amenity": "bar", "name": "The Elbo Room", "phone": "+1-773-549-5549", "website": "elboroomlive.com"}}, {"type": "node", "id": 6315598366, "lat": 41.9331414, "lon": -87.6597871, "tags": {"addr:city": "Chicago", "addr:housenumber": "2828", "addr:postcode": "60657", "addr:state": "IL", "addr:street": "North Lincoln Avenue", "amenity": "bar", "name": "The Hometavern", "phone": "+1-773-549-9253"}}, {"type": "node", "id": 6315649380, "lat": 41.9248961, "lon": -87.6482983, "tags": {"addr:city": "Chicago", "addr:housenumber": "2364", "addr:postcode": "60614", "addr:state": "IL", "addr:street": "North Lincoln Avenue", "amenity": "restaurant", "name": "The Little Meatball", "phone": "+1-773-360-8496", "website": "https://thelittlemeatball.com/"}}, {"type": "node", "id": 6315803083, "lat": 41.9200991, "lon": -87.6626373, "tags": {"addr:city": "Chicago", "addr:housenumber": "2142", "addr:postcode": "60614", "addr:state": "IL", "addr:street": "North Clybourn Avenue", "amenity": "bar", "name": "Varsity Club", "phone": "+1-773-348-0414"}}, {"type": "node", "id": 6316843887, "lat": 41.9220253, "lon": -87.6645086, "tags": {"addr:city": "Chicago", "addr:housenumber": "2211", "addr:postcode": "60614", "addr:state": "IL", "addr:street": "North Clybourn Avenue", "amenity": "bar", "name": "Whale Tale", "phone": "+1-773-528-2211", "website": "https://www.whaletalechicago.com/"}}, {"type": "node", "id": 6317060712, "lat": 41.9326492, "lon": -87.6584829, "tags": {"addr:city": "Chicago", "addr:postcode": "60657", "addr:state": "IL", "addr:street": "West Diversey Parkway", "amenity": "cafe", "name": "Y2K Cafe"}}, {"type": "node", "id": 6318184961, "lat": 41.9183399, "lon": -87.6535929, "tags": {"addr:city": "Chicago", "addr:housenumber": "1000", "addr:postcode": "60614", "addr:state": "IL", "addr:street": "West Armitage Avenue", "amenity": "cafe", "brand": "Le Pain Quotidien", "brand:wikidata": "Q2046903", "brand:wikipedia": "en:Le Pain Quotidien", "cuisine": "coffee_shop", "name": "Le Pain Quotidien", "phone": "+1-773-770-4341", "takeaway": "yes", "website": "https://www1.lepainquotidien.com/us/en/locations/602/1000-west-armitage-ave"}}, {"type": "node", "id": 6318193521, "lat": 41.918212, "lon": -87.6538155, "tags": {"addr:city": "Chicago", "addr:housenumber": "2000", "addr:postcode": "60614", "addr:state": "IL", "addr:street": "North Sheffield Avenue", "amenity": "cafe", "name": "Le Pain Quotedien", "phone": "+1-212-359-9000", "website": "https://www1.lepainquotidien.com/us/en/"}}, {"type": "node", "id": 6319035481, "lat": 41.9297118, "lon": -87.6552373, "tags": {"addr:city": "Chicago", "addr:housenumber": "2638", "addr:postcode": "60614", "addr:state": "IL", "addr:street": "North Lincoln Avenue", "amenity": "restaurant", "name": "Juno", "phone": "+1-773-935-2000", "website": "http://junosushichicago.com/"}}, {"type": "node", "id": 6319245707, "lat": 41.9218751, "lon": -87.665271, "tags": {"addr:city": "Chicago", "addr:housenumber": "2212", "addr:postcode": "60614", "addr:state": "IL", "addr:street": "North Clybourn Avenue", "amenity": "bar", "name": "Kibbitznest Books, Brews & Blarney", "phone": "+1-773-360-7591", "website": "http://www.kibbitznest.com/"}}, {"type": "node", "id": 6320003532, "lat": 41.9183019, "lon": -87.6507923, "tags": {"addr:city": "Chicago", "addr:housenumber": "858", "addr:postcode": "60614", "addr:state": "IL", "addr:street": "West Armitage Avenue", "amenity": "cafe", "name": "La Colombe Coffee", "phone": "+1-773-572-9685", "website": "https://www.lacolombe.com/"}}, {"type": "node", "id": 6320014611, "lat": 41.9340452, "lon": -87.6456834, "tags": {"addr:city": "Chicago", "addr:housenumber": "2845", "addr:postcode": "60657", "addr:state": "IL", "addr:street": "North Clark Street", "amenity": "restaurant", "name": "La Cr\u00eaperie", "phone": "+1-773-528-9050", "website": "http://www.lacreperiechicago.com/"}}, {"type": "node", "id": 6321594753, "lat": 41.9330575, "lon": -87.6465042, "tags": {"addr:city": "Chicago", "addr:housenumber": "674", "addr:postcode": "60614", "addr:state": "IL", "addr:street": "West Diversey Parkway", "amenity": "bar", "name": "Matisse Tavern & Grill", "phone": "+1-773-528-6670", "website": "https://www.matissetavernchicago.com/"}}, {"type": "node", "id": 6322937296, "lat": 41.9335786, "lon": -87.646062, "tags": {"addr:city": "Chicago", "addr:housenumber": "2828", "addr:postcode": "60657", "addr:state": "IL", "addr:street": "North Clark Street", "amenity": "bar", "name": "The Century Bar", "phone": "+1-773-248-7759", "website": "landmarktheatres.com/"}}, {"type": "node", "id": 6323038072, "lat": 41.9329303, "lon": -87.6464132, "tags": {"addr:city": "Chicago", "addr:country": "US", "addr:housenumber": "670", "addr:postcode": "60614", "addr:state": "IL", "addr:street": "West Diversey Parkway", "amenity": "restaurant", "brand": "Nando's", "brand:wikidata": "Q3472954", "brand:wikipedia": "en:Nando's", "cuisine": "chicken;portuguese", "name": "Nando's", "phone": "+1-773-634-7153", "website": "https://www.nandosperiperi.com/"}}, {"type": "node", "id": 6323140931, "lat": 41.9235791, "lon": -87.6457972, "tags": {"addr:city": "Chicago", "addr:housenumber": "2273", "addr:postcode": "60614", "addr:state": "IL", "addr:street": "North Lincoln Avenue", "amenity": "cafe", "name": "Nighthawk AM", "phone": "+1-773-697-8899", "website": "https://www.nighthawkam.com/"}}, {"type": "node", "id": 6323191927, "lat": 41.9269656, "lon": -87.6485799, "tags": {"addr:city": "Chicago", "addr:housenumber": "2453", "addr:postcode": "60614", "addr:state": "IL", "addr:street": "North Halsted Street", "amenity": "restaurant", "name": "Noodles In the Pot", "phone": "+1-773-975-6177", "website": "http://www.noodlesinthepot.com/"}}, {"type": "node", "id": 6323948118, "lat": 41.9293006, "lon": -87.653336, "tags": {"addr:city": "Chicago", "addr:housenumber": "950", "addr:postcode": "60614", "addr:state": "IL", "addr:street": "West Wrightwood Avenue", "amenity": "bar", "name": "Old Grounds Social", "phone": "+1-773-832-4000", "website": "https://www.ogschicago.com/"}}, {"type": "node", "id": 6324195508, "lat": 41.9177881, "lon": -87.6489419, "tags": {"addr:city": "Chicago", "addr:housenumber": "1962", "addr:postcode": "60614", "addr:state": "IL", "addr:street": "North Halsted Street", "addr:unit": "1", "amenity": "restaurant", "cuisine": "seafood", "name": "Oyster Bah", "phone": "+1-773-248-3000", "website": "http://oysterbah.com/"}}, {"type": "node", "id": 6324601603, "lat": 41.9241811, "lon": -87.6498509}, {"type": "node", "id": 6325236767, "lat": 41.9179312, "lon": -87.6524638, "tags": {"addr:city": "Chicago", "addr:housenumber": "939", "addr:postcode": "60614", "addr:state": "IL", "addr:street": "West Armitage Avenue", "amenity": "restaurant", "name": "Tovala", "phone": "+1-773-666-5868", "website": "https://www.tovala.com/"}}, {"type": "node", "id": 6325945247, "lat": 41.9207648, "lon": -87.6691269, "tags": {"addr:city": "Chicago", "addr:housenumber": "2112", "addr:postcode": "60614", "addr:state": "IL", "addr:street": "North Ashland Avenue", "amenity": "cafe", "name": "Vero Coffee & Gelato", "phone": "+1-773-342-6585", "website": "https://verocoffeeandgelato.com/"}}, {"type": "node", "id": 6326466249, "lat": 41.9340181, "lon": -87.6610034, "tags": {"addr:city": "Chicago", "addr:housenumber": "2878", "addr:postcode": "60657", "addr:state": "IL", "addr:street": "North Lincoln Avenue", "amenity": "restaurant", "name": "Left Coast Food + Juice", "phone": "+1-773-880-5338", "website": "http://www.leftcoastfood.com/"}}, {"type": "node", "id": 6326496079, "lat": 41.9352165, "lon": -87.6627816, "tags": {"addr:city": "Chicago", "addr:housenumber": "2942", "addr:postcode": "60657", "addr:state": "IL", "addr:street": "North Lincoln Avenue", "amenity": "restaurant", "name": "Las Tablas Colombian Steakhouse", "phone": "+1-773-871-2414", "website": "http://www.lastablas.com/"}}, {"type": "node", "id": 6326517473, "lat": 41.9184105, "lon": -87.6532906, "tags": {"addr:city": "Chicago", "addr:housenumber": "958", "addr:postcode": "60614", "addr:state": "IL", "addr:street": "West Armitage Avenue", "amenity": "cafe", "name": "Le Macaron French Pastries", "phone": "+1-773-904-7097", "website": "https://lemacaron-us.com/"}}, {"type": "node", "id": 6410371289, "lat": 41.9340863, "lon": -87.6462185, "tags": {"addr:city": "Chicago", "addr:housenumber": "2850", "addr:postcode": "60657", "addr:state": "IL", "addr:street": "North Clark Street", "amenity": "restaurant", "cuisine": "argentinian;empanada", "name": "5411 Empanadas - Lakeview", "phone": "+1-773-755-5411", "website": "http://www.5411empanadas.com"}}, {"type": "node", "id": 6459324305, "lat": 41.9262841, "lon": -87.6495306, "tags": {"addr:city": "Chicago", "addr:housenumber": "2429", "addr:postcode": "60614", "addr:state": "IL", "addr:street": "North Lincoln Avenue", "amenity": "restaurant", "cuisine": "middle_eastern", "name": "Galit", "phone": "+1-773-360-8755", "website": "https://www.galitrestaurant.com"}}, {"type": "node", "id": 6459327382, "lat": 41.9261095, "lon": -87.650008, "tags": {"addr:city": "Chicago", "addr:housenumber": "2432", "addr:postcode": "60614", "addr:state": "IL", "addr:street": "North Lincoln Avenue", "amenity": "restaurant", "cuisine": "american", "name": "Lincoln Station", "phone": "+1-773-472-8100", "website": "http://lincolnstation.com"}}, {"type": "node", "id": 7330251178, "lat": 41.9219485, "lon": -87.6484614, "tags": {"addr:city": "Chicago", "addr:housenumber": "756", "addr:postcode": "60614", "addr:state": "IL", "addr:street": "West Webster Avenue", "amenity": "restaurant", "cuisine": "asian;sushi;thai", "name": "Shine and Rise", "phone": "+1-773-296-0101", "website": "https://www.shinerestaurant.com/"}}, {"type": "node", "id": 7330265557, "lat": 41.9329015, "lon": -87.6472424, "tags": {"addr:city": "Chicago", "addr:housenumber": "714", "addr:postcode": "60614", "addr:state": "IL", "addr:street": "West Diversey Parkway", "amenity": "restaurant", "cuisine": "indian", "name": "Mild 2 Spicy", "phone": "+1-773-661-6778"}}, {"type": "node", "id": 7330283318, "lat": 41.9213207, "lon": -87.6636865, "tags": {"addr:city": "Chicago", "addr:housenumber": "2187", "addr:postcode": "60614", "addr:state": "IL", "addr:street": "North Clybourn Avenue", "amenity": "restaurant", "cuisine": "sushi", "name": "Rock Wrap & Roll", "phone": "+1-773-472-2800", "website": "https://rockwrapandroll.com/"}}, {"type": "way", "id": 26150036, "nodes": [286369237, 416770215, 416770216, 2458410440, 286369226, 417255771, 417255772, 417255773, 417255774, 6152474394, 417255775, 6152474396, 417255776, 286369306, 286369307, 6152474397, 6152474398, 286369308, 308675507, 286369309, 286369232, 286369233, 1983549241, 1983549242, 286369234, 3841977063, 286369235, 286369311, 286369237], "tags": {"amenity": "university", "name": "DePaul University", "operator": "Depaul University", "operator:type": "university", "wheelchair": "yes", "wikipedia": "en:DePaul University"}}, {"type": "way", "id": 32853826, "nodes": [370093716, 307890165, 1983543632, 6324601603, 452377015, 452377016, 307890172, 2348349944, 4499383937, 4499383938, 370093749, 370093752, 370093716], "tags": {"amenity": "university", "name": "DePaul University", "operator": "DePaul University", "operator:type": "university"}}, {"type": "way", "id": 158977040, "nodes": [1710876951, 1710876953, 1710876954, 1710876952, 5225519836, 5225519837, 1710876951], "tags": {"addr:city": "Chicago", "addr:housenumber": "2576", "addr:postcode": "60614", "addr:state": "IL", "addr:street": "North Lincoln Avenue", "addr:street:name": "Lincoln", "addr:street:prefix": "North", "addr:street:type": "Avenue", "amenity": "restaurant", "building": "yes", "building:levels": "1", "chicago:building_id": "251413", "cuisine": "mexican", "name": "Broken English"}}, {"type": "way", "id": 209880419, "nodes": [2200342680, 2200342682, 2200342513, 2200342512, 2200342680], "tags": {"addr:housenumber": "1417", "addr:street": "West Fullerton Avenue", "addr:street:name": "Fullerton", "addr:street:prefix": "West", "addr:street:type": "Avenue", "amenity": "restaurant", "building": "yes", "chicago:building_id": "850942", "name": "Knife & Tine"}}, {"type": "way", "id": 209880429, "nodes": [2200342626, 2200342676, 2200342678, 2200342730, 2200342732, 2200342664, 2200342663, 2200342628, 2200342626], "tags": {"addr:housenumber": "1419", "addr:street": "West Fullerton Avenue", "addr:street:name": "Fullerton", "addr:street:prefix": "West", "addr:street:type": "Avenue", "amenity": "restaurant", "building": "yes", "building:levels": "1", "chicago:building_id": "263304", "name": "Warehouse"}}, {"type": "way", "id": 209882840, "nodes": [2200343250, 2200343368, 2200343378, 2200343276, 2200343272, 2200343251, 2200343250], "tags": {"addr:housenumber": "2418", "addr:postcode": "60614", "addr:street": "North Ashland Avenue", "addr:street:name": "Ashland", "addr:street:prefix": "North", "addr:street:type": "Avenue", "amenity": "restaurant", "building": "yes", "building:levels": "1", "chicago:building_id": "261255", "name": "The Squared Circle"}}, {"type": "way", "id": 209882878, "nodes": [2200344091, 2200344284, 2200344309, 2200344106, 2200344103, 2200344140, 2200344121, 2200344094, 2200344091], "tags": {"addr:city": "Chicago", "addr:housenumber": "2428", "addr:postcode": "60614", "addr:state": "IL", "addr:street": "North Ashland Avenue", "addr:street:name": "Ashland", "addr:street:prefix": "North", "addr:street:type": "Avenue", "amenity": "restaurant", "building": "yes", "building:levels": "2", "chicago:building_id": "260281", "name": "Asian Cajun", "phone": "+1-773-828-5642", "website": "https://asiancajunrestaurant.com/"}}, {"type": "way", "id": 209884980, "nodes": [2200366030, 2200366395, 2200366402, 2200366044, 2200366030], "tags": {"addr:housenumber": "2814", "addr:street": "North Southport Avenue", "addr:street:name": "Southport", "addr:street:prefix": "North", "addr:street:type": "Avenue", "amenity": "restaurant", "building": "yes", "building:levels": "2", "chicago:building_id": "238031", "cuisine": "mexican", "name": "Que Rico"}}, {"type": "way", "id": 209885154, "nodes": [2200369775, 2200370017, 2200370036, 2200369846, 2200369850, 2200369788, 2200369775], "tags": {"addr:housenumber": "2901", "addr:street": "North Ashland Avenue", "addr:street:name": "Ashland", "addr:street:prefix": "North", "addr:street:type": "Avenue", "amenity": "restaurant", "building": "yes", "building:levels": "1", "chicago:building_id": "232184", "cuisine": "latin", "name": "Flo", "opening_hours": "Tu-Fr 17:00-22:00; Sa 09:00-23:00; Su 09:00-15:00; PH off", "outdoor_seating": "no", "smoking": "no"}}, {"type": "way", "id": 210314921, "nodes": [2204016078, 2204016642, 2204016644, 2204016082, 2204016078], "tags": {"addr:city": "Chicago", "addr:housenumber": "1021", "addr:postcode": "60614", "addr:state": "IL", "addr:street": "West Armitage Avenue", "addr:street:name": "Armitage", "addr:street:prefix": "West", "addr:street:type": "Avenue", "amenity": "restaurant", "building": "yes", "building:levels": "3", "chicago:building_id": "284755", "cuisine": "burger", "name": "The Butcher & the Burger", "phone": "+1-773-697-3735", "website": "http://butcherandtheburger.com"}}, {"type": "way", "id": 210314958, "nodes": [2204017354, 2204017355, 2204017086, 2204017058, 2204017003, 2204016973, 2204016974, 2204017008, 2204017011, 2204017354], "tags": {"addr:housenumber": "1112", "addr:street": "West Armitage Avenue", "addr:street:name": "Armitage", "addr:street:prefix": "West", "addr:street:type": "Avenue", "amenity": "restaurant", "building": "yes", "chicago:building_id": "864305", "name": "Tarantino's"}}, {"type": "way", "id": 210316907, "nodes": [2204018237, 2204018278, 2204018019, 2204018017, 2204017997, 2204018237], "tags": {"addr:housenumber": "2010", "addr:street": "North Halsted Street", "addr:street:name": "Halsted", "addr:street:prefix": "North", "addr:street:type": "Street", "amenity": "restaurant", "building": "yes", "building:levels": "2", "chicago:building_id": "822495"}}, {"type": "way", "id": 210317387, "nodes": [2204024213, 2204024436, 2204024451, 2204024332, 2204024246, 2204024213], "tags": {"addr:city": "Chicago", "addr:housenumber": "2100", "addr:postcode": "60614", "addr:state": "IL", "addr:street": "North Halsted Street", "addr:street:name": "Halsted", "addr:street:prefix": "North", "addr:street:type": "Street", "amenity": "restaurant", "building": "yes", "chicago:building_id": "277405", "name": "Chez Moi", "phone": "+1-773-871-2100", "website": "https://www.chezmoichicago.com/"}}, {"type": "way", "id": 210318212, "nodes": [2204034784, 2204034779, 2204034445, 2204034519, 2204034575, 2204035015, 2607221928, 2204034784], "tags": {"addr:housenumber": "2254-2264", "addr:street": "North Lincoln Avenue", "addr:street:name": "Lincoln", "addr:street:prefix": "North", "addr:street:type": "Avenue", "amenity": "cafe", "building": "yes", "chicago:building_id": "851014", "name": "Countryside Cafe"}}, {"type": "way", "id": 210318223, "nodes": [2204035573, 2204036024, 2204035943, 2204036056, 2204036147, 2204036347, 2204036210, 2204035410, 2204035573], "tags": {"addr:city": "Chicago", "addr:country": "US", "addr:housenumber": "2269", "addr:postcode": "60614", "addr:street": "North Lincoln Avenue", "addr:street:name": "Lincoln", "addr:street:prefix": "North", "addr:street:type": "Avenue", "amenity": "restaurant", "building": "yes", "chicago:building_id": "851040", "cuisine": "vietnamese", "name": "Simply it", "smoking": "no", "website": "http://www.chicagosimplyit.com/"}}, {"type": "way", "id": 210321368, "nodes": [2204045359, 2204045454, 2204045543, 2204045627, 2204046188, 2204045854, 2204045359], "tags": {"addr:city": "Chicago", "addr:housenumber": "2424", "addr:postcode": "60614", "addr:state": "IL", "addr:street": "North Lincoln Avenue", "addr:street:name": "Lincoln", "addr:street:prefix": "North", "addr:street:type": "Avenue", "amenity": "bar", "building": "yes", "building:levels": "2", "chicago:building_id": "260077", "name": "Lincoln Hall", "phone": "+1-773-525-2501", "website": "http://www.lh-st.com/", "wikidata": "Q6550694", "wikipedia": "en:Lincoln Hall (Chicago)"}}, {"type": "way", "id": 210321451, "nodes": [2204048654, 2204048959, 2204048983, 2204048686, 2204048654], "tags": {"addr:housenumber": "2447", "addr:street": "North Halsted Street", "addr:street:name": "Halsted", "addr:street:prefix": "North", "addr:street:type": "Street", "amenity": "bar", "building": "yes", "chicago:building_id": "257205", "name": "The Tonic Room"}}, {"type": "way", "id": 210321648, "nodes": [2204055130, 2204055146, 2204054879, 2204054829, 2204055130], "tags": {"addr:city": "Chicago", "addr:housenumber": "2548", "addr:postcode": "60614", "addr:state": "IL", "addr:street": "North Halsted Street", "addr:street:name": "Halsted", "addr:street:prefix": "North", "addr:street:type": "Street", "amenity": "bar", "building": "yes", "building:levels": "2", "chicago:building_id": "863343", "name": "Kingston Mines", "phone": "+1-773-477-4647", "website": "https://kingstonmines.com/"}}, {"type": "way", "id": 210321659, "nodes": [2204055739, 2204055723, 2204055852, 2204055884, 2204055739], "tags": {"addr:housenumber": "2558", "addr:street": "North Halsted Street", "addr:street:name": "Halsted", "addr:street:prefix": "North", "addr:street:type": "Street", "amenity": "restaurant", "building": "yes", "building:levels": "2", "chicago:building_id": "863337", "cuisine": "mexican", "name": "Las Fuentes"}}, {"type": "way", "id": 210322417, "nodes": [2204065252, 2204064432, 2204065117, 2204065833, 2204065661, 2204065636, 2204065568, 2204065625, 2204065252], "tags": {"addr:city": "Chicago", "addr:housenumber": "2747", "addr:postcode": "60614", "addr:state": "IL", "addr:street": "North Lincoln Avenue", "addr:street:name": "Lincoln", "addr:street:prefix": "North", "addr:street:type": "Avenue", "amenity": "bar", "building": "yes", "building:levels": "2", "chicago:building_id": "862997", "microbrewery": "yes", "name": "Burnt City Brewing", "opening_hours": "Mo-Th 17:00-23:00; Fr 17:00-02:00; Sa 12:00-02:00; Su 12:00-23:00", "phone": "+1-773-295-1270", "website": "https://burntcitybrewing.com"}}, {"type": "way", "id": 210322445, "nodes": [2204065299, 2204065421, 2204065782, 2204065675, 2204065617, 2204065575, 2204065299], "tags": {"addr:housenumber": "2751", "addr:street": "North Lincoln Avenue", "addr:street:name": "Lincoln", "addr:street:prefix": "North", "addr:street:type": "Avenue", "amenity": "bar", "building": "yes", "building:levels": "2", "chicago:building_id": "241545", "name": "Delilah's"}}, {"type": "way", "id": 210322867, "nodes": [2204056515, 2204056556, 2204057197, 2204057201, 2204056518, 2204056515], "tags": {"addr:city": "Chicago", "addr:housenumber": "724", "addr:postcode": "60614", "addr:state": "IL", "addr:street": "West Wrightwood Avenue", "addr:street:name": "Wrightwood", "addr:street:prefix": "West", "addr:street:type": "Avenue", "amenity": "bar", "building": "yes", "building:levels": "2", "chicago:building_id": "249238", "email": "burwoodtap724@gmail.com", "name": "Burwood Tap", "opening_hours": "11:00-03:00", "outdoor_seating": "no", "smoking": "outside"}}, {"type": "way", "id": 210322882, "nodes": [2204045265, 2204045344, 2204045352, 2204044972, 2204044971, 2204044944, 2204044941, 2204045107, 2204045130, 2204045252, 2204045265], "tags": {"addr:city": "Chicago", "addr:housenumber": "738", "addr:postcode": "60614", "addr:street": "West Fullerton Avenue", "addr:street:name": "Fullerton", "addr:street:prefix": "West", "addr:street:type": "Avenue", "amenity": "cafe", "building": "yes", "chicago:building_id": "850377", "name": "Bourgeois Pig Cafe", "opening_hours": "Mo-Sa 07:00-22:00; Su 08:00-22:00", "phone": "+1 773-883-5282", "website": "http://bpigcafe.com/"}}, {"type": "way", "id": 210325560, "nodes": [2204071505, 2204071494, 2204071515, 2204071519, 2204071681, 2204071685, 2204071737, 2204071732, 2204071865, 2204071867, 2204071893, 2204071900, 2204071872, 2204071875, 2204071910, 2204071908, 2204071907, 2204071505], "tags": {"addr:housenumber": "2808", "addr:street": "North Halsted Street", "addr:street:name": "Halsted", "addr:street:prefix": "North", "addr:street:type": "Street", "amenity": "restaurant", "building": "yes", "building:levels": "2", "chicago:building_id": "862810", "cuisine": "steak", "name": "Select Cut Steak House"}}, {"type": "relation", "id": 2527861, "members": [{"type": "way", "ref": 26150036, "role": "outer"}, {"type": "way", "ref": 32853826, "role": "outer"}], "tags": {"amenity": "university", "name": "DePaul University", "type": "multipolygon"}}]}