{"version": 0.6, "generator": "Overpass API 0.7.56.1004 6cd3eaec", "osm3s": {"timestamp_osm_base": "2020-07-21T23:32:03Z", "copyright": "The data included in this document is from www.openstreetmap.org. The data is made available under ODbL."}, "elements": [{"type": "node", "id": 2262363842, "lat": 41.968423, "lon": -87.7250172, "tags": {"addr:city": "Chicago", "addr:housenumber": "3914", "addr:postcode": "60625", "addr:state": "IL", "addr:street": "West Lawrence Avenue", "amenity": "restaurant", "cuisine": "sushi", "name": "Lawrence Fish Market", "phone": "+1-773-267-6838", "website": "https://drive.google.com/file/d/1fAi9C06HSz3wj7qBo7Pvrk6oEnyYUtuL/view"}}, {"type": "node", "id": 2297677072, "lat": 41.9681478, "lon": -87.7439183, "tags": {"addr:city": "Chicago", "addr:housenumber": "4624", "addr:postcode": "60630", "addr:street": "West Lawrence Avenue", "amenity": "restaurant", "cuisine": "middle_eastern", "name": "Hala In", "phone": "773-930-3612", "website": "http://www.hala-in.com/"}}, {"type": "node", "id": 2397800670, "lat": 41.9650696, "lon": -87.7444297, "tags": {"addr:city": "Chicago", "addr:housename": "Irish American Heritage Center", "addr:housenumber": "4626", "addr:postcode": "60630", "addr:street": "North Knox Avenue", "amenity": "bar", "name": "5th Province"}}, {"type": "node", "id": 6291740627, "lat": 41.9703599, "lon": -87.7283439, "tags": {"addr:city": "Chicago", "addr:housenumber": "4908", "addr:postcode": "60630", "addr:state": "IL", "addr:street": "North Pulaski Road", "amenity": "bar", "name": "Gamblers", "phone": "+1-773-545-3566", "website": "https://www.gamblerschicago.com/"}}, {"type": "node", "id": 6297835323, "lat": 41.9609937, "lon": -87.7394333, "tags": {"addr:city": "Chicago", "addr:housenumber": "4424", "addr:postcode": "60641", "addr:state": "IL", "addr:street": "West Montrose Avenue", "amenity": "bar", "name": "Sidekicks", "phone": "+1-773-545-6212", "website": "http://sidekicks-chicago.com/"}}, {"type": "node", "id": 6301874985, "lat": 41.9708243, "lon": -87.7440371, "tags": {"addr:city": "Chicago", "addr:housenumber": "4953", "addr:postcode": "60630", "addr:state": "IL", "addr:street": "North Elston Avenue", "amenity": "bar", "name": "Sunnyday Tap", "phone": "+1-773-725-5080"}}, {"type": "node", "id": 6306526919, "lat": 41.9557745, "lon": -87.7278715, "tags": {"addr:city": "Chicago", "addr:housenumber": "4104", "addr:postcode": "60641", "addr:state": "IL", "addr:street": "North Pulaski Road", "amenity": "bar", "name": "The Cabin At Old Irving", "phone": "+1-773-481-4183", "website": "https://www.thecabinatoldirving.com/"}}, {"type": "node", "id": 6323628623, "lat": 41.9624699, "lon": -87.732191, "tags": {"addr:city": "Chicago", "addr:housenumber": "4500", "addr:postcode": "60630", "addr:state": "IL", "addr:street": "North Elston Avenue", "amenity": "bar", "name": "O\u2019Donnell\u2019s", "phone": "+1-773-282-0813"}}, {"type": "node", "id": 6323951051, "lat": 41.960549, "lon": -87.73934, "tags": {"addr:city": "Chicago", "addr:housenumber": "4419", "addr:postcode": "60641", "addr:state": "IL", "addr:street": "West Montrose Avenue", "amenity": "bar", "name": "Old Irving Brewing", "phone": "+1-773-916-6421", "website": "https://www.oldirvingbrewing.com/"}}, {"type": "node", "id": 6324258698, "lat": 41.9571862, "lon": -87.7274109, "tags": {"addr:city": "Chicago", "addr:housenumber": "4157", "addr:postcode": "60641", "addr:state": "IL", "addr:street": "North Pulaski Road", "amenity": "bar", "name": "Paddy Mac\u2019s", "phone": "+1-773-279-9300", "website": "http://www.paddymacschicago.com/"}}, {"type": "node", "id": 6324375286, "lat": 41.9604534, "lon": -87.7459731, "tags": {"addr:city": "Chicago", "addr:housenumber": "4727", "addr:postcode": "60641", "addr:state": "IL", "addr:street": "West Montrose Avenue", "amenity": "bar", "name": "Lake Effect Brewing Company", "phone": "+1-312-523-5141", "website": "http://www.lakeeffectbrewing.com/"}}, {"type": "node", "id": 6968019524, "lat": 41.9611269, "lon": -87.7263816, "tags": {"addr:city": "Chicago", "addr:housenumber": "3930", "addr:state": "IL", "addr:street": "West Montrose Avenue", "amenity": "restaurant", "cuisine": "mexican", "name": "Taqueria La Fogata"}}]}