{"version": 0.6, "generator": "Overpass API 0.7.56.3 eb200aeb", "osm3s": {"timestamp_osm_base": "2020-07-04T03:03:03Z", "copyright": "The data included in this document is from www.openstreetmap.org. The data is made available under ODbL."}, "elements": [{"type": "node", "id": 1742945208, "lat": 41.9241249, "lon": -87.7282033}, {"type": "node", "id": 1742945214, "lat": 41.9241258, "lon": -87.7281059}, {"type": "node", "id": 1742945497, "lat": 41.9243138, "lon": -87.7281078}, {"type": "node", "id": 1742945503, "lat": 41.9243294, "lon": -87.7282069}, {"type": "node", "id": 1742945505, "lat": 41.9243304, "lon": -87.7281315}, {"type": "node", "id": 1743245275, "lat": 41.9313728, "lon": -87.7267107}, {"type": "node", "id": 1743245279, "lat": 41.9313746, "lon": -87.7265398}, {"type": "node", "id": 1743245610, "lat": 41.9316212, "lon": -87.7267157}, {"type": "node", "id": 1743245611, "lat": 41.931623, "lon": -87.7265448}, {"type": "node", "id": 1755554091, "lat": 41.9224754, "lon": -87.7168095}, {"type": "node", "id": 1755554092, "lat": 41.9224763, "lon": -87.7167176}, {"type": "node", "id": 1755555028, "lat": 41.9226314, "lon": -87.7167216}, {"type": "node", "id": 1755555031, "lat": 41.9226318, "lon": -87.7168135}, {"type": "node", "id": 1755555286, "lat": 41.922684, "lon": -87.7168148}, {"type": "node", "id": 1755555306, "lat": 41.9226862, "lon": -87.7167229}, {"type": "node", "id": 1780015409, "lat": 41.9243305, "lon": -87.7259629, "tags": {"amenity": "restaurant", "cuisine": "mexican", "name": "Burrito Joint"}}, {"type": "node", "id": 3563909260, "lat": 41.931975, "lon": -87.7223584, "tags": {"amenity": "restaurant", "cuisine": "salvadoran", "name": "El Guanaco"}}, {"type": "node", "id": 3629730354, "lat": 41.9247459, "lon": -87.7185896, "tags": {"amenity": "restaurant", "cuisine": "mexican", "name": "Raymond's Tacos"}}, {"type": "node", "id": 3629730355, "lat": 41.9247518, "lon": -87.7187854, "tags": {"amenity": "restaurant", "cuisine": "pizza", "name": "Vito & Angelo Pizzeria"}}, {"type": "node", "id": 3641096467, "lat": 41.9247881, "lon": -87.7159408, "tags": {"amenity": "restaurant", "cuisine": "mexican", "name": "El Pacifico"}}, {"type": "node", "id": 3641114043, "lat": 41.931781, "lon": -87.7192571, "tags": {"amenity": "pub", "name": "Bialystok Pub"}}, {"type": "node", "id": 6300446247, "lat": 41.9183165, "lon": -87.7260329, "tags": {"addr:city": "Chicago", "addr:housenumber": "3912", "addr:postcode": "60647", "addr:state": "IL", "addr:street": "West McLean Avenue", "amenity": "bar", "name": "Pipeworks Brewing", "phone": "+1-773-698-6154", "website": "http://pdubs.net/"}}, {"type": "node", "id": 6301756482, "lat": 41.9285568, "lon": -87.7302765, "tags": {"addr:city": "Chicago", "addr:housenumber": "4110", "addr:postcode": "60639", "addr:state": "IL", "addr:street": "West Wrightwood Avenue", "amenity": "cafe", "name": "Stewarts Private Blend Coffee", "phone": "+1-773-489-2500", "website": "https://stewarts.com/"}}, {"type": "node", "id": 6303063044, "lat": 41.9245881, "lon": -87.7346906, "tags": {"addr:city": "Chicago", "addr:housenumber": "4312", "addr:postcode": "60639", "addr:state": "IL", "addr:street": "West Fullerton Avenue", "amenity": "restaurant", "name": "Tacotlan", "phone": "+1-773-666-5259"}}, {"type": "node", "id": 6315650619, "lat": 41.9243426, "lon": -87.7196926, "tags": {"addr:city": "Chicago", "addr:housenumber": "3703", "addr:postcode": "60647", "addr:state": "IL", "addr:street": "West Fullerton Avenue", "amenity": "restaurant", "name": "The Little Pickle", "phone": "+1-312-270-4538", "website": "https://www.thelittlepicklechicago.com/"}}, {"type": "node", "id": 6319849466, "lat": 41.9243634, "lon": -87.7213646, "tags": {"addr:city": "Chicago", "addr:housenumber": "3749", "addr:postcode": "60647", "addr:state": "IL", "addr:street": "West Fullerton Avenue", "amenity": "restaurant", "cuisine": "mexican", "name": "L\u2019 Patron Tacos", "phone": "+1-773-799-8066"}}, {"type": "node", "id": 6324278875, "lat": 41.9249315, "lon": -87.720486, "tags": {"addr:city": "Chicago", "addr:housenumber": "3724", "addr:postcode": "60647", "addr:state": "IL", "addr:street": "West Fullerton Avenue", "amenity": "cafe", "name": "Pan Artesanal", "phone": "+1-312-286-5265", "website": "https://www.panartesanalbakery.com/"}}, {"type": "node", "id": 7442864166, "lat": 41.9243876, "lon": -87.7203158, "tags": {"addr:city": "Chicago", "addr:housenumber": "3721", "addr:postcode": "60647", "addr:state": "IL", "addr:street": "West Fullerton Avenue", "amenity": "restaurant", "cuisine": "mexican", "name": "Gabriela\u2019s Carnitas"}}, {"type": "way", "id": 162390785, "nodes": [1742945208, 1742945503, 1742945505, 1742945497, 1742945214, 1742945208], "tags": {"addr:city": "Chicago", "addr:housenumber": "4035", "addr:postcode": "60639", "addr:state": "IL", "addr:street": "West Fullerton Avenue", "addr:street:name": "Fullerton", "addr:street:prefix": "West", "addr:street:type": "Avenue", "amenity": "bar", "building": "yes", "name": "The Levee", "phone": "+1-773-342-2808", "website": "http://daleveechicago.com/"}}, {"type": "way", "id": 162436410, "nodes": [1743245275, 1743245610, 1743245611, 1743245279, 1743245275], "tags": {"addr:city": "Chicago", "addr:housenumber": "3959", "addr:postcode": "60647", "addr:street": "West Diversey Avenue", "addr:street:name": "Diversey", "addr:street:prefix": "West", "addr:street:type": "Avenue", "amenity": "restaurant", "building": "yes", "building:levels": "1", "chicago:building_id": "244081", "cuisine": "american", "name": "Golden Nugget Pancake House", "website": "https://www.goldennuggetpancake.com/"}}, {"type": "way", "id": 163886441, "nodes": [1755554091, 1755555031, 1755555286, 1755555306, 1755555028, 1755554092, 1755554091], "tags": {"addr:city": "Chicago", "addr:housenumber": "3581", "addr:postcode": "60647", "addr:state": "IL", "addr:street": "West Belden Avenue", "addr:street:name": "Belden", "addr:street:prefix": "West", "addr:street:type": "Avenue", "amenity": "restaurant", "building": "yes", "building:levels": "1", "construction": "restaurant", "cuisine": "american", "name": "Wyler Road", "phone": "+1-773-661-0675", "website": "http://www.wylerroad.com/"}}]}