{"version": 0.6, "generator": "Overpass API 0.7.56.3 eb200aeb", "osm3s": {"timestamp_osm_base": "2020-07-17T16:42:03Z", "copyright": "The data included in this document is from www.openstreetmap.org. The data is made available under ODbL."}, "elements": [{"type": "node", "id": 318276729, "lat": 41.9208448, "lon": -87.6332051, "tags": {"amenity": "cafe", "name": "Park Place Cafe"}}, {"type": "node", "id": 347159885, "lat": 41.9112846, "lon": -87.6348689, "tags": {"addr:city": "Chicago", "addr:country": "US", "addr:housenumber": "210", "addr:postcode": "60610", "addr:state": "IL", "addr:street": "West North Avenue", "amenity": "cafe", "brand": "Starbucks", "brand:wikidata": "Q37158", "brand:wikipedia": "en:Starbucks", "cuisine": "coffee_shop", "entrance": "yes", "name": "Starbucks", "official_name": "Starbucks Coffee", "takeaway": "yes"}}, {"type": "node", "id": 347160446, "lat": 41.9127223, "lon": -87.638378, "tags": {"addr:city": "Chicago", "addr:housenumber": "1655", "addr:postcode": "60614", "addr:state": "IL", "addr:street": "North Sedgwick Street", "amenity": "restaurant", "cuisine": "american;ribs", "name": "Twin Anchors Restaurant & Tavern", "opening_hours": "Mo-Tu 17:00-22:30; We-Th 17:00-23:00; Fr 17:00-00:00; Sa 12:00-00:00; Su 12:00-22:30", "phone": "+1-312-266-1616", "website": "https://twinanchorsribs.com/"}}, {"type": "node", "id": 477087310, "lat": 41.9216973, "lon": -87.6488467, "tags": {"addr:city": "Chicago", "addr:housenumber": "2158", "addr:postcode": "60614", "addr:state": "IL", "addr:street": "North Halsted Street", "amenity": "bar", "name": "Glasscott's", "phone": "+1-773-281-1205", "website": "http://www.glascotts.com/"}}, {"type": "node", "id": 1724441444, "lat": 41.9106374, "lon": -87.6345311, "tags": {"addr:city": "Chicago", "addr:housename": "1551", "addr:housenumber": "1551", "addr:postcode": "60610", "addr:state": "IL", "addr:street": "North Wells Street", "amenity": "restaurant", "cuisine": "pizza;italian", "name": "Dinotto", "opening_hours": "Tu-Th 16:30-22:00; Fr-Sa 12:00-22:00; Su 16:00-22:00", "phone": "+1-312-202-0302", "website": "https://dinotto.business.site/"}}, {"type": "node", "id": 1724441449, "lat": 41.9105842, "lon": -87.6345302, "tags": {"addr:city": "Chicago", "addr:country": "US", "addr:housenumber": "1549", "addr:state": "IL", "addr:street": "North Wells Street", "amenity": "restaurant", "cuisine": "sandwich", "name": "Einstein Bagels"}}, {"type": "node", "id": 2086708645, "lat": 41.9115662, "lon": -87.6345885}, {"type": "node", "id": 2086708647, "lat": 41.9115704, "lon": -87.6342839}, {"type": "node", "id": 2086708649, "lat": 41.9116319, "lon": -87.6345901}, {"type": "node", "id": 2086708650, "lat": 41.9116361, "lon": -87.6342855}, {"type": "node", "id": 2166039854, "lat": 41.9106416, "lon": -87.6351225}, {"type": "node", "id": 2166039855, "lat": 41.9106425, "lon": -87.635053}, {"type": "node", "id": 2166039857, "lat": 41.9106453, "lon": -87.6348451}, {"type": "node", "id": 2166039861, "lat": 41.9106971, "lon": -87.6351239}, {"type": "node", "id": 2166039862, "lat": 41.9107008, "lon": -87.6348464}, {"type": "node", "id": 2203998611, "lat": 41.9101419, "lon": -87.6491644}, {"type": "node", "id": 2203998642, "lat": 41.9101919, "lon": -87.6492343}, {"type": "node", "id": 2203998691, "lat": 41.9103457, "lon": -87.6489012}, {"type": "node", "id": 2203998709, "lat": 41.91038, "lon": -87.6506163}, {"type": "node", "id": 2203998712, "lat": 41.9103813, "lon": -87.6503404}, {"type": "node", "id": 2203998719, "lat": 41.9103958, "lon": -87.648971}, {"type": "node", "id": 2203998741, "lat": 41.9104459, "lon": -87.6436874}, {"type": "node", "id": 2203998747, "lat": 41.9104492, "lon": -87.6435478}, {"type": "node", "id": 2203998749, "lat": 41.9104542, "lon": -87.6436892}, {"type": "node", "id": 2203998788, "lat": 41.9105184, "lon": -87.6436407}, {"type": "node", "id": 2203998793, "lat": 41.9105206, "lon": -87.6435507}, {"type": "node", "id": 2203998810, "lat": 41.9105404, "lon": -87.6506176}, {"type": "node", "id": 2203998811, "lat": 41.9105433, "lon": -87.6503417}, {"type": "node", "id": 2203998812, "lat": 41.9105435, "lon": -87.6502776}, {"type": "node", "id": 2203998908, "lat": 41.9106836, "lon": -87.6503386}, {"type": "node", "id": 2203998910, "lat": 41.9106838, "lon": -87.6502787}, {"type": "node", "id": 2203998933, "lat": 41.910726, "lon": -87.6502951}, {"type": "node", "id": 2203998935, "lat": 41.9107259, "lon": -87.650339}, {"type": "node", "id": 2203998973, "lat": 41.9107911, "lon": -87.6502956}, {"type": "node", "id": 2204017997, "lat": 41.918528, "lon": -87.6490047}, {"type": "node", "id": 2204018017, "lat": 41.9185342, "lon": -87.6486592}, {"type": "node", "id": 2204018019, "lat": 41.9185354, "lon": -87.648647}, {"type": "node", "id": 2204018237, "lat": 41.9185966, "lon": -87.6490156}, {"type": "node", "id": 2204018278, "lat": 41.9186054, "lon": -87.6486499}, {"type": "node", "id": 2204024213, "lat": 41.9200758, "lon": -87.6491571}, {"type": "node", "id": 2204024246, "lat": 41.9200822, "lon": -87.6487242}, {"type": "node", "id": 2204024332, "lat": 41.9201013, "lon": -87.6486982}, {"type": "node", "id": 2204024436, "lat": 41.9201452, "lon": -87.6491589}, {"type": "node", "id": 2204024451, "lat": 41.9201521, "lon": -87.6486996}, {"type": "node", "id": 2204034445, "lat": 41.9230531, "lon": -87.6459254}, {"type": "node", "id": 2204034519, "lat": 41.9230715, "lon": -87.6459558}, {"type": "node", "id": 2204034575, "lat": 41.9230861, "lon": -87.6459754}, {"type": "node", "id": 2204034779, "lat": 41.9231343, "lon": -87.6458217}, {"type": "node", "id": 2204034784, "lat": 41.9231356, "lon": -87.6458033}, {"type": "node", "id": 2204035015, "lat": 41.9232155, "lon": -87.6458109}, {"type": "node", "id": 2207608395, "lat": 41.9050307, "lon": -87.6350389}, {"type": "node", "id": 2207608406, "lat": 41.9050381, "lon": -87.634666}, {"type": "node", "id": 2207608564, "lat": 41.9050966, "lon": -87.6350233}, {"type": "node", "id": 2207608565, "lat": 41.9050962, "lon": -87.6350412}, {"type": "node", "id": 2207608584, "lat": 41.9051036, "lon": -87.6346683}, {"type": "node", "id": 2207608926, "lat": 41.9052211, "lon": -87.6348978}, {"type": "node", "id": 2207608949, "lat": 41.9052256, "lon": -87.6346727}, {"type": "node", "id": 2207609009, "lat": 41.9052681, "lon": -87.6348995}, {"type": "node", "id": 2207609010, "lat": 41.9052679, "lon": -87.6349087}, {"type": "node", "id": 2207609030, "lat": 41.9052784, "lon": -87.6348583}, {"type": "node", "id": 2207609040, "lat": 41.905282, "lon": -87.6346747}, {"type": "node", "id": 2207609057, "lat": 41.9052917, "lon": -87.6348588}, {"type": "node", "id": 2207609060, "lat": 41.9052907, "lon": -87.6349095}, {"type": "node", "id": 2207609172, "lat": 41.9053678, "lon": -87.6350447}, {"type": "node", "id": 2207609174, "lat": 41.9053698, "lon": -87.6349183}, {"type": "node", "id": 2207609177, "lat": 41.9053694, "lon": -87.6349183}, {"type": "node", "id": 2207609180, "lat": 41.9053714, "lon": -87.6347878}, {"type": "node", "id": 2207609186, "lat": 41.9053717, "lon": -87.6347592}, {"type": "node", "id": 2207609188, "lat": 41.9053728, "lon": -87.6346746}, {"type": "node", "id": 2207609269, "lat": 41.9054415, "lon": -87.6350463}, {"type": "node", "id": 2207609270, "lat": 41.9054429, "lon": -87.6349285}, {"type": "node", "id": 2207609278, "lat": 41.9054461, "lon": -87.6346763}, {"type": "node", "id": 2207635538, "lat": 41.907732, "lon": -87.6344762}, {"type": "node", "id": 2207635541, "lat": 41.9077358, "lon": -87.6341393}, {"type": "node", "id": 2207635615, "lat": 41.9078347, "lon": -87.6341407}, {"type": "node", "id": 2207635617, "lat": 41.9078376, "lon": -87.634469}, {"type": "node", "id": 2207635618, "lat": 41.9078253, "lon": -87.6344782}, {"type": "node", "id": 2207637696, "lat": 41.9090034, "lon": -87.6341272}, {"type": "node", "id": 2207637705, "lat": 41.909016, "lon": -87.6341274}, {"type": "node", "id": 2207637706, "lat": 41.909016, "lon": -87.6341331}, {"type": "node", "id": 2207637782, "lat": 41.9090487, "lon": -87.6342489}, {"type": "node", "id": 2207637785, "lat": 41.909049, "lon": -87.6342002}, {"type": "node", "id": 2207637813, "lat": 41.9090601, "lon": -87.6344978}, {"type": "node", "id": 2207637819, "lat": 41.9090613, "lon": -87.634249}, {"type": "node", "id": 2207637826, "lat": 41.9090661, "lon": -87.6342003}, {"type": "node", "id": 2207637827, "lat": 41.9090665, "lon": -87.6341336}, {"type": "node", "id": 2207638564, "lat": 41.9094986, "lon": -87.6384087}, {"type": "node", "id": 2207638569, "lat": 41.9095013, "lon": -87.6380817}, {"type": "node", "id": 2207638657, "lat": 41.9095425, "lon": -87.6384094}, {"type": "node", "id": 2207638661, "lat": 41.9095453, "lon": -87.6380823}, {"type": "node", "id": 2207638953, "lat": 41.9097401, "lon": -87.6345198}, {"type": "node", "id": 2207638957, "lat": 41.9097469, "lon": -87.6342361}, {"type": "node", "id": 2207638967, "lat": 41.9097543, "lon": -87.6339208}, {"type": "node", "id": 2207638968, "lat": 41.9097544, "lon": -87.6339318}, {"type": "node", "id": 2207639299, "lat": 41.9099564, "lon": -87.6345238}, {"type": "node", "id": 2207639310, "lat": 41.9099639, "lon": -87.6339253}, {"type": "node", "id": 2207640348, "lat": 41.9107678, "lon": -87.634064}, {"type": "node", "id": 2207640351, "lat": 41.9107718, "lon": -87.6338215}, {"type": "node", "id": 2207640358, "lat": 41.9107802, "lon": -87.6340786}, {"type": "node", "id": 2207640378, "lat": 41.9108036, "lon": -87.6340783}, {"type": "node", "id": 2207640380, "lat": 41.9108046, "lon": -87.6340214}, {"type": "node", "id": 2207640484, "lat": 41.911042, "lon": -87.634028}, {"type": "node", "id": 2207640485, "lat": 41.9110449, "lon": -87.6338295}, {"type": "node", "id": 2262364827, "lat": 41.9113354, "lon": -87.6356269, "tags": {"addr:housenumber": "230", "addr:postcode": "60614", "addr:street": "West North Avenue", "amenity": "bar", "name": "UP Comedy Club", "source": "312-664-4032", "website": "http://www.upcomedyclub.com/"}}, {"type": "node", "id": 2280301588, "lat": 41.9102437, "lon": -87.6488384, "tags": {"addr:city": "Chicago", "addr:housenumber": "1578", "addr:postcode": "60642", "addr:state": "IL", "addr:street": "North Clybourn Avenue", "amenity": "restaurant", "cuisine": "burger", "name": "Burger Bar Chicago - Lincoln Park", "opening_hours": "Mo-Th 11:30-22:00; Fr-Sa 11:00-23:00; Su 11:00-21:00", "phone": "+1-312-255-0055", "website": "http://burgerbarchicago.com/"}}, {"type": "node", "id": 2393465770, "lat": 41.912499, "lon": -87.6345793, "tags": {"addr:city": "Chicago", "addr:country": "US", "addr:housenumber": "1647", "addr:state": "IL", "addr:street": "North Wells Street", "amenity": "bar", "entrance": "yes"}}, {"type": "node", "id": 2393465775, "lat": 41.9096394, "lon": -87.6348401, "tags": {"addr:city": "Chicago", "addr:country": "US", "addr:housenumber": "1514", "addr:postcode": "60610", "addr:state": "IL", "addr:street": "North Wells Street", "amenity": "restaurant", "cuisine": "italian", "name": "Topo Gigio Ristorante", "opening_hours": "Mo-Sa 11:30-22:30; Su 16:00-21:30", "phone": "+1-312-266-9355", "website": "https://www.topogigiochicago.com/"}}, {"type": "node", "id": 2393465796, "lat": 41.9090017, "lon": -87.6344973}, {"type": "node", "id": 2393465797, "lat": 41.9090029, "lon": -87.6342414}, {"type": "node", "id": 2399641191, "lat": 41.9172647, "lon": -87.6370796, "tags": {"addr:housenumber": "1925", "addr:street": "North Lincoln Avenue", "addr:street:name": "Lincoln", "addr:street:prefix": "North", "addr:street:type": "Avenue", "amenity": "restaurant", "cuisine": "pizza", "name": "Rocco Ranalli's"}}, {"type": "node", "id": 2479668242, "lat": 41.9089305, "lon": -87.6383817}, {"type": "node", "id": 2479668243, "lat": 41.9089363, "lon": -87.6380474}, {"type": "node", "id": 2479668244, "lat": 41.9089981, "lon": -87.6383838}, {"type": "node", "id": 2479668245, "lat": 41.909004, "lon": -87.6380495}, {"type": "node", "id": 2521766275, "lat": 41.911036, "lon": -87.6327641, "tags": {"addr:city": "Chicago", "addr:country": "US", "addr:housenumber": "129", "addr:street": "West North Avenue", "amenity": "restaurant", "cuisine": "chinese", "name": "Peking Chinese Restaurant"}}, {"type": "node", "id": 2577813545, "lat": 41.910787, "lon": -87.6490879, "tags": {"addr:city": "Chicago", "addr:country": "US", "addr:housenumber": "1599", "addr:postcode": "60642", "addr:state": "IL", "addr:street": "North Clybourn Avenue", "amenity": "cafe", "brand": "Starbucks", "brand:wikidata": "Q37158", "brand:wikipedia": "en:Starbucks", "cuisine": "coffee_shop", "name": "Starbucks", "official_name": "Starbucks Coffee", "takeaway": "yes"}}, {"type": "node", "id": 2607221649, "lat": 41.9229445, "lon": -87.6449862, "tags": {"addr:city": "Chicago", "addr:country": "US", "addr:housenumber": "2245", "addr:street": "North Lincoln Avenue", "amenity": "restaurant", "cuisine": "pizza", "name": "Lincoln Park Pizza"}}, {"type": "node", "id": 2607221928, "lat": 41.923172, "lon": -87.6457498}, {"type": "node", "id": 2623046304, "lat": 41.9174354, "lon": -87.6486475, "tags": {"addr:city": "Chicago", "addr:housenumber": "1948", "addr:postcode": "60614", "addr:street": "North Halsted Street", "amenity": "bar", "name": "Manhandler Saloon"}}, {"type": "node", "id": 2623896621, "lat": 41.9179369, "lon": -87.6483425, "tags": {"addr:city": "Chicago", "addr:housenumber": "1969", "addr:postcode": "60614", "addr:street": "North Halsted Street", "amenity": "restaurant", "cuisine": "Taqueria/Cantina", "name": "Taco Joint", "phone": "+1-312-951-2457", "website": "https://www.tacojoint.com/"}}, {"type": "node", "id": 2623896633, "lat": 41.917875, "lon": -87.648321, "tags": {"addr:city": "Chicago", "addr:housenumber": "1967", "addr:postcode": "60614", "addr:street": "North Halsted Street", "amenity": "restaurant", "name": "Rustic House"}}, {"type": "node", "id": 2623896642, "lat": 41.9179319, "lon": -87.6486675, "tags": {"addr:city": "Chicago", "addr:housenumber": "1966", "addr:postcode": "60614", "addr:state": "IL", "addr:street": "North Halsted Street", "amenity": "restaurant", "name": "Pasta Palazzo", "phone": "+1-773-248-1400", "takeaway": "yes", "website": "http://pastapalazzo.com/"}}, {"type": "node", "id": 2624050319, "lat": 41.9180677, "lon": -87.6483402, "tags": {"addr:city": "Chicago", "addr:housenumber": "1973", "addr:postcode": "60614", "addr:state": "IL", "addr:street": "North Halsted Street", "amenity": "bar", "name": "Marquee Lounge"}}, {"type": "node", "id": 2624050324, "lat": 41.9177852, "lon": -87.6486715, "tags": {"addr:city": "Chicago", "addr:housenumber": "1962", "addr:postcode": "60614", "addr:street": "North Halsted Street", "amenity": "restaurant", "name": "Coppervine"}}, {"type": "node", "id": 2624050329, "lat": 41.9180886, "lon": -87.6471654, "tags": {"addr:city": "Chicago", "addr:housenumber": "732", "addr:postcode": "60614", "addr:street": "West Armitage Avenue", "amenity": "restaurant", "cuisine": "fast_food", "name": "Brothers Beef"}}, {"type": "node", "id": 2673655700, "lat": 41.9187003, "lon": -87.6366459, "tags": {"addr:city": "Chicago", "addr:housenumber": "2020", "addr:postcode": "60614", "addr:state": "IL", "addr:street": "North Lincoln Park West", "amenity": "restaurant", "brand": "The Original Pancake House", "brand:wikidata": "Q7755384", "brand:wikipedia": "en:The Original Pancake House", "cuisine": "breakfast;pancake", "name": "The Original Pancake House"}}, {"type": "node", "id": 2870579423, "lat": 41.910905, "lon": -87.6408852, "tags": {"amenity": "bar", "name": "Old Town Social"}}, {"type": "node", "id": 2946725325, "lat": 41.9169091, "lon": -87.6366164, "tags": {"amenity": "restaurant", "cuisine": "italian", "name": "Brick's"}}, {"type": "node", "id": 2968844771, "lat": 41.9189763, "lon": -87.6487203, "tags": {"addr:city": "Chicago", "addr:housenumber": "2024", "addr:postcode": "60614", "addr:state": "IL", "addr:street": "North Halsted Street", "amenity": "restaurant", "name": "Cafe Ba-Ba-Reeba!", "phone": "+1-773-935-5000", "website": "http://cafebabareeba.com/"}}, {"type": "node", "id": 2986607620, "lat": 41.9107897, "lon": -87.6506196}, {"type": "node", "id": 2988737657, "lat": 41.9180298, "lon": -87.6386499, "tags": {"addr:city": "Chicago", "addr:housenumber": "1970", "addr:postcode": "60614", "addr:state": "IL", "addr:street": "North Lincoln Avenue", "amenity": "restaurant", "entrance": "yes", "name": "Stanley's Kitchen and Tap"}}, {"type": "node", "id": 3269064603, "lat": 41.9181092, "lon": -87.6465719, "tags": {"amenity": "restaurant", "cuisine": "pizza", "name": "Armitage Pizza", "takeaway": "yes"}}, {"type": "node", "id": 3502294519, "lat": 41.9137104, "lon": -87.6481992, "tags": {"addr:city": "Chicago", "addr:housenumber": "1733", "addr:postcode": "60614", "addr:state": "IL", "addr:street": "North Halsted Street", "amenity": "restaurant", "cuisine": "deep_dish_pizza_and_general_Italian", "delivery": "yes", "name": "Pizza Capri", "takeaway": "yes"}}, {"type": "node", "id": 3502294527, "lat": 41.9136386, "lon": -87.6482025, "tags": {"addr:city": "Chicago", "addr:housenumber": "1729", "addr:postcode": "60614", "addr:state": "IL", "addr:street": "North Halsted Street", "amenity": "restaurant", "name": "Boka", "opening_hours": "Mo-Th 17:00-22:00; Fr-Sa 17:00-23:00; Su 17:00-22:00", "phone": "+1-312-337-6070", "website": "http://www.bokachicago.com/", "wikidata": "Q16255079"}}, {"type": "node", "id": 3502294528, "lat": 41.9136875, "lon": -87.6485512, "tags": {"addr:housenumber": "1732", "addr:street": "North Halsted Street", "amenity": "restaurant", "cuisine": "italian", "name": "Vinci"}}, {"type": "node", "id": 3502294529, "lat": 41.9134372, "lon": -87.648199, "tags": {"addr:city": "Chicago", "addr:housenumber": "1723", "addr:postcode": "60614", "addr:state": "IL", "addr:street": "North Halsted Street", "amenity": "restaurant", "cuisine": "fine_dining", "name": "Alinea", "phone": "+1-312-867-0110", "website": "https://www.alinearestaurant.com/", "wikidata": "Q4726773"}}, {"type": "node", "id": 3502294530, "lat": 41.911655, "lon": -87.6480886, "tags": {"amenity": "restaurant", "name": "Circle Sushi & Grill", "takeaway": "yes"}}, {"type": "node", "id": 3502294531, "lat": 41.9117202, "lon": -87.6480993, "tags": {"addr:city": "Chicago", "addr:housenumber": "1625", "addr:postcode": "60614", "addr:state": "IL", "addr:street": "North Halsted Street", "amenity": "restaurant", "cuisine": "mediterranean", "name": "Dawali Mediterranean Kitchen", "phone": "+1-312-944-5800", "takeaway": "yes", "website": "http://dawalikitchen.com/"}}, {"type": "node", "id": 3502294537, "lat": 41.9119981, "lon": -87.6481205, "tags": {"amenity": "restaurant", "cuisine": "italian", "name": "Balena"}}, {"type": "node", "id": 4100246313, "lat": 41.9200447, "lon": -87.6366013, "tags": {"addr:city": "Chicago", "addr:housenumber": "2056", "addr:postcode": "60614", "addr:state": "IL", "addr:street": "Lincoln Park West", "amenity": "restaurant", "name": "RJ Grunts", "opening_hours": "Mo-Fr 11:30-23:00; Sa 10:00-23:00; Su 10:00-21:00", "phone": "+1-773-929-5363", "website": "http://www.rjgruntschicago.com/"}}, {"type": "node", "id": 4131053948, "lat": 41.908293, "lon": -87.6468872, "tags": {"addr:city": "Chicago", "addr:housenumber": "1500", "addr:postcode": "60610", "addr:state": "IL", "addr:street": "North Clybourn Avenue", "amenity": "restaurant", "brand": "Nando's", "brand:wikidata": "Q3472954", "brand:wikipedia": "en:Nando's", "cuisine": "chicken;portuguese", "name": "Nando's", "phone": "+1-312-546-9723", "website": "https://www.nandosperiperi.com/"}}, {"type": "node", "id": 4188110370, "lat": 41.9200282, "lon": -87.6369267, "tags": {"amenity": "cafe", "brand": "Starbucks", "brand:wikidata": "Q37158", "brand:wikipedia": "en:Starbucks", "cuisine": "coffee_shop", "name": "Starbucks", "official_name": "Starbucks Coffee", "takeaway": "yes"}}, {"type": "node", "id": 4191676729, "lat": 41.9109799, "lon": -87.6349566, "tags": {"addr:city": "Chicago", "addr:housenumber": "1562", "addr:postcode": "60610", "addr:state": "IL", "addr:street": "North Wells Street", "amenity": "cafe", "brand": "Le Pain Quotidien", "brand:wikidata": "Q2046903", "brand:wikipedia": "en:Le Pain Quotidien", "cuisine": "coffee_shop", "name": "Le Pain Quotidien", "phone": "+1-312-281-6775", "takeaway": "yes", "website": "https://www1.lepainquotidien.com/us/en/locations/605/1562-n-wells-st"}}, {"type": "node", "id": 4191676733, "lat": 41.9114966, "lon": -87.6387692, "tags": {"amenity": "bar", "name": "Sedgwick Stop"}}, {"type": "node", "id": 4191676734, "lat": 41.9176173, "lon": -87.6386253, "tags": {"amenity": "bar", "name": "Sedgwick's"}}, {"type": "node", "id": 4191676735, "lat": 41.9109006, "lon": -87.6404783, "tags": {"amenity": "restaurant", "cuisine": "japanese", "name": "Shiso"}}, {"type": "node", "id": 4191676738, "lat": 41.9100421, "lon": -87.6493042, "tags": {"addr:city": "Chicago", "addr:housenumber": "1555", "addr:postcode": "60642", "addr:state": "IL", "addr:street": "North Dayton Street", "amenity": "bar", "name": "Weeds Tavern", "phone": "+1-312-943-7815", "website": "http://weedstavern.com/"}}, {"type": "node", "id": 4196262789, "lat": 41.9216939, "lon": -87.649093, "tags": {"addr:city": "Chicago", "addr:housenumber": "807", "addr:state": "IL", "addr:street": "West Webster Avenue", "amenity": "restaurant", "name": "Athenian Room", "phone": "+1-773-348-5155"}}, {"type": "node", "id": 4196262795, "lat": 41.9219393, "lon": -87.6488352, "tags": {"amenity": "cafe", "brand": "Starbucks", "brand:wikidata": "Q37158", "brand:wikipedia": "en:Starbucks", "cuisine": "coffee_shop", "name": "Starbucks", "official_name": "Starbucks Coffee", "takeaway": "yes"}}, {"type": "node", "id": 4196262798, "lat": 41.9219534, "lon": -87.648107, "tags": {"addr:city": "Chicago", "addr:housenumber": "746", "addr:postcode": "60614", "addr:state": "IL", "addr:street": "West Webster Avenue", "amenity": "restaurant", "name": "Toast", "phone": "+1-773-935-5600", "website": "http://chicago-toast.com/"}}, {"type": "node", "id": 4196277890, "lat": 41.9109839, "lon": -87.635275, "tags": {"addr:city": "Chicago", "addr:country": "US", "addr:postcode": "60614", "addr:state": "IL", "amenity": "restaurant", "building": "entrance", "cuisine": "mexican", "name": "Adobo Grill"}}, {"type": "node", "id": 4214191957, "lat": 41.9100021, "lon": -87.6343992, "tags": {"amenity": "restaurant", "cuisine": "mexican", "name": "Buzz Bait Tacos - PERMANENTLY CLOSED"}}, {"type": "node", "id": 4564443501, "lat": 41.9208033, "lon": -87.6373192, "tags": {"addr:postcode": "60614", "amenity": "restaurant", "cuisine": "pizza", "name": "Chicago Pizza and Oven Grinder Co.", "opening_hours": "Mo-Th 16:00-23:00; Fr 16:00-00:00; Sa 11:30-00:00; Su 11:30-23:00", "phone": "7732482570", "website": "http://chicagopizzaandovengrinder.com"}}, {"type": "node", "id": 5092612001, "lat": 41.9207184, "lon": -87.6373313, "tags": {"addr:city": "Chicago", "addr:housenumber": "2119", "addr:postcode": "60614", "addr:state": "IL", "addr:street": "North Clark Street", "amenity": "restaurant", "name": "Riccardo Trattoria", "phone": "+1-773-549-0038", "website": "http://www.riccardotrattoria.com/"}}, {"type": "node", "id": 5092612002, "lat": 41.920646, "lon": -87.6376583, "tags": {"addr:city": "Chicago", "addr:housenumber": "2116", "addr:postcode": "60614", "addr:state": "IL", "addr:street": "North Clark Street", "amenity": "restaurant", "name": "Riccardo Enoteca", "phone": "+1-773-549-5010", "website": "http://www.riccardoenoteca.com/"}}, {"type": "node", "id": 5460880257, "lat": 41.9153668, "lon": -87.6345049, "tags": {"addr:city": "Chicago", "addr:housenumber": "1800", "addr:postcode": "60614", "addr:state": "IL", "addr:street": "North Lincoln Avenue", "amenity": "restaurant", "cuisine": "american", "name": "The Kennison", "opening_hours": "Su-Th 17:00-22:00; Fr-Sa 17:00-23:00; Sa-Su 09:00-14:00", "phone": "+1-312-981-7070", "website": "https://www.thekennison.com/"}}, {"type": "node", "id": 5688396721, "lat": 41.9153381, "lon": -87.6344171, "tags": {"addr:city": "Chicago", "addr:housenumber": "1816", "addr:postcode": "60614", "addr:state": "IL", "addr:street": "North Clark Street", "addr:unit": "13", "amenity": "bar", "name": "The J Parker", "opening_hours": "Mo-Th 17:00-00:00; Fr 15:00-02:00; Sa 14:00-02:00; Su 14:00-00:00", "phone": "+1-312-254-4747", "website": "https://www.jparkerchicago.com/"}}, {"type": "node", "id": 6081060319, "lat": 41.9090489, "lon": -87.6342218}, {"type": "node", "id": 6081060321, "lat": 41.9090608, "lon": -87.6343593}, {"type": "node", "id": 6191165327, "lat": 41.9109366, "lon": -87.6358742, "tags": {"addr:city": "Chicago", "addr:housenumber": "227", "addr:postcode": "60610", "addr:state": "IL", "addr:street": "West North Avenue", "amenity": "restaurant", "cuisine": "seafood", "name": "Two Lights Seafood & Oyster", "opening_hours": "Mo-Fr 17:00-22:00; Sa 17:00-23:00; Su 17:00-21:00", "phone": "+1-312-929-3091", "website": "twolightschicago.com"}}, {"type": "node", "id": 6198363142, "lat": 41.9204702, "lon": -87.6487784, "tags": {"addr:city": "Chicago", "addr:housenumber": "2114", "addr:postcode": "60614", "addr:state": "IL", "addr:street": "North Halsted Street", "amenity": "restaurant", "cuisine": "breakfast, american", "name": "Nookies, too", "opening_hours": "Su-Sa 07:00-15:30", "phone": "+1-773-327-1400", "website": "http://www.nookieschicago.com/too_menu.php"}}, {"type": "node", "id": 6221691717, "lat": 41.9152622, "lon": -87.6343853, "tags": {"addr:city": "Chicago", "addr:housenumber": "1816", "addr:postcode": "60614", "addr:state": "IL", "addr:street": "North Clark Street", "amenity": "cafe", "cuisine": "breakfast", "name": "Elaine's Coffee Call", "opening_hours": "Mo-Su 06:30-17:00", "phone": "+1-312-254-4665", "website": "https://www.bokagrp.com/elaines.php"}}, {"type": "node", "id": 6237287435, "lat": 41.9059085, "lon": -87.6304864, "tags": {"addr:city": "Chicago", "addr:housenumber": "1300", "addr:postcode": "60610", "addr:state": "IL", "addr:street": "North Dearborn Parkway", "amenity": "restaurant", "cuisine": "american", "name": "3 Arts Club Caf\u00e9", "opening_hours": "Mo-Sa 10:00-20:00; Su 11:00-18:00", "phone": "+1-312-475-9116", "website": "3artsclubcafe.com"}}, {"type": "node", "id": 6250192785, "lat": 41.9056759, "lon": -87.6303029, "tags": {"addr:city": "Chicago", "addr:housenumber": "1260", "addr:postcode": "60610", "addr:state": "IL", "addr:street": "North Dearborn Parkway", "amenity": "restaurant", "name": "3rd Coast Cafe", "phone": "+1-312-649-0730", "website": "https://www.3rdcoastcafe.com/"}}, {"type": "node", "id": 6256206803, "lat": 41.9225682, "lon": -87.6443899, "tags": {"addr:city": "Chicago", "addr:housenumber": "2221", "addr:postcode": "60614", "addr:state": "IL", "addr:street": "North Lincoln Avenue", "amenity": "restaurant", "name": "7 Plates Cafe", "phone": "+1-773-687-8817", "website": "https://www.sevenplatescafe.com/"}}, {"type": "node", "id": 6256290024, "lat": 41.9093, "lon": -87.6348661, "tags": {"addr:city": "Chicago", "addr:housenumber": "1500", "addr:postcode": "60610", "addr:state": "IL", "addr:street": "North Wells Street", "amenity": "bar", "name": "80 Proof", "phone": "+1-773-966-0404", "website": "https://80proofchi.com/"}}, {"type": "node", "id": 6261014453, "lat": 41.91169, "lon": -87.6344514, "tags": {"addr:city": "Chicago", "addr:housenumber": "1617", "addr:postcode": "60614", "addr:state": "IL", "addr:street": "North Wells Street", "amenity": "restaurant", "cuisine": "pub;american", "name": "Wells On Wells", "opening_hours": "Mo 17:00-00:00; Tu-Fr 11:30-02:00; Sa 10:30-03:00; Su 10:30-02:00", "phone": "+1-312-944-1617", "website": "https://wellsonwells.com/"}}, {"type": "node", "id": 6261017458, "lat": 41.9113447, "lon": -87.6353526, "tags": {"addr:city": "Chicago", "addr:housenumber": "230", "addr:postcode": "60610", "addr:state": "IL", "addr:street": "West North Avenue", "addr:unit": "2nd Floor", "amenity": "restaurant", "cuisine": "pub;american", "name": "1959 Kitchen & Bar", "opening_hours": "Mo-Th 17:00-00:00; Fr-Sa 17:00-02:00; Su 16:00-00:00", "phone": "+1-312-337-3992", "website": "https://www.secondcity.com/1959"}}, {"type": "node", "id": 6261019535, "lat": 41.9109894, "lon": -87.635527, "tags": {"addr:city": "Chicago", "addr:housenumber": "219", "addr:postcode": "60610", "addr:state": "IL", "addr:street": "West North Avenue", "amenity": "bar", "name": "Old Town Ale House", "opening_hours": "Mo-Fr 15:00-04:00; Sa 12:00-05:00; Su 12:00-04:00", "phone": "+1-312-944-7020", "website": "http://www.theoldtownalehouse.com"}}, {"type": "node", "id": 6261025487, "lat": 41.9090121, "lon": -87.63492, "tags": {"addr:city": "Chicago", "addr:housenumber": "1446", "addr:postcode": "60610", "addr:state": "IL", "addr:street": "North Wells Street", "amenity": "bar", "name": "SUITE Lounge", "phone": "+1-312-787-6103", "website": "http://www.suite-lounge.com"}}, {"type": "node", "id": 6261028501, "lat": 41.909098, "lon": -87.6348744, "tags": {"addr:city": "Chicago", "addr:housenumber": "1448", "addr:postcode": "60610", "addr:state": "IL", "addr:street": "North Wells Street", "amenity": "restaurant", "cuisine": "barbecue;bbq;american;southern", "name": "The Fireplace Inn", "opening_hours": "Tu-Th 16:30-00:00; Fr 11:00-02:00; Sa 11:00-03:00; Su 11:00-00:00", "phone": "+1-312-664-5264", "website": "https://fireplaceinn.com"}}, {"type": "node", "id": 6261029018, "lat": 41.9095177, "lon": -87.6349428, "tags": {"addr:city": "Chicago", "addr:housenumber": "1510", "addr:postcode": "60610", "addr:state": "IL", "addr:street": "North Wells Street", "amenity": "restaurant", "cuisine": "bar;grill", "name": "Benchmark", "opening_hours": "Mo-Fr 17:00-02:00; Sa 10:00-03:00; Su 10:00-02:00", "phone": "+1-312-649-9640", "website": "https://benchmarkchicago.com"}}, {"type": "node", "id": 6261031287, "lat": 41.9082856, "lon": -87.6343138, "tags": {"addr:city": "Chicago", "addr:housenumber": "1419", "addr:postcode": "60610", "addr:state": "IL", "addr:street": "North Wells Street", "amenity": "restaurant", "cuisine": "american", "name": "Old Town Pour House", "opening_hours": "Mo 16:00-23:00; Tu-Th 16:00-00:00; Fr 11:30-02:00; Sa 11:30-03:00; Su 10:30-23:00", "outdoor_seating": "no", "phone": "+1-312-477-2800", "website": "https://www.oldtownpourhouse.com/"}}, {"type": "node", "id": 6261032304, "lat": 41.9082037, "lon": -87.6343058, "tags": {"addr:city": "Chicago", "addr:housenumber": "1421", "addr:postcode": "60610", "addr:state": "IL", "addr:street": "North Wells Street", "amenity": "restaurant", "cuisine": "italian", "name": "Mama Milano Pizza Bar", "opening_hours": "We-Th 16:30-21:30; Fr 16:30-22:30; Sa 11:30-22:30; Su 11:30-21:00", "phone": "+1-312-787-3710", "website": "https://www.mamamilanopizzamenu.com"}}, {"type": "node", "id": 6261040332, "lat": 41.9077491, "lon": -87.634853, "tags": {"addr:city": "Chicago", "addr:housenumber": "1400", "addr:postcode": "60610", "addr:state": "IL", "addr:street": "North Wells Street", "amenity": "restaurant", "cuisine": "mexican", "name": "Broken English Taco Pub", "opening_hours": "Mo-Th 17:00-23:00; Fr 17:00-01:00; Sa 11:00-01:00; Su 11:00-21:00", "outdoor_seating": "yes", "phone": "+1-312-951-7667", "website": "https://www.tacopub.com"}}, {"type": "node", "id": 6267385985, "lat": 41.9185677, "lon": -87.6488313, "tags": {"addr:city": "Chicago", "addr:housenumber": "2010", "addr:postcode": "60614", "addr:state": "IL", "addr:street": "North Halsted Street", "amenity": "restaurant", "name": "Blue Door Farm Stand", "phone": "+1-312- 265-0259", "website": "https://bluedoorfarmstand.com/"}}, {"type": "node", "id": 6269017070, "lat": 41.9060351, "lon": -87.6284881, "tags": {"addr:city": "Chicago", "addr:housenumber": "1301", "addr:postcode": "60610", "addr:state": "IL", "addr:street": "North State Parkway", "amenity": "restaurant", "name": "Booth One", "phone": "+1-312- 649-0535", "website": "http://boothone.com/"}}, {"type": "node", "id": 6272419651, "lat": 41.9100648, "lon": -87.6343821, "tags": {"addr:city": "Chicago", "addr:housenumber": "1531", "addr:postcode": "60610", "addr:state": "IL", "addr:street": "North Wells Street", "amenity": "bar", "name": "BATSU! Chicago", "phone": "+1-312-664-3663", "website": "http://batsuchicago.com/"}}, {"type": "node", "id": 6280558497, "lat": 41.9180485, "lon": -87.6456973, "tags": {"addr:city": "Chicago", "addr:housenumber": "655", "addr:postcode": "60614", "addr:state": "IL", "addr:street": "West Armitage Avenue", "amenity": "restaurant", "name": "Cedar Palace", "phone": "+1-312-643-0933", "website": "https://www.cedarpalacechicago.com/"}}, {"type": "node", "id": 6282812182, "lat": 41.9199493, "lon": -87.6418258, "tags": {"addr:city": "Chicago", "addr:housenumber": "507", "addr:postcode": "60614", "addr:state": "IL", "addr:street": "West Dickens Avenue", "amenity": "cafe", "name": "CityGrounds Coffee Bar"}}, {"type": "node", "id": 6283111502, "lat": 41.9126714, "lon": -87.6345196, "tags": {"addr:city": "Chicago", "addr:housenumber": "1651", "addr:postcode": "60614", "addr:state": "IL", "addr:street": "North Wells Street", "amenity": "cafe", "name": "Cocoa + Co.", "phone": "+1-312-624-8540", "website": "https://cocoaandco.com/"}}, {"type": "node", "id": 6283943982, "lat": 41.9177735, "lon": -87.6487892, "tags": {"addr:city": "Chicago", "addr:housenumber": "1962", "addr:postcode": "60614", "addr:state": "IL", "addr:street": "North Halsted Street", "amenity": "restaurant", "cuisine": "seafood", "name": "Crab Cellar", "phone": "+1-773-248-1737", "website": "https://www.crabcellar.com/"}}, {"type": "node", "id": 6284902474, "lat": 41.9092439, "lon": -87.6475313, "tags": {"addr:city": "Chicago", "addr:housenumber": "1538", "addr:postcode": "60642", "addr:state": "IL", "addr:street": "North Clybourn Avenue", "amenity": "restaurant", "cuisine": "american", "name": "Earls Kitchen + Bar", "phone": "+1-312-929-3952", "website": "https://earls.ca/locations/lincoln-park"}}, {"type": "node", "id": 6291060942, "lat": 41.9109045, "lon": -87.6405716, "tags": {"addr:city": "Chicago", "addr:housenumber": "449", "addr:postcode": "60610", "addr:state": "IL", "addr:street": "West North Avenue", "amenity": "restaurant", "name": "Forastero", "phone": "+1-312-265-0322", "website": "https://forastero-llc.mycloveronline.com/"}}, {"type": "node", "id": 6291621644, "lat": 41.9128766, "lon": -87.6485296, "tags": {"addr:city": "Chicago", "addr:housenumber": "1700", "addr:postcode": "60614", "addr:state": "IL", "addr:street": "North Halsted Street", "amenity": "bar", "name": "Front Bar", "phone": "+1-312-649-6880", "website": "http://www.front-bar.com/"}}, {"type": "node", "id": 6291750700, "lat": 41.9182088, "lon": -87.6383858, "tags": {"addr:city": "Chicago", "addr:housenumber": "345", "addr:postcode": "60614", "addr:state": "IL", "addr:street": "West Armitage Avenue", "amenity": "bar", "name": "Gamekeepers Tavern & Grill", "phone": "+1-773-549-0400", "website": "http://gamekeeperschicago.com/"}}, {"type": "node", "id": 6291773197, "lat": 41.918593, "lon": -87.6380077, "tags": {"addr:city": "Chicago", "addr:housenumber": "340", "addr:postcode": "60614", "addr:state": "IL", "addr:street": "West Armitage Avenue", "amenity": "restaurant", "name": "Geja\u2019s Cafe", "phone": "+1-773-281-9101", "website": "https://gejascafe.com/"}}, {"type": "node", "id": 6291778778, "lat": 41.9199929, "lon": -87.6408687, "tags": {"addr:city": "Chicago", "addr:housenumber": "2075", "addr:postcode": "60614", "addr:state": "IL", "addr:street": "North Lincoln Avenue", "amenity": "restaurant", "name": "Gemini", "phone": "+1-773-525-2522", "website": "http://www.geminichicago.com/"}}, {"type": "node", "id": 6294479336, "lat": 41.9081132, "lon": -87.6425061, "tags": {"addr:city": "Chicago", "addr:housenumber": "1416", "addr:postcode": "60610", "addr:state": "IL", "addr:street": "North Mohawk Street", "amenity": "bar", "name": "Hogan, Dean, and Cox", "phone": "+1-314-288-6562"}}, {"type": "node", "id": 6294526485, "lat": 41.9108805, "lon": -87.6393364, "tags": {"addr:city": "Chicago", "addr:housenumber": "417", "addr:postcode": "60610", "addr:state": "IL", "addr:street": "West North Avenue", "amenity": "restaurant", "name": "Hom Mali Thai and Sushi on North Ave", "phone": "+1-312-664-3400", "website": "https://www.hommalichicago.com/"}}, {"type": "node", "id": 6298873064, "lat": 41.9071048, "lon": -87.6343148, "tags": {"addr:city": "Chicago", "addr:housenumber": "1345", "addr:postcode": "60610", "addr:state": "IL", "addr:street": "North Wells Street", "amenity": "restaurant", "name": "Small Cheval - Wells", "website": "http://smallcheval.com/"}}, {"type": "node", "id": 6299322085, "lat": 41.9185326, "lon": -87.6373677, "tags": {"addr:city": "Chicago", "addr:housenumber": "322", "addr:postcode": "60614", "addr:state": "IL", "addr:street": "West Armitage Avenue", "amenity": "bar", "name": "Park West", "phone": "+1-773-929-1322", "website": "https://parkwestchicago.com/"}}, {"type": "node", "id": 6300459970, "lat": 41.9090638, "lon": -87.6508302, "tags": {"addr:city": "Chicago", "addr:housenumber": "1521", "addr:postcode": "60642", "addr:state": "IL", "addr:street": "North Fremont Street", "amenity": "restaurant", "name": "Pizzeria Bebu", "phone": "+1-312-280-6000", "website": "https://bebu.pizza/"}}, {"type": "node", "id": 6301020113, "lat": 41.9181487, "lon": -87.6398708, "tags": {"addr:city": "Chicago", "addr:housenumber": "425", "addr:postcode": "60614", "addr:state": "IL", "addr:street": "West Armitage Avenue", "amenity": "bar", "name": "River Shannon", "phone": "+1-312-944-5087", "website": "https://therivershannon.com/"}}, {"type": "node", "id": 6301720990, "lat": 41.9176217, "lon": -87.6487786, "tags": {"addr:city": "Chicago", "addr:housenumber": "1954", "addr:postcode": "60614", "addr:state": "IL", "addr:street": "North Halsted Street", "amenity": "restaurant", "name": "Stella Barra Pizzeria", "phone": "+1-773-634-4101", "website": "http://stellabarra.com/"}}, {"type": "node", "id": 6301823618, "lat": 41.9086893, "lon": -87.6491398, "tags": {"addr:city": "Chicago", "addr:housenumber": "1501", "addr:postcode": "60642", "addr:state": "IL", "addr:street": "North Dayton Street", "amenity": "bar", "name": "Sully\u2019s House", "phone": "+1-773-244-1234", "website": "https://www.sullyshousechicagoil.com/"}}, {"type": "node", "id": 6302665610, "lat": 41.9183755, "lon": -87.6487346, "tags": {"addr:city": "Chicago", "addr:housenumber": "2002", "addr:postcode": "60614", "addr:state": "IL", "addr:street": "North Halsted Street", "amenity": "bar", "name": "The Store", "phone": "+1-773-327-7766", "website": "http://www.thestoretil4.com/"}}, {"type": "node", "id": 6304176252, "lat": 41.9099123, "lon": -87.6344869, "tags": {"addr:city": "Chicago", "addr:housenumber": "1527", "addr:postcode": "60610", "addr:state": "IL", "addr:street": "North Wells Street", "amenity": "restaurant", "name": "The VIG Chicago", "phone": "+1-312-982-2186", "website": "http://www.thevigchicago.com/"}}, {"type": "node", "id": 6305256043, "lat": 41.9187992, "lon": -87.648845, "tags": {"addr:city": "Chicago", "addr:housenumber": "2020", "addr:postcode": "60614", "addr:state": "IL", "addr:street": "North Halsted Street", "amenity": "bar", "name": "The Beaumont", "phone": "+1-773-281-0177"}}, {"type": "node", "id": 6314860238, "lat": 41.9177296, "lon": -87.6483011, "tags": {"addr:city": "Chicago", "addr:housenumber": "1961", "addr:postcode": "60614", "addr:state": "IL", "addr:street": "North Halsted Street", "amenity": "bar", "name": "J9 Wine Bar", "phone": "+1-312-982-2488", "website": "http://www.j9winebar.com/"}}, {"type": "node", "id": 6315204690, "lat": 41.9169023, "lon": -87.6365441, "tags": {"addr:city": "Chicago", "addr:housenumber": "1909", "addr:postcode": "60614", "addr:state": "IL", "addr:street": "North Lincoln Avenue", "amenity": "bar", "name": "The Drop Lounge", "phone": "+1-312-574-0898", "website": "http://www.thedropchicago.com/"}}, {"type": "node", "id": 6315706586, "lat": 41.9190822, "lon": -87.6337461, "tags": {"addr:city": "Chicago", "addr:housenumber": "2021", "addr:postcode": "60614", "addr:state": "IL", "addr:street": "North Stockton Drive", "amenity": "cafe", "name": "The Patio at Caf\u00e9 Brauer", "phone": "+1-312-742-2400", "website": "https://www.lpzoo.org/dining/patio-cafe-brauer"}}, {"type": "node", "id": 6316924033, "lat": 41.9139765, "lon": -87.6486439, "tags": {"addr:city": "Chicago", "addr:housenumber": "1800", "addr:postcode": "60614", "addr:state": "IL", "addr:street": "North Halsted Street", "amenity": "restaurant", "name": "Willow Room", "phone": "+1-312-982-2151", "website": "http://www.willowroomchicago.com/"}}, {"type": "node", "id": 6318364009, "lat": 41.909856, "lon": -87.634225, "tags": {"addr:city": "Chicago", "addr:housenumber": "1525", "addr:postcode": "60610", "addr:state": "IL", "addr:street": "North Wells Street", "amenity": "bar", "name": "LG\u2019s Bar", "phone": "+1-312-888-9368", "website": "https://ladygregorys.com/"}}, {"type": "node", "id": 6319154670, "lat": 41.9100715, "lon": -87.6344749, "tags": {"addr:city": "Chicago", "addr:housenumber": "1531", "addr:postcode": "60610", "addr:state": "IL", "addr:street": "North Wells Street", "amenity": "restaurant", "name": "Kamehachi", "phone": "+1-312-664-3663", "website": "http://www.kamehachi.com/"}}, {"type": "node", "id": 6319303665, "lat": 41.9143668, "lon": -87.648564, "tags": {"addr:city": "Chicago", "addr:housenumber": "1816", "addr:postcode": "60614", "addr:state": "IL", "addr:street": "North Halsted Street", "amenity": "restaurant", "name": "King Crab House", "phone": "+1-312-280-8990", "website": "http://kingcrabchicago.com/"}}, {"type": "node", "id": 6319305750, "lat": 41.9082297, "lon": -87.6466173, "tags": {"addr:city": "Chicago", "addr:housenumber": "1500", "addr:postcode": "60610", "addr:state": "IL", "addr:street": "North Clybourn Avenue", "addr:unit": "102", "amenity": "restaurant", "name": "Kings Dining & Entertainment - Chicago Lincoln Park", "phone": "+1-312-973-4920", "website": "https://www.kings-de.com/lincoln-park"}}, {"type": "node", "id": 6319691545, "lat": 41.9094212, "lon": -87.6478311, "tags": {"addr:city": "Chicago", "addr:housenumber": "1538", "addr:postcode": "60610", "addr:state": "IL", "addr:street": "North Clybourn Avenue", "amenity": "restaurant", "name": "Kizuki Ramen & Izakaya", "phone": "+1-312-631-3165", "website": "https://www.kizuki.com/"}}, {"type": "node", "id": 6320003532, "lat": 41.9183019, "lon": -87.6507923, "tags": {"addr:city": "Chicago", "addr:housenumber": "858", "addr:postcode": "60614", "addr:state": "IL", "addr:street": "West Armitage Avenue", "amenity": "cafe", "name": "La Colombe Coffee", "phone": "+1-773-572-9685", "website": "https://www.lacolombe.com/"}}, {"type": "node", "id": 6321478798, "lat": 41.9145918, "lon": -87.6389496, "tags": {"addr:city": "Chicago", "addr:housenumber": "1758", "addr:postcode": "60614", "addr:state": "IL", "addr:street": "North Sedgwick Street", "amenity": "bar", "name": "Marge\u2019s Still", "phone": "+1-312-664-9775", "website": "http://www.margeschicago.com/"}}, {"type": "node", "id": 6323193150, "lat": 41.9142731, "lon": -87.6349799, "tags": {"addr:city": "Chicago", "addr:housenumber": "1746", "addr:postcode": "60614", "addr:state": "IL", "addr:street": "North Wells Street", "amenity": "restaurant", "name": "Nookies", "phone": "+1-312-337-2454", "website": "http://www.nookieschicago.com/"}}, {"type": "node", "id": 6323965477, "lat": 41.9069115, "lon": -87.634332, "tags": {"addr:city": "Chicago", "addr:housenumber": "1339", "addr:postcode": "60610", "addr:state": "IL", "addr:street": "North Wells Street", "amenity": "bar", "name": "Old Town Pub", "phone": "+1-312-266-6789", "website": "otpchicago.com"}}, {"type": "node", "id": 6324195508, "lat": 41.9177881, "lon": -87.6489419, "tags": {"addr:city": "Chicago", "addr:housenumber": "1962", "addr:postcode": "60614", "addr:state": "IL", "addr:street": "North Halsted Street", "addr:unit": "1", "amenity": "restaurant", "cuisine": "seafood", "name": "Oyster Bah", "phone": "+1-773-248-3000", "website": "http://oysterbah.com/"}}, {"type": "node", "id": 6324352337, "lat": 41.9169476, "lon": -87.6365562, "tags": {"addr:city": "Chicago", "addr:housenumber": "1909", "addr:postcode": "60614", "addr:state": "IL", "addr:street": "North Lincoln Avenue", "amenity": "restaurant", "name": "La Roccia", "phone": "+1-312-255-0851", "website": "https://www.larocciapizza.com/"}}, {"type": "node", "id": 6325995436, "lat": 41.9102129, "lon": -87.6344, "tags": {"addr:city": "Chicago", "addr:housenumber": "1535", "addr:postcode": "60610", "addr:state": "IL", "addr:street": "North Wells Street", "amenity": "restaurant", "name": "Woodie\u2019s Flat", "phone": "+1-312-643-0093", "website": "https://www.woodieschicago.com/"}}, {"type": "node", "id": 6326008885, "lat": 41.9081791, "lon": -87.6465338, "tags": {"addr:city": "Chicago", "addr:housenumber": "1500", "addr:postcode": "60610", "addr:state": "IL", "addr:street": "North Clybourn Avenue", "alcohol": "yes", "amenity": "restaurant", "brand": "Yard House", "brand:wikidata": "Q21189156", "brand:wikipedia": "en:Yard House", "cuisine": "american", "name": "Yard House", "phone": "+1-312-951-7317"}}, {"type": "node", "id": 6326168644, "lat": 41.912159, "lon": -87.6313931, "tags": {"addr:city": "Chicago", "addr:housenumber": "1601", "addr:postcode": "60614", "addr:state": "IL", "addr:street": "North Clark Street", "amenity": "cafe", "name": "North and Clark Caf\u00e9", "phone": "+1-312-799-2121", "website": "https://www.chicagohistory.org/visit/north-clark-cafe/"}}, {"type": "node", "id": 6326478100, "lat": 41.9080596, "lon": -87.6342858, "tags": {"addr:city": "Chicago", "addr:housenumber": "1411", "addr:postcode": "60610", "addr:state": "IL", "addr:street": "North Wells Street", "amenity": "restaurant", "name": "Old Jerusalem", "phone": "+1-312-944-0459", "website": "http://oldjerusalemrestaurant.net/"}}, {"type": "node", "id": 6407268648, "lat": 41.9100061, "lon": -87.6344756, "tags": {"addr:city": "Chicago", "addr:housenumber": "1529", "addr:postcode": "60610", "addr:state": "IL", "addr:street": "North Wells Street", "amenity": "restaurant", "cuisine": "sandwich;dessert", "name": "Bombobar - Old Town", "opening_hours": "Mo-We 08:00-22:00; Fr 08:00-02:30; Sa 09:00-03:30; Su 09:00-22:00", "phone": "+1-312-549-8433", "website": "https://www.bombobar.com"}}, {"type": "node", "id": 6407456510, "lat": 41.9175688, "lon": -87.6486847, "tags": {"addr:city": "Chicago", "addr:housenumber": "1954", "addr:postcode": "60614", "addr:state": "IL", "addr:street": "North Halsted Street", "amenity": "restaurant", "cuisine": "american;californian", "name": "Summer House Santa Monica", "opening_hours": "Mo-Th 11:00-22:00; Fr 11:00-23:00; Sa 08:00-23:00; Su 08:00-22:00", "phone": "+1-773-634-4100", "website": "http://summerhousesm.com"}}, {"type": "node", "id": 6425689677, "lat": 41.9068335, "lon": -87.6347845, "tags": {"addr:city": "Chicago", "addr:housenumber": "1342", "addr:postcode": "60610", "addr:state": "IL", "addr:street": "North Wells Street", "amenity": "restaurant", "cuisine": "sushi;japanese", "name": "Cafe Sushi", "opening_hours": "Mo-Th 17:00-22:30; Fr-Sa 17:00-23:30; Su 16:00-21:30", "phone": "+1-312-337-0700", "website": "http://www.cafesushiwells.com/"}}, {"type": "node", "id": 6757774710, "lat": 41.9113754, "lon": -87.6349829, "tags": {"addr:city": "Chicago", "addr:housenumber": "1608", "addr:postcode": "60614", "addr:state": "IL", "addr:street": "North Wells Street", "amenity": "bar", "name": "Utopian Tailgate", "phone": "+1-312-210-7799", "website": "https://www.utopiantailgate.com"}}, {"type": "node", "id": 7081204126, "lat": 41.9219136, "lon": -87.6342484, "tags": {"amenity": "cafe", "name": "Eadie Levy's Landmark Caf\u00e9"}}, {"type": "node", "id": 7330251178, "lat": 41.9219485, "lon": -87.6484614, "tags": {"addr:city": "Chicago", "addr:housenumber": "756", "addr:postcode": "60614", "addr:state": "IL", "addr:street": "West Webster Avenue", "amenity": "restaurant", "cuisine": "asian;sushi;thai", "name": "Shine and Rise", "phone": "+1-773-296-0101", "website": "https://www.shinerestaurant.com/"}}, {"type": "way", "id": 198549082, "nodes": [2086708649, 2086708645, 2086708647, 2086708650, 2086708649], "tags": {"addr:city": "Chicago", "addr:country": "US", "addr:housenumber": "1615", "addr:postcode": "60614", "addr:state": "IL", "addr:street": "North Wells Street", "addr:street:name": "Wells", "addr:street:prefix": "North", "addr:street:type": "Street", "amenity": "bar", "building": "yes", "building:levels": "3", "chicago:building_id": "301050", "name": "Corcoran's Grill & Pub", "opening_hours": "Mo-Fr 11:00-01:30; Sa 10:30-02:30; Su 10:30-01:30", "phone": "+1-312-440-0885", "source": "Bing 2012", "website": "https://www.corcoransoldtown.com/", "wheelchair": "no"}}, {"type": "way", "id": 206585437, "nodes": [2166039857, 2166039862, 2166039861, 2166039854, 2166039855, 2166039857], "tags": {"addr:city": "Chicago", "addr:country": "US", "addr:housenumber": "1552", "addr:postcode": "60610", "addr:state": "IL", "addr:street": "North Wells Street", "addr:street:name": "Wells", "addr:street:prefix": "North", "addr:street:type": "Street", "amenity": "cafe", "building": "yes", "building:levels": "2", "chicago:building_id": "304450", "name": "Kanela Breakfast Club", "phone": "+1-312-255-1206", "source": "Bing 2012", "website": "http://kanelacafe.com/"}}, {"type": "way", "id": 210315354, "nodes": [2203998741, 2203998749, 2203998788, 2203998793, 2203998747, 2203998741], "tags": {"addr:housenumber": "1548", "addr:street": "North Larrabee Street", "addr:street:name": "Larrabee", "addr:street:prefix": "North", "addr:street:type": "Street", "amenity": "restaurant", "building": "yes", "building:levels": "1", "chicago:building_id": "305179", "cuisine": "burger"}}, {"type": "way", "id": 210316907, "nodes": [2204018237, 2204018278, 2204018019, 2204018017, 2204017997, 2204018237], "tags": {"addr:housenumber": "2010", "addr:street": "North Halsted Street", "addr:street:name": "Halsted", "addr:street:prefix": "North", "addr:street:type": "Street", "amenity": "restaurant", "building": "yes", "building:levels": "2", "chicago:building_id": "822495"}}, {"type": "way", "id": 210317387, "nodes": [2204024213, 2204024436, 2204024451, 2204024332, 2204024246, 2204024213], "tags": {"addr:city": "Chicago", "addr:housenumber": "2100", "addr:postcode": "60614", "addr:state": "IL", "addr:street": "North Halsted Street", "addr:street:name": "Halsted", "addr:street:prefix": "North", "addr:street:type": "Street", "amenity": "restaurant", "building": "yes", "chicago:building_id": "277405", "name": "Chez Moi", "phone": "+1-773-871-2100", "website": "https://www.chezmoichicago.com/"}}, {"type": "way", "id": 210318212, "nodes": [2204034784, 2204034779, 2204034445, 2204034519, 2204034575, 2204035015, 2607221928, 2204034784], "tags": {"addr:housenumber": "2254-2264", "addr:street": "North Lincoln Avenue", "addr:street:name": "Lincoln", "addr:street:prefix": "North", "addr:street:type": "Avenue", "amenity": "cafe", "building": "yes", "chicago:building_id": "851014", "name": "Countryside Cafe"}}, {"type": "way", "id": 210318550, "nodes": [2986607620, 2203998973, 2203998933, 2203998935, 2203998908, 2203998910, 2203998812, 2203998811, 2203998712, 2203998709, 2203998810, 2986607620], "tags": {"addr:city": "Chicago", "addr:housenumber": "855", "addr:postcode": "60642", "addr:state": "IL", "addr:street": "West North Avenue", "addr:street:name": "North", "addr:street:prefix": "West", "addr:street:type": "Avenue", "amenity": "restaurant", "building": "yes", "chicago:building_id": "304440", "cuisine": "mexican", "name": "Uncle Julio's"}}, {"type": "way", "id": 210318903, "nodes": [2203998691, 2203998611, 2203998642, 2203998719, 2203998691], "tags": {"addr:city": "Chicago", "addr:housenumber": "1582", "addr:postcode": "60642", "addr:state": "IL", "addr:street": "North Clybourn Avenue", "amenity": "restaurant", "building": "yes", "chicago:building_id": "878191", "name": "Sono Wood Fired"}}, {"type": "way", "id": 210679421, "nodes": [2207608584, 2207608406, 2207608395, 2207608565, 2207608564, 2207608584], "tags": {"addr:housenumber": "1240", "addr:street": "North Wells Street", "addr:street:name": "Wells", "addr:street:prefix": "North", "addr:street:type": "Street", "amenity": "bar", "building": "yes", "building:levels": "3", "chicago:building_id": "815408", "name": "Declan's"}}, {"type": "way", "id": 210679437, "nodes": [2207608926, 2207609009, 2207609010, 2207609060, 2207609057, 2207609030, 2207609040, 2207608949, 2207608926], "tags": {"addr:housenumber": "1246", "addr:street": "North Wells Street", "addr:street:name": "Wells", "addr:street:prefix": "North", "addr:street:type": "Street", "amenity": "restaurant", "building": "yes", "building:levels": "3", "chicago:building_id": "317889", "cuisine": "chinese", "name": "China Doll"}}, {"type": "way", "id": 210679449, "nodes": [2207609278, 2207609188, 2207609186, 2207609180, 2207609174, 2207609177, 2207609172, 2207609269, 2207609270, 2207609278], "tags": {"addr:housenumber": "1252", "addr:street": "North Wells Street", "addr:street:name": "Wells", "addr:street:prefix": "North", "addr:street:type": "Street", "amenity": "restaurant", "building": "yes", "building:levels": "3", "chicago:building_id": "815387", "cuisine": "mexican", "name": "Salpicon"}}, {"type": "way", "id": 210684438, "nodes": [2207635617, 2207635615, 2207635541, 2207635538, 2207635618, 2207635617], "tags": {"addr:city": "Chicago", "addr:housenumber": "1401", "addr:postcode": "60610", "addr:state": "IL", "addr:street": "North Wells Street", "addr:street:name": "Wells", "addr:street:prefix": "North", "addr:street:type": "Street", "amenity": "restaurant", "building": "yes", "building:levels": "3", "chicago:building_id": "815317", "cuisine": "italian", "name": "Orso's", "opening_hours": "Mo-Th 11:00-23:00; Fr-Sa 11:00-00:00; Su 10:00-22:00", "phone": "+1-312-787-6604", "website": "http://www.orsosrestaurant.com"}}, {"type": "way", "id": 210684661, "nodes": [2393465796, 2207637813, 6081060321, 2207637819, 2207637782, 6081060319, 2207637785, 2207637826, 2207637827, 2207637706, 2207637705, 2207637696, 2393465797, 2393465796], "tags": {"addr:city": "Chicago", "addr:housenumber": "1447", "addr:postcode": "60610", "addr:state": "IL", "addr:street": "North Wells Street", "addr:street:name": "Wells", "addr:street:prefix": "North", "addr:street:type": "Street", "amenity": "bar", "building": "yes", "building:levels": "3", "chicago:building_id": "309192", "name": "Burton Place", "phone": "+1-312-664-4699"}}, {"type": "way", "id": 210684734, "nodes": [2207638564, 2207638657, 2207638661, 2207638569, 2207638564], "tags": {"addr:housenumber": "1507", "addr:street": "North Sedgwick Street", "addr:street:name": "Sedgwick", "addr:street:prefix": "North", "addr:street:type": "Street", "amenity": "restaurant", "building": "yes", "building:levels": "1", "chicago:building_id": "815577", "cuisine": "chinese", "name": "Lan's China Bistro"}}, {"type": "way", "id": 210684816, "nodes": [2207639310, 2207638967, 2207638968, 2207638957, 2207638953, 2207639299, 2207639310], "tags": {"addr:housenumber": "1525-1527", "addr:street": "North Wells Street", "addr:street:name": "Wells", "addr:street:prefix": "North", "addr:street:type": "Street", "amenity": "bar", "building": "yes", "building:levels": "1", "chicago:building_id": "815256"}}, {"type": "way", "id": 210684908, "nodes": [2207640485, 2207640351, 2207640348, 2207640358, 2207640378, 2207640380, 2207640484, 2207640485], "tags": {"addr:housenumber": "157", "addr:street": "West North Avenue", "addr:street:name": "North", "addr:street:prefix": "West", "addr:street:type": "Avenue", "amenity": "restaurant", "building": "yes", "building:levels": "2", "chicago:building_id": "815206"}}, {"type": "way", "id": 240217310, "nodes": [2479668244, 2479668242, 2479668243, 2479668245, 2479668244], "tags": {"addr:city": "Chicago", "addr:housenumber": "1447", "addr:postcode": "60610", "addr:state": "IL", "addr:street": "North Sedgwick Street", "addr:street:name": "Sedgwick", "addr:street:prefix": "North", "addr:street:type": "Street", "amenity": "cafe", "building": "yes", "name": "Eva's Cafe", "phone": "+1-312-280-8900", "website": "https://evascafeoldtown.com/"}}]}