{"version": 0.6, "generator": "Overpass API 0.7.56.3 eb200aeb", "osm3s": {"timestamp_osm_base": "2020-07-04T04:09:03Z", "copyright": "The data included in this document is from www.openstreetmap.org. The data is made available under ODbL."}, "elements": [{"type": "node", "id": 258025450, "lat": 41.9049662, "lon": -87.6699526}, {"type": "node", "id": 258281900, "lat": 41.875617, "lon": -87.6352309}, {"type": "node", "id": 258281901, "lat": 41.8756042, "lon": -87.6338748}, {"type": "node", "id": 258281903, "lat": 41.8756843, "lon": -87.6293729}, {"type": "node", "id": 258281905, "lat": 41.8857251, "lon": -87.639345}, {"type": "node", "id": 258281906, "lat": 41.8858639, "lon": -87.6400177}, {"type": "node", "id": 258281907, "lat": 41.8891083, "lon": -87.6443761}, {"type": "node", "id": 258281909, "lat": 41.8951173, "lon": -87.6535892}, {"type": "node", "id": 258942197, "lat": 41.8852652, "lon": -87.6692495}, {"type": "node", "id": 258957340, "lat": 41.8857351, "lon": -87.6325676, "tags": {"highway": "traffic_signals", "traffic_signals": "traffic_lights"}}, {"type": "node", "id": 258957456, "lat": 41.8756298, "lon": -87.6295729}, {"type": "node", "id": 258957458, "lat": 41.8854881, "lon": -87.629509}, {"type": "node", "id": 258957459, "lat": 41.8857187, "lon": -87.6297177}, {"type": "node", "id": 365489153, "lat": 41.90293, "lon": -87.6658404}, {"type": "node", "id": 365489154, "lat": 41.9039122, "lon": -87.667895}, {"type": "node", "id": 365489352, "lat": 41.886817, "lon": -87.6413207}, {"type": "node", "id": 479652775, "lat": 41.8841895, "lon": -87.6472956, "tags": {"addr:city": "Chicago", "addr:housenumber": "737", "addr:postcode": "60661", "addr:state": "IL", "addr:street": "West Randolph Street", "amenity": "bar", "microbrewery": "yes", "name": "Haymarket Pub & Brewery", "opening_hours": "Su-Fr 11:00-02:00; Sa 11:00-03:00", "phone": "+1-312-638-0700", "website": "http://haymarketbrewing.com/"}}, {"type": "node", "id": 479652780, "lat": 41.8846406, "lon": -87.6476069, "tags": {"addr:city": "Chicago", "addr:housenumber": "800", "addr:postcode": "60607", "addr:state": "IL", "addr:street": "West Randolph Street", "amenity": "restaurant", "cuisine": "upscale_\"diner\";burger;american", "name": "Au Cheval", "opening_hours": "Mo-Sa 10:00-01:00; Su 09:00-00:00", "phone": "1-312-929-4580", "website": "http://auchevalchicago.com/"}}, {"type": "node", "id": 479652785, "lat": 41.8829421, "lon": -87.6502947, "tags": {"addr:city": "Chicago", "addr:housenumber": "913", "addr:postcode": "60607", "addr:state": "IL", "addr:street": "West Washington Street", "amenity": "restaurant", "cuisine": "japanese", "name": "Sushi Pink", "opening_hours": "Mo-Th 11:00-15:00; Mo-Th 16:00-21:45; Fr-Sa 11:30-21:45; Su 16:30-21:30", "phone": "+1-312-226-1666", "website": "sushipinkchicago.com"}}, {"type": "node", "id": 706968780, "lat": 41.8757896, "lon": -87.6292725}, {"type": "node", "id": 706968781, "lat": 41.8759374, "lon": -87.6292188}, {"type": "node", "id": 706968782, "lat": 41.8856587, "lon": -87.6296051}, {"type": "node", "id": 706968784, "lat": 41.8857465, "lon": -87.6298791}, {"type": "node", "id": 707905319, "lat": 41.8857571, "lon": -87.6397709}, {"type": "node", "id": 707905321, "lat": 41.885797, "lon": -87.639889}, {"type": "node", "id": 707905651, "lat": 41.887937, "lon": -87.6428142}, {"type": "node", "id": 736014629, "lat": 41.8852353, "lon": -87.6692227}, {"type": "node", "id": 736014633, "lat": 41.8853216, "lon": -87.6676629}, {"type": "node", "id": 736014634, "lat": 41.8852962, "lon": -87.668359}, {"type": "node", "id": 736014635, "lat": 41.8852875, "lon": -87.6686085}, {"type": "node", "id": 736014636, "lat": 41.88524, "lon": -87.6690778}, {"type": "node", "id": 736014637, "lat": 41.885282, "lon": -87.6679199}, {"type": "node", "id": 736035819, "lat": 41.9032414, "lon": -87.6664345}, {"type": "node", "id": 736035820, "lat": 41.9035623, "lon": -87.6671796, "tags": {"name": "Division", "network": "CTA", "operator": "Chicago Transit Authority", "public_transport": "stop_position", "railway": "stop", "subway": "yes"}}, {"type": "node", "id": 736035821, "lat": 41.9045719, "lon": -87.669287}, {"type": "node", "id": 736035822, "lat": 41.9047543, "lon": -87.6696185}, {"type": "node", "id": 736635057, "lat": 41.8857455, "lon": -87.6342498, "tags": {"railway": "switch"}}, {"type": "node", "id": 736635253, "lat": 41.8857136, "lon": -87.6343048, "tags": {"railway": "switch"}}, {"type": "node", "id": 736635640, "lat": 41.8857377, "lon": -87.637074, "tags": {"railway": "buffer_stop"}}, {"type": "node", "id": 736635709, "lat": 41.8857465, "lon": -87.6366101, "tags": {"railway": "switch"}}, {"type": "node", "id": 736636005, "lat": 41.8857129, "lon": -87.6353267, "tags": {"railway": "switch"}}, {"type": "node", "id": 736636032, "lat": 41.8857448, "lon": -87.6348036, "tags": {"railway": "switch"}}, {"type": "node", "id": 736636699, "lat": 41.8857455, "lon": -87.6360562, "tags": {"railway": "switch"}}, {"type": "node", "id": 736637544, "lat": 41.8856956, "lon": -87.6427457}, {"type": "node", "id": 736637560, "lat": 41.8857286, "lon": -87.6431788}, {"type": "node", "id": 736637716, "lat": 41.8857336, "lon": -87.6334344}, {"type": "node", "id": 736638001, "lat": 41.8856896, "lon": -87.6389906}, {"type": "node", "id": 736638013, "lat": 41.8857006, "lon": -87.6388256}, {"type": "node", "id": 736638034, "lat": 41.8857156, "lon": -87.6386969}, {"type": "node", "id": 736638063, "lat": 41.8857236, "lon": -87.6386043}, {"type": "node", "id": 736638085, "lat": 41.8857266, "lon": -87.6384689}, {"type": "node", "id": 736638298, "lat": 41.8853042, "lon": -87.6671953}, {"type": "node", "id": 736638300, "lat": 41.8853172, "lon": -87.6666669}, {"type": "node", "id": 736638308, "lat": 41.8853322, "lon": -87.6658341}, {"type": "node", "id": 736638353, "lat": 41.8853791, "lon": -87.6635046}, {"type": "node", "id": 736638414, "lat": 41.885461, "lon": -87.6585707}, {"type": "node", "id": 736638444, "lat": 41.8855429, "lon": -87.6537494}, {"type": "node", "id": 736638456, "lat": 41.8855781, "lon": -87.6516968, "tags": {"name": "Morgan", "network": "CTA", "operator": "Chicago Transit Authority", "public_transport": "stop_position", "railway": "stop", "subway": "yes"}}, {"type": "node", "id": 736638474, "lat": 41.8856078, "lon": -87.6501003}, {"type": "node", "id": 736638491, "lat": 41.8856364, "lon": -87.6481667}, {"type": "node", "id": 736638509, "lat": 41.8856631, "lon": -87.6461371}, {"type": "node", "id": 736638542, "lat": 41.8856995, "lon": -87.6418207, "tags": {"name": "Clinton", "network": "CTA", "operator": "Chicago Transit Authority", "public_transport": "stop_position", "railway": "stop", "subway": "yes"}}, {"type": "node", "id": 736638605, "lat": 41.8857026, "lon": -87.6403478}, {"type": "node", "id": 736638616, "lat": 41.8857016, "lon": -87.6400983}, {"type": "node", "id": 736638639, "lat": 41.8856916, "lon": -87.6397215}, {"type": "node", "id": 736638653, "lat": 41.8856896, "lon": -87.6394895}, {"type": "node", "id": 736638669, "lat": 41.8856976, "lon": -87.6378104}, {"type": "node", "id": 736638682, "lat": 41.8857006, "lon": -87.6370151}, {"type": "node", "id": 736638710, "lat": 41.8857096, "lon": -87.6367241}, {"type": "node", "id": 736638728, "lat": 41.8857136, "lon": -87.6364572}, {"type": "node", "id": 736638925, "lat": 41.8857555, "lon": -87.6367965}, {"type": "node", "id": 736638946, "lat": 41.8857675, "lon": -87.6370822}, {"type": "node", "id": 736638962, "lat": 41.8857685, "lon": -87.637278, "tags": {"railway": "switch"}}, {"type": "node", "id": 736638970, "lat": 41.8857635, "lon": -87.63832}, {"type": "node", "id": 736638980, "lat": 41.8857575, "lon": -87.6395525}, {"type": "node", "id": 736639051, "lat": 41.8857505, "lon": -87.6399334}, {"type": "node", "id": 736639065, "lat": 41.8857415, "lon": -87.6401479}, {"type": "node", "id": 736639078, "lat": 41.8857396, "lon": -87.6403974}, {"type": "node", "id": 736639093, "lat": 41.8857366, "lon": -87.6407877}, {"type": "node", "id": 736639135, "lat": 41.8856757, "lon": -87.6481702}, {"type": "node", "id": 736639177, "lat": 41.8856156, "lon": -87.6516963, "tags": {"name": "Morgan", "network": "CTA", "operator": "Chicago Transit Authority", "public_transport": "stop_position", "railway": "stop", "subway": "yes"}}, {"type": "node", "id": 736639292, "lat": 41.8853559, "lon": -87.6664823, "tags": {"name": "Ashland", "network": "CTA", "operator": "Chicago Transit Authority", "public_transport": "stop_position", "railway": "stop", "subway": "yes"}}, {"type": "node", "id": 736639305, "lat": 41.8853418, "lon": -87.6670773}, {"type": "node", "id": 873051690, "lat": 41.8780334, "lon": -87.6292842}, {"type": "node", "id": 1080820913, "lat": 41.8815234, "lon": -87.6541666, "tags": {"addr:city": "Chicago", "addr:housenumber": "1061", "addr:postcode": "60607", "addr:state": "IL", "addr:street": "West Madison Street", "amenity": "pub", "name": "The Beer Bistro", "opening_hours": "Su-Fr 11:00-02:00; Sa 11:00-03:00", "phone": "+1-312-433-0013", "website": "http://www.thebeerbistro.com/"}}, {"type": "node", "id": 1606917431, "lat": 41.885582, "lon": -87.6295459}, {"type": "node", "id": 1613640656, "lat": 41.8758517, "lon": -87.6292335}, {"type": "node", "id": 1613640678, "lat": 41.8757327, "lon": -87.6293131}, {"type": "node", "id": 1613640702, "lat": 41.8756495, "lon": -87.6294707}, {"type": "node", "id": 1619741018, "lat": 41.8807076, "lon": -87.6417108, "tags": {"amenity": "restaurant", "cuisine": "thai", "name": "MyThai Takumi"}}, {"type": "node", "id": 1686470577, "lat": 41.8794375, "lon": -87.6489426}, {"type": "node", "id": 1686470592, "lat": 41.8794468, "lon": -87.6485953}, {"type": "node", "id": 1686470595, "lat": 41.8795636, "lon": -87.6486009}, {"type": "node", "id": 1686470603, "lat": 41.8795543, "lon": -87.6489483}, {"type": "node", "id": 1699207283, "lat": 41.8855339, "lon": -87.6429355, "tags": {"addr:city": "Chicago", "addr:housenumber": "605", "addr:postcode": "60661", "addr:state": "IL", "addr:street": "West Lake Street", "amenity": "restaurant", "cuisine": "thai;asian", "delivery": "yes", "name": "Bang Chop Thai Kitchen", "opening_hours": "Mo-Fr 11:00-20:30", "phone": "+1-312-285-2800", "website": "http://www.bangchopthaikitchenchicago.com/"}}, {"type": "node", "id": 1699207284, "lat": 41.8793973, "lon": -87.640942, "tags": {"amenity": "cafe", "brand": "Starbucks", "brand:wikidata": "Q37158", "brand:wikipedia": "en:Starbucks", "cuisine": "coffee_shop", "name": "Starbucks", "official_name": "Starbucks Coffee", "takeaway": "yes"}}, {"type": "node", "id": 1699221031, "lat": 41.8801234, "lon": -87.6376582, "tags": {"amenity": "restaurant", "name": "Pazzo's"}}, {"type": "node", "id": 2042025605, "lat": 41.8857335, "lon": -87.6418236, "tags": {"name": "Clinton", "network": "CTA", "operator": "Chicago Transit Authority", "public_transport": "stop_position", "railway": "stop", "subway": "yes"}}, {"type": "node", "id": 2042074138, "lat": 41.8853204, "lon": -87.6664905, "tags": {"name": "Ashland", "network": "CTA", "operator": "Chicago Transit Authority", "public_transport": "stop_position", "railway": "stop", "subway": "yes"}}, {"type": "node", "id": 2203566979, "lat": 41.8827912, "lon": -87.6523111, "tags": {"addr:city": "Chicago", "addr:housenumber": "1001", "addr:postcode": "60607", "addr:state": "IL", "addr:street": "West Washington Boulevard", "amenity": "restaurant", "cuisine": "southern;cajun", "name": "Wishbone Restaurant", "opening_hours": "Mo-Th 06:00-21:00; Fr 06:00-22:00; Sa 08:00-15:00; Sa 17:00-22:00; Su 08:00-15:00", "phone": "+1-312-850-2663", "website": "https://www.wishbonechicago.com/"}}, {"type": "node", "id": 2203572828, "lat": 41.8793034, "lon": -87.6478112}, {"type": "node", "id": 2203572832, "lat": 41.8793084, "lon": -87.6474}, {"type": "node", "id": 2203572838, "lat": 41.879337, "lon": -87.647812}, {"type": "node", "id": 2203572839, "lat": 41.8793368, "lon": -87.6478269}, {"type": "node", "id": 2203572846, "lat": 41.8793717, "lon": -87.6478277}, {"type": "node", "id": 2203572848, "lat": 41.8793718, "lon": -87.6478115}, {"type": "node", "id": 2203572849, "lat": 41.8794168, "lon": -87.6478125}, {"type": "node", "id": 2203572851, "lat": 41.8794218, "lon": -87.6474025}, {"type": "node", "id": 2203572860, "lat": 41.8794498, "lon": -87.6478159}, {"type": "node", "id": 2203572861, "lat": 41.87945, "lon": -87.6478416}, {"type": "node", "id": 2203572880, "lat": 41.8795652, "lon": -87.6478477}, {"type": "node", "id": 2203572882, "lat": 41.8795666, "lon": -87.6478367}, {"type": "node", "id": 2203572885, "lat": 41.8795681, "lon": -87.6474107}, {"type": "node", "id": 2203578021, "lat": 41.8864495, "lon": -87.6485349}, {"type": "node", "id": 2203578023, "lat": 41.8864504, "lon": -87.6484469}, {"type": "node", "id": 2203578385, "lat": 41.8866769, "lon": -87.6485392}, {"type": "node", "id": 2203578387, "lat": 41.8866779, "lon": -87.6484512}, {"type": "node", "id": 2203578493, "lat": 41.8868516, "lon": -87.6520574}, {"type": "node", "id": 2203578494, "lat": 41.8868556, "lon": -87.6516901}, {"type": "node", "id": 2203578545, "lat": 41.8869125, "lon": -87.6461716}, {"type": "node", "id": 2203578549, "lat": 41.8869154, "lon": -87.6459586}, {"type": "node", "id": 2203578554, "lat": 41.886925, "lon": -87.6459585}, {"type": "node", "id": 2203578606, "lat": 41.8870717, "lon": -87.6516943}, {"type": "node", "id": 2203578659, "lat": 41.8871136, "lon": -87.6520583}, {"type": "node", "id": 2203578661, "lat": 41.8871156, "lon": -87.6516966}, {"type": "node", "id": 2203578777, "lat": 41.8872872, "lon": -87.6459601}, {"type": "node", "id": 2203578844, "lat": 41.8873764, "lon": -87.6461832}, {"type": "node", "id": 2203578846, "lat": 41.8873792, "lon": -87.6459665}, {"type": "node", "id": 2203580648, "lat": 41.8901189, "lon": -87.6551243}, {"type": "node", "id": 2203580662, "lat": 41.8901248, "lon": -87.6547276}, {"type": "node", "id": 2203580768, "lat": 41.8901779, "lon": -87.6551273}, {"type": "node", "id": 2203580772, "lat": 41.8901838, "lon": -87.6547288}, {"type": "node", "id": 2203936165, "lat": 41.8912981, "lon": -87.6472549}, {"type": "node", "id": 2203936451, "lat": 41.8914248, "lon": -87.6472556}, {"type": "node", "id": 2277981385, "lat": 41.8857777, "lon": -87.6476055}, {"type": "node", "id": 2277981386, "lat": 41.8857785, "lon": -87.6477464}, {"type": "node", "id": 2277981390, "lat": 41.8860364, "lon": -87.647603}, {"type": "node", "id": 2277981391, "lat": 41.8860371, "lon": -87.6477439}, {"type": "node", "id": 2357293589, "lat": 41.8846322, "lon": -87.6484701, "tags": {"addr:city": "Chicago", "addr:housenumber": "820", "addr:postcode": "60607", "addr:state": "IL", "addr:street": "West Randolph Street", "amenity": "restaurant", "cuisine": "american", "name": "Little Goat Diner", "opening_hours": "Mo-Th 07:00-22:00; Fr-Sa 07:00-00:00; Su 07:00-22:00", "phone": "+1-312-888-3455", "website": "https://littlegoatchicago.com/"}}, {"type": "node", "id": 2389087619, "lat": 41.9031904, "lon": -87.6664792}, {"type": "node", "id": 2389087620, "lat": 41.8890637, "lon": -87.644432}, {"type": "node", "id": 2389087622, "lat": 41.8950465, "lon": -87.6536404}, {"type": "node", "id": 2389087623, "lat": 41.8856856, "lon": -87.6298882}, {"type": "node", "id": 2389087624, "lat": 41.875672, "lon": -87.6316469, "tags": {"name": "LaSalle", "network": "CTA", "operator": "Chicago Transit Authority", "public_transport": "stop_position", "railway": "stop", "subway": "yes"}}, {"type": "node", "id": 2389087625, "lat": 41.878032, "lon": -87.629366}, {"type": "node", "id": 2389087626, "lat": 41.8756651, "lon": -87.6338745}, {"type": "node", "id": 2389087627, "lat": 41.8757682, "lon": -87.6293804}, {"type": "node", "id": 2389087628, "lat": 41.8807251, "lon": -87.6294424, "tags": {"name": "Monroe", "network": "CTA", "operator": "Chicago Transit Authority", "public_transport": "stop_position", "railway": "stop", "subway": "yes"}}, {"type": "node", "id": 2389087629, "lat": 41.875707, "lon": -87.6294988}, {"type": "node", "id": 2389087631, "lat": 41.8856169, "lon": -87.6296672}, {"type": "node", "id": 2389087632, "lat": 41.8756779, "lon": -87.6352309}, {"type": "node", "id": 2389087633, "lat": 41.8758168, "lon": -87.6293457}, {"type": "node", "id": 2389087635, "lat": 41.8856642, "lon": -87.639349}, {"type": "node", "id": 2389087636, "lat": 41.8758689, "lon": -87.629313}, {"type": "node", "id": 2389087637, "lat": 41.878173, "lon": -87.6293704, "tags": {"name": "Jackson", "network": "CTA", "operator": "Chicago Transit Authority", "public_transport": "stop_position", "railway": "stop", "subway": "yes"}}, {"type": "node", "id": 2389087638, "lat": 41.9028819, "lon": -87.6658907}, {"type": "node", "id": 2389087639, "lat": 41.8757342, "lon": -87.6294224}, {"type": "node", "id": 2389087640, "lat": 41.8911449, "lon": -87.6476749, "tags": {"name": "Grand", "network": "CTA", "operator": "Chicago Transit Authority", "public_transport": "stop_position", "railway": "stop", "subway": "yes"}}, {"type": "node", "id": 2389087641, "lat": 41.9045209, "lon": -87.6693317}, {"type": "node", "id": 2389087642, "lat": 41.8857439, "lon": -87.6399297}, {"type": "node", "id": 2389087643, "lat": 41.8856621, "lon": -87.629752}, {"type": "node", "id": 2389087644, "lat": 41.8856727, "lon": -87.6334341}, {"type": "node", "id": 2389087645, "lat": 41.8961627, "lon": -87.6553624, "tags": {"name": "Chicago", "network": "CTA", "operator": "Chicago Transit Authority", "public_transport": "stop_position", "railway": "stop", "subway": "yes"}}, {"type": "node", "id": 2389087646, "lat": 41.8899783, "lon": -87.6458537}, {"type": "node", "id": 2389087647, "lat": 41.9038608, "lon": -87.6679388}, {"type": "node", "id": 2389087648, "lat": 41.8856975, "lon": -87.6397925}, {"type": "node", "id": 2389087649, "lat": 41.8832093, "lon": -87.6294884, "tags": {"name": "Washington", "network": "CTA", "operator": "Chicago Transit Authority", "public_transport": "stop_position", "railway": "stop", "subway": "yes"}}, {"type": "node", "id": 2389087650, "lat": 41.8759406, "lon": -87.6293007}, {"type": "node", "id": 2389087651, "lat": 41.8855579, "lon": -87.6296217}, {"type": "node", "id": 2389087652, "lat": 41.8858169, "lon": -87.6400702}, {"type": "node", "id": 2389087653, "lat": 41.903519, "lon": -87.6672111, "tags": {"name": "Division", "network": "CTA", "operator": "Chicago Transit Authority", "public_transport": "stop_position", "railway": "stop", "subway": "yes"}}, {"type": "node", "id": 2389087654, "lat": 41.9049233, "lon": -87.6699939}, {"type": "node", "id": 2389087657, "lat": 41.8756906, "lon": -87.6295838}, {"type": "node", "id": 2389087658, "lat": 41.8787534, "lon": -87.6293804}, {"type": "node", "id": 2389087659, "lat": 41.8867738, "lon": -87.6413784}, {"type": "node", "id": 2389087660, "lat": 41.8854784, "lon": -87.6295904}, {"type": "node", "id": 2389087661, "lat": 41.9047049, "lon": -87.6696667}, {"type": "node", "id": 2478422406, "lat": 41.8897866, "lon": -87.6371788, "tags": {"amenity": "cafe", "brand": "Starbucks", "brand:wikidata": "Q37158", "brand:wikipedia": "en:Starbucks", "cuisine": "coffee_shop", "name": "Starbucks", "official_name": "Starbucks Coffee", "takeaway": "yes"}}, {"type": "node", "id": 2485000319, "lat": 41.8846116, "lon": -87.6373395, "tags": {"amenity": "cafe", "brand": "Starbucks", "brand:wikidata": "Q37158", "brand:wikipedia": "en:Starbucks", "cuisine": "coffee_shop", "name": "Starbucks", "official_name": "Starbucks Coffee", "takeaway": "yes"}}, {"type": "node", "id": 2485002923, "lat": 41.8804491, "lon": -87.6377508, "tags": {"amenity": "bar", "name": "South Branch"}}, {"type": "node", "id": 2485002926, "lat": 41.8804904, "lon": -87.6375454, "tags": {"amenity": "cafe", "brand": "Starbucks", "brand:wikidata": "Q37158", "brand:wikipedia": "en:Starbucks", "cuisine": "coffee_shop", "name": "Starbucks", "official_name": "Starbucks Coffee", "takeaway": "yes"}}, {"type": "node", "id": 2570892815, "lat": 41.8858431, "lon": -87.6411361, "tags": {"addr:city": "Chicago", "addr:housenumber": "201", "addr:postcode": "60661", "addr:state": "IL", "addr:street": "North Clinton Street", "amenity": "pub", "name": "New Line Tavern", "opening_hours": "Mo-Su 10:30-02:00", "phone": "+1-312-212-5463", "website": "https://www.newlinetavern.com/"}}, {"type": "node", "id": 2570892816, "lat": 41.8859048, "lon": -87.6430854, "tags": {"amenity": "cafe", "brand": "Starbucks", "brand:wikidata": "Q37158", "brand:wikipedia": "en:Starbucks", "cuisine": "coffee_shop", "name": "Starbucks", "official_name": "Starbucks Coffee", "takeaway": "yes"}}, {"type": "node", "id": 2670170013, "lat": 41.8821639, "lon": -87.6399799, "tags": {"amenity": "restaurant", "cuisine": "thai", "name": "Thai Urban Kitchen", "website": "http://www.thaiurbankitchen.com/"}}, {"type": "node", "id": 2670170030, "lat": 41.8823865, "lon": -87.6406478, "tags": {"amenity": "bar", "level": "1", "name": "Chicago News Room"}}, {"type": "node", "id": 2882728188, "lat": 41.8821839, "lon": -87.6391068, "tags": {"amenity": "cafe", "brand": "Starbucks", "brand:wikidata": "Q37158", "brand:wikipedia": "en:Starbucks", "cuisine": "coffee_shop", "name": "Starbucks", "official_name": "Starbucks Coffee", "takeaway": "yes"}}, {"type": "node", "id": 2882732990, "lat": 41.8821849, "lon": -87.6388681, "tags": {"amenity": "restaurant", "cuisine": "mediterranean", "name": "Mezza Mediterranean Grill"}}, {"type": "node", "id": 2882748136, "lat": 41.8821339, "lon": -87.6409831, "tags": {"amenity": "restaurant", "cuisine": "breakfast", "name": "Yolk", "website": "https://eatyolk.com/"}}, {"type": "node", "id": 3094904880, "lat": 41.8912975, "lon": -87.6474278}, {"type": "node", "id": 3094904881, "lat": 41.8915099, "lon": -87.6472562}, {"type": "node", "id": 3094904882, "lat": 41.8915093, "lon": -87.6474291}, {"type": "node", "id": 3188221400, "lat": 41.8755967, "lon": -87.6375939}, {"type": "node", "id": 3188221401, "lat": 41.8756575, "lon": -87.6376008}, {"type": "node", "id": 3367138857, "lat": 41.8861273, "lon": -87.6484831}, {"type": "node", "id": 3367138858, "lat": 41.8861312, "lon": -87.648271}, {"type": "node", "id": 3367138859, "lat": 41.8861848, "lon": -87.6483855}, {"type": "node", "id": 3367138860, "lat": 41.8861869, "lon": -87.6482729}, {"type": "node", "id": 3367138861, "lat": 41.8861959, "lon": -87.6484855}, {"type": "node", "id": 3367138862, "lat": 41.8861978, "lon": -87.6483859}, {"type": "node", "id": 3407985511, "lat": 41.8836989, "lon": -87.6488496, "tags": {"addr:city": "Chicago", "addr:housenumber": "112", "addr:postcode": "60607", "addr:state": "IL", "addr:street": "North Green Street", "amenity": "restaurant", "cuisine": "japanese;ramen", "name": "High Five Ramen", "opening_hours": "Su-Mo 17:00-23:00; Tu-We 17:00-00:00; Th-Sa 17:00-01:00", "phone": "+1-312-754-0431", "website": "http://highfiveramen.com/"}}, {"type": "node", "id": 3407985512, "lat": 41.8836999, "lon": -87.6489623, "tags": {"addr:city": "Chicago", "addr:housenumber": "112", "addr:postcode": "60607", "addr:state": "IL", "addr:street": "North Green Street", "amenity": "restaurant", "cuisine": "american;barbecue;bbq;barbeque", "name": "Green Street Smoked Meats", "opening_hours": "Su-Mo 11:00-23:00; Tu-We 11:00-00:00; Th-Sa 11:00-01:00", "phone": "+1-312-754-0431", "website": "http://greenstreetmeats.com/"}}, {"type": "node", "id": 3445953661, "lat": 41.8836201, "lon": -87.6483845, "tags": {"addr:city": "Chicago", "addr:housenumber": "113-125", "addr:postcode": "60661", "addr:state": "IL", "addr:street": "North Green Street", "amenity": "restaurant", "cuisine": "american", "name": "Chicken & Farm Shop", "opening_hours": "Mo-Fr 11:30-23:00; Sa 10:00-23:00; Su 10:00-21:00", "phone": "+1-312-521-8000", "website": "http://www.chickenshop.com/en/chicago"}}, {"type": "node", "id": 3575173111, "lat": 41.8865946, "lon": -87.6520069, "tags": {"addr:city": "Chicago", "addr:housenumber": "953", "addr:postcode": "60607", "addr:state": "IL", "addr:street": "West Fulton Market", "amenity": "restaurant", "cuisine": "fine_dining", "name": "Next", "phone": "+1-312-226-0858", "website": "https://www.nextrestaurant.com/", "wikidata": "Q7020950", "wikipedia": "en:Next (restaurant)"}}, {"type": "node", "id": 3575173112, "lat": 41.8865101, "lon": -87.6519209, "tags": {"addr:city": "Chicago", "addr:housenumber": "955", "addr:postcode": "60607", "addr:state": "IL", "addr:street": "West Fulton Market", "amenity": "bar", "name": "The Aviary", "opening_hours": "Su-We 17:00-00:00; Th-Fr 17:00-02:00; 17:00-03:00", "phone": "+1-312-226-0868", "website": "theaviary.com"}}, {"type": "node", "id": 3575231494, "lat": 41.8910574, "lon": -87.6471083, "tags": {"addr:city": "Chicago", "addr:housenumber": "495", "addr:postcode": "60654", "addr:state": "IL", "addr:street": "North Milwaukee Avenue", "amenity": "bar", "name": "Emmit's Irish Pub", "opening_hours": "Mo-Th 16:00-02:00; Fr 15:00-02:00; Sa 11:00-03:00; Su 11:00-02:00", "phone": "+1-312-563-9631", "website": "https://www.emmits.com/"}}, {"type": "node", "id": 3575231495, "lat": 41.8910436, "lon": -87.6470004, "tags": {"addr:city": "Chicago", "addr:housenumber": "491", "addr:postcode": "60654", "addr:state": "IL", "addr:street": "North Milwaukee Avenue", "amenity": "bar", "name": "Richard's Bar", "opening_hours": "Mo-Fr 08:00-02:00; Sa 09:00-03:00; Su 12:00-02:00", "phone": "+1-312-733-2251"}}, {"type": "node", "id": 3575231496, "lat": 41.8910439, "lon": -87.6468381, "tags": {"addr:city": "Chicago", "addr:housenumber": "721", "addr:postcode": "60654", "addr:state": "IL", "addr:street": "West Grand Avenue", "amenity": "restaurant", "cuisine": "italian", "name": "La Scarola", "opening_hours": "Mo-Fr 17:00-23:00; Sa 16:00-23:00; Su 16:00-22:00", "phone": "+1-312-243-1740", "website": "http://lascarola.com/"}}, {"type": "node", "id": 3575231700, "lat": 41.8896009, "lon": -87.6448653, "tags": {"addr:city": "Chicago", "addr:housenumber": "415", "addr:postcode": "60654", "addr:state": "IL", "addr:street": "North Milwaukee Avenue", "amenity": "bar", "name": "The Swill Inn"}}, {"type": "node", "id": 3654893252, "lat": 41.8905455, "lon": -87.6477288, "tags": {"amenity": "pub"}}, {"type": "node", "id": 4076939309, "lat": 41.8866569, "lon": -87.6488989, "tags": {"addr:city": "Chicago", "addr:housenumber": "837", "addr:postcode": "60607", "addr:state": "IL", "addr:street": "West Fulton Market", "amenity": "restaurant", "cuisine": "seafood;pork", "name": "The Publican", "opening_hours": "Mo-Th 15:30-21:30; Fr-Sa 15:30-22:30; Su 17:00-21:30", "phone": "+1-312-733-9555", "website": "thepublicanrestaurant.com"}}, {"type": "node", "id": 4076939311, "lat": 41.8845767, "lon": -87.6519538, "tags": {"amenity": "cafe", "brand": "Starbucks", "brand:wikidata": "Q37158", "brand:wikipedia": "en:Starbucks", "cuisine": "coffee_shop", "name": "Starbucks", "official_name": "Starbucks Coffee", "takeaway": "yes"}}, {"type": "node", "id": 4076939313, "lat": 41.8841155, "lon": -87.6517618, "tags": {"addr:city": "Chicago", "addr:housenumber": "953", "addr:postcode": "60607", "addr:state": "IL", "addr:street": "West Randolph Street", "amenity": "restaurant", "cuisine": "portuguese;latin_american", "name": "Nando's Peri-Peri", "opening_hours": "Su-Th 11:00-22:00; Fr-Sa 11:00-23:00", "phone": "+1-312-488-3062", "website": "https://www.nandosperiperi.com/"}}, {"type": "node", "id": 4076939314, "lat": 41.8840813, "lon": -87.6519107, "tags": {"addr:city": "Chicago", "addr:housenumber": "955", "addr:postcode": "60607", "addr:state": "IL", "addr:street": "West Randolph Street", "amenity": "cafe", "brand": "La Colombe Coffee Roasters", "brand:wikidata": "Q23461663", "brand:wikipedia": "en:La Colombe Coffee Roasters", "cuisine": "coffee_shop", "name": "La Colombe Coffee Roasters", "opening_hours": "Mo-Fr 06:30-19:00; Sa-Su 07:00-19:00", "phone": "+1-312-733-0707", "short_name": "La Colombe", "takeaway": "yes", "website": "https://www.lacolombe.com/"}}, {"type": "node", "id": 4076939315, "lat": 41.8841204, "lon": -87.651497, "tags": {"addr:city": "Chicago", "addr:housenumber": "941", "addr:postcode": "60607", "addr:state": "IL", "addr:street": "West Randolph Street", "amenity": "restaurant", "cuisine": "american;barbecue;bbq;barbeque", "name": "Porkchop", "opening_hours": "Mo-Tu 11:30-23:00; We-Sa 11:30-01:00; Su 10:30-23:00", "phone": "+1-312-733-9333", "website": "http://www.chicagoporkchop.com/"}}, {"type": "node", "id": 4076939316, "lat": 41.8846242, "lon": -87.6490718, "tags": {"addr:city": "Chicago", "addr:housenumber": "840", "addr:postcode": "60607", "addr:state": "IL", "addr:street": "West Randolph Street", "amenity": "bar", "name": "Maude's Liquor Bar", "opening_hours": "Mo 17:00-22:00; Tu-Th 17:00-23:00; Fr 17:00-00:00; Sa 17:00-00:00; Su 17:00-22:00", "phone": "+1-312-243-9712", "website": "http://maudesliquorbar.com/"}}, {"type": "node", "id": 4076939317, "lat": 41.8846219, "lon": -87.6492059, "tags": {"addr:city": "Chicago", "addr:housenumber": "844", "addr:postcode": "60607", "addr:state": "IL", "addr:street": "West Randolph Street", "amenity": "restaurant", "cuisine": "burger;american", "name": "Grange Hall Burger Bar", "opening_hours": "Tu-th 17:00-22:00; Fr 11:30-23:00; Sa 09:00-23:00; Su 09:00-16:00", "phone": "+1-312-491-0844", "website": "http://grangehallburgerbar.com"}}, {"type": "node", "id": 4076939318, "lat": 41.8841463, "lon": -87.6487698, "tags": {"addr:city": "Chicago", "addr:housenumber": "833", "addr:postcode": "60607", "addr:state": "IL", "addr:street": "West Randolph Street", "amenity": "restaurant", "cuisine": "european;small_plates", "name": "Nellc\u00f4te", "opening_hours": "Mo-Th 17:00-22:00; Fr 17:00-00:00; Sa 11:00-00:00; Su 11:00-22:00", "phone": "+1-312-432-0500", "website": "http://nellcoterestaurant.com"}}, {"type": "node", "id": 4076939320, "lat": 41.8838671, "lon": -87.6487653, "tags": {"addr:city": "Chicago", "addr:housenumber": "116", "addr:postcode": "60661", "addr:state": "IL", "addr:street": "North Green Street", "amenity": "bar", "name": "RM Champagne Salon", "opening_hours": "Su-We 17:00-00:00; Th-Fr 17:00-02:00; Sa 17:00-03:00", "phone": "+1-312-243-1199", "website": "http://www.rmchampagnesalon.com/"}}, {"type": "node", "id": 4076939321, "lat": 41.8841711, "lon": -87.6480454, "tags": {"addr:city": "Chicago", "addr:housenumber": "809", "addr:postcode": "60607", "addr:state": "IL", "addr:street": "West Randolph Street", "amenity": "restaurant", "cuisine": "small_plates", "name": "Girl & The Goat", "opening_hours": "Su-Th 16:30-23:00; Fr-Sa 16:30-00:00", "phone": "+1-312-492-6262", "website": "https://girlandthegoat.com/"}}, {"type": "node", "id": 4457007838, "lat": 41.8846234, "lon": -87.6488209, "tags": {"addr:city": "Chicago", "addr:country": "US", "addr:housenumber": "832", "addr:postcode": "60607", "addr:state": "IL", "addr:street": "West Randolph Street", "amenity": "restaurant", "name": "Bar Siena", "opening_hours": "Tu-Fr 11:30-02:00; Sa 09:00-03:00; Su 09:00-02:00; Mo 11:30-02:00", "phone": "+1-312-492-7775", "website": "http://barsiena.com"}}, {"type": "node", "id": 4565654594, "lat": 41.8837848, "lon": -87.6484457, "tags": {"addr:city": "Chicago", "addr:housenumber": "113-125", "addr:postcode": "60661", "addr:state": "IL", "addr:street": "North Green Street", "amenity": "restaurant", "name": "The Allis", "opening_hours": "Mo-Th 07:00-01:00; Fr-Sa 07:00-02:00; Su 08:00-23:00", "phone": "+1-312-521-8000", "website": "http://www.theallis.com/"}}, {"type": "node", "id": 4688046612, "lat": 41.8846306, "lon": -87.6478713, "tags": {"addr:city": "Chicago", "addr:housenumber": "800", "addr:postcode": "60607", "addr:state": "IL", "addr:street": "West Randolph Street", "amenity": "bar", "name": "Lone Wolf", "opening_hours": "Mo-Fr 16:00-02:00; Sa 12:00-15:00; Su 12:00-02:00", "phone": "+1-312-600-9391", "website": "https://www.lonewolftavern.com/#new-page"}}, {"type": "node", "id": 4708759698, "lat": 41.8841197, "lon": -87.6516078, "tags": {"addr:city": "Chicago", "addr:housenumber": "945", "addr:postcode": "60607", "addr:state": "IL", "addr:street": "West Randolph Street", "amenity": "restaurant", "cuisine": "american;burger", "name": "Umami Burger", "opening_hours": "Su-Th 11:30-23:00; Fr-Sa 11:30-00:00", "phone": "+1-312-226-9919", "website": "https://www.umamiburger.com/locations/west-loop/"}}, {"type": "node", "id": 4726220389, "lat": 41.8858519, "lon": -87.648447, "tags": {"addr:city": "Chicago", "addr:housenumber": "820", "addr:postcode": "60607", "addr:state": "IL", "addr:street": "West Lake Street", "amenity": "restaurant", "cuisine": "japanese;sushi", "name": "The Izakaya at Momotaro", "opening_hours": "Su 16:30-22:30; Mo-Th 17:00-22:30; Fr 16:30-23:00; Sa 16:30-00:00", "phone": "+1-312-733-4818", "website": "http://momotarochicago.com"}}, {"type": "node", "id": 4729890499, "lat": 41.8836981, "lon": -87.6490891, "tags": {"addr:housenumber": "112", "addr:street": "North Green Street", "amenity": "cafe", "name": "Sawada Coffee", "opening_hours": "Mo-Su 08:00-17:00"}}, {"type": "node", "id": 4731260221, "lat": 41.8869199, "lon": -87.652526, "tags": {"addr:city": "Chicago", "addr:housenumber": "1000", "addr:postcode": "60607", "addr:state": "IL", "addr:street": "West Fulton Market", "amenity": "restaurant", "cuisine": "seafood;sandwiches", "name": "Cold Storage", "name:en": "Cold Storage", "opening_hours": "Mo-Th 11:00-23:00; Sa 16:30-00:00; Su 16:30-22:30", "phone": "+1-312-638-6280", "website": "https://www.coldstoragechicago.com/"}}, {"type": "node", "id": 4733127521, "lat": 41.883943, "lon": -87.6425174, "tags": {"addr:city": "Chicago", "addr:housenumber": "123", "addr:postcode": "60661", "addr:state": "IL", "addr:street": "North Jefferson Street", "amenity": "restaurant", "cuisine": "american", "name": "Sepia", "name:en": "Sepia", "phone": "+1-312-441-1920", "website": "http://www.sepiachicago.com/", "wikidata": "Q17032198", "wikipedia": "en:Sepia (restaurant)"}}, {"type": "node", "id": 4888074922, "lat": 41.8891109, "lon": -87.6520123, "tags": {"addr:city": "Chicago", "addr:housenumber": "401", "addr:postcode": "60607", "addr:state": "IL", "addr:street": "North Morgan Street", "amenity": "restaurant", "delivery": "no", "description": "The Brass Monkey is a private event venue.", "name": "The Brass Monkey", "outdoor_seating": "no", "phone": "+1-312-763-3316", "takeaway": "no"}}, {"type": "node", "id": 4934342974, "lat": 41.881958, "lon": -87.6530228, "tags": {"addr:city": "Chicago", "addr:housenumber": "1020", "addr:postcode": "60607", "addr:state": "IL", "addr:street": "W. Madison St.", "amenity": "restaurant", "cuisine": "italian", "name": "Monteverde Restaurant & Pastificio", "opening_hours": "Tu-Fr 17:00-22:30; Sa 11:30-22:30; Su 11:30-21:00", "phone": "+1-312-888-3041", "website": "http://monteverdechicago.com/"}}, {"type": "node", "id": 5141715525, "lat": 41.884627, "lon": -87.6479979, "tags": {"addr:housenumber": "802", "addr:street": "West Randolph Street", "amenity": "restaurant", "name": "Bad Hunter"}}, {"type": "node", "id": 5168217739, "lat": 41.8842277, "lon": -87.6433844, "tags": {"addr:city": "Chicago", "addr:housenumber": "615", "addr:postcode": "60661", "addr:state": "IL", "addr:street": "West Randolph Street", "amenity": "restaurant", "cuisine": "mediterranean", "name": "avec", "opening_hours": "Mo-Fr 11:30-14:00; Su-Th 15:30-23:00; Fr-Sa 15:30-00:00; Su 10:00-12:00", "phone": "+1-312-377-2002", "website": "http://www.avecrestaurant.com/"}}, {"type": "node", "id": 5168249921, "lat": 41.884148, "lon": -87.6493685, "tags": {"addr:city": "Chicago", "addr:housenumber": "847", "addr:postcode": "60607", "addr:state": "IL", "addr:street": "West Randolph Street", "amenity": "restaurant", "cuisine": "indian", "description": "Bib Gourmand recommendation", "name": "Jaipur", "opening_hours": "Mo-Su 11:00-14:30, 17:00-20:45", "phone": "+1-312-526-3655", "website": "http://jaipurindiancuisinechicago.com/"}}, {"type": "node", "id": 5249789676, "lat": 41.8848398, "lon": -87.6507983, "tags": {"addr:city": "Chicago", "addr:housenumber": "161", "addr:postcode": "60607", "addr:state": "IL", "addr:street": "North Sangamon Street", "amenity": "restaurant", "cuisine": "roman;italian", "name": "Bonci Pizzeria", "opening_hours": "Mo-Th 11:00-22:00; Fr-Sa 11:00-23:00; Su 11:00-21:00", "phone": "+1-312-243-4016", "website": "https://bonciusa.com/"}}, {"type": "node", "id": 5249818041, "lat": 41.8834327, "lon": -87.6487445, "tags": {"addr:city": "Chicago", "addr:country": "US", "addr:housenumber": "108", "addr:postcode": "60067", "addr:state": "IL", "addr:street": "North Green Street", "amenity": "restaurant", "cuisine": "pizza;american", "name": "Parlor Pizza Bar - West Loop", "opening_hours": "Su-Th 11:30-01:00; Fr 11:30-02:00; Sa 10:30-02:00", "phone": "+1-312-600-6090", "website": "http://parlorchicago.com"}}, {"type": "node", "id": 5272952064, "lat": 41.891221, "lon": -87.6476367, "tags": {"name": "Grand", "network": "CTA", "operator": "Chicago Transit Authority", "public_transport": "stop_position", "railway": "stop", "subway": "yes"}}, {"type": "node", "id": 5272952065, "lat": 41.8856844, "lon": -87.6312903, "tags": {"name": "Clark/Lake", "network": "CTA", "operator": "Chicago Transit Authority", "public_transport": "stop_position", "railway": "stop", "subway": "yes"}}, {"type": "node", "id": 5272952066, "lat": 41.8857373, "lon": -87.6312876, "tags": {"name": "Clark/Lake", "network": "CTA", "operator": "Chicago Transit Authority", "public_transport": "stop_position", "railway": "stop", "subway": "yes"}}, {"type": "node", "id": 5272952067, "lat": 41.883209, "lon": -87.6294539, "tags": {"name": "Washington", "network": "CTA", "operator": "Chicago Transit Authority", "public_transport": "stop_position", "railway": "stop", "subway": "yes"}}, {"type": "node", "id": 5272957251, "lat": 41.8962122, "lon": -87.6553004, "tags": {"name": "Chicago", "network": "CTA", "operator": "Chicago Transit Authority", "public_transport": "stop_position", "railway": "stop", "subway": "yes"}}, {"type": "node", "id": 5272959956, "lat": 41.8781723, "lon": -87.6292891, "tags": {"name": "Jackson", "network": "CTA", "operator": "Chicago Transit Authority", "public_transport": "stop_position", "railway": "stop", "subway": "yes"}}, {"type": "node", "id": 5272959957, "lat": 41.8807275, "lon": -87.62938, "tags": {"name": "Monroe", "network": "CTA", "operator": "Chicago Transit Authority", "public_transport": "stop_position", "railway": "stop", "subway": "yes"}}, {"type": "node", "id": 5272963174, "lat": 41.8756111, "lon": -87.6316453, "tags": {"name": "LaSalle", "network": "CTA", "operator": "Chicago Transit Authority", "public_transport": "stop_position", "railway": "stop", "subway": "yes"}}, {"type": "node", "id": 5295997074, "lat": 41.8812482, "lon": -87.637833, "tags": {"amenity": "restaurant", "name": "Rivers Restaurant"}}, {"type": "node", "id": 5295997077, "lat": 41.8816879, "lon": -87.6377996, "tags": {"addr:city": "Chicago", "addr:housenumber": "10", "addr:postcode": "60606", "addr:state": "IL", "addr:street": "South Upper Wacker Drive", "amenity": "bar", "name": "Rittergut Wine Bar", "phone": "+1-779-216-5939", "website": "http://rittergutwinebar.com/"}}, {"type": "node", "id": 5398863224, "lat": 41.8913731, "lon": -87.648171, "tags": {"addr:city": "Chicago", "addr:housenumber": "506", "addr:postcode": "60642", "addr:state": "IL", "addr:street": "North Milwaukee Avenue", "amenity": "cafe", "cuisine": "coffee_shop", "name": "Starbucks"}}, {"type": "node", "id": 5441371907, "lat": 41.8872097, "lon": -87.650725, "tags": {"addr:city": "Chicago", "addr:housenumber": "311", "addr:postcode": "60607", "addr:state": "IL", "addr:street": "North Sangamon Street", "amenity": "restaurant", "cuisine": "american;drinks", "name": "Fulton Market Kitchen", "opening_hours": "Tu-Fr 17:00-02:00; Sa 17:00-03:00", "phone": "+1-312-733-6900", "website": "https://www.fultonmarketkitchen.com/"}}, {"type": "node", "id": 5441373072, "lat": 41.8866336, "lon": -87.6494008, "tags": {"addr:city": "Chicago", "addr:housenumber": "847", "addr:postcode": "60607", "addr:state": "IL", "addr:street": "West Fulton Market", "amenity": "restaurant", "cuisine": "southern;chicken;fried_chicken", "name": "Gus's World Famous Fried Chicken", "opening_hours": "Mo-Th 11:00-22:00; Fr-Sa 11:00-23:00; Su 11:00-21:00", "phone": "+1-312-733-1971", "website": "http://gusfriedchicken.com/"}}, {"type": "node", "id": 5441374473, "lat": 41.8866376, "lon": -87.6496341, "tags": {"addr:city": "Chicago", "addr:housenumber": "857", "addr:postcode": "60607", "addr:state": "IL", "addr:street": "West Fulton Market", "amenity": "restaurant", "cuisine": "chinese", "name": "Duck Duck Goat", "opening_hours": "Su-Th 16:30-22:30; Fr-Sa 16:30-23:30; Sa-Su 11:00-16:00", "phone": "+1-312-902-3825", "website": "duckduckgoatchicago.com"}}, {"type": "node", "id": 5441377149, "lat": 41.886605, "lon": -87.6518793, "tags": {"addr:city": "Chicago", "addr:housenumber": "951", "addr:postcode": "60607", "addr:state": "IL", "addr:street": "West Fulton Market", "amenity": "restaurant", "cuisine": "american", "name": "Roister Restaurant", "opening_hours": "Mo-Th 17:00-21:00; Fr-Su 10:00-14:00; Fr-Su 17:00-22:00", "website": "http://roisterrestaurant.com"}}, {"type": "node", "id": 5441383176, "lat": 41.8869381, "lon": -87.6488617, "tags": {"addr:city": "Chicago", "addr:housenumber": "834", "addr:postcode": "60607", "addr:state": "IL", "addr:street": "West Fulton Market", "amenity": "restaurant", "cuisine": "american;drinks", "name": "Beatrix Fulton Market", "opening_hours": "Mo-Fr 07:00-22:00; Sa 08:00-23:00; Su 08:00-21:00", "phone": "+1-312-733-0370", "website": "http://beatrixrestaurants.com"}}, {"type": "node", "id": 5441383743, "lat": 41.8869605, "lon": -87.6496187, "tags": {"addr:city": "Chicago", "addr:housenumber": "852", "addr:postcode": "60607", "addr:state": "IL", "addr:street": "West Fulton Market", "amenity": "restaurant", "cuisine": "burger", "name": "Kuma's Corner - West Loop", "opening_hours": "Su-Th 11:15-23:00; Fr-Sa 11:15-00:00", "phone": "+1-312-666-9090", "website": "https://kumascorner.com/"}}, {"type": "node", "id": 5441385374, "lat": 41.8866515, "lon": -87.6484218, "tags": {"addr:city": "Chicago", "addr:housenumber": "819", "addr:postcode": "60607", "addr:state": "IL", "addr:street": "West Fulton Market", "amenity": "restaurant", "cuisine": "ramen;noodle", "name": "Omakase Takeya", "opening_hours": "Tu-Su 11:30-14:30; We-Th 17:00-22:30; Fr-Sa 17:00-23:00; Su 17:00-21:30", "phone": "+1-312-666-7710", "website": "http://ramentakeya.com"}}, {"type": "node", "id": 5441388896, "lat": 41.8875203, "lon": -87.6519922, "tags": {"addr:city": "Chicago", "addr:housenumber": "311", "addr:postcode": "60607", "addr:state": "IL", "addr:street": "North Morgan Street", "amenity": "restaurant", "cuisine": "american;drinks", "name": "City Mouse Chicago", "opening_hours": "Mo-Su 07:00-23:00", "phone": "+1-312-764-1908", "website": "https://www.citymousechicago.com/"}}, {"type": "node", "id": 5441396526, "lat": 41.8876449, "lon": -87.6523807, "tags": {"addr:city": "Chicago", "addr:housenumber": "326", "addr:postcode": "60607", "addr:state": "IL", "addr:street": "North Morgan Street", "amenity": "restaurant", "cuisine": "american;street_food", "name": "Regards to Edith", "opening_hours": "Mo-Th 17:00-22:00; Fr 16:00-23:00; Sa 10:00-23:00; Su 10:00-22:00", "phone": "+1-312-763-6564", "website": "regardstoedith.com"}}, {"type": "node", "id": 5441403136, "lat": 41.8871969, "lon": -87.6524263, "tags": {"addr:city": "Chicago", "addr:housenumber": "1000", "addr:postcode": "60607", "addr:state": "IL", "addr:street": "West Fulton Market", "amenity": "restaurant", "cuisine": "steak;seafood", "name": "Swift & Sons", "opening_hours": "Mo-Th 16:30-23:00; Fr-Sa 16:30-00:00; Su 16:30-22:30", "phone": "+1-312-733-9420", "website": "https://www.swiftandsonschicago.com/"}}, {"type": "node", "id": 5448884424, "lat": 41.8793267, "lon": -87.6476079, "tags": {"addr:city": "Chicago", "addr:housenumber": "800", "addr:postcode": "60661", "addr:state": "IL", "addr:street": "West Adams Street", "amenity": "restaurant", "cuisine": "Greek;seafood", "name": "Santorini", "opening_hours": "Su-Th 11:00-22:00; Fr-Sa 11:00-00:00", "phone": "+1-312-829-8820", "website": "santorinichicago.com"}}, {"type": "node", "id": 5448894821, "lat": 41.8845857, "lon": -87.6542009, "tags": {"addr:city": "Chicago", "addr:housenumber": "1048", "addr:postcode": "60607", "addr:state": "IL", "addr:street": "West Randolph Street", "amenity": "restaurant", "cuisine": "pizza;italian", "email": "Fornorossochicago@gmail.com", "name": "Forno Rosso Pizzeria Napoletana", "opening_hours": "Su-Th 11:00-22:00; Fr-Sa 11:00-00:00", "phone": "+1-773-716-3000", "website": "http://www.fornorossopizzeria.com/"}}, {"type": "node", "id": 5452994604, "lat": 41.8853503, "lon": -87.6519829, "tags": {"addr:city": "Chicago", "addr:housenumber": "181", "addr:postcode": "60607", "addr:state": "IL", "addr:street": "North Morgan Street", "amenity": "cafe", "cuisine": "donut;coffee;chicken;sandwich", "name": "Do-Rite Donuts & Coffee", "opening_hours": "Mo-Th 06:30-19:00; Fr 06:30-01:00; Sa 07:00-01:00; Su 07:00-19:00", "phone": "+1-312-624-8878", "website": "http://doritedonuts.com/"}}, {"type": "node", "id": 5458005427, "lat": 41.8896816, "lon": -87.6372631, "tags": {"addr:city": "Chicago", "addr:housenumber": "414", "addr:postcode": "60654", "addr:state": "IL", "addr:street": "North Orleans Street", "amenity": "bar", "name": "Reverie", "opening_hours": "Th 21:00-02:00; Fr 15:00-02:00; Sa 21:00-03:00", "phone": "+1-312-467-4141", "website": "http://www.reveriechicago.com/"}}, {"type": "node", "id": 5458006342, "lat": 41.889785, "lon": -87.6376935, "tags": {"addr:city": "Chicago", "addr:housenumber": "353", "addr:postcode": "60654", "addr:state": "IL", "addr:street": "West Hubbard Street", "amenity": "restaurant", "cuisine": "seafood;american", "name": "The Hampton Social - River North", "opening_hours": "Mo-Tu 11:00-22:00; We-Th 11:00-23:00; Fr 11:00-00:00; Sa 10:00-00:00; Su 10:00-22:00", "phone": "+1-312-464-0500", "website": "https://www.thehamptonsocial.com/"}}, {"type": "node", "id": 5458006691, "lat": 41.8900951, "lon": -87.6377144, "tags": {"addr:city": "Chicago", "addr:housenumber": "354", "addr:postcode": "60654", "addr:state": "IL", "addr:street": "West Hubbard Street", "amenity": "restaurant", "cuisine": "burger;coffee", "name": "3 Greens Market", "opening_hours": "Mo-Fr 07:00-20:00; Sa-Su 08:00-15:00", "phone": "+1-312-888-9195", "website": "http://3greensmarket.com/"}}, {"type": "node", "id": 5458008447, "lat": 41.8933455, "lon": -87.6391791, "tags": {"addr:city": "Chicago", "addr:housenumber": "416", "addr:postcode": "60654", "addr:state": "IL", "addr:street": "West Ontario Street", "amenity": "restaurant", "cuisine": "american", "name": "Hutch American Cafe", "opening_hours": "Mo-Su 08:00-15:00", "phone": "+1-312-300-4195", "website": "https://www.hutchchicago.com/"}}, {"type": "node", "id": 5458149906, "lat": 41.889796, "lon": -87.6378482, "tags": {"addr:city": "Chicago", "addr:housenumber": "353", "addr:postcode": "60654", "addr:state": "IL", "addr:street": "West Hubbard Street", "addr:unit": "Lower Level", "amenity": "bar", "name": "The Bassment", "opening_hours": "We-Fr 20:00-02:00; Sa 20:00-03:00", "phone": "+1-312-386-5778", "website": "https://www.thebassmentchicago.com/"}}, {"type": "node", "id": 5460269794, "lat": 41.8842275, "lon": -87.6408329, "tags": {"addr:city": "Chicago", "addr:housenumber": "131", "addr:postcode": "60661", "addr:state": "IL", "addr:street": "North Clinton Street", "amenity": "restaurant", "cuisine": "hawaiian;fish;seafood", "name": "Aloha Poke co.", "opening_hours": "Mo-Fr 10:00-19:30; Sa 10:00-17:30", "phone": "+1-312-285-2887", "website": "https://www.alohapokeco.com/"}}, {"type": "node", "id": 5460275344, "lat": 41.8841908, "lon": -87.6410404, "tags": {"addr:city": "Chicago", "addr:housenumber": "131", "addr:postcode": "60661", "addr:state": "IL", "addr:street": "North Clinton Street", "amenity": "cafe", "cuisine": "pastry", "name": "Vanille Patisserie", "opening_hours": "Mo-Fr 07:00-19:30; Sa 08:30-17:30", "phone": "+1-773-868-4574", "website": "http://www.vanillepatisserie.com/"}}, {"type": "node", "id": 5460291293, "lat": 41.8840923, "lon": -87.6399867, "tags": {"addr:city": "Chicago", "addr:housenumber": "120", "addr:postcode": "60661", "addr:state": "IL", "addr:street": "North Canal Street", "amenity": "restaurant", "cuisine": "american", "name": "Ovie Bar & Grill", "opening_hours": "Mo-Th 11:00-22:00; Fr 11:00-23:00; Sa 19:00-02:30", "phone": "+1-312-902-1111", "website": "http://www.oviebarandgrill.com/"}}, {"type": "node", "id": 5460297238, "lat": 41.884643, "lon": -87.6424139, "tags": {"addr:city": "Chicago", "addr:housenumber": "564", "addr:postcode": "60661", "addr:state": "IL", "addr:street": "West Randolph Street", "amenity": "bar", "name": "CH Distillery", "opening_hours": "Tu-Th 16:00-22:00; Fr 16:00-23:00; Sa 17:00-23:00", "phone": "+1-312-707-8780", "website": "https://chdistillery.com/"}}, {"type": "node", "id": 5460308912, "lat": 41.8855982, "lon": -87.6422429, "tags": {"addr:city": "Chicago", "addr:housenumber": "567", "addr:postcode": "60661", "addr:state": "IL", "addr:street": "West Lake Street", "amenity": "restaurant", "cuisine": "vietnamese;asian", "name": "Saigon Sisters", "opening_hours": "Mo 11:00-14:00; Tu-Th 11:00-21:00; Fr 11:00-22:00; Sa 17:00-22:00", "phone": "+1-312-496-0090", "website": "https://www.saigonsisters.com/"}}, {"type": "node", "id": 5460317300, "lat": 41.8854657, "lon": -87.6437925, "tags": {"addr:city": "Chicago", "addr:housenumber": "627", "addr:postcode": "60661", "addr:state": "IL", "addr:street": "West Lake Street", "amenity": "restaurant", "cuisine": "pizza;italian", "name": "Sarpino's Pizzeria West Loop", "opening_hours": "Su-Th 09:30-04:00; Fr-Sa 09:30-05:00", "phone": "+1-312-207-1777", "website": "https://www.gosarpinos.com/"}}, {"type": "node", "id": 5460343455, "lat": 41.8854936, "lon": -87.6439803, "tags": {"addr:city": "Chicago", "addr:housenumber": "629", "addr:postcode": "60661", "addr:state": "IL", "addr:street": "West Lake Street", "amenity": "restaurant", "cuisine": "italian;regional", "name": "Fast Track", "opening_hours": "Mo-Fr 06:00-16:00; Sa 08:30-16:00", "phone": "+1-312-993-9300"}}, {"type": "node", "id": 5460357550, "lat": 41.8842456, "lon": -87.6435493, "tags": {"addr:city": "Chicago", "addr:housenumber": "619", "addr:postcode": "60661", "addr:state": "IL", "addr:street": "West Randolph Street", "amenity": "restaurant", "cuisine": "american", "name": "Blackbird Restaurant", "opening_hours": "Mo-Fr 11:30-14:00; Su-Th 17:00-22:00; Fr-Sa 17:00-23:00", "phone": "+1-312-715-0708", "website": "http://www.blackbirdrestaurant.com/"}}, {"type": "node", "id": 5460377110, "lat": 41.8847628, "lon": -87.6472909, "tags": {"addr:city": "Chicago", "addr:housenumber": "738", "addr:postcode": "60661", "addr:state": "IL", "addr:street": "West Randolph Street", "amenity": "restaurant", "name": "Ronero", "phone": "+1-312-600-6105", "website": "https://www.ronerochicago.com/"}}, {"type": "node", "id": 5460378133, "lat": 41.8842786, "lon": -87.6437039, "tags": {"addr:city": "Chicago", "addr:housenumber": "621", "addr:postcode": "60661", "addr:state": "IL", "addr:street": "West Randolph Street", "amenity": "restaurant", "cuisine": "spanish", "name": "Salero", "opening_hours": "Mo-Th 17:00-22:00; Fr-Sa 17:00-23:00", "website": "http://salerochicago.com/"}}, {"type": "node", "id": 5460380983, "lat": 41.8847049, "lon": -87.646666, "tags": {"addr:city": "Chicago", "addr:housenumber": "720", "addr:postcode": "60661", "addr:state": "IL", "addr:street": "West Randolph Street", "amenity": "restaurant", "cuisine": "japanese;sushi;asian", "name": "Tanoshii", "opening_hours": "Mo-Fr 11:30-14:30; Su-Th 16:30-22:00; Fr-Sa 16:30-23:00", "phone": "+1-312-207-8894", "website": "http://tanoshiisushi.com/"}}, {"type": "node", "id": 5460388170, "lat": 41.8849925, "lon": -87.6472212, "tags": {"addr:city": "Chicago", "addr:housenumber": "738", "addr:postcode": "60661", "addr:state": "IL", "addr:street": "West Randolph Street", "amenity": "bar", "name": "Esco Bar", "opening_hours": "Th-Fr 21:00-02:00; Sa 21:00-03:00", "phone": "+1-872-206-5245"}}, {"type": "node", "id": 5460389674, "lat": 41.8841852, "lon": -87.6477165, "tags": {"amenity": "restaurant", "cuisine": "mediterranean;tapas", "name": "Nia Mediterranean Tapas", "opening_hours": "Su-Th 16:30-22:00; Fr-Sa 16:30-23:00", "phone": "+1-312-226-3110", "website": "https://www.niarestaurant.com/"}}, {"type": "node", "id": 5460391091, "lat": 41.8848667, "lon": -87.6477496, "tags": {"addr:city": "Chicago", "addr:housenumber": "160", "addr:postcode": "60661", "addr:state": "IL", "addr:street": "North Halsted Street", "amenity": "restaurant", "cuisine": "american;breakfast;sandwich;burger", "name": "Johnnies Snack Shop", "opening_hours": "Mo-Sa 06:00-15:00; Su 07:00-14:00", "phone": "+1-312-226-7769", "website": "http://johnniessnackshop.com/"}}, {"type": "node", "id": 5460409431, "lat": 41.884171, "lon": -87.6484133, "tags": {"addr:city": "Chicago", "addr:housenumber": "823", "addr:postcode": "60607", "addr:state": "IL", "addr:street": "West Randolph Street", "amenity": "restaurant", "cuisine": "japanese;sushi;asian", "name": "sushiDOKKU", "opening_hours": "Tu-Th 12:00-22:00; Fr 12:00-23:00; Sa 17:00-23:00", "phone": "+1-312-455-8238", "website": "http://sushidokku.com/"}}, {"type": "node", "id": 5460524407, "lat": 41.8836945, "lon": -87.6484313, "tags": {"addr:city": "Chicago", "addr:housenumber": "113-125", "addr:postcode": "60661", "addr:state": "IL", "addr:street": "North Green Street", "amenity": "bar", "name": "Fox Bar", "opening_hours": "Su-We 18:00-01:00; Th-Fr 18:00-02:00; Sa 18:00-03:00", "phone": "+1-312-521-8000", "website": "http://foxbar.com/"}}, {"type": "node", "id": 5460533351, "lat": 41.883987, "lon": -87.6487746, "tags": {"addr:city": "Chicago", "addr:housenumber": "841", "addr:postcode": "60661", "addr:state": "IL", "addr:street": "West Randolph Street", "amenity": "restaurant", "cuisine": "american", "name": "Gideon Sweet", "opening_hours": "Tu-Fr 17:00-02:00; Sa 17:00-03:00; Su 17:00-02:00", "phone": "+1-312-888-2258", "website": "https://www.gideonsweet.com/"}}, {"type": "node", "id": 5460537098, "lat": 41.8839985, "lon": -87.6508002, "tags": {"addr:city": "Chicago", "addr:housenumber": "925", "addr:postcode": "60607", "addr:state": "IL", "addr:street": "West Randolph Street", "amenity": "restaurant", "cuisine": "sandwich;sub;italian;pizza", "name": "Nonna's Sandwiches and Sundries", "opening_hours": "Mo-Sa 11:00-22:00; Su 11:00-21:00", "phone": "+1-312-690-7323", "website": "http://www.nonnaschicago.com/"}}, {"type": "node", "id": 5460540248, "lat": 41.8828777, "lon": -87.649295, "tags": {"addr:city": "Chicago", "addr:housenumber": "845", "addr:postcode": "60607", "addr:state": "IL", "addr:street": "West Washington Street", "amenity": "restaurant", "cuisine": "argentinian;american", "name": "El Che Steakhouse & Bar", "opening_hours": "Mo-Th 17:00-22:00; Fr-Sa 17:00-23:00", "phone": "+1-312-265-1130", "website": "https://www.elchebarchicago.com/"}}, {"type": "node", "id": 5460545276, "lat": 41.8841395, "lon": -87.6507162, "tags": {"addr:city": "Chicago", "addr:housenumber": "925", "addr:postcode": "60607", "addr:state": "IL", "addr:street": "West Randolph Street", "amenity": "restaurant", "cuisine": "italian", "name": "Formento's", "opening_hours": "Mo-Th 16:30-22:00; Fr-Sa 16:30-23:00; Su 16:30-21:00", "phone": "+1-312-690-7295", "website": "http://www.formentos.com/"}}, {"type": "node", "id": 5460552331, "lat": 41.8841234, "lon": -87.6514226, "tags": {"addr:city": "Chicago", "addr:housenumber": "939", "addr:postcode": "60607", "addr:state": "IL", "addr:street": "West Randolph Street", "amenity": "restaurant", "cuisine": "american;breakfast", "name": "The Eastman Egg Company", "opening_hours": "Mo-Su 07:00-15:00", "phone": "+1-773-231-8865", "website": "https://www.eastmanegg.com/"}}, {"type": "node", "id": 5460557532, "lat": 41.8834059, "lon": -87.6529414, "tags": {"addr:city": "Chicago", "addr:housenumber": "111", "addr:postcode": "60607", "addr:state": "IL", "addr:street": "North Carpenter Street", "amenity": "restaurant", "cuisine": "french", "name": "La Sardine", "opening_hours": "Mo-Fr 11:30-15:00; Mo-Th 17:00-22:00; Fr-Sa 17:00-23:00", "phone": "+1-312-421-2800", "website": "http://www.lasardine.com/"}}, {"type": "node", "id": 5460565146, "lat": 41.8854339, "lon": -87.6524622, "tags": {"addr:city": "Chicago", "addr:housenumber": "180", "addr:postcode": "60607", "addr:state": "IL", "addr:street": "North Morgan Street", "amenity": "restaurant", "cuisine": "mexican;barbecue;bbq;taco;tacos", "name": "Federales", "opening_hours": "Mo-Th 16:00-02:00; Fr 11:00-02:00; Sa 11:00-03:00; Su 11:00-02:00", "phone": "+1-773-831-9696", "website": "https://federaleschicago.com/"}}, {"type": "node", "id": 5460569481, "lat": 41.8854238, "lon": -87.6526362, "tags": {"addr:city": "Chicago", "addr:housenumber": "1009", "addr:postcode": "60607", "addr:state": "IL", "addr:street": "West Lake Street", "amenity": "restaurant", "cuisine": "sandwich;american", "name": "The Corned Beef Factory Sandwich Shop", "opening_hours": "Mo-Fr 06:00-15:00; Sa 10:00-15:00", "phone": "+1-312-666-2536", "website": "http://cornedbeeffactorychicago.com/"}}, {"type": "node", "id": 5460570321, "lat": 41.8857772, "lon": -87.6527738, "tags": {"addr:city": "Chicago", "addr:housenumber": "1012", "addr:postcode": "60607", "addr:state": "IL", "addr:street": "West Lake Street", "amenity": "cafe", "cuisine": "juice;american;organic", "name": "Harvest Juicery", "opening_hours": "Mo-Fr 07:00-19:00; Sa 08:00-14:00", "phone": "+1-312-265-0182", "website": "https://www.harvestjuicery.com/"}}, {"type": "node", "id": 5460571170, "lat": 41.8857512, "lon": -87.6519857, "tags": {"addr:city": "Chicago", "addr:housenumber": "201", "addr:postcode": "60607", "addr:state": "IL", "addr:street": "North Morgan Street", "amenity": "restaurant", "cuisine": "latin_american;tapas", "name": "Bar Takito", "opening_hours": "Mo-Tu 11:00-22:00; We-Th 11:00-23:00; Fr-Sa 11:00-01:00; Su 11:00-15:00", "phone": "+1-312-888-9602", "website": "http://bartakito.com/"}}, {"type": "node", "id": 5460575190, "lat": 41.8860045, "lon": -87.6451011, "tags": {"addr:city": "Chicago", "addr:housenumber": "661", "addr:postcode": "60661", "addr:state": "IL", "addr:street": "West Walnut Street", "amenity": "restaurant", "cuisine": "american;fine_dining", "name": "Oriole", "opening_hours": "Tu-Sa 17:30-21:30", "phone": "+1-312-877-5339", "website": "http://www.oriolechicago.com/", "wikidata": "Q48816428", "wikipedia": "en:Oriole (restaurant)"}}, {"type": "node", "id": 5460580000, "lat": 41.8858571, "lon": -87.6451137, "tags": {"addr:city": "Chicago", "addr:housenumber": "660", "addr:postcode": "60661", "addr:state": "IL", "addr:street": "West Lake Street", "amenity": "bar", "name": "Moneygun", "opening_hours": "Su-Fr 17:00-02:00; Sa 17:00-03:00", "phone": "+1-312-600-0600", "website": "https://www.moneygunchicago.com/"}}, {"type": "node", "id": 5460581461, "lat": 41.885901, "lon": -87.6452368, "tags": {"addr:city": "Chicago", "addr:housenumber": "664", "addr:postcode": "60661", "addr:state": "IL", "addr:street": "West Lake Street", "amenity": "restaurant", "name": "Saint Lou's Assembly", "phone": "+1-312-600-0600", "website": "https://www.saintlouschicago.com/"}}, {"type": "node", "id": 5460583911, "lat": 41.8845456, "lon": -87.6492396, "tags": {"addr:city": "Chicago", "addr:housenumber": "844", "addr:postcode": "60607", "addr:state": "IL", "addr:street": "West Randolph Street", "amenity": "bar", "name": "Backdoor Saloon", "phone": "+1-312-491-0844", "website": "https://www.thebackdoorsaloon.com/"}}, {"type": "node", "id": 5460586766, "lat": 41.8846081, "lon": -87.6499579, "tags": {"addr:city": "Chicago", "addr:housenumber": "900", "addr:postcode": "60607", "addr:state": "IL", "addr:street": "West Randolph Street", "amenity": "restaurant", "cuisine": "mexican;latin_american", "name": "Le\u00f1a Brava", "opening_hours": "Tu-Th 17:30-22:00; Fr-Sa 17:30-23:00; Su 17:30-21:00", "phone": "+1-312-733-1975", "website": "http://www.rickbayless.com/restaurants/lena-brava/"}}, {"type": "node", "id": 5460599291, "lat": 41.8846013, "lon": -87.6501403, "tags": {"addr:city": "Chicago", "addr:housenumber": "904", "addr:postcode": "60607", "addr:state": "IL", "addr:street": "West Randolph Street", "amenity": "restaurant", "cuisine": "taco;mexican", "name": "Cruz Blanca Brewery & Taquer\u00eda", "opening_hours": "Tu-Th 11:00-22:00; Fr-Sa 11:00-00:00; Su 11:00-21:00", "phone": "+1-312-733-1975", "website": "http://cruzblanca.com"}}, {"type": "node", "id": 5460607041, "lat": 41.8847223, "lon": -87.6487697, "tags": {"addr:city": "Chicago", "addr:housenumber": "832", "addr:postcode": "60607", "addr:state": "IL", "addr:street": "West Randolph Street", "amenity": "cafe", "cuisine": "donut;coffee_shop;coffee", "name": "Bombobar - West Loop", "opening_hours": "Mo-Su 08:00-23:00", "phone": "+1-312-967-7000", "website": "http://www.bombobar.com/"}}, {"type": "node", "id": 5460610021, "lat": 41.8855009, "lon": -87.648244, "tags": {"addr:city": "Chicago", "addr:housenumber": "817", "addr:postcode": "60607", "addr:state": "IL", "addr:street": "West Lake Street", "amenity": "restaurant", "cuisine": "american;fine_dining", "name": "BLVD", "opening_hours": "Su-Mo 17:00-22:00; Tu-Th 17:00-23:00; Fr-Sa 17:00-00:00", "phone": "+1-312-526-3116", "website": "https://blvdchicago.com/"}}, {"type": "node", "id": 5460613792, "lat": 41.8800901, "lon": -87.6408472, "tags": {"addr:city": "Chicago", "addr:housenumber": "113", "addr:postcode": "60661", "addr:state": "IL", "addr:street": "South Clinton Street", "amenity": "restaurant", "cuisine": "indian", "name": "Naansense", "opening_hours": "Mo-Fr 11:00-16:00", "phone": "+1-312-255-7268", "website": "https://www.eatatnaansense.com/"}}, {"type": "node", "id": 5460615421, "lat": 41.8803617, "lon": -87.6413837, "tags": {"addr:city": "Chicago", "addr:housenumber": "555", "addr:postcode": "60661", "addr:state": "IL", "addr:street": "West Monroe Street", "amenity": "restaurant", "cuisine": "mediterranean", "name": "IDOF - I Dream of Falafel", "opening_hours": "Mo-Fr 10:30-20:00", "phone": "+1-312-559-3333", "website": "http://www.idreamoffalafel.com/locations/chicago/"}}, {"type": "node", "id": 5460616621, "lat": 41.8810817, "lon": -87.6413762, "tags": {"addr:city": "Chicago", "addr:housenumber": "24", "addr:postcode": "60661", "addr:state": "IL", "addr:street": "South Clinton Street", "amenity": "restaurant", "brand": "Blaze Pizza", "brand:wikidata": "Q23016666", "brand:wikipedia": "en:Blaze Pizza", "cuisine": "pizza", "name": "Blaze Pizza", "opening_hours": "Mo-Fr 10:30-20:00; Sa-Su 12:00-19:00", "phone": "+1-312-766-1089", "website": "http://www.blazepizza.com/"}}, {"type": "node", "id": 5460628921, "lat": 41.8817927, "lon": -87.6560815, "tags": {"addr:city": "Chicago", "addr:housenumber": "1140", "addr:postcode": "60607", "addr:state": "IL", "addr:street": "West Madison Street", "amenity": "restaurant", "cuisine": "american", "name": "MAD Social", "opening_hours": "Mo-Th 17:00-22:00; Fr 17:00-23:00; Sa 10:00-23:00; Su 10:00-16:00", "phone": "+1-312-243-2097", "website": "https://www.madsocialchicago.com/"}}, {"type": "node", "id": 5460629402, "lat": 41.8815052, "lon": -87.6555558, "tags": {"addr:city": "Chicago", "addr:housenumber": "1131", "addr:postcode": "60607", "addr:state": "IL", "addr:street": "West Madison Street", "amenity": "restaurant", "cuisine": "sushi;asian", "name": "Butterfly Sushi", "opening_hours": "Mo-Th 11:00-22:00; Fr 11:00-23:00; Sa 12:00-23:00; Su 12:00-22:00", "phone": "+1-312-997-9988", "website": "http://www.butterflysushi2go.com/"}}, {"type": "node", "id": 5460630690, "lat": 41.8818127, "lon": -87.655309, "tags": {"addr:city": "Chicago", "addr:housenumber": "1120", "addr:postcode": "60607", "addr:state": "IL", "addr:street": "West Madison Street", "amenity": "restaurant", "cuisine": "southern;american", "name": "The CrossRoads Bar & Grill", "opening_hours": "Su-Fr 11:00-02:00; Sa 11:00-03:00", "phone": "+1-312-243-1113", "website": "http://www.thecrossroadschicago.com/"}}, {"type": "node", "id": 5460635441, "lat": 41.8815012, "lon": -87.6556577, "tags": {"addr:city": "Chicago", "addr:housenumber": "1133", "addr:postcode": "60607", "addr:state": "IL", "addr:street": "West Madison Street", "addr:unit": "1", "amenity": "bar", "name": "Third Rail Tavern", "opening_hours": "Mo-Fr 11:00-02:00; Sa 10:30-03:00; Su 10:30-00:00", "phone": "+1-312-432-9107"}}, {"type": "node", "id": 5460640424, "lat": 41.8814314, "lon": -87.6533058, "tags": {"addr:city": "Chicago", "addr:housenumber": "1027", "addr:postcode": "60607", "addr:state": "IL", "addr:street": "West Madison Street", "amenity": "restaurant", "cuisine": "american", "name": "The Madison Bar & Kitchen", "opening_hours": "Mo-Th 17:00-22:30; Fr 17:00-00:00; Sa-Su 10:30-14:30; Sa 17:00-00:00; Su 17:00-21:30", "phone": "+1-312-566-4121", "website": "http://www.eatatmadison.com/"}}, {"type": "node", "id": 5460645975, "lat": 41.8841706, "lon": -87.6482249, "tags": {"addr:city": "Chicago", "addr:housenumber": "823", "addr:postcode": "60607", "addr:state": "IL", "addr:street": "West Randolph Street", "amenity": "bar", "name": "Booze Box", "opening_hours": "Tu-Th 18:00-00:00; Fr-Sa 18:00-02:00", "phone": "+1-312-455-8238", "website": "http://sushidokku.com/booze-box/"}}, {"type": "node", "id": 5460648618, "lat": 41.8866344, "lon": -87.6482299, "tags": {"addr:city": "Chicago", "addr:housenumber": "817", "addr:postcode": "60607", "addr:state": "IL", "addr:street": "West Fulton Market", "amenity": "restaurant", "cuisine": "mexican;sandwich", "name": "Cemitas Puebla", "opening_hours": "Su-Th 11:00-21:00; Fr-Sa 11:00-22:30", "phone": "+1-312-455-9200", "website": "http://www.cemitaspuebla.com/"}}, {"type": "node", "id": 5460651116, "lat": 41.8814441, "lon": -87.6511383, "tags": {"addr:city": "Chicago", "addr:housenumber": "939", "addr:postcode": "60607", "addr:state": "IL", "addr:street": "West Madison Street", "amenity": "restaurant", "cuisine": "italian;tapas", "name": "Ciao! Cafe & Wine Lounge", "opening_hours": "Mo-Th 16:00-21:00; Fr 16:00-01:00; Sa 17:00-01:00", "phone": "+1-312-850-2426", "website": "https://cafeciaochicagowinebar.weebly.com/"}}, {"type": "node", "id": 5460651233, "lat": 41.8843074, "lon": -87.6405879, "tags": {"addr:city": "Chicago", "addr:housenumber": "131", "addr:postcode": "60661", "addr:state": "IL", "addr:street": "North Clinton Street", "addr:unit": "7", "amenity": "restaurant", "diet:vegan": "only", "name": "Chicago Raw", "opening_hours": "Mo-Fr 07:00-19:30; Sa 08:30-17:30", "phone": "+1-312-831-2729", "website": "https://www.chicagorawfood.com/"}}, {"type": "node", "id": 5460651408, "lat": 41.8839579, "lon": -87.6408669, "tags": {"addr:city": "Chicago", "addr:housenumber": "131", "addr:postcode": "60661", "addr:state": "IL", "addr:street": "North Clinton Street", "amenity": "restaurant", "cuisine": "mexican", "name": "Buen Apetito", "opening_hours": "Mo-Fr 09:00-18:30; Sa 10:00-16:00", "phone": "+1-312-234-9600"}}, {"type": "node", "id": 5460653562, "lat": 41.8839519, "lon": -87.6410117, "tags": {"addr:city": "Chicago", "addr:housenumber": "131", "addr:postcode": "60661", "addr:state": "IL", "addr:street": "North Clinton Street", "amenity": "cafe", "cuisine": "donut;coffee_shop;coffee", "name": "Beavers Donuts", "opening_hours": "Mo-Fr 07:00-18:00; Sa 09:00-16:00", "phone": "+1-773-392-1300", "website": "http://www.beaversdonuts.com/"}}, {"type": "node", "id": 5460661639, "lat": 41.8909236, "lon": -87.6474629, "tags": {"addr:city": "Chicago", "addr:housenumber": "494", "addr:postcode": "60654", "addr:state": "IL", "addr:street": "North Milwaukee Avenue", "amenity": "restaurant", "cuisine": "american;burger", "name": "Maillard Tavern", "opening_hours": "Su-Th 11:00-23:00; Fr-Sa 11:00-01:00", "phone": "+1-312-766-2727", "website": "https://www.maillardtavern.com/"}}, {"type": "node", "id": 5460663376, "lat": 41.8866569, "lon": -87.6491936, "tags": {"addr:city": "Chicago", "addr:housenumber": "839", "addr:postcode": "60607", "addr:state": "IL", "addr:street": "West Fulton Market", "amenity": "bar", "name": "Emporium Arcade Bar", "opening_hours": "Mo-Th 16:00-02:00; Fr 15:00-02:00; Sa 12:00-03:00; Su 12:00-02:00", "phone": "+1-312-733-2222", "website": "http://www.emporiumchicago.com/"}}, {"type": "node", "id": 5460666621, "lat": 41.8872669, "lon": -87.6490322, "tags": {"addr:city": "Chicago", "addr:housenumber": "310", "addr:postcode": "60607", "addr:state": "IL", "addr:street": "North Green Street", "amenity": "restaurant", "name": "Punch Bowl Social Chicago", "phone": "+1-312-809-9551", "website": "https://www.punchbowlsocial.com/"}}, {"type": "node", "id": 5460668869, "lat": 41.883885, "lon": -87.6409047, "tags": {"addr:city": "Chicago", "addr:housenumber": "131", "addr:postcode": "60661", "addr:state": "IL", "addr:street": "North Clinton Street", "addr:unit": "12", "amenity": "restaurant", "cuisine": "breakfast;french", "name": "FliP Crepes", "opening_hours": "Mo-We 07:00-19:00; Th 10:00-18:30; Fr 07:00-19:00; Sa 09:00-16:00", "phone": "+1-888-808-3547", "website": "https://flipcrepes.com/"}}, {"type": "node", "id": 5460671489, "lat": 41.8863297, "lon": -87.6401044, "tags": {"addr:city": "Chicago", "addr:housenumber": "233", "addr:postcode": "60606", "addr:state": "IL", "addr:street": "North Canal Street", "amenity": "restaurant", "cuisine": "italian", "name": "Gibsons Italia", "opening_hours": "Mo-Sa 11:00-00:00", "phone": "+1-312-414-1100", "website": "https://gibsonsitalia.com/"}}, {"type": "node", "id": 5460679519, "lat": 41.8840763, "lon": -87.6499969, "tags": {"addr:city": "Chicago", "addr:housenumber": "901", "addr:postcode": "60607", "addr:state": "IL", "addr:street": "West Randolph Street", "amenity": "restaurant", "cuisine": "italian;sandwich", "name": "J.P. Graziano Grocery", "opening_hours": "Mo-Fr 09:00-17:00; Sa 09:00-16:00", "phone": "+1-312-666-4587", "website": "http://www.jpgraziano.com/"}}, {"type": "node", "id": 5460683108, "lat": 41.8875631, "lon": -87.6426214, "tags": {"addr:city": "Chicago", "addr:housenumber": "325", "addr:postcode": "60661", "addr:state": "IL", "addr:street": "North Jefferson Street", "amenity": "restaurant", "cuisine": "pub;american", "name": "Jefferson Tap & Grille", "opening_hours": "Su-We 11:00-02:00; Th-Fr 11:00-04:00; Sa 11:00-05:00", "phone": "+1-312-648-0100", "website": "https://www.jeffersontap.com/"}}, {"type": "node", "id": 5460683559, "lat": 41.8844648, "lon": -87.6407581, "tags": {"addr:city": "Chicago", "addr:housenumber": "135", "addr:postcode": "60661", "addr:state": "IL", "addr:street": "North Clinton Street", "amenity": "cafe", "brand": "Le Pain Quotidien", "brand:wikidata": "Q2046903", "brand:wikipedia": "en:Le Pain Quotidien", "cuisine": "coffee_shop", "name": "Le Pain Quotidien", "opening_hours": "Mo-Fr 07:00-18:00; Sa 08:00-17:00", "phone": "+1-312-234-0900", "takeaway": "yes", "website": "https://www1.lepainquotidien.com/us/en/locations/601/135-n-clinton-st"}}, {"type": "node", "id": 5460688022, "lat": 41.8846734, "lon": -87.6472823, "tags": {"addr:city": "Chicago", "addr:housenumber": "740", "addr:postcode": "60661", "addr:state": "IL", "addr:street": "West Randolph Street", "amenity": "restaurant", "cuisine": "mexican", "name": "La Josie", "opening_hours": "Mo-Th 11:00-01:00; Fr-Sa 11:00-02:00; Su 11:00-00:00", "phone": "+1-312-929-2900", "website": "https://www.lajosie.com/"}}, {"type": "node", "id": 5460701279, "lat": 41.8846236, "lon": -87.6489767, "tags": {"addr:city": "Chicago", "addr:housenumber": "838", "addr:postcode": "60607", "addr:state": "IL", "addr:street": "West Randolph Street", "amenity": "restaurant", "cuisine": "american", "name": "Nosh & Booze", "opening_hours": "Tu-Th 16:00-23:00; Fr 12:00-23:00; Sa 10:00-23:00; Su 10:00-17:00", "phone": "+1-312-733-6090", "website": "http://www.noshingaround.com/"}}, {"type": "node", "id": 5460707118, "lat": 41.8842786, "lon": -87.6424715, "tags": {"addr:city": "Chicago", "addr:housenumber": "565", "addr:postcode": "60661", "addr:state": "IL", "addr:street": "West Randolph Street", "amenity": "restaurant", "cuisine": "tapas;small_plates", "name": "Proxi", "opening_hours": "Mo-Th 16:00-01:00; Fr-Sa 15:00-02:00", "phone": "+1-312-466-1950", "website": "https://www.proxichicago.com/"}}, {"type": "node", "id": 5460708812, "lat": 41.8908598, "lon": -87.647944, "tags": {"addr:city": "Chicago", "addr:housenumber": "464", "addr:postcode": "60642", "addr:state": "IL", "addr:street": "North Halsted Street", "amenity": "restaurant", "cuisine": "italian", "name": "Piccolo Sogno", "opening_hours": "Mo-Th 11:30-14:30, 17:30-22:30; Fr 11:30-14:30, 17:00-23:00; Sa 17:00-23:00; Su 17:00-22:00", "phone": "+1-312-421-0077", "website": "https://www.piccolosognorestaurant.com/"}}, {"type": "node", "id": 5460714621, "lat": 41.887566, "lon": -87.6524066, "tags": {"addr:city": "Chicago", "addr:housenumber": "326", "addr:postcode": "60607", "addr:state": "IL", "addr:street": "North Morgan Street", "amenity": "bar", "name": "Prairie School", "opening_hours": "Su-We 16:00-02:00; Th 17:00-02:00; Fr-Sa 16:00-02:00", "phone": "+1-312-763-6564", "website": "https://www.prairieschoolchicago.com/"}}, {"type": "node", "id": 5460717972, "lat": 41.8824351, "lon": -87.6416895, "tags": {"addr:city": "Chicago", "addr:housenumber": "22", "addr:postcode": "60661", "addr:state": "IL", "addr:street": "North Clinton Street", "amenity": "restaurant", "cuisine": "pub;sandwich;american", "name": "Slightly Toasted", "phone": "+1-312-967-2830", "website": "https://slightlytoasted.com/"}}, {"type": "node", "id": 5460738295, "lat": 41.8832439, "lon": -87.6559345, "tags": {"addr:city": "Chicago, IL", "addr:housenumber": "1134", "addr:postcode": "60607", "addr:street": "West Washington Boulevard", "amenity": "restaurant", "name": "The Press Room", "opening_hours": "Mo 17:00-23:00; Tu-Sa 17:00-01:00", "phone": "+1-331-240-1914", "website": "https://www.pressroomchicago.com/"}}, {"type": "node", "id": 5460758421, "lat": 41.8912522, "lon": -87.6559754, "tags": {"addr:city": "Chicago", "addr:housenumber": "1132", "addr:postcode": "60642", "addr:state": "IL", "addr:street": "West Grand Avenue", "amenity": "restaurant", "cuisine": "american", "name": "TWO Restaurant", "opening_hours": "Tu-Th 17:00-22:00; Fr-Sa 17:00-23:00; Su 17:00-21:00", "phone": "+1-312-624-8363", "website": "http://113two.com/"}}, {"type": "node", "id": 5460760592, "lat": 41.8807756, "lon": -87.6406322, "tags": {"addr:city": "Chicago", "addr:housenumber": "500", "addr:postcode": "60661", "addr:state": "IL", "addr:street": "West Monroe Street", "amenity": "restaurant", "cuisine": "american", "name": "Venice Cafe", "opening_hours": "Mo-Fr 07:00-15:00", "phone": "+1-312-258-0925", "website": "http://www.venicecafechicago.com/"}}, {"type": "node", "id": 5460763042, "lat": 41.8875396, "lon": -87.6518407, "tags": {"addr:city": "Chicago", "addr:housenumber": "311", "addr:postcode": "60607", "addr:state": "IL", "addr:street": "North Morgan Street", "amenity": "restaurant", "cuisine": "american", "name": "Waydown", "opening_hours": "Su-Fr 16:00-02:00; Sa 16:00-03:00", "outdoor_seating": "no", "phone": "+1-312-764-1919", "website": "https://www.acehotel.com/"}}, {"type": "node", "id": 5460766489, "lat": 41.8876567, "lon": -87.6520507, "tags": {"addr:city": "Chicago", "addr:housenumber": "311", "addr:postcode": "60607", "addr:state": "IL", "addr:street": "North Morgan Street", "amenity": "cafe", "cuisine": "coffee_shop;coffee", "name": "Stumptown Coffee Roasters", "opening_hours": "Mo-Su 06:20-19:00", "phone": "+1-855-711-3385", "website": "http://www.stumptowncoffee.com/"}}, {"type": "node", "id": 5460770694, "lat": 41.8823378, "lon": -87.6403109, "tags": {"addr:city": "Chicago", "addr:housenumber": "500", "addr:postcode": "60661", "addr:state": "IL", "addr:street": "West Madison Street", "amenity": "restaurant", "cuisine": "brunch;breakfast;american;lunch", "name": "Yolk - West Loop", "opening_hours": "Mo-Fr 06:00-15:00; Sa-Su 07:00-15:00", "phone": "+1-312-454-9655", "website": "https://www.eatyolk.com/"}}, {"type": "node", "id": 5460836745, "lat": 41.8850614, "lon": -87.654223, "tags": {"addr:city": "Chicago", "addr:housenumber": "171", "addr:postcode": "60607", "addr:state": "IL", "addr:street": "North Aberdeen Street", "amenity": "restaurant", "cuisine": "american;sandwich", "name": "Capriotti's Sandwich Shop", "opening_hours": "Mo-Th 09:00-20:30; Fr 09:00-22:00; Sa 11:00-22:00; Su 11:00-20:30", "phone": "+1-312-988-0670", "website": "https://www.capriottis.com/"}}, {"type": "node", "id": 5624362332, "lat": 41.8809933, "lon": -87.6413793, "tags": {"amenity": "restaurant", "brand": "Freshii", "brand:wikidata": "Q5503051", "brand:wikipedia": "en:Freshii", "cuisine": "salad", "name": "Freshii", "opening_hours": "Mo-Fr 07:00-21:00"}}, {"type": "node", "id": 5625466899, "lat": 41.8830032, "lon": -87.6415303, "tags": {"amenity": "cafe", "brand": "Starbucks", "brand:wikidata": "Q37158", "brand:wikipedia": "en:Starbucks", "cuisine": "coffee_shop", "name": "Starbucks", "official_name": "Starbucks Coffee", "takeaway": "yes"}}, {"type": "node", "id": 5661489621, "lat": 41.8818953, "lon": -87.6547408, "tags": {"addr:housenumber": "1104", "addr:street": "West Madison Street", "amenity": "restaurant", "name": "Chicago Waffles"}}, {"type": "node", "id": 5794916615, "lat": 41.8854564, "lon": -87.6383532, "tags": {"addr:city": "Chicago", "addr:housenumber": "150", "addr:postcode": "60606", "addr:state": "IL", "addr:street": "North Riverside Plaza", "amenity": "restaurant", "name": "Small Cheval", "website": "http://smallcheval.com/"}}, {"type": "node", "id": 5794916616, "lat": 41.8850924, "lon": -87.6382935, "tags": {"addr:city": "Chicago", "addr:housenumber": "150", "addr:postcode": "60606", "addr:state": "IL", "addr:street": "North Riverside Plaza", "amenity": "bar", "name": "Porter Kitchen & Deck", "phone": "+1-312-781-7580", "website": "https://porterchicago.com/"}}, {"type": "node", "id": 5794916617, "lat": 41.8854389, "lon": -87.6372981, "tags": {"addr:city": "Chicago", "addr:housenumber": "180", "addr:postcode": "60606", "addr:state": "IL", "addr:street": "North Upper Wacker Drive", "amenity": "restaurant", "name": "Beatnik On The River", "opening_hours": "Mo-Fr 11:00-22:00", "phone": "+1-312-526-3345", "website": "https://www.beatnikontheriver.com"}}, {"type": "node", "id": 5794916618, "lat": 41.8854228, "lon": -87.6371723, "tags": {"addr:city": "Chicago", "addr:housenumber": "180", "addr:postcode": "60606", "addr:state": "IL", "addr:street": "North Upper Wacker Drive", "amenity": "cafe", "name": "Cafe Bonhomme", "opening_hours": "Mo-Fr 07:00-22:00"}}, {"type": "node", "id": 5855320076, "lat": 41.8830373, "lon": -87.6444375, "tags": {"addr:housenumber": "651  #101", "addr:street": "West Washington Boulevard", "amenity": "restaurant", "description": "17 course tasting menu", "name": "Omakase Yume", "phone": "312 265 1610", "website": "https://www.omakaseyume.com/"}}, {"type": "node", "id": 6025987986, "lat": 41.8861336, "lon": -87.6484577, "tags": {"addr:city": "Chicago", "addr:housenumber": "217", "addr:postcode": "60607", "addr:state": "IL", "addr:street": "North Green Street", "amenity": "cafe", "name": "Limitless Coffee - Fulton Market", "phone": "+1-312-929-4643", "website": "https://limitlesscoffee.com/find-us/"}}, {"type": "node", "id": 6026364085, "lat": 41.8861214, "lon": -87.6488411, "tags": {"addr:city": "Chicago", "addr:housenumber": "212", "addr:postcode": "60607", "addr:state": "IL", "addr:street": "North Green Street", "amenity": "bar", "name": "Ballast Point Brewing", "phone": "+1-312-243-9570", "website": "https://www.ballastpoint.com/locations/"}}, {"type": "node", "id": 6026364086, "lat": 41.8861711, "lon": -87.6484558, "tags": {"addr:city": "Chicago", "addr:housenumber": "219", "addr:postcode": "60607", "addr:state": "IL", "addr:street": "North Green Street", "amenity": "restaurant", "cuisine": "japanese", "name": "Ramen-San", "phone": "+1-773-645-0085", "website": "https://www.ramensan.com/"}}, {"type": "node", "id": 6146160785, "lat": 41.8893525, "lon": -87.6445067, "tags": {"addr:city": "Chicago", "addr:housenumber": "401", "addr:postcode": "60654", "addr:state": "IL", "addr:street": "North Milwaukee Avenue", "amenity": "restaurant", "cuisine": "korean", "name": "San Soo Korean BBQ"}}, {"type": "node", "id": 6146181554, "lat": 41.8903215, "lon": -87.6459897, "tags": {"addr:city": "Chicago", "addr:housenumber": "455", "addr:postcode": "60610", "addr:state": "IL", "addr:street": "North Milwaukee Avenue", "amenity": "restaurant", "cuisine": "fried_chicken", "name": "The Roost Carolina Kitchen", "phone": "+1-312-877-5738", "website": "https://www.theroostcarolinakitchen.com/"}}, {"type": "node", "id": 6159637958, "lat": 41.8860808, "lon": -87.6396188, "tags": {"addr:city": "Chicago", "addr:housenumber": "444", "addr:postcode": "60606", "addr:state": "IL", "addr:street": "West Lake Street", "amenity": "restaurant", "name": "Market Creations", "website": "http://marketcreationscafe.com"}}, {"type": "node", "id": 6221680435, "lat": 41.8846118, "lon": -87.6424952, "tags": {"addr:city": "Chicago", "addr:housenumber": "564", "addr:postcode": "60661", "addr:state": "IL", "addr:street": "West Randolph Street", "amenity": "restaurant", "cuisine": "american", "name": "Bellemore", "opening_hours": "Mo-Fr 11:00-14:00; Mo-Th 17:00-22:00; Fr-Sa 16:30-23:00; Su 16:00-21:00", "phone": "+1-312-667-0104", "website": "https://www.bellemorechicago.com/"}}, {"type": "node", "id": 6239083276, "lat": 41.879611, "lon": -87.6474546, "tags": {"addr:city": "Chicago", "addr:housenumber": "128", "addr:postcode": "60661", "addr:state": "IL", "addr:street": "South Halsted Street", "amenity": "bar", "brewery": "yes", "name": "Dugan's", "outdoor_seating": "no", "phone": "+1-312-421-7191", "website": "http://www.dugansonhalsted.com/"}}, {"type": "node", "id": 6239083277, "lat": 41.880072, "lon": -87.6474916, "tags": {"addr:city": "Chicago", "addr:housenumber": "116", "addr:postcode": "60661", "addr:state": "IL", "addr:street": "South Halsted Street", "amenity": "cafe", "brand": "Starbucks", "brand:wikidata": "Q37158", "brand:wikipedia": "en:Starbucks", "cuisine": "coffee_shop", "name": "Starbucks", "official_name": "Starbucks Coffee", "takeaway": "yes"}}, {"type": "node", "id": 6239093317, "lat": 41.8815422, "lon": -87.6522577, "tags": {"amenity": "cafe", "brand": "Starbucks", "brand:wikidata": "Q37158", "brand:wikipedia": "en:Starbucks", "cuisine": "coffee_shop", "name": "Starbucks", "official_name": "Starbucks Coffee", "takeaway": "yes"}}, {"type": "node", "id": 6256520187, "lat": 41.8869088, "lon": -87.6488326, "tags": {"addr:city": "Chicago", "addr:housenumber": "302", "addr:postcode": "60607", "addr:state": "IL", "addr:street": "North Green Street", "addr:unit": "FL 3", "amenity": "restaurant", "cuisine": "american", "name": "Aba", "phone": "+1-773-645-1400", "website": "http://abarestaurantchicago.com"}}, {"type": "node", "id": 6267343176, "lat": 41.8809067, "lon": -87.6413728, "tags": {"addr:city": "Chicago", "addr:housenumber": "28", "addr:postcode": "60661", "addr:state": "IL", "addr:street": "South Clinton Street", "amenity": "restaurant", "name": "Blackwood BBQ", "phone": "+1-312-631-3431", "website": "https://www.blackwoodbbq.com/"}}, {"type": "node", "id": 6267363323, "lat": 41.8869576, "lon": -87.6518004, "tags": {"addr:city": "Chicago", "addr:housenumber": "948", "addr:postcode": "60607", "addr:state": "IL", "addr:street": "West Fulton Market", "amenity": "bar", "name": "Blind Barber", "outdoor_seating": "yes", "phone": "+1-312-405-9929", "website": "https://blindbarber.com/"}}, {"type": "node", "id": 6269041647, "lat": 41.8823506, "lon": -87.6404069, "tags": {"addr:city": "Chicago", "addr:housenumber": "500", "addr:postcode": "60661", "addr:state": "IL", "addr:street": "West Madison Street", "amenity": "restaurant", "name": "Boxcar Betty\u2019s", "website": "http://www.boxcarbetty.com/"}}, {"type": "node", "id": 6269384932, "lat": 41.8909218, "lon": -87.6561974, "tags": {"addr:city": "Chicago", "addr:housenumber": "1139", "addr:postcode": "60642", "addr:state": "IL", "addr:street": "West Grand Avenue", "amenity": "restaurant", "name": "Butterfly Sushi Bar & Thai Cuisine", "phone": "+1-312- 563-5555", "website": "http://www.butterflysushi2go.com/"}}, {"type": "node", "id": 6280526718, "lat": 41.8871143, "lon": -87.6460757, "tags": {"addr:city": "Chicago", "addr:housenumber": "702", "addr:postcode": "60661", "addr:state": "IL", "addr:street": "West Fulton Market", "amenity": "restaurant", "name": "Carnivale", "phone": "+1-312-850-5005", "website": "https://www.carnivalechicago.com/"}}, {"type": "node", "id": 6281910607, "lat": 41.8929378, "lon": -87.6416278, "tags": {"addr:city": "Chicago", "addr:housenumber": "600", "addr:postcode": "60610", "addr:state": "IL", "addr:street": "North Kingsbury Street", "amenity": "cafe", "name": "Caribou Coffee Store", "outdoor_seating": "yes", "phone": "+1-312-335-0576"}}, {"type": "node", "id": 6282833425, "lat": 41.8882719, "lon": -87.6377875, "tags": {"addr:city": "Chicago", "addr:housenumber": "350", "addr:postcode": "60654", "addr:state": "IL", "addr:street": "West Wolf Point Plaza", "addr:unit": "15", "amenity": "bar", "name": "Cityscape Bar", "phone": "+1-312-836-5000", "website": "https://www.martplaza.com/food-drink/cityscape-bar.aspx"}}, {"type": "node", "id": 6282897113, "lat": 41.8913482, "lon": -87.6468352, "tags": {"addr:city": "Chicago", "addr:housenumber": "722", "addr:postcode": "60654", "addr:state": "IL", "addr:street": "West Grand Avenue", "amenity": "bar", "name": "Clover", "phone": "+1-312-344-1934", "website": "http://cloverchicago.com/"}}, {"type": "node", "id": 6284753435, "lat": 41.8836131, "lon": -87.6393581, "tags": {"addr:city": "Chicago", "addr:housenumber": "111", "addr:postcode": "60606", "addr:state": "IL", "addr:street": "North Canal Street", "amenity": "cafe", "cuisine": "doughnut;doughnuts;american", "name": "Doughnut Vault - Canal St.", "phone": "+1-312-285-2830", "website": "http://doughnutvault.com/"}}, {"type": "node", "id": 6286444981, "lat": 41.8852921, "lon": -87.6550709, "tags": {"addr:city": "Chicago", "addr:housenumber": "1111", "addr:postcode": "60607", "addr:state": "IL", "addr:street": "West Lake Street", "amenity": "restaurant", "name": "Eleven Eleven", "phone": "+1-312-248-8942", "website": "https://elevenelevenchicago.com/"}}, {"type": "node", "id": 6291580398, "lat": 41.8841694, "lon": -87.6410082, "tags": {"addr:city": "Chicago", "addr:housenumber": "131", "addr:postcode": "60606", "addr:state": "IL", "addr:street": "North Clinton Street", "amenity": "restaurant", "name": "Frietkoten Belgian Fries & Beer", "phone": "+1-312-575-0306", "website": "https://frenchmarketchicago.com/vendor/frietkoten-belgian-fries-beer/"}}, {"type": "node", "id": 6291640639, "lat": 41.8859157, "lon": -87.6496107, "tags": {"addr:city": "Chicago", "addr:housenumber": "205", "addr:postcode": "60607", "addr:state": "IL", "addr:street": "North Peoria Street", "amenity": "restaurant", "name": "Fulton Market Company", "phone": "+1-312-989-9801", "website": "http://fultonmarketcompany.com/"}}, {"type": "node", "id": 6297633445, "lat": 41.8836975, "lon": -87.6487834, "tags": {"addr:city": "Chicago", "addr:housenumber": "112", "addr:postcode": "60607", "addr:state": "IL", "addr:street": "North Green Street", "amenity": "cafe", "name": "Sawada Coffee", "phone": "+1-312-754-0431", "website": "http://sawadacoffee.com/"}}, {"type": "node", "id": 6297808319, "lat": 41.8918097, "lon": -87.6474344, "tags": {"addr:city": "Chicago", "addr:housenumber": "517", "addr:postcode": "60642", "addr:state": "IL", "addr:street": "North Halsted Street", "amenity": "cafe", "name": "Iguana Caf\u00e9", "phone": "+1-312432-0663", "website": "http://www.iguanacafe.com/"}}, {"type": "node", "id": 6298375107, "lat": 41.8895868, "lon": -87.6507598, "tags": {"addr:city": "Chicago", "addr:housenumber": "415", "addr:postcode": "60642", "addr:state": "IL", "addr:street": "North Sangamon Street", "amenity": "bar", "name": "Illuminated Brew Works", "website": "http://www.ibw-chicago.com/"}}, {"type": "node", "id": 6298396229, "lat": 41.8888338, "lon": -87.6373879, "tags": {"addr:city": "Chicago", "addr:housenumber": "350", "addr:postcode": "60654", "addr:state": "IL", "addr:street": "North Orleans Street", "amenity": "cafe", "name": "Infuse Coffee and Tea Bar", "phone": "+1-414-467-9866"}}, {"type": "node", "id": 6299500544, "lat": 41.8928813, "lon": -87.6414942, "tags": {"addr:city": "Chicago", "addr:housenumber": "600", "addr:postcode": "60654", "addr:state": "IL", "addr:street": "North Kingsbury Street", "amenity": "cafe", "brand": "Peet's Coffee", "brand:wikidata": "Q1094101", "brand:wikipedia": "en:Peet's Coffee", "cuisine": "coffee_shop", "name": "Peet's Coffee", "phone": "+1-312-489-5061", "takeaway": "yes", "website": "https://www.peets.com/"}}, {"type": "node", "id": 6300513971, "lat": 41.884604, "lon": -87.6523421, "tags": {"addr:city": "Chicago", "addr:housenumber": "1000", "addr:postcode": "60607", "addr:state": "IL", "addr:street": "West Randolph Street", "amenity": "cafe", "name": "Princi", "phone": "+1-312-243-9097", "website": "http://www.princi.com/"}}, {"type": "node", "id": 6300567230, "lat": 41.8823695, "lon": -87.6403648, "tags": {"addr:city": "Chicago", "addr:housenumber": "500", "addr:postcode": "60661", "addr:state": "IL", "addr:street": "West Madison Street", "amenity": "bar", "name": "Rail Club", "phone": "+1-312-906-3909"}}, {"type": "node", "id": 6301024848, "lat": 41.8808104, "lon": -87.6376882, "tags": {"addr:city": "Chicago", "addr:housenumber": "30", "addr:postcode": "60606", "addr:state": "IL", "addr:street": "South Upper Wacker Drive", "amenity": "restaurant", "name": "Rivers", "phone": "+1-312-559-1515", "website": "http://www.riversrestaurant.com/"}}, {"type": "node", "id": 6303791058, "lat": 41.8863931, "lon": -87.6401579, "tags": {"addr:city": "Chicago", "addr:housenumber": "222", "addr:postcode": "60606", "addr:state": "IL", "addr:street": "North Canal Street", "amenity": "restaurant", "name": "Taste222", "phone": "+1-312-383-6620", "website": "https://www.taste222chicago.com/"}}, {"type": "node", "id": 6306592684, "lat": 41.8857581, "lon": -87.6527639, "tags": {"addr:city": "Chicago", "addr:housenumber": "1016", "addr:postcode": "60607", "addr:state": "IL", "addr:street": "West Lake Street", "amenity": "restaurant", "name": "The Corned Beef Factory Sandwich Shop", "phone": "+1-312-666-2536", "website": "http://cornedbeeffactorychicago.com/"}}, {"type": "node", "id": 6315187492, "lat": 41.8841859, "lon": -87.6501448, "tags": {"addr:city": "Chicago", "addr:housenumber": "905", "addr:postcode": "60607", "addr:state": "IL", "addr:street": "West Randolph Street", "amenity": "bar", "name": "The Darling", "phone": "+1-312-285-2609", "website": "https://thedarlingchi.com/"}}, {"type": "node", "id": 6315188078, "lat": 41.8913788, "lon": -87.647221, "tags": {"addr:city": "Chicago", "addr:housenumber": "730", "addr:postcode": "60654", "addr:state": "IL", "addr:street": "West Grand Avenue", "amenity": "restaurant", "name": "The Dawson", "phone": "+1-312-243-8955", "website": "https://the-dawson.com/"}}, {"type": "node", "id": 6315213374, "lat": 41.8795763, "lon": -87.6374507, "tags": {"addr:city": "Chicago", "addr:housenumber": "150", "addr:postcode": "60606", "addr:state": "IL", "addr:street": "South Lower Wacker Drive", "amenity": "restaurant", "name": "The Fat Shallot Food Truck", "phone": "+1-773-893-0826", "website": "http://thefatshallot.com/"}}, {"type": "node", "id": 6315227259, "lat": 41.8842364, "lon": -87.6410135, "tags": {"addr:city": "Chicago", "addr:housenumber": "131", "addr:postcode": "60661", "addr:state": "IL", "addr:street": "North Clinton Street", "amenity": "restaurant", "name": "The French Lunchbox", "phone": "+1-812-345-2237", "website": "https://www.thefrenchlunchboxchicago.com/"}}, {"type": "node", "id": 6315679717, "lat": 41.8865111, "lon": -87.6518726, "tags": {"addr:city": "Chicago", "addr:housenumber": "955", "addr:postcode": "60607", "addr:state": "IL", "addr:street": "West Fulton Market", "amenity": "restaurant", "name": "The Office", "phone": "+1-312-226-0868", "website": "https://www.exploretock.com/theoffice/"}}, {"type": "node", "id": 6315729355, "lat": 41.8862099, "lon": -87.641136, "tags": {"addr:city": "Chicago", "addr:housenumber": "215", "addr:postcode": "60661", "addr:state": "IL", "addr:street": "North Clinton Street", "amenity": "bar", "name": "The Railcar Club", "phone": "+1-312-207-5490", "website": "http://www.therailcarclub.com/"}}, {"type": "node", "id": 6316598035, "lat": 41.8843022, "lon": -87.640161, "tags": {"addr:housenumber": "130", "addr:postcode": "60661", "addr:state": "IL", "addr:street": "North Canal Street", "amenity": "bar", "name": "Vinny\u2019s Pizza Bar", "outdoor_seating": "yes", "phone": "+1-312-902-1544", "website": "vinnysbar.com"}}, {"type": "node", "id": 6316955696, "lat": 41.8851233, "lon": -87.6423413, "tags": {"addr:city": "Chicago", "addr:housenumber": "161", "addr:postcode": "60661", "addr:state": "IL", "addr:street": "North Jefferson Street", "amenity": "restaurant", "name": "Wishbone", "phone": "+1-312-850-2663", "website": "https://www.wishbonechicago.com/"}}, {"type": "node", "id": 6317090571, "lat": 41.8848604, "lon": -87.6449938, "tags": {"addr:city": "Chicago", "addr:housenumber": "652", "addr:postcode": "60661", "addr:state": "IL", "addr:street": "West Couch Place", "amenity": "restaurant", "name": "Yugen", "website": "http://yugenchicago.com/"}}, {"type": "node", "id": 6318866498, "lat": 41.8841677, "lon": -87.6410423, "tags": {"addr:city": "Chicago", "addr:housenumber": "131", "addr:postcode": "60661", "addr:state": "IL", "addr:street": "North Clinton Street", "addr:unit": "St #5", "amenity": "restaurant", "name": "JIAN", "phone": "+1-312-973-8780"}}, {"type": "node", "id": 6321321039, "lat": 41.8813726, "lon": -87.653808, "tags": {"addr:city": "Chicago", "addr:housenumber": "1045", "addr:postcode": "60607", "addr:state": "IL", "addr:street": "West Madison Street", "amenity": "restaurant", "name": "Mad Boiler", "phone": "+1-312-600-9996", "website": "http://www.madboiler.com/"}}, {"type": "node", "id": 6321371838, "lat": 41.8823099, "lon": -87.6404179, "tags": {"addr:city": "Chicago", "addr:housenumber": "500", "addr:postcode": "60661", "addr:state": "IL", "addr:street": "West Madison Street", "amenity": "bar", "name": "Madison Tavern", "phone": "+1-312-559-5101", "website": "madisontavern.com"}}, {"type": "node", "id": 6321398186, "lat": 41.8909316, "lon": -87.6474389, "tags": {"addr:city": "Chicago", "addr:housenumber": "494", "addr:postcode": "60654", "addr:state": "IL", "addr:street": "North Milwaukee Avenue", "amenity": "bar", "name": "Maillard Tavern", "phone": "+1-312-766-2727", "website": "https://www.maillardtavern.com/"}}, {"type": "node", "id": 6321599274, "lat": 41.8846847, "lon": -87.6491444, "tags": {"addr:city": "Chicago", "addr:housenumber": "840", "addr:postcode": "60607", "addr:state": "IL", "addr:street": "West Randolph Street", "amenity": "restaurant", "name": "Maude\u2019s Liquor Bar", "phone": "+1-312-243-9712", "website": "http://www.maudesliquorbar.com/"}}, {"type": "node", "id": 6322784614, "lat": 41.8859058, "lon": -87.6484698, "tags": {"addr:city": "Chicago", "addr:housenumber": "820", "addr:postcode": "60607", "addr:state": "IL", "addr:street": "West Lake Street", "amenity": "restaurant", "name": "Momotaro", "phone": "+1-312-733-4818", "website": "https://www.momotarochicago.com/"}}, {"type": "node", "id": 6322833589, "lat": 41.8796473, "lon": -87.6516586, "tags": {"addr:city": "Chicago", "addr:housenumber": "111", "addr:postcode": "60607", "addr:state": "IL", "addr:street": "South Morgan Street", "amenity": "cafe", "name": "Morgan Street Cafe", "phone": "+1-312-850-0234", "website": "http://www.morganstreetcafe.com/"}}, {"type": "node", "id": 6323827056, "lat": 41.8913263, "lon": -87.6554785, "tags": {"addr:city": "Chicago", "addr:housenumber": "1118", "addr:postcode": "60642", "addr:state": "IL", "addr:street": "West Grand Avenue", "amenity": "restaurant", "name": "Oggi Trattoria", "phone": "+1-312-733-0442", "website": "http://www.oggitrattoria.org/"}}, {"type": "node", "id": 6324261230, "lat": 41.8859414, "lon": -87.6477162, "tags": {"addr:city": "Chicago", "addr:housenumber": "204", "addr:postcode": "60661", "addr:state": "IL", "addr:street": "North Halsted Street", "amenity": "bar", "name": "Paddy O\u2019Fegan\u2019s", "phone": "+1-312-997-3100", "website": "paddyofegans.com"}}, {"type": "node", "id": 6325915076, "lat": 41.8841594, "lon": -87.6410371, "tags": {"addr:city": "Chicago", "addr:housenumber": "131", "addr:postcode": "60606", "addr:state": "Il", "addr:street": "North Clinton Street", "amenity": "cafe", "name": "Vanille Patisserie", "phone": "+1-773-868-4574", "website": "http://www.vanillepatisserie.com/"}}, {"type": "node", "id": 6325945860, "lat": 41.8809568, "lon": -87.6480375, "tags": {"addr:city": "Chicago", "addr:housenumber": "40", "addr:postcode": "60607", "addr:state": "IL", "addr:street": "South Halsted Street", "amenity": "cafe", "name": "Vero Coffee & Gelato", "phone": "+1-312-243-7657", "website": "https://verocoffeeandgelato.com/"}}, {"type": "node", "id": 6326131418, "lat": 41.8826204, "lon": -87.6394162, "tags": {"addr:city": "Chicago", "addr:housenumber": "2", "addr:postcode": "60606", "addr:state": "IL", "addr:street": "North Riverside Plaza", "amenity": "cafe", "name": "Nestle Toll House Cafe", "phone": "+1-312-655-9131", "website": "https://nestlecafe.com/"}}, {"type": "node", "id": 6326512896, "lat": 41.8842238, "lon": -87.641015, "tags": {"addr:city": "Chicago", "addr:housenumber": "131", "addr:postcode": "60661", "addr:state": "IL", "addr:street": "North Clinton Street", "amenity": "cafe", "name": "Le Cafe du Marche", "website": "https://frenchmarketchicago.com/vendor/le-cafe-du-marche/"}}, {"type": "node", "id": 6407178684, "lat": 41.8859191, "lon": -87.6488691, "tags": {"addr:city": "Chicago", "addr:housenumber": "200", "addr:postcode": "60607", "addr:state": "IL", "addr:street": "North Green Street", "amenity": "restaurant", "cuisine": "peruvian", "name": "Cabra", "opening_hours": "Su-Th 16:00-23:00; Fr-Sa 16:00-00:00", "phone": "+1-312-761-1717", "website": "https://www.cabrachicago.com"}}, {"type": "node", "id": 6407436054, "lat": 41.8858183, "lon": -87.6488637, "tags": {"addr:city": "Chicago", "addr:housenumber": "200", "addr:postcode": "60607", "addr:state": "IL", "addr:street": "North Green Street", "amenity": "restaurant", "cuisine": "breakfast;small_plates;tapas", "name": "Cira", "opening_hours": "Su-Th 07:00-23:00, Fr-Sa 07:00-00:00", "phone": "+1-312-761-1777", "website": "https://cirachicago.com/"}}, {"type": "node", "id": 6407444258, "lat": 41.8858782, "lon": -87.6488678, "tags": {"addr:city": "Chicago", "addr:housenumber": "200", "addr:postcode": "60607", "addr:state": "IL", "addr:street": "North Green Street", "amenity": "bar", "name": "Lazy Bird", "phone": "+1-312-761-1799", "website": "https://www.lazybirdchicago.com"}}, {"type": "node", "id": 6431343085, "lat": 41.8866245, "lon": -87.6497016, "tags": {"addr:city": "Chicago", "addr:housenumber": "857", "addr:postcode": "60607", "addr:state": "IL", "addr:street": "West Fulton Market", "amenity": "restaurant", "cuisine": "snackbar;snack;snacks;taiwanese", "name": "Baobing", "opening_hours": "Mo-Th 17:00-22:00; Fr 16:30-23:00; Sa 11:00-23:00; Su 11:00-22:00", "phone": "+1-312-902-3825", "website": "http://www.baobingchi.com"}}, {"type": "node", "id": 6459394817, "lat": 41.8858371, "lon": -87.6469637, "tags": {"addr:city": "Chicago", "addr:housenumber": "731", "addr:postcode": "60661", "addr:state": "IL", "addr:street": "West Lake Street", "amenity": "restaurant", "cuisine": "sushi;japanese;asian", "name": "Mako", "phone": "+1-312-988-0687", "website": "https://www.makochicago.com"}}, {"type": "node", "id": 6486884117, "lat": 41.8832492, "lon": -87.6541467, "tags": {"addr:city": "Chicago", "addr:housenumber": "111", "addr:postcode": "60607", "addr:state": "IL", "addr:street": "North Aberdeen Street", "amenity": "restaurant", "cuisine": "indian", "name": "Thattu"}}, {"type": "node", "id": 6587988135, "lat": 41.8857126, "lon": -87.6355185, "tags": {"railway": "switch"}}, {"type": "node", "id": 6651889124, "lat": 41.8826128, "lon": -87.6417147, "tags": {"addr:city": "Chicago", "addr:housenumber": "540", "addr:postcode": "60661", "addr:state": "IL", "addr:street": "West Madison Street", "amenity": "restaurant", "name": "The Chow Brothers", "phone": "+1-312-473-2469", "website": "https://www.thechowbrothers.com/"}}, {"type": "node", "id": 6757767546, "lat": 41.886506, "lon": -87.6554061, "tags": {"addr:city": "Chicago", "addr:housenumber": "115", "addr:postcode": "60607", "addr:state": "IL", "addr:street": "West Fulton Market", "amenity": "restaurant", "cuisine": "regional", "name": "Fulton Galley", "phone": "+1-312-210-0920"}}, {"type": "node", "id": 6757776653, "lat": 41.8865666, "lon": -87.6518679, "tags": {"addr:city": "Chicago", "addr:housenumber": "951", "addr:postcode": "60607", "addr:state": "IL", "addr:street": "West Fulton Market", "amenity": "restaurant", "cuisine": "american", "name": "St. Clair Supper Club", "phone": "+1-312-789-4896", "website": "http://stclairsupperclub.com"}}, {"type": "node", "id": 6757797206, "lat": 41.8846497, "lon": -87.6471365, "tags": {"addr:city": "Chicago", "addr:housenumber": "736", "addr:postcode": "60661", "addr:state": "IL", "addr:street": "West Randolph Street", "amenity": "restaurant", "cuisine": "indian", "name": "ROOH", "phone": "+1-312-267-2323", "website": "https://www.roohchicago.com"}}, {"type": "node", "id": 6774960135, "lat": 41.8982361, "lon": -87.6584179}, {"type": "node", "id": 6936048967, "lat": 41.8892241, "lon": -87.6490881, "tags": {"addr:city": "Chicago", "addr:housenumber": "838", "addr:postcode": "60607", "addr:state": "IL", "addr:street": "West Kinzie Street", "amenity": "restaurant", "name": "Recess", "phone": "+1-312-801-1181", "website": "https://chicagoinrecess.com"}}, {"type": "node", "id": 6991303059, "lat": 41.8857352, "lon": -87.6323843, "tags": {"highway": "traffic_signals", "traffic_signals": "traffic_lights"}}, {"type": "node", "id": 6997474713, "lat": 41.8869631, "lon": -87.6505461, "tags": {"addr:city": "Chicago", "addr:housenumber": "916", "addr:postcode": "60607", "addr:state": "IL", "addr:street": "West Fulton Market", "amenity": "restaurant", "cuisine": "food_hall;cafeteria", "name": "Time Out Market Chicago", "phone": "+1-312-637-7888", "website": "https://www.timeout.com/chicago/time-out-market"}}, {"type": "node", "id": 7015621539, "lat": 41.8857651, "lon": -87.638239}, {"type": "node", "id": 7015621540, "lat": 41.8856968, "lon": -87.6382387}, {"type": "node", "id": 7015621541, "lat": 41.8857018, "lon": -87.6371813}, {"type": "node", "id": 7015621542, "lat": 41.8857685, "lon": -87.6371811}, {"type": "node", "id": 7015621558, "lat": 41.8857268, "lon": -87.6381883}, {"type": "node", "id": 7259838185, "lat": 41.891969, "lon": -87.6490538, "tags": {"addr:housenumber": "522", "addr:street": "North Milwaukee Avenue", "amenity": "restaurant", "name": "Stax Cafe", "opening_hours": "Mo-Fr 07:00-15:00; Sa-Su 07:00-15:30"}}, {"type": "node", "id": 7283913812, "lat": 41.8849437, "lon": -87.6508212, "tags": {"addr:housenumber": "163", "addr:street": "North Sangamon", "amenity": "restaurant", "description": "Ramen", "name": "Kinton Ramen", "phone": "312-374-3942", "website": "kintonramen.com"}}, {"type": "node", "id": 7557499140, "lat": 41.8841102, "lon": -87.6513222, "tags": {"addr:housenumber": "939", "addr:postcode": "60607", "amenity": "cafe", "name": "Dirty Root"}}, {"type": "node", "id": 7557521985, "lat": 41.8839874, "lon": -87.6549595, "tags": {"addr:postcode": "60607", "amenity": "cafe", "name": "Eat Milk Me Me"}}, {"type": "node", "id": 7607793125, "lat": 41.8756808, "lon": -87.6306661, "tags": {"railway": "switch"}}, {"type": "node", "id": 7607793126, "lat": 41.8756222, "lon": -87.6304099, "tags": {"railway": "switch"}}, {"type": "node", "id": 7607793127, "lat": 41.8756193, "lon": -87.6306682, "tags": {"railway": "switch"}}, {"type": "node", "id": 7607793128, "lat": 41.8756833, "lon": -87.6304013, "tags": {"railway": "switch"}}, {"type": "node", "id": 7662839840, "lat": 41.885735, "lon": -87.6326313}, {"type": "node", "id": 7675964055, "lat": 41.8836614, "lon": -87.6295087}, {"type": "node", "id": 7676191090, "lat": 41.8922758, "lon": -87.6492293}, {"type": "node", "id": 7676191091, "lat": 41.8933257, "lon": -87.6508241}, {"type": "node", "id": 7676191092, "lat": 41.8959631, "lon": -87.654909}, {"type": "node", "id": 7676191093, "lat": 41.8965232, "lon": -87.655796}, {"type": "node", "id": 7676191096, "lat": 41.8975476, "lon": -87.6573753}, {"type": "node", "id": 7676191098, "lat": 41.8981388, "lon": -87.6582711}, {"type": "way", "id": 59341809, "nodes": [736635057, 736636032, 736636699, 736635709, 736638925, 736638946, 7015621542, 736638962, 7015621539, 736638970, 736638980, 736639051, 736639065, 736639078, 736639093, 2042025605, 736637560, 736639135, 736639177, 736639292, 736639305, 736014633, 736014634, 736014635, 258942197], "tags": {"bridge": "yes", "electrified": "rail", "frequency": "0", "gauge": "1435", "layer": "2", "name": "Lake Branch", "old_name": "Lake Street Division", "oneway": "yes", "operator": "Chicago Transit Authority", "railway": "subway", "voltage": "600"}}, {"type": "way", "id": 59341810, "nodes": [736014629, 736014636, 736014637, 736638298, 736638300, 2042074138, 736638308, 736638353, 736638414, 736638444, 736638456, 736638474, 736638491, 736638509, 736637544, 736638542, 736638605, 736638616, 736638639, 736638653, 736638001, 7015621540, 736638669, 7015621541, 736638682, 736638710, 736638728, 6587988135, 736636005, 736635253], "tags": {"bridge": "yes", "electrified": "rail", "frequency": "0", "gauge": "1435", "layer": "2", "name": "Lake Branch", "old_name": "Lake Street Division", "oneway": "yes", "operator": "Chicago Transit Authority", "railway": "subway", "voltage": "600"}}, {"type": "way", "id": 59399810, "nodes": [736635640, 736635709], "tags": {"bridge": "yes", "electrified": "rail", "gauge": "1435", "layer": "2", "operator": "Chicago Transit Authority", "railway": "subway", "service": "siding", "voltage": "600"}}, {"type": "way", "id": 59399852, "nodes": [736637544, 736637560], "tags": {"bridge": "yes", "electrified": "rail", "gauge": "1435", "layer": "2", "operator": "Chicago Transit Authority", "railway": "subway", "service": "crossover", "voltage": "600"}}, {"type": "way", "id": 59399909, "nodes": [736638001, 736638013, 736638034, 736638063, 736638085], "tags": {"bridge": "yes", "electrified": "rail", "gauge": "1435", "layer": "2", "operator": "Chicago Transit Authority", "railway": "subway", "service": "crossover", "voltage": "600"}}, {"type": "way", "id": 156403648, "nodes": [1686470592, 1686470595, 1686470603, 1686470577, 1686470592], "tags": {"addr:city": "Chicago", "addr:housenumber": "130", "addr:postcode": "60607", "addr:state": "IL", "addr:street": "South Green Street", "amenity": "restaurant", "building": "yes", "cuisine": "american", "diet:vegetarian": "only", "name": "Green Street Local", "phone": "+1-312-226-6565", "website": "http://greenstreetlocal.com/"}}, {"type": "way", "id": 210269888, "nodes": [2203572882, 2203572885, 2203572851, 2203572849, 2203572860, 2203572861, 2203572880, 2203572882], "tags": {"addr:housenumber": "130", "addr:street": "South Halsted Street", "addr:street:name": "Halsted", "addr:street:prefix": "South", "addr:street:type": "Street", "amenity": "restaurant", "building": "yes", "building:levels": "1", "chicago:building_id": "814714", "cuisine": "greek", "fixme": "Business is PERMANENTLY closed.", "name": "Pegasus", "opening_hours": "Closed", "outdoor_seating": "no"}}, {"type": "way", "id": 210270038, "nodes": [2203572851, 2203572832, 2203572828, 2203572838, 2203572839, 2203572846, 2203572848, 2203572849, 2203572851], "tags": {"addr:housenumber": "138", "addr:street": "South Halsted Street", "addr:street:name": "Halsted", "addr:street:prefix": "South", "addr:street:type": "Street", "amenity": "restaurant", "building": "yes", "building:levels": "1", "chicago:building_id": "814726", "cuisine": "greek", "name": "Santorini", "outdoor_seating": "yes"}}, {"type": "way", "id": 210270387, "nodes": [2203580648, 2203580768, 2203580772, 2203580662, 2203580648], "tags": {"addr:city": "Chicago", "addr:housenumber": "440", "addr:postcode": "60642", "addr:state": "IL", "addr:street": "North Aberdeen Street", "addr:street:name": "Aberdeen", "addr:street:prefix": "North", "addr:street:type": "Street", "amenity": "bar", "building": "yes", "chicago:building_id": "350040", "name": "The Aberdeen Tap", "opening_hours": "Su-Fr 11:00-02:00; Sa 11:00-03:00", "phone": "+1-312-929-3845", "website": "http://theaberdeentap.com/", "wheelchair": "limited"}}, {"type": "way", "id": 210270539, "nodes": [2203578554, 2203578549, 2203578545, 2203578844, 2203578846, 2203578777, 2203578554], "tags": {"addr:city": "Chicago", "addr:housenumber": "702", "addr:postcode": "60661", "addr:state": "IL", "addr:street": "West Fulton Street", "addr:street:name": "Fulton Market", "addr:street:prefix": "West", "amenity": "restaurant", "building": "yes", "chicago:building_id": "352236", "cuisine": "caribbean;spanish", "name": "Carnivale", "opening_hours": "Mo-Fr 11:30-14:30; Mo-Th 17:00-22:00; Fr-Sa 17:00-23:00; Su 10:30-15:00, 17:00-21:00", "phone": "+1-312-850-5005", "website": "https://www.carnivalechicago.com/"}}, {"type": "way", "id": 210270584, "nodes": [2203578023, 2203578021, 2203578385, 2203578387, 2203578023], "tags": {"addr:city": "Chicago", "addr:housenumber": "825", "addr:postcode": "60607", "addr:state": "IL", "addr:street": "West Fulton Market", "addr:street:name": "Fulton Market", "addr:street:prefix": "West", "amenity": "cafe", "building": "yes", "building:levels": "3", "chicago:building_id": "888189", "cuisine": "sandwich;american", "name": "Publican Quality Meats", "opening_hours": "Mo-Sa 10:00-18:00; Su 10:00-17:00", "phone": "+1-312-445-8977", "website": "http://publicanqualitymeats.com/"}}, {"type": "way", "id": 210270693, "nodes": [2203578606, 2203578494, 2203578493, 2203578659, 2203578661, 2203578606], "tags": {"addr:housenumber": "948-954", "addr:street": "West Fulton Market", "addr:street:name": "Fulton Market", "addr:street:prefix": "West", "amenity": "bar", "building": "yes", "building:levels": "2", "chicago:building_id": "879729"}}, {"type": "way", "id": 218557528, "nodes": [2277981391, 2277981390, 2277981385, 2277981386, 2277981391], "tags": {"addr:city": "Chicago", "addr:housenumber": "204", "addr:postcode": "60661", "addr:state": "IL", "addr:street": "North Halsted Street", "amenity": "pub", "building": "yes", "name": "Paddy O'Fegan's Irish Pub & Restaurant", "opening_hours": "Su-Fr 11:00-02:00; Sa 11:00-03:00", "phone": "+1-312-997-3100", "website": "http://paddyofegans.com/"}}, {"type": "way", "id": 230398414, "nodes": [2389087654, 2389087661, 2389087641, 2389087647, 2389087653, 2389087619, 2389087638, 2389087645, 2389087622, 2389087640, 2389087646, 2389087620, 2389087659, 2389087652, 2389087642, 2389087648, 2389087635, 2389087644, 5272952065, 2389087623, 2389087643, 2389087631, 2389087651, 2389087660, 7675964055, 2389087649, 2389087628, 2389087658, 2389087637, 2389087625, 2389087650, 2389087636, 2389087633, 2389087627, 2389087639, 2389087629, 2389087657, 7607793128, 7607793125, 2389087624, 2389087626, 2389087632, 3188221401], "tags": {"electrified": "rail", "frequency": "0", "gauge": "1435", "layer": "-2", "level": "0", "name": "Dearborn Street Subway", "oneway": "yes", "operator": "Chicago Transit Authority", "railway": "subway", "tunnel": "yes", "voltage": "600"}}, {"type": "way", "id": 304920610, "nodes": [3094904880, 2203936165, 2203936451, 3094904881, 3094904882, 3094904880], "tags": {"amenity": "restaurant", "building": "yes", "name": "The Dawson"}}, {"type": "way", "id": 312901443, "nodes": [3188221400, 258281900, 258281901, 5272963174, 7607793127, 7607793126, 258957456, 1613640702, 258281903, 1613640678, 706968780, 1613640656, 706968781, 873051690, 5272959956, 5272959957, 5272952067, 258957458, 1606917431, 706968782, 258957459, 706968784, 5272952066, 6991303059, 258957340, 7662839840, 736637716, 7015621558, 258281905, 707905319, 707905321, 258281906, 365489352, 707905651, 258281907, 5272952064, 7676191090, 7676191091, 258281909, 7676191092, 5272957251, 7676191093, 7676191096, 7676191098, 6774960135, 365489153, 736035819, 736035820, 365489154, 736035821, 736035822, 258025450], "tags": {"electrified": "rail", "frequency": "0", "gauge": "1435", "layer": "-2", "level": "-1", "name": "Dearborn Street Subway", "oneway": "yes", "operator": "Chicago Transit Authority", "railway": "subway", "tunnel": "yes", "voltage": "600"}}, {"type": "way", "id": 329775434, "nodes": [3367138861, 3367138857, 3367138858, 3367138860, 3367138859, 3367138862, 3367138861], "tags": {"amenity": "restaurant", "building": "yes"}}]}