{"version": 0.6, "generator": "Overpass API 0.7.56.1004 6cd3eaec", "osm3s": {"timestamp_osm_base": "2020-07-22T04:01:02Z", "copyright": "The data included in this document is from www.openstreetmap.org. The data is made available under ODbL."}, "elements": [{"type": "node", "id": 286369226, "lat": 41.9252157, "lon": -87.6590264}, {"type": "node", "id": 286369232, "lat": 41.9236965, "lon": -87.6511635}, {"type": "node", "id": 286369233, "lat": 41.9236653, "lon": -87.6529154}, {"type": "node", "id": 286369234, "lat": 41.9218369, "lon": -87.6536137}, {"type": "node", "id": 286369235, "lat": 41.9218071, "lon": -87.6545905}, {"type": "node", "id": 286369237, "lat": 41.9235769, "lon": -87.6582718}, {"type": "node", "id": 286369306, "lat": 41.9263468, "lon": -87.6529996}, {"type": "node", "id": 286369307, "lat": 41.9253718, "lon": -87.6529784}, {"type": "node", "id": 286369308, "lat": 41.9250203, "lon": -87.6512022}, {"type": "node", "id": 286369309, "lat": 41.9243434, "lon": -87.6511679}, {"type": "node", "id": 286369311, "lat": 41.9236164, "lon": -87.6546637}, {"type": "node", "id": 307890165, "lat": 41.9253504, "lon": -87.6498796}, {"type": "node", "id": 307890172, "lat": 41.9237168, "lon": -87.6497863}, {"type": "node", "id": 308675507, "lat": 41.9244322, "lon": -87.6511724}, {"type": "node", "id": 318276729, "lat": 41.9208448, "lon": -87.6332051, "tags": {"amenity": "cafe", "name": "Park Place Cafe"}}, {"type": "node", "id": 347159885, "lat": 41.9112846, "lon": -87.6348689, "tags": {"addr:city": "Chicago", "addr:country": "US", "addr:housenumber": "210", "addr:postcode": "60610", "addr:state": "IL", "addr:street": "West North Avenue", "amenity": "cafe", "brand": "Starbucks", "brand:wikidata": "Q37158", "brand:wikipedia": "en:Starbucks", "cuisine": "coffee_shop", "entrance": "yes", "name": "Starbucks", "official_name": "Starbucks Coffee", "takeaway": "yes"}}, {"type": "node", "id": 347160446, "lat": 41.9127223, "lon": -87.638378, "tags": {"addr:city": "Chicago", "addr:housenumber": "1655", "addr:postcode": "60614", "addr:state": "IL", "addr:street": "North Sedgwick Street", "amenity": "restaurant", "cuisine": "american;ribs", "name": "Twin Anchors Restaurant & Tavern", "opening_hours": "Mo-Tu 17:00-22:30; We-Th 17:00-23:00; Fr 17:00-00:00; Sa 12:00-00:00; Su 12:00-22:30", "phone": "+1-312-266-1616", "website": "https://twinanchorsribs.com/"}}, {"type": "node", "id": 370093716, "lat": 41.9253655, "lon": -87.6489723}, {"type": "node", "id": 370093749, "lat": 41.9237371, "lon": -87.64883}, {"type": "node", "id": 370093752, "lat": 41.9253329, "lon": -87.6488812}, {"type": "node", "id": 416770215, "lat": 41.9243826, "lon": -87.6582994}, {"type": "node", "id": 416770216, "lat": 41.9243744, "lon": -87.6589981}, {"type": "node", "id": 417255771, "lat": 41.925225, "lon": -87.6583375}, {"type": "node", "id": 417255772, "lat": 41.9258596, "lon": -87.6583677}, {"type": "node", "id": 417255773, "lat": 41.9258724, "lon": -87.6576982}, {"type": "node", "id": 417255774, "lat": 41.9252849, "lon": -87.6576725}, {"type": "node", "id": 417255775, "lat": 41.9258658, "lon": -87.6554215}, {"type": "node", "id": 417255776, "lat": 41.9263308, "lon": -87.6545006}, {"type": "node", "id": 452377015, "lat": 41.9241152, "lon": -87.6498508}, {"type": "node", "id": 452377016, "lat": 41.9237193, "lon": -87.6498337}, {"type": "node", "id": 477087140, "lat": 41.9233904, "lon": -87.6460993, "tags": {"addr:city": "Chicago", "addr:housenumber": "2274", "addr:postcode": "60614", "addr:state": "IL", "addr:street": "North Lincoln Avenue", "amenity": "bar", "name": "Halligan Bar", "phone": "+1-773-472-7940", "website": "https://halliganbarchicago.com/"}}, {"type": "node", "id": 477087310, "lat": 41.9216973, "lon": -87.6488467, "tags": {"addr:city": "Chicago", "addr:housenumber": "2158", "addr:postcode": "60614", "addr:state": "IL", "addr:street": "North Halsted Street", "amenity": "bar", "name": "Glasscott's", "phone": "+1-773-281-1205", "website": "http://www.glascotts.com/"}}, {"type": "node", "id": 1349879445, "lat": 41.9251559, "lon": -87.6399232, "tags": {"amenity": "restaurant", "cuisine": "thai", "name": "Nine", "takeaway": "yes"}}, {"type": "node", "id": 1349879617, "lat": 41.9258684, "lon": -87.6408981, "tags": {"amenity": "restaurant", "cuisine": "international", "name": "Tapas Restarurant/Bar"}}, {"type": "node", "id": 1724441444, "lat": 41.9106374, "lon": -87.6345311, "tags": {"addr:city": "Chicago", "addr:housename": "1551", "addr:housenumber": "1551", "addr:postcode": "60610", "addr:state": "IL", "addr:street": "North Wells Street", "amenity": "restaurant", "cuisine": "pizza;italian", "name": "Dinotto", "opening_hours": "Tu-Th 16:30-22:00; Fr-Sa 12:00-22:00; Su 16:00-22:00", "phone": "+1-312-202-0302", "website": "https://dinotto.business.site/"}}, {"type": "node", "id": 1724441449, "lat": 41.9105842, "lon": -87.6345302, "tags": {"addr:city": "Chicago", "addr:country": "US", "addr:housenumber": "1549", "addr:state": "IL", "addr:street": "North Wells Street", "amenity": "restaurant", "cuisine": "sandwich", "name": "Einstein Bagels"}}, {"type": "node", "id": 1983543632, "lat": 41.924302, "lon": -87.649851}, {"type": "node", "id": 1983549241, "lat": 41.9222116, "lon": -87.6528996}, {"type": "node", "id": 1983549242, "lat": 41.9222019, "lon": -87.6536129}, {"type": "node", "id": 2086708645, "lat": 41.9115662, "lon": -87.6345885}, {"type": "node", "id": 2086708647, "lat": 41.9115704, "lon": -87.6342839}, {"type": "node", "id": 2086708649, "lat": 41.9116319, "lon": -87.6345901}, {"type": "node", "id": 2086708650, "lat": 41.9116361, "lon": -87.6342855}, {"type": "node", "id": 2166039854, "lat": 41.9106416, "lon": -87.6351225}, {"type": "node", "id": 2166039855, "lat": 41.9106425, "lon": -87.635053}, {"type": "node", "id": 2166039857, "lat": 41.9106453, "lon": -87.6348451}, {"type": "node", "id": 2166039861, "lat": 41.9106971, "lon": -87.6351239}, {"type": "node", "id": 2166039862, "lat": 41.9107008, "lon": -87.6348464}, {"type": "node", "id": 2203998611, "lat": 41.9101419, "lon": -87.6491644}, {"type": "node", "id": 2203998642, "lat": 41.9101919, "lon": -87.6492343}, {"type": "node", "id": 2203998691, "lat": 41.9103457, "lon": -87.6489012}, {"type": "node", "id": 2203998709, "lat": 41.91038, "lon": -87.6506163}, {"type": "node", "id": 2203998712, "lat": 41.9103813, "lon": -87.6503404}, {"type": "node", "id": 2203998719, "lat": 41.9103958, "lon": -87.648971}, {"type": "node", "id": 2203998741, "lat": 41.9104459, "lon": -87.6436874}, {"type": "node", "id": 2203998747, "lat": 41.9104492, "lon": -87.6435478}, {"type": "node", "id": 2203998749, "lat": 41.9104542, "lon": -87.6436892}, {"type": "node", "id": 2203998788, "lat": 41.9105184, "lon": -87.6436407}, {"type": "node", "id": 2203998793, "lat": 41.9105206, "lon": -87.6435507}, {"type": "node", "id": 2203998810, "lat": 41.9105404, "lon": -87.6506176}, {"type": "node", "id": 2203998811, "lat": 41.9105433, "lon": -87.6503417}, {"type": "node", "id": 2203998812, "lat": 41.9105435, "lon": -87.6502776}, {"type": "node", "id": 2203998908, "lat": 41.9106836, "lon": -87.6503386}, {"type": "node", "id": 2203998910, "lat": 41.9106838, "lon": -87.6502787}, {"type": "node", "id": 2203998933, "lat": 41.910726, "lon": -87.6502951}, {"type": "node", "id": 2203998935, "lat": 41.9107259, "lon": -87.650339}, {"type": "node", "id": 2203998973, "lat": 41.9107911, "lon": -87.6502956}, {"type": "node", "id": 2204017997, "lat": 41.918528, "lon": -87.6490047}, {"type": "node", "id": 2204018017, "lat": 41.9185342, "lon": -87.6486592}, {"type": "node", "id": 2204018019, "lat": 41.9185354, "lon": -87.648647}, {"type": "node", "id": 2204018237, "lat": 41.9185966, "lon": -87.6490156}, {"type": "node", "id": 2204018278, "lat": 41.9186054, "lon": -87.6486499}, {"type": "node", "id": 2204024213, "lat": 41.9200758, "lon": -87.6491571}, {"type": "node", "id": 2204024246, "lat": 41.9200822, "lon": -87.6487242}, {"type": "node", "id": 2204024332, "lat": 41.9201013, "lon": -87.6486982}, {"type": "node", "id": 2204024436, "lat": 41.9201452, "lon": -87.6491589}, {"type": "node", "id": 2204024451, "lat": 41.9201521, "lon": -87.6486996}, {"type": "node", "id": 2204034445, "lat": 41.9230531, "lon": -87.6459254}, {"type": "node", "id": 2204034519, "lat": 41.9230715, "lon": -87.6459558}, {"type": "node", "id": 2204034575, "lat": 41.9230861, "lon": -87.6459754}, {"type": "node", "id": 2204034779, "lat": 41.9231343, "lon": -87.6458217}, {"type": "node", "id": 2204034784, "lat": 41.9231356, "lon": -87.6458033}, {"type": "node", "id": 2204035015, "lat": 41.9232155, "lon": -87.6458109}, {"type": "node", "id": 2204035410, "lat": 41.9233282, "lon": -87.6456194}, {"type": "node", "id": 2204035573, "lat": 41.9233681, "lon": -87.645674}, {"type": "node", "id": 2204035943, "lat": 41.9234782, "lon": -87.6455002}, {"type": "node", "id": 2204036024, "lat": 41.9234865, "lon": -87.6455203}, {"type": "node", "id": 2204036056, "lat": 41.9234904, "lon": -87.6454853}, {"type": "node", "id": 2204036147, "lat": 41.9235015, "lon": -87.6454999}, {"type": "node", "id": 2204036210, "lat": 41.9235131, "lon": -87.6453767}, {"type": "node", "id": 2204036347, "lat": 41.9235532, "lon": -87.6454314}, {"type": "node", "id": 2204044941, "lat": 41.9255989, "lon": -87.6479266}, {"type": "node", "id": 2204044944, "lat": 41.9256, "lon": -87.6478825}, {"type": "node", "id": 2204044971, "lat": 41.9256247, "lon": -87.6478859}, {"type": "node", "id": 2204044972, "lat": 41.9256249, "lon": -87.6478796}, {"type": "node", "id": 2204045107, "lat": 41.9257046, "lon": -87.6479365}, {"type": "node", "id": 2204045130, "lat": 41.9257114, "lon": -87.6479272}, {"type": "node", "id": 2204045252, "lat": 41.9257553, "lon": -87.6479267}, {"type": "node", "id": 2204045265, "lat": 41.9257595, "lon": -87.6479377}, {"type": "node", "id": 2204045344, "lat": 41.9257855, "lon": -87.6479319}, {"type": "node", "id": 2204045352, "lat": 41.9257874, "lon": -87.6478827}, {"type": "node", "id": 2204045359, "lat": 41.9257887, "lon": -87.6498519}, {"type": "node", "id": 2204045454, "lat": 41.9258178, "lon": -87.6498939}, {"type": "node", "id": 2204045543, "lat": 41.9258482, "lon": -87.6499358}, {"type": "node", "id": 2204045627, "lat": 41.9258787, "lon": -87.6499796}, {"type": "node", "id": 2204045854, "lat": 41.9259521, "lon": -87.6496462}, {"type": "node", "id": 2204046188, "lat": 41.9260421, "lon": -87.649772}, {"type": "node", "id": 2207637696, "lat": 41.9090034, "lon": -87.6341272}, {"type": "node", "id": 2207637705, "lat": 41.909016, "lon": -87.6341274}, {"type": "node", "id": 2207637706, "lat": 41.909016, "lon": -87.6341331}, {"type": "node", "id": 2207637782, "lat": 41.9090487, "lon": -87.6342489}, {"type": "node", "id": 2207637785, "lat": 41.909049, "lon": -87.6342002}, {"type": "node", "id": 2207637813, "lat": 41.9090601, "lon": -87.6344978}, {"type": "node", "id": 2207637819, "lat": 41.9090613, "lon": -87.634249}, {"type": "node", "id": 2207637826, "lat": 41.9090661, "lon": -87.6342003}, {"type": "node", "id": 2207637827, "lat": 41.9090665, "lon": -87.6341336}, {"type": "node", "id": 2207638564, "lat": 41.9094986, "lon": -87.6384087}, {"type": "node", "id": 2207638569, "lat": 41.9095013, "lon": -87.6380817}, {"type": "node", "id": 2207638657, "lat": 41.9095425, "lon": -87.6384094}, {"type": "node", "id": 2207638661, "lat": 41.9095453, "lon": -87.6380823}, {"type": "node", "id": 2207638953, "lat": 41.9097401, "lon": -87.6345198}, {"type": "node", "id": 2207638957, "lat": 41.9097469, "lon": -87.6342361}, {"type": "node", "id": 2207638967, "lat": 41.9097543, "lon": -87.6339208}, {"type": "node", "id": 2207638968, "lat": 41.9097544, "lon": -87.6339318}, {"type": "node", "id": 2207639299, "lat": 41.9099564, "lon": -87.6345238}, {"type": "node", "id": 2207639310, "lat": 41.9099639, "lon": -87.6339253}, {"type": "node", "id": 2207640348, "lat": 41.9107678, "lon": -87.634064}, {"type": "node", "id": 2207640351, "lat": 41.9107718, "lon": -87.6338215}, {"type": "node", "id": 2207640358, "lat": 41.9107802, "lon": -87.6340786}, {"type": "node", "id": 2207640378, "lat": 41.9108036, "lon": -87.6340783}, {"type": "node", "id": 2207640380, "lat": 41.9108046, "lon": -87.6340214}, {"type": "node", "id": 2207640484, "lat": 41.911042, "lon": -87.634028}, {"type": "node", "id": 2207640485, "lat": 41.9110449, "lon": -87.6338295}, {"type": "node", "id": 2207658045, "lat": 41.9243235, "lon": -87.6402119}, {"type": "node", "id": 2207658053, "lat": 41.9243479, "lon": -87.6402288}, {"type": "node", "id": 2207658054, "lat": 41.9243549, "lon": -87.6402415}, {"type": "node", "id": 2207658059, "lat": 41.9243595, "lon": -87.6400908}, {"type": "node", "id": 2207658063, "lat": 41.9243637, "lon": -87.6401073}, {"type": "node", "id": 2207658068, "lat": 41.9243769, "lon": -87.6402523}, {"type": "node", "id": 2207658069, "lat": 41.9243875, "lon": -87.6401953}, {"type": "node", "id": 2207658070, "lat": 41.9243929, "lon": -87.6401823}, {"type": "node", "id": 2207658071, "lat": 41.9243931, "lon": -87.6399857}, {"type": "node", "id": 2207658073, "lat": 41.9243958, "lon": -87.6402025}, {"type": "node", "id": 2207658074, "lat": 41.9244039, "lon": -87.6401767}, {"type": "node", "id": 2207658084, "lat": 41.924428, "lon": -87.6400754}, {"type": "node", "id": 2207658086, "lat": 41.9244309, "lon": -87.6400992}, {"type": "node", "id": 2207658094, "lat": 41.9244468, "lon": -87.6400182}, {"type": "node", "id": 2262364827, "lat": 41.9113354, "lon": -87.6356269, "tags": {"addr:housenumber": "230", "addr:postcode": "60614", "addr:street": "West North Avenue", "amenity": "bar", "name": "UP Comedy Club", "source": "312-664-4032", "website": "http://www.upcomedyclub.com/"}}, {"type": "node", "id": 2280301588, "lat": 41.9102437, "lon": -87.6488384, "tags": {"addr:city": "Chicago", "addr:housenumber": "1578", "addr:postcode": "60642", "addr:state": "IL", "addr:street": "North Clybourn Avenue", "amenity": "restaurant", "cuisine": "burger", "name": "Burger Bar Chicago - Lincoln Park", "opening_hours": "Mo-Th 11:30-22:00; Fr-Sa 11:00-23:00; Su 11:00-21:00", "phone": "+1-312-255-0055", "website": "http://burgerbarchicago.com/"}}, {"type": "node", "id": 2348349944, "lat": 41.9237168, "lon": -87.6496983, "tags": {"barrier": "gate"}}, {"type": "node", "id": 2393465770, "lat": 41.912499, "lon": -87.6345793, "tags": {"addr:city": "Chicago", "addr:country": "US", "addr:housenumber": "1647", "addr:state": "IL", "addr:street": "North Wells Street", "amenity": "bar", "entrance": "yes"}}, {"type": "node", "id": 2393465775, "lat": 41.9096394, "lon": -87.6348401, "tags": {"addr:city": "Chicago", "addr:country": "US", "addr:housenumber": "1514", "addr:postcode": "60610", "addr:state": "IL", "addr:street": "North Wells Street", "amenity": "restaurant", "cuisine": "italian", "name": "Topo Gigio Ristorante", "opening_hours": "Mo-Sa 11:30-22:30; Su 16:00-21:30", "phone": "+1-312-266-9355", "website": "https://www.topogigiochicago.com/"}}, {"type": "node", "id": 2393465796, "lat": 41.9090017, "lon": -87.6344973}, {"type": "node", "id": 2393465797, "lat": 41.9090029, "lon": -87.6342414}, {"type": "node", "id": 2399641191, "lat": 41.9172647, "lon": -87.6370796, "tags": {"addr:housenumber": "1925", "addr:street": "North Lincoln Avenue", "addr:street:name": "Lincoln", "addr:street:prefix": "North", "addr:street:type": "Avenue", "amenity": "restaurant", "cuisine": "pizza", "name": "Rocco Ranalli's"}}, {"type": "node", "id": 2458410440, "lat": 41.9251354, "lon": -87.6590281}, {"type": "node", "id": 2479668242, "lat": 41.9089305, "lon": -87.6383817}, {"type": "node", "id": 2479668243, "lat": 41.9089363, "lon": -87.6380474}, {"type": "node", "id": 2479668244, "lat": 41.9089981, "lon": -87.6383838}, {"type": "node", "id": 2479668245, "lat": 41.909004, "lon": -87.6380495}, {"type": "node", "id": 2521766275, "lat": 41.911036, "lon": -87.6327641, "tags": {"addr:city": "Chicago", "addr:country": "US", "addr:housenumber": "129", "addr:street": "West North Avenue", "amenity": "restaurant", "cuisine": "chinese", "name": "Peking Chinese Restaurant"}}, {"type": "node", "id": 2577813545, "lat": 41.910787, "lon": -87.6490879, "tags": {"addr:city": "Chicago", "addr:country": "US", "addr:housenumber": "1599", "addr:postcode": "60642", "addr:state": "IL", "addr:street": "North Clybourn Avenue", "amenity": "cafe", "brand": "Starbucks", "brand:wikidata": "Q37158", "brand:wikipedia": "en:Starbucks", "cuisine": "coffee_shop", "name": "Starbucks", "official_name": "Starbucks Coffee", "takeaway": "yes"}}, {"type": "node", "id": 2607221649, "lat": 41.9229445, "lon": -87.6449862, "tags": {"addr:city": "Chicago", "addr:country": "US", "addr:housenumber": "2245", "addr:street": "North Lincoln Avenue", "amenity": "restaurant", "cuisine": "pizza", "name": "Lincoln Park Pizza"}}, {"type": "node", "id": 2607221651, "lat": 41.9235545, "lon": -87.6458622, "tags": {"amenity": "cafe", "brand": "Starbucks", "brand:wikidata": "Q37158", "brand:wikipedia": "en:Starbucks", "cuisine": "coffee_shop", "name": "Starbucks", "official_name": "Starbucks Coffee", "takeaway": "yes"}}, {"type": "node", "id": 2607221928, "lat": 41.923172, "lon": -87.6457498}, {"type": "node", "id": 2623046304, "lat": 41.9174354, "lon": -87.6486475, "tags": {"addr:city": "Chicago", "addr:housenumber": "1948", "addr:postcode": "60614", "addr:street": "North Halsted Street", "amenity": "bar", "name": "Manhandler Saloon"}}, {"type": "node", "id": 2623896621, "lat": 41.9179369, "lon": -87.6483425, "tags": {"addr:city": "Chicago", "addr:housenumber": "1969", "addr:postcode": "60614", "addr:street": "North Halsted Street", "amenity": "restaurant", "cuisine": "Taqueria/Cantina", "name": "Taco Joint", "phone": "+1-312-951-2457", "website": "https://www.tacojoint.com/"}}, {"type": "node", "id": 2623896633, "lat": 41.917875, "lon": -87.648321, "tags": {"addr:city": "Chicago", "addr:housenumber": "1967", "addr:postcode": "60614", "addr:street": "North Halsted Street", "amenity": "restaurant", "name": "Rustic House"}}, {"type": "node", "id": 2623896642, "lat": 41.9179319, "lon": -87.6486675, "tags": {"addr:city": "Chicago", "addr:housenumber": "1966", "addr:postcode": "60614", "addr:state": "IL", "addr:street": "North Halsted Street", "amenity": "restaurant", "name": "Pasta Palazzo", "phone": "+1-773-248-1400", "takeaway": "yes", "website": "http://pastapalazzo.com/"}}, {"type": "node", "id": 2624050319, "lat": 41.9180677, "lon": -87.6483402, "tags": {"addr:city": "Chicago", "addr:housenumber": "1973", "addr:postcode": "60614", "addr:state": "IL", "addr:street": "North Halsted Street", "amenity": "bar", "name": "Marquee Lounge"}}, {"type": "node", "id": 2624050324, "lat": 41.9177852, "lon": -87.6486715, "tags": {"addr:city": "Chicago", "addr:housenumber": "1962", "addr:postcode": "60614", "addr:street": "North Halsted Street", "amenity": "restaurant", "name": "Coppervine"}}, {"type": "node", "id": 2624050329, "lat": 41.9180886, "lon": -87.6471654, "tags": {"addr:city": "Chicago", "addr:housenumber": "732", "addr:postcode": "60614", "addr:street": "West Armitage Avenue", "amenity": "restaurant", "cuisine": "fast_food", "name": "Brothers Beef"}}, {"type": "node", "id": 2673655700, "lat": 41.9187003, "lon": -87.6366459, "tags": {"addr:city": "Chicago", "addr:housenumber": "2020", "addr:postcode": "60614", "addr:state": "IL", "addr:street": "North Lincoln Park West", "amenity": "restaurant", "brand": "The Original Pancake House", "brand:wikidata": "Q7755384", "brand:wikipedia": "en:The Original Pancake House", "cuisine": "breakfast;pancake", "name": "The Original Pancake House"}}, {"type": "node", "id": 2870579423, "lat": 41.910905, "lon": -87.6408852, "tags": {"amenity": "bar", "name": "Old Town Social"}}, {"type": "node", "id": 2946725325, "lat": 41.9169091, "lon": -87.6366164, "tags": {"amenity": "restaurant", "cuisine": "italian", "name": "Brick's"}}, {"type": "node", "id": 2968844771, "lat": 41.9189763, "lon": -87.6487203, "tags": {"addr:city": "Chicago", "addr:housenumber": "2024", "addr:postcode": "60614", "addr:state": "IL", "addr:street": "North Halsted Street", "amenity": "restaurant", "name": "Cafe Ba-Ba-Reeba!", "phone": "+1-773-935-5000", "website": "http://cafebabareeba.com/"}}, {"type": "node", "id": 2986607620, "lat": 41.9107897, "lon": -87.6506196}, {"type": "node", "id": 2988737657, "lat": 41.9180298, "lon": -87.6386499, "tags": {"addr:city": "Chicago", "addr:housenumber": "1970", "addr:postcode": "60614", "addr:state": "IL", "addr:street": "North Lincoln Avenue", "amenity": "restaurant", "entrance": "yes", "name": "Stanley's Kitchen and Tap"}}, {"type": "node", "id": 3269064603, "lat": 41.9181092, "lon": -87.6465719, "tags": {"amenity": "restaurant", "cuisine": "pizza", "name": "Armitage Pizza", "takeaway": "yes"}}, {"type": "node", "id": 3502294519, "lat": 41.9137104, "lon": -87.6481992, "tags": {"addr:city": "Chicago", "addr:housenumber": "1733", "addr:postcode": "60614", "addr:state": "IL", "addr:street": "North Halsted Street", "amenity": "restaurant", "cuisine": "deep_dish_pizza_and_general_Italian", "delivery": "yes", "name": "Pizza Capri", "takeaway": "yes"}}, {"type": "node", "id": 3502294527, "lat": 41.9136386, "lon": -87.6482025, "tags": {"addr:city": "Chicago", "addr:housenumber": "1729", "addr:postcode": "60614", "addr:state": "IL", "addr:street": "North Halsted Street", "amenity": "restaurant", "name": "Boka", "opening_hours": "Mo-Th 17:00-22:00; Fr-Sa 17:00-23:00; Su 17:00-22:00", "phone": "+1-312-337-6070", "website": "http://www.bokachicago.com/", "wikidata": "Q16255079"}}, {"type": "node", "id": 3502294528, "lat": 41.9136875, "lon": -87.6485512, "tags": {"addr:housenumber": "1732", "addr:street": "North Halsted Street", "amenity": "restaurant", "cuisine": "italian", "name": "Vinci"}}, {"type": "node", "id": 3502294529, "lat": 41.9134372, "lon": -87.648199, "tags": {"addr:city": "Chicago", "addr:housenumber": "1723", "addr:postcode": "60614", "addr:state": "IL", "addr:street": "North Halsted Street", "amenity": "restaurant", "cuisine": "fine_dining", "name": "Alinea", "phone": "+1-312-867-0110", "website": "https://www.alinearestaurant.com/", "wikidata": "Q4726773"}}, {"type": "node", "id": 3502294530, "lat": 41.911655, "lon": -87.6480886, "tags": {"amenity": "restaurant", "name": "Circle Sushi & Grill", "takeaway": "yes"}}, {"type": "node", "id": 3502294531, "lat": 41.9117202, "lon": -87.6480993, "tags": {"addr:city": "Chicago", "addr:housenumber": "1625", "addr:postcode": "60614", "addr:state": "IL", "addr:street": "North Halsted Street", "amenity": "restaurant", "cuisine": "mediterranean", "name": "Dawali Mediterranean Kitchen", "phone": "+1-312-944-5800", "takeaway": "yes", "website": "http://dawalikitchen.com/"}}, {"type": "node", "id": 3502294537, "lat": 41.9119981, "lon": -87.6481205, "tags": {"amenity": "restaurant", "cuisine": "italian", "name": "Balena"}}, {"type": "node", "id": 3841977063, "lat": 41.9218198, "lon": -87.6541736}, {"type": "node", "id": 4045036123, "lat": 41.9233231, "lon": -87.6455687, "tags": {"addr:city": "Chicago", "addr:housenumber": "2265", "addr:postcode": "60614", "addr:state": "IL", "addr:street": "North Lincoln Avenue", "amenity": "bar", "name": "Kelsey's", "phone": "+1-773-348-1666", "website": "http://kelseysbar.com/"}}, {"type": "node", "id": 4045036124, "lat": 41.9232814, "lon": -87.6454858, "tags": {"addr:city": "Chicago", "addr:housenumber": "2263", "addr:postcode": "60614", "addr:state": "IL", "addr:street": "North Lincoln Avenue", "amenity": "bar", "name": "Lincoln Avenue Social", "phone": "+1-773-348-7200", "website": "https://lincolnavenuesocial.com/"}}, {"type": "node", "id": 4045036125, "lat": 41.9231514, "lon": -87.645214, "tags": {"amenity": "bar", "name": "The Apartment"}}, {"type": "node", "id": 4100246313, "lat": 41.9200447, "lon": -87.6366013, "tags": {"addr:city": "Chicago", "addr:housenumber": "2056", "addr:postcode": "60614", "addr:state": "IL", "addr:street": "Lincoln Park West", "amenity": "restaurant", "name": "RJ Grunts", "opening_hours": "Mo-Fr 11:30-23:00; Sa 10:00-23:00; Su 10:00-21:00", "phone": "+1-773-929-5363", "website": "http://www.rjgruntschicago.com/"}}, {"type": "node", "id": 4131053948, "lat": 41.908293, "lon": -87.6468872, "tags": {"addr:city": "Chicago", "addr:housenumber": "1500", "addr:postcode": "60610", "addr:state": "IL", "addr:street": "North Clybourn Avenue", "amenity": "restaurant", "brand": "Nando's", "brand:wikidata": "Q3472954", "brand:wikipedia": "en:Nando's", "cuisine": "chicken;portuguese", "name": "Nando's", "phone": "+1-312-546-9723", "website": "https://www.nandosperiperi.com/"}}, {"type": "node", "id": 4188110370, "lat": 41.9200282, "lon": -87.6369267, "tags": {"amenity": "cafe", "brand": "Starbucks", "brand:wikidata": "Q37158", "brand:wikipedia": "en:Starbucks", "cuisine": "coffee_shop", "name": "Starbucks", "official_name": "Starbucks Coffee", "takeaway": "yes"}}, {"type": "node", "id": 4191676729, "lat": 41.9109799, "lon": -87.6349566, "tags": {"addr:city": "Chicago", "addr:housenumber": "1562", "addr:postcode": "60610", "addr:state": "IL", "addr:street": "North Wells Street", "amenity": "cafe", "brand": "Le Pain Quotidien", "brand:wikidata": "Q2046903", "brand:wikipedia": "en:Le Pain Quotidien", "cuisine": "coffee_shop", "name": "Le Pain Quotidien", "phone": "+1-312-281-6775", "takeaway": "yes", "website": "https://www1.lepainquotidien.com/us/en/locations/605/1562-n-wells-st"}}, {"type": "node", "id": 4191676733, "lat": 41.9114966, "lon": -87.6387692, "tags": {"amenity": "bar", "name": "Sedgwick Stop"}}, {"type": "node", "id": 4191676734, "lat": 41.9176173, "lon": -87.6386253, "tags": {"amenity": "bar", "name": "Sedgwick's"}}, {"type": "node", "id": 4191676735, "lat": 41.9109006, "lon": -87.6404783, "tags": {"amenity": "restaurant", "cuisine": "japanese", "name": "Shiso"}}, {"type": "node", "id": 4191676737, "lat": 41.9234681, "lon": -87.6393605, "tags": {"amenity": "restaurant", "cuisine": "sushi", "name": "Sushi Para II"}}, {"type": "node", "id": 4191676738, "lat": 41.9100421, "lon": -87.6493042, "tags": {"addr:city": "Chicago", "addr:housenumber": "1555", "addr:postcode": "60642", "addr:state": "IL", "addr:street": "North Dayton Street", "amenity": "bar", "name": "Weeds Tavern", "phone": "+1-312-943-7815", "website": "http://weedstavern.com/"}}, {"type": "node", "id": 4196262789, "lat": 41.9216939, "lon": -87.649093, "tags": {"addr:city": "Chicago", "addr:housenumber": "807", "addr:state": "IL", "addr:street": "West Webster Avenue", "amenity": "restaurant", "name": "Athenian Room", "phone": "+1-773-348-5155"}}, {"type": "node", "id": 4196262792, "lat": 41.9248791, "lon": -87.6482362, "tags": {"addr:city": "Chicago", "addr:housenumber": "2360", "addr:postcode": "60614", "addr:state": "IL", "addr:street": "North Lincoln Avenue", "amenity": "restaurant", "name": "La Crosta Woodfire Pizzeria Italiana", "phone": "+1-773-649-1000", "website": "http://lacrostachicago.com/"}}, {"type": "node", "id": 4196262795, "lat": 41.9219393, "lon": -87.6488352, "tags": {"amenity": "cafe", "brand": "Starbucks", "brand:wikidata": "Q37158", "brand:wikipedia": "en:Starbucks", "cuisine": "coffee_shop", "name": "Starbucks", "official_name": "Starbucks Coffee", "takeaway": "yes"}}, {"type": "node", "id": 4196262797, "lat": 41.9257387, "lon": -87.6494036, "tags": {"amenity": "restaurant", "cuisine": "thai", "name": "Thai Bowl"}}, {"type": "node", "id": 4196262798, "lat": 41.9219534, "lon": -87.648107, "tags": {"addr:city": "Chicago", "addr:housenumber": "746", "addr:postcode": "60614", "addr:state": "IL", "addr:street": "West Webster Avenue", "amenity": "restaurant", "name": "Toast", "phone": "+1-773-935-5600", "website": "http://chicago-toast.com/"}}, {"type": "node", "id": 4196277890, "lat": 41.9109839, "lon": -87.635275, "tags": {"addr:city": "Chicago", "addr:country": "US", "addr:postcode": "60614", "addr:state": "IL", "amenity": "restaurant", "building": "entrance", "cuisine": "mexican", "name": "Adobo Grill"}}, {"type": "node", "id": 4214191957, "lat": 41.9100021, "lon": -87.6343992, "tags": {"amenity": "restaurant", "cuisine": "mexican", "name": "Buzz Bait Tacos - PERMANENTLY CLOSED"}}, {"type": "node", "id": 4372831552, "lat": 41.9239848, "lon": -87.6469762, "tags": {"addr:city": "Chicago", "addr:country": "US", "addr:housenumber": "2312", "addr:postcode": "60614", "addr:state": "IL", "addr:street": "North Lincoln Avenue", "amenity": "restaurant", "cuisine": "international", "name": "Rickshaw Republic", "phone": "+1-773-697-4750", "website": "http://rickshawrepublic.com/", "wheelchair": "no"}}, {"type": "node", "id": 4497342599, "lat": 41.925567, "lon": -87.6497422, "tags": {"amenity": "cafe", "name": "Bee & Tea"}}, {"type": "node", "id": 4499383937, "lat": 41.923718, "lon": -87.649649, "tags": {"barrier": "gate"}}, {"type": "node", "id": 4499383938, "lat": 41.9237203, "lon": -87.6495479}, {"type": "node", "id": 4564443501, "lat": 41.9208033, "lon": -87.6373192, "tags": {"addr:postcode": "60614", "amenity": "restaurant", "cuisine": "pizza", "name": "Chicago Pizza and Oven Grinder Co.", "opening_hours": "Mo-Th 16:00-23:00; Fr 16:00-00:00; Sa 11:30-00:00; Su 11:30-23:00", "phone": "7732482570", "website": "http://chicagopizzaandovengrinder.com"}}, {"type": "node", "id": 4726115309, "lat": 41.9259491, "lon": -87.6409341, "tags": {"addr:city": "Chicago", "addr:housenumber": "444", "addr:postcode": "60614", "addr:state": "IL", "addr:street": "West Fullerton Parkway", "amenity": "restaurant", "cuisine": "pizza", "name": "Casati's Pizza Vino", "phone": "+1-773-857-1237", "website": "https://www.cpvino.com/"}}, {"type": "node", "id": 5092612001, "lat": 41.9207184, "lon": -87.6373313, "tags": {"addr:city": "Chicago", "addr:housenumber": "2119", "addr:postcode": "60614", "addr:state": "IL", "addr:street": "North Clark Street", "amenity": "restaurant", "name": "Riccardo Trattoria", "phone": "+1-773-549-0038", "website": "http://www.riccardotrattoria.com/"}}, {"type": "node", "id": 5092612002, "lat": 41.920646, "lon": -87.6376583, "tags": {"addr:city": "Chicago", "addr:housenumber": "2116", "addr:postcode": "60614", "addr:state": "IL", "addr:street": "North Clark Street", "amenity": "restaurant", "name": "Riccardo Enoteca", "phone": "+1-773-549-5010", "website": "http://www.riccardoenoteca.com/"}}, {"type": "node", "id": 5460880257, "lat": 41.9153668, "lon": -87.6345049, "tags": {"addr:city": "Chicago", "addr:housenumber": "1800", "addr:postcode": "60614", "addr:state": "IL", "addr:street": "North Lincoln Avenue", "amenity": "restaurant", "cuisine": "american", "name": "The Kennison", "opening_hours": "Su-Th 17:00-22:00; Fr-Sa 17:00-23:00; Sa-Su 09:00-14:00", "phone": "+1-312-981-7070", "website": "https://www.thekennison.com/"}}, {"type": "node", "id": 5688396721, "lat": 41.9153381, "lon": -87.6344171, "tags": {"addr:city": "Chicago", "addr:housenumber": "1816", "addr:postcode": "60614", "addr:state": "IL", "addr:street": "North Clark Street", "addr:unit": "13", "amenity": "bar", "name": "The J Parker", "opening_hours": "Mo-Th 17:00-00:00; Fr 15:00-02:00; Sa 14:00-02:00; Su 14:00-00:00", "phone": "+1-312-254-4747", "website": "https://www.jparkerchicago.com/"}}, {"type": "node", "id": 6081060319, "lat": 41.9090489, "lon": -87.6342218}, {"type": "node", "id": 6081060321, "lat": 41.9090608, "lon": -87.6343593}, {"type": "node", "id": 6152474394, "lat": 41.9253198, "lon": -87.6554087}, {"type": "node", "id": 6152474396, "lat": 41.9258876, "lon": -87.6544944}, {"type": "node", "id": 6152474397, "lat": 41.9253782, "lon": -87.6523958}, {"type": "node", "id": 6152474398, "lat": 41.9249999, "lon": -87.6523833}, {"type": "node", "id": 6191165327, "lat": 41.9109366, "lon": -87.6358742, "tags": {"addr:city": "Chicago", "addr:housenumber": "227", "addr:postcode": "60610", "addr:state": "IL", "addr:street": "West North Avenue", "amenity": "restaurant", "cuisine": "seafood", "name": "Two Lights Seafood & Oyster", "opening_hours": "Mo-Fr 17:00-22:00; Sa 17:00-23:00; Su 17:00-21:00", "phone": "+1-312-929-3091", "website": "twolightschicago.com"}}, {"type": "node", "id": 6198363142, "lat": 41.9204702, "lon": -87.6487784, "tags": {"addr:city": "Chicago", "addr:housenumber": "2114", "addr:postcode": "60614", "addr:state": "IL", "addr:street": "North Halsted Street", "amenity": "restaurant", "cuisine": "breakfast, american", "name": "Nookies, too", "opening_hours": "Su-Sa 07:00-15:30", "phone": "+1-773-327-1400", "website": "http://www.nookieschicago.com/too_menu.php"}}, {"type": "node", "id": 6221691717, "lat": 41.9152622, "lon": -87.6343853, "tags": {"addr:city": "Chicago", "addr:housenumber": "1816", "addr:postcode": "60614", "addr:state": "IL", "addr:street": "North Clark Street", "amenity": "cafe", "cuisine": "breakfast", "name": "Elaine's Coffee Call", "opening_hours": "Mo-Su 06:30-17:00", "phone": "+1-312-254-4665", "website": "https://www.bokagrp.com/elaines.php"}}, {"type": "node", "id": 6256206803, "lat": 41.9225682, "lon": -87.6443899, "tags": {"addr:city": "Chicago", "addr:housenumber": "2221", "addr:postcode": "60614", "addr:state": "IL", "addr:street": "North Lincoln Avenue", "amenity": "restaurant", "name": "7 Plates Cafe", "phone": "+1-773-687-8817", "website": "https://www.sevenplatescafe.com/"}}, {"type": "node", "id": 6256290024, "lat": 41.9093, "lon": -87.6348661, "tags": {"addr:city": "Chicago", "addr:housenumber": "1500", "addr:postcode": "60610", "addr:state": "IL", "addr:street": "North Wells Street", "amenity": "bar", "name": "80 Proof", "phone": "+1-773-966-0404", "website": "https://80proofchi.com/"}}, {"type": "node", "id": 6261014453, "lat": 41.91169, "lon": -87.6344514, "tags": {"addr:city": "Chicago", "addr:housenumber": "1617", "addr:postcode": "60614", "addr:state": "IL", "addr:street": "North Wells Street", "amenity": "restaurant", "cuisine": "pub;american", "name": "Wells On Wells", "opening_hours": "Mo 17:00-00:00; Tu-Fr 11:30-02:00; Sa 10:30-03:00; Su 10:30-02:00", "phone": "+1-312-944-1617", "website": "https://wellsonwells.com/"}}, {"type": "node", "id": 6261017458, "lat": 41.9113447, "lon": -87.6353526, "tags": {"addr:city": "Chicago", "addr:housenumber": "230", "addr:postcode": "60610", "addr:state": "IL", "addr:street": "West North Avenue", "addr:unit": "2nd Floor", "amenity": "restaurant", "cuisine": "pub;american", "name": "1959 Kitchen & Bar", "opening_hours": "Mo-Th 17:00-00:00; Fr-Sa 17:00-02:00; Su 16:00-00:00", "phone": "+1-312-337-3992", "website": "https://www.secondcity.com/1959"}}, {"type": "node", "id": 6261019535, "lat": 41.9109894, "lon": -87.635527, "tags": {"addr:city": "Chicago", "addr:housenumber": "219", "addr:postcode": "60610", "addr:state": "IL", "addr:street": "West North Avenue", "amenity": "bar", "name": "Old Town Ale House", "opening_hours": "Mo-Fr 15:00-04:00; Sa 12:00-05:00; Su 12:00-04:00", "phone": "+1-312-944-7020", "website": "http://www.theoldtownalehouse.com"}}, {"type": "node", "id": 6261025487, "lat": 41.9090121, "lon": -87.63492, "tags": {"addr:city": "Chicago", "addr:housenumber": "1446", "addr:postcode": "60610", "addr:state": "IL", "addr:street": "North Wells Street", "amenity": "bar", "name": "SUITE Lounge", "phone": "+1-312-787-6103", "website": "http://www.suite-lounge.com"}}, {"type": "node", "id": 6261028501, "lat": 41.909098, "lon": -87.6348744, "tags": {"addr:city": "Chicago", "addr:housenumber": "1448", "addr:postcode": "60610", "addr:state": "IL", "addr:street": "North Wells Street", "amenity": "restaurant", "cuisine": "barbecue;bbq;american;southern", "name": "The Fireplace Inn", "opening_hours": "Tu-Th 16:30-00:00; Fr 11:00-02:00; Sa 11:00-03:00; Su 11:00-00:00", "phone": "+1-312-664-5264", "website": "https://fireplaceinn.com"}}, {"type": "node", "id": 6261029018, "lat": 41.9095177, "lon": -87.6349428, "tags": {"addr:city": "Chicago", "addr:housenumber": "1510", "addr:postcode": "60610", "addr:state": "IL", "addr:street": "North Wells Street", "amenity": "restaurant", "cuisine": "bar;grill", "name": "Benchmark", "opening_hours": "Mo-Fr 17:00-02:00; Sa 10:00-03:00; Su 10:00-02:00", "phone": "+1-312-649-9640", "website": "https://benchmarkchicago.com"}}, {"type": "node", "id": 6261031287, "lat": 41.9082856, "lon": -87.6343138, "tags": {"addr:city": "Chicago", "addr:housenumber": "1419", "addr:postcode": "60610", "addr:state": "IL", "addr:street": "North Wells Street", "amenity": "restaurant", "cuisine": "american", "name": "Old Town Pour House", "opening_hours": "Mo 16:00-23:00; Tu-Th 16:00-00:00; Fr 11:30-02:00; Sa 11:30-03:00; Su 10:30-23:00", "outdoor_seating": "no", "phone": "+1-312-477-2800", "website": "https://www.oldtownpourhouse.com/"}}, {"type": "node", "id": 6261032304, "lat": 41.9082037, "lon": -87.6343058, "tags": {"addr:city": "Chicago", "addr:housenumber": "1421", "addr:postcode": "60610", "addr:state": "IL", "addr:street": "North Wells Street", "amenity": "restaurant", "cuisine": "italian", "name": "Mama Milano Pizza Bar", "opening_hours": "We-Th 16:30-21:30; Fr 16:30-22:30; Sa 11:30-22:30; Su 11:30-21:00", "phone": "+1-312-787-3710", "website": "https://www.mamamilanopizzamenu.com"}}, {"type": "node", "id": 6267385985, "lat": 41.9185677, "lon": -87.6488313, "tags": {"addr:city": "Chicago", "addr:housenumber": "2010", "addr:postcode": "60614", "addr:state": "IL", "addr:street": "North Halsted Street", "amenity": "restaurant", "name": "Blue Door Farm Stand", "phone": "+1-312- 265-0259", "website": "https://bluedoorfarmstand.com/"}}, {"type": "node", "id": 6272419651, "lat": 41.9100648, "lon": -87.6343821, "tags": {"addr:city": "Chicago", "addr:housenumber": "1531", "addr:postcode": "60610", "addr:state": "IL", "addr:street": "North Wells Street", "amenity": "bar", "name": "BATSU! Chicago", "phone": "+1-312-664-3663", "website": "http://batsuchicago.com/"}}, {"type": "node", "id": 6280558497, "lat": 41.9180485, "lon": -87.6456973, "tags": {"addr:city": "Chicago", "addr:housenumber": "655", "addr:postcode": "60614", "addr:state": "IL", "addr:street": "West Armitage Avenue", "amenity": "restaurant", "name": "Cedar Palace", "phone": "+1-312-643-0933", "website": "https://www.cedarpalacechicago.com/"}}, {"type": "node", "id": 6282812182, "lat": 41.9199493, "lon": -87.6418258, "tags": {"addr:city": "Chicago", "addr:housenumber": "507", "addr:postcode": "60614", "addr:state": "IL", "addr:street": "West Dickens Avenue", "amenity": "cafe", "name": "CityGrounds Coffee Bar"}}, {"type": "node", "id": 6283111502, "lat": 41.9126714, "lon": -87.6345196, "tags": {"addr:city": "Chicago", "addr:housenumber": "1651", "addr:postcode": "60614", "addr:state": "IL", "addr:street": "North Wells Street", "amenity": "cafe", "name": "Cocoa + Co.", "phone": "+1-312-624-8540", "website": "https://cocoaandco.com/"}}, {"type": "node", "id": 6283943982, "lat": 41.9177735, "lon": -87.6487892, "tags": {"addr:city": "Chicago", "addr:housenumber": "1962", "addr:postcode": "60614", "addr:state": "IL", "addr:street": "North Halsted Street", "amenity": "restaurant", "cuisine": "seafood", "name": "Crab Cellar", "phone": "+1-773-248-1737", "website": "https://www.crabcellar.com/"}}, {"type": "node", "id": 6284902474, "lat": 41.9092439, "lon": -87.6475313, "tags": {"addr:city": "Chicago", "addr:housenumber": "1538", "addr:postcode": "60642", "addr:state": "IL", "addr:street": "North Clybourn Avenue", "amenity": "restaurant", "cuisine": "american", "name": "Earls Kitchen + Bar", "phone": "+1-312-929-3952", "website": "https://earls.ca/locations/lincoln-park"}}, {"type": "node", "id": 6291060942, "lat": 41.9109045, "lon": -87.6405716, "tags": {"addr:city": "Chicago", "addr:housenumber": "449", "addr:postcode": "60610", "addr:state": "IL", "addr:street": "West North Avenue", "amenity": "restaurant", "name": "Forastero", "phone": "+1-312-265-0322", "website": "https://forastero-llc.mycloveronline.com/"}}, {"type": "node", "id": 6291621644, "lat": 41.9128766, "lon": -87.6485296, "tags": {"addr:city": "Chicago", "addr:housenumber": "1700", "addr:postcode": "60614", "addr:state": "IL", "addr:street": "North Halsted Street", "amenity": "bar", "name": "Front Bar", "phone": "+1-312-649-6880", "website": "http://www.front-bar.com/"}}, {"type": "node", "id": 6291750700, "lat": 41.9182088, "lon": -87.6383858, "tags": {"addr:city": "Chicago", "addr:housenumber": "345", "addr:postcode": "60614", "addr:state": "IL", "addr:street": "West Armitage Avenue", "amenity": "bar", "name": "Gamekeepers Tavern & Grill", "phone": "+1-773-549-0400", "website": "http://gamekeeperschicago.com/"}}, {"type": "node", "id": 6291773197, "lat": 41.918593, "lon": -87.6380077, "tags": {"addr:city": "Chicago", "addr:housenumber": "340", "addr:postcode": "60614", "addr:state": "IL", "addr:street": "West Armitage Avenue", "amenity": "restaurant", "name": "Geja\u2019s Cafe", "phone": "+1-773-281-9101", "website": "https://gejascafe.com/"}}, {"type": "node", "id": 6291778778, "lat": 41.9199929, "lon": -87.6408687, "tags": {"addr:city": "Chicago", "addr:housenumber": "2075", "addr:postcode": "60614", "addr:state": "IL", "addr:street": "North Lincoln Avenue", "amenity": "restaurant", "name": "Gemini", "phone": "+1-773-525-2522", "website": "http://www.geminichicago.com/"}}, {"type": "node", "id": 6292415386, "lat": 41.9239642, "lon": -87.6368939, "tags": {"amenity": "restaurant", "cuisine": "japanese", "email": "nnerone@leye.com", "internet_access": "wlan", "name": "Naoki Sushi", "opening_hours": "Su 17:00-21:00; Mo-Th 17:30-21:00; Fr-Sa 17:30-22:00", "phone": "7738680002", "website": "http://naoki-sushi.com/"}}, {"type": "node", "id": 6294479336, "lat": 41.9081132, "lon": -87.6425061, "tags": {"addr:city": "Chicago", "addr:housenumber": "1416", "addr:postcode": "60610", "addr:state": "IL", "addr:street": "North Mohawk Street", "amenity": "bar", "name": "Hogan, Dean, and Cox", "phone": "+1-314-288-6562"}}, {"type": "node", "id": 6294526485, "lat": 41.9108805, "lon": -87.6393364, "tags": {"addr:city": "Chicago", "addr:housenumber": "417", "addr:postcode": "60610", "addr:state": "IL", "addr:street": "West North Avenue", "amenity": "restaurant", "name": "Hom Mali Thai and Sushi on North Ave", "phone": "+1-312-664-3400", "website": "https://www.hommalichicago.com/"}}, {"type": "node", "id": 6294616307, "lat": 41.9233475, "lon": -87.6460503, "tags": {"addr:city": "Chicago", "addr:housenumber": "2270", "addr:postcode": "60614", "addr:state": "IL", "addr:street": "North Lincoln Avenue", "amenity": "bar", "name": "Hook and Ladder", "phone": "+1-773-857-0546", "website": "http://www.hookandladderchicago.com/"}}, {"type": "node", "id": 6299322085, "lat": 41.9185326, "lon": -87.6373677, "tags": {"addr:city": "Chicago", "addr:housenumber": "322", "addr:postcode": "60614", "addr:state": "IL", "addr:street": "West Armitage Avenue", "amenity": "bar", "name": "Park West", "phone": "+1-773-929-1322", "website": "https://parkwestchicago.com/"}}, {"type": "node", "id": 6300413145, "lat": 41.9257267, "lon": -87.6477665, "tags": {"addr:city": "Chicago", "addr:housenumber": "734", "addr:postcode": "60614", "addr:state": "IL", "addr:street": "West Fullerton Avenue", "amenity": "restaurant", "name": "Philly Bros", "phone": "+1-773-278-2767", "website": "https://www.phillybros.com/"}}, {"type": "node", "id": 6300459970, "lat": 41.9090638, "lon": -87.6508302, "tags": {"addr:city": "Chicago", "addr:housenumber": "1521", "addr:postcode": "60642", "addr:state": "IL", "addr:street": "North Fremont Street", "amenity": "restaurant", "name": "Pizzeria Bebu", "phone": "+1-312-280-6000", "website": "https://bebu.pizza/"}}, {"type": "node", "id": 6301020113, "lat": 41.9181487, "lon": -87.6398708, "tags": {"addr:city": "Chicago", "addr:housenumber": "425", "addr:postcode": "60614", "addr:state": "IL", "addr:street": "West Armitage Avenue", "amenity": "bar", "name": "River Shannon", "phone": "+1-312-944-5087", "website": "https://therivershannon.com/"}}, {"type": "node", "id": 6301720990, "lat": 41.9176217, "lon": -87.6487786, "tags": {"addr:city": "Chicago", "addr:housenumber": "1954", "addr:postcode": "60614", "addr:state": "IL", "addr:street": "North Halsted Street", "amenity": "restaurant", "name": "Stella Barra Pizzeria", "phone": "+1-773-634-4101", "website": "http://stellabarra.com/"}}, {"type": "node", "id": 6301823618, "lat": 41.9086893, "lon": -87.6491398, "tags": {"addr:city": "Chicago", "addr:housenumber": "1501", "addr:postcode": "60642", "addr:state": "IL", "addr:street": "North Dayton Street", "amenity": "bar", "name": "Sully\u2019s House", "phone": "+1-773-244-1234", "website": "https://www.sullyshousechicagoil.com/"}}, {"type": "node", "id": 6302665610, "lat": 41.9183755, "lon": -87.6487346, "tags": {"addr:city": "Chicago", "addr:housenumber": "2002", "addr:postcode": "60614", "addr:state": "IL", "addr:street": "North Halsted Street", "amenity": "bar", "name": "The Store", "phone": "+1-773-327-7766", "website": "http://www.thestoretil4.com/"}}, {"type": "node", "id": 6304176252, "lat": 41.9099123, "lon": -87.6344869, "tags": {"addr:city": "Chicago", "addr:housenumber": "1527", "addr:postcode": "60610", "addr:state": "IL", "addr:street": "North Wells Street", "amenity": "restaurant", "name": "The VIG Chicago", "phone": "+1-312-982-2186", "website": "http://www.thevigchicago.com/"}}, {"type": "node", "id": 6305147152, "lat": 41.9230946, "lon": -87.6451223, "tags": {"addr:city": "Chicago", "addr:housenumber": "2249", "addr:postcode": "60614", "addr:state": "IL", "addr:street": "North Lincoln Avenue", "amenity": "bar", "name": "Tobacco Road Tap Room", "phone": "+1-773-661-6416", "website": "https://www.tobaccoroadchi.com/"}}, {"type": "node", "id": 6305256043, "lat": 41.9187992, "lon": -87.648845, "tags": {"addr:city": "Chicago", "addr:housenumber": "2020", "addr:postcode": "60614", "addr:state": "IL", "addr:street": "North Halsted Street", "amenity": "bar", "name": "The Beaumont", "phone": "+1-773-281-0177"}}, {"type": "node", "id": 6314860238, "lat": 41.9177296, "lon": -87.6483011, "tags": {"addr:city": "Chicago", "addr:housenumber": "1961", "addr:postcode": "60614", "addr:state": "IL", "addr:street": "North Halsted Street", "amenity": "bar", "name": "J9 Wine Bar", "phone": "+1-312-982-2488", "website": "http://www.j9winebar.com/"}}, {"type": "node", "id": 6315204690, "lat": 41.9169023, "lon": -87.6365441, "tags": {"addr:city": "Chicago", "addr:housenumber": "1909", "addr:postcode": "60614", "addr:state": "IL", "addr:street": "North Lincoln Avenue", "amenity": "bar", "name": "The Drop Lounge", "phone": "+1-312-574-0898", "website": "http://www.thedropchicago.com/"}}, {"type": "node", "id": 6315649380, "lat": 41.9248961, "lon": -87.6482983, "tags": {"addr:city": "Chicago", "addr:housenumber": "2364", "addr:postcode": "60614", "addr:state": "IL", "addr:street": "North Lincoln Avenue", "amenity": "restaurant", "name": "The Little Meatball", "phone": "+1-773-360-8496", "website": "https://thelittlemeatball.com/"}}, {"type": "node", "id": 6315706586, "lat": 41.9190822, "lon": -87.6337461, "tags": {"addr:city": "Chicago", "addr:housenumber": "2021", "addr:postcode": "60614", "addr:state": "IL", "addr:street": "North Stockton Drive", "amenity": "cafe", "name": "The Patio at Caf\u00e9 Brauer", "phone": "+1-312-742-2400", "website": "https://www.lpzoo.org/dining/patio-cafe-brauer"}}, {"type": "node", "id": 6316924033, "lat": 41.9139765, "lon": -87.6486439, "tags": {"addr:city": "Chicago", "addr:housenumber": "1800", "addr:postcode": "60614", "addr:state": "IL", "addr:street": "North Halsted Street", "amenity": "restaurant", "name": "Willow Room", "phone": "+1-312-982-2151", "website": "http://www.willowroomchicago.com/"}}, {"type": "node", "id": 6318364009, "lat": 41.909856, "lon": -87.634225, "tags": {"addr:city": "Chicago", "addr:housenumber": "1525", "addr:postcode": "60610", "addr:state": "IL", "addr:street": "North Wells Street", "amenity": "bar", "name": "LG\u2019s Bar", "phone": "+1-312-888-9368", "website": "https://ladygregorys.com/"}}, {"type": "node", "id": 6319154670, "lat": 41.9100715, "lon": -87.6344749, "tags": {"addr:city": "Chicago", "addr:housenumber": "1531", "addr:postcode": "60610", "addr:state": "IL", "addr:street": "North Wells Street", "amenity": "restaurant", "name": "Kamehachi", "phone": "+1-312-664-3663", "website": "http://www.kamehachi.com/"}}, {"type": "node", "id": 6319303665, "lat": 41.9143668, "lon": -87.648564, "tags": {"addr:city": "Chicago", "addr:housenumber": "1816", "addr:postcode": "60614", "addr:state": "IL", "addr:street": "North Halsted Street", "amenity": "restaurant", "name": "King Crab House", "phone": "+1-312-280-8990", "website": "http://kingcrabchicago.com/"}}, {"type": "node", "id": 6319305750, "lat": 41.9082297, "lon": -87.6466173, "tags": {"addr:city": "Chicago", "addr:housenumber": "1500", "addr:postcode": "60610", "addr:state": "IL", "addr:street": "North Clybourn Avenue", "addr:unit": "102", "amenity": "restaurant", "name": "Kings Dining & Entertainment - Chicago Lincoln Park", "phone": "+1-312-973-4920", "website": "https://www.kings-de.com/lincoln-park"}}, {"type": "node", "id": 6319691545, "lat": 41.9094212, "lon": -87.6478311, "tags": {"addr:city": "Chicago", "addr:housenumber": "1538", "addr:postcode": "60610", "addr:state": "IL", "addr:street": "North Clybourn Avenue", "amenity": "restaurant", "name": "Kizuki Ramen & Izakaya", "phone": "+1-312-631-3165", "website": "https://www.kizuki.com/"}}, {"type": "node", "id": 6320003532, "lat": 41.9183019, "lon": -87.6507923, "tags": {"addr:city": "Chicago", "addr:housenumber": "858", "addr:postcode": "60614", "addr:state": "IL", "addr:street": "West Armitage Avenue", "amenity": "cafe", "name": "La Colombe Coffee", "phone": "+1-773-572-9685", "website": "https://www.lacolombe.com/"}}, {"type": "node", "id": 6321478798, "lat": 41.9145918, "lon": -87.6389496, "tags": {"addr:city": "Chicago", "addr:housenumber": "1758", "addr:postcode": "60614", "addr:state": "IL", "addr:street": "North Sedgwick Street", "amenity": "bar", "name": "Marge\u2019s Still", "phone": "+1-312-664-9775", "website": "http://www.margeschicago.com/"}}, {"type": "node", "id": 6322787575, "lat": 41.9242236, "lon": -87.637024, "tags": {"addr:city": "Chicago", "addr:housenumber": "2300", "addr:postcode": "60614", "addr:state": "IL", "addr:street": "North Lincoln Park West", "amenity": "restaurant", "name": "Mon Ami Gabi", "phone": "+1-773-348-8886", "website": "http://www.monamigabi.com/chicago/", "wikidata": "Q6456854", "wikipedia": "en:L2O"}}, {"type": "node", "id": 6323140931, "lat": 41.9235791, "lon": -87.6457972, "tags": {"addr:city": "Chicago", "addr:housenumber": "2273", "addr:postcode": "60614", "addr:state": "IL", "addr:street": "North Lincoln Avenue", "amenity": "cafe", "name": "Nighthawk AM", "phone": "+1-773-697-8899", "website": "https://www.nighthawkam.com/"}}, {"type": "node", "id": 6323193150, "lat": 41.9142731, "lon": -87.6349799, "tags": {"addr:city": "Chicago", "addr:housenumber": "1746", "addr:postcode": "60614", "addr:state": "IL", "addr:street": "North Wells Street", "amenity": "restaurant", "name": "Nookies", "phone": "+1-312-337-2454", "website": "http://www.nookieschicago.com/"}}, {"type": "node", "id": 6324195508, "lat": 41.9177881, "lon": -87.6489419, "tags": {"addr:city": "Chicago", "addr:housenumber": "1962", "addr:postcode": "60614", "addr:state": "IL", "addr:street": "North Halsted Street", "addr:unit": "1", "amenity": "restaurant", "cuisine": "seafood", "name": "Oyster Bah", "phone": "+1-773-248-3000", "website": "http://oysterbah.com/"}}, {"type": "node", "id": 6324352337, "lat": 41.9169476, "lon": -87.6365562, "tags": {"addr:city": "Chicago", "addr:housenumber": "1909", "addr:postcode": "60614", "addr:state": "IL", "addr:street": "North Lincoln Avenue", "amenity": "restaurant", "name": "La Roccia", "phone": "+1-312-255-0851", "website": "https://www.larocciapizza.com/"}}, {"type": "node", "id": 6324601603, "lat": 41.9241811, "lon": -87.6498509}, {"type": "node", "id": 6325995436, "lat": 41.9102129, "lon": -87.6344, "tags": {"addr:city": "Chicago", "addr:housenumber": "1535", "addr:postcode": "60610", "addr:state": "IL", "addr:street": "North Wells Street", "amenity": "restaurant", "name": "Woodie\u2019s Flat", "phone": "+1-312-643-0093", "website": "https://www.woodieschicago.com/"}}, {"type": "node", "id": 6326008885, "lat": 41.9081791, "lon": -87.6465338, "tags": {"addr:city": "Chicago", "addr:housenumber": "1500", "addr:postcode": "60610", "addr:state": "IL", "addr:street": "North Clybourn Avenue", "alcohol": "yes", "amenity": "restaurant", "brand": "Yard House", "brand:wikidata": "Q21189156", "brand:wikipedia": "en:Yard House", "cuisine": "american", "name": "Yard House", "phone": "+1-312-951-7317"}}, {"type": "node", "id": 6326168644, "lat": 41.912159, "lon": -87.6313931, "tags": {"addr:city": "Chicago", "addr:housenumber": "1601", "addr:postcode": "60614", "addr:state": "IL", "addr:street": "North Clark Street", "amenity": "cafe", "name": "North and Clark Caf\u00e9", "phone": "+1-312-799-2121", "website": "https://www.chicagohistory.org/visit/north-clark-cafe/"}}, {"type": "node", "id": 6407268648, "lat": 41.9100061, "lon": -87.6344756, "tags": {"addr:city": "Chicago", "addr:housenumber": "1529", "addr:postcode": "60610", "addr:state": "IL", "addr:street": "North Wells Street", "amenity": "restaurant", "cuisine": "sandwich;dessert", "name": "Bombobar - Old Town", "opening_hours": "Mo-We 08:00-22:00; Fr 08:00-02:30; Sa 09:00-03:30; Su 09:00-22:00", "phone": "+1-312-549-8433", "website": "https://www.bombobar.com"}}, {"type": "node", "id": 6407456510, "lat": 41.9175688, "lon": -87.6486847, "tags": {"addr:city": "Chicago", "addr:housenumber": "1954", "addr:postcode": "60614", "addr:state": "IL", "addr:street": "North Halsted Street", "amenity": "restaurant", "cuisine": "american;californian", "name": "Summer House Santa Monica", "opening_hours": "Mo-Th 11:00-22:00; Fr 11:00-23:00; Sa 08:00-23:00; Su 08:00-22:00", "phone": "+1-773-634-4100", "website": "http://summerhousesm.com"}}, {"type": "node", "id": 6459327382, "lat": 41.9261095, "lon": -87.650008, "tags": {"addr:city": "Chicago", "addr:housenumber": "2432", "addr:postcode": "60614", "addr:state": "IL", "addr:street": "North Lincoln Avenue", "amenity": "restaurant", "cuisine": "american", "name": "Lincoln Station", "phone": "+1-773-472-8100", "website": "http://lincolnstation.com"}}, {"type": "node", "id": 6757774710, "lat": 41.9113754, "lon": -87.6349829, "tags": {"addr:city": "Chicago", "addr:housenumber": "1608", "addr:postcode": "60614", "addr:state": "IL", "addr:street": "North Wells Street", "amenity": "bar", "name": "Utopian Tailgate", "phone": "+1-312-210-7799", "website": "https://www.utopiantailgate.com"}}, {"type": "node", "id": 7070671349, "lat": 41.9241862, "lon": -87.6344252, "tags": {"amenity": "cafe", "name": "Safari Cafe"}}, {"type": "node", "id": 7081204126, "lat": 41.9219136, "lon": -87.6342484, "tags": {"amenity": "cafe", "name": "Eadie Levy's Landmark Caf\u00e9"}}, {"type": "node", "id": 7330251178, "lat": 41.9219485, "lon": -87.6484614, "tags": {"addr:city": "Chicago", "addr:housenumber": "756", "addr:postcode": "60614", "addr:state": "IL", "addr:street": "West Webster Avenue", "amenity": "restaurant", "cuisine": "asian;sushi;thai", "name": "Shine and Rise", "phone": "+1-773-296-0101", "website": "https://www.shinerestaurant.com/"}}, {"type": "way", "id": 26150036, "nodes": [286369237, 416770215, 416770216, 2458410440, 286369226, 417255771, 417255772, 417255773, 417255774, 6152474394, 417255775, 6152474396, 417255776, 286369306, 286369307, 6152474397, 6152474398, 286369308, 308675507, 286369309, 286369232, 286369233, 1983549241, 1983549242, 286369234, 3841977063, 286369235, 286369311, 286369237], "tags": {"amenity": "university", "name": "DePaul University", "operator": "Depaul University", "operator:type": "university", "wheelchair": "yes", "wikipedia": "en:DePaul University"}}, {"type": "way", "id": 32853826, "nodes": [370093716, 307890165, 1983543632, 6324601603, 452377015, 452377016, 307890172, 2348349944, 4499383937, 4499383938, 370093749, 370093752, 370093716], "tags": {"amenity": "university", "name": "DePaul University", "operator": "DePaul University", "operator:type": "university"}}, {"type": "way", "id": 198549082, "nodes": [2086708649, 2086708645, 2086708647, 2086708650, 2086708649], "tags": {"addr:city": "Chicago", "addr:country": "US", "addr:housenumber": "1615", "addr:postcode": "60614", "addr:state": "IL", "addr:street": "North Wells Street", "addr:street:name": "Wells", "addr:street:prefix": "North", "addr:street:type": "Street", "amenity": "bar", "building": "yes", "building:levels": "3", "chicago:building_id": "301050", "name": "Corcoran's Grill & Pub", "opening_hours": "Mo-Fr 11:00-01:30; Sa 10:30-02:30; Su 10:30-01:30", "phone": "+1-312-440-0885", "source": "Bing 2012", "website": "https://www.corcoransoldtown.com/", "wheelchair": "no"}}, {"type": "way", "id": 206585437, "nodes": [2166039857, 2166039862, 2166039861, 2166039854, 2166039855, 2166039857], "tags": {"addr:city": "Chicago", "addr:country": "US", "addr:housenumber": "1552", "addr:postcode": "60610", "addr:state": "IL", "addr:street": "North Wells Street", "addr:street:name": "Wells", "addr:street:prefix": "North", "addr:street:type": "Street", "amenity": "cafe", "building": "yes", "building:levels": "2", "chicago:building_id": "304450", "name": "Kanela Breakfast Club", "phone": "+1-312-255-1206", "source": "Bing 2012", "website": "http://kanelacafe.com/"}}, {"type": "way", "id": 210315354, "nodes": [2203998741, 2203998749, 2203998788, 2203998793, 2203998747, 2203998741], "tags": {"addr:housenumber": "1548", "addr:street": "North Larrabee Street", "addr:street:name": "Larrabee", "addr:street:prefix": "North", "addr:street:type": "Street", "amenity": "restaurant", "building": "yes", "building:levels": "1", "chicago:building_id": "305179", "cuisine": "burger"}}, {"type": "way", "id": 210316907, "nodes": [2204018237, 2204018278, 2204018019, 2204018017, 2204017997, 2204018237], "tags": {"addr:housenumber": "2010", "addr:street": "North Halsted Street", "addr:street:name": "Halsted", "addr:street:prefix": "North", "addr:street:type": "Street", "amenity": "restaurant", "building": "yes", "building:levels": "2", "chicago:building_id": "822495"}}, {"type": "way", "id": 210317387, "nodes": [2204024213, 2204024436, 2204024451, 2204024332, 2204024246, 2204024213], "tags": {"addr:city": "Chicago", "addr:housenumber": "2100", "addr:postcode": "60614", "addr:state": "IL", "addr:street": "North Halsted Street", "addr:street:name": "Halsted", "addr:street:prefix": "North", "addr:street:type": "Street", "amenity": "restaurant", "building": "yes", "chicago:building_id": "277405", "name": "Chez Moi", "phone": "+1-773-871-2100", "website": "https://www.chezmoichicago.com/"}}, {"type": "way", "id": 210318212, "nodes": [2204034784, 2204034779, 2204034445, 2204034519, 2204034575, 2204035015, 2607221928, 2204034784], "tags": {"addr:housenumber": "2254-2264", "addr:street": "North Lincoln Avenue", "addr:street:name": "Lincoln", "addr:street:prefix": "North", "addr:street:type": "Avenue", "amenity": "cafe", "building": "yes", "chicago:building_id": "851014", "name": "Countryside Cafe"}}, {"type": "way", "id": 210318223, "nodes": [2204035573, 2204036024, 2204035943, 2204036056, 2204036147, 2204036347, 2204036210, 2204035410, 2204035573], "tags": {"addr:city": "Chicago", "addr:country": "US", "addr:housenumber": "2269", "addr:postcode": "60614", "addr:street": "North Lincoln Avenue", "addr:street:name": "Lincoln", "addr:street:prefix": "North", "addr:street:type": "Avenue", "amenity": "restaurant", "building": "yes", "chicago:building_id": "851040", "cuisine": "vietnamese", "name": "Simply it", "smoking": "no", "website": "http://www.chicagosimplyit.com/"}}, {"type": "way", "id": 210318550, "nodes": [2986607620, 2203998973, 2203998933, 2203998935, 2203998908, 2203998910, 2203998812, 2203998811, 2203998712, 2203998709, 2203998810, 2986607620], "tags": {"addr:city": "Chicago", "addr:housenumber": "855", "addr:postcode": "60642", "addr:state": "IL", "addr:street": "West North Avenue", "addr:street:name": "North", "addr:street:prefix": "West", "addr:street:type": "Avenue", "amenity": "restaurant", "building": "yes", "chicago:building_id": "304440", "cuisine": "mexican", "name": "Uncle Julio's"}}, {"type": "way", "id": 210318903, "nodes": [2203998691, 2203998611, 2203998642, 2203998719, 2203998691], "tags": {"addr:city": "Chicago", "addr:housenumber": "1582", "addr:postcode": "60642", "addr:state": "IL", "addr:street": "North Clybourn Avenue", "amenity": "restaurant", "building": "yes", "chicago:building_id": "878191", "name": "Sono Wood Fired"}}, {"type": "way", "id": 210321368, "nodes": [2204045359, 2204045454, 2204045543, 2204045627, 2204046188, 2204045854, 2204045359], "tags": {"addr:city": "Chicago", "addr:housenumber": "2424", "addr:postcode": "60614", "addr:state": "IL", "addr:street": "North Lincoln Avenue", "addr:street:name": "Lincoln", "addr:street:prefix": "North", "addr:street:type": "Avenue", "amenity": "bar", "building": "yes", "building:levels": "2", "chicago:building_id": "260077", "name": "Lincoln Hall", "phone": "+1-773-525-2501", "website": "http://www.lh-st.com/", "wikidata": "Q6550694", "wikipedia": "en:Lincoln Hall (Chicago)"}}, {"type": "way", "id": 210322882, "nodes": [2204045265, 2204045344, 2204045352, 2204044972, 2204044971, 2204044944, 2204044941, 2204045107, 2204045130, 2204045252, 2204045265], "tags": {"addr:city": "Chicago", "addr:housenumber": "738", "addr:postcode": "60614", "addr:street": "West Fullerton Avenue", "addr:street:name": "Fullerton", "addr:street:prefix": "West", "addr:street:type": "Avenue", "amenity": "cafe", "building": "yes", "chicago:building_id": "850377", "name": "Bourgeois Pig Cafe", "opening_hours": "Mo-Sa 07:00-22:00; Su 08:00-22:00", "phone": "+1 773-883-5282", "website": "http://bpigcafe.com/"}}, {"type": "way", "id": 210684661, "nodes": [2393465796, 2207637813, 6081060321, 2207637819, 2207637782, 6081060319, 2207637785, 2207637826, 2207637827, 2207637706, 2207637705, 2207637696, 2393465797, 2393465796], "tags": {"addr:city": "Chicago", "addr:housenumber": "1447", "addr:postcode": "60610", "addr:state": "IL", "addr:street": "North Wells Street", "addr:street:name": "Wells", "addr:street:prefix": "North", "addr:street:type": "Street", "amenity": "bar", "building": "yes", "building:levels": "3", "chicago:building_id": "309192", "name": "Burton Place", "phone": "+1-312-664-4699"}}, {"type": "way", "id": 210684734, "nodes": [2207638564, 2207638657, 2207638661, 2207638569, 2207638564], "tags": {"addr:housenumber": "1507", "addr:street": "North Sedgwick Street", "addr:street:name": "Sedgwick", "addr:street:prefix": "North", "addr:street:type": "Street", "amenity": "restaurant", "building": "yes", "building:levels": "1", "chicago:building_id": "815577", "cuisine": "chinese", "name": "Lan's China Bistro"}}, {"type": "way", "id": 210684816, "nodes": [2207639310, 2207638967, 2207638968, 2207638957, 2207638953, 2207639299, 2207639310], "tags": {"addr:housenumber": "1525-1527", "addr:street": "North Wells Street", "addr:street:name": "Wells", "addr:street:prefix": "North", "addr:street:type": "Street", "amenity": "bar", "building": "yes", "building:levels": "1", "chicago:building_id": "815256"}}, {"type": "way", "id": 210684908, "nodes": [2207640485, 2207640351, 2207640348, 2207640358, 2207640378, 2207640380, 2207640484, 2207640485], "tags": {"addr:housenumber": "157", "addr:street": "West North Avenue", "addr:street:name": "North", "addr:street:prefix": "West", "addr:street:type": "Avenue", "amenity": "restaurant", "building": "yes", "building:levels": "2", "chicago:building_id": "815206"}}, {"type": "way", "id": 210686862, "nodes": [2207658071, 2207658059, 2207658063, 2207658045, 2207658053, 2207658054, 2207658068, 2207658073, 2207658069, 2207658070, 2207658074, 2207658086, 2207658084, 2207658094, 2207658071], "tags": {"addr:city": "Chicago", "addr:housenumber": "2326", "addr:postcode": "60614", "addr:state": "IL", "addr:street": "North Clark Street", "addr:street:name": "Clark", "addr:street:prefix": "North", "addr:street:type": "Street", "amenity": "bar", "building": "yes", "building:levels": "3", "chicago:building_id": "866325", "name": "Ravens", "phone": "+1-773-348-1774", "website": "ravenschicago.com"}}, {"type": "way", "id": 240217310, "nodes": [2479668244, 2479668242, 2479668243, 2479668245, 2479668244], "tags": {"addr:city": "Chicago", "addr:housenumber": "1447", "addr:postcode": "60610", "addr:state": "IL", "addr:street": "North Sedgwick Street", "addr:street:name": "Sedgwick", "addr:street:prefix": "North", "addr:street:type": "Street", "amenity": "cafe", "building": "yes", "name": "Eva's Cafe", "phone": "+1-312-280-8900", "website": "https://evascafeoldtown.com/"}}, {"type": "relation", "id": 2527861, "members": [{"type": "way", "ref": 26150036, "role": "outer"}, {"type": "way", "ref": 32853826, "role": "outer"}], "tags": {"amenity": "university", "name": "DePaul University", "type": "multipolygon"}}]}