{"version": 0.6, "generator": "Overpass API 0.7.56.3 eb200aeb", "osm3s": {"timestamp_osm_base": "2020-07-04T02:34:02Z", "copyright": "The data included in this document is from www.openstreetmap.org. The data is made available under ODbL."}, "elements": [{"type": "node", "id": 34877708, "lat": 41.9204448, "lon": -87.694344}, {"type": "node", "id": 34877709, "lat": 41.918438, "lon": -87.6910759}, {"type": "node", "id": 34877711, "lat": 41.9159812, "lon": -87.6870645, "tags": {"name": "Western", "network": "CTA", "operator": "Chicago Transit Authority", "public_transport": "stop_position", "railway": "stop", "subway": "yes"}}, {"type": "node", "id": 258282968, "lat": 41.9258971, "lon": -87.7033574}, {"type": "node", "id": 258282969, "lat": 41.9253248, "lon": -87.7024136}, {"type": "node", "id": 258282970, "lat": 41.9242887, "lon": -87.7007116}, {"type": "node", "id": 1282296244, "lat": 41.9216326, "lon": -87.6962535}, {"type": "node", "id": 1282296250, "lat": 41.9162829, "lon": -87.6874563}, {"type": "node", "id": 1282296292, "lat": 41.9221445, "lon": -87.6970834, "tags": {"name": "California", "network": "CTA", "operator": "Chicago Transit Authority", "public_transport": "stop_position", "railway": "stop", "subway": "yes"}}, {"type": "node", "id": 1282296303, "lat": 41.9248197, "lon": -87.7015347}, {"type": "node", "id": 1282296339, "lat": 41.9256878, "lon": -87.702967}, {"type": "node", "id": 1282296350, "lat": 41.9168846, "lon": -87.6884461}, {"type": "node", "id": 1282296364, "lat": 41.9184433, "lon": -87.6910232}, {"type": "node", "id": 1282296369, "lat": 41.9220155, "lon": -87.6969301, "tags": {"name": "California", "network": "CTA", "operator": "Chicago Transit Authority", "public_transport": "stop_position", "railway": "stop", "subway": "yes"}}, {"type": "node", "id": 1282296375, "lat": 41.9175991, "lon": -87.6896231}, {"type": "node", "id": 1282296381, "lat": 41.9206427, "lon": -87.6946254}, {"type": "node", "id": 1282296410, "lat": 41.9259235, "lon": -87.7033303}, {"type": "node", "id": 1282296415, "lat": 41.9241411, "lon": -87.7004082}, {"type": "node", "id": 1282296431, "lat": 41.9154908, "lon": -87.6862997}, {"type": "node", "id": 1282296435, "lat": 41.9233189, "lon": -87.6990483}, {"type": "node", "id": 1585419572, "lat": 41.9212374, "lon": -87.67314, "tags": {"addr:city": "Chicago", "addr:housenumber": "1809", "addr:postcode": "60614", "addr:state": "IL", "addr:street": "West Webster Avenue", "amenity": "cafe", "cuisine": "coffee_shop", "name": "Little Beans", "phone": "+1-773-251-1025", "website": "https://littlebeanscafe.com/"}}, {"type": "node", "id": 1585420540, "lat": 41.9220517, "lon": -87.6734351, "tags": {"addr:housenumber": "2222", "addr:postcode": "60614", "addr:street": "North Elston Avenue", "amenity": "restaurant", "cuisine": "sandwich", "name": "The Goddess and Grocer", "website": "http://www.goddessandgrocer.com/elston.php"}}, {"type": "node", "id": 1585423403, "lat": 41.9212295, "lon": -87.6779251, "tags": {"addr:housenumber": "2158", "addr:street": "North Damen Avenue", "amenity": "cafe", "cuisine": "coffee_shop", "name": "Bucktown Beanery", "wifi": "free"}}, {"type": "node", "id": 1585425015, "lat": 41.9250199, "lon": -87.6874251, "tags": {"addr:city": "Chicago", "addr:housenumber": "2401", "addr:postcode": "60647", "addr:street": "North Western Avenue", "amenity": "bar", "name": "Quenchers"}}, {"type": "node", "id": 1685093555, "lat": 41.9198795, "lon": -87.6804824, "tags": {"addr:city": "Chicago", "addr:housenumber": "2076", "addr:postcode": "60647", "addr:state": "IL", "addr:street": "North Hoyne Avenue", "amenity": "bar", "name": "Charleston", "phone": "+1-773-489-4757", "website": "https://www.charlestonchicago.com/"}}, {"type": "node", "id": 1699464559, "lat": 41.9178252, "lon": -87.6795216, "tags": {"amenity": "restaurant", "name": "Jack & Ginger's"}}, {"type": "node", "id": 1699464583, "lat": 41.9175667, "lon": -87.677763, "tags": {"addr:city": "Chicago", "addr:housenumber": "1958", "addr:postcode": "60647", "addr:state": "IL", "addr:street": "North Damen Avenue", "amenity": "restaurant", "cuisine": "french", "name": "Le Bouchon", "phone": "+1-773-862-6600", "website": "http://www.lebouchonofchicago.com/"}}, {"type": "node", "id": 1699464827, "lat": 41.9175758, "lon": -87.6802739, "tags": {"amenity": "cafe", "brand": "Starbucks", "brand:wikidata": "Q37158", "brand:wikipedia": "en:Starbucks", "cuisine": "coffee_shop", "name": "Starbucks", "takeaway": "yes"}}, {"type": "node", "id": 1700855290, "lat": 41.9174886, "lon": -87.6851722, "tags": {"addr:city": "Chicago", "addr:housenumber": "1944", "addr:postcode": "60647", "addr:state": "IL", "addr:street": "North Oakley Avenue", "amenity": "bar", "name": "Floyd's Pub", "phone": "+1-773-276-6060", "website": "http://floydspub.net/"}}, {"type": "node", "id": 2075140759, "lat": 41.9166407, "lon": -87.688114}, {"type": "node", "id": 2090182927, "lat": 41.9160063, "lon": -87.6870338, "tags": {"name": "Western", "network": "CTA", "operator": "Chicago Transit Authority", "public_transport": "stop_position", "railway": "stop", "subway": "yes"}}, {"type": "node", "id": 2166647920, "lat": 41.9142308, "lon": -87.6843331}, {"type": "node", "id": 2166647923, "lat": 41.9142442, "lon": -87.6842874}, {"type": "node", "id": 2196202720, "lat": 41.9176585, "lon": -87.6872249}, {"type": "node", "id": 2196202730, "lat": 41.9176651, "lon": -87.6869235}, {"type": "node", "id": 2196202841, "lat": 41.9177261, "lon": -87.6872275}, {"type": "node", "id": 2196202858, "lat": 41.9177353, "lon": -87.6869261}, {"type": "node", "id": 2196203152, "lat": 41.9178575, "lon": -87.6872324}, {"type": "node", "id": 2196203213, "lat": 41.9178665, "lon": -87.6869311}, {"type": "node", "id": 2196206485, "lat": 41.9187496, "lon": -87.6872131}, {"type": "node", "id": 2196206495, "lat": 41.9187509, "lon": -87.6870606}, {"type": "node", "id": 2196206652, "lat": 41.9188065, "lon": -87.6872141}, {"type": "node", "id": 2196206656, "lat": 41.9188078, "lon": -87.6870616}, {"type": "node", "id": 2196211921, "lat": 41.9197956, "lon": -87.6878427}, {"type": "node", "id": 2196211927, "lat": 41.9197964, "lon": -87.6877379}, {"type": "node", "id": 2196212294, "lat": 41.9198464, "lon": -87.687844}, {"type": "node", "id": 2196212302, "lat": 41.9198486, "lon": -87.6877393}, {"type": "node", "id": 2196700902, "lat": 41.9250337, "lon": -87.6882088}, {"type": "node", "id": 2196700904, "lat": 41.9250341, "lon": -87.6880416}, {"type": "node", "id": 2196701484, "lat": 41.9252423, "lon": -87.6882104}, {"type": "node", "id": 2196701487, "lat": 41.9252432, "lon": -87.688135}, {"type": "node", "id": 2196702206, "lat": 41.9254038, "lon": -87.6881371}, {"type": "node", "id": 2196702217, "lat": 41.9254046, "lon": -87.688047}, {"type": "node", "id": 2196706116, "lat": 41.9257969, "lon": -87.6882581}, {"type": "node", "id": 2196706176, "lat": 41.925807, "lon": -87.6878611}, {"type": "node", "id": 2196706393, "lat": 41.9258614, "lon": -87.6882611}, {"type": "node", "id": 2196706420, "lat": 41.9258701, "lon": -87.6878641}, {"type": "node", "id": 2200242724, "lat": 41.9182738, "lon": -87.682951}, {"type": "node", "id": 2200242734, "lat": 41.918279, "lon": -87.6826497}, {"type": "node", "id": 2200242950, "lat": 41.9183383, "lon": -87.6829522}, {"type": "node", "id": 2200243001, "lat": 41.9183448, "lon": -87.6826527}, {"type": "node", "id": 2671405828, "lat": 41.9175718, "lon": -87.680526, "tags": {"amenity": "restaurant", "cuisine": "cuban", "name": "Cafe Laguardia"}}, {"type": "node", "id": 3572612797, "lat": 41.9250761, "lon": -87.6878723, "tags": {"amenity": "restaurant", "name": "Fullerton Restaurant", "opening_hours": "Mo-Su 05:30-16:00"}}, {"type": "node", "id": 3572965495, "lat": 41.930495, "lon": -87.6884158}, {"type": "node", "id": 3572965496, "lat": 41.9304414, "lon": -87.6884153}, {"type": "node", "id": 3572965497, "lat": 41.9304429, "lon": -87.6880311}, {"type": "node", "id": 3572965498, "lat": 41.9305022, "lon": -87.6880326}, {"type": "node", "id": 3575036693, "lat": 41.9182746, "lon": -87.6851707, "tags": {"addr:city": "Chicago", "addr:housenumber": "2020", "addr:postcode": "60647", "addr:state": "IL", "addr:street": "North Oakley Avenue", "amenity": "bar", "name": "The Gallery Cabaret", "phone": "+1-773-489-5471", "website": "https://www.gallerycabaret.com/"}}, {"type": "node", "id": 3575150416, "lat": 41.918645, "lon": -87.6872335, "tags": {"addr:city": "Chicago", "addr:housenumber": "2035", "addr:postcode": "60647", "addr:state": "IL", "addr:street": "North Western Avenue", "amenity": "cafe", "cuisine": "coffee_shop", "name": "Ipsento", "phone": "+1-773-904-8177", "website": "http://ipsento.com/"}}, {"type": "node", "id": 3575150418, "lat": 41.9201039, "lon": -87.687727, "tags": {"amenity": "restaurant", "cuisine": "pizza", "name": "John's Pizzeria"}}, {"type": "node", "id": 3575150419, "lat": 41.9227343, "lon": -87.6873596, "tags": {"amenity": "restaurant", "cuisine": "mexican", "name": "Quesadilla la Reyna del Sur"}}, {"type": "node", "id": 3575150420, "lat": 41.9226026, "lon": -87.6877914, "tags": {"amenity": "restaurant", "cuisine": "mexican", "name": "Birrieria Estilo Jalisco"}}, {"type": "node", "id": 3575152789, "lat": 41.9222677, "lon": -87.6877992, "tags": {"addr:city": "Chicago", "addr:housenumber": "2218", "addr:postcode": "60647", "addr:state": "IL", "addr:street": "North Western Avenue", "amenity": "bar", "name": "Tap Room", "phone": "+1-773-489-3622"}}, {"type": "node", "id": 3575496171, "lat": 41.9176357, "lon": -87.6778131, "tags": {"addr:city": "Chicago", "addr:housenumber": "1960", "addr:postcode": "60647", "addr:state": "IL", "addr:street": "North Damen Avenue", "amenity": "restaurant", "cuisine": "japanese", "name": "Izakaya Mita", "phone": "+1-773-799-8677", "website": "http://www.izakayamita.com/"}}, {"type": "node", "id": 3660929434, "lat": 41.9249859, "lon": -87.6706571, "tags": {"addr:city": "Chicago", "addr:housenumber": "1665", "addr:street": "West Fullerton Avenue", "amenity": "bar", "name": "Liars Club", "opening_hours": "Su-Fr 20:00-04:00; Sa 20:00-03:00", "phone": "+1-773-665-1110"}}, {"type": "node", "id": 3660929470, "lat": 41.9250279, "lon": -87.687063, "tags": {"addr:city": "Chicago", "addr:housenumber": "2346", "addr:postcode": "60647", "addr:state": "IL", "addr:street": "West Fullerton Avenue", "amenity": "restaurant", "name": "Estrella Negra", "phone": "+1-773-227-5993", "website": "http://estrellanegra.com/"}}, {"type": "node", "id": 3660929473, "lat": 41.9257822, "lon": -87.6874761, "tags": {"amenity": "restaurant", "name": "Sonny's Pizza"}}, {"type": "node", "id": 3791781401, "lat": 41.9212458, "lon": -87.6745362}, {"type": "node", "id": 3791781402, "lat": 41.9212687, "lon": -87.6745054}, {"type": "node", "id": 3791781403, "lat": 41.9213604, "lon": -87.6745054}, {"type": "node", "id": 3791781404, "lat": 41.9213833, "lon": -87.6735657}, {"type": "node", "id": 3791781405, "lat": 41.9209615, "lon": -87.6735626}, {"type": "node", "id": 3791781406, "lat": 41.9209615, "lon": -87.6736334}, {"type": "node", "id": 3791781407, "lat": 41.9209088, "lon": -87.6736797}, {"type": "node", "id": 3791781408, "lat": 41.9208881, "lon": -87.6736396}, {"type": "node", "id": 3791781409, "lat": 41.9207941, "lon": -87.6737351}, {"type": "node", "id": 3863402374, "lat": 41.9310911, "lon": -87.6850726, "tags": {"amenity": "restaurant", "brand": "Pei Wei", "brand:wikidata": "Q7160898", "brand:wikipedia": "en:Pei Wei Asian Diner", "cuisine": "asian", "name": "Pei Wei"}}, {"type": "node", "id": 3863476802, "lat": 41.9215071, "lon": -87.6788359, "tags": {"addr:city": "Chicago", "addr:housenumber": "2026", "addr:postcode": "60647", "addr:state": "IL", "addr:street": "West Webster Avenue", "amenity": "bar", "name": "Burke\u2019s Web Pub", "phone": "+1-773-276-3411"}}, {"type": "node", "id": 3863476803, "lat": 41.9220332, "lon": -87.6828391, "tags": {"addr:city": "Chicago", "addr:housenumber": "2224", "addr:postcode": "60647", "addr:state": "IL", "addr:street": "North Leavitt Street", "amenity": "bar", "name": "The Corner Bar", "website": "http://cornerbarchicago.com/"}}, {"type": "node", "id": 5092756819, "lat": 41.925504, "lon": -87.6723414, "tags": {"amenity": "cafe", "brand": "Starbucks", "brand:wikidata": "Q37158", "brand:wikipedia": "en:Starbucks", "cuisine": "coffee_shop", "name": "Starbucks", "official_name": "Starbucks Coffee", "takeaway": "yes"}}, {"type": "node", "id": 6258328991, "lat": 41.9169917, "lon": -87.6774345, "tags": {"addr:city": "Chicago", "addr:housenumber": "1935", "addr:postcode": "60647", "addr:state": "IL", "addr:street": "North Damen Avenue", "amenity": "restaurant", "name": "6 Degrees", "phone": "+1-773-904-8812", "website": "https://www.6degreesbucktown.com/"}}, {"type": "node", "id": 6263471199, "lat": 41.9286184, "lon": -87.6715995, "tags": {"addr:city": "Chicago", "addr:housenumber": "1721", "addr:postcode": "60614", "addr:state": "IL", "addr:street": "West Wrightwood Avenue", "amenity": "bar", "name": "Augie\u2019s", "phone": "+1-773-296-0018", "website": "http://augiesbooze.homestead.com/"}}, {"type": "node", "id": 6282647776, "lat": 41.925444, "lon": -87.6792724, "tags": {"addr:city": "Chicago", "addr:housenumber": "2444", "addr:postcode": "60647", "addr:state": "IL", "addr:street": "North Elston Avenue", "amenity": "cafe", "name": "Chromium", "phone": "+1-773-235-2300", "website": "https://www.midtown.com/chicago"}}, {"type": "node", "id": 6283090050, "lat": 41.9189969, "lon": -87.6773565, "tags": {"addr:city": "Chicago", "addr:housenumber": "2045", "addr:postcode": "60647", "addr:state": "IL", "addr:street": "North Damen Avenue", "amenity": "restaurant", "name": "Coast Sushi Bar", "phone": "+1-773-235-5775", "website": "http://www.coastsushi.net/"}}, {"type": "node", "id": 6284097746, "lat": 41.9194305, "lon": -87.6772409, "tags": {"addr:city": "Chicago", "addr:housenumber": "1951", "addr:postcode": "60647", "addr:state": "IL", "addr:street": "West Dickens Avenue", "amenity": "bar", "name": "Danny\u2019s Tavern", "phone": "+1-773-489-6457"}}, {"type": "node", "id": 6285013873, "lat": 41.9179598, "lon": -87.6789791, "tags": {"addr:city": "Chicago", "addr:housenumber": "2032", "addr:postcode": "60647", "addr:state": "IL", "addr:street": "West Armitage Avenue", "amenity": "bar", "name": "Ed and Jean\u2019s Tavern", "phone": "+1-773-851-8054", "website": "http://www.edandjeanstavern.com/"}}, {"type": "node", "id": 6291799872, "lat": 41.9179762, "lon": -87.6773811, "tags": {"addr:city": "Chicago", "addr:housenumber": "1954", "addr:postcode": "60622", "addr:state": "IL", "addr:street": "West Armitage Avenue", "amenity": "bar", "name": "Gigi\u2019s Kitchen", "phone": "+1-773-799-8290", "website": "https://www.gigischicago.com/"}}, {"type": "node", "id": 6300841827, "lat": 41.9226924, "lon": -87.6878062, "tags": {"addr:city": "Chicago", "addr:housenumber": "2234", "addr:postcode": "60647", "addr:state": "IL", "addr:street": "North Western Avenue", "amenity": "restaurant", "cuisine": "mexican", "name": "Restaurante El Comalito", "phone": "+1-773-666-5558"}}, {"type": "node", "id": 6300965222, "lat": 41.920137, "lon": -87.6779363, "tags": {"addr:city": "Chicago", "addr:housenumber": "2118", "addr:postcode": "60647", "addr:state": "IL", "addr:street": "North Damen Avenue", "amenity": "restaurant", "name": "The Royal Grocer & Co", "phone": "+1-773-904-7805", "website": "http://www.royalgrocer.com/"}}, {"type": "node", "id": 6305261850, "lat": 41.9178287, "lon": -87.6843751, "tags": {"addr:city": "Chicago", "addr:housenumber": "2246", "addr:postcode": "60647", "addr:state": "IL", "addr:street": "West Armitage Avenue", "amenity": "restaurant", "name": "The Bento Box", "phone": "+1-773-278-3932"}}, {"type": "node", "id": 6306494893, "lat": 41.9210516, "lon": -87.6779871, "tags": {"addr:city": "Chicago", "addr:housenumber": "2152", "addr:postcode": "60647", "addr:state": "IL", "addr:street": "North Damen Avenue", "amenity": "restaurant", "name": "The Bristol", "phone": "+1-773-862-5555", "website": "http://www.thebristolchicago.com/"}}, {"type": "node", "id": 6315663847, "lat": 41.917591, "lon": -87.6798155, "tags": {"addr:city": "Chicago", "addr:housenumber": "1949", "addr:postcode": "60647", "addr:state": "IL", "addr:street": "North Hoyne Avenue", "amenity": "bar", "name": "The Map Room", "phone": "+1-773-252-7636", "website": "http://www.maproom.com/"}}, {"type": "node", "id": 6323737136, "lat": 41.9189197, "lon": -87.6877538, "tags": {"addr:city": "Chicago", "addr:housenumber": "2044", "addr:postcode": "60647", "addr:state": "IL", "addr:street": "North Western Avenue", "amenity": "bar", "name": "O\u2019s Tap", "phone": "+1-773-850-5451"}}, {"type": "node", "id": 6324263888, "lat": 41.9231811, "lon": -87.6879259, "tags": {"addr:city": "Chicago", "addr:housenumber": "2252", "addr:postcode": "60647", "addr:state": "IL", "addr:street": "North Western Avenue", "amenity": "restaurant", "cuisine": "cuban", "name": "Paladar", "phone": "+1-773-252-4747", "website": "http://paladarchicago.com/"}}, {"type": "node", "id": 7185921676, "lat": 41.9174218, "lon": -87.6879726, "tags": {"addr:city": "Chicago", "addr:housenumber": "1965", "addr:postcode": "60647", "addr:state": "IL", "addr:street": "North Milwaukee Avenue", "amenity": "cafe", "name": "Chicago Board Game Cafe", "phone": "+1-(224) 208-5346", "website": "https://www.chicagogamecafe.com"}}, {"type": "node", "id": 7411640772, "lat": 41.9212534, "lon": -87.6731346, "tags": {"amenity": "cafe", "name": "Little Beans Cafe & Playspace"}}, {"type": "way", "id": 59343237, "nodes": [258282968, 258282969, 258282970, 1282296369, 34877708, 34877709, 2075140759, 34877711, 1282296431, 2166647920], "tags": {"bridge": "yes", "electrified": "rail", "frequency": "0", "gauge": "1435", "layer": "2", "name": "O'Hare Branch", "old_name": "Logan Square Branch", "oneway": "yes", "operator": "Chicago Transit Authority", "railway": "subway", "voltage": "600"}}, {"type": "way", "id": 112926174, "nodes": [2166647923, 2090182927, 1282296250, 1282296350, 1282296375, 1282296364, 1282296381, 1282296244, 1282296292, 1282296435, 1282296415, 1282296303, 1282296339, 1282296410], "tags": {"bridge": "yes", "electrified": "rail", "frequency": "0", "gauge": "1435", "name": "O'Hare Branch", "oneway": "yes", "operator": "Chicago Transit Authority", "railway": "subway", "voltage": "600"}}, {"type": "way", "id": 209403724, "nodes": [2196202841, 2196202858, 2196202730, 2196202720, 2196202841], "tags": {"addr:housenumber": "2001", "addr:street": "North Western Avenue", "addr:street:name": "Western", "addr:street:prefix": "North", "addr:street:type": "Avenue", "amenity": "restaurant", "building": "yes", "building:levels": "1", "chicago:building_id": "831855", "cuisine": "mexican", "name": "Arturo's Tacos"}}, {"type": "way", "id": 209403727, "nodes": [2196203152, 2196203213, 2196202858, 2196202841, 2196203152], "tags": {"addr:housenumber": "2003", "addr:street": "North Western Avenue", "addr:street:name": "Western", "addr:street:prefix": "North", "addr:street:type": "Avenue", "amenity": "restaurant", "building": "yes", "building:levels": "1", "chicago:building_id": "831857", "cuisine": "mexican", "name": "Lazo's"}}, {"type": "way", "id": 209403858, "nodes": [2196206485, 2196206652, 2196206656, 2196206495, 2196206485], "tags": {"addr:housenumber": "2041", "addr:postcode": "60647", "addr:street": "North Western Avenue", "addr:street:name": "Western", "addr:street:prefix": "North", "addr:street:type": "Avenue", "amenity": "restaurant", "building": "yes", "building:levels": "2", "chicago:building_id": "282784", "cuisine": "chicken", "name": "The Art of Chicken"}}, {"type": "way", "id": 209404000, "nodes": [2196211921, 2196212294, 2196212302, 2196211927, 2196211921], "tags": {"addr:housenumber": "2072-2076", "addr:street": "North Western Avenue", "addr:street:name": "Western", "addr:street:prefix": "North", "addr:street:type": "Avenue", "amenity": "restaurant", "building": "yes", "building:levels": "1", "chicago:building_id": "279088", "cuisine": "Hot_dog,Polish sausage,Fried shrimp", "name": "Red Hot Ranch", "note": "Cash only.  There is an atm outside."}}, {"type": "way", "id": 209454070, "nodes": [2196700902, 2196701484, 2196701487, 2196702206, 2196702217, 2196700904, 2196700902], "tags": {"addr:housenumber": "2410", "addr:street": "West Fullerton Avenue", "addr:street:name": "Fullerton", "addr:street:prefix": "West", "addr:street:type": "Avenue", "amenity": "bar", "building": "yes", "building:levels": "2", "chicago:building_id": "262840", "name": "Logan Arcade"}}, {"type": "way", "id": 209454230, "nodes": [2196706116, 2196706393, 2196706420, 2196706176, 2196706116], "tags": {"addr:housenumber": "2428", "addr:street": "North Western Avenue", "addr:street:name": "Western", "addr:street:prefix": "North", "addr:street:type": "Avenue", "amenity": "bar", "building": "yes", "building:levels": "1", "chicago:building_id": "261401", "name": "The Mutiny"}}, {"type": "way", "id": 209868352, "nodes": [2200242724, 2200242950, 2200243001, 2200242734, 2200242724], "tags": {"addr:city": "Chicago", "addr:housenumber": "2020", "addr:postcode": "60647", "addr:state": "IL", "addr:street": "North Leavitt Street", "addr:street:name": "Leavitt", "addr:street:prefix": "North", "addr:street:type": "Street", "amenity": "cafe", "building": "yes", "building:levels": "2", "chicago:building_id": "284167", "name": "Red June", "phone": "+1-773-227-2600", "website": "http://www.redjunecafe.com/"}}, {"type": "way", "id": 351505403, "nodes": [3572965495, 3572965496, 3572965497, 3572965498, 3572965495], "tags": {"addr:city": "Chicago", "addr:housenumber": "2700", "addr:postcode": "60647", "addr:state": "IL", "addr:street": "North Western Avenue", "amenity": "restaurant", "building": "yes", "cuisine": "british", "name": "Owen & Engine", "phone": "+1-773-235-2930", "website": "https://www.owenandengine.com"}}, {"type": "way", "id": 375835721, "nodes": [3791781401, 3791781402, 3791781403, 3791781404, 3791781405, 3791781406, 3791781407, 3791781408, 3791781409, 3791781401], "tags": {"amenity": "bar", "building": "yes", "building:levels": "2", "name": "WhirlyBall"}}]}