{"version": 0.6, "generator": "Overpass API 0.7.56.3 eb200aeb", "osm3s": {"timestamp_osm_base": "2020-07-21T20:14:03Z", "copyright": "The data included in this document is from www.openstreetmap.org. The data is made available under ODbL."}, "elements": [{"type": "node", "id": 6282450641, "lat": 41.8952918, "lon": -87.7142823, "tags": {"addr:city": "Chicago", "addr:housenumber": "3507", "addr:postcode": "60651", "addr:state": "IL", "addr:street": "West Chicago Avenue", "amenity": "cafe", "cuisine": "coffee_shop", "name": "Chicago Fitness & Nutrition", "phone": "+1-773-704-9447"}}, {"type": "node", "id": 6284761828, "lat": 41.895383, "lon": -87.7081531, "tags": {"addr:city": "Chicago", "addr:housenumber": "3241", "addr:postcode": "60651", "addr:state": "IL", "addr:street": "West Chicago Avenue", "amenity": "bar", "name": "Dr J\u2019s Place", "phone": "+1-773-826-2140"}}, {"type": "node", "id": 6320092758, "lat": 41.9057749, "lon": -87.7119373, "tags": {"addr:city": "Chicago", "addr:housenumber": "1340", "addr:postcode": "60651", "addr:state": "IL", "addr:street": "North Homan Avenue", "amenity": "restaurant", "name": "La Palma Puerto Rican Restaurant", "phone": "+1-773-862-0886", "website": "http://ww5.lapalmarestaurant.com/"}}, {"type": "node", "id": 6324081032, "lat": 41.8956915, "lon": -87.7143237, "tags": {"addr:city": "Chicago", "addr:housenumber": "3506", "addr:postcode": "60651", "addr:state": "IL", "addr:street": "West Chicago Avenue", "amenity": "cafe", "name": "Oooh Wee! Sweet Tea", "website": "https://www.ooohweesweettea.com/locations"}}]}