{"version": 0.6, "generator": "Overpass API 0.7.56.1004 6cd3eaec", "osm3s": {"timestamp_osm_base": "2020-07-21T23:44:02Z", "copyright": "The data included in this document is from www.openstreetmap.org. The data is made available under ODbL."}, "elements": [{"type": "node", "id": 2789559110, "lat": 41.764449, "lon": -87.5647229, "tags": {"addr:city": "Chicago", "addr:housenumber": "7201", "addr:postcode": "60649", "addr:state": "IL", "addr:street": "South Exchange Avenue", "amenity": "cafe", "name": "Chef Sara's Cafe", "phone": "+1-773-359-4637", "website": "http://www.chefsarascafe.com/index.html"}}, {"type": "node", "id": 3270811823, "lat": 41.7648242, "lon": -87.5651133, "tags": {"amenity": "bar", "name": "Tom's"}}, {"type": "node", "id": 5635711630, "lat": 41.7626616, "lon": -87.5767553, "tags": {"addr:housenumber": "1966", "addr:street": "East 73rd Street", "amenity": "restaurant", "cuisine": "vegetarian", "name": "Good Foods Vegan/Vegetarian Deli", "website": "https://www.facebook.com/pages/Good-Foods-VeganVegetarian-Deli/407099532698141"}}, {"type": "node", "id": 6154484266, "lat": 41.758862, "lon": -87.5670137, "tags": {"addr:city": "Chicago", "addr:housenumber": "2347", "addr:postcode": "60649", "addr:state": "IL", "addr:street": "East 75th Street", "amenity": "restaurant", "cuisine": "jamaican", "name": "Taste Jamaica"}}, {"type": "node", "id": 6283066010, "lat": 41.7589794, "lon": -87.5870686, "tags": {"addr:city": "Chicago", "addr:housenumber": "1530", "addr:postcode": "60619", "addr:state": "IL", "addr:street": "East 75th Street", "amenity": "bar", "name": "Club Escape", "phone": "+1-773-599-9372"}}, {"type": "node", "id": 6294310786, "lat": 41.7513951, "lon": -87.5789625, "tags": {"addr:city": "Chicago", "addr:housenumber": "1849", "addr:postcode": "60649", "addr:state": "IL", "addr:street": "East 79th Street", "amenity": "cafe", "name": "Heritage Cafe", "phone": "+1-773-530-0045", "website": "https://heritage1849.com/"}}, {"type": "node", "id": 6301778282, "lat": 41.7472739, "lon": -87.5861365, "tags": {"addr:city": "Chicago", "addr:housenumber": "8114", "addr:postcode": "60617", "addr:state": "IL", "addr:street": "South Stony Island Avenue", "amenity": "cafe", "name": "Stony\u2019s Palace Cafe", "phone": "+1-773-978-4535", "website": "https://www.stonyspalace.com/"}}]}