{"version": 0.6, "generator": "Overpass API 0.7.56.3 eb200aeb", "osm3s": {"timestamp_osm_base": "2020-07-04T04:55:03Z", "copyright": "The data included in this document is from www.openstreetmap.org. The data is made available under ODbL."}, "elements": [{"type": "node", "id": 757813580, "lat": 41.9775729, "lon": -87.688747, "tags": {"amenity": "restaurant", "cuisine": "korean, sushi, japanese", "name": "San Soo Gab San"}}, {"type": "node", "id": 2197680023, "lat": 41.9901869, "lon": -87.6936354}, {"type": "node", "id": 2197680024, "lat": 41.9901876, "lon": -87.6935104}, {"type": "node", "id": 2197680090, "lat": 41.9903337, "lon": -87.6936376}, {"type": "node", "id": 2197680094, "lat": 41.9903358, "lon": -87.6935125}, {"type": "node", "id": 5714331232, "lat": 41.9787636, "lon": -87.692894, "tags": {"addr:city": "Chicago", "addr:housenumber": "5336", "addr:postcode": "60625", "addr:state": "IL", "addr:street": "North Lincoln Avenue", "amenity": "bar", "description": "dive bar, karaoke", "name": "Hidden Cove", "phone": "+1-773-275-6711"}}, {"type": "node", "id": 5714336861, "lat": 41.9818853, "lon": -87.6936097, "tags": {"addr:city": "Chicago", "addr:housenumber": "5526", "addr:postcode": "60625", "addr:state": "IL", "addr:street": "North Lincoln Avenue", "amenity": "bar", "description": "Karaoke venue, private rooms", "name": "Lincoln Karaoke", "phone": "+1-773-895-2299", "website": "https://www.lincolnkaraokechicago.com/"}}, {"type": "node", "id": 6267337249, "lat": 41.9902594, "lon": -87.6935794, "tags": {"addr:city": "Chicago", "addr:housenumber": "2535", "addr:postcode": "60659", "addr:state": "IL", "addr:street": "West Peterson Avenue", "amenity": "bar", "name": "Black Sheep", "phone": "+1-773-561-6674"}}, {"type": "node", "id": 6269858125, "lat": 41.9790793, "lon": -87.6929126, "tags": {"addr:city": "Chicago", "addr:housenumber": "5350", "addr:postcode": "60625", "addr:state": "IL", "addr:street": "North Lincoln Avenue", "amenity": "cafe", "name": "Cafe Utjeha", "phone": "+1-773-907-8853"}}, {"type": "node", "id": 6272493132, "lat": 41.9819119, "lon": -87.6936136, "tags": {"addr:city": "Chicago", "addr:housenumber": "5530", "addr:postcode": "60625", "addr:state": "IL", "addr:street": "North Lincoln Avenue", "amenity": "cafe", "name": "Bel-Ami", "phone": "+1-773-878-2808"}}, {"type": "node", "id": 6292149074, "lat": 41.9902257, "lon": -87.6929357, "tags": {"addr:city": "Chicago", "addr:housenumber": "2519", "addr:postcode": "60659", "addr:state": "IL", "addr:street": "West Peterson Avenue", "amenity": "bar", "name": "Greenlight Korean Pub & Karaoke", "phone": "+1-872-806-2014", "website": "https://www.greenlightchicago.com/"}}, {"type": "node", "id": 6304058604, "lat": 41.9846509, "lon": -87.697141, "tags": {"addr:city": "Chicago", "addr:housenumber": "5665", "addr:postcode": "60659", "addr:state": "IL", "addr:street": "North Lincoln Avenue", "amenity": "restaurant", "name": "The Angry Crab", "phone": "+1-773-784-6848", "website": "http://www.theangrycrabchicago.com/"}}, {"type": "node", "id": 6323173022, "lat": 41.9871996, "lon": -87.701334, "tags": {"addr:city": "Chicago", "addr:housenumber": "5801", "addr:postcode": "60659", "addr:state": "IL", "addr:street": "North Lincoln Avenue", "amenity": "cafe", "name": "Ninveh", "phone": "+1-773-654-1763"}}, {"type": "way", "id": 209570116, "nodes": [2197680023, 2197680090, 2197680094, 2197680024, 2197680023], "tags": {"addr:city": "Chicago", "addr:housenumber": "2335", "addr:postcode": "60659", "addr:state": "IL", "addr:street": "West Peterson Avenue", "addr:street:name": "Peterson", "addr:street:prefix": "West", "addr:street:type": "Avenue", "amenity": "bar", "building": "yes", "chicago:building_id": "42771", "name": "Black Sheep", "phone": "+1-773-561-6674"}}]}