{"version": 0.6, "generator": "Overpass API 0.7.56.3 eb200aeb", "osm3s": {"timestamp_osm_base": "2020-07-04T02:46:02Z", "copyright": "The data included in this document is from www.openstreetmap.org. The data is made available under ODbL."}, "elements": [{"type": "node", "id": 261137171, "lat": 41.789634, "lon": -87.5947984}, {"type": "node", "id": 261139500, "lat": 41.7896618, "lon": -87.5915553}, {"type": "node", "id": 261139501, "lat": 41.7896475, "lon": -87.593169}, {"type": "node", "id": 261192510, "lat": 41.7932495, "lon": -87.5981069}, {"type": "node", "id": 261192511, "lat": 41.7914254, "lon": -87.5980749}, {"type": "node", "id": 261202782, "lat": 41.7914457, "lon": -87.59646, "tags": {"highway": "traffic_signals"}}, {"type": "node", "id": 1569129786, "lat": 41.7923579, "lon": -87.5980945}, {"type": "node", "id": 1575900981, "lat": 41.799602, "lon": -87.5945746}, {"type": "node", "id": 1587772175, "lat": 41.7886413, "lon": -87.5915309}, {"type": "node", "id": 1655451070, "lat": 41.8000422, "lon": -87.59524, "tags": {"addr:housenumber": "1236", "addr:street": "East 53rd Street", "amenity": "restaurant", "cuisine": "italian", "name": "Leona's"}}, {"type": "node", "id": 1655576384, "lat": 41.7995902, "lon": -87.5944784}, {"type": "node", "id": 1655576411, "lat": 41.7996559, "lon": -87.5944804}, {"type": "node", "id": 1655576534, "lat": 41.7997437, "lon": -87.5944817}, {"type": "node", "id": 1655576543, "lat": 41.7997429, "lon": -87.5945752}, {"type": "node", "id": 1655576582, "lat": 41.7995891, "lon": -87.5945744}, {"type": "node", "id": 1674040525, "lat": 41.7896504, "lon": -87.5928392}, {"type": "node", "id": 1685262396, "lat": 41.7904707, "lon": -87.5956245}, {"type": "node", "id": 1685262407, "lat": 41.7896407, "lon": -87.5939861}, {"type": "node", "id": 1685262428, "lat": 41.7896269, "lon": -87.5956037}, {"type": "node", "id": 1685262461, "lat": 41.7914529, "lon": -87.5956491}, {"type": "node", "id": 1685296310, "lat": 41.7914355, "lon": -87.5972717}, {"type": "node", "id": 1888612339, "lat": 41.7993839, "lon": -87.5889162, "tags": {"amenity": "restaurant", "cuisine": "italian", "name": "Pizza Capri"}}, {"type": "node", "id": 1888621190, "lat": 41.7996938, "lon": -87.5886587, "tags": {"amenity": "restaurant", "cuisine": "american", "name": "Mellow Yellow"}}, {"type": "node", "id": 1888650523, "lat": 41.79522, "lon": -87.5969439, "tags": {"addr:city": "Chicago", "addr:housenumber": "1172", "addr:postcode": "60615", "addr:state": "IL", "addr:street": "East 55th Street", "amenity": "bar", "name": "Woodlawn Tap", "phone": "+1-773-643-5516"}}, {"type": "node", "id": 1888650528, "lat": 41.7952167, "lon": -87.5967215, "tags": {"addr:city": "Chicago", "addr:housenumber": "1174", "addr:postcode": "60615", "addr:state": "IL", "addr:street": "East 55th Street", "amenity": "cafe", "brand": "Starbucks", "brand:wikidata": "Q37158", "brand:wikipedia": "en:Starbucks", "cuisine": "coffee_shop", "name": "Starbucks", "official_name": "Starbucks Coffee", "takeaway": "yes", "wheelchair": "no"}}, {"type": "node", "id": 1924565982, "lat": 41.7966977, "lon": -87.5996599}, {"type": "node", "id": 1924566154, "lat": 41.7954267, "lon": -87.5996308}, {"type": "node", "id": 1925417584, "lat": 41.7966019, "lon": -87.5981729}, {"type": "node", "id": 1925417585, "lat": 41.7954409, "lon": -87.5981418}, {"type": "node", "id": 2212461863, "lat": 41.7990502, "lon": -87.5903004}, {"type": "node", "id": 2212461871, "lat": 41.7990532, "lon": -87.5901225}, {"type": "node", "id": 2212461882, "lat": 41.7990601, "lon": -87.5901224}, {"type": "node", "id": 2212461885, "lat": 41.7990612, "lon": -87.5900912}, {"type": "node", "id": 2212462061, "lat": 41.7991828, "lon": -87.5903036}, {"type": "node", "id": 2212462065, "lat": 41.7991859, "lon": -87.5900953}, {"type": "node", "id": 2269174583, "lat": 41.7965929, "lon": -87.5988896}, {"type": "node", "id": 2269174586, "lat": 41.7967123, "lon": -87.5988965}, {"type": "node", "id": 2269174589, "lat": 41.796076, "lon": -87.5981588}, {"type": "node", "id": 2380367815, "lat": 41.7877878, "lon": -87.6059295}, {"type": "node", "id": 2380367821, "lat": 41.7912756, "lon": -87.606037}, {"type": "node", "id": 2530062637, "lat": 41.7952204, "lon": -87.5971259, "tags": {"addr:city": "Chicago", "addr:housenumber": "1162", "addr:state": "IL", "addr:street": "East 55th Street", "amenity": "restaurant", "cuisine": "kebab;middle_eastern", "name": "Nile Restaurant"}}, {"type": "node", "id": 3259301888, "lat": 41.7949312, "lon": -87.5981693}, {"type": "node", "id": 4114593404, "lat": 41.7999422, "lon": -87.5960664, "tags": {"addr:city": "Chicago", "addr:housenumber": "1206", "addr:postcode": "60615", "addr:state": "IL", "addr:street": "East 53rd Street", "amenity": "restaurant", "cuisine": "middle_eastern", "name": "Cedars Mediterranean Kitchen"}}, {"type": "node", "id": 4114640708, "lat": 41.799405, "lon": -87.5899259, "tags": {"addr:city": "Chicago", "addr:housenumber": "1447", "addr:postcode": "60615", "addr:state": "IL", "addr:street": "East 53rd Street", "amenity": "restaurant", "brand": "Nando's", "brand:wikidata": "Q3472954", "brand:wikipedia": "en:Nando's", "cuisine": "chicken;portuguese", "name": "Nando's"}}, {"type": "node", "id": 4114640709, "lat": 41.799425, "lon": -87.5895057, "tags": {"addr:city": "Chicago", "addr:housenumber": "1459", "addr:postcode": "60615", "addr:state": "IL", "addr:street": "East 53rd Street", "amenity": "restaurant", "cuisine": "indian", "name": "Rajun Cajun"}}, {"type": "node", "id": 4114640710, "lat": 41.799426, "lon": -87.5886398, "tags": {"addr:city": "Chicago", "addr:housenumber": "1509", "addr:postcode": "60615", "addr:state": "IL", "addr:street": "East 53rd Street", "amenity": "restaurant", "cuisine": "asian", "name": "Chant"}}, {"type": "node", "id": 5045399746, "lat": 41.7952195, "lon": -87.5970509, "tags": {"addr:city": "Chicago", "addr:housenumber": "1164", "addr:postcode": "60615", "addr:street": "East 55th Street", "amenity": "restaurant", "cuisine": "asian;latin_american", "name": "Saucy Porka", "phone": "+1 773 891 0429"}}, {"type": "node", "id": 5322743176, "lat": 41.7925886, "lon": -87.6060695}, {"type": "node", "id": 5526419551, "lat": 41.7948159, "lon": -87.6005655, "tags": {"addr:city": "Chicago", "addr:housenumber": "1055", "addr:postcode": "60637", "addr:state": "IL", "addr:street": "East 55th Street", "amenity": "bar", "leisure": "bowling_alley", "name": "Seven Ten Lanes"}}, {"type": "node", "id": 5526420067, "lat": 41.7958829, "lon": -87.5985012, "tags": {"amenity": "restaurant", "name": "LSTC Refectory"}}, {"type": "node", "id": 5526423170, "lat": 41.799339, "lon": -87.5948596, "tags": {"addr:housenumber": "1301", "addr:street": "East 53rd Street", "amenity": "restaurant", "cuisine": "bbq;fried_chicken", "name": "Budlong Hot Chicken"}}, {"type": "node", "id": 5526428402, "lat": 41.7955036, "lon": -87.5886172, "tags": {"amenity": "restaurant", "cuisine": "french", "name": "La Petit Folie"}}, {"type": "node", "id": 5545781672, "lat": 41.7879529, "lon": -87.5902808}, {"type": "node", "id": 5545781673, "lat": 41.7884906, "lon": -87.5915292}, {"type": "node", "id": 5545781674, "lat": 41.7885077, "lon": -87.5902419}, {"type": "node", "id": 5545781677, "lat": 41.788231, "lon": -87.5902281}, {"type": "node", "id": 5545781678, "lat": 41.7882433, "lon": -87.589449}, {"type": "node", "id": 5546046954, "lat": 41.7884909, "lon": -87.5915063}, {"type": "node", "id": 5546046956, "lat": 41.7879605, "lon": -87.5894438}, {"type": "node", "id": 5546076600, "lat": 41.7905388, "lon": -87.5956262}, {"type": "node", "id": 5622914298, "lat": 41.794856, "lon": -87.6060849}, {"type": "node", "id": 5706244256, "lat": 41.7996677, "lon": -87.5893002, "tags": {"addr:city": "Chicago", "addr:housenumber": "1462", "addr:postcode": "60615", "addr:state": "IL", "addr:street": "East 53rd Street", "amenity": "restaurant", "cuisine": "southern", "name": "Virtue", "phone": "+1-773-947-8831", "website": "https://www.virtuerestaurant.com"}}, {"type": "node", "id": 5773659979, "lat": 41.799642, "lon": -87.5943698, "tags": {"addr:city": "Chicago", "addr:housenumber": "1312", "addr:postcode": "60615", "addr:state": "IL", "addr:street": "East 53rd Street", "amenity": "restaurant", "cuisine": "pizza;italian;japanese;sandwich", "name": "Sitdown Cafe and Sushi Bar", "outdoor_seating": "yes"}}, {"type": "node", "id": 5773775704, "lat": 41.7948754, "lon": -87.5987636, "tags": {"addr:city": "Chicago", "addr:housenumber": "1125", "addr:postcode": "60637", "addr:state": "IL", "addr:street": "East 55th Street", "amenity": "restaurant", "cuisine": "pizza;italian", "name": "Nella Pizza e Pasta"}}, {"type": "node", "id": 5885767564, "lat": 41.7949763, "lon": -87.5981734}, {"type": "node", "id": 5973273795, "lat": 41.7993786, "lon": -87.591926, "tags": {"addr:city": "Chicago", "addr:housenumber": "5300", "addr:postcode": "60615", "addr:state": "IL", "addr:street": "South Dorchester Avenue", "amenity": "restaurant", "cuisine": "mexican", "name": "Hyde Park Taco Station", "website": "http://hptacostation.com/"}}, {"type": "node", "id": 6297644045, "lat": 41.801484, "lon": -87.5889339, "tags": {"addr:city": "Chicago", "addr:housenumber": "5121", "addr:postcode": "60615", "addr:state": "IL", "addr:street": "South Harper Avenue", "amenity": "bar", "name": "The Hyde"}}, {"type": "node", "id": 6303886441, "lat": 41.7948785, "lon": -87.5989799, "tags": {"addr:city": "Chicago", "addr:housenumber": "1115", "addr:postcode": "60615", "addr:state": "IL", "addr:street": "East 55th Street", "amenity": "cafe", "name": "Te\u2019amo Boba Bar", "phone": "+1-773-947-6547", "website": "http://teamobobabar.com/"}}, {"type": "node", "id": 6314468408, "lat": 41.7996538, "lon": -87.5924057, "tags": {"addr:city": "Chicago", "addr:housenumber": "1368", "addr:postcode": "60615", "addr:state": "IL", "addr:street": "East 53rd Street", "amenity": "restaurant", "cuisine": "soul", "name": "The Soul Shack"}}, {"type": "node", "id": 6322586993, "lat": 41.7992767, "lon": -87.5915431, "tags": {"addr:city": "Chicago", "addr:housenumber": "1411", "addr:postcode": "60615", "addr:state": "IL", "addr:street": "East 53rd Street", "amenity": "bar", "name": "Mesler Kitchen | Bar | Lounge", "phone": "+1-773-289-1005", "website": "https://sophyhotel.com/mesler-kitchen"}}, {"type": "node", "id": 6632496503, "lat": 41.7948858, "lon": -87.5991911, "tags": {"addr:city": "Chicago", "addr:housenumber": "1105", "addr:postcode": "60637", "addr:state": "IL", "addr:street": "East 55th Street", "amenity": "cafe", "brand": "Insomnia", "brand:wikidata": "Q6038271", "brand:wikipedia": "en:Insomnia Coffee Company", "cuisine": "coffee_shop", "name": "Insomnia", "takeaway": "yes"}}, {"type": "node", "id": 6848141104, "lat": 41.7999965, "lon": -87.5965105, "tags": {"addr:city": "Chicago", "addr:housenumber": "5231", "addr:postcode": "60615", "addr:state": "IL", "addr:street": "South Woodlawn Avenue", "amenity": "restaurant", "cuisine": "chinese", "name": "Nicky's Chinese Food", "opening_hours": "Mo-Su 10:30-0:00", "phone": "773-324-5340"}}, {"type": "node", "id": 6848164610, "lat": 41.8022989, "lon": -87.5894227, "tags": {"addr:city": "Chicago", "addr:housenumber": "1461", "addr:postcode": "60615", "addr:state": "IL", "addr:street": "East Hyde Park Boulevard", "amenity": "restaurant", "cuisine": "chicken;caribbean", "name": "Uncle Joe's Jerk Chieken", "phone": "773-241-5550"}}, {"type": "node", "id": 7244535738, "lat": 41.7889594, "lon": -87.5915385}, {"type": "way", "id": 145510728, "nodes": [5885767564, 5622914298, 5322743176, 2380367821, 2380367815, 5545781672, 5546046956, 5545781678, 5545781677, 5545781674, 5546046954, 5545781673, 1587772175, 7244535738, 261139500, 1674040525, 261139501, 1685262407, 261137171, 1685262428, 1685262396, 5546076600, 1685262461, 261202782, 1685296310, 261192511, 1569129786, 261192510, 3259301888, 5885767564], "tags": {"addr:city": "Chicago", "addr:housenumber": "5801", "addr:postcode": "60637", "addr:state": "IL", "addr:street": "South Ellis Avenue", "amenity": "university", "name": "The University of Chicago", "phone": "+1 773.702.1234", "website": "https://uchicago.edu", "wikidata": "Q131252", "wikipedia": "en:University of Chicago"}}, {"type": "way", "id": 152775893, "nodes": [1655576543, 1655576534, 1655576411, 1655576384, 1655576582, 1575900981, 1655576543], "tags": {"addr:city": "Chicago", "addr:housenumber": "1310", "addr:postcode": "60615", "addr:state": "IL", "addr:street": "East 53rd Street", "amenity": "restaurant", "building": "yes", "capacity": "20", "cuisine": "mexican", "delivery": "no", "name": "Antoni 1 Grill & Catering", "takeaway": "yes"}}, {"type": "way", "id": 182197318, "nodes": [1925417584, 2269174589, 1925417585, 1924566154, 1924565982, 2269174586, 2269174583, 1925417584], "tags": {"amenity": "university", "name": "Lutheran School of Theology", "wikidata": "Q6705732", "wikipedia": "en:Lutheran School of Theology at Chicago"}}, {"type": "way", "id": 211224886, "nodes": [2212462061, 2212462065, 2212461885, 2212461882, 2212461871, 2212461863, 2212462061], "tags": {"addr:city": "Chicago", "addr:housenumber": "5311", "addr:postcode": "60615", "addr:state": "IL", "addr:street": "South Blackstone Avenue", "addr:street:name": "Blackstone", "addr:street:prefix": "South", "addr:street:type": "Avenue", "amenity": "restaurant", "brand": "Giordano's Pizzeria", "brand:wikidata": "Q5563393", "brand:wikipedia": "en:Giordano's Pizzeria", "building": "retail", "building:levels": "1", "chicago:building_id": "867937", "cuisine": "pizza", "name": "Giordano's Pizzeria"}}]}