{"version": 0.6, "generator": "Overpass API 0.7.56.1004 6cd3eaec", "osm3s": {"timestamp_osm_base": "2020-07-22T04:41:02Z", "copyright": "The data included in this document is from www.openstreetmap.org. The data is made available under ODbL."}, "elements": [{"type": "node", "id": 370884554, "lat": 41.9469749, "lon": -87.6566688, "tags": {"amenity": "bar", "name": "Cubby Bear"}}, {"type": "node", "id": 370884874, "lat": 41.9501029, "lon": -87.6590892, "tags": {"addr:city": "Chicago", "addr:housenumber": "3740", "addr:postcode": "60613", "addr:state": "IL", "addr:street": "North Clark Street", "amenity": "bar", "name": "The Ginger Man Tavern", "phone": "+1-773-549-2050", "wifi": "free"}}, {"type": "node", "id": 903249436, "lat": 41.9492099, "lon": -87.6497345, "tags": {"amenity": "restaurant", "cuisine": "american", "name": "Kit Kat Club"}}, {"type": "node", "id": 903249885, "lat": 41.9477497, "lon": -87.6473849, "tags": {"addr:city": "Chicago", "addr:country": "US", "addr:housenumber": "3617", "addr:postcode": "60613", "addr:state": "IL", "addr:street": "North Broadway", "amenity": "restaurant", "name": "Waffles"}}, {"type": "node", "id": 903251602, "lat": 41.9471033, "lon": -87.6469665, "tags": {"addr:city": "Chicago", "addr:housenumber": "3561", "addr:postcode": "60657", "addr:state": "IL", "addr:street": "North Broadway", "amenity": "restaurant", "cuisine": "italian", "name": "Angelina's Italian Restaurant", "phone": "+1-773-935-5933", "website": "http://www.angelinaristorante.com/"}}, {"type": "node", "id": 949089361, "lat": 41.9499295, "lon": -87.6490719, "tags": {"amenity": "bar", "name": "Charlie's Chicago"}}, {"type": "node", "id": 949092165, "lat": 41.9486448, "lon": -87.6493831, "tags": {"amenity": "bar", "name": "Circuit"}}, {"type": "node", "id": 1239986384, "lat": 41.9501152, "lon": -87.649398, "tags": {"amenity": "bar", "name": "North End"}}, {"type": "node", "id": 1239986677, "lat": 41.9499795, "lon": -87.6494034, "tags": {"amenity": "bar", "name": "Bobby Love's"}}, {"type": "node", "id": 1700860713, "lat": 41.958567, "lon": -87.6534433, "tags": {"amenity": "bar", "name": "Bar On Buena"}}, {"type": "node", "id": 1707846189, "lat": 41.9486953, "lon": -87.6582381}, {"type": "node", "id": 1707846196, "lat": 41.9487477, "lon": -87.6582605}, {"type": "node", "id": 1707846198, "lat": 41.948767, "lon": -87.6581776}, {"type": "node", "id": 1707846203, "lat": 41.9488222, "lon": -87.6579582}, {"type": "node", "id": 1707846206, "lat": 41.9488702, "lon": -87.6582268}, {"type": "node", "id": 1707846207, "lat": 41.9488731, "lon": -87.6579926}, {"type": "node", "id": 1720016522, "lat": 41.9490961, "lon": -87.6582546, "tags": {"amenity": "restaurant", "cuisine": "burger", "name": "Rockit Burger Bar", "wifi": "no"}}, {"type": "node", "id": 2204135999, "lat": 41.9509993, "lon": -87.6499852}, {"type": "node", "id": 2204136014, "lat": 41.9510034, "lon": -87.6497536}, {"type": "node", "id": 2204136027, "lat": 41.9510083, "lon": -87.6501285}, {"type": "node", "id": 2204136034, "lat": 41.9510102, "lon": -87.6499851}, {"type": "node", "id": 2204136136, "lat": 41.9510797, "lon": -87.6501295}, {"type": "node", "id": 2204136138, "lat": 41.9510857, "lon": -87.6497545}, {"type": "node", "id": 2204138385, "lat": 41.9521128, "lon": -87.6416191}, {"type": "node", "id": 2204138496, "lat": 41.9521595, "lon": -87.6415833}, {"type": "node", "id": 2204138516, "lat": 41.95217, "lon": -87.6416082}, {"type": "node", "id": 2204138542, "lat": 41.952184, "lon": -87.6415975}, {"type": "node", "id": 2204138555, "lat": 41.9521947, "lon": -87.6418128}, {"type": "node", "id": 2204138587, "lat": 41.9522086, "lon": -87.6418022}, {"type": "node", "id": 2204138628, "lat": 41.9522185, "lon": -87.6418257}, {"type": "node", "id": 2204138719, "lat": 41.9522654, "lon": -87.6417899}, {"type": "node", "id": 2204141516, "lat": 41.9542939, "lon": -87.6553395}, {"type": "node", "id": 2204141519, "lat": 41.9542963, "lon": -87.6552807}, {"type": "node", "id": 2204141590, "lat": 41.954358, "lon": -87.6552855}, {"type": "node", "id": 2204141593, "lat": 41.9543694, "lon": -87.6553461}, {"type": "node", "id": 2204141595, "lat": 41.9543718, "lon": -87.6552964}, {"type": "node", "id": 2204571338, "lat": 41.9585321, "lon": -87.6536806}, {"type": "node", "id": 2204571339, "lat": 41.9585321, "lon": -87.6536898}, {"type": "node", "id": 2204571340, "lat": 41.9585337, "lon": -87.6532633}, {"type": "node", "id": 2204571342, "lat": 41.958535, "lon": -87.6532504}, {"type": "node", "id": 2204571344, "lat": 41.9585351, "lon": -87.6532688}, {"type": "node", "id": 2204571348, "lat": 41.9585377, "lon": -87.6536971}, {"type": "node", "id": 2204571349, "lat": 41.9585391, "lon": -87.6532393}, {"type": "node", "id": 2204571351, "lat": 41.9585432, "lon": -87.6536988}, {"type": "node", "id": 2204571352, "lat": 41.9585459, "lon": -87.6536988}, {"type": "node", "id": 2204571353, "lat": 41.9585473, "lon": -87.6532319}, {"type": "node", "id": 2204571359, "lat": 41.9585569, "lon": -87.6532281}, {"type": "node", "id": 2204571363, "lat": 41.9585665, "lon": -87.6532317}, {"type": "node", "id": 2204571534, "lat": 41.9586557, "lon": -87.6536995}, {"type": "node", "id": 2204571535, "lat": 41.958656, "lon": -87.6535193}, {"type": "node", "id": 2204571929, "lat": 41.9589411, "lon": -87.6536983}, {"type": "node", "id": 2204571938, "lat": 41.9589467, "lon": -87.6534813}, {"type": "node", "id": 2761669109, "lat": 41.9511963, "lon": -87.659943, "tags": {"amenity": "restaurant", "name": "Uncommon Ground", "website": "https://www.uncommonground.com/"}}, {"type": "node", "id": 2868859570, "lat": 41.9579418, "lon": -87.6496329, "tags": {"addr:city": "Chicago", "addr:housenumber": "4181", "addr:postcode": "60613", "addr:state": "IL", "addr:street": "North Clarendon Avenue", "amenity": "cafe", "internet_access": "yes", "name": "Dollop Coffee", "opening_hours": "07:00-20:00", "phone": "+1-773-360-1366", "smoking": "outside", "website": "https://dollop.coffee/"}}, {"type": "node", "id": 3485449403, "lat": 41.9470511, "lon": -87.646931, "tags": {"addr:city": "Chicago", "addr:housenumber": "3555", "addr:postcode": "60657", "addr:state": "IL", "addr:street": "North Broadway", "amenity": "restaurant", "cuisine": "barbecue", "name": "Wrigley BBQ", "opening_hours": "Mo-Th 11:30-22:00; Fr-Sa 11:30-23:00; Su 11:30-21:30", "smoking": "no", "takeaway": "yes"}}, {"type": "node", "id": 4366366759, "lat": 41.9581265, "lon": -87.649645, "tags": {"addr:city": "Chicago", "addr:country": "US", "addr:housenumber": "4185", "addr:postcode": "60613", "addr:state": "IL", "addr:street": "North Clarendon Avenue", "amenity": "restaurant", "cuisine": "pizza", "name": "Bojono's Pizzeria"}}, {"type": "node", "id": 4390711391, "lat": 41.9492375, "lon": -87.6491974, "tags": {"amenity": "restaurant", "name": "Panino's Pizzeria"}}, {"type": "node", "id": 4606797791, "lat": 41.9546187, "lon": -87.6547349, "tags": {"addr:city": "Chicago", "addr:country": "US", "addr:housenumber": "4000", "addr:postcode": "60613", "addr:state": "IL", "addr:street": "North Sheridan Road", "amenity": "bar", "name": "Holiday Club", "phone": "+1-773-348-9600", "website": "http://holidayclubchicago.com", "wheelchair": "yes"}}, {"type": "node", "id": 4726187690, "lat": 41.9493082, "lon": -87.6584942, "tags": {"addr:city": "Chicago", "addr:housenumber": "3710", "addr:postcode": "60613", "addr:state": "IL", "addr:street": "North Clark Street", "amenity": "restaurant", "cuisine": "american", "name": "Yak-Zies Wrigleyville", "opening_hours": "Mo-Su 10:00-02:00"}}, {"type": "node", "id": 5252276978, "lat": 41.9468383, "lon": -87.6564199, "tags": {"amenity": "bar", "name": "Vines on Clark"}}, {"type": "node", "id": 5356226639, "lat": 41.9568479, "lon": -87.6518177, "tags": {"addr:city": "Chicago", "addr:housenumber": "4091", "addr:postcode": "60613", "addr:state": "IL", "addr:street": "North Broadway", "amenity": "restaurant", "cuisine": "pizza;wings;italian_beef;burger;salad", "delivery": "yes", "name": "Michael's Original PIzzeria & Tavern", "opening_hours": "Mo-Fr 11:30-02:00; Sa 11:30-03:00; Su 11:30-00:00", "phone": "773-929-4149", "smoking": "outside", "takeaway": "yes", "website": "https://www.michaelspizzachicago.com/"}}, {"type": "node", "id": 5358482234, "lat": 41.958331, "lon": -87.6527624, "tags": {"addr:city": "Chicago", "addr:housenumber": "4155", "addr:postcode": "60613", "addr:state": "IL", "addr:street": "North Broadway", "amenity": "cafe", "name": "Klein's Bakery & Cafe", "phone": "+1-773-857-0525", "website": "https://www.kleinsbakerycafe.com/"}}, {"type": "node", "id": 5834769442, "lat": 41.9479341, "lon": -87.6573197, "tags": {"addr:city": "Chicago", "addr:housenumber": "3632", "addr:postcode": "60613", "addr:state": "IL", "addr:street": "North Clark Street", "amenity": "restaurant", "cuisine": "american", "name": "Mordecai", "phone": "+1-773-269-5410", "website": "https://www.mordecaichicago.com"}}, {"type": "node", "id": 5834769444, "lat": 41.9481236, "lon": -87.6574646, "tags": {"addr:city": "Chicago", "addr:housenumber": "3636", "addr:postcode": "60613", "addr:state": "IL", "addr:street": "North Clark Street", "amenity": "restaurant", "cuisine": "bbq;barbecue", "name": "Smoke Daddy BBQ - Wrigleyville", "phone": "+1-773-227-2583", "website": "https://www.thesmokedaddy.com/"}}, {"type": "node", "id": 5834769445, "lat": 41.9481784, "lon": -87.6575019, "tags": {"addr:city": "Chicago", "addr:housenumber": "3640", "addr:postcode": "60613", "addr:state": "IL", "addr:street": "North Clark Street", "amenity": "restaurant", "cuisine": "tacos", "name": "Big Star", "opening_hours": "24/7", "phone": "+1-773-857-7120"}}, {"type": "node", "id": 5834769446, "lat": 41.9476864, "lon": -87.6570759, "tags": {"addr:city": "Chicago", "addr:housenumber": "3626", "addr:postcode": "60613", "addr:state": "IL", "addr:street": "North Clark Street", "amenity": "cafe", "name": "West Town Bakery", "phone": "+1-773-269-5415", "shop": "bakery", "website": "https://www.westtownbakery.com/lakeview"}}, {"type": "node", "id": 5834769447, "lat": 41.9488178, "lon": -87.6568234, "tags": {"addr:city": "Chicago", "addr:housenumber": "1101", "addr:postcode": "60613", "addr:state": "IL", "addr:street": "West Waveland Avenue", "amenity": "bar", "brewery": "yes", "name": "Lucky Dorr", "outdoor_seating": "yes", "phone": "+1-773-388-8249", "website": "https://www.luckydorr.com/"}}, {"type": "node", "id": 5834769449, "lat": 41.9485577, "lon": -87.657448, "tags": {"addr:city": "Chicago", "addr:housenumber": "3647", "addr:postcode": "60613", "addr:state": "IL", "addr:street": "North Clark Street", "amenity": "restaurant", "name": "Brickhouse Tavern"}}, {"type": "node", "id": 6221650880, "lat": 41.9475676, "lon": -87.6569746, "tags": {"addr:city": "Chicago", "addr:housenumber": "3600", "addr:postcode": "60613", "addr:state": "IL", "addr:street": "North Clark Street", "amenity": "restaurant", "cuisine": "american", "name": "Dutch & Doc's", "opening_hours": "We-Th 17:00-21:00; Fr 17:00-22:00; Sa 10:00-22:00; Su 10:00-21:00", "phone": "+1-773-360-0207", "website": "https://www.dutchanddocs.com/"}}, {"type": "node", "id": 6269167678, "lat": 41.9486948, "lon": -87.6572351, "tags": {"addr:city": "Chicago", "addr:housenumber": "3647", "addr:postcode": "60613", "addr:state": "IL", "addr:street": "North Clark Street", "amenity": "bar", "name": "Budweiser Brickhouse Tavern", "phone": "+1-773-377-4770", "website": "https://www.brickhousetavernchi.com/"}}, {"type": "node", "id": 6283237814, "lat": 41.9504868, "lon": -87.6494162, "tags": {"addr:city": "Chicago", "addr:housenumber": "3752", "addr:postcode": "60613", "addr:state": "IL", "addr:street": "North Broadway", "amenity": "cafe", "name": "Coffee Tree & Tea Leaves", "phone": "+1-773-871-7818", "website": "http://www.coffeetreetealeaves.com/"}}, {"type": "node", "id": 6283857177, "lat": 41.9543869, "lon": -87.6526849, "tags": {"addr:city": "Chicago", "addr:housenumber": "909", "addr:postcode": "60613", "addr:state": "IL", "addr:street": "West Irving Park Road", "amenity": "cafe", "cuisine": "coffee_shop", "name": "Coronas Coffee Shop", "phone": "+1-773-529-1886", "website": "https://www.coronascoffeeshop.com/"}}, {"type": "node", "id": 6284585245, "lat": 41.9469968, "lon": -87.6554665, "tags": {"addr:city": "Chicago", "addr:housenumber": "1027", "addr:postcode": "60613", "addr:state": "IL", "addr:street": "West Addison Street", "amenity": "cafe", "name": "Do-Rite Donuts & Chicken", "phone": "+1-773-977-7065", "website": "http://doritedonuts.com/"}}, {"type": "node", "id": 6284798616, "lat": 41.961622, "lon": -87.6557775, "tags": {"addr:city": "Chicago", "addr:housenumber": "1021", "addr:postcode": "60613", "addr:state": "IL", "addr:street": "West Montrose Avenue", "amenity": "bar", "name": "Driftwood", "phone": "+1-847-962-8906"}}, {"type": "node", "id": 6284801425, "lat": 41.963009, "lon": -87.6555863, "tags": {"addr:city": "Chicago", "addr:housenumber": "4443", "addr:postcode": "60640", "addr:state": "IL", "addr:street": "North Broadway", "amenity": "bar", "name": "Drink and Ink", "phone": "+1-773-944-5000"}}, {"type": "node", "id": 6286621640, "lat": 41.9537201, "lon": -87.6547576, "tags": {"addr:city": "Chicago", "addr:housenumber": "3938", "addr:postcode": "60613", "addr:state": "IL", "addr:street": "North Sheridan Road", "amenity": "cafe", "name": "Emerald City Coffee", "phone": "+1-773-857-3041", "website": "https://emeraldcitychicago.com/"}}, {"type": "node", "id": 6287095694, "lat": 41.9494171, "lon": -87.6483014, "tags": {"addr:city": "Chicago", "addr:housenumber": "3701", "addr:postcode": "60613", "addr:state": "IL", "addr:street": "North Broadway", "amenity": "bar", "name": "F. O\u2019Mahony\u2019s", "phone": "+1-773-549-0226", "website": "http://fomahonys.com/"}}, {"type": "node", "id": 6297198431, "lat": 41.9488445, "lon": -87.6545581, "tags": {"addr:city": "Chicago", "addr:housenumber": "1049", "addr:postcode": "60613", "addr:state": "IL", "addr:street": "West Waveland Avenue", "amenity": "restaurant", "name": "Hot Doug\u2019s Wrigley Field"}}, {"type": "node", "id": 6298884587, "lat": 41.9498354, "lon": -87.6589084, "tags": {"addr:city": "Chicago", "addr:housenumber": "3730", "addr:postcode": "60613", "addr:state": "IL", "addr:street": "North Clark Street", "amenity": "bar", "name": "Smart Bar", "phone": "+1-773-549-4140", "website": "http://smartbarchicago.com/"}}, {"type": "node", "id": 6300768348, "lat": 41.9465696, "lon": -87.6563348, "tags": {"addr:city": "Chicago", "addr:housenumber": "3540", "addr:postcode": "60657", "addr:state": "IL", "addr:street": "North Clark Street", "amenity": "bar", "name": "Sluggers World Class Sports Bar", "phone": "+1-773-248-0055", "website": "sluggersbar.com"}}, {"type": "node", "id": 6300823284, "lat": 41.9620227, "lon": -87.6518351, "tags": {"addr:city": "Chicago", "addr:housenumber": "844", "addr:postcode": "60613", "addr:state": "IL", "addr:street": "West Montrose Avenue", "amenity": "bar", "name": "The Reservoir", "phone": "+1-773-275-4000", "website": "http://reservoirchicago.com/"}}, {"type": "node", "id": 6301035834, "lat": 41.9486374, "lon": -87.6579243, "tags": {"addr:city": "Chicago", "addr:housenumber": "3658", "addr:postcode": "60613", "addr:state": "IL", "addr:street": "North Clark Street", "amenity": "bar", "name": "Rizzo\u2019s Bar & Inn", "phone": "+1-773-799-8161", "website": "https://rizzosbarandinn.com/"}}, {"type": "node", "id": 6305246040, "lat": 41.9477863, "lon": -87.6572653, "tags": {"addr:city": "Chicago", "addr:housenumber": "3630", "addr:postcode": "60613", "addr:state": "IL", "addr:street": "North Clark Street", "amenity": "bar", "name": "The Bar at Hotel Zachary", "phone": "+1-773-302-2300", "website": "https://www.hotelzachary.com/cuisine-cocktails#the-bar-at-hotel-zachary"}}, {"type": "node", "id": 6315218733, "lat": 41.9478821, "lon": -87.6466169, "tags": {"addr:city": "Chicago", "addr:housenumber": "620", "addr:postcode": "60613", "addr:state": "IL", "addr:street": "West Addison Street", "amenity": "restaurant", "name": "The Flower Flat", "phone": "+1-773-697-3682", "website": "http://www.theflowerflat.com/http://www.theflowerflat.com/"}}, {"type": "node", "id": 6318928610, "lat": 41.9472229, "lon": -87.6470188, "tags": {"addr:city": "Chicago", "addr:housenumber": "3563", "addr:postcode": "60657", "addr:state": "IL", "addr:street": "North Broadway", "amenity": "bar", "name": "Joe\u2019s On Broadway", "phone": "+1-773-528-1054"}}, {"type": "node", "id": 6320654592, "lat": 41.9620687, "lon": -87.6517048, "tags": {"addr:city": "Chicago", "addr:housenumber": "838", "addr:postcode": "60613", "addr:state": "IL", "addr:street": "West Montrose Avenue", "amenity": "restaurant", "name": "Loving Heart", "phone": "+1-773-561-5399", "website": "http://www.lovingheartvegan.com/"}}, {"type": "node", "id": 6322972542, "lat": 41.9474494, "lon": -87.6539367, "tags": {"addr:city": "Chicago", "addr:housenumber": "950", "addr:postcode": "60613", "addr:state": "IL", "addr:street": "West Addison Street", "amenity": "bar", "name": "The Dugout Bar", "phone": "+1-773-661-6043", "website": "http://thedugoutpressbox.com"}}, {"type": "node", "id": 6326510071, "lat": 41.9603226, "lon": -87.6474929, "tags": {"addr:city": "Chicago", "addr:housenumber": "4250", "addr:postcode": "60613", "addr:state": "IL", "addr:street": "North Marine Drive", "amenity": "cafe", "name": "Le Cafe", "phone": "+1-773-857-0224", "website": "http://lecafechicago.com/"}}, {"type": "node", "id": 7161087636, "lat": 41.9506255, "lon": -87.6430859, "tags": {"addr:city": "Chicago", "addr:housenumber": "3650", "addr:street": "North Recreation Drive", "amenity": "restaurant", "cuisine": "mexican", "name": "Two Wheel Tacos", "opening_hours": "\"seasonal\""}}, {"type": "node", "id": 7393995558, "lat": 41.9526131, "lon": -87.6494803, "tags": {"amenity": "cafe", "brand": "Starbucks", "brand:wikidata": "Q37158", "brand:wikipedia": "en:Starbucks", "cuisine": "coffee_shop", "name": "Starbucks", "official_name": "Starbucks Coffee", "takeaway": "yes"}}, {"type": "way", "id": 158622286, "nodes": [1707846189, 1707846196, 1707846198, 1707846206, 1707846207, 1707846203, 1707846189], "tags": {"addr:city": "Chicago", "addr:housenumber": "3664", "addr:postcode": "60613", "addr:state": "IL", "addr:street": "North Clark Street", "addr:street:name": "Clark", "addr:street:prefix": "North", "addr:street:type": "Street", "amenity": "bar", "building": "yes", "building:levels": "2", "chicago:building_id": "858483", "name": "Bernie's Tavern", "phone": "+1-773-525-1898", "website": "https://bernieschicago.com/"}}, {"type": "way", "id": 210328565, "nodes": [2204141516, 2204141593, 2204141595, 2204141590, 2204141519, 2204141516], "tags": {"addr:housenumber": "1017", "addr:street": "West Irving Park Road", "addr:street:name": "Irving Park", "addr:street:prefix": "West", "addr:street:type": "Road", "amenity": "restaurant", "building": "yes", "building:levels": "1", "chicago:building_id": "151584", "name": "Byron's Hot Dogs"}}, {"type": "way", "id": 210330261, "nodes": [2204135999, 2204136034, 2204136027, 2204136136, 2204136138, 2204136014, 2204135999], "tags": {"addr:city": "Chicago", "addr:housenumber": "3760", "addr:postcode": "60613", "addr:state": "IL", "addr:street": "North Broadway", "addr:street:name": "Broadway", "addr:street:prefix": "North", "amenity": "restaurant", "brand": "IHOP", "brand:wikidata": "Q1185675", "brand:wikipedia": "en:IHOP", "building": "yes", "building:levels": "1", "chicago:building_id": "161117", "cuisine": "breakfast;pancake", "name": "IHOP"}}, {"type": "way", "id": 210331436, "nodes": [2204138385, 2204138555, 2204138587, 2204138628, 2204138719, 2204138542, 2204138516, 2204138496, 2204138385], "tags": {"amenity": "cafe", "building": "yes", "chicago:building_id": "156953", "name": "Clock Tower Cafe", "phone": "+1-312-742-7930-X3", "website": "http://www.clocktowercafechicago.com/"}}, {"type": "way", "id": 210381773, "nodes": [2204571338, 2204571339, 2204571348, 2204571351, 2204571352, 2204571534, 2204571535, 2204571929, 2204571938, 2204571363, 2204571359, 2204571353, 2204571349, 2204571342, 2204571340, 2204571344, 2204571338], "tags": {"addr:city": "Chicago", "addr:housenumber": "910", "addr:postcode": "60613", "addr:state": "IL", "addr:street": "West Buena Avenue", "addr:street:name": "Broadway", "addr:street:prefix": "North", "amenity": "bar", "building": "yes", "chicago:building_id": "136234", "name": "Bar on Buena", "phone": "+1-773-525-8665", "website": "https://www.baronbuena.com/"}}]}