{"version": 0.6, "generator": "Overpass API 0.7.56.1004 6cd3eaec", "osm3s": {"timestamp_osm_base": "2020-07-22T03:37:03Z", "copyright": "The data included in this document is from www.openstreetmap.org. The data is made available under ODbL."}, "elements": [{"type": "node", "id": 354268767, "lat": 41.8679269, "lon": -87.680254}, {"type": "node", "id": 2200380931, "lat": 41.8714182, "lon": -87.6759677}, {"type": "node", "id": 2200380932, "lat": 41.867773, "lon": -87.6736339}, {"type": "node", "id": 2200380941, "lat": 41.8659414, "lon": -87.6729741}, {"type": "node", "id": 2200380949, "lat": 41.8683982, "lon": -87.6701205}, {"type": "node", "id": 2200380953, "lat": 41.8714981, "lon": -87.6714026}, {"type": "node", "id": 2200380956, "lat": 41.8676452, "lon": -87.6714453}, {"type": "node", "id": 2200380958, "lat": 41.8659819, "lon": -87.6702726}, {"type": "node", "id": 2200380963, "lat": 41.8715141, "lon": -87.6702975}, {"type": "node", "id": 2200380970, "lat": 41.8669681, "lon": -87.6695519}, {"type": "node", "id": 2200380989, "lat": 41.8669599, "lon": -87.6687265}, {"type": "node", "id": 2200380994, "lat": 41.8725103, "lon": -87.6707177}, {"type": "node", "id": 2200380995, "lat": 41.8666884, "lon": -87.6729976}, {"type": "node", "id": 2200381003, "lat": 41.8650845, "lon": -87.6694765}, {"type": "node", "id": 2200381004, "lat": 41.8676153, "lon": -87.6736235}, {"type": "node", "id": 2200381006, "lat": 41.867847, "lon": -87.6665964}, {"type": "node", "id": 2200381008, "lat": 41.871582, "lon": -87.6666929}, {"type": "node", "id": 2200381017, "lat": 41.8677391, "lon": -87.6761126}, {"type": "node", "id": 2200381020, "lat": 41.8669401, "lon": -87.6671862}, {"type": "node", "id": 2200381022, "lat": 41.8690733, "lon": -87.6759087}, {"type": "node", "id": 2200381031, "lat": 41.8683703, "lon": -87.671467}, {"type": "node", "id": 2200381045, "lat": 41.867841, "lon": -87.667202}, {"type": "node", "id": 2200381061, "lat": 41.8679892, "lon": -87.6761142}, {"type": "node", "id": 2200381064, "lat": 41.8667244, "lon": -87.6700722}, {"type": "node", "id": 2200381068, "lat": 41.8689974, "lon": -87.68027}, {"type": "node", "id": 2200381071, "lat": 41.8669361, "lon": -87.6673578}, {"type": "node", "id": 2200381078, "lat": 41.8727843, "lon": -87.6703405}, {"type": "node", "id": 2200381080, "lat": 41.8728263, "lon": -87.6704206}, {"type": "node", "id": 2200633104, "lat": 41.8724946, "lon": -87.6714394}, {"type": "node", "id": 2200633113, "lat": 41.8728197, "lon": -87.6707318}, {"type": "node", "id": 2468069259, "lat": 41.871623, "lon": -87.6703012}, {"type": "node", "id": 3264147413, "lat": 41.8650703, "lon": -87.6702447}, {"type": "node", "id": 3914989147, "lat": 41.8788941, "lon": -87.6774089, "tags": {"amenity": "restaurant", "cuisine": "brazilian", "name": "Sinh\u00e1"}}, {"type": "node", "id": 5794886652, "lat": 41.8868879, "lon": -87.6776977, "tags": {"addr:city": "Chicago", "addr:housenumber": "2010", "addr:postcode": "60612", "addr:state": "IL", "addr:street": "West Fulton Street", "amenity": "bar", "craft": "distillery", "name": "Rhine Hall Distillery", "note": "Rhine Hall Distillery has a tasting room that's open to the public.", "opening_hours": "We-Fr 17:00-21:00; Sa 14:00-19:00", "phone": "+1-312-243-4313", "product": "brandy", "website": "https://www.rhinehall.com/"}}, {"type": "node", "id": 5794890475, "lat": 41.886502, "lon": -87.6783765, "tags": {"addr:city": "Chicago", "addr:housenumber": "2021", "addr:postcode": "60612", "addr:state": "IL", "addr:street": "West Fulton Street", "addr:unit": "K-101B", "amenity": "cafe", "name": "Metric Coffee", "opening_hours": "Mo-Fr 07:00-16:00; Sa 08:00-14:00", "phone": "+1-312-982-2196", "website": "https://metriccoffee.com/pages/metric-west-fulton"}}, {"type": "node", "id": 5926633071, "lat": 41.8669451, "lon": -87.667873}, {"type": "node", "id": 5926633072, "lat": 41.8669575, "lon": -87.6685864}, {"type": "node", "id": 6188968653, "lat": 41.880808, "lon": -87.6849333, "tags": {"addr:city": "Chicago", "addr:housenumber": "2323", "addr:postcode": "60612", "addr:state": "IL", "addr:street": "West Madison Street", "amenity": "restaurant", "cuisine": "chinese", "name": "Chan's King Wok", "opening_hours": "24/7"}}, {"type": "node", "id": 6283983275, "lat": 41.8810096, "lon": -87.6742287, "tags": {"addr:city": "Chicago", "addr:housenumber": "1901", "addr:postcode": "60612", "addr:state": "IL", "addr:street": "West Madison Street", "amenity": "bar", "name": "Queenie\u2019s Supper Club & Cocktails", "phone": "+1-312-455-4500", "website": "https://www.queeniessupperclub.com/"}}, {"type": "node", "id": 6289954136, "lat": 41.8863189, "lon": -87.672127, "tags": {"addr:city": "Chicago", "addr:housenumber": "1800", "addr:postcode": "60612", "addr:state": "IL", "addr:street": "West Walnut Street", "amenity": "bar", "name": "Finch Beer Co", "phone": "+1-312-929-4773", "website": "https://www.finchbeer.com/"}}, {"type": "node", "id": 6298048500, "lat": 41.8875309, "lon": -87.6778969, "tags": {"addr:city": "Chicago", "addr:housenumber": "2023", "addr:postcode": "60612", "addr:state": "IL", "addr:street": "West Carroll Avenue", "amenity": "cafe", "name": "Ineeka", "phone": "+1-312-661-1550", "website": "http://www.treleela.com/"}}, {"type": "node", "id": 6300078345, "lat": 41.8870697, "lon": -87.6740659, "tags": {"addr:city": "Chicago", "addr:housenumber": "1850", "addr:postcode": "60612", "addr:state": "IL", "addr:street": "West Fulton Street", "amenity": "cafe", "name": "Intelligentsia Roasting Works & Offices", "phone": "+1-888-945-9786", "website": "https://www.intelligentsiacoffee.com/"}}, {"type": "node", "id": 6306612141, "lat": 41.8879186, "lon": -87.6825861, "tags": {"addr:city": "Chicago", "addr:housenumber": "324", "addr:postcode": "60612", "addr:state": "IL", "addr:street": "North Leavitt Street", "amenity": "restaurant", "name": "The Corner Farmacy", "phone": "+1-563-271-7936", "website": "https://www.thecornerfarmacy.com/"}}, {"type": "node", "id": 6319067420, "lat": 41.8878949, "lon": -87.6826783, "tags": {"addr:city": "Chicago", "addr:housenumber": "324", "addr:postcode": "60612", "addr:state": "IL", "addr:street": "North Leavitt Street", "amenity": "restaurant", "name": "Kaathis", "phone": "+1-872-222-0502", "website": "https://kaathis.com/"}}, {"type": "node", "id": 6320625801, "lat": 41.8711143, "lon": -87.6743989, "tags": {"addr:city": "Chicago", "addr:housenumber": "818", "addr:postcode": "60612", "addr:state": "IL", "addr:street": "South Wolcott Avenue", "amenity": "restaurant", "name": "Lotus Banh Mi", "phone": "+1-312-733-7595", "website": "http://www.lotusbanhmi.com/"}}, {"type": "node", "id": 6326055702, "lat": 41.8805912, "lon": -87.6866485, "tags": {"addr:city": "Chicago", "addr:housenumber": "16", "addr:postcode": "60612", "addr:state": "IL", "addr:street": "South Western Avenue", "amenity": "restaurant", "name": "Moon\u2019s Sandwich Shop", "phone": "+1-312-226-5094", "website": "https://www.moonschicago.com/"}}, {"type": "node", "id": 6790723749, "lat": 41.8727532, "lon": -87.6768999, "tags": {"amenity": "cafe", "brand": "Starbucks", "brand:wikidata": "Q37158", "brand:wikipedia": "en:Starbucks", "cuisine": "coffee_shop", "name": "Starbucks", "official_name": "Starbucks Coffee", "takeaway": "yes"}}, {"type": "node", "id": 6883621708, "lat": 41.8703585, "lon": -87.675941}, {"type": "node", "id": 6883621709, "lat": 41.8701725, "lon": -87.6759364}, {"type": "node", "id": 7018263926, "lat": 41.8807947, "lon": -87.6727821, "tags": {"amenity": "bar", "name": "Mad West & Atruium Bar"}}, {"type": "node", "id": 7018263927, "lat": 41.8805191, "lon": -87.6727311, "tags": {"amenity": "restaurant", "name": "Queenie's Supper Club"}}, {"type": "way", "id": 209879618, "nodes": [354268767, 2200381068, 2200381022, 6883621709, 6883621708, 2200380931, 2200380953, 2200633104, 2200380994, 2200633113, 2200381080, 2200381078, 2468069259, 2200380963, 2200381008, 2200381006, 2200381045, 2200381020, 2200381071, 5926633071, 5926633072, 2200380989, 2200380970, 2200381003, 3264147413, 2200380958, 2200380941, 2200380995, 2200381064, 2200380949, 2200381031, 2200380956, 2200381004, 2200380932, 2200381017, 2200381061, 354268767], "tags": {"amenity": "university", "ele": "181", "gnis:county_id": "031", "gnis:created": "05/03/1999", "gnis:feature_id": "1837072", "gnis:state_id": "17", "name": "University of Illinois at Chicago West Campus"}}]}