{"version": 0.6, "generator": "Overpass API 0.7.56.1004 6cd3eaec", "osm3s": {"timestamp_osm_base": "2020-07-22T03:46:05Z", "copyright": "The data included in this document is from www.openstreetmap.org. The data is made available under ODbL."}, "elements": [{"type": "node", "id": 1743348179, "lat": 41.9443365, "lon": -87.7277586}, {"type": "node", "id": 1743348184, "lat": 41.9443405, "lon": -87.7274663}, {"type": "node", "id": 1743348271, "lat": 41.9443777, "lon": -87.72776}, {"type": "node", "id": 1743348299, "lat": 41.944383, "lon": -87.7274659}, {"type": "node", "id": 1743349233, "lat": 41.9446538, "lon": -87.7278236}, {"type": "node", "id": 1743349279, "lat": 41.9446588, "lon": -87.7274707}, {"type": "node", "id": 1743349514, "lat": 41.9447027, "lon": -87.7274721}, {"type": "node", "id": 1743349543, "lat": 41.9447115, "lon": -87.7278249}, {"type": "node", "id": 1743349562, "lat": 41.9447166, "lon": -87.727494}, {"type": "node", "id": 1743354871, "lat": 41.9461136, "lon": -87.7278006}, {"type": "node", "id": 1743354872, "lat": 41.9461151, "lon": -87.7275506}, {"type": "node", "id": 1743354930, "lat": 41.9461384, "lon": -87.7278224}, {"type": "node", "id": 1743354937, "lat": 41.9461397, "lon": -87.7278003}, {"type": "node", "id": 1743355059, "lat": 41.9461769, "lon": -87.727822}, {"type": "node", "id": 1743355064, "lat": 41.9461782, "lon": -87.72755}, {"type": "node", "id": 1743355116, "lat": 41.9461884, "lon": -87.7279359}, {"type": "node", "id": 1743355163, "lat": 41.9461947, "lon": -87.7275535}, {"type": "node", "id": 1743355276, "lat": 41.9462365, "lon": -87.7279373}, {"type": "node", "id": 1743355277, "lat": 41.9462366, "lon": -87.7279538}, {"type": "node", "id": 1743355302, "lat": 41.9462633, "lon": -87.7275566}, {"type": "node", "id": 1743355307, "lat": 41.9462722, "lon": -87.7279535}, {"type": "node", "id": 1743355320, "lat": 41.9462771, "lon": -87.7275803}, {"type": "node", "id": 1743355638, "lat": 41.9464575, "lon": -87.7279591}, {"type": "node", "id": 1743355676, "lat": 41.9464649, "lon": -87.7275399}, {"type": "node", "id": 1743355725, "lat": 41.9464785, "lon": -87.7275269}, {"type": "node", "id": 1743356067, "lat": 41.9465934, "lon": -87.7279633}, {"type": "node", "id": 1743356087, "lat": 41.9465976, "lon": -87.727728}, {"type": "node", "id": 1743356168, "lat": 41.9466171, "lon": -87.7277289}, {"type": "node", "id": 1743356188, "lat": 41.9466204, "lon": -87.7275311}, {"type": "node", "id": 1755728543, "lat": 41.9466784, "lon": -87.7107702}, {"type": "node", "id": 1755728544, "lat": 41.9466791, "lon": -87.7106416}, {"type": "node", "id": 1755728590, "lat": 41.946704, "lon": -87.7096782}, {"type": "node", "id": 1755728595, "lat": 41.9467083, "lon": -87.7094466}, {"type": "node", "id": 1755728677, "lat": 41.9467411, "lon": -87.7094279}, {"type": "node", "id": 1755728678, "lat": 41.9467412, "lon": -87.7094463}, {"type": "node", "id": 1755728868, "lat": 41.9467923, "lon": -87.710771}, {"type": "node", "id": 1755728869, "lat": 41.9467924, "lon": -87.710793}, {"type": "node", "id": 1755728890, "lat": 41.9467985, "lon": -87.7106423}, {"type": "node", "id": 1755728892, "lat": 41.9467986, "lon": -87.7106753}, {"type": "node", "id": 1755729136, "lat": 41.9468542, "lon": -87.7107943}, {"type": "node", "id": 1755729139, "lat": 41.9468554, "lon": -87.7107722}, {"type": "node", "id": 1755729226, "lat": 41.946892, "lon": -87.7106763}, {"type": "node", "id": 1755729228, "lat": 41.9468925, "lon": -87.7107718}, {"type": "node", "id": 1755729260, "lat": 41.9469017, "lon": -87.7096837}, {"type": "node", "id": 1755729266, "lat": 41.9469027, "lon": -87.7096212}, {"type": "node", "id": 1755729277, "lat": 41.9469034, "lon": -87.7094999}, {"type": "node", "id": 1755729285, "lat": 41.9469044, "lon": -87.7094337}, {"type": "node", "id": 1755729408, "lat": 41.9469233, "lon": -87.7096228}, {"type": "node", "id": 1755729420, "lat": 41.9469254, "lon": -87.7094996}, {"type": "node", "id": 1755732878, "lat": 41.947847, "lon": -87.7104372}, {"type": "node", "id": 1755732880, "lat": 41.9478471, "lon": -87.7104464}, {"type": "node", "id": 1755732891, "lat": 41.9478499, "lon": -87.7104556}, {"type": "node", "id": 1755732906, "lat": 41.9478525, "lon": -87.710428}, {"type": "node", "id": 1755732908, "lat": 41.9478526, "lon": -87.7104592}, {"type": "node", "id": 1755732928, "lat": 41.9478593, "lon": -87.7104261}, {"type": "node", "id": 1755733277, "lat": 41.9479776, "lon": -87.7106385}, {"type": "node", "id": 1755733552, "lat": 41.9480627, "lon": -87.7104921}, {"type": "node", "id": 1755733562, "lat": 41.9480652, "lon": -87.7104314}, {"type": "node", "id": 1755733598, "lat": 41.9480779, "lon": -87.710514}, {"type": "node", "id": 1755737122, "lat": 41.9489003, "lon": -87.7126252}, {"type": "node", "id": 1755737130, "lat": 41.9489016, "lon": -87.7123661}, {"type": "node", "id": 1755737225, "lat": 41.948914, "lon": -87.7123659}, {"type": "node", "id": 1755737348, "lat": 41.9489389, "lon": -87.7124043}, {"type": "node", "id": 1755737353, "lat": 41.9489406, "lon": -87.7124686}, {"type": "node", "id": 1755737373, "lat": 41.9489456, "lon": -87.7126248}, {"type": "node", "id": 1755737406, "lat": 41.9489572, "lon": -87.712496}, {"type": "node", "id": 1755737411, "lat": 41.9489593, "lon": -87.7126192}, {"type": "node", "id": 1755737439, "lat": 41.9489676, "lon": -87.7126338}, {"type": "node", "id": 1755737450, "lat": 41.9489709, "lon": -87.712483}, {"type": "node", "id": 1755737494, "lat": 41.9489907, "lon": -87.7125986}, {"type": "node", "id": 1755737506, "lat": 41.9489944, "lon": -87.7125214}, {"type": "node", "id": 1755737514, "lat": 41.9489949, "lon": -87.712617}, {"type": "node", "id": 1755737525, "lat": 41.9489976, "lon": -87.7125949}, {"type": "node", "id": 1755754561, "lat": 41.9540486, "lon": -87.7096177}, {"type": "node", "id": 1755754568, "lat": 41.9540521, "lon": -87.7094982}, {"type": "node", "id": 1755755021, "lat": 41.9542394, "lon": -87.709625}, {"type": "node", "id": 1755755025, "lat": 41.9542406, "lon": -87.7096048}, {"type": "node", "id": 1755755105, "lat": 41.9542791, "lon": -87.7096062}, {"type": "node", "id": 1755755116, "lat": 41.9542813, "lon": -87.7095088}, {"type": "node", "id": 3551945144, "lat": 41.9393459, "lon": -87.7163315, "tags": {"amenity": "bar", "name": "Late Bar"}}, {"type": "node", "id": 3551946808, "lat": 41.9393511, "lon": -87.7172411, "tags": {"addr:city": "Chicago", "addr:housenumber": "3556", "addr:postcode": "60618", "addr:state": "IL", "addr:street": "West Belmont Avenue", "amenity": "bar", "name": "Chuck's & Ed's Tavern"}}, {"type": "node", "id": 3554594099, "lat": 41.9427119, "lon": -87.7300074, "tags": {"amenity": "restaurant", "cuisine": "mexican", "name": "La Oaxaque\u00f1a"}}, {"type": "node", "id": 3572450423, "lat": 41.939013, "lon": -87.7241868, "tags": {"amenity": "restaurant", "cuisine": "mexican", "name": "El Gallo Bravo #2"}}, {"type": "node", "id": 3631689565, "lat": 41.9460697, "lon": -87.7173789}, {"type": "node", "id": 3631689566, "lat": 41.9460727, "lon": -87.7171106}, {"type": "node", "id": 3631689567, "lat": 41.9461846, "lon": -87.7171187}, {"type": "node", "id": 3631689568, "lat": 41.9461861, "lon": -87.7170313}, {"type": "node", "id": 3631689569, "lat": 41.9462466, "lon": -87.7170313}, {"type": "node", "id": 3631689570, "lat": 41.9462466, "lon": -87.7170598}, {"type": "node", "id": 3631689571, "lat": 41.9463207, "lon": -87.7170638}, {"type": "node", "id": 3631689572, "lat": 41.9463177, "lon": -87.7171207}, {"type": "node", "id": 3631689573, "lat": 41.9463343, "lon": -87.7171228}, {"type": "node", "id": 3631689574, "lat": 41.9463343, "lon": -87.7171858}, {"type": "node", "id": 3631689575, "lat": 41.946357, "lon": -87.7171878}, {"type": "node", "id": 3631689576, "lat": 41.946354, "lon": -87.7173931}, {"type": "node", "id": 3631689577, "lat": 41.9463026, "lon": -87.7173952}, {"type": "node", "id": 3631689578, "lat": 41.9463026, "lon": -87.7174318}, {"type": "node", "id": 3631689579, "lat": 41.9460758, "lon": -87.7174196}, {"type": "node", "id": 3649650842, "lat": 41.9390585, "lon": -87.711587, "tags": {"amenity": "restaurant", "cuisine": "chinese", "name": "Eat First"}}, {"type": "node", "id": 3882580215, "lat": 41.9410645, "lon": -87.7262185, "tags": {"amenity": "bar", "name": "Milano Cafe & Bar"}}, {"type": "node", "id": 3882580216, "lat": 41.9406036, "lon": -87.7260147, "tags": {"amenity": "cafe", "name": "Outdoor Grill"}}, {"type": "node", "id": 4217839032, "lat": 41.9429008, "lon": -87.7303791, "tags": {"addr:city": "Chicago", "addr:housenumber": "3394", "addr:postcode": "60641", "addr:state": "IL", "addr:street": "North Milwaukee Avenue", "amenity": "bar", "name": "Live Wire Lounge", "phone": "+1-773-756-5363", "website": "http://www.livewireloungechicago.com/"}}, {"type": "node", "id": 4217839033, "lat": 41.9415627, "lon": -87.7281613, "tags": {"amenity": "restaurant", "name": "Pollo Andino Rosticeria"}}, {"type": "node", "id": 5967983388, "lat": 41.9533558, "lon": -87.7321275, "tags": {"addr:city": "Chicago", "addr:housenumber": "3982", "addr:postcode": "60641", "addr:state": "IL", "addr:street": "North Avondale Avenue", "amenity": "cafe", "cuisine": "coffee_shop", "diet:vegan": "yes", "diet:vegetarian": "yes", "name": "Backlot Coffee", "opening_hours": "Mo-Fr 06:00-18:00; Sa,Su 07:00-18:00", "phone": "+1-773-657-3797", "website": "http://backlotcoffee.com/"}}, {"type": "node", "id": 6050593221, "lat": 41.9392866, "lon": -87.7212467, "tags": {"addr:city": "Chicago", "addr:housenumber": "3734", "addr:postcode": "60618", "addr:state": "IL", "addr:street": "West Belmont Avenue", "amenity": "bar", "name": "Sleeping Village", "phone": "+1-773-654-3971", "website": "https://sleeping-village.com/"}}, {"type": "node", "id": 6261014741, "lat": 41.9394182, "lon": -87.7172402, "tags": {"addr:city": "Chicago", "addr:housenumber": "3420", "addr:postcode": "60618", "addr:state": "IL", "addr:street": "West Belmont Avenue", "amenity": "bar", "name": "Alice\u2019s Lounge", "phone": "+1-773-279-9382"}}, {"type": "node", "id": 6263777970, "lat": 41.9394421, "lon": -87.718779, "tags": {"addr:city": "Chicago", "addr:housenumber": "3634", "addr:postcode": "60618", "addr:state": "IL", "addr:street": "West Belmont Avenue", "amenity": "bar", "name": "Avondale Tap", "phone": "+1-773-754-8341", "website": "https://www.avondaletap.com/"}}, {"type": "node", "id": 6265732543, "lat": 41.9392104, "lon": -87.7273404, "tags": {"addr:city": "Chicago", "addr:housenumber": "3200", "addr:postcode": "60641", "addr:state": "IL", "addr:street": "North Pulaski Road", "amenity": "bar", "name": "Belford Tavern", "phone": "+1-773-725-7112"}}, {"type": "node", "id": 6269151464, "lat": 41.946536, "lon": -87.7277384, "tags": {"addr:city": "Chicago", "addr:housenumber": "3600", "addr:postcode": "60641", "addr:state": "IL", "addr:street": "North Pulaski Road", "amenity": "bar", "name": "Brudders Bar and Grill", "phone": "+1-773-283-8700", "website": "bruddersbar.com"}}, {"type": "node", "id": 6282545846, "lat": 41.9539441, "lon": -87.7198151, "tags": {"addr:city": "Chicago", "addr:housenumber": "3658", "addr:postcode": "60618", "addr:state": "IL", "addr:street": "West Irving Park Road", "amenity": "restaurant", "name": "Chicken Works & Salad Company", "phone": "+1-773-588-5488", "website": "http://www.chickenworkschicago.com/"}}, {"type": "node", "id": 6282663455, "lat": 41.9401528, "lon": -87.7274057, "tags": {"addr:city": "Chicago", "addr:housenumber": "3234", "addr:postcode": "60618", "addr:state": "IL", "addr:street": "North Pulaski Road", "amenity": "cafe", "name": "City Cafe", "phone": "+1-773-736-5646"}}, {"type": "node", "id": 6290058906, "lat": 41.9538084, "lon": -87.7326723, "tags": {"addr:city": "Chicago", "addr:housenumber": "4200", "addr:postcode": "60641", "addr:state": "IL", "addr:street": "West Irving Park Road", "amenity": "cafe", "diet:vegan": "no", "diet:vegetarian": "yes", "name": "Finom", "opening_hours": "Mo-Fr 07:00-18:00; Sa,Su 08:00-17:00", "phone": "+1-312-620-5010", "website": "http://finomcoffee.com/"}}, {"type": "node", "id": 6294123301, "lat": 41.945475, "lon": -87.7275518, "tags": {"addr:city": "Chicago", "addr:housenumber": "3532", "addr:postcode": "60641", "addr:state": "IL", "addr:street": "North Pulaski Road", "amenity": "bar", "name": "Hangovers Sports Bar and Liquor Store", "phone": "+1-773-283-4666", "website": "https://hangovers.business.site/?m=true"}}, {"type": "node", "id": 6294255482, "lat": 41.9541051, "lon": -87.718301, "tags": {"addr:city": "Chicago", "addr:housenumber": "3608", "addr:postcode": "60618", "addr:state": "IL", "addr:street": "West Irving Park Road", "amenity": "bar", "name": "Hearth And Crust", "phone": "+1-773-516-4800", "website": "https://hearthandcrust.com/"}}, {"type": "node", "id": 6298041172, "lat": 41.9539018, "lon": -87.7265701, "tags": {"addr:city": "Chicago", "addr:housenumber": "3932", "addr:postcode": "60641", "addr:state": "IL", "addr:street": "West Irving Park Road", "amenity": "bar", "name": "Independence Tap", "phone": "+1-773-588-2385"}}, {"type": "node", "id": 6303982943, "lat": 41.9449787, "lon": -87.7270955, "tags": {"addr:city": "Chicago", "addr:housenumber": "3513", "addr:postcode": "60641", "addr:state": "IL", "addr:street": "North Pulaski Road", "amenity": "bar", "name": "Teddy Bear Lounge", "phone": "+1-773-267-5490"}}, {"type": "node", "id": 6306526919, "lat": 41.9557745, "lon": -87.7278715, "tags": {"addr:city": "Chicago", "addr:housenumber": "4104", "addr:postcode": "60641", "addr:state": "IL", "addr:street": "North Pulaski Road", "amenity": "bar", "name": "The Cabin At Old Irving", "phone": "+1-773-481-4183", "website": "https://www.thecabinatoldirving.com/"}}, {"type": "node", "id": 6320092211, "lat": 41.9429489, "lon": -87.7201809, "tags": {"addr:city": "Chicago", "addr:housenumber": "3400", "addr:postcode": "60618", "addr:state": "IL", "addr:street": "North Lawndale Avenue", "amenity": "restaurant", "cuisine": "argentinian", "name": "La Nonna", "phone": "+1-773-253-4741", "website": "https://www.lanonnail.com/"}}, {"type": "node", "id": 6320506737, "lat": 41.9479734, "lon": -87.7105082, "tags": {"addr:city": "Chicago", "addr:housenumber": "3661", "addr:postcode": "60618", "addr:state": "IL", "addr:street": "North Elston Avenue", "amenity": "restaurant", "name": "Little Bucharest Bistro", "phone": "+1-773-604-8500", "website": "https://littlebucharestbistro.com/"}}, {"type": "node", "id": 6320668646, "lat": 41.9539316, "lon": -87.7179009, "tags": {"addr:city": "Chicago", "addr:housenumber": "3600", "addr:postcode": "60618", "addr:state": "IL", "addr:street": "West Irving Park Road", "amenity": "cafe", "name": "Lucky Charm Cafe", "phone": "+1-773-293-7207", "website": "http://luckycharmcafe.com/"}}, {"type": "node", "id": 6412880555, "lat": 41.9503259, "lon": -87.7279976}, {"type": "node", "id": 6412880557, "lat": 41.9503308, "lon": -87.7276328}, {"type": "node", "id": 6412880558, "lat": 41.9501297, "lon": -87.7276279}, {"type": "node", "id": 6412880560, "lat": 41.9501248, "lon": -87.7279927}, {"type": "node", "id": 7173964885, "lat": 41.9534803, "lon": -87.7288221, "tags": {"amenity": "restaurant", "cuisine": "moroccan", "name": "Shokran", "opening_hours": "We-Su 16:00-22:00"}}, {"type": "way", "id": 162447920, "nodes": [1743348179, 1743348271, 1743348299, 1743348184, 1743348179], "tags": {"addr:city": "Chicago", "addr:housenumber": "3456", "addr:postcode": "60641", "addr:state": "IL", "addr:street": "North Pulaski Road", "addr:street:name": "Pulaski", "addr:street:prefix": "North", "addr:street:type": "Road", "amenity": "bar", "building": "yes", "chicago:building_id": "190561", "name": "PL Lounge", "phone": "+1-773-481-5864", "website": "http://pl-zen.com/"}}, {"type": "way", "id": 162448224, "nodes": [1743355116, 1743355276, 1743355277, 1743355307, 1743355320, 1743355302, 1743355163, 1743355116], "tags": {"addr:housenumber": "3554-3558", "addr:street": "North Pulaski Road", "addr:street:name": "Pulaski", "addr:street:prefix": "North", "addr:street:type": "Road", "amenity": "restaurant", "building": "yes", "building:levels": "1", "chicago:building_id": "183137", "cuisine": "thai", "name": "Manee Thai"}}, {"type": "way", "id": 162448228, "nodes": [1743354871, 1743354937, 1743354930, 1743355059, 1743355064, 1743354872, 1743354871], "tags": {"addr:housenumber": "3556", "addr:street": "North Pulaski Road", "addr:street:name": "Pulaski", "addr:street:prefix": "North", "addr:street:type": "Road", "amenity": "restaurant", "building": "yes", "building:levels": "2", "chicago:building_id": "183498", "cuisine": "colombian", "name": "Brasa Roja"}}, {"type": "way", "id": 162448256, "nodes": [1743356067, 1743356087, 1743356168, 1743356188, 1743355725, 1743355676, 1743355638, 1743356067], "tags": {"addr:housenumber": "3600-3604", "addr:street": "North Pulaski Road", "addr:street:name": "Pulaski", "addr:street:prefix": "North", "addr:street:type": "Road", "amenity": "bar", "building": "yes", "building:levels": "1", "chicago:building_id": "848149", "name": "Brudder's"}}, {"type": "way", "id": 162450113, "nodes": [1743349233, 1743349543, 1743349562, 1743349514, 1743349279, 1743349233], "tags": {"addr:housenumber": "4003", "addr:street": "West Cornelia Avenue", "addr:street:name": "Cornelia", "addr:street:prefix": "West", "addr:street:type": "Avenue", "amenity": "restaurant", "building": "yes", "building:levels": "2", "chicago:building_id": "189297", "cuisine": "latin_american", "name": "La Humita", "phone": "+1-773-794-9672"}}, {"type": "way", "id": 163905432, "nodes": [1755754561, 1755755021, 1755755025, 1755755105, 1755755116, 1755754568, 1755754561], "tags": {"addr:housenumber": "3234", "addr:street": "West Irving Park Road", "addr:street:name": "Irving Park", "addr:street:prefix": "West", "addr:street:type": "Road", "amenity": "restaurant", "building": "yes", "building:levels": "2", "name": "Golden Nugget"}}, {"type": "way", "id": 163905623, "nodes": [1755728543, 1755728868, 1755728869, 1755729136, 1755729139, 1755729228, 1755729226, 1755728892, 1755728890, 1755728544, 1755728543], "tags": {"addr:housenumber": "3310", "addr:street": "West Addison Street", "addr:street:name": "Addison", "addr:street:prefix": "West", "addr:street:type": "Street", "amenity": "cafe", "building": "yes", "building:levels": "1", "cuisine": "donut", "name": "Dunkin' Donuts"}}, {"type": "way", "id": 163907621, "nodes": [1755733277, 1755733598, 1755733552, 1755733562, 1755732928, 1755732906, 1755732878, 1755732880, 1755732891, 1755732908, 1755733277], "tags": {"addr:housenumber": "3661-3663", "addr:street": "North Elston Avenue", "addr:street:name": "Elston", "addr:street:prefix": "North", "addr:street:type": "Avenue", "amenity": "restaurant", "building": "yes", "building:levels": "3", "name": "Little Bucharest Bistro"}}, {"type": "way", "id": 163908166, "nodes": [1755737122, 1755737373, 1755737411, 1755737439, 1755737514, 1755737494, 1755737525, 1755737506, 1755737450, 1755737406, 1755737353, 1755737348, 1755737225, 1755737130, 1755737122], "tags": {"addr:housenumber": "3716-3718", "addr:street": "North Elston Avenue", "addr:street:name": "Elston", "addr:street:prefix": "North", "addr:street:type": "Avenue", "amenity": "restaurant", "building": "yes", "building:levels": "1", "cuisine": "chinese"}}, {"type": "way", "id": 163911241, "nodes": [1755728590, 1755729260, 1755729266, 1755729408, 1755729420, 1755729277, 1755729285, 1755728677, 1755728678, 1755728595, 1755728590], "tags": {"addr:housenumber": "3246", "addr:street": "West Addison Street", "addr:street:name": "Addison", "addr:street:prefix": "West", "addr:street:type": "Street", "amenity": "restaurant", "building": "yes", "building:levels": "1", "name": "New China Buffet"}}, {"type": "way", "id": 358208525, "nodes": [3631689565, 3631689566, 3631689567, 3631689568, 3631689569, 3631689570, 3631689571, 3631689572, 3631689573, 3631689574, 3631689575, 3631689576, 3631689577, 3631689578, 3631689579, 3631689565], "tags": {"addr:city": "Chicago", "addr:housenumber": "3555", "addr:postcode": "60618", "addr:state": "IL", "addr:street": "West Addison Street", "amenity": "restaurant", "building": "retail", "building:levels": "1", "cuisine": "italian", "name": "Olive Garden", "opening_hours": "Mo-Fr 11:00-22:00; Sa-Su 11:00-23:00", "outdoor_seating": "no"}}, {"type": "way", "id": 684481903, "nodes": [6412880555, 6412880557, 6412880558, 6412880560, 6412880555], "tags": {"addr:city": "Chicago", "addr:housenumber": "3800", "addr:postcode": "60641", "addr:state": "IL", "addr:street": "North Pulaski Road", "amenity": "restaurant", "building": "yes", "name": "Smoque BBQ", "opening_hours": "Tu-Th 11:00-21:00", "phone": "+1-773-545-7427", "website": "http://www.smoquebbq.com/"}}]}