{"version": 0.6, "generator": "Overpass API 0.7.56.3 eb200aeb", "osm3s": {"timestamp_osm_base": "2020-07-04T01:53:02Z", "copyright": "The data included in this document is from www.openstreetmap.org. The data is made available under ODbL."}, "elements": [{"type": "node", "id": 34877689, "lat": 41.9514226, "lon": -87.7265363}, {"type": "node", "id": 34877691, "lat": 41.9497588, "lon": -87.723601}, {"type": "node", "id": 34877693, "lat": 41.9484654, "lon": -87.7211008}, {"type": "node", "id": 34877695, "lat": 41.9477275, "lon": -87.7196161}, {"type": "node", "id": 34877699, "lat": 41.9462608, "lon": -87.7182705}, {"type": "node", "id": 34877701, "lat": 41.944815, "lon": -87.717451}, {"type": "node", "id": 34877702, "lat": 41.9440107, "lon": -87.7169914}, {"type": "node", "id": 34877704, "lat": 41.9427833, "lon": -87.715981}, {"type": "node", "id": 34877706, "lat": 41.9420321, "lon": -87.7149228}, {"type": "node", "id": 258282961, "lat": 41.9436704, "lon": -87.7167728}, {"type": "node", "id": 258282962, "lat": 41.9424432, "lon": -87.7155446}, {"type": "node", "id": 258284113, "lat": 41.9488935, "lon": -87.7220286}, {"type": "node", "id": 258284114, "lat": 41.9486773, "lon": -87.7215835}, {"type": "node", "id": 258284115, "lat": 41.9481367, "lon": -87.720359}, {"type": "node", "id": 258284116, "lat": 41.9473537, "lon": -87.7191455}, {"type": "node", "id": 310165929, "lat": 41.9518267, "lon": -87.7272751}, {"type": "node", "id": 736037292, "lat": 41.9421935, "lon": -87.715175}, {"type": "node", "id": 1282296201, "lat": 41.9484614, "lon": -87.7209727}, {"type": "node", "id": 1282296203, "lat": 41.9519075, "lon": -87.7272782}, {"type": "node", "id": 1282296208, "lat": 41.9510527, "lon": -87.7258034}, {"type": "node", "id": 1282296214, "lat": 41.9431009, "lon": -87.716244}, {"type": "node", "id": 1282296215, "lat": 41.9502947, "lon": -87.7244623}, {"type": "node", "id": 1282296221, "lat": 41.9491656, "lon": -87.7224748}, {"type": "node", "id": 1282296232, "lat": 41.9433783, "lon": -87.7164988}, {"type": "node", "id": 1282296248, "lat": 41.9473662, "lon": -87.7190362}, {"type": "node", "id": 1282296265, "lat": 41.9491203, "lon": -87.7224774}, {"type": "node", "id": 1282296276, "lat": 41.9467757, "lon": -87.7184976}, {"type": "node", "id": 1282296281, "lat": 41.9421991, "lon": -87.7151017}, {"type": "node", "id": 1282296286, "lat": 41.9443618, "lon": -87.7171452}, {"type": "node", "id": 1282296290, "lat": 41.9480345, "lon": -87.7199937}, {"type": "node", "id": 1282296291, "lat": 41.9478709, "lon": -87.7197067}, {"type": "node", "id": 1282296299, "lat": 41.9470364, "lon": -87.7187006}, {"type": "node", "id": 1282296302, "lat": 41.9463468, "lon": -87.7182315}, {"type": "node", "id": 1282296307, "lat": 41.9453713, "lon": -87.7177085}, {"type": "node", "id": 1282296318, "lat": 41.9476455, "lon": -87.7193768}, {"type": "node", "id": 1282296322, "lat": 41.9489482, "lon": -87.722051}, {"type": "node", "id": 1282296337, "lat": 41.9515414, "lon": -87.726667}, {"type": "node", "id": 1282296343, "lat": 41.9436376, "lon": -87.7167}, {"type": "node", "id": 1282296356, "lat": 41.9475809, "lon": -87.7194138}, {"type": "node", "id": 1282296358, "lat": 41.9478587, "lon": -87.7198301}, {"type": "node", "id": 1282296359, "lat": 41.943346, "lon": -87.7165331}, {"type": "node", "id": 1282296372, "lat": 41.9423468, "lon": -87.7153186}, {"type": "node", "id": 1282296376, "lat": 41.9439089, "lon": -87.7168823}, {"type": "node", "id": 1282296377, "lat": 41.9428775, "lon": -87.7160079}, {"type": "node", "id": 1282296387, "lat": 41.945339, "lon": -87.7177286}, {"type": "node", "id": 1282296393, "lat": 41.9487108, "lon": -87.7215628}, {"type": "node", "id": 1282296404, "lat": 41.9430388, "lon": -87.7162493}, {"type": "node", "id": 1282296407, "lat": 41.9482001, "lon": -87.7203397}, {"type": "node", "id": 1282296414, "lat": 41.9494668, "lon": -87.7230031}, {"type": "node", "id": 1282296419, "lat": 41.9425922, "lon": -87.7156566}, {"type": "node", "id": 1282296427, "lat": 41.9479942, "lon": -87.7200798}, {"type": "node", "id": 1282296438, "lat": 41.9510702, "lon": -87.7259057}, {"type": "node", "id": 1282296439, "lat": 41.9469566, "lon": -87.7187617}, {"type": "node", "id": 1755741155, "lat": 41.9501254, "lon": -87.7077903}, {"type": "node", "id": 1755741159, "lat": 41.9501263, "lon": -87.7077039}, {"type": "node", "id": 1755741171, "lat": 41.9501359, "lon": -87.7077038}, {"type": "node", "id": 1755741173, "lat": 41.9501375, "lon": -87.7074832}, {"type": "node", "id": 1755741239, "lat": 41.9501899, "lon": -87.7077897}, {"type": "node", "id": 1755741241, "lat": 41.950191, "lon": -87.7074845}, {"type": "node", "id": 1755741356, "lat": 41.9502942, "lon": -87.713869}, {"type": "node", "id": 1755741367, "lat": 41.9503001, "lon": -87.7134369}, {"type": "node", "id": 1755741391, "lat": 41.9503094, "lon": -87.7138909}, {"type": "node", "id": 1755741699, "lat": 41.9504233, "lon": -87.7138934}, {"type": "node", "id": 1755741705, "lat": 41.9504243, "lon": -87.7138181}, {"type": "node", "id": 1755741713, "lat": 41.9504266, "lon": -87.7134909}, {"type": "node", "id": 1755741718, "lat": 41.9504277, "lon": -87.7134394}, {"type": "node", "id": 1755741899, "lat": 41.9504874, "lon": -87.7138193}, {"type": "node", "id": 1755741913, "lat": 41.9504911, "lon": -87.7134921}, {"type": "node", "id": 1755754561, "lat": 41.9540486, "lon": -87.7096177}, {"type": "node", "id": 1755754568, "lat": 41.9540521, "lon": -87.7094982}, {"type": "node", "id": 1755755021, "lat": 41.9542394, "lon": -87.709625}, {"type": "node", "id": 1755755025, "lat": 41.9542406, "lon": -87.7096048}, {"type": "node", "id": 1755755105, "lat": 41.9542791, "lon": -87.7096062}, {"type": "node", "id": 1755755116, "lat": 41.9542813, "lon": -87.7095088}, {"type": "node", "id": 1756009344, "lat": 41.9611871, "lon": -87.7173869}, {"type": "node", "id": 1756009348, "lat": 41.9611888, "lon": -87.7169365}, {"type": "node", "id": 1756009690, "lat": 41.96129, "lon": -87.7173877}, {"type": "node", "id": 1756009692, "lat": 41.9612917, "lon": -87.7169373}, {"type": "node", "id": 2088669212, "lat": 41.9466938, "lon": -87.7185622}, {"type": "node", "id": 2359636164, "lat": 41.9520045, "lon": -87.707771, "tags": {"addr:city": "Chicago", "addr:housenumber": "3859", "addr:postcode": "60618", "addr:street": "North Kedzie Avenue", "amenity": "restaurant", "cuisine": "mexican", "name": "Tamale's Garibay"}}, {"type": "node", "id": 2443252578, "lat": 41.9420655, "lon": -87.7148849}, {"type": "node", "id": 3015668740, "lat": 41.9537699, "lon": -87.7082814, "tags": {"amenity": "pub", "name": "Fuller's Pub"}}, {"type": "node", "id": 3660383836, "lat": 41.9540962, "lon": -87.7073132, "tags": {"addr:city": "Chicago", "addr:housenumber": "3144", "addr:postcode": "60618", "addr:state": "IL", "addr:street": "West Irving Park Road", "amenity": "bar", "name": "Serbian Village", "phone": "+1-773-478-2900"}}, {"type": "node", "id": 5711720121, "lat": 41.9613028, "lon": -87.7067528, "tags": {"addr:housenumber": "3120", "addr:postcode": "60618", "amenity": "restaurant", "cuisine": "spanish", "name": "Brasa Roja", "name:en": "Brasa Roja Columbian Cuisine", "name:es": "Brasa Roja Columbian Cuisine", "opening_hours": "Mo-Su 09:00-22:00", "phone": "7738662252", "website": "http://brasarojarestaurant.com"}}, {"type": "node", "id": 6131450052, "lat": 41.9609383, "lon": -87.7099105, "tags": {"addr:city": "Chicago", "addr:housenumber": "3241", "addr:postcode": "60618", "addr:state": "IL", "addr:street": "West Montrose Avenue", "amenity": "bar", "brewery": "yes", "name": "Surge Coffee Bar & Billiards", "phone": "+1-773-961-8096", "website": "https://surgebilliards.com"}}, {"type": "node", "id": 6269067889, "lat": 41.9559106, "lon": -87.7078551, "tags": {"addr:city": "Chicago", "addr:housenumber": "3154", "addr:postcode": "60618", "addr:state": "IL", "addr:street": "North Kedzie Avenue", "amenity": "bar", "name": "Brickhouse Bar & Grill", "phone": "+1-773-677-9106"}}, {"type": "node", "id": 6282545846, "lat": 41.9539441, "lon": -87.7198151, "tags": {"addr:city": "Chicago", "addr:housenumber": "3658", "addr:postcode": "60618", "addr:state": "IL", "addr:street": "West Irving Park Road", "amenity": "restaurant", "name": "Chicken Works & Salad Company", "phone": "+1-773-588-5488", "website": "http://www.chickenworkschicago.com/"}}, {"type": "node", "id": 6294255482, "lat": 41.9541051, "lon": -87.718301, "tags": {"addr:city": "Chicago", "addr:housenumber": "3608", "addr:postcode": "60618", "addr:state": "IL", "addr:street": "West Irving Park Road", "amenity": "bar", "name": "Hearth And Crust", "phone": "+1-773-516-4800", "website": "https://hearthandcrust.com/"}}, {"type": "node", "id": 6294270411, "lat": 41.9614195, "lon": -87.712106, "tags": {"addr:city": "Chicago", "addr:housenumber": "3332", "addr:postcode": "60618", "addr:state": "IL", "addr:street": "West Montrose Avenue", "amenity": "cafe", "name": "Healthy Smoothies & Nutrition", "phone": "+1-773-588-5367"}}, {"type": "node", "id": 6301096133, "lat": 41.9612494, "lon": -87.7221138, "tags": {"addr:city": "Chicago", "addr:housenumber": "3740", "addr:postcode": "60618", "addr:state": "IL", "addr:street": "West Montrose Avenue", "amenity": "restaurant", "name": "Ruby\u2019s Fast Food", "phone": "+1-773-539-2669"}}, {"type": "node", "id": 6303044522, "lat": 41.9573408, "lon": -87.7157832, "tags": {"addr:city": "Chicago", "addr:housenumber": "4156", "addr:postcode": "60618", "addr:state": "IL", "addr:street": "North Saint Louis Avenue", "amenity": "bar", "name": "T & A Too", "phone": "+1-312-555-1212"}}, {"type": "node", "id": 6314810327, "lat": 41.9613392, "lon": -87.7134362, "tags": {"addr:city": "Chicago", "addr:housenumber": "3402", "addr:postcode": "60618", "addr:state": "IL", "addr:street": "West Montrose Avenue", "amenity": "restaurant", "name": "Ixcateco Grill", "phone": "+1-773-539-5887", "website": "http://www.ixcatecogrill.com/"}}, {"type": "node", "id": 6315619705, "lat": 41.9559382, "lon": -87.7083207, "tags": {"addr:city": "Chicago", "addr:housenumber": "4100", "addr:postcode": "60618", "addr:state": "IL", "addr:street": "North Kedzie Avenue", "amenity": "bar", "name": "The Kedzie Inn", "phone": "+1-773-942-6771", "website": "https://kedzieinn.com/"}}, {"type": "node", "id": 6320668646, "lat": 41.9539316, "lon": -87.7179009, "tags": {"addr:city": "Chicago", "addr:housenumber": "3600", "addr:postcode": "60618", "addr:state": "IL", "addr:street": "West Irving Park Road", "amenity": "cafe", "name": "Lucky Charm Cafe", "phone": "+1-773-293-7207", "website": "http://luckycharmcafe.com/"}}, {"type": "node", "id": 6369274489, "lat": 41.9482852, "lon": -87.7205459}, {"type": "node", "id": 6369274490, "lat": 41.948464, "lon": -87.7209788}, {"type": "node", "id": 6369274492, "lat": 41.9482034, "lon": -87.7205095}, {"type": "node", "id": 6369533865, "lat": 41.9478025, "lon": -87.7196066, "tags": {"name": "Addison", "network": "CTA", "operator": "Chicago Transit Authority", "public_transport": "stop_position", "railway": "stop", "subway": "yes"}}, {"type": "node", "id": 6369533866, "lat": 41.9472299, "lon": -87.7188837}, {"type": "node", "id": 6369533867, "lat": 41.9471595, "lon": -87.7189466}, {"type": "node", "id": 6518077387, "lat": 41.9469117, "lon": -87.7187276, "tags": {"name": "Addison", "network": "CTA", "operator": "Chicago Transit Authority", "public_transport": "stop_position", "railway": "stop", "subway": "yes"}}, {"type": "way", "id": 28239662, "nodes": [310165929, 34877689, 1282296438, 34877691, 1282296265, 258284113, 258284114, 34877693, 6369274492, 258284115, 1282296427, 1282296358, 34877695, 1282296356, 258284116, 6369533867, 1282296439, 6518077387, 2088669212, 34877699, 1282296387, 34877701, 34877702, 258282961, 1282296359, 1282296404, 34877704, 258282962, 736037292, 34877706], "tags": {"electrified": "rail", "frequency": "0", "gauge": "1435", "name": "O'Hare Branch", "oneway": "yes", "operator": "Chicago Transit Authority", "railway": "subway", "voltage": "600"}}, {"type": "way", "id": 163905432, "nodes": [1755754561, 1755755021, 1755755025, 1755755105, 1755755116, 1755754568, 1755754561], "tags": {"addr:housenumber": "3234", "addr:street": "West Irving Park Road", "addr:street:name": "Irving Park", "addr:street:prefix": "West", "addr:street:type": "Road", "amenity": "restaurant", "building": "yes", "building:levels": "2", "name": "Golden Nugget"}}, {"type": "way", "id": 163908811, "nodes": [1755741155, 1755741239, 1755741241, 1755741173, 1755741171, 1755741159, 1755741155], "tags": {"addr:city": "Chicago", "addr:housenumber": "3759", "addr:postcode": "60618", "addr:state": "IL", "addr:street": "North Kedzie Avenue", "addr:street:name": "Kedzie", "addr:street:prefix": "North", "addr:street:type": "Avenue", "amenity": "bar", "building": "yes", "name": "Christina's Place", "phone": "+1-773-463-1768", "website": "https://thisischristinas.wordpress.com/"}}, {"type": "way", "id": 163908869, "nodes": [1755741356, 1755741391, 1755741699, 1755741705, 1755741899, 1755741913, 1755741713, 1755741718, 1755741367, 1755741356], "tags": {"addr:housenumber": "3420", "addr:street": "West Grace Street", "addr:street:name": "Grace", "addr:street:prefix": "West", "addr:street:type": "Street", "amenity": "pub", "building": "yes", "building:levels": "3", "name": "The Abbey Pub", "note": "Pub and concert venue for local music"}}, {"type": "way", "id": 163945047, "nodes": [1756009344, 1756009690, 1756009692, 1756009348, 1756009344], "tags": {"addr:city": "Chicago", "addr:housenumber": "3532", "addr:postcode": "60618", "addr:state": "IL", "addr:street": "West Montrose Avenue", "addr:street:name": "Montrose", "addr:street:prefix": "West", "addr:street:type": "Avenue", "amenity": "restaurant", "building": "yes", "building:levels": "3", "name": "Restaurant Los Molcajetes", "phone": "+1-773-267-1834"}}, {"type": "way", "id": 236279637, "nodes": [2443252578, 1282296281, 1282296372, 1282296419, 1282296377, 1282296214, 1282296232, 1282296343, 1282296376, 1282296286, 1282296307, 1282296302, 1282296276, 1282296299, 6369533866, 1282296248, 1282296318, 6369533865, 1282296291, 1282296290, 1282296407, 6369274489, 1282296201, 6369274490, 1282296393, 1282296322, 1282296221, 1282296414, 1282296215, 1282296208, 1282296337, 1282296203], "tags": {"electrified": "rail", "frequency": "0", "gauge": "1435", "name": "O'Hare Branch", "oneway": "yes", "operator": "Chicago Transit Authority", "railway": "subway", "voltage": "600"}}]}