{"version": 0.6, "generator": "Overpass API 0.7.56.1004 6cd3eaec", "osm3s": {"timestamp_osm_base": "2020-07-09T04:51:02Z", "copyright": "The data included in this document is from www.openstreetmap.org. The data is made available under ODbL."}, "elements": [{"type": "node", "id": 346233089, "lat": 41.9612616, "lon": -87.6835267, "tags": {"amenity": "cafe", "cuisine": "coffee_shop", "name": "Julius Meinl"}}, {"type": "node", "id": 346234680, "lat": 41.9616382, "lon": -87.6761596, "tags": {"amenity": "cafe", "brand": "Starbucks", "brand:wikidata": "Q37158", "brand:wikipedia": "en:Starbucks", "cuisine": "coffee_shop", "name": "Starbucks", "official_name": "Starbucks Coffee", "takeaway": "yes"}}, {"type": "node", "id": 346235240, "lat": 41.9616342, "lon": -87.6766491, "tags": {"amenity": "restaurant", "cuisine": "mexican", "name": "La Amistad"}}, {"type": "node", "id": 414253932, "lat": 41.9605249, "lon": -87.6836882}, {"type": "node", "id": 414253933, "lat": 41.9608674, "lon": -87.6836899}, {"type": "node", "id": 414253934, "lat": 41.9605679, "lon": -87.6833952}, {"type": "node", "id": 1315577349, "lat": 41.9616363, "lon": -87.6753928, "tags": {"addr:city": "Chicago", "addr:housenumber": "1820", "addr:postcode": "60613", "addr:state": "IL", "addr:street": "West Montrose Avenue", "amenity": "restaurant", "cuisine": "fish", "name": "Glenn's Diner", "phone": "+1-773-506-1720", "website": "http://www.glennsdiner.com/"}}, {"type": "node", "id": 1315577350, "lat": 41.9616307, "lon": -87.6758097, "tags": {"amenity": "bar"}}, {"type": "node", "id": 1317827212, "lat": 41.9616108, "lon": -87.6796436, "tags": {"amenity": "restaurant", "brand": "Giordano's Pizzeria", "brand:wikidata": "Q5563393", "brand:wikipedia": "en:Giordano's Pizzeria", "cuisine": "pizza", "name": "Giordano's Pizzeria"}}, {"type": "node", "id": 1317827223, "lat": 41.9613609, "lon": -87.6754823, "tags": {"amenity": "restaurant", "cuisine": "mexican", "name": "El Torito"}}, {"type": "node", "id": 1317862200, "lat": 41.9613426, "lon": -87.67683, "tags": {"amenity": "restaurant", "cuisine": "pizza", "name": "Chicago's Pizza"}}, {"type": "node", "id": 1317862227, "lat": 41.959724, "lon": -87.6828837, "tags": {"addr:city": "Chicago", "addr:housenumber": "4300", "addr:postcode": "60618", "addr:state": "IL", "addr:street": "North Lincoln Avenue", "amenity": "restaurant", "name": "The Bad Apple", "phone": "+1-773-360-8406", "website": "http://www.badapplebar.com/"}}, {"type": "node", "id": 1317862245, "lat": 41.9647919, "lon": -87.6858529, "tags": {"amenity": "cafe", "brand": "Starbucks", "brand:wikidata": "Q37158", "brand:wikipedia": "en:Starbucks", "cuisine": "coffee_shop", "name": "Starbucks", "official_name": "Starbucks Coffee", "takeaway": "yes"}}, {"type": "node", "id": 1432788849, "lat": 41.9613167, "lon": -87.6787734, "tags": {"amenity": "restaurant", "name": "Marmalade"}}, {"type": "node", "id": 1432788850, "lat": 41.9610993, "lon": -87.6839782, "tags": {"amenity": "bar", "name": "Tiny Lounge"}}, {"type": "node", "id": 1432788851, "lat": 41.961224, "lon": -87.6839822, "tags": {"amenity": "restaurant", "cuisine": "american", "name": "Monty Gael's"}}, {"type": "node", "id": 1432789477, "lat": 41.9616298, "lon": -87.6756205, "tags": {"amenity": "restaurant", "cuisine": "thai", "name": "Roong Petch"}}, {"type": "node", "id": 1557244574, "lat": 41.9650425, "lon": -87.6860231, "tags": {"amenity": "restaurant", "cuisine": "indian", "name": "Essence of India"}}, {"type": "node", "id": 1557244581, "lat": 41.959466, "lon": -87.6826489, "tags": {"addr:city": "Chicago", "addr:housenumber": "4264", "addr:postcode": "60618", "addr:state": "IL", "addr:street": "North Lincoln Avenue", "amenity": "bar", "name": "Gannon\u2019s Pub", "phone": "+1-773-281-1007", "website": "http://www.gannonspub.com/"}}, {"type": "node", "id": 1557244593, "lat": 41.9633493, "lon": -87.6853445, "tags": {"addr:city": "Chicago", "addr:housenumber": "4500", "addr:postcode": "60625", "addr:state": "IL", "addr:street": "North Lincoln Avenue", "amenity": "restaurant", "name": "Gideon Welles", "phone": "+1-773-907-2226", "website": "http://gideonchicago.com/"}}, {"type": "node", "id": 1557259859, "lat": 41.9612392, "lon": -87.6840893, "tags": {"amenity": "restaurant", "cuisine": "pizza", "name": "Apart Pizza"}}, {"type": "node", "id": 1627008081, "lat": 41.9616577, "lon": -87.6750199, "tags": {"addr:city": "Chicago", "addr:housenumber": "1810", "addr:postcode": "60613", "addr:state": "IL", "addr:street": "West Montrose Avenue", "amenity": "restaurant", "cuisine": "coffee_shop", "name": "Bayan Ko", "phone": "+1-773-698-6373"}}, {"type": "node", "id": 1627026644, "lat": 41.9670666, "lon": -87.679341, "tags": {"addr:city": "Chicago", "addr:housenumber": "4700", "addr:postcode": "60625", "addr:state": "IL", "addr:street": "North Damen Avenue", "amenity": "cafe", "name": "The Perfect Cup", "phone": "+1-773-989-4177", "website": "http://perfectcupchicago.com/"}}, {"type": "node", "id": 1719743394, "lat": 41.9637446, "lon": -87.6855507, "tags": {"amenity": "restaurant", "cuisine": "italian", "name": "Due Lire"}}, {"type": "node", "id": 1719743398, "lat": 41.9639939, "lon": -87.685725, "tags": {"addr:city": "Chicago", "addr:housenumber": "4530", "addr:postcode": "60625", "addr:state": "IL", "addr:street": "North Lincoln Avenue", "amenity": "bar", "name": "The Grafton", "phone": "+1-773-271-9000", "website": "https://www.thegrafton.com/"}}, {"type": "node", "id": 1719743443, "lat": 41.9614679, "lon": -87.6694841, "tags": {"amenity": "restaurant", "cuisine": "mexican", "name": "Mixteco Grill"}}, {"type": "node", "id": 1719743446, "lat": 41.9669515, "lon": -87.6672606, "tags": {"amenity": "cafe", "cuisine": "coffee_shop", "name": "Ch'ava... a cafe"}}, {"type": "node", "id": 1719743459, "lat": 41.965015, "lon": -87.6756907, "tags": {"amenity": "restaurant", "cuisine": "italian", "name": "Caro Mio"}}, {"type": "node", "id": 1719743519, "lat": 41.9653337, "lon": -87.6727215, "tags": {"amenity": "restaurant", "cuisine": "sushi", "name": "Fin"}}, {"type": "node", "id": 2196852266, "lat": 41.9605686, "lon": -87.6831149}, {"type": "node", "id": 2196852275, "lat": 41.9605716, "lon": -87.6829126}, {"type": "node", "id": 2196852428, "lat": 41.9606238, "lon": -87.6831603}, {"type": "node", "id": 2196852486, "lat": 41.9606386, "lon": -87.6831178}, {"type": "node", "id": 2196852494, "lat": 41.9606407, "lon": -87.6829947}, {"type": "node", "id": 2196852573, "lat": 41.9606681, "lon": -87.6829944}, {"type": "node", "id": 2196852579, "lat": 41.960669, "lon": -87.6829153}, {"type": "node", "id": 2196861228, "lat": 41.9635517, "lon": -87.6857981}, {"type": "node", "id": 2196861315, "lat": 41.9635772, "lon": -87.6856967}, {"type": "node", "id": 2196861327, "lat": 41.9635814, "lon": -87.6857169}, {"type": "node", "id": 2196861353, "lat": 41.963588, "lon": -87.6856745}, {"type": "node", "id": 2196861408, "lat": 41.9635989, "lon": -87.6856689}, {"type": "node", "id": 2196861414, "lat": 41.9635999, "lon": -87.6858307}, {"type": "node", "id": 2196861551, "lat": 41.9636233, "lon": -87.6856025}, {"type": "node", "id": 2196861555, "lat": 41.9636242, "lon": -87.6857643}, {"type": "node", "id": 2196861579, "lat": 41.963632, "lon": -87.6856851}, {"type": "node", "id": 2196861620, "lat": 41.9636414, "lon": -87.685663}, {"type": "node", "id": 2196861651, "lat": 41.9636485, "lon": -87.6856978}, {"type": "node", "id": 2196861689, "lat": 41.9636566, "lon": -87.685672}, {"type": "node", "id": 2196861772, "lat": 41.9636773, "lon": -87.6854567}, {"type": "node", "id": 2196862158, "lat": 41.9637242, "lon": -87.6854875}, {"type": "node", "id": 2200916994, "lat": 41.9685628, "lon": -87.6740172}, {"type": "node", "id": 2200917010, "lat": 41.9685654, "lon": -87.6737613}, {"type": "node", "id": 2200917080, "lat": 41.9686022, "lon": -87.6713361}, {"type": "node", "id": 2200917091, "lat": 41.9686053, "lon": -87.6711669}, {"type": "node", "id": 2200917193, "lat": 41.9686489, "lon": -87.6713375}, {"type": "node", "id": 2200917194, "lat": 41.9686491, "lon": -87.6713706}, {"type": "node", "id": 2200917307, "lat": 41.9687151, "lon": -87.6740211}, {"type": "node", "id": 2200917324, "lat": 41.9687191, "lon": -87.6737646}, {"type": "node", "id": 2200917340, "lat": 41.9687287, "lon": -87.6713734}, {"type": "node", "id": 2200917344, "lat": 41.9687298, "lon": -87.6713385}, {"type": "node", "id": 2200917381, "lat": 41.9687463, "lon": -87.6713401}, {"type": "node", "id": 2200917392, "lat": 41.9687494, "lon": -87.6711709}, {"type": "node", "id": 2200917499, "lat": 41.9688156, "lon": -87.6827497}, {"type": "node", "id": 2200917502, "lat": 41.9688176, "lon": -87.68261}, {"type": "node", "id": 2200917928, "lat": 41.9691546, "lon": -87.6827591}, {"type": "node", "id": 2200917932, "lat": 41.9691566, "lon": -87.6826194}, {"type": "node", "id": 2200925529, "lat": 41.9718151, "lon": -87.6791283}, {"type": "node", "id": 2200925539, "lat": 41.9718192, "lon": -87.6788873}, {"type": "node", "id": 2200925875, "lat": 41.9719742, "lon": -87.6791321}, {"type": "node", "id": 2200925896, "lat": 41.9719784, "lon": -87.6788912}, {"type": "node", "id": 2274368662, "lat": 41.9651576, "lon": -87.6620866, "tags": {"addr:city": "Chicago", "addr:housenumber": "1265", "addr:street": "West Wilson Avenue", "amenity": "restaurant", "brand": "Godfather's Pizza", "brand:wikidata": "Q5576353", "brand:wikipedia": "en:Godfather's Pizza", "cuisine": "pizza", "name": "Godfather's Pizza", "phone": "773-878-8600", "website": "http://www.thegodfatherspizza.com/"}}, {"type": "node", "id": 2276406961, "lat": 41.9616119, "lon": -87.6787867, "tags": {"addr:city": "Chicago", "addr:housenumber": "1970", "addr:postcode": "60618", "addr:state": "IL", "addr:street": "West Montrose Avenue", "amenity": "restaurant", "cuisine": "New_American", "name": "Fountainhead", "phone": "+1-773-697-8204", "website": "http://fountainheadchicago.com/"}}, {"type": "node", "id": 2276407295, "lat": 41.9667045, "lon": -87.6793194, "tags": {"amenity": "restaurant", "name": "Aroy Thai"}}, {"type": "node", "id": 2293823034, "lat": 41.965037, "lon": -87.6738629, "tags": {"addr:city": "Chicago", "addr:housenumber": "4557", "addr:postcode": "60640", "addr:state": "IL", "addr:street": "North Ravenswood Avenue", "amenity": "bar", "cuisine": "irish", "name": "O'Shaughnessy's", "opening_hours": "Mo-Su 11:00-02:00", "phone": "+1-773-944-9896", "website": "http://www.oshaughnessyschicago.com/"}}, {"type": "node", "id": 3409239467, "lat": 41.9719499, "lon": -87.6790776, "tags": {"addr:city": "Chicago", "addr:housenumber": "4947", "addr:postcode": "60625", "addr:state": "IL", "addr:street": "North Damen Avenue", "amenity": "restaurant", "cuisine": "coffee_shop", "name": "Bang Bang Pie & Biscuits", "phone": "+1-312-644-3524", "website": "https://banderarestaurants.com"}}, {"type": "node", "id": 3409239468, "lat": 41.9718542, "lon": -87.6790803, "tags": {"addr:city": "Chicago", "addr:housenumber": "4943", "addr:postcode": "60625", "addr:state": "IL", "addr:street": "North Damen Avenue", "amenity": "restaurant", "cuisine": "american", "name": "Over Easy Cafe", "phone": "+1-773-506-2605", "website": "https://www.overeasycafechicago.com/"}}, {"type": "node", "id": 3778783072, "lat": 41.966979, "lon": -87.6665877, "tags": {"addr:city": "Chicago", "addr:housenumber": "1463", "addr:postcode": "60640", "addr:state": "IL", "addr:street": "West Leland Avenue", "amenity": "restaurant", "capacity": "55", "cuisine": "Traditional_Catering", "name": "Brix Catering", "website": "http://www.brixcatering.com/"}}, {"type": "node", "id": 3784144930, "lat": 41.968987, "lon": -87.6733021, "tags": {"amenity": "restaurant", "cuisine": "mexican", "name": "Garcia's Restaurant", "takeaway": "yes"}}, {"type": "node", "id": 4069272054, "lat": 41.9669571, "lon": -87.6669218, "tags": {"addr:city": "Chicago", "addr:housenumber": "4659", "addr:postcode": "60640", "addr:state": "IL", "addr:street": "North Clark Street", "amenity": "bar", "name": "Carol's Pub", "phone": "+1-773-754-8000", "source": "http://www.yelp.com/biz/carols-pub-chicago", "website": "https://carolschicago.com/"}}, {"type": "node", "id": 4560958768, "lat": 41.9561589, "lon": -87.6743858, "tags": {"addr:city": "Chicago", "addr:housenumber": "1800", "addr:postcode": "60613", "addr:state": "IL", "addr:street": "West Belle Plaine Avenue", "amenity": "bar", "name": "Dovetail Brewery", "opening_hours": "Tu 14:00-22:00; We 14:00-22:00; Th 14:00-22:00; Fr 12:00-23:00; Sa 11:00-23:00; Su 10:00-20:00", "phone": "+1-773-683-1414", "website": "http://dovetailbrewery.com/"}}, {"type": "node", "id": 4729742490, "lat": 41.9651973, "lon": -87.6633434, "tags": {"addr:city": "Chicago", "addr:housenumber": "1325", "addr:postcode": "60640", "addr:state": "IL", "addr:street": "West Wilson Avenue", "amenity": "cafe", "name": "Heritage Outpost", "opening_hours": "Su-Th 07:00-19:00; Fr-Sa 07:00-21:00", "phone": "+1-872-806-0639", "website": "https://www.heritagebicycles.com/pages/heritage-outpost"}}, {"type": "node", "id": 5791106932, "lat": 41.9675954, "lon": -87.6750827, "tags": {"addr:city": "Chicago", "addr:housenumber": "4710", "addr:postcode": "60640", "addr:state": "IL", "addr:street": "North Ravenswood Avenue", "amenity": "restaurant", "cuisine": "american;new_american;american_new", "name": "Band of Bohemia", "phone": "+1-773-271-4710", "website": "http://www.bandofbohemia.com"}}, {"type": "node", "id": 5861896117, "lat": 41.9608711, "lon": -87.6836122}, {"type": "node", "id": 5861896118, "lat": 41.9605287, "lon": -87.6835098}, {"type": "node", "id": 6265692545, "lat": 41.9553987, "lon": -87.6745486, "tags": {"addr:city": "Chicago", "addr:housenumber": "1800", "addr:postcode": "60613", "addr:state": "IL", "addr:street": "West Cuyler Avenue", "amenity": "bar", "name": "Begyle Brewing", "phone": "+1-773-661-6963", "website": "http://begylebrewing.com/Begyle/21.html"}}, {"type": "node", "id": 6267141732, "lat": 41.9614109, "lon": -87.6705867, "tags": {"addr:city": "Chicago", "addr:housenumber": "1637", "addr:postcode": "60613", "addr:state": "IL", "addr:street": "West Montrose Avenue", "amenity": "restaurant", "name": "Bienmesabe", "phone": "+1-773-549-5538", "website": "https://bienmesabechicago.com/"}}, {"type": "node", "id": 6282458559, "lat": 41.9670373, "lon": -87.6664264, "tags": {"addr:city": "Chicago", "addr:housenumber": "1465", "addr:postcode": "60640", "addr:state": "IL", "addr:street": "West Leland Avenue", "amenity": "restaurant", "name": "Chicago Grilled Cheese & Mac Factory", "phone": "+1-773-253-5322"}}, {"type": "node", "id": 6290117327, "lat": 41.9617643, "lon": -87.6734467, "tags": {"addr:city": "Chicago", "addr:housenumber": "4401", "addr:postcode": "60640", "addr:state": "IL", "addr:street": "North Ravenswood Avenue", "amenity": "cafe", "name": "First Slice", "phone": "+1-773-506-7380", "website": "http://firstslice.org/"}}, {"type": "node", "id": 6291758395, "lat": 41.9643176, "lon": -87.6854858, "tags": {"addr:city": "Chicago", "addr:housenumber": "4539", "addr:postcode": "60625", "addr:state": "IL", "addr:street": "North Lincoln Avenue", "amenity": "restaurant", "name": "Gather", "phone": "+1-773-506-9300", "website": "https://www.gatherchicago.com/"}}, {"type": "node", "id": 6297203326, "lat": 41.9728441, "lon": -87.6677597, "tags": {"addr:city": "Chicago", "addr:housenumber": "5009", "addr:postcode": "60640", "addr:state": "IL", "addr:street": "North Clark Street", "amenity": "restaurant", "name": "Hot\u201dG\u201dDog", "phone": "+1-773-209-3360", "website": "http://www.hotgdog.com/"}}, {"type": "node", "id": 6297627326, "lat": 41.9563958, "lon": -87.6799303, "tags": {"addr:city": "Chicago", "addr:housenumber": "4111", "addr:postcode": "60618", "addr:state": "IL", "addr:street": "North Lincoln Avenue", "amenity": "cafe", "name": "Savanna Restaurant", "phone": "+1-872-817-7340"}}, {"type": "node", "id": 6297629547, "lat": 41.9556851, "lon": -87.6801392, "tags": {"addr:city": "Chicago", "addr:housenumber": "4060", "addr:postcode": "60618", "addr:state": "IL", "addr:street": "North Lincoln Avenue", "amenity": "bar", "name": "Save More Lounge", "phone": "+1-773-281-1444"}}, {"type": "node", "id": 6300182145, "lat": 41.9613575, "lon": -87.6755899, "tags": {"addr:city": "Chicago", "addr:housenumber": "1829", "addr:postcode": "60613", "addr:state": "IL", "addr:street": "West Montrose Avenue", "amenity": "bar", "name": "The Ravenswood Tavern", "phone": "+1-773-528-3253", "website": "https://www.theravenswoodtavern.com/"}}, {"type": "node", "id": 6300281117, "lat": 41.9632016, "lon": -87.6737278, "tags": {"addr:city": "Chicago", "addr:housenumber": "1769", "addr:postcode": "60640", "addr:state": "IL", "addr:street": "West Sunnyside Avenue", "amenity": "restaurant", "name": "Spacca Napoli", "phone": "+1-773-878-2420", "website": "https://www.spaccanapolipizzeria.com/"}}, {"type": "node", "id": 6300322752, "lat": 41.9616845, "lon": -87.6750333, "tags": {"addr:city": "Chicago", "addr:housenumber": "1812", "addr:postcode": "60613", "addr:state": "IL", "addr:street": "West Montrose Avenue", "amenity": "cafe", "name": "Spoken Cafe", "phone": "+1-773-769-2000", "website": "http://spokenchicago.com/spoken/"}}, {"type": "node", "id": 6300337645, "lat": 41.9575235, "lon": -87.6813429, "tags": {"addr:city": "Chicago", "addr:housenumber": "4160", "addr:postcode": "60618", "addr:state": "IL", "addr:street": "North Lincoln Avenue", "amenity": "restaurant", "name": "Square Biscuits", "phone": "+1-773-880-1100", "website": "https://www.squarebiscuits.com/"}}, {"type": "node", "id": 6300622085, "lat": 41.9575579, "lon": -87.6814389, "tags": {"addr:city": "Chicago", "addr:housenumber": "4164", "addr:postcode": "60618", "addr:state": "IL", "addr:street": "North Lincoln Avenue", "amenity": "cafe", "name": "Red Eyes Coffee", "phone": "+1-773-327-9478"}}, {"type": "node", "id": 6300865723, "lat": 41.9653736, "lon": -87.6755998, "tags": {"addr:city": "Chicago", "addr:housenumber": "1820", "addr:postcode": "60640", "addr:state": "IL", "addr:street": "West Wilson Avenue", "amenity": "restaurant", "name": "The River Valley Farmer\u2019s Table", "phone": "+1-872-208-3267", "website": "https://rvrvalley.com/rvr-farmers-table"}}, {"type": "node", "id": 6300986791, "lat": 41.9687678, "lon": -87.6677665, "tags": {"addr:city": "Chicago", "addr:housenumber": "4758", "addr:postcode": "60640", "addr:state": "IL", "addr:street": "North Clark Street", "amenity": "cafe", "name": "Ridman\u2019s Coffee", "phone": "+1-773-293-6033", "website": "https://www.ridmanscoffee.com/"}}, {"type": "node", "id": 6304215661, "lat": 41.9642595, "lon": -87.6853788, "tags": {"addr:city": "Chicago", "addr:housenumber": "4535", "addr:postcode": "60625", "addr:state": "IL", "addr:street": "North Lincoln Avenue", "amenity": "restaurant", "cuisine": "american;new_american;american_new;vegetarian", "name": "The Warbler", "phone": "+1-773-681-0950", "website": "https://www.thewarblerchicago.com/"}}, {"type": "node", "id": 6304278992, "lat": 41.9594754, "lon": -87.6821871, "tags": {"addr:city": "Chicago", "addr:housenumber": "4265", "addr:postcode": "60618", "addr:state": "IL", "addr:street": "North Lincoln Avenue", "amenity": "bar", "name": "The Wild Goose Bar & Grill", "phone": "+1-773-281-7112", "website": "https://www.wildgoosebar.com/"}}, {"type": "node", "id": 6304582828, "lat": 41.9662225, "lon": -87.6666746, "tags": {"addr:city": "Chicago", "addr:housenumber": "4631", "addr:postcode": "60640", "addr:state": "IL", "addr:street": "North Clark Street", "amenity": "restaurant", "name": "Tiztal Cafe", "phone": "+1-773-271-4631"}}, {"type": "node", "id": 6305280634, "lat": 41.9731844, "lon": -87.668386, "tags": {"addr:city": "Chicago", "addr:housenumber": "5022", "addr:postcode": "60640", "addr:state": "IL", "addr:street": "North Clark Street", "amenity": "restaurant", "name": "The Bongo Room", "phone": "+1-773-728-7900", "website": "http://thebongoroom.com/"}}, {"type": "node", "id": 6316968107, "lat": 41.9617006, "lon": -87.6758274, "tags": {"addr:city": "Chicago", "addr:housenumber": "1834", "addr:postcode": "60613", "addr:state": "IL", "addr:street": "West Montrose Avenue", "amenity": "bar", "name": "Wolcott Tap", "phone": "+1-773-360-7579", "website": "https://www.wolcotttap.com/"}}, {"type": "node", "id": 6317045353, "lat": 41.9616864, "lon": -87.680248, "tags": {"addr:city": "Chicago", "addr:housenumber": "2030-32", "addr:postcode": "60618", "addr:state": "IL", "addr:street": "West Montrose Avenue", "amenity": "restaurant", "name": "XOchimilco Mexican Restaurant", "phone": "+1-773-661-1534", "website": "https://xochimilco-mexican-restaurant-restaurant.business.site/"}}, {"type": "node", "id": 6319035181, "lat": 41.9564955, "lon": -87.6735524, "tags": {"addr:city": "Chicago", "addr:housenumber": "4115", "addr:postcode": "60613", "addr:state": "IL", "addr:street": "North Ravenswood Avenue", "amenity": "cafe", "name": "Julius Meinl Coffee Bar & Patisserie", "phone": "+1-773-883-1864", "website": "http://www.meinlus.com/ravenswood-cb"}}, {"type": "node", "id": 6319357294, "lat": 41.9585383, "lon": -87.6815872, "tags": {"addr:city": "Chicago", "addr:housenumber": "4229", "addr:postcode": "60618", "addr:state": "IL", "addr:street": "North Lincoln Avenue", "amenity": "restaurant", "name": "Kitsune", "phone": "+1-773-687-9179", "website": "https://www.kitsunerestaurant.com/"}}, {"type": "node", "id": 6319888736, "lat": 41.9648422, "lon": -87.678518, "tags": {"addr:city": "Chicago", "addr:housenumber": "1945", "addr:postcode": "60640", "addr:state": "IL", "addr:street": "West Wilson Avenue", "amenity": "cafe", "name": "La Boulangerie", "phone": "+1-872-208-3479", "website": "http://www.laboulangeriechicago.com/"}}, {"type": "node", "id": 6321606369, "lat": 41.9659551, "lon": -87.6666497, "tags": {"addr:city": "Chicago", "addr:housenumber": "4621", "addr:postcode": "60640", "addr:state": "IL", "addr:street": "North Clark Street", "amenity": "bar", "name": "Max\u2019s Place", "phone": "+1-773-784-3864"}}, {"type": "node", "id": 6322575080, "lat": 41.9732346, "lon": -87.6678071, "tags": {"addr:city": "Chicago", "addr:housenumber": "5025", "addr:postcode": "60640", "addr:state": "IL", "addr:street": "North Clark Street", "amenity": "bar", "name": "Meeting House Tavern", "phone": "+1-773-696-4211", "website": "http://www.meetinghousetavern.com/"}}, {"type": "node", "id": 6323017067, "lat": 41.9622252, "lon": -87.6663711, "tags": {"addr:city": "Chicago", "addr:housenumber": "4416", "addr:postcode": "60640", "addr:state": "IL", "addr:street": "North Clark Street", "amenity": "bar", "name": "My Buddy\u2019s", "phone": "+1-773-728-3397", "website": "https://www.mybuddyschicago.com/"}}, {"type": "node", "id": 6323788017, "lat": 41.9612918, "lon": -87.678559, "tags": {"addr:city": "Chicago", "addr:housenumber": "1959", "addr:postcode": "60613", "addr:state": "IL", "addr:street": "West Montrose Avenue", "amenity": "bar", "name": "Oakwood 83", "phone": "+1-773-327-2785"}}, {"type": "node", "id": 6324417621, "lat": 41.9688927, "lon": -87.6842967, "tags": {"addr:city": "Chicago", "addr:housenumber": "2200", "addr:postcode": "60625", "addr:state": "IL", "addr:street": "West Lawrence Avenue", "amenity": "bar", "name": "The Sixth", "phone": "+1-773-645-4949", "website": "https://www.thesixthbar.com/"}}, {"type": "node", "id": 6326148074, "lat": 41.9689558, "lon": -87.6759509, "tags": {"addr:city": "Chicago", "addr:housenumber": "1840", "addr:postcode": "60640", "addr:state": "IL", "addr:street": "West Lawrence Avenue", "amenity": "bar", "name": "Nob\u2019s Wine Bar"}}, {"type": "node", "id": 6401443304, "lat": 41.965196, "lon": -87.6627771, "tags": {"addr:housenumber": "1309", "addr:street": "West Wilson Avenue", "amenity": "restaurant", "name": "Longacre Pizza Squared", "phone": "7732937413"}}, {"type": "node", "id": 6721955008, "lat": 41.9612586, "lon": -87.6843625, "tags": {"addr:city": "Chicago", "addr:housenumber": "2213", "addr:postcode": "60618", "addr:state": "IL", "addr:street": "West Montrose Avenue", "amenity": "restaurant", "cuisine": "mexican", "name": "Taqueria El Asadero", "phone": "+1-773-583-5563"}}, {"type": "node", "id": 7283923834, "lat": 41.9612491, "lon": -87.6842016, "tags": {"addr:city": "Chicago", "addr:housenumber": "2207", "addr:postcode": "60618", "addr:state": "IL", "addr:street": "West Montrose Ave", "amenity": "restaurant", "description": "Ramen", "name": "Menya Goku", "phone": "773-227-8180"}}, {"type": "way", "id": 35341584, "nodes": [414253932, 414253933, 5861896117, 414253934, 5861896118, 414253932], "tags": {"addr:city": "Chicago", "addr:housenumber": "4340", "addr:postcode": "60618", "addr:street": "North Lincoln Avenue", "amenity": "restaurant", "brand": "Lou Malnati's Pizzeria", "brand:wikidata": "Q6685628", "brand:wikipedia": "en:Lou Malnati's Pizzeria", "building": "yes", "cuisine": "pizza", "name": "Lou Malnati's Pizzeria", "website": "https://www.loumalnatis.com/chicago-lincoln-square-north-center"}}, {"type": "way", "id": 209477174, "nodes": [2196852266, 2196852428, 2196852486, 2196852494, 2196852573, 2196852579, 2196852275, 2196852266], "tags": {"addr:city": "Chicago", "addr:housenumber": "4337", "addr:postcode": "60618", "addr:state": "IL", "addr:street": "North Lincoln Avenue", "amenity": "bar", "cuisine": "burger", "name": "The Northman", "phone": "+1-773-935-2255", "website": "https://thenorthman.com/"}}, {"type": "way", "id": 209477625, "nodes": [2196861228, 2196861414, 2196861555, 2196861651, 2196861579, 2196861620, 2196861689, 2196862158, 2196861772, 2196861551, 2196861408, 2196861353, 2196861315, 2196861327, 2196861228], "tags": {"addr:city": "Chicago", "addr:housenumber": "4518", "addr:postcode": "60625", "addr:state": "IL", "addr:street": "North Lincoln Avenue", "addr:street:name": "Lincoln", "addr:street:prefix": "North", "addr:street:type": "Avenue", "amenity": "restaurant", "building": "yes", "building:levels": "2", "chicago:building_id": "119785", "cuisine": "french", "name": "Bistro Campagne", "phone": "+1-773-271-6100", "website": "http://www.bistrocampagne.com/"}}, {"type": "way", "id": 209938702, "nodes": [2200917080, 2200917193, 2200917194, 2200917340, 2200917344, 2200917381, 2200917392, 2200917091, 2200917080], "tags": {"addr:housenumber": "1701", "addr:street": "West Lawrence Avenue", "addr:street:name": "Lawrence", "addr:street:prefix": "West", "addr:street:type": "Avenue", "amenity": "restaurant", "building": "yes", "building:levels": "1", "chicago:building_id": "103739", "cuisine": "burger", "name": "Byron's Hotdogs"}}, {"type": "way", "id": 209938737, "nodes": [2200916994, 2200917307, 2200917324, 2200917010, 2200916994], "tags": {"addr:city": "Chicago", "addr:housenumber": "1765", "addr:postcode": "60640", "addr:street": "West Lawrence Avenue", "addr:street:name": "Lawrence", "addr:street:prefix": "West", "addr:street:type": "Avenue", "amenity": "restaurant", "building": "yes", "building:levels": "1", "chicago:building_id": "103912", "cuisine": "american", "name": "Golden Nugget Pancake House", "website": "https://goldennuggetpancake.com/"}}, {"type": "way", "id": 209938915, "nodes": [2200917499, 2200917928, 2200917932, 2200917502, 2200917499], "tags": {"addr:housenumber": "2124", "addr:street": "West Lawrence Avenue", "addr:street:name": "Lawrence", "addr:street:prefix": "West", "addr:street:type": "Avenue", "amenity": "restaurant", "building": "yes", "building:levels": "2", "chicago:building_id": "102377", "cuisine": "pizza", "name": "Borelli's Pizza"}}, {"type": "way", "id": 209939969, "nodes": [2200925529, 2200925875, 2200925896, 2200925539, 2200925529], "tags": {"addr:city": "Chicago", "addr:housenumber": "4947", "addr:postcode": "9020", "addr:state": "IL", "addr:street": "North Damen Avenue", "addr:street:name": "Damen", "addr:street:prefix": "North", "addr:street:type": "Avenue", "amenity": "restaurant", "building": "yes", "building:levels": "1", "chicago:building_id": "91201", "name": "Bang Bang Pie & Biscuits", "phone": "+1-773-530-9020", "website": "http://www.bangbangpie.com/"}}]}