{"version": 0.6, "generator": "Overpass API 0.7.56.1004 6cd3eaec", "osm3s": {"timestamp_osm_base": "2020-07-22T04:23:01Z", "copyright": "The data included in this document is from www.openstreetmap.org. The data is made available under ODbL."}, "elements": [{"type": "node", "id": 346233089, "lat": 41.9612616, "lon": -87.6835267, "tags": {"amenity": "cafe", "cuisine": "coffee_shop", "name": "Julius Meinl"}}, {"type": "node", "id": 347301872, "lat": 41.9547023, "lon": -87.6789343, "tags": {"amenity": "cafe", "brand": "Starbucks", "brand:wikidata": "Q37158", "brand:wikipedia": "en:Starbucks", "cuisine": "coffee_shop", "name": "Starbucks", "official_name": "Starbucks Coffee", "takeaway": "yes"}}, {"type": "node", "id": 414253932, "lat": 41.9605249, "lon": -87.6836882}, {"type": "node", "id": 414253933, "lat": 41.9608674, "lon": -87.6836899}, {"type": "node", "id": 414253934, "lat": 41.9605679, "lon": -87.6833952}, {"type": "node", "id": 1317862200, "lat": 41.9613426, "lon": -87.67683, "tags": {"amenity": "restaurant", "cuisine": "pizza", "name": "Chicago's Pizza"}}, {"type": "node", "id": 1317862227, "lat": 41.959724, "lon": -87.6828837, "tags": {"addr:city": "Chicago", "addr:housenumber": "4300", "addr:postcode": "60618", "addr:state": "IL", "addr:street": "North Lincoln Avenue", "amenity": "restaurant", "name": "The Bad Apple", "phone": "+1-773-360-8406", "website": "http://www.badapplebar.com/"}}, {"type": "node", "id": 1432788849, "lat": 41.9613167, "lon": -87.6787734, "tags": {"amenity": "restaurant", "name": "Marmalade"}}, {"type": "node", "id": 1432788850, "lat": 41.9610993, "lon": -87.6839782, "tags": {"amenity": "bar", "name": "Tiny Lounge"}}, {"type": "node", "id": 1432788851, "lat": 41.961224, "lon": -87.6839822, "tags": {"amenity": "restaurant", "cuisine": "american", "name": "Monty Gael's"}}, {"type": "node", "id": 1557244581, "lat": 41.959466, "lon": -87.6826489, "tags": {"addr:city": "Chicago", "addr:housenumber": "4264", "addr:postcode": "60618", "addr:state": "IL", "addr:street": "North Lincoln Avenue", "amenity": "bar", "name": "Gannon\u2019s Pub", "phone": "+1-773-281-1007", "website": "http://www.gannonspub.com/"}}, {"type": "node", "id": 1557259859, "lat": 41.9612392, "lon": -87.6840893, "tags": {"amenity": "restaurant", "cuisine": "pizza", "name": "Apart Pizza"}}, {"type": "node", "id": 2196801934, "lat": 41.9479014, "lon": -87.6887666}, {"type": "node", "id": 2196801942, "lat": 41.9479059, "lon": -87.6885603}, {"type": "node", "id": 2196802912, "lat": 41.9479946, "lon": -87.6887051}, {"type": "node", "id": 2196802925, "lat": 41.9479123, "lon": -87.6885092}, {"type": "node", "id": 2196803265, "lat": 41.9483151, "lon": -87.6881156}, {"type": "node", "id": 2196803268, "lat": 41.9483155, "lon": -87.687941}, {"type": "node", "id": 2196803460, "lat": 41.948379, "lon": -87.6880139}, {"type": "node", "id": 2196803462, "lat": 41.94838, "lon": -87.6879422}, {"type": "node", "id": 2196803476, "lat": 41.9483851, "lon": -87.6881168}, {"type": "node", "id": 2196803481, "lat": 41.948386, "lon": -87.6880304}, {"type": "node", "id": 2196816832, "lat": 41.9536122, "lon": -87.6993319}, {"type": "node", "id": 2196816834, "lat": 41.9536144, "lon": -87.69924}, {"type": "node", "id": 2196816858, "lat": 41.9536295, "lon": -87.6992417}, {"type": "node", "id": 2196816860, "lat": 41.9536307, "lon": -87.6992104}, {"type": "node", "id": 2196817156, "lat": 41.9538331, "lon": -87.6993371}, {"type": "node", "id": 2196817161, "lat": 41.9538352, "lon": -87.6992158}, {"type": "node", "id": 2196852266, "lat": 41.9605686, "lon": -87.6831149}, {"type": "node", "id": 2196852275, "lat": 41.9605716, "lon": -87.6829126}, {"type": "node", "id": 2196852428, "lat": 41.9606238, "lon": -87.6831603}, {"type": "node", "id": 2196852486, "lat": 41.9606386, "lon": -87.6831178}, {"type": "node", "id": 2196852494, "lat": 41.9606407, "lon": -87.6829947}, {"type": "node", "id": 2196852573, "lat": 41.9606681, "lon": -87.6829944}, {"type": "node", "id": 2196852579, "lat": 41.960669, "lon": -87.6829153}, {"type": "node", "id": 2196853939, "lat": 41.9614408, "lon": -87.6909119, "tags": {"amenity": "restaurant", "name": "Cafe Lutz"}}, {"type": "node", "id": 2200725964, "lat": 41.9533183, "lon": -87.6780307}, {"type": "node", "id": 2200725966, "lat": 41.9533184, "lon": -87.6780399}, {"type": "node", "id": 2200726016, "lat": 41.9533237, "lon": -87.6777678}, {"type": "node", "id": 2200726082, "lat": 41.9533374, "lon": -87.6777677}, {"type": "node", "id": 2200726089, "lat": 41.9533385, "lon": -87.6777162}, {"type": "node", "id": 2200726345, "lat": 41.9533776, "lon": -87.6780798}, {"type": "node", "id": 2200726468, "lat": 41.9533897, "lon": -87.67803}, {"type": "node", "id": 2200726469, "lat": 41.9533898, "lon": -87.6780484}, {"type": "node", "id": 2200726510, "lat": 41.9533942, "lon": -87.6778572}, {"type": "node", "id": 2200726534, "lat": 41.9533964, "lon": -87.6777671}, {"type": "node", "id": 2200726538, "lat": 41.9533975, "lon": -87.6777174}, {"type": "node", "id": 2200726901, "lat": 41.9534546, "lon": -87.6778602}, {"type": "node", "id": 2200726915, "lat": 41.9534568, "lon": -87.6777701}, {"type": "node", "id": 2200731343, "lat": 41.9543052, "lon": -87.6780942}, {"type": "node", "id": 2200731346, "lat": 41.9543061, "lon": -87.6780041}, {"type": "node", "id": 2200731347, "lat": 41.9543062, "lon": -87.6780206}, {"type": "node", "id": 2200731469, "lat": 41.9543733, "lon": -87.6780052}, {"type": "node", "id": 2200731489, "lat": 41.9543817, "lon": -87.6780198}, {"type": "node", "id": 2200731493, "lat": 41.954383, "lon": -87.6780235}, {"type": "node", "id": 2200731506, "lat": 41.9543875, "lon": -87.6780804}, {"type": "node", "id": 2200731507, "lat": 41.9543876, "lon": -87.6780951}, {"type": "node", "id": 2200731570, "lat": 41.9544132, "lon": -87.678025}, {"type": "node", "id": 2200731577, "lat": 41.9544187, "lon": -87.6780195}, {"type": "node", "id": 2200731594, "lat": 41.9544218, "lon": -87.6780801}, {"type": "node", "id": 2200731596, "lat": 41.9544219, "lon": -87.6780966}, {"type": "node", "id": 2200731601, "lat": 41.9544241, "lon": -87.6780121}, {"type": "node", "id": 2200732005, "lat": 41.9545495, "lon": -87.6781008}, {"type": "node", "id": 2200732012, "lat": 41.9545504, "lon": -87.6780163}, {"type": "node", "id": 2200732013, "lat": 41.9545504, "lon": -87.6780181}, {"type": "node", "id": 2393667680, "lat": 41.9428218, "lon": -87.6908115}, {"type": "node", "id": 2393667751, "lat": 41.9438427, "lon": -87.6908432}, {"type": "node", "id": 2393685997, "lat": 41.9433922, "lon": -87.6922414}, {"type": "node", "id": 2393686008, "lat": 41.9435709, "lon": -87.6922429}, {"type": "node", "id": 2404188173, "lat": 41.9438372, "lon": -87.6914896}, {"type": "node", "id": 2527216722, "lat": 41.9467655, "lon": -87.675979, "tags": {"addr:city": "Chicago", "addr:housenumber": "1851", "addr:postcode": "60613", "addr:street": "West Addison Street", "amenity": "restaurant", "name": "Endgrain", "website": "http://www.endgrainrestaurant.com/"}}, {"type": "node", "id": 2601552510, "lat": 41.9407935, "lon": -87.6924228}, {"type": "node", "id": 2601552511, "lat": 41.9407937, "lon": -87.6925988}, {"type": "node", "id": 2601552512, "lat": 41.9407993, "lon": -87.6907578}, {"type": "node", "id": 2601552513, "lat": 41.9408234, "lon": -87.6927284}, {"type": "node", "id": 2601552514, "lat": 41.9409246, "lon": -87.6928977}, {"type": "node", "id": 2601552515, "lat": 41.9409972, "lon": -87.6929537}, {"type": "node", "id": 2601552516, "lat": 41.9414811, "lon": -87.6929985}, {"type": "node", "id": 2601552517, "lat": 41.9419666, "lon": -87.6907935}, {"type": "node", "id": 3011103181, "lat": 41.9546765, "lon": -87.6887215, "tags": {"addr:housenumber": "4018", "addr:street": "North Western Avenue", "amenity": "restaurant", "cuisine": "thai", "name": "Sticky Rice", "opening_hours": "Mo-Sa 11:30-23:00; Su 12:00-22:00", "website": "http://www.stickyricethai.com/"}}, {"type": "node", "id": 3015672019, "lat": 41.9536402, "lon": -87.6991711, "tags": {"amenity": "restaurant", "cuisine": "mexican", "name": "The Famous Taco Burrito"}}, {"type": "node", "id": 3015676165, "lat": 41.954379, "lon": -87.6986616, "tags": {"amenity": "restaurant", "cuisine": "chinese", "name": "Lo's China Kitchen"}}, {"type": "node", "id": 3555057608, "lat": 41.9426005, "lon": -87.6908138}, {"type": "node", "id": 3555057609, "lat": 41.9419597, "lon": -87.6930147}, {"type": "node", "id": 3555057610, "lat": 41.9421048, "lon": -87.6930373}, {"type": "node", "id": 3555057611, "lat": 41.942257, "lon": -87.6930804}, {"type": "node", "id": 3555057612, "lat": 41.9423871, "lon": -87.6931299}, {"type": "node", "id": 3555057613, "lat": 41.9425541, "lon": -87.6932184}, {"type": "node", "id": 3555057614, "lat": 41.9429017, "lon": -87.6934627}, {"type": "node", "id": 3555057622, "lat": 41.9433671, "lon": -87.6937835}, {"type": "node", "id": 3555057623, "lat": 41.9429584, "lon": -87.6935016}, {"type": "node", "id": 3567139344, "lat": 41.9433764, "lon": -87.6932131}, {"type": "node", "id": 3908971502, "lat": 41.9479967, "lon": -87.6885857}, {"type": "node", "id": 3908971503, "lat": 41.9478809, "lon": -87.68863}, {"type": "node", "id": 3908971505, "lat": 41.947906, "lon": -87.6886272}, {"type": "node", "id": 3908971506, "lat": 41.9479675, "lon": -87.6887728}, {"type": "node", "id": 3908971507, "lat": 41.9479696, "lon": -87.6887027}, {"type": "node", "id": 3908971508, "lat": 41.9479719, "lon": -87.6885784}, {"type": "node", "id": 3908971509, "lat": 41.9478839, "lon": -87.6885711}, {"type": "node", "id": 3908971510, "lat": 41.9479736, "lon": -87.6885143}, {"type": "node", "id": 3952957928, "lat": 41.9545863, "lon": -87.6786069, "tags": {"addr:city": "Chicago", "addr:housenumber": "4011", "addr:postcode": "60618", "addr:state": "IL", "addr:street": "North Damen Avenue", "amenity": "bar", "name": "The Victor Bar", "phone": "+1-773-360-7049", "website": "http://www.thevictorbarchicago.com/"}}, {"type": "node", "id": 4240308920, "lat": 41.9460107, "lon": -87.6877924, "tags": {"addr:city": "Chicago", "addr:housenumber": "3539", "addr:postcode": "60618", "addr:state": "IL", "addr:street": "North Western Avenue", "amenity": "restaurant", "cuisine": "mediterranean", "name": "Pi-Hi Cafe"}}, {"type": "node", "id": 4240308923, "lat": 41.9458554, "lon": -87.6877905, "tags": {"addr:city": "Chicago", "addr:housenumber": "3533", "addr:postcode": "60618", "addr:state": "IL", "addr:street": "North Western Avenue", "amenity": "restaurant", "cuisine": "chinese", "name": "New China 2"}}, {"type": "node", "id": 5215407357, "lat": 41.954406, "lon": -87.6757926, "tags": {"addr:city": "Chicago", "addr:housenumber": "1840", "addr:postcode": "60613", "addr:state": "IL", "addr:street": "West Irving Park Road", "amenity": "cafe", "name": "Steingold's", "opening_hours": "Mo-Th 08:00-15:00; Fr 08:00-20:00; Sa-Su 09:00-15:00", "phone": "+1-773-661-2469", "website": "https://www.steingoldsdeli.com/"}}, {"type": "node", "id": 5460811043, "lat": 41.9543611, "lon": -87.6801982, "tags": {"addr:city": "Chicago", "addr:housenumber": "2034", "addr:postcode": "60618", "addr:state": "IL", "addr:street": "West Irving Park Road", "amenity": "bar", "name": "Resi\u2019s Bierstube Restaurant", "opening_hours": "Mo-Th 16:00-02:00; Fr 14:00-02:00; Sa 14:00-03:00; Su 14:00-01:00", "phone": "+1-773-472-1749"}}, {"type": "node", "id": 5460917346, "lat": 41.9544424, "lon": -87.6777722, "tags": {"addr:city": "Chicago", "addr:housenumber": "1934", "addr:postcode": "60613", "addr:state": "IL", "addr:street": "West Irving Park Road", "amenity": "bar", "cuisine": "pub;american", "name": "The Globe Pub", "opening_hours": "Mo-Fr 11:00-02:00; Sa 06:00-03:00; Su 07:00-02:00", "phone": "+1-773-871-3757", "website": "http://www.theglobepub.com/"}}, {"type": "node", "id": 5460924648, "lat": 41.9513376, "lon": -87.6769653, "tags": {"addr:city": "Chicago", "addr:housenumber": "3832", "addr:postcode": "60613", "addr:state": "IL", "addr:street": "North Lincoln Avenue", "amenity": "restaurant", "cuisine": "pizza;barbecue;bbq;barbeque;american", "name": "Big Bricks", "opening_hours": "Mo-Th 17:00-23:00; Fr-Sa 11:30-00:00; Su 11:30-23:00", "phone": "+1-773-525-5022", "website": "http://www.bigbrickschicago.com/"}}, {"type": "node", "id": 5861896117, "lat": 41.9608711, "lon": -87.6836122}, {"type": "node", "id": 5861896118, "lat": 41.9605287, "lon": -87.6835098}, {"type": "node", "id": 6269135159, "lat": 41.9533646, "lon": -87.6778752, "tags": {"addr:city": "Chicago", "addr:housenumber": "3937", "addr:postcode": "60613", "addr:state": "IL", "addr:street": "North Lincoln Avenue", "amenity": "bar", "name": "Brownstone Tavern & Grill", "phone": "+1-773-528-3700"}}, {"type": "node", "id": 6280614231, "lat": 41.9538699, "lon": -87.6854312, "tags": {"addr:city": "Chicago", "addr:housenumber": "2245", "addr:postcode": "60618", "addr:state": "IL", "addr:street": "West Irving Park Road", "amenity": "restaurant", "name": "Chayhana", "phone": "+1-773-942-7720", "website": "http://chayhanachicago.com/"}}, {"type": "node", "id": 6283201843, "lat": 41.9539652, "lon": -87.6810058, "tags": {"addr:city": "Chicago", "addr:housenumber": "2059", "addr:postcode": "60618", "addr:state": "IL", "addr:street": "West Irving Park Road", "amenity": "cafe", "name": "Coffee Joint", "phone": "+1-773-629-1725", "website": "https://coffeejoint.com/"}}, {"type": "node", "id": 6285864716, "lat": 41.9535455, "lon": -87.6779861, "tags": {"addr:city": "Chicago", "addr:housenumber": "3941", "addr:postcode": "60613", "addr:state": "IL", "addr:street": "North Lincoln Avenue", "amenity": "restaurant", "name": "El Llano Restaurant - Northcenter", "phone": "+1-773-868-1899", "website": "https://www.llanochicago.com/"}}, {"type": "node", "id": 6292012650, "lat": 41.9515876, "lon": -87.6767514, "tags": {"addr:city": "Chicago", "addr:housenumber": "3839", "addr:postcode": "60613", "addr:state": "IL", "addr:street": "North Lincoln Avenue", "amenity": "bar", "name": "Goldie\u2019s Pub", "phone": "+1-773-404-5322", "website": "http://www.goldiespub.com/"}}, {"type": "node", "id": 6294280332, "lat": 41.9476722, "lon": -87.6956965, "tags": {"addr:city": "Chicago", "addr:housenumber": "3626", "addr:postcode": "60618", "addr:state": "IL", "addr:street": "North Talman Avenue", "amenity": "bar", "name": "Heineken Pub97", "phone": "+1-773-944-1203", "website": "https://www.heinekenpub97.com/"}}, {"type": "node", "id": 6297627326, "lat": 41.9563958, "lon": -87.6799303, "tags": {"addr:city": "Chicago", "addr:housenumber": "4111", "addr:postcode": "60618", "addr:state": "IL", "addr:street": "North Lincoln Avenue", "amenity": "cafe", "name": "Savanna Restaurant", "phone": "+1-872-817-7340"}}, {"type": "node", "id": 6297629547, "lat": 41.9556851, "lon": -87.6801392, "tags": {"addr:city": "Chicago", "addr:housenumber": "4060", "addr:postcode": "60618", "addr:state": "IL", "addr:street": "North Lincoln Avenue", "amenity": "bar", "name": "Save More Lounge", "phone": "+1-773-281-1444"}}, {"type": "node", "id": 6300182145, "lat": 41.9613575, "lon": -87.6755899, "tags": {"addr:city": "Chicago", "addr:housenumber": "1829", "addr:postcode": "60613", "addr:state": "IL", "addr:street": "West Montrose Avenue", "amenity": "bar", "name": "The Ravenswood Tavern", "phone": "+1-773-528-3253", "website": "https://www.theravenswoodtavern.com/"}}, {"type": "node", "id": 6300337645, "lat": 41.9575235, "lon": -87.6813429, "tags": {"addr:city": "Chicago", "addr:housenumber": "4160", "addr:postcode": "60618", "addr:state": "IL", "addr:street": "North Lincoln Avenue", "amenity": "restaurant", "name": "Square Biscuits", "phone": "+1-773-880-1100", "website": "https://www.squarebiscuits.com/"}}, {"type": "node", "id": 6300622085, "lat": 41.9575579, "lon": -87.6814389, "tags": {"addr:city": "Chicago", "addr:housenumber": "4164", "addr:postcode": "60618", "addr:state": "IL", "addr:street": "North Lincoln Avenue", "amenity": "cafe", "name": "Red Eyes Coffee", "phone": "+1-773-327-9478"}}, {"type": "node", "id": 6301050172, "lat": 41.9466297, "lon": -87.6832356, "tags": {"addr:city": "Chicago", "addr:housenumber": "2159", "addr:postcode": "60618", "addr:state": "IL", "addr:street": "West Addison Street", "amenity": "bar", "name": "Roscoe Village Pub", "phone": "+1-773-472-6160", "website": "https://www.roscoevillagepub.com/"}}, {"type": "node", "id": 6301759131, "lat": 41.9546735, "lon": -87.6887916, "tags": {"addr:city": "Chicago", "addr:housenumber": "4018", "addr:postcode": "60618", "addr:state": "IL", "addr:street": "North Western Avenue", "amenity": "restaurant", "name": "Sticky Rice", "phone": "+1-773-588-0133", "website": "http://stickyricethai.com/index10.php"}}, {"type": "node", "id": 6304278992, "lat": 41.9594754, "lon": -87.6821871, "tags": {"addr:city": "Chicago", "addr:housenumber": "4265", "addr:postcode": "60618", "addr:state": "IL", "addr:street": "North Lincoln Avenue", "amenity": "bar", "name": "The Wild Goose Bar & Grill", "phone": "+1-773-281-7112", "website": "https://www.wildgoosebar.com/"}}, {"type": "node", "id": 6304560818, "lat": 41.9539139, "lon": -87.6761056, "tags": {"addr:city": "Chicago", "addr:housenumber": "1851", "addr:postcode": "60613", "addr:state": "IL", "addr:street": "West Irving Park Road", "amenity": "bar", "name": "Timber Lanes", "phone": "+1-773-549-9770", "website": "http://www.timberlanesbowl.com/"}}, {"type": "node", "id": 6319305964, "lat": 41.9465972, "lon": -87.6759516, "tags": {"addr:city": "Chicago", "addr:housenumber": "1851", "addr:postcode": "60613", "addr:state": "IL", "addr:street": "West Addison Street", "amenity": "bar", "name": "Kite String Cantina", "phone": "+1-773-666-5221", "website": "https://www.kitestringcantina.com/"}}, {"type": "node", "id": 6319357294, "lat": 41.9585383, "lon": -87.6815872, "tags": {"addr:city": "Chicago", "addr:housenumber": "4229", "addr:postcode": "60618", "addr:state": "IL", "addr:street": "North Lincoln Avenue", "amenity": "restaurant", "name": "Kitsune", "phone": "+1-773-687-9179", "website": "https://www.kitsunerestaurant.com/"}}, {"type": "node", "id": 6323003743, "lat": 41.9526882, "lon": -87.6773223, "tags": {"addr:city": "Chicago", "addr:housenumber": "3905", "addr:postcode": "60613", "addr:state": "IL", "addr:street": "North Lincoln Avenue", "amenity": "restaurant", "name": "Mrs. Murphy & Sons Irish Bistro", "phone": "+1-773-248-3905", "website": "https://irishbistro.com/"}}, {"type": "node", "id": 6323640782, "lat": 41.9544889, "lon": -87.6814266, "tags": {"addr:city": "Chicago", "addr:housenumber": "2100", "addr:postcode": "60618", "addr:state": "IL", "addr:street": "West Irving Park Road", "amenity": "bar", "name": "O\u2019Donovan\u2019s", "phone": "+1-773-478-2100", "website": "http://odonovansbar.com/"}}, {"type": "node", "id": 6323788017, "lat": 41.9612918, "lon": -87.678559, "tags": {"addr:city": "Chicago", "addr:housenumber": "1959", "addr:postcode": "60613", "addr:state": "IL", "addr:street": "West Montrose Avenue", "amenity": "bar", "name": "Oakwood 83", "phone": "+1-773-327-2785"}}, {"type": "node", "id": 6476673188, "lat": 41.9480241, "lon": -87.6877664, "tags": {"addr:housenumber": "3643", "amenity": "restaurant", "name": "MOD Pizza", "opening_hours": "Mo-Th 10:00-21:00; Fr 10:00-22:00; Sa 10:30-22:00; Su 10:30-21:00"}}, {"type": "node", "id": 6721955008, "lat": 41.9612586, "lon": -87.6843625, "tags": {"addr:city": "Chicago", "addr:housenumber": "2213", "addr:postcode": "60618", "addr:state": "IL", "addr:street": "West Montrose Avenue", "amenity": "restaurant", "cuisine": "mexican", "name": "Taqueria El Asadero", "phone": "+1-773-583-5563"}}, {"type": "node", "id": 6955522307, "lat": 41.9427233, "lon": -87.6933402}, {"type": "node", "id": 6955522338, "lat": 41.944547, "lon": -87.6914964}, {"type": "node", "id": 6955522339, "lat": 41.9445432, "lon": -87.6921235}, {"type": "node", "id": 6955522345, "lat": 41.9436637, "lon": -87.6921836}, {"type": "node", "id": 6955522346, "lat": 41.9438043, "lon": -87.6920938}, {"type": "node", "id": 6955522589, "lat": 41.9433808, "lon": -87.6929422}, {"type": "node", "id": 6970050101, "lat": 41.9426566, "lon": -87.6932905}, {"type": "node", "id": 6970050102, "lat": 41.9417606, "lon": -87.6930081}, {"type": "node", "id": 6970050103, "lat": 41.9417148, "lon": -87.6930102}, {"type": "node", "id": 6970050104, "lat": 41.9416698, "lon": -87.6930058}, {"type": "node", "id": 6970050106, "lat": 41.9407922, "lon": -87.6922262}, {"type": "node", "id": 6970050107, "lat": 41.9408668, "lon": -87.6928247}, {"type": "node", "id": 6970050108, "lat": 41.9410748, "lon": -87.6929849}, {"type": "node", "id": 6970050109, "lat": 41.9426895, "lon": -87.693315}, {"type": "node", "id": 6970050125, "lat": 41.9425108, "lon": -87.6908109}, {"type": "node", "id": 6970050126, "lat": 41.9407985, "lon": -87.6909445}, {"type": "node", "id": 6970050143, "lat": 41.9407926, "lon": -87.6921474}, {"type": "node", "id": 6970050165, "lat": 41.9420199, "lon": -87.6930241}, {"type": "node", "id": 6970050176, "lat": 41.9425245, "lon": -87.6932027}, {"type": "node", "id": 6970050178, "lat": 41.9426245, "lon": -87.6932679}, {"type": "node", "id": 7283923834, "lat": 41.9612491, "lon": -87.6842016, "tags": {"addr:city": "Chicago", "addr:housenumber": "2207", "addr:postcode": "60618", "addr:state": "IL", "addr:street": "West Montrose Ave", "amenity": "restaurant", "description": "Ramen", "name": "Menya Goku", "phone": "773-227-8180"}}, {"type": "way", "id": 35341584, "nodes": [414253932, 414253933, 5861896117, 414253934, 5861896118, 414253932], "tags": {"addr:city": "Chicago", "addr:housenumber": "4340", "addr:postcode": "60618", "addr:street": "North Lincoln Avenue", "amenity": "restaurant", "brand": "Lou Malnati's Pizzeria", "brand:wikidata": "Q6685628", "brand:wikipedia": "en:Lou Malnati's Pizzeria", "building": "yes", "cuisine": "pizza", "name": "Lou Malnati's Pizzeria", "website": "https://www.loumalnatis.com/chicago-lincoln-square-north-center"}}, {"type": "way", "id": 209464598, "nodes": [2196816832, 2196817156, 2196817161, 2196816860, 2196816858, 2196816834, 2196816832], "tags": {"addr:city": "Chicago", "addr:housenumber": "2825", "addr:postcode": "60618", "addr:state": "IL", "addr:street": "West Irving Park Road", "addr:street:name": "Irving Park", "addr:street:prefix": "West", "addr:street:type": "Road", "amenity": "bar", "building": "yes", "chicago:building_id": "153642", "name": "Pete\u2019s Place"}}, {"type": "way", "id": 209465538, "nodes": [2196801934, 3908971506, 3908971507, 2196802912, 3908971502, 3908971508, 3908971510, 2196802925, 2196801942, 3908971509, 3908971503, 3908971505, 2196801934], "tags": {"addr:city": "Chicago", "addr:housenumber": "3640", "addr:postcode": "60618", "addr:state": "IL", "addr:street": "North Western Avenue", "addr:street:name": "Western", "addr:street:prefix": "North", "addr:street:type": "Avenue", "amenity": "cafe", "building": "yes", "chicago:building_id": "174417", "cuisine": "coffee_shop", "name": "Starbucks"}}, {"type": "way", "id": 209465693, "nodes": [2196803265, 2196803476, 2196803481, 2196803460, 2196803462, 2196803268, 2196803265], "tags": {"addr:city": "Chicago", "addr:housenumber": "3655", "addr:postcode": "60618", "addr:state": "IL", "addr:street": "North Western Avenue", "addr:street:name": "Western", "addr:street:prefix": "North", "addr:street:type": "Avenue", "amenity": "restaurant", "building": "yes", "building:levels": "2", "chicago:building_id": "173601", "name": "Reclaimed Bar and Restaurant", "phone": "+1-773-857-0943", "website": "https://www.reclaimedbarandrestaurant.com/"}}, {"type": "way", "id": 209477174, "nodes": [2196852266, 2196852428, 2196852486, 2196852494, 2196852573, 2196852579, 2196852275, 2196852266], "tags": {"addr:city": "Chicago", "addr:housenumber": "4337", "addr:postcode": "60618", "addr:state": "IL", "addr:street": "North Lincoln Avenue", "amenity": "bar", "cuisine": "burger", "name": "The Northman", "phone": "+1-773-935-2255", "website": "https://thenorthman.com/"}}, {"type": "way", "id": 209919006, "nodes": [2200731343, 2200731507, 2200731506, 2200731594, 2200731596, 2200732005, 2200732013, 2200732012, 2200731601, 2200731577, 2200731570, 2200731493, 2200731489, 2200731469, 2200731346, 2200731347, 2200731343], "tags": {"addr:housenumber": "1942", "addr:street": "West Irving Park Road", "addr:street:name": "Irving Park", "addr:street:prefix": "West", "addr:street:type": "Road", "amenity": "restaurant", "building": "yes", "chicago:building_id": "151392", "cuisine": "chinese", "name": "Orange Garden"}}, {"type": "way", "id": 209919476, "nodes": [2200725964, 2200725966, 2200726345, 2200726469, 2200726468, 2200726510, 2200726901, 2200726915, 2200726534, 2200726538, 2200726089, 2200726082, 2200726016, 2200725964], "tags": {"addr:housenumber": "3937", "addr:street": "North Lincoln Avenue", "addr:street:name": "Lincoln", "addr:street:prefix": "North", "addr:street:type": "Avenue", "amenity": "bar", "building": "yes", "chicago:building_id": "154324"}}, {"type": "way", "id": 254362318, "nodes": [2393685997, 6955522589, 3567139344, 3555057622, 3555057623, 3555057614, 6955522307, 6970050109, 6970050101, 6970050178, 3555057613, 6970050176, 3555057612, 3555057611, 3555057610, 6970050165, 3555057609, 6970050102, 6970050103, 6970050104, 2601552516, 6970050108, 2601552515, 2601552514, 6970050107, 2601552513, 2601552511, 2601552510, 6970050106, 6970050143, 6970050126, 2601552512, 2601552517, 6970050125, 3555057608, 2393667680, 2393667751, 2404188173, 6955522338, 6955522339, 6955522346, 6955522345, 2393686008, 2393685997], "tags": {"alt_name": "DeVry University Chicago Campus", "amenity": "university", "brand": "DeVry University", "brand:wikidata": "Q3298441", "brand:wikipedia": "en:DeVry University", "ele": "181", "gnis:county_id": "031", "gnis:created": "04/01/1999", "gnis:feature_id": "1826161", "gnis:state_id": "17", "name": "DeVry University", "short_name": "DeVry", "website": "https://www.devry.edu/about/campus-locations/illinois/chicago.html"}}]}