{"version": 0.6, "generator": "Overpass API 0.7.56.3 eb200aeb", "osm3s": {"timestamp_osm_base": "2020-07-17T21:20:03Z", "copyright": "The data included in this document is from www.openstreetmap.org. The data is made available under ODbL."}, "elements": [{"type": "node", "id": 370884554, "lat": 41.9469749, "lon": -87.6566688, "tags": {"amenity": "bar", "name": "Cubby Bear"}}, {"type": "node", "id": 370884874, "lat": 41.9501029, "lon": -87.6590892, "tags": {"addr:city": "Chicago", "addr:housenumber": "3740", "addr:postcode": "60613", "addr:state": "IL", "addr:street": "North Clark Street", "amenity": "bar", "name": "The Ginger Man Tavern", "phone": "+1-773-549-2050", "wifi": "free"}}, {"type": "node", "id": 371266619, "lat": 41.9371493, "lon": -87.6481922, "tags": {"addr:city": "Chicago", "addr:housenumber": "3025", "addr:postcode": "60657", "addr:state": "IL", "addr:street": "North Clark Street", "amenity": "cafe", "brand": "Peet's Coffee", "brand:wikidata": "Q1094101", "brand:wikipedia": "en:Peet's Coffee", "cuisine": "coffee_shop", "name": "Peet's Coffee", "phone": "+1-773-360-5558", "takeaway": "yes", "website": "https://www.peets.com/"}}, {"type": "node", "id": 378091335, "lat": 41.946303, "lon": -87.6560144, "tags": {"amenity": "bar", "name": "Wild Hare"}}, {"type": "node", "id": 503798695, "lat": 41.940004, "lon": -87.6556831, "tags": {"addr:housenumber": "1040", "addr:street": "West Belmont Avenue", "amenity": "restaurant", "name": "Giordano's", "name:ko": "\uc9c0\uc624\ub2e4\ub178\uc2a4"}}, {"type": "node", "id": 662726457, "lat": 41.9377792, "lon": -87.6444705, "tags": {"amenity": "restaurant", "name": "Stella's Diner"}}, {"type": "node", "id": 662726458, "lat": 41.9401147, "lon": -87.6491097, "tags": {"amenity": "restaurant", "name": "Drew's on Halsted", "url": "http://www.jacksonhalsted.com/"}}, {"type": "node", "id": 662726461, "lat": 41.9437805, "lon": -87.6449908, "tags": {"addr:city": "Chicago", "addr:housenumber": "3415", "addr:postcode": "60657", "addr:state": "IL", "addr:street": "North Broadway", "amenity": "restaurant", "name": "Ann Sather", "phone": "+1-773-305-0024", "website": "http://annsather.com/"}}, {"type": "node", "id": 903249436, "lat": 41.9492099, "lon": -87.6497345, "tags": {"amenity": "restaurant", "cuisine": "american", "name": "Kit Kat Club"}}, {"type": "node", "id": 903249885, "lat": 41.9477497, "lon": -87.6473849, "tags": {"addr:city": "Chicago", "addr:country": "US", "addr:housenumber": "3617", "addr:postcode": "60613", "addr:state": "IL", "addr:street": "North Broadway", "amenity": "restaurant", "name": "Waffles"}}, {"type": "node", "id": 903251602, "lat": 41.9471033, "lon": -87.6469665, "tags": {"addr:city": "Chicago", "addr:housenumber": "3561", "addr:postcode": "60657", "addr:state": "IL", "addr:street": "North Broadway", "amenity": "restaurant", "cuisine": "italian", "name": "Angelina's Italian Restaurant", "phone": "+1-773-935-5933", "website": "http://www.angelinaristorante.com/"}}, {"type": "node", "id": 903262989, "lat": 41.9409507, "lon": -87.6441233, "tags": {"addr:city": "Chicago", "addr:housenumber": "3233", "addr:postcode": "60657", "addr:state": "IL", "addr:street": "North Broadway", "amenity": "restaurant", "cuisine": "diner", "name": "Eggsperience Pancakes & Cafe", "opening_hours": "Mo-Su 09:00-21:00"}}, {"type": "node", "id": 903263931, "lat": 41.942036, "lon": -87.6446812, "tags": {"addr:city": "Chicago", "addr:housenumber": "3300", "addr:postcode": "60657", "addr:state": "IL", "addr:street": "North Broadway", "amenity": "cafe", "name": "Stan\u2019s Donuts & Coffee", "phone": "+1-773-883-4764", "website": "http://www.stansdonutschicago.com/"}}, {"type": "node", "id": 903264793, "lat": 41.9423073, "lon": -87.6446598, "tags": {"amenity": "restaurant", "name": "Ping Pong Asian-Thai", "wheelchair": "yes"}}, {"type": "node", "id": 949089361, "lat": 41.9499295, "lon": -87.6490719, "tags": {"amenity": "bar", "name": "Charlie's Chicago"}}, {"type": "node", "id": 949092165, "lat": 41.9486448, "lon": -87.6493831, "tags": {"amenity": "bar", "name": "Circuit"}}, {"type": "node", "id": 949094037, "lat": 41.946246, "lon": -87.649292, "tags": {"addr:city": "Chicago", "addr:country": "US", "addr:housenumber": "3523", "addr:province": "IL", "addr:street": "North Halsted Street", "amenity": "restaurant", "name": "Las Mananitas", "phone": "+1-773-528-2109"}}, {"type": "node", "id": 949094860, "lat": 41.9453312, "lon": -87.6495882, "tags": {"amenity": "bar", "name": "Hydrate"}}, {"type": "node", "id": 949099772, "lat": 41.9435267, "lon": -87.6495172, "tags": {"amenity": "bar", "name": "Roscoe's Tavern & Cafe"}}, {"type": "node", "id": 949100448, "lat": 41.9435227, "lon": -87.6492449, "tags": {"amenity": "bar", "name": "Progress Bar Chicago"}}, {"type": "node", "id": 949101374, "lat": 41.9432554, "lon": -87.6492221, "tags": {"amenity": "bar", "name": "Sidetrack"}}, {"type": "node", "id": 949101636, "lat": 41.9429791, "lon": -87.6492355, "tags": {"amenity": "bar", "name": "Minibar"}}, {"type": "node", "id": 949101795, "lat": 41.9428145, "lon": -87.6494997, "tags": {"amenity": "restaurant", "name": "Nookie's"}}, {"type": "node", "id": 949101940, "lat": 41.9424334, "lon": -87.6494743, "tags": {"amenity": "bar", "name": "Scarlet"}}, {"type": "node", "id": 1239986384, "lat": 41.9501152, "lon": -87.649398, "tags": {"amenity": "bar", "name": "North End"}}, {"type": "node", "id": 1239986677, "lat": 41.9499795, "lon": -87.6494034, "tags": {"amenity": "bar", "name": "Bobby Love's"}}, {"type": "node", "id": 1673554503, "lat": 41.9382563, "lon": -87.6441813, "tags": {"addr:city": "Chicago", "addr:housenumber": "3123", "addr:postcode": "60657", "addr:state": "IL", "addr:street": "North Broadway", "amenity": "cafe", "cuisine": "coffee_shop", "internet_access": "wlan", "name": "Intelligentsia", "phone": "+1-773-348-8058", "source": "Bing", "website": "https://www.intelligentsiacoffee.com/"}}, {"type": "node", "id": 1707846189, "lat": 41.9486953, "lon": -87.6582381}, {"type": "node", "id": 1707846196, "lat": 41.9487477, "lon": -87.6582605}, {"type": "node", "id": 1707846198, "lat": 41.948767, "lon": -87.6581776}, {"type": "node", "id": 1707846203, "lat": 41.9488222, "lon": -87.6579582}, {"type": "node", "id": 1707846206, "lat": 41.9488702, "lon": -87.6582268}, {"type": "node", "id": 1707846207, "lat": 41.9488731, "lon": -87.6579926}, {"type": "node", "id": 1720016522, "lat": 41.9490961, "lon": -87.6582546, "tags": {"amenity": "restaurant", "cuisine": "burger", "name": "Rockit Burger Bar", "wifi": "no"}}, {"type": "node", "id": 1939836286, "lat": 41.9374071, "lon": -87.6484086, "tags": {"addr:housenumber": "3037", "addr:postcode": "60657", "addr:street": "North Clark Street", "amenity": "restaurant", "cuisine": "sandwich", "name": "Sandwich Me In", "website": "http://sandwichmeinchicago.com/"}}, {"type": "node", "id": 2009284043, "lat": 41.9455726, "lon": -87.6489875, "tags": {"amenity": "restaurant", "cuisine": "american", "name": "Taverna 750"}}, {"type": "node", "id": 2149599047, "lat": 41.9372356, "lon": -87.6590804, "tags": {"addr:city": "Chicago", "addr:housenumber": "3030", "addr:postcode": "60657", "addr:state": "IL", "addr:street": "North Racine Avenue", "amenity": "bar", "atm": "yes", "food": "yes", "name": "Will's Northwoods Inn", "outdoor_seating": "yes", "phone": "773-528-4400", "smoking": "outside", "website": "http://willsnorthwoodsinn.com/"}}, {"type": "node", "id": 2204091506, "lat": 41.9385872, "lon": -87.6451669}, {"type": "node", "id": 2204091513, "lat": 41.9385878, "lon": -87.6449831}, {"type": "node", "id": 2204091519, "lat": 41.9385889, "lon": -87.6449831}, {"type": "node", "id": 2204091542, "lat": 41.9385956, "lon": -87.6444681}, {"type": "node", "id": 2204091829, "lat": 41.9386737, "lon": -87.6451678}, {"type": "node", "id": 2204091836, "lat": 41.938675, "lon": -87.6449344}, {"type": "node", "id": 2204092025, "lat": 41.9387461, "lon": -87.6449358}, {"type": "node", "id": 2204092036, "lat": 41.9387521, "lon": -87.6444705}, {"type": "node", "id": 2204095268, "lat": 41.9396023, "lon": -87.657355}, {"type": "node", "id": 2204095273, "lat": 41.9396031, "lon": -87.6572704}, {"type": "node", "id": 2204095390, "lat": 41.9396584, "lon": -87.6573434}, {"type": "node", "id": 2204095393, "lat": 41.9396585, "lon": -87.6573562}, {"type": "node", "id": 2204095422, "lat": 41.9396735, "lon": -87.6573432}, {"type": "node", "id": 2204095436, "lat": 41.9396786, "lon": -87.6572733}, {"type": "node", "id": 2204095437, "lat": 41.9396787, "lon": -87.6572862}, {"type": "node", "id": 2204095440, "lat": 41.9396805, "lon": -87.6573578}, {"type": "node", "id": 2204095463, "lat": 41.9396897, "lon": -87.6572861}, {"type": "node", "id": 2204095504, "lat": 41.9397061, "lon": -87.657273}, {"type": "node", "id": 2204095676, "lat": 41.9397697, "lon": -87.6573606}, {"type": "node", "id": 2204095680, "lat": 41.9397705, "lon": -87.6572742}, {"type": "node", "id": 2204102142, "lat": 41.9406187, "lon": -87.6494303, "tags": {"addr:city": "Chicago", "addr:housenumber": "800", "addr:postcode": "60657", "addr:state": "IL", "addr:street": "West Belmont Avenue", "amenity": "restaurant", "cuisine": "ramen;asian;japanese", "name": "Furious Spoon - Lakeview", "opening_hours": "Su-Th 11:00-00:00; Fr-Sa 11:00-01:00", "phone": "+1-773-697-9085", "website": "http://furiousramen.com"}}, {"type": "node", "id": 2204119217, "lat": 41.945101, "lon": -87.6546797}, {"type": "node", "id": 2204119458, "lat": 41.9451573, "lon": -87.6547256}, {"type": "node", "id": 2204119487, "lat": 41.9451619, "lon": -87.6545486}, {"type": "node", "id": 2204119688, "lat": 41.9452169, "lon": -87.6547741}, {"type": "node", "id": 2204119738, "lat": 41.9452264, "lon": -87.6545696}, {"type": "node", "id": 2204120016, "lat": 41.9452968, "lon": -87.6545927}, {"type": "node", "id": 2204135999, "lat": 41.9509993, "lon": -87.6499852}, {"type": "node", "id": 2204136014, "lat": 41.9510034, "lon": -87.6497536}, {"type": "node", "id": 2204136027, "lat": 41.9510083, "lon": -87.6501285}, {"type": "node", "id": 2204136034, "lat": 41.9510102, "lon": -87.6499851}, {"type": "node", "id": 2204136136, "lat": 41.9510797, "lon": -87.6501295}, {"type": "node", "id": 2204136138, "lat": 41.9510857, "lon": -87.6497545}, {"type": "node", "id": 2262363338, "lat": 41.9440287, "lon": -87.6495776, "tags": {"addr:city": "Chicago", "addr:housenumber": "3404", "addr:postcode": "60657", "addr:state": "IL", "addr:street": "North Halsted Street", "amenity": "restaurant", "cuisine": "american", "name": "Home Bistro", "phone": "+1-773-661-0299", "website": "http://homebistrochicago.com/"}}, {"type": "node", "id": 2274337309, "lat": 41.9423948, "lon": -87.6442641, "tags": {"addr:city": "Chicago", "addr:housenumber": "3311", "addr:postcode": "60657", "addr:state": "IL", "addr:street": "North Broadway", "amenity": "cafe", "name": "The Coffee & Tea Exchange", "phone": "+1-773-528-2241", "website": "https://coffeeandtea.com/"}}, {"type": "node", "id": 2282440770, "lat": 41.9398402, "lon": -87.6507796, "tags": {"addr:city": "Chicago", "addr:housenumber": "3184", "addr:postcode": "60657", "addr:state": "IL", "addr:street": "North Clark Street", "amenity": "cafe", "brand": "Starbucks", "brand:wikidata": "Q37158", "brand:wikipedia": "en:Starbucks", "cuisine": "coffee_shop", "internet_access": "wlan", "internet_access:fee": "no", "name": "Starbucks", "official_name": "Starbucks Coffee", "takeaway": "yes", "website": "https://www.starbucks.com"}}, {"type": "node", "id": 2282741031, "lat": 41.9426831, "lon": -87.6443288, "tags": {"addr:housenumber": "3257", "addr:street": "North Broadway", "amenity": "restaurant", "cuisine": "asian", "name": "Joy's Noodles & Rice"}}, {"type": "node", "id": 2359667303, "lat": 41.9359579, "lon": -87.644101, "tags": {"addr:city": "Chicago", "addr:housenumber": "2933", "addr:postcode": "60657", "addr:street": "North Broadway", "amenity": "restaurant", "cuisine": "mexican", "name": "Janitzio Burritos Y Tagueria"}}, {"type": "node", "id": 2361072386, "lat": 41.946146, "lon": -87.6554126, "tags": {"addr:housenumber": "3515", "addr:postcode": "60657", "addr:street": "North Clark Street", "amenity": "restaurant", "cuisine": "pizza", "name": "Bacci Pizza on Clark"}}, {"type": "node", "id": 2761669109, "lat": 41.9511963, "lon": -87.659943, "tags": {"amenity": "restaurant", "name": "Uncommon Ground", "website": "https://www.uncommonground.com/"}}, {"type": "node", "id": 2933401201, "lat": 41.9399274, "lon": -87.6612013, "tags": {"addr:city": "Chicago", "addr:housenumber": "1258", "addr:postcode": "60657", "addr:state": "IL", "addr:street": "West Belmont Avenue", "amenity": "restaurant", "delivery": "no", "name": "Fahlstrom's Fresh Fish Market", "opening_hours": "Mo-Fr 11:00-22:00; Sa 09:00-22:00; Su 09:00-21:00", "phone": "+1-773-281-6000", "takeaway": "yes", "website": "https://www.fahlstromsfreshfish.com/"}}, {"type": "node", "id": 3485449403, "lat": 41.9470511, "lon": -87.646931, "tags": {"addr:city": "Chicago", "addr:housenumber": "3555", "addr:postcode": "60657", "addr:state": "IL", "addr:street": "North Broadway", "amenity": "restaurant", "cuisine": "barbecue", "name": "Wrigley BBQ", "opening_hours": "Mo-Th 11:30-22:00; Fr-Sa 11:30-23:00; Su 11:30-21:30", "smoking": "no", "takeaway": "yes"}}, {"type": "node", "id": 3489971056, "lat": 41.9383791, "lon": -87.6490889, "tags": {"amenity": "restaurant", "cuisine": "thai", "name": "Thaiday Street Cafe"}}, {"type": "node", "id": 3518312182, "lat": 41.9353036, "lon": -87.6471628, "tags": {"addr:city": "Chicago", "addr:housenumber": "2914", "addr:postcode": "60657", "addr:state": "IL", "addr:street": "North Clark Street", "amenity": "restaurant", "cuisine": "mexican", "delivery": "yes", "name": "El Nuevo Mexicano", "opening_hours": "Mo-Su 11:30-22:00; Fr-Sa 11:30-23:30", "outdoor_seating": "yes", "phone": "+1-773-528 2131", "takeaway": "yes", "website": "https://www.elnuevomexicano.net/"}}, {"type": "node", "id": 3940894157, "lat": 41.945603, "lon": -87.6496353, "tags": {"addr:city": "Chicago", "addr:housenumber": "3500", "addr:postcode": "60657", "addr:state": "IL", "addr:street": "North Halsted Street", "amenity": "cafe", "atm": "no", "brand": "Peet's Coffee", "brand:wikidata": "Q1094101", "brand:wikipedia": "en:Peet's Coffee", "cuisine": "coffee_shop", "drive_through": "no", "internet_access": "wlan", "name": "Peet's Coffee", "opening_hours": "Mo-Sa 05:30-21:00; Su 06:00-20:00", "outdoor_seating": "yes", "phone": "+1-773-360-5280", "smoking": "no", "takeaway": "yes", "website": "https://www.peets.com/", "wheelchair": "yes"}}, {"type": "node", "id": 4390711391, "lat": 41.9492375, "lon": -87.6491974, "tags": {"amenity": "restaurant", "name": "Panino's Pizzeria"}}, {"type": "node", "id": 4692788467, "lat": 41.9347553, "lon": -87.6537697, "tags": {"addr:city": "Chicago", "addr:housenumber": "2909", "addr:postcode": "60657", "addr:street": "North Sheffield Avenue", "amenity": "restaurant", "cuisine": "bar&grill", "name": "The River Kitchen and Bar", "opening_hours": "Mo-Fr 17:00-02:00; Sa 11:00-03:00; Su 11:00-02:00", "phone": "+1 773 935 7500", "website": "https://www.theriverchicago.com"}}, {"type": "node", "id": 4704620392, "lat": 41.9425068, "lon": -87.6442948, "tags": {"amenity": "bar", "name": "The Closet", "name:en": "The Closet"}}, {"type": "node", "id": 4718874637, "lat": 41.9352464, "lon": -87.6444633, "tags": {"addr:city": "Chicago", "addr:housenumber": "2908", "addr:postcode": "60657", "addr:state": "IL", "addr:street": "North Broadway", "amenity": "restaurant", "cuisine": "turkish", "name": "Troy Mediterranean Grill & Turkish Kitchen", "opening_hours": "Su 12:00-21:00; Mo-Th 12:00-22:00; Fr-Sa 12:00-23:00", "phone": "+1-773-770-3866", "website": "https://www.troymediterraneangrill.com/"}}, {"type": "node", "id": 4726187690, "lat": 41.9493082, "lon": -87.6584942, "tags": {"addr:city": "Chicago", "addr:housenumber": "3710", "addr:postcode": "60613", "addr:state": "IL", "addr:street": "North Clark Street", "amenity": "restaurant", "cuisine": "american", "name": "Yak-Zies Wrigleyville", "opening_hours": "Mo-Su 10:00-02:00"}}, {"type": "node", "id": 5002004773, "lat": 41.9361201, "lon": -87.6444045, "tags": {"addr:housenumber": "2940", "addr:street": "North Broadway", "amenity": "restaurant", "name": "Crisp Korean Restaurant", "phone": "773 697 7610", "website": "http://www.crisponline.com/crisp.aspx"}}, {"type": "node", "id": 5033308929, "lat": 41.9447083, "lon": -87.6540662, "tags": {"addr:city": "Chicago", "addr:housenumber": "3439", "addr:postcode": "60657", "addr:state": "IL", "addr:street": "North Sheffield Avenue", "amenity": "bar", "name": "Nisei Lounge", "phone": "+1-773-525-0557", "website": "https://niseiloungechicago.com/"}}, {"type": "node", "id": 5161056762, "lat": 41.9400136, "lon": -87.6544566, "tags": {"amenity": "bar", "name": "Big City Tap"}}, {"type": "node", "id": 5161056765, "lat": 41.9400486, "lon": -87.6537882, "tags": {"addr:city": "Chicago", "addr:housenumber": "958", "addr:postcode": "60657", "addr:state": "IL", "addr:street": "West Belmont Avenue", "amenity": "bar", "name": "Cheesie's Pub & Grub", "opening_hours": "Mo-We 11:00-02:00, Th 11:00-03:00, Fr,Sa 11:00-05:00, Su 11:00-02:00", "phone": "+1-773-388-1574", "website": "https://cheesies.com/"}}, {"type": "node", "id": 5161056767, "lat": 41.939802, "lon": -87.6535927, "tags": {"addr:city": "Chicago", "addr:housenumber": "953", "addr:postcode": "60657", "addr:state": "IL", "addr:street": "West Belmont Avenue", "amenity": "restaurant", "brand": "Blaze Pizza", "brand:wikidata": "Q23016666", "brand:wikipedia": "en:Blaze Pizza", "cuisine": "pizza", "name": "Blaze Pizza", "opening_hours": "Mo-Th 11:00-23:00, Fr-Sa 11:00-01:00, Su 11:00-22:00"}}, {"type": "node", "id": 5161056770, "lat": 41.9397747, "lon": -87.6561359, "tags": {"amenity": "restaurant", "name": "Jin Asian Cafe"}}, {"type": "node", "id": 5161056771, "lat": 41.9397702, "lon": -87.6563655, "tags": {"addr:city": "Chicago", "addr:housenumber": "1059", "addr:postcode": "60657", "addr:state": "IL", "addr:street": "West Belmont Avenue", "amenity": "restaurant", "cuisine": "sushi;japanese", "name": "Ukai Sushi", "opening_hours": "Mo-We 16:00-22:00; Th 15:00-22:00; Fr-Sa 11:00-23:00; Su 12:00-22:00", "phone": "+1-773-868-9900", "website": "https://ukai-japaenase-restaurant-onlinle-ordering.securebrygid.com/zgrid/themes/10649/intro/index.jsp"}}, {"type": "node", "id": 5161056772, "lat": 41.939981, "lon": -87.6572805, "tags": {"addr:city": "Chicago", "addr:housenumber": "1114", "addr:postcode": "60657", "addr:state": "IL", "addr:street": "West Belmont Avenue", "amenity": "cafe", "name": "Bittersweet Pastry Shop", "opening_hours": "Tu-Fr 07:00-19:00; Sa 08:00-19:00; Su 08:00-18:00", "phone": "+1-773-929-1100", "website": "https://www.bittersweetpastry.com/"}}, {"type": "node", "id": 5161385984, "lat": 41.9382088, "lon": -87.6538954, "tags": {"addr:city": "Chicago", "addr:housenumber": "3101", "addr:postcode": "60657", "addr:state": "IL", "addr:street": "North Sheffield Avenue", "addr:unit": "1", "amenity": "bar", "name": "Matilda", "opening_hours": "Mo-Fr 17:00-02:00; Sa 10:00-03:00; Su 11:00-17:00", "phone": "+1-773-883-4400", "website": "https://matilda-babyatlas.com"}}, {"type": "node", "id": 5161385986, "lat": 41.9434096, "lon": -87.6543631, "tags": {"amenity": "bar", "name": "Redmonds"}}, {"type": "node", "id": 5161413724, "lat": 41.9360501, "lon": -87.6541256, "tags": {"addr:city": "Chicago", "addr:housenumber": "2954", "addr:postcode": "60657", "addr:state": "IL", "addr:street": "North Sheffield Avenue", "amenity": "restaurant", "cuisine": "burger", "name": "DMK Burger Bar", "opening_hours": "Mo-Th 11:30-23:00; Fr-Su 11:30-00:00", "phone": "+1-773-360-8686", "website": "https://dmkburgerbar.com/"}}, {"type": "node", "id": 5161413725, "lat": 41.9354732, "lon": -87.6541061, "tags": {"addr:city": "Chicago", "addr:housenumber": "2934", "addr:postcode": "60657", "addr:state": "IL", "addr:street": "North Sheffield Avenue", "amenity": "restaurant", "cuisine": "american;pub", "name": "Kirkwood Bar & Grill", "opening_hours": "Mo-Fr 17:00-02:00; Sa 11:00-03:00; Su 11:00-02:00", "phone": "+1-773-770-0700", "website": "https://kirkwoodbar.com/"}}, {"type": "node", "id": 5161413726, "lat": 41.9346785, "lon": -87.6537664, "tags": {"addr:city": "Chicago", "addr:housenumber": "2901", "addr:postcode": "60657", "addr:state": "IL", "addr:street": "North Sheffield Avenue", "amenity": "restaurant", "cuisine": "mexican", "name": "Barcocina", "opening_hours": "Mo-Th 17:00-00:00; Fr 17:00-02:00; Sa 11:00-03:00; Su 11:00-00:00", "outdoor_seating": "yes", "phone": "+1-773-687-9949", "website": "https://barcocinachicago.com"}}, {"type": "node", "id": 5161413727, "lat": 41.934997, "lon": -87.6538, "tags": {"addr:city": "Chicago", "addr:housenumber": "2917", "addr:postcode": "60657", "addr:state": "IL", "addr:street": "North Sheffield Avenue", "amenity": "bar", "name": "Vaughan\u2019s Pub - Lakeview", "phone": "+1-773-281-8188", "website": "https://vaughanhospitality.com/"}}, {"type": "node", "id": 5161413728, "lat": 41.9361318, "lon": -87.6541309, "tags": {"addr:city": "Chicago", "addr:housenumber": "2956", "addr:postcode": "60657", "addr:state": "IL", "addr:street": "North Sheffield Avenue", "amenity": "restaurant", "cuisine": "seafood", "name": "Fish Bar", "opening_hours": "Su-Th 11:30-22:00; Fr,Sa 11:30-23:00", "outdoor_seating": "yes"}}, {"type": "node", "id": 5161413730, "lat": 41.9364819, "lon": -87.6541398, "tags": {"addr:city": "Chicago", "addr:housenumber": "3002", "addr:postcode": "60657", "addr:state": "IL", "addr:street": "North Sheffield Avenue", "amenity": "cafe", "cuisine": "sandwich", "name": "Panes Bread Cafe", "opening_hours": "Su 09:00-22:00; Mo-Sa 10:00-22:00", "phone": "+1-773-665-0972"}}, {"type": "node", "id": 5161413731, "lat": 41.9365543, "lon": -87.6541433, "tags": {"addr:city": "Chicago", "addr:housenumber": "3006", "addr:postcode": "60657", "addr:state": "IL", "addr:street": "North Sheffield Avenue", "amenity": "restaurant", "cuisine": "sushi;japanese", "name": "Tanuki", "opening_hours": "Mo-Th 11:30-22:00; Fr,Sa 11:30-23:00; Su 12:00-22:00"}}, {"type": "node", "id": 5168219465, "lat": 41.9384653, "lon": -87.6445563, "tags": {"addr:city": "Chicago", "addr:housenumber": "3124", "addr:postcode": "60657", "addr:state": "IL", "addr:street": "North Broadway", "amenity": "restaurant", "description": "Bib Gourmand recommendation", "name": "Ceres' Table", "phone": "+1-773-922-4020", "website": "https://www.cerestable.com/"}}, {"type": "node", "id": 5178274147, "lat": 41.9398268, "lon": -87.6519964, "tags": {"addr:city": "Chicago", "addr:housenumber": "909", "addr:postcode": "60657", "addr:state": "IL", "addr:street": "West Belmont Avenue", "amenity": "restaurant", "cuisine": "swedish", "name": "Ann Sather Restaurant", "opening_hours": "Mo-Fr 07:00-15:00; Sa,Su 07:00-16:00", "phone": "+1-773-348-2378"}}, {"type": "node", "id": 5178274149, "lat": 41.9394504, "lon": -87.6504571, "tags": {"amenity": "restaurant", "name": "Cesar's Killer Margarita"}}, {"type": "node", "id": 5178274154, "lat": 41.9398293, "lon": -87.6523651, "tags": {"addr:city": "Chicago", "addr:housenumber": "919", "addr:postcode": "60657", "addr:state": "IL", "addr:street": "West Belmont Avenue", "amenity": "restaurant", "cuisine": "ramen", "name": "Strings Ramen Shop Lakeview", "opening_hours": "Mo-Su 11:00-23:59", "phone": "+1-773-661-6442", "website": "https://www.ramenchicago.com"}}, {"type": "node", "id": 5178274155, "lat": 41.9404541, "lon": -87.6542735, "tags": {"amenity": "bar", "name": "Trader Todd's"}}, {"type": "node", "id": 5178274159, "lat": 41.9398678, "lon": -87.6490939, "tags": {"amenity": "restaurant", "name": "Lucky Horsehoe Lounge"}}, {"type": "node", "id": 5178274163, "lat": 41.940804, "lon": -87.651186, "tags": {"addr:city": "Chicago", "addr:housenumber": "3231", "addr:postcode": "60657", "addr:state": "IL", "addr:street": "North Clark Street", "amenity": "restaurant", "cuisine": "american", "name": "Kanela Breakfast Club", "opening_hours": "Mo-Th 09:00-15:00; Fr-Su 08:00-15:00", "phone": "+1-773-248-1622", "website": "https://kanelabreakfastclub.com/"}}, {"type": "node", "id": 5178274165, "lat": 41.9406252, "lon": -87.6510458, "tags": {"amenity": "restaurant", "name": "Royal Indian Grill"}}, {"type": "node", "id": 5178274166, "lat": 41.940235, "lon": -87.6506779, "tags": {"addr:city": "Chicago", "addr:housenumber": "3207", "addr:postcode": "60657", "addr:state": "IL", "addr:street": "North Clark Street", "amenity": "bar", "name": "L & L Tavern", "phone": "+1-773-528-1303"}}, {"type": "node", "id": 5178274167, "lat": 41.9410486, "lon": -87.6517288, "tags": {"amenity": "restaurant", "name": "Matsuya"}}, {"type": "node", "id": 5178274176, "lat": 41.9418943, "lon": -87.6520522, "tags": {"addr:city": "Chicago", "addr:housenumber": "3301", "addr:postcode": "60657", "addr:state": "IL", "addr:street": "North Clark Street", "amenity": "restaurant", "cuisine": "american", "name": "Hutch"}}, {"type": "node", "id": 5252276976, "lat": 41.9434018, "lon": -87.6532551, "tags": {"amenity": "bar", "name": "Houndstooth"}}, {"type": "node", "id": 5252276977, "lat": 41.9458684, "lon": -87.6556246, "tags": {"amenity": "restaurant", "name": "Old Crow Smokehouse"}}, {"type": "node", "id": 5252276978, "lat": 41.9468383, "lon": -87.6564199, "tags": {"amenity": "bar", "name": "Vines on Clark"}}, {"type": "node", "id": 5364425022, "lat": 41.9427161, "lon": -87.652684, "tags": {"amenity": "restaurant", "name": "El Jardin"}}, {"type": "node", "id": 5364425023, "lat": 41.944352, "lon": -87.6544113, "tags": {"amenity": "bar", "name": "Chicago's Blarney Stone"}}, {"type": "node", "id": 5364425025, "lat": 41.9447909, "lon": -87.6540921, "tags": {"addr:city": "Chicago", "addr:housenumber": "3441", "addr:postcode": "60657", "addr:state": "IL", "addr:street": "North Sheffield Avenue", "amenity": "bar", "name": "The Graystone Tavern", "phone": "+1-773-666-5450", "website": "https://www.graystonetavernchicago.com/"}}, {"type": "node", "id": 5364425026, "lat": 41.9454034, "lon": -87.6553501, "tags": {"amenity": "bar", "name": "Roundhouse 66"}}, {"type": "node", "id": 5364425027, "lat": 41.9453854, "lon": -87.6548619, "tags": {"amenity": "bar", "name": "The Sandlot Wrigley"}}, {"type": "node", "id": 5364425028, "lat": 41.9450004, "lon": -87.6549263, "tags": {"amenity": "bar", "name": "The Country Club"}}, {"type": "node", "id": 5364425029, "lat": 41.945142, "lon": -87.6550443, "tags": {"amenity": "bar", "name": "Lucky's Sandwich Co"}}, {"type": "node", "id": 5381744322, "lat": 41.9421958, "lon": -87.6523157, "tags": {"addr:city": "Chicago", "addr:housenumber": "3313", "addr:postcode": "60657", "addr:state": "IL", "addr:street": "North Clark Street", "amenity": "restaurant", "name": "BITES"}}, {"type": "node", "id": 5460822466, "lat": 41.9351065, "lon": -87.6465617, "tags": {"addr:city": "Chicago", "addr:housenumber": "2909", "addr:postcode": "60657", "addr:state": "IL", "addr:street": "North Clark Street", "amenity": "restaurant", "name": "The Gundis", "opening_hours": "Mo 09:00-21:00; We-Th 09:00-21:00; Fr-Sa 09:00-22:00; Su 09:00-20:00", "phone": "+1-773-904-8120", "website": "http://thegundis.com/"}}, {"type": "node", "id": 5693947791, "lat": 41.9438463, "lon": -87.6453016, "tags": {"amenity": "restaurant", "name": "El Mariache Restaurant"}}, {"type": "node", "id": 5693947793, "lat": 41.9438117, "lon": -87.6453073, "tags": {"addr:city": "Chicago", "addr:housenumber": "3420", "addr:postcode": "60657", "addr:state": "Il", "addr:street": "North Broadway", "amenity": "bar", "name": "Jacquelines's", "phone": "+1-773-404-5149"}}, {"type": "node", "id": 5693947794, "lat": 41.9438949, "lon": -87.6453372, "tags": {"amenity": "restaurant", "name": "Shiawase Japanese Restaurant"}}, {"type": "node", "id": 5693948271, "lat": 41.9455874, "lon": -87.6463743, "tags": {"amenity": "restaurant", "name": "Tasty Asian Restaurant"}}, {"type": "node", "id": 5693977769, "lat": 41.9447676, "lon": -87.6492558, "tags": {"amenity": "bar", "name": "Replay"}}, {"type": "node", "id": 5693977770, "lat": 41.944889, "lon": -87.6492509, "tags": {"addr:city": "Chicago", "addr:housenumber": "3441", "addr:postcode": "60657", "addr:state": "IL", "addr:street": "North Halsted Street", "amenity": "bar", "name": "Lark", "phone": "+1-773-799-8968", "website": "https://www.larkchicago.com/"}}, {"type": "node", "id": 5694736438, "lat": 41.9436247, "lon": -87.644836, "tags": {"amenity": "restaurant", "name": "Milt's Barbecue for the Perplexed"}}, {"type": "node", "id": 5695506953, "lat": 41.9448988, "lon": -87.6544078, "tags": {"amenity": "restaurant", "name": "Cozy's Noodles and Rice"}}, {"type": "node", "id": 5695558674, "lat": 41.9429745, "lon": -87.6529045, "tags": {"amenity": "restaurant", "name": "PS Bangkok"}}, {"type": "node", "id": 5695558676, "lat": 41.9428926, "lon": -87.6528527, "tags": {"addr:city": "Chicago", "addr:housenumber": "3343", "addr:postcode": "60657", "addr:state": "IL", "addr:street": "North Clark Street", "amenity": "restaurant", "name": "Lowcountry Lakeview", "phone": "+1-888-883-8375", "website": "https://www.lowcountrychicago.com/"}}, {"type": "node", "id": 5698210188, "lat": 41.9416752, "lon": -87.6491615, "tags": {"amenity": "restaurant", "name": "Yoshi's Cafe"}}, {"type": "node", "id": 5698233276, "lat": 41.9401766, "lon": -87.6491213, "tags": {"amenity": "restaurant", "cuisine": "thai", "name": "Krung Thep"}}, {"type": "node", "id": 5698233278, "lat": 41.9401343, "lon": -87.6495937, "tags": {"amenity": "restaurant", "name": "Pok\u00e9 Pok\u00e9"}}, {"type": "node", "id": 5698236642, "lat": 41.9429961, "lon": -87.6495351, "tags": {"addr:city": "Chicago", "addr:housenumber": "3340", "addr:postcode": "60657", "addr:state": "IL", "addr:street": "North Halsted Street", "amenity": "bar", "name": "Town Hall Pub", "phone": "1+773-472-4405", "website": "http://www.townhallpub.com/"}}, {"type": "node", "id": 5834769442, "lat": 41.9479341, "lon": -87.6573197, "tags": {"addr:city": "Chicago", "addr:housenumber": "3632", "addr:postcode": "60613", "addr:state": "IL", "addr:street": "North Clark Street", "amenity": "restaurant", "cuisine": "american", "name": "Mordecai", "phone": "+1-773-269-5410", "website": "https://www.mordecaichicago.com"}}, {"type": "node", "id": 5834769444, "lat": 41.9481236, "lon": -87.6574646, "tags": {"addr:city": "Chicago", "addr:housenumber": "3636", "addr:postcode": "60613", "addr:state": "IL", "addr:street": "North Clark Street", "amenity": "restaurant", "cuisine": "bbq;barbecue", "name": "Smoke Daddy BBQ - Wrigleyville", "phone": "+1-773-227-2583", "website": "https://www.thesmokedaddy.com/"}}, {"type": "node", "id": 5834769445, "lat": 41.9481784, "lon": -87.6575019, "tags": {"addr:city": "Chicago", "addr:housenumber": "3640", "addr:postcode": "60613", "addr:state": "IL", "addr:street": "North Clark Street", "amenity": "restaurant", "cuisine": "tacos", "name": "Big Star", "opening_hours": "24/7", "phone": "+1-773-857-7120"}}, {"type": "node", "id": 5834769446, "lat": 41.9476864, "lon": -87.6570759, "tags": {"addr:city": "Chicago", "addr:housenumber": "3626", "addr:postcode": "60613", "addr:state": "IL", "addr:street": "North Clark Street", "amenity": "cafe", "name": "West Town Bakery", "phone": "+1-773-269-5415", "shop": "bakery", "website": "https://www.westtownbakery.com/lakeview"}}, {"type": "node", "id": 5834769447, "lat": 41.9488178, "lon": -87.6568234, "tags": {"addr:city": "Chicago", "addr:housenumber": "1101", "addr:postcode": "60613", "addr:state": "IL", "addr:street": "West Waveland Avenue", "amenity": "bar", "brewery": "yes", "name": "Lucky Dorr", "outdoor_seating": "yes", "phone": "+1-773-388-8249", "website": "https://www.luckydorr.com/"}}, {"type": "node", "id": 5834769449, "lat": 41.9485577, "lon": -87.657448, "tags": {"addr:city": "Chicago", "addr:housenumber": "3647", "addr:postcode": "60613", "addr:state": "IL", "addr:street": "North Clark Street", "amenity": "restaurant", "name": "Brickhouse Tavern"}}, {"type": "node", "id": 5859460641, "lat": 41.9437201, "lon": -87.6539169, "tags": {"addr:city": "Chicago", "addr:housenumber": "3404", "addr:postcode": "60657", "addr:state": "IL", "addr:street": "North Clark Street", "amenity": "restaurant", "cuisine": "caribbean;jamaican", "description": "Jamaican fusion", "name": "Irie Jerk Bar and Grill", "phone": "+1-872-802-4999", "website": "http://iriejerkbargrill.comm/"}}, {"type": "node", "id": 5908462022, "lat": 41.9457315, "lon": -87.6551575, "tags": {"amenity": "restaurant", "cuisine": "american", "name": "Stretch", "website": "https://www.thestretchchicago.com/"}}, {"type": "node", "id": 6221650880, "lat": 41.9475676, "lon": -87.6569746, "tags": {"addr:city": "Chicago", "addr:housenumber": "3600", "addr:postcode": "60613", "addr:state": "IL", "addr:street": "North Clark Street", "amenity": "restaurant", "cuisine": "american", "name": "Dutch & Doc's", "opening_hours": "We-Th 17:00-21:00; Fr 17:00-22:00; Sa 10:00-22:00; Su 10:00-21:00", "phone": "+1-773-360-0207", "website": "https://www.dutchanddocs.com/"}}, {"type": "node", "id": 6231087536, "lat": 41.9398524, "lon": -87.651043, "tags": {"addr:city": "Chicago", "addr:housenumber": "843", "addr:postcode": "60657", "addr:state": "IL", "addr:street": "West Belmont Avenue", "amenity": "restaurant", "cuisine": "sushi;poke;sushi_bowl", "delivery": "yes", "name": "Aloha Poke Co", "opening_hours": "Mo-Su 10:00-22:00", "outdoor_seating": "no"}}, {"type": "node", "id": 6238609220, "lat": 41.9354147, "lon": -87.6467863, "tags": {"addr:city": "Chicago", "addr:housenumber": "2921", "addr:postcode": "60657", "addr:state": "IL", "addr:street": "North Clark Street", "amenity": "restaurant", "cuisine": "sandwich", "name": "ChiTown Sandwich Club", "opening_hours": "Mo,Th,Fr 10:00-16:00; Sa,Su 09:00-16:00", "outdoor_seating": "yes", "phone": "+1-773-697-2371", "website": "https://chitownsandwichclub.com/"}}, {"type": "node", "id": 6249954562, "lat": 41.940101, "lon": -87.6503958, "tags": {"addr:city": "Chicago", "addr:housenumber": "824", "addr:postcode": "60657", "addr:state": "IL", "addr:street": "West Belmont Avenue", "amenity": "cafe", "cuisine": "american;coffee_shop;coffee", "name": "11 Degrees North", "phone": "+1-773 904-7284", "website": "https://www.11degreenorth.com/"}}, {"type": "node", "id": 6258078468, "lat": 41.9360857, "lon": -87.6477688, "tags": {"addr:city": "Chicago", "addr:housenumber": "2942", "addr:postcode": "60657", "addr:state": "IL", "addr:street": "North Clark Street", "amenity": "cafe", "name": "Aje Cafe", "phone": "+1-773-472-2233", "website": "https://ajecafechicago.wixsite.com/mysite"}}, {"type": "node", "id": 6263509527, "lat": 41.9354011, "lon": -87.6446863, "tags": {"addr:city": "Chicago", "addr:housenumber": "2916", "addr:postcode": "60657", "addr:state": "IL", "addr:street": "North Broadway", "amenity": "bar", "name": "Avenue Tavern", "phone": "+1-773-975-7000", "website": "http://avenuetavern.com/"}}, {"type": "node", "id": 6265193537, "lat": 41.9363269, "lon": -87.6441062, "tags": {"addr:city": "Chicago", "addr:housenumber": "2947", "addr:postcode": "60657", "addr:state": "IL", "addr:street": "North Broadway", "amenity": "restaurant", "name": "Bar Pastoral", "phone": "+1-773-472-4781", "website": "https://www.pastoralartisan.com/barpastoral"}}, {"type": "node", "id": 6267158437, "lat": 41.9400101, "lon": -87.6554869, "tags": {"addr:city": "Chicago", "addr:housenumber": "1034", "addr:postcode": "60657", "addr:state": "IL", "addr:street": "West Belmont Avenue", "amenity": "restaurant", "name": "BIG & little\u2019s Restaurant", "phone": "+1-773-857-6677", "website": "https://www.bigandlittleschicago.com/"}}, {"type": "node", "id": 6267402083, "lat": 41.9344594, "lon": -87.6460027, "tags": {"addr:city": "Chicago", "addr:housenumber": "2863", "addr:postcode": "60657", "addr:state": "IL", "addr:street": "North Clark Street", "amenity": "restaurant", "name": "Bluebird", "phone": "+1-773-661-1531", "website": "https://bluebirdchi.com/"}}, {"type": "node", "id": 6269048738, "lat": 41.9402531, "lon": -87.6445602, "tags": {"addr:city": "Chicago", "addr:housenumber": "3204", "addr:postcode": "60657", "addr:state": "IL", "addr:street": "North Broadway", "amenity": "restaurant", "name": "Brazilian Bowl", "phone": "+1-773- 857-2002", "website": "https://brazilianbowl2go.com/"}}, {"type": "node", "id": 6269167678, "lat": 41.9486948, "lon": -87.6572351, "tags": {"addr:city": "Chicago", "addr:housenumber": "3647", "addr:postcode": "60613", "addr:state": "IL", "addr:street": "North Clark Street", "amenity": "bar", "name": "Budweiser Brickhouse Tavern", "phone": "+1-773-377-4770", "website": "https://www.brickhousetavernchi.com/"}}, {"type": "node", "id": 6282573940, "lat": 41.9450134, "lon": -87.6551173, "tags": {"addr:city": "Chicago", "addr:housenumber": "3462", "addr:postcode": "60657", "addr:state": "IL", "addr:street": "North Clark Street", "amenity": "bar", "name": "Christmas Club", "phone": "+1-773-975-2010", "website": "http://www.christmasclubchicago.com/"}}, {"type": "node", "id": 6283237814, "lat": 41.9504868, "lon": -87.6494162, "tags": {"addr:city": "Chicago", "addr:housenumber": "3752", "addr:postcode": "60613", "addr:state": "IL", "addr:street": "North Broadway", "amenity": "cafe", "name": "Coffee Tree & Tea Leaves", "phone": "+1-773-871-7818", "website": "http://www.coffeetreetealeaves.com/"}}, {"type": "node", "id": 6283925387, "lat": 41.9367963, "lon": -87.651179, "tags": {"addr:city": "Chicago", "addr:housenumber": "836", "addr:postcode": "60657", "addr:state": "IL", "addr:street": "West Nelson Street", "amenity": "cafe", "name": "Courtyard Cafe"}}, {"type": "node", "id": 6284192680, "lat": 41.9448556, "lon": -87.6540273, "tags": {"addr:city": "Chicago", "addr:housenumber": "3443", "addr:postcode": "60657", "addr:state": "IL", "addr:street": "North Sheffield Avenue", "amenity": "bar", "name": "Dark Horse Tap & Grille", "phone": "+1-773-248-4400", "website": "http://www.darkhorsechicago.com/"}}, {"type": "node", "id": 6284585245, "lat": 41.9469968, "lon": -87.6554665, "tags": {"addr:city": "Chicago", "addr:housenumber": "1027", "addr:postcode": "60613", "addr:state": "IL", "addr:street": "West Addison Street", "amenity": "cafe", "name": "Do-Rite Donuts & Chicken", "phone": "+1-773-977-7065", "website": "http://doritedonuts.com/"}}, {"type": "node", "id": 6284775973, "lat": 41.9377382, "lon": -87.6444991, "tags": {"addr:city": "Chicago", "addr:housenumber": "3040", "addr:postcode": "60657", "addr:state": "IL", "addr:street": "North Broadway", "amenity": "bar", "name": "Dram Shop", "phone": "+1-773-549-4401"}}, {"type": "node", "id": 6284856480, "lat": 41.9352735, "lon": -87.6466516, "tags": {"addr:city": "Chicago", "addr:housenumber": "2913", "addr:postcode": "60657", "addr:state": "IL", "addr:street": "North Clark Street", "amenity": "restaurant", "name": "Duke Of Perth", "phone": "+1-773-477-1741", "website": "http://dukeofperth.com/"}}, {"type": "node", "id": 6284991328, "lat": 41.9376857, "lon": -87.6523692, "tags": {"addr:city": "Chicago", "addr:housenumber": "900", "addr:postcode": "60657", "addr:state": "IL", "addr:street": "West Barry Avenue", "amenity": "cafe", "name": "Ecos Cafe"}}, {"type": "node", "id": 6286532079, "lat": 41.9452065, "lon": -87.6496265, "tags": {"addr:city": "Chicago", "addr:housenumber": "3452", "addr:postcode": "60657", "addr:state": "IL", "addr:street": "North Halsted Street", "amenity": "bar", "name": "Elixir Lounge", "phone": "+1-773-975-9244", "website": "https://www.elixirchicago.com/"}}, {"type": "node", "id": 6287095694, "lat": 41.9494171, "lon": -87.6483014, "tags": {"addr:city": "Chicago", "addr:housenumber": "3701", "addr:postcode": "60613", "addr:state": "IL", "addr:street": "North Broadway", "amenity": "bar", "name": "F. O\u2019Mahony\u2019s", "phone": "+1-773-549-0226", "website": "http://fomahonys.com/"}}, {"type": "node", "id": 6289265540, "lat": 41.9449947, "lon": -87.649237, "tags": {"addr:city": "Chicago", "addr:housenumber": "3445", "addr:postcode": "60657", "addr:state": "IL", "addr:street": "North Halsted Street", "amenity": "restaurant", "name": "D.S. Fajita Factory", "phone": "+1-773-770-4618", "website": "https://fajitame.com/"}}, {"type": "node", "id": 6289397250, "lat": 41.9363597, "lon": -87.6614074, "tags": {"addr:city": "Chicago", "addr:housenumber": "1300", "addr:postcode": "60657", "addr:state": "Il", "addr:street": "West Wellington Avenue", "amenity": "restaurant", "name": "Farm Bar Lakeview", "phone": "+1-773-281-2599", "website": "http://farm-bar.com/"}}, {"type": "node", "id": 6289950585, "lat": 41.9402434, "lon": -87.6539754, "tags": {"addr:city": "Chicago", "addr:housenumber": "3207", "addr:postcode": "60657", "addr:state": "IL", "addr:street": "North Sheffield Avenue", "amenity": "bar", "name": "Figo Wine Bar", "phone": "+1-312-819-6111", "website": "https://figowinebar.com/"}}, {"type": "node", "id": 6291549885, "lat": 41.9368175, "lon": -87.6445689, "tags": {"addr:city": "Chicago", "addr:housenumber": "3010", "addr:postcode": "60657", "addr:state": "IL", "addr:street": "North Broadway", "amenity": "bar", "name": "Friar Tuck", "phone": "+1-773-327-5101"}}, {"type": "node", "id": 6291781728, "lat": 41.9344071, "lon": -87.6492749, "tags": {"addr:city": "Chicago", "addr:housenumber": "2858", "addr:postcode": "60614", "addr:state": "IL", "addr:street": "North Halsted Street", "amenity": "bar", "name": "George Street Pub", "phone": "+1-773-661-6635", "website": "http://www.gspchicago.com/"}}, {"type": "node", "id": 6292131009, "lat": 41.9351529, "lon": -87.6444787, "tags": {"addr:city": "Chicago", "addr:housenumber": "2904", "addr:postcode": "60657", "addr:state": "IL", "addr:street": "North Broadway", "amenity": "restaurant", "name": "Grand Mongolian Hot Pot", "phone": "+1-312-866-9555", "website": "https://grandmongolianhotpot.com/"}}, {"type": "node", "id": 6292159426, "lat": 41.9473236, "lon": -87.6617604, "tags": {"addr:city": "Chicago", "addr:housenumber": "1300", "addr:postcode": "60613", "addr:state": "IL", "addr:street": "West Addison Street", "amenity": "bar", "name": "Guthries Tavern", "phone": "+1-773-477-2900", "website": "https://www.guthriestavern.com/"}}, {"type": "node", "id": 6294397336, "lat": 41.9358429, "lon": -87.639797, "tags": {"addr:city": "Chicago", "addr:housenumber": "2950", "addr:postcode": "60657", "addr:state": "IL", "addr:street": "North Sheridan Road", "amenity": "cafe", "name": "HERO Coffee Bar", "phone": "+1-773-661-1254", "website": "https://www.herocoffeebars.com/"}}, {"type": "node", "id": 6297198431, "lat": 41.9488445, "lon": -87.6545581, "tags": {"addr:city": "Chicago", "addr:housenumber": "1049", "addr:postcode": "60613", "addr:state": "IL", "addr:street": "West Waveland Avenue", "amenity": "restaurant", "name": "Hot Doug\u2019s Wrigley Field"}}, {"type": "node", "id": 6297781137, "lat": 41.9392288, "lon": -87.6502846, "tags": {"addr:city": "Chicago", "addr:housenumber": "3160", "addr:postcode": "60657", "addr:state": "IL", "addr:street": "North Clark Street", "amenity": "bar", "name": "Shakers On Clark", "phone": "+1-773-327-5969", "website": "http://shakersonclark.com/"}}, {"type": "node", "id": 6297807571, "lat": 41.9415907, "lon": -87.6545108, "tags": {"addr:city": "Chicago", "addr:housenumber": "3258", "addr:postcode": "60657", "addr:state": "IL", "addr:street": "North Sheffield Avenue", "amenity": "bar", "name": "Sheffield\u2019s Wine & Beer Garden", "phone": "+1-773-281-4989", "website": "http://www.sheffieldschicago.com/"}}, {"type": "node", "id": 6297839310, "lat": 41.94334, "lon": -87.6490311, "tags": {"addr:city": "Chicago", "addr:housenumber": "3349", "addr:postcode": "60657", "addr:state": "IL", "addr:street": "North Halsted Street", "amenity": "bar", "name": "Sidetrack", "phone": "+1-773-477-9189", "website": "https://www.sidetrackchicago.com/"}}, {"type": "node", "id": 6298884587, "lat": 41.9498354, "lon": -87.6589084, "tags": {"addr:city": "Chicago", "addr:housenumber": "3730", "addr:postcode": "60613", "addr:state": "IL", "addr:street": "North Clark Street", "amenity": "bar", "name": "Smart Bar", "phone": "+1-773-549-4140", "website": "http://smartbarchicago.com/"}}, {"type": "node", "id": 6300417745, "lat": 41.9438066, "lon": -87.6540343, "tags": {"addr:city": "Chicago", "addr:housenumber": "3408", "addr:postcode": "60657", "addr:state": "IL", "addr:street": "North Clark Street", "amenity": "restaurant", "name": "Pick Me Up Cafe", "phone": "+1-773-248-6613", "website": "http://pmucafe.com/"}}, {"type": "node", "id": 6300768348, "lat": 41.9465696, "lon": -87.6563348, "tags": {"addr:city": "Chicago", "addr:housenumber": "3540", "addr:postcode": "60657", "addr:state": "IL", "addr:street": "North Clark Street", "amenity": "bar", "name": "Sluggers World Class Sports Bar", "phone": "+1-773-248-0055", "website": "sluggersbar.com"}}, {"type": "node", "id": 6300887613, "lat": 41.9458691, "lon": -87.646604, "tags": {"addr:city": "Chicago", "addr:housenumber": "3508", "addr:postcode": "60657", "addr:state": "IL", "addr:street": "North Broadway", "amenity": "cafe", "name": "Rewired Caf\u00e9- Lakeview", "phone": "+1-773-687-9719"}}, {"type": "node", "id": 6300944476, "lat": 41.945363, "lon": -87.6547607, "tags": {"addr:city": "Chicago", "addr:housenumber": "3435", "addr:postcode": "60657", "addr:state": "IL", "addr:street": "North Sheffield Avenue", "amenity": "restaurant", "name": "Rice\u2019N Bread", "phone": "+1-773-281-4452", "website": "http://www.ricenbread.com/"}}, {"type": "node", "id": 6301025352, "lat": 41.9406511, "lon": -87.6543865, "tags": {"addr:city": "Chicago", "addr:housenumber": "3222", "addr:postcode": "60657", "addr:state": "IL", "addr:street": "North Sheffield Avenue", "amenity": "bar", "name": "Room 13", "phone": "+1-773-472-2278", "website": "https://www.oldchicagoinn.com/room13/"}}, {"type": "node", "id": 6301035834, "lat": 41.9486374, "lon": -87.6579243, "tags": {"addr:city": "Chicago", "addr:housenumber": "3658", "addr:postcode": "60613", "addr:state": "IL", "addr:street": "North Clark Street", "amenity": "bar", "name": "Rizzo\u2019s Bar & Inn", "phone": "+1-773-799-8161", "website": "https://rizzosbarandinn.com/"}}, {"type": "node", "id": 6301794398, "lat": 41.9457853, "lon": -87.6550852, "tags": {"addr:city": "Chicago", "addr:housenumber": "3485", "addr:postcode": "60657", "addr:state": "IL", "addr:street": "North Clark Street", "amenity": "bar", "name": "Stretch Bar & Grill", "phone": "+1-773-755-3980"}}, {"type": "node", "id": 6301829167, "lat": 41.935976, "lon": -87.6444108, "tags": {"addr:city": "Chicago", "addr:housenumber": "2936", "addr:postcode": "60657", "addr:state": "IL", "addr:street": "North Broadway", "amenity": "restaurant", "name": "Sumo Sushi and Hibachi", "phone": "+1-773-477-8510", "website": "http://www.sumosushichicago.com/"}}, {"type": "node", "id": 6304062112, "lat": 41.9397228, "lon": -87.6512814, "tags": {"addr:city": "Chicago", "addr:housenumber": "851", "addr:postcode": "60657", "addr:state": "IL", "addr:street": "West Belmont Avenue", "amenity": "bar", "name": "The Annoyance Theatre and Bar", "phone": "+1-773-697-9693", "website": "https://theannoyance.com/"}}, {"type": "node", "id": 6304575246, "lat": 41.9455007, "lon": -87.6547969, "tags": {"addr:city": "Chicago", "addr:housenumber": "3437", "addr:postcode": "60657", "addr:state": "IL", "addr:street": "North Clark Street", "amenity": "bar", "name": "Tinker to Evers, Wrigleyville", "phone": "+1-224-322-0100", "website": "http://unionpizza.com/tinker-to-evers/"}}, {"type": "node", "id": 6305246040, "lat": 41.9477863, "lon": -87.6572653, "tags": {"addr:city": "Chicago", "addr:housenumber": "3630", "addr:postcode": "60613", "addr:state": "IL", "addr:street": "North Clark Street", "amenity": "bar", "name": "The Bar at Hotel Zachary", "phone": "+1-773-302-2300", "website": "https://www.hotelzachary.com/cuisine-cocktails#the-bar-at-hotel-zachary"}}, {"type": "node", "id": 6306543880, "lat": 41.9440209, "lon": -87.6491763, "tags": {"addr:city": "Chicago", "addr:housenumber": "3411", "addr:postcode": "60657", "addr:state": "IL", "addr:street": "North Halsted Street", "amenity": "restaurant", "diet:gluten_free": "yes", "diet:vegan": "yes", "diet:vegetarian": "only", "name": "The Chicago Diner", "phone": "+1-773-935-6696", "website": "http://www.veggiediner.com/"}}, {"type": "node", "id": 6306635320, "lat": 41.9357688, "lon": -87.6445452, "tags": {"addr:city": "Chicago", "addr:housenumber": "2928", "addr:postcode": "60657", "addr:state": "IL", "addr:street": "North Broadway", "amenity": "restaurant", "name": "The Crepe Shop", "phone": "+1-773-857-0018", "website": "https://www.thecrepeshopchicago.com/"}}, {"type": "node", "id": 6307022465, "lat": 41.9348552, "lon": -87.661554, "tags": {"addr:city": "Chicago", "addr:housenumber": "1913", "addr:postcode": "60657", "addr:state": "IL", "addr:street": "North Lincoln Avenue", "amenity": "bar", "name": "Twisted Tap"}}, {"type": "node", "id": 6307031974, "lat": 41.9433812, "lon": -87.6592419, "tags": {"addr:city": "Chicago", "addr:housenumber": "1201", "addr:postcode": "60657", "addr:state": "IL", "addr:street": "West Roscoe Street", "amenity": "cafe", "cuisine": "coffee_shop", "name": "Two Hearted Queen", "phone": "+1-773-360-8189", "website": "http://twoheartedqueen.com/"}}, {"type": "node", "id": 6314880236, "lat": 41.9357245, "lon": -87.6475622, "tags": {"addr:city": "Chicago", "addr:housenumber": "2932", "addr:postcode": "60657", "addr:state": "IL", "addr:street": "North Clark Street", "amenity": "bar", "name": "Jake\u2019s Pub", "phone": "+1-773-248-3318", "website": "http://www.jakespub.net/"}}, {"type": "node", "id": 6315206885, "lat": 41.9342202, "lon": -87.6607793, "tags": {"addr:city": "Chicago", "addr:housenumber": "2871", "addr:postcode": "60657", "addr:state": "IL", "addr:street": "North Lincoln Avenue", "amenity": "bar", "name": "The Elbo Room", "phone": "+1-773-549-5549", "website": "elboroomlive.com"}}, {"type": "node", "id": 6315218733, "lat": 41.9478821, "lon": -87.6466169, "tags": {"addr:city": "Chicago", "addr:housenumber": "620", "addr:postcode": "60613", "addr:state": "IL", "addr:street": "West Addison Street", "amenity": "restaurant", "name": "The Flower Flat", "phone": "+1-773-697-3682", "website": "http://www.theflowerflat.com/http://www.theflowerflat.com/"}}, {"type": "node", "id": 6315756742, "lat": 41.9413636, "lon": -87.6442012, "tags": {"addr:city": "Chicago", "addr:housenumber": "3243", "addr:postcode": "60657", "addr:state": "IL", "addr:street": "North Broadway", "amenity": "cafe", "name": "Vanille Patisserie", "phone": "+1-773-868-4574", "website": "http://www.vanillepatisserie.com/"}}, {"type": "node", "id": 6316678035, "lat": 41.9425564, "lon": -87.6443063, "tags": {"addr:city": "Chicago", "addr:housenumber": "3317", "addr:postcode": "60657", "addr:state": "IL", "addr:street": "North Broadway", "amenity": "bar", "name": "Wang\u2019s", "phone": "+1-773-296-6800", "website": "http://www.wangslive.com/"}}, {"type": "node", "id": 6316851529, "lat": 41.9349999, "lon": -87.644007, "tags": {"addr:city": "Chicago", "addr:housenumber": "2873", "addr:postcode": "60657", "addr:state": "IL", "addr:street": "North Broadway", "amenity": "bar", "name": "Wheat\u2019s End Cafe", "phone": "+1-773-770-3527", "website": "https://wheatsendcafe.com/"}}, {"type": "node", "id": 6316911957, "lat": 41.9387153, "lon": -87.644825, "tags": {"addr:city": "Chicago", "addr:housenumber": "3130", "addr:postcode": "60657", "addr:state": "IL", "addr:street": "North Broadway", "amenity": "restaurant", "name": "Wilde Bar & Restaurant", "phone": "+1-773-244-0404", "website": "https://wildechicago.com/restaurant/wilde"}}, {"type": "node", "id": 6316972664, "lat": 41.9428754, "lon": -87.6490912, "tags": {"addr:city": "Chicago", "addr:housenumber": "3335", "addr:postcode": "60657", "addr:state": "IL", "addr:street": "North Halsted Street", "amenity": "restaurant", "name": "Wood", "phone": "+1-773-935-9663", "website": "http://woodchicago.com/"}}, {"type": "node", "id": 6317062826, "lat": 41.9431839, "lon": -87.6496538, "tags": {"addr:city": "Chicago", "addr:housenumber": "3344", "addr:postcode": "60657", "addr:state": "IL", "addr:street": "North Halsted Street", "amenity": "cafe", "name": "Yefseis Cafe", "phone": "+1-773-857-3002", "website": "https://yefseis-cafe.business.site/"}}, {"type": "node", "id": 6318385635, "lat": 41.9397696, "lon": -87.6507781, "tags": {"addr:city": "Chicago", "addr:housenumber": "3178", "addr:postcode": "60657", "addr:state": "IL", "addr:street": "North Clark Street", "amenity": "cafe", "name": "Life Spring Health Foods & Juice Bar", "phone": "+1-773-327-1023", "website": "http://lifespringchicago.com/"}}, {"type": "node", "id": 6318928610, "lat": 41.9472229, "lon": -87.6470188, "tags": {"addr:city": "Chicago", "addr:housenumber": "3563", "addr:postcode": "60657", "addr:state": "IL", "addr:street": "North Broadway", "amenity": "bar", "name": "Joe\u2019s On Broadway", "phone": "+1-773-528-1054"}}, {"type": "node", "id": 6319831697, "lat": 41.9399793, "lon": -87.6603361, "tags": {"addr:city": "Chicago", "addr:housenumber": "1232", "addr:postcode": "60657", "addr:state": "IL", "addr:street": "West Belmont Avenue", "amenity": "restaurant", "name": "Kubo Chicago", "phone": "+1-773-857-1408", "website": "https://www.kubochicago.com/"}}, {"type": "node", "id": 6320014611, "lat": 41.9340452, "lon": -87.6456834, "tags": {"addr:city": "Chicago", "addr:housenumber": "2845", "addr:postcode": "60657", "addr:state": "IL", "addr:street": "North Clark Street", "amenity": "restaurant", "name": "La Cr\u00eaperie", "phone": "+1-773-528-9050", "website": "http://www.lacreperiechicago.com/"}}, {"type": "node", "id": 6320659647, "lat": 41.9396984, "lon": -87.6442135, "tags": {"addr:city": "Chicago", "addr:housenumber": "3169", "addr:postcode": "60657", "addr:state": "IL", "addr:street": "West Belmont Avenue", "amenity": "bar", "name": "Lower Broadway", "phone": "+1-312-985-6190"}}, {"type": "node", "id": 6321416056, "lat": 41.9382059, "lon": -87.6446069, "tags": {"addr:city": "Chicago", "addr:housenumber": "3114", "addr:postcode": "60657", "addr:state": "IL", "addr:street": "North Broadway", "amenity": "cafe", "name": "Maison Marcel", "phone": "+1-773-661-6942", "website": "https://www.maison-marcel.com/"}}, {"type": "node", "id": 6321420401, "lat": 41.9420205, "lon": -87.6521692, "tags": {"addr:city": "Chicago", "addr:housenumber": "3307", "addr:postcode": "60657", "addr:state": "IL", "addr:street": "North Clark Street", "amenity": "restaurant", "name": "Maison Parisienne", "phone": "+1-773-904-0777", "website": "http://maison-parisienne.com/"}}, {"type": "node", "id": 6322604322, "lat": 41.9421793, "lon": -87.6521992, "tags": {"addr:city": "Chicago", "addr:housenumber": "3311", "addr:postcode": "60657", "addr:state": "IL", "addr:street": "North Clark Street", "amenity": "restaurant", "name": "Mia Francesca", "phone": "+1-773-281-3310", "website": "https://www.miafrancesca.com/"}}, {"type": "node", "id": 6322764818, "lat": 41.9398721, "lon": -87.6491223, "tags": {"addr:city": "Chicago", "addr:housenumber": "3171", "addr:postcode": "60657", "addr:state": "IL", "addr:street": "North Halsted Street", "amenity": "cafe", "name": "Modern Grill", "phone": "+1-773-528-0705", "website": "https://www.moderngrill.net/"}}, {"type": "node", "id": 6322807372, "lat": 41.9371372, "lon": -87.6441059, "tags": {"addr:city": "Chicago", "addr:housenumber": "3019", "addr:postcode": "60657", "addr:state": "IL", "addr:street": "North Broadway", "amenity": "bar", "name": "Monsignor Murphys", "phone": "+1-773-348-7285", "website": "https://www.hugedomains.com/domain_profile.cfm?d=monsignormurphys&e=com"}}, {"type": "node", "id": 6322972542, "lat": 41.9474494, "lon": -87.6539367, "tags": {"addr:city": "Chicago", "addr:housenumber": "950", "addr:postcode": "60613", "addr:state": "IL", "addr:street": "West Addison Street", "amenity": "bar", "name": "The Dugout Bar", "phone": "+1-773-661-6043", "website": "http://thedugoutpressbox.com"}}, {"type": "node", "id": 6323168600, "lat": 41.9457261, "lon": -87.655028, "tags": {"addr:city": "Chicago", "addr:housenumber": "3481", "addr:postcode": "60657", "addr:state": "IL", "addr:street": "North Clark Street", "amenity": "bar", "name": "Nola pub", "phone": "+1-773-661-1873", "website": "http://nolachicago.com/"}}, {"type": "node", "id": 6326075700, "lat": 41.942959, "lon": -87.6443966, "tags": {"addr:city": "Chicago", "addr:housenumber": "3343", "addr:postcode": "60657", "addr:state": "IL", "addr:street": "North Broadway", "amenity": "restaurant", "name": "Ms. T\u2019s Southern Fried Chicken", "phone": "+1-773-728-2500", "website": "http://mstssouthernfriedchicken.com/"}}, {"type": "node", "id": 6326154015, "lat": 41.9373423, "lon": -87.6447076, "tags": {"addr:city": "Chicago", "addr:housenumber": "3030", "addr:postcode": "60657", "addr:state": "IL", "addr:street": "North Broadway", "amenity": "bar", "name": "Nob\u2019s Wine Bar"}}, {"type": "node", "id": 6326466249, "lat": 41.9340181, "lon": -87.6610034, "tags": {"addr:city": "Chicago", "addr:housenumber": "2878", "addr:postcode": "60657", "addr:state": "IL", "addr:street": "North Lincoln Avenue", "amenity": "restaurant", "name": "Left Coast Food + Juice", "phone": "+1-773-880-5338", "website": "http://www.leftcoastfood.com/"}}, {"type": "node", "id": 6410371289, "lat": 41.9340863, "lon": -87.6462185, "tags": {"addr:city": "Chicago", "addr:housenumber": "2850", "addr:postcode": "60657", "addr:state": "IL", "addr:street": "North Clark Street", "amenity": "restaurant", "cuisine": "argentinian;empanada", "name": "5411 Empanadas - Lakeview", "phone": "+1-773-755-5411", "website": "http://www.5411empanadas.com"}}, {"type": "node", "id": 6680245859, "lat": 41.9449518, "lon": -87.6550537, "tags": {"addr:city": "Chicago", "addr:housenumber": "3458", "addr:postcode": "60657", "addr:state": "IL", "addr:street": "North Clark Street", "amenity": "restaurant", "cuisine": "pizza", "name": "Happy Camper - Wrigleyville", "phone": "+1-312-872-5959"}}, {"type": "node", "id": 6737957050, "lat": 41.9407147, "lon": -87.6442732, "tags": {"addr:city": "Chicago", "addr:housenumber": "3219", "addr:postcode": "60657", "addr:state": "IL", "addr:street": "North Broadway", "amenity": "restaurant", "cuisine": "sushi", "name": "Sushi + Rotary Sushi Bar"}}, {"type": "node", "id": 6742635969, "lat": 41.9446738, "lon": -87.6454546, "tags": {"addr:city": "Chicago", "addr:housenumber": "3443", "addr:postcode": "60657", "addr:state": "IL", "addr:street": "North Broadway", "amenity": "restaurant", "cuisine": "steak_house", "name": "Revoluci\u00f3n Steakhouse"}}, {"type": "node", "id": 6742635971, "lat": 41.9453023, "lon": -87.6458274, "tags": {"addr:city": "Chicago", "addr:housenumber": "3477", "addr:postcode": "60657", "addr:state": "IL", "addr:street": "North Broadway", "amenity": "restaurant", "cuisine": "pizza", "name": "Si-Pie Pizzeria"}}, {"type": "node", "id": 6744908257, "lat": 41.9401879, "lon": -87.6447197, "tags": {"addr:city": "Chicago", "addr:housenumber": "604", "addr:postcode": "60657", "addr:state": "IL", "addr:street": "West Belmont Avenue", "amenity": "restaurant", "cuisine": "noodle", "name": "Kameya Ramen & Sushi"}}, {"type": "node", "id": 6975177633, "lat": 41.9433498, "lon": -87.6495032, "tags": {"amenity": "bar", "name": "D.S. Tequila Company"}}, {"type": "node", "id": 6975184603, "lat": 41.9457115, "lon": -87.6496251, "tags": {"amenity": "restaurant", "name": "Forever Yogurt"}}, {"type": "node", "id": 6975184604, "lat": 41.9455848, "lon": -87.6492845, "tags": {"amenity": "bar", "name": "Little Jim's Tavern"}}, {"type": "node", "id": 6975184605, "lat": 41.9456597, "lon": -87.6492885, "tags": {"amenity": "bar", "name": "Big Jim's"}}, {"type": "node", "id": 6975184606, "lat": 41.9457415, "lon": -87.6491812, "tags": {"amenity": "restaurant", "name": "Taco and Burrito Palace"}}, {"type": "node", "id": 7161087636, "lat": 41.9506255, "lon": -87.6430859, "tags": {"addr:city": "Chicago", "addr:housenumber": "3650", "addr:street": "North Recreation Drive", "amenity": "restaurant", "cuisine": "mexican", "name": "Two Wheel Tacos", "opening_hours": "\"seasonal\""}}, {"type": "node", "id": 7237325573, "lat": 41.9436911, "lon": -87.6544873, "tags": {"amenity": "restaurant", "name": "Penny\u2019s Noodle Shop"}}, {"type": "node", "id": 7330251139, "lat": 41.9393947, "lon": -87.6442304, "tags": {"addr:city": "Chicago", "addr:housenumber": "315", "addr:postcode": "60657", "addr:state": "IL", "addr:street": "North Broadway", "amenity": "restaurant", "cuisine": "pizza", "name": "Roebuck", "phone": "+1-773-857-2229", "website": "https://www.roebuckpizza.com/"}}, {"type": "node", "id": 7393995551, "lat": 41.9368071, "lon": -87.6475997, "tags": {"amenity": "restaurant", "brand": "Pizza Hut", "brand:wikidata": "Q191615", "brand:wikipedia": "en:Pizza Hut", "cuisine": "pizza", "name": "Pizza Hut"}}, {"type": "way", "id": 158622286, "nodes": [1707846189, 1707846196, 1707846198, 1707846206, 1707846207, 1707846203, 1707846189], "tags": {"addr:city": "Chicago", "addr:housenumber": "3664", "addr:postcode": "60613", "addr:state": "IL", "addr:street": "North Clark Street", "addr:street:name": "Clark", "addr:street:prefix": "North", "addr:street:type": "Street", "amenity": "bar", "building": "yes", "building:levels": "2", "chicago:building_id": "858483", "name": "Bernie's Tavern", "phone": "+1-773-525-1898", "website": "https://bernieschicago.com/"}}, {"type": "way", "id": 210325183, "nodes": [2204095268, 2204095393, 2204095390, 2204095422, 2204095440, 2204095676, 2204095680, 2204095504, 2204095463, 2204095437, 2204095436, 2204095273, 2204095268], "tags": {"addr:city": "Chicago", "addr:housenumber": "1117", "addr:postcode": "60657", "addr:state": "IL", "addr:street": "West Belmont Avenue", "addr:street:name": "Belmont", "addr:street:prefix": "West", "addr:street:type": "Avenue", "alt_name": "Dark Matter Coffee", "amenity": "cafe", "building": "yes", "building:levels": "3", "chicago:building_id": "209518", "cuisine": "coffee_shop", "internet_access": "yes", "name": "Osmium Coffee", "opening_hours": "Mo-Su 06:00-21:00", "phone": "+1-773-360-7553", "website": "https://www.darkmattercoffee.com/"}}, {"type": "way", "id": 210326253, "nodes": [2204091829, 2204091836, 2204092025, 2204092036, 2204091542, 2204091513, 2204091519, 2204091506, 2204091829], "tags": {"addr:city": "Chicago", "addr:housenumber": "3132", "addr:postcode": "60657", "addr:state": "IL", "addr:street": "North Broadway", "addr:street:name": "Broadway", "addr:street:prefix": "North", "amenity": "restaurant", "building": "yes", "building:levels": "2", "chicago:building_id": "848730", "name": "Kitchen 17", "phone": "+1-312-391-8654", "website": "https://www.kitchen17.com/"}}, {"type": "way", "id": 210329583, "nodes": [2204119458, 2204119738, 2204119487, 2204119217, 2204119458], "tags": {"addr:housenumber": "3461", "addr:street": "North Clark Street", "addr:street:name": "Clark", "addr:street:prefix": "North", "addr:street:type": "Street", "amenity": "restaurant", "building": "yes", "chicago:building_id": "882929", "cuisine": "middle_eastern", "name": "Zam Zam", "website": "http://www.zamzammiddleeasterngrillil.com/"}}, {"type": "way", "id": 210329586, "nodes": [2204119738, 2204119458, 2204119688, 2204120016, 2204119738], "tags": {"addr:housenumber": "3463", "addr:street": "North Clark Street", "addr:street:name": "Clark", "addr:street:prefix": "North", "addr:street:type": "Street", "amenity": "restaurant", "building": "yes", "chicago:building_id": "882930", "cuisine": "pizza", "name": "Dimo's", "website": "https://dimospizza.com/"}}, {"type": "way", "id": 210330261, "nodes": [2204135999, 2204136034, 2204136027, 2204136136, 2204136138, 2204136014, 2204135999], "tags": {"addr:city": "Chicago", "addr:housenumber": "3760", "addr:postcode": "60613", "addr:state": "IL", "addr:street": "North Broadway", "addr:street:name": "Broadway", "addr:street:prefix": "North", "amenity": "restaurant", "brand": "IHOP", "brand:wikidata": "Q1185675", "brand:wikipedia": "en:IHOP", "building": "yes", "building:levels": "1", "chicago:building_id": "161117", "cuisine": "breakfast;pancake", "name": "IHOP"}}]}