{"version": 0.6, "generator": "Overpass API 0.7.56.3 eb200aeb", "osm3s": {"timestamp_osm_base": "2020-07-17T21:20:03Z", "copyright": "The data included in this document is from www.openstreetmap.org. The data is made available under ODbL."}, "elements": [{"type": "node", "id": 346234680, "lat": 41.9616382, "lon": -87.6761596, "tags": {"amenity": "cafe", "brand": "Starbucks", "brand:wikidata": "Q37158", "brand:wikipedia": "en:Starbucks", "cuisine": "coffee_shop", "name": "Starbucks", "official_name": "Starbucks Coffee", "takeaway": "yes"}}, {"type": "node", "id": 346235240, "lat": 41.9616342, "lon": -87.6766491, "tags": {"amenity": "restaurant", "cuisine": "mexican", "name": "La Amistad"}}, {"type": "node", "id": 347301872, "lat": 41.9547023, "lon": -87.6789343, "tags": {"amenity": "cafe", "brand": "Starbucks", "brand:wikidata": "Q37158", "brand:wikipedia": "en:Starbucks", "cuisine": "coffee_shop", "name": "Starbucks", "official_name": "Starbucks Coffee", "takeaway": "yes"}}, {"type": "node", "id": 370884874, "lat": 41.9501029, "lon": -87.6590892, "tags": {"addr:city": "Chicago", "addr:housenumber": "3740", "addr:postcode": "60613", "addr:state": "IL", "addr:street": "North Clark Street", "amenity": "bar", "name": "The Ginger Man Tavern", "phone": "+1-773-549-2050", "wifi": "free"}}, {"type": "node", "id": 1315577349, "lat": 41.9616363, "lon": -87.6753928, "tags": {"addr:city": "Chicago", "addr:housenumber": "1820", "addr:postcode": "60613", "addr:state": "IL", "addr:street": "West Montrose Avenue", "amenity": "restaurant", "cuisine": "fish", "name": "Glenn's Diner", "phone": "+1-773-506-1720", "website": "http://www.glennsdiner.com/"}}, {"type": "node", "id": 1315577350, "lat": 41.9616307, "lon": -87.6758097, "tags": {"amenity": "bar"}}, {"type": "node", "id": 1317827223, "lat": 41.9613609, "lon": -87.6754823, "tags": {"amenity": "restaurant", "cuisine": "mexican", "name": "El Torito"}}, {"type": "node", "id": 1317862200, "lat": 41.9613426, "lon": -87.67683, "tags": {"amenity": "restaurant", "cuisine": "pizza", "name": "Chicago's Pizza"}}, {"type": "node", "id": 1432788849, "lat": 41.9613167, "lon": -87.6787734, "tags": {"amenity": "restaurant", "name": "Marmalade"}}, {"type": "node", "id": 1432789477, "lat": 41.9616298, "lon": -87.6756205, "tags": {"amenity": "restaurant", "cuisine": "thai", "name": "Roong Petch"}}, {"type": "node", "id": 1627008081, "lat": 41.9616577, "lon": -87.6750199, "tags": {"addr:city": "Chicago", "addr:housenumber": "1810", "addr:postcode": "60613", "addr:state": "IL", "addr:street": "West Montrose Avenue", "amenity": "restaurant", "cuisine": "coffee_shop", "name": "Bayan Ko", "phone": "+1-773-698-6373"}}, {"type": "node", "id": 1707846189, "lat": 41.9486953, "lon": -87.6582381}, {"type": "node", "id": 1707846196, "lat": 41.9487477, "lon": -87.6582605}, {"type": "node", "id": 1707846198, "lat": 41.948767, "lon": -87.6581776}, {"type": "node", "id": 1707846203, "lat": 41.9488222, "lon": -87.6579582}, {"type": "node", "id": 1707846206, "lat": 41.9488702, "lon": -87.6582268}, {"type": "node", "id": 1707846207, "lat": 41.9488731, "lon": -87.6579926}, {"type": "node", "id": 1719743443, "lat": 41.9614679, "lon": -87.6694841, "tags": {"amenity": "restaurant", "cuisine": "mexican", "name": "Mixteco Grill"}}, {"type": "node", "id": 1719743459, "lat": 41.965015, "lon": -87.6756907, "tags": {"amenity": "restaurant", "cuisine": "italian", "name": "Caro Mio"}}, {"type": "node", "id": 1719743519, "lat": 41.9653337, "lon": -87.6727215, "tags": {"amenity": "restaurant", "cuisine": "sushi", "name": "Fin"}}, {"type": "node", "id": 1720016522, "lat": 41.9490961, "lon": -87.6582546, "tags": {"amenity": "restaurant", "cuisine": "burger", "name": "Rockit Burger Bar", "wifi": "no"}}, {"type": "node", "id": 2200725964, "lat": 41.9533183, "lon": -87.6780307}, {"type": "node", "id": 2200725966, "lat": 41.9533184, "lon": -87.6780399}, {"type": "node", "id": 2200726016, "lat": 41.9533237, "lon": -87.6777678}, {"type": "node", "id": 2200726082, "lat": 41.9533374, "lon": -87.6777677}, {"type": "node", "id": 2200726089, "lat": 41.9533385, "lon": -87.6777162}, {"type": "node", "id": 2200726345, "lat": 41.9533776, "lon": -87.6780798}, {"type": "node", "id": 2200726468, "lat": 41.9533897, "lon": -87.67803}, {"type": "node", "id": 2200726469, "lat": 41.9533898, "lon": -87.6780484}, {"type": "node", "id": 2200726510, "lat": 41.9533942, "lon": -87.6778572}, {"type": "node", "id": 2200726534, "lat": 41.9533964, "lon": -87.6777671}, {"type": "node", "id": 2200726538, "lat": 41.9533975, "lon": -87.6777174}, {"type": "node", "id": 2200726901, "lat": 41.9534546, "lon": -87.6778602}, {"type": "node", "id": 2200726915, "lat": 41.9534568, "lon": -87.6777701}, {"type": "node", "id": 2200731343, "lat": 41.9543052, "lon": -87.6780942}, {"type": "node", "id": 2200731346, "lat": 41.9543061, "lon": -87.6780041}, {"type": "node", "id": 2200731347, "lat": 41.9543062, "lon": -87.6780206}, {"type": "node", "id": 2200731469, "lat": 41.9543733, "lon": -87.6780052}, {"type": "node", "id": 2200731489, "lat": 41.9543817, "lon": -87.6780198}, {"type": "node", "id": 2200731493, "lat": 41.954383, "lon": -87.6780235}, {"type": "node", "id": 2200731506, "lat": 41.9543875, "lon": -87.6780804}, {"type": "node", "id": 2200731507, "lat": 41.9543876, "lon": -87.6780951}, {"type": "node", "id": 2200731570, "lat": 41.9544132, "lon": -87.678025}, {"type": "node", "id": 2200731577, "lat": 41.9544187, "lon": -87.6780195}, {"type": "node", "id": 2200731594, "lat": 41.9544218, "lon": -87.6780801}, {"type": "node", "id": 2200731596, "lat": 41.9544219, "lon": -87.6780966}, {"type": "node", "id": 2200731601, "lat": 41.9544241, "lon": -87.6780121}, {"type": "node", "id": 2200732005, "lat": 41.9545495, "lon": -87.6781008}, {"type": "node", "id": 2200732012, "lat": 41.9545504, "lon": -87.6780163}, {"type": "node", "id": 2200732013, "lat": 41.9545504, "lon": -87.6780181}, {"type": "node", "id": 2204141516, "lat": 41.9542939, "lon": -87.6553395}, {"type": "node", "id": 2204141519, "lat": 41.9542963, "lon": -87.6552807}, {"type": "node", "id": 2204141590, "lat": 41.954358, "lon": -87.6552855}, {"type": "node", "id": 2204141593, "lat": 41.9543694, "lon": -87.6553461}, {"type": "node", "id": 2204141595, "lat": 41.9543718, "lon": -87.6552964}, {"type": "node", "id": 2274368662, "lat": 41.9651576, "lon": -87.6620866, "tags": {"addr:city": "Chicago", "addr:housenumber": "1265", "addr:street": "West Wilson Avenue", "amenity": "restaurant", "brand": "Godfather's Pizza", "brand:wikidata": "Q5576353", "brand:wikipedia": "en:Godfather's Pizza", "cuisine": "pizza", "name": "Godfather's Pizza", "phone": "773-878-8600", "website": "http://www.thegodfatherspizza.com/"}}, {"type": "node", "id": 2276406961, "lat": 41.9616119, "lon": -87.6787867, "tags": {"addr:city": "Chicago", "addr:housenumber": "1970", "addr:postcode": "60618", "addr:state": "IL", "addr:street": "West Montrose Avenue", "amenity": "restaurant", "cuisine": "New_American", "name": "Fountainhead", "phone": "+1-773-697-8204", "website": "http://fountainheadchicago.com/"}}, {"type": "node", "id": 2293823034, "lat": 41.965037, "lon": -87.6738629, "tags": {"addr:city": "Chicago", "addr:housenumber": "4557", "addr:postcode": "60640", "addr:state": "IL", "addr:street": "North Ravenswood Avenue", "amenity": "bar", "cuisine": "irish", "name": "O'Shaughnessy's", "opening_hours": "Mo-Su 11:00-02:00", "phone": "+1-773-944-9896", "website": "http://www.oshaughnessyschicago.com/"}}, {"type": "node", "id": 2761669109, "lat": 41.9511963, "lon": -87.659943, "tags": {"amenity": "restaurant", "name": "Uncommon Ground", "website": "https://www.uncommonground.com/"}}, {"type": "node", "id": 3952957928, "lat": 41.9545863, "lon": -87.6786069, "tags": {"addr:city": "Chicago", "addr:housenumber": "4011", "addr:postcode": "60618", "addr:state": "IL", "addr:street": "North Damen Avenue", "amenity": "bar", "name": "The Victor Bar", "phone": "+1-773-360-7049", "website": "http://www.thevictorbarchicago.com/"}}, {"type": "node", "id": 3952962087, "lat": 41.9552793, "lon": -87.6743796, "tags": {"amenity": "bar", "brewery": "Begyle Brewing Co", "craft": "brewery", "microbrewery": "yes", "name": "Begyle Brewing Co", "outdoor_seating": "no"}}, {"type": "node", "id": 4560958768, "lat": 41.9561589, "lon": -87.6743858, "tags": {"addr:city": "Chicago", "addr:housenumber": "1800", "addr:postcode": "60613", "addr:state": "IL", "addr:street": "West Belle Plaine Avenue", "amenity": "bar", "name": "Dovetail Brewery", "opening_hours": "Tu 14:00-22:00; We 14:00-22:00; Th 14:00-22:00; Fr 12:00-23:00; Sa 11:00-23:00; Su 10:00-20:00", "phone": "+1-773-683-1414", "website": "http://dovetailbrewery.com/"}}, {"type": "node", "id": 4726187690, "lat": 41.9493082, "lon": -87.6584942, "tags": {"addr:city": "Chicago", "addr:housenumber": "3710", "addr:postcode": "60613", "addr:state": "IL", "addr:street": "North Clark Street", "amenity": "restaurant", "cuisine": "american", "name": "Yak-Zies Wrigleyville", "opening_hours": "Mo-Su 10:00-02:00"}}, {"type": "node", "id": 4729742490, "lat": 41.9651973, "lon": -87.6633434, "tags": {"addr:city": "Chicago", "addr:housenumber": "1325", "addr:postcode": "60640", "addr:state": "IL", "addr:street": "West Wilson Avenue", "amenity": "cafe", "name": "Heritage Outpost", "opening_hours": "Su-Th 07:00-19:00; Fr-Sa 07:00-21:00", "phone": "+1-872-806-0639", "website": "https://www.heritagebicycles.com/pages/heritage-outpost"}}, {"type": "node", "id": 5215407357, "lat": 41.954406, "lon": -87.6757926, "tags": {"addr:city": "Chicago", "addr:housenumber": "1840", "addr:postcode": "60613", "addr:state": "IL", "addr:street": "West Irving Park Road", "amenity": "cafe", "name": "Steingold's", "opening_hours": "Mo-Th 08:00-15:00; Fr 08:00-20:00; Sa-Su 09:00-15:00", "phone": "+1-773-661-2469", "website": "https://www.steingoldsdeli.com/"}}, {"type": "node", "id": 5460774511, "lat": 41.9544928, "lon": -87.6643843, "tags": {"addr:city": "Chicago", "addr:housenumber": "4000", "addr:postcode": "60613", "addr:state": "IL", "addr:street": "North Southport Avenue", "amenity": "restaurant", "name": "Southport & Irving SIP", "phone": "+1-773-857-2890", "website": "http://www.southportandirving.com/"}}, {"type": "node", "id": 5460917346, "lat": 41.9544424, "lon": -87.6777722, "tags": {"addr:city": "Chicago", "addr:housenumber": "1934", "addr:postcode": "60613", "addr:state": "IL", "addr:street": "West Irving Park Road", "amenity": "bar", "cuisine": "pub;american", "name": "The Globe Pub", "opening_hours": "Mo-Fr 11:00-02:00; Sa 06:00-03:00; Su 07:00-02:00", "phone": "+1-773-871-3757", "website": "http://www.theglobepub.com/"}}, {"type": "node", "id": 5460924648, "lat": 41.9513376, "lon": -87.6769653, "tags": {"addr:city": "Chicago", "addr:housenumber": "3832", "addr:postcode": "60613", "addr:state": "IL", "addr:street": "North Lincoln Avenue", "amenity": "restaurant", "cuisine": "pizza;barbecue;bbq;barbeque;american", "name": "Big Bricks", "opening_hours": "Mo-Th 17:00-23:00; Fr-Sa 11:30-00:00; Su 11:30-23:00", "phone": "+1-773-525-5022", "website": "http://www.bigbrickschicago.com/"}}, {"type": "node", "id": 5462763915, "lat": 41.9503531, "lon": -87.6639084, "tags": {"amenity": "restaurant", "name": "Grassroots Restaurant"}}, {"type": "node", "id": 5559919114, "lat": 41.9655203, "lon": -87.6586425, "tags": {"addr:city": "Chicago", "addr:housenumber": "1122", "addr:postcode": "60640", "addr:state": "IL", "addr:street": "West Wilson Avenue", "amenity": "cafe", "cuisine": "donut", "name": "Uptown Donuts"}}, {"type": "node", "id": 5834769442, "lat": 41.9479341, "lon": -87.6573197, "tags": {"addr:city": "Chicago", "addr:housenumber": "3632", "addr:postcode": "60613", "addr:state": "IL", "addr:street": "North Clark Street", "amenity": "restaurant", "cuisine": "american", "name": "Mordecai", "phone": "+1-773-269-5410", "website": "https://www.mordecaichicago.com"}}, {"type": "node", "id": 5834769444, "lat": 41.9481236, "lon": -87.6574646, "tags": {"addr:city": "Chicago", "addr:housenumber": "3636", "addr:postcode": "60613", "addr:state": "IL", "addr:street": "North Clark Street", "amenity": "restaurant", "cuisine": "bbq;barbecue", "name": "Smoke Daddy BBQ - Wrigleyville", "phone": "+1-773-227-2583", "website": "https://www.thesmokedaddy.com/"}}, {"type": "node", "id": 5834769445, "lat": 41.9481784, "lon": -87.6575019, "tags": {"addr:city": "Chicago", "addr:housenumber": "3640", "addr:postcode": "60613", "addr:state": "IL", "addr:street": "North Clark Street", "amenity": "restaurant", "cuisine": "tacos", "name": "Big Star", "opening_hours": "24/7", "phone": "+1-773-857-7120"}}, {"type": "node", "id": 5834769447, "lat": 41.9488178, "lon": -87.6568234, "tags": {"addr:city": "Chicago", "addr:housenumber": "1101", "addr:postcode": "60613", "addr:state": "IL", "addr:street": "West Waveland Avenue", "amenity": "bar", "brewery": "yes", "name": "Lucky Dorr", "outdoor_seating": "yes", "phone": "+1-773-388-8249", "website": "https://www.luckydorr.com/"}}, {"type": "node", "id": 5834769449, "lat": 41.9485577, "lon": -87.657448, "tags": {"addr:city": "Chicago", "addr:housenumber": "3647", "addr:postcode": "60613", "addr:state": "IL", "addr:street": "North Clark Street", "amenity": "restaurant", "name": "Brickhouse Tavern"}}, {"type": "node", "id": 6256468414, "lat": 41.9507774, "lon": -87.6685899, "tags": {"addr:city": "Chicago", "addr:housenumber": "3801", "addr:postcode": "60613", "addr:state": "IL", "addr:street": "North Ashland Avenue", "amenity": "bar", "name": "A.J. Hudson\u2019s Public House", "phone": "+1-773-348-2767", "website": "http://ajhudsons.com/info.php"}}, {"type": "node", "id": 6265692545, "lat": 41.9553987, "lon": -87.6745486, "tags": {"addr:city": "Chicago", "addr:housenumber": "1800", "addr:postcode": "60613", "addr:state": "IL", "addr:street": "West Cuyler Avenue", "amenity": "bar", "name": "Begyle Brewing", "phone": "+1-773-661-6963", "website": "http://begylebrewing.com/Begyle/21.html"}}, {"type": "node", "id": 6267141732, "lat": 41.9614109, "lon": -87.6705867, "tags": {"addr:city": "Chicago", "addr:housenumber": "1637", "addr:postcode": "60613", "addr:state": "IL", "addr:street": "West Montrose Avenue", "amenity": "restaurant", "name": "Bienmesabe", "phone": "+1-773-549-5538", "website": "https://bienmesabechicago.com/"}}, {"type": "node", "id": 6268283674, "lat": 41.9505757, "lon": -87.6638791, "tags": {"addr:city": "Chicago", "addr:housenumber": "3755", "addr:postcode": "60613", "addr:state": "IL", "addr:street": "North Southport Avenue", "amenity": "restaurant", "name": "Bodega Sur", "phone": "+1-773- 904-8656", "website": "http://www.bodegasurchicago.com/"}}, {"type": "node", "id": 6269135159, "lat": 41.9533646, "lon": -87.6778752, "tags": {"addr:city": "Chicago", "addr:housenumber": "3937", "addr:postcode": "60613", "addr:state": "IL", "addr:street": "North Lincoln Avenue", "amenity": "bar", "name": "Brownstone Tavern & Grill", "phone": "+1-773-528-3700"}}, {"type": "node", "id": 6269167678, "lat": 41.9486948, "lon": -87.6572351, "tags": {"addr:city": "Chicago", "addr:housenumber": "3647", "addr:postcode": "60613", "addr:state": "IL", "addr:street": "North Clark Street", "amenity": "bar", "name": "Budweiser Brickhouse Tavern", "phone": "+1-773-377-4770", "website": "https://www.brickhousetavernchi.com/"}}, {"type": "node", "id": 6284798616, "lat": 41.961622, "lon": -87.6557775, "tags": {"addr:city": "Chicago", "addr:housenumber": "1021", "addr:postcode": "60613", "addr:state": "IL", "addr:street": "West Montrose Avenue", "amenity": "bar", "name": "Driftwood", "phone": "+1-847-962-8906"}}, {"type": "node", "id": 6284801425, "lat": 41.963009, "lon": -87.6555863, "tags": {"addr:city": "Chicago", "addr:housenumber": "4443", "addr:postcode": "60640", "addr:state": "IL", "addr:street": "North Broadway", "amenity": "bar", "name": "Drink and Ink", "phone": "+1-773-944-5000"}}, {"type": "node", "id": 6285864716, "lat": 41.9535455, "lon": -87.6779861, "tags": {"addr:city": "Chicago", "addr:housenumber": "3941", "addr:postcode": "60613", "addr:state": "IL", "addr:street": "North Lincoln Avenue", "amenity": "restaurant", "name": "El Llano Restaurant - Northcenter", "phone": "+1-773-868-1899", "website": "https://www.llanochicago.com/"}}, {"type": "node", "id": 6286620875, "lat": 41.9655242, "lon": -87.6605853, "tags": {"addr:city": "Chicago", "addr:housenumber": "1224", "addr:postcode": "60640", "addr:state": "IL", "addr:street": "West Wilson Avenue", "amenity": "cafe", "name": "Emerald City Coffee", "phone": "+1-773-944-0227", "website": "https://emeraldcitychicago.com/"}}, {"type": "node", "id": 6290117327, "lat": 41.9617643, "lon": -87.6734467, "tags": {"addr:city": "Chicago", "addr:housenumber": "4401", "addr:postcode": "60640", "addr:state": "IL", "addr:street": "North Ravenswood Avenue", "amenity": "cafe", "name": "First Slice", "phone": "+1-773-506-7380", "website": "http://firstslice.org/"}}, {"type": "node", "id": 6292012650, "lat": 41.9515876, "lon": -87.6767514, "tags": {"addr:city": "Chicago", "addr:housenumber": "3839", "addr:postcode": "60613", "addr:state": "IL", "addr:street": "North Lincoln Avenue", "amenity": "bar", "name": "Goldie\u2019s Pub", "phone": "+1-773-404-5322", "website": "http://www.goldiespub.com/"}}, {"type": "node", "id": 6298884587, "lat": 41.9498354, "lon": -87.6589084, "tags": {"addr:city": "Chicago", "addr:housenumber": "3730", "addr:postcode": "60613", "addr:state": "IL", "addr:street": "North Clark Street", "amenity": "bar", "name": "Smart Bar", "phone": "+1-773-549-4140", "website": "http://smartbarchicago.com/"}}, {"type": "node", "id": 6300182145, "lat": 41.9613575, "lon": -87.6755899, "tags": {"addr:city": "Chicago", "addr:housenumber": "1829", "addr:postcode": "60613", "addr:state": "IL", "addr:street": "West Montrose Avenue", "amenity": "bar", "name": "The Ravenswood Tavern", "phone": "+1-773-528-3253", "website": "https://www.theravenswoodtavern.com/"}}, {"type": "node", "id": 6300281117, "lat": 41.9632016, "lon": -87.6737278, "tags": {"addr:city": "Chicago", "addr:housenumber": "1769", "addr:postcode": "60640", "addr:state": "IL", "addr:street": "West Sunnyside Avenue", "amenity": "restaurant", "name": "Spacca Napoli", "phone": "+1-773-878-2420", "website": "https://www.spaccanapolipizzeria.com/"}}, {"type": "node", "id": 6300322752, "lat": 41.9616845, "lon": -87.6750333, "tags": {"addr:city": "Chicago", "addr:housenumber": "1812", "addr:postcode": "60613", "addr:state": "IL", "addr:street": "West Montrose Avenue", "amenity": "cafe", "name": "Spoken Cafe", "phone": "+1-773-769-2000", "website": "http://spokenchicago.com/spoken/"}}, {"type": "node", "id": 6300428731, "lat": 41.9544464, "lon": -87.6746234, "tags": {"addr:city": "Chicago", "addr:housenumber": "1812", "addr:postcode": "60613", "addr:state": "IL", "addr:street": "West Irving Park Road", "amenity": "cafe", "name": "Pide Ve Lahmacun", "phone": "+1-773-755-4022", "website": "http://www.sukursplace.com/pidevelahmacun/"}}, {"type": "node", "id": 6300865723, "lat": 41.9653736, "lon": -87.6755998, "tags": {"addr:city": "Chicago", "addr:housenumber": "1820", "addr:postcode": "60640", "addr:state": "IL", "addr:street": "West Wilson Avenue", "amenity": "restaurant", "name": "The River Valley Farmer\u2019s Table", "phone": "+1-872-208-3267", "website": "https://rvrvalley.com/rvr-farmers-table"}}, {"type": "node", "id": 6300883485, "lat": 41.9541553, "lon": -87.6667949, "tags": {"addr:city": "Chicago", "addr:housenumber": "1467", "addr:postcode": "60613", "addr:state": "IL", "addr:street": "West Irving Park Road", "amenity": "restaurant", "name": "The Roost Carolina Kitchen", "phone": "+1-312-261-5564", "website": "https://www.theroostcarolinakitchen.com/"}}, {"type": "node", "id": 6300993851, "lat": 41.9540054, "lon": -87.6752388, "tags": {"addr:city": "Chicago", "addr:housenumber": "1821", "addr:postcode": "60613", "addr:state": "IL", "addr:street": "West Irving Park Road", "amenity": "cafe", "name": "Ritual Coffeehouse"}}, {"type": "node", "id": 6301035834, "lat": 41.9486374, "lon": -87.6579243, "tags": {"addr:city": "Chicago", "addr:housenumber": "3658", "addr:postcode": "60613", "addr:state": "IL", "addr:street": "North Clark Street", "amenity": "bar", "name": "Rizzo\u2019s Bar & Inn", "phone": "+1-773-799-8161", "website": "https://rizzosbarandinn.com/"}}, {"type": "node", "id": 6303094091, "lat": 41.9507638, "lon": -87.663924, "tags": {"addr:city": "Chicago", "addr:housenumber": "3763", "addr:postcode": "60613", "addr:state": "IL", "addr:street": "North Southport Avenue", "amenity": "restaurant", "name": "Tango Sur", "phone": "+1-773-477-5466", "website": "http://tangosurgrill.com/"}}, {"type": "node", "id": 6304025839, "lat": 41.9534215, "lon": -87.6687019, "tags": {"addr:city": "Chicago", "addr:housenumber": "3931", "addr:postcode": "60613", "addr:state": "IL", "addr:street": "North Ashland Avenue", "amenity": "bar", "name": "Ten Cat Tavern", "phone": "+1-773-935-5377"}}, {"type": "node", "id": 6304560818, "lat": 41.9539139, "lon": -87.6761056, "tags": {"addr:city": "Chicago", "addr:housenumber": "1851", "addr:postcode": "60613", "addr:state": "IL", "addr:street": "West Irving Park Road", "amenity": "bar", "name": "Timber Lanes", "phone": "+1-773-549-9770", "website": "http://www.timberlanesbowl.com/"}}, {"type": "node", "id": 6305323576, "lat": 41.952445, "lon": -87.6637757, "tags": {"addr:city": "Chicago", "addr:housenumber": "3857", "addr:postcode": "60613", "addr:state": "IL", "addr:street": "North Southport Avenue", "amenity": "bar", "name": "Toons Bar & Grill", "phone": "+1-773-935-1919", "website": "https://www.chicagotoons.com/"}}, {"type": "node", "id": 6315659223, "lat": 41.9545162, "lon": -87.6697345, "tags": {"addr:city": "Chicago", "addr:housenumber": "1612", "addr:postcode": "60613", "addr:state": "IL", "addr:street": "West Irving Park Road", "amenity": "bar", "name": "The Long Room", "phone": "+1-773-665-4500", "website": "http://www.longroomchicago.com/"}}, {"type": "node", "id": 6316968107, "lat": 41.9617006, "lon": -87.6758274, "tags": {"addr:city": "Chicago", "addr:housenumber": "1834", "addr:postcode": "60613", "addr:state": "IL", "addr:street": "West Montrose Avenue", "amenity": "bar", "name": "Wolcott Tap", "phone": "+1-773-360-7579", "website": "https://www.wolcotttap.com/"}}, {"type": "node", "id": 6319035181, "lat": 41.9564955, "lon": -87.6735524, "tags": {"addr:city": "Chicago", "addr:housenumber": "4115", "addr:postcode": "60613", "addr:state": "IL", "addr:street": "North Ravenswood Avenue", "amenity": "cafe", "name": "Julius Meinl Coffee Bar & Patisserie", "phone": "+1-773-883-1864", "website": "http://www.meinlus.com/ravenswood-cb"}}, {"type": "node", "id": 6319228417, "lat": 41.9530005, "lon": -87.6693021, "tags": {"addr:city": "Chicago", "addr:housenumber": "3916", "addr:postcode": "60613", "addr:state": "IL", "addr:street": "North Ashland Avenue", "amenity": "bar", "name": "Keenan O\u2019Reilly\u2019s", "phone": "+1-773-857-0866", "website": "http://www.interiordesignadeb.com/2018/02/15/wood-router-beginners/"}}, {"type": "node", "id": 6319888736, "lat": 41.9648422, "lon": -87.678518, "tags": {"addr:city": "Chicago", "addr:housenumber": "1945", "addr:postcode": "60640", "addr:state": "IL", "addr:street": "West Wilson Avenue", "amenity": "cafe", "name": "La Boulangerie", "phone": "+1-872-208-3479", "website": "http://www.laboulangeriechicago.com/"}}, {"type": "node", "id": 6321313539, "lat": 41.9523232, "lon": -87.6692843, "tags": {"addr:city": "Chicago", "addr:housenumber": "3856", "addr:postcode": "60613", "addr:state": "IL", "addr:street": "North Ashland Avenue", "amenity": "restaurant", "name": "Machu Picchu Restaurant", "phone": "+1-773-472-0471", "website": "http://www.machupicchuchicago.com/"}}, {"type": "node", "id": 6321334140, "lat": 41.9545235, "lon": -87.6745832, "tags": {"addr:city": "Chicago", "addr:housenumber": "1800", "addr:postcode": "60613", "addr:state": "IL", "addr:street": "West Irving Park Road", "amenity": "bar", "name": "Maderos Latin Grill & Bar", "phone": "+1-773-799-8704"}}, {"type": "node", "id": 6321621048, "lat": 41.9491041, "lon": -87.6733569, "tags": {"addr:city": "Chicago", "addr:housenumber": "3701", "addr:postcode": "60613", "addr:state": "IL", "addr:street": "North Ravenswood Avenue", "amenity": "cafe", "name": "Rare Tea Cellar", "phone": "+1-773-561-3000", "website": "https://rareteacellar.com/"}}, {"type": "node", "id": 6323003743, "lat": 41.9526882, "lon": -87.6773223, "tags": {"addr:city": "Chicago", "addr:housenumber": "3905", "addr:postcode": "60613", "addr:state": "IL", "addr:street": "North Lincoln Avenue", "amenity": "restaurant", "name": "Mrs. Murphy & Sons Irish Bistro", "phone": "+1-773-248-3905", "website": "https://irishbistro.com/"}}, {"type": "node", "id": 6323017067, "lat": 41.9622252, "lon": -87.6663711, "tags": {"addr:city": "Chicago", "addr:housenumber": "4416", "addr:postcode": "60640", "addr:state": "IL", "addr:street": "North Clark Street", "amenity": "bar", "name": "My Buddy\u2019s", "phone": "+1-773-728-3397", "website": "https://www.mybuddyschicago.com/"}}, {"type": "node", "id": 6323134767, "lat": 41.9655042, "lon": -87.6592494, "tags": {"addr:city": "Chicago", "addr:housenumber": "1140", "addr:postcode": "60640", "addr:state": "IL", "addr:street": "West Wilson Avenue", "amenity": "bar", "name": "Nick\u2019s on Wilson", "phone": "+1-773-681-0705"}}, {"type": "node", "id": 6323788017, "lat": 41.9612918, "lon": -87.678559, "tags": {"addr:city": "Chicago", "addr:housenumber": "1959", "addr:postcode": "60613", "addr:state": "IL", "addr:street": "West Montrose Avenue", "amenity": "bar", "name": "Oakwood 83", "phone": "+1-773-327-2785"}}, {"type": "node", "id": 6401443304, "lat": 41.965196, "lon": -87.6627771, "tags": {"addr:housenumber": "1309", "addr:street": "West Wilson Avenue", "amenity": "restaurant", "name": "Longacre Pizza Squared", "phone": "7732937413"}}, {"type": "node", "id": 7387891262, "lat": 41.9648383, "lon": -87.6568564, "tags": {"addr:city": "Chicago", "addr:housenumber": "4543", "addr:postcode": "60640", "addr:state": "IL", "addr:street": "North Broadway", "amenity": "restaurant", "cuisine": "ethiopian", "name": "Selam Ethiopian Kitchen", "website": "https://www.selamkitchen.com/"}}, {"type": "way", "id": 158622286, "nodes": [1707846189, 1707846196, 1707846198, 1707846206, 1707846207, 1707846203, 1707846189], "tags": {"addr:city": "Chicago", "addr:housenumber": "3664", "addr:postcode": "60613", "addr:state": "IL", "addr:street": "North Clark Street", "addr:street:name": "Clark", "addr:street:prefix": "North", "addr:street:type": "Street", "amenity": "bar", "building": "yes", "building:levels": "2", "chicago:building_id": "858483", "name": "Bernie's Tavern", "phone": "+1-773-525-1898", "website": "https://bernieschicago.com/"}}, {"type": "way", "id": 209919006, "nodes": [2200731343, 2200731507, 2200731506, 2200731594, 2200731596, 2200732005, 2200732013, 2200732012, 2200731601, 2200731577, 2200731570, 2200731493, 2200731489, 2200731469, 2200731346, 2200731347, 2200731343], "tags": {"addr:housenumber": "1942", "addr:street": "West Irving Park Road", "addr:street:name": "Irving Park", "addr:street:prefix": "West", "addr:street:type": "Road", "amenity": "restaurant", "building": "yes", "chicago:building_id": "151392", "cuisine": "chinese", "name": "Orange Garden"}}, {"type": "way", "id": 209919476, "nodes": [2200725964, 2200725966, 2200726345, 2200726469, 2200726468, 2200726510, 2200726901, 2200726915, 2200726534, 2200726538, 2200726089, 2200726082, 2200726016, 2200725964], "tags": {"addr:housenumber": "3937", "addr:street": "North Lincoln Avenue", "addr:street:name": "Lincoln", "addr:street:prefix": "North", "addr:street:type": "Avenue", "amenity": "bar", "building": "yes", "chicago:building_id": "154324"}}, {"type": "way", "id": 210328565, "nodes": [2204141516, 2204141593, 2204141595, 2204141590, 2204141519, 2204141516], "tags": {"addr:housenumber": "1017", "addr:street": "West Irving Park Road", "addr:street:name": "Irving Park", "addr:street:prefix": "West", "addr:street:type": "Road", "amenity": "restaurant", "building": "yes", "building:levels": "1", "chicago:building_id": "151584", "name": "Byron's Hot Dogs"}}]}