{"version": 0.6, "generator": "Overpass API 0.7.56.1004 6cd3eaec", "osm3s": {"timestamp_osm_base": "2020-07-22T04:13:03Z", "copyright": "The data included in this document is from www.openstreetmap.org. The data is made available under ODbL."}, "elements": [{"type": "node", "id": 256618510, "lat": 41.8658835, "lon": -87.6451248}, {"type": "node", "id": 258030969, "lat": 41.8692737, "lon": -87.6454545}, {"type": "node", "id": 258030970, "lat": 41.8688302, "lon": -87.6454313}, {"type": "node", "id": 258030971, "lat": 41.8680786, "lon": -87.6453001}, {"type": "node", "id": 258030972, "lat": 41.8677305, "lon": -87.6452849}, {"type": "node", "id": 624842100, "lat": 41.8661261, "lon": -87.6509285}, {"type": "node", "id": 624842102, "lat": 41.8647519, "lon": -87.6508749}, {"type": "node", "id": 624842113, "lat": 41.8634175, "lon": -87.6508481}, {"type": "node", "id": 624842116, "lat": 41.8623697, "lon": -87.65081}, {"type": "node", "id": 624842118, "lat": 41.8624081, "lon": -87.647875}, {"type": "node", "id": 699226527, "lat": 41.8586987, "lon": -87.6606769, "tags": {"amenity": "cafe", "name": "Efebina's"}}, {"type": "node", "id": 1308245862, "lat": 41.8730195, "lon": -87.6566515}, {"type": "node", "id": 1309310753, "lat": 41.8705582, "lon": -87.6510938}, {"type": "node", "id": 1309310769, "lat": 41.8728194, "lon": -87.6512488}, {"type": "node", "id": 1309310772, "lat": 41.8728556, "lon": -87.6512875}, {"type": "node", "id": 1309310781, "lat": 41.8728544, "lon": -87.6513238}, {"type": "node", "id": 1309310786, "lat": 41.8718736, "lon": -87.6511361}, {"type": "node", "id": 1309310791, "lat": 41.8729799, "lon": -87.6515273}, {"type": "node", "id": 1309310795, "lat": 41.8711509, "lon": -87.6511104}, {"type": "node", "id": 1309310830, "lat": 41.872569, "lon": -87.6511511}, {"type": "node", "id": 1309310834, "lat": 41.8728564, "lon": -87.6513962}, {"type": "node", "id": 1309521523, "lat": 41.8697849, "lon": -87.6511257}, {"type": "node", "id": 1309521528, "lat": 41.8700144, "lon": -87.6510741}, {"type": "node", "id": 1309521533, "lat": 41.869876, "lon": -87.6510868}, {"type": "node", "id": 1324310267, "lat": 41.8672329, "lon": -87.6509271}, {"type": "node", "id": 1324339868, "lat": 41.8695079, "lon": -87.6511376, "tags": {"highway": "traffic_signals"}}, {"type": "node", "id": 1563768183, "lat": 41.8677741, "lon": -87.6525895}, {"type": "node", "id": 1563768280, "lat": 41.8682055, "lon": -87.6522318}, {"type": "node", "id": 1564610532, "lat": 41.8671888, "lon": -87.6529727}, {"type": "node", "id": 1564610597, "lat": 41.8673195, "lon": -87.6529751}, {"type": "node", "id": 1567935379, "lat": 41.8691481, "lon": -87.6515497}, {"type": "node", "id": 1567935392, "lat": 41.868256, "lon": -87.6522619}, {"type": "node", "id": 1567935428, "lat": 41.8685971, "lon": -87.6519722}, {"type": "node", "id": 1567935437, "lat": 41.8685197, "lon": -87.6520566}, {"type": "node", "id": 1567935483, "lat": 41.8682319, "lon": -87.6522096}, {"type": "node", "id": 1567935487, "lat": 41.8672769, "lon": -87.6529743}, {"type": "node", "id": 1567935598, "lat": 41.8686145, "lon": -87.6520056}, {"type": "node", "id": 1567935611, "lat": 41.8692679, "lon": -87.6514462}, {"type": "node", "id": 1567935613, "lat": 41.8684628, "lon": -87.6520559}, {"type": "node", "id": 1640078305, "lat": 41.8750617, "lon": -87.6477795}, {"type": "node", "id": 1640078309, "lat": 41.8746412, "lon": -87.6472987}, {"type": "node", "id": 1640078310, "lat": 41.8751704, "lon": -87.6489907}, {"type": "node", "id": 1640078313, "lat": 41.8746225, "lon": -87.6472615}, {"type": "node", "id": 1640078314, "lat": 41.8751984, "lon": -87.6497309}, {"type": "node", "id": 1640078316, "lat": 41.8751894, "lon": -87.6494084}, {"type": "node", "id": 1640078325, "lat": 41.8751284, "lon": -87.6485017}, {"type": "node", "id": 1640078326, "lat": 41.8751833, "lon": -87.6492436}, {"type": "node", "id": 1643970052, "lat": 41.8736833, "lon": -87.64619}, {"type": "node", "id": 1643970061, "lat": 41.8695057, "lon": -87.6512623}, {"type": "node", "id": 1643970072, "lat": 41.8734125, "lon": -87.6461313}, {"type": "node", "id": 1643970081, "lat": 41.8739152, "lon": -87.6462705}, {"type": "node", "id": 1645121278, "lat": 41.8726271, "lon": -87.6511611}, {"type": "node", "id": 1645121392, "lat": 41.8728385, "lon": -87.6512586}, {"type": "node", "id": 1645121508, "lat": 41.8726879, "lon": -87.6511848}, {"type": "node", "id": 1645121523, "lat": 41.8730367, "lon": -87.6515997}, {"type": "node", "id": 1645164035, "lat": 41.8726081, "lon": -87.6458381}, {"type": "node", "id": 1645208835, "lat": 41.8720548, "lon": -87.65114}, {"type": "node", "id": 1655435354, "lat": 41.8670032, "lon": -87.6451676}, {"type": "node", "id": 1655435355, "lat": 41.8673, "lon": -87.6452802}, {"type": "node", "id": 1655435357, "lat": 41.8670723, "lon": -87.6452268}, {"type": "node", "id": 1655435361, "lat": 41.8682982, "lon": -87.6453494}, {"type": "node", "id": 1655435366, "lat": 41.8695302, "lon": -87.6454595}, {"type": "node", "id": 1796488740, "lat": 41.8577506, "lon": -87.6627852, "tags": {"amenity": "cafe", "name": "Jumping Bean"}}, {"type": "node", "id": 1846853872, "lat": 41.8731599, "lon": -87.6460597}, {"type": "node", "id": 1846853875, "lat": 41.8742112, "lon": -87.646933}, {"type": "node", "id": 1846853878, "lat": 41.8742224, "lon": -87.6472729}, {"type": "node", "id": 2199651694, "lat": 41.8574915, "lon": -87.6645397}, {"type": "node", "id": 2199651696, "lat": 41.8574916, "lon": -87.6645654}, {"type": "node", "id": 2199651845, "lat": 41.857504, "lon": -87.6645652}, {"type": "node", "id": 2199651851, "lat": 41.8575042, "lon": -87.6645964}, {"type": "node", "id": 2199651883, "lat": 41.8575065, "lon": -87.6645157}, {"type": "node", "id": 2199651889, "lat": 41.8575066, "lon": -87.6645395}, {"type": "node", "id": 2199652436, "lat": 41.8575573, "lon": -87.6676041}, {"type": "node", "id": 2199652486, "lat": 41.8575596, "lon": -87.6675215}, {"type": "node", "id": 2199653406, "lat": 41.8576589, "lon": -87.6676067}, {"type": "node", "id": 2199653408, "lat": 41.8576611, "lon": -87.6675241}, {"type": "node", "id": 2199653459, "lat": 41.8577, "lon": -87.6645283}, {"type": "node", "id": 2199653460, "lat": 41.8577004, "lon": -87.6645981}, {"type": "node", "id": 2203214988, "lat": 41.857623, "lon": -87.6595772}, {"type": "node", "id": 2203215013, "lat": 41.8576254, "lon": -87.6595074}, {"type": "node", "id": 2203215800, "lat": 41.8578166, "lon": -87.6595862}, {"type": "node", "id": 2203215803, "lat": 41.8578189, "lon": -87.6595164}, {"type": "node", "id": 2207261995, "lat": 41.8753129, "lon": -87.654403}, {"type": "node", "id": 2207262066, "lat": 41.8638442, "lon": -87.6469008}, {"type": "node", "id": 2207262112, "lat": 41.8751211, "lon": -87.6542903}, {"type": "node", "id": 2207262133, "lat": 41.8638244, "lon": -87.6479273}, {"type": "node", "id": 2207262135, "lat": 41.8743682, "lon": -87.656704}, {"type": "node", "id": 2207262136, "lat": 41.8743143, "lon": -87.6596974}, {"type": "node", "id": 2207262137, "lat": 41.8641937, "lon": -87.6469062}, {"type": "node", "id": 2207262178, "lat": 41.8751451, "lon": -87.65436}, {"type": "node", "id": 2207262255, "lat": 41.875225, "lon": -87.6597456}, {"type": "node", "id": 2207262259, "lat": 41.875189, "lon": -87.6543922}, {"type": "node", "id": 2242858400, "lat": 41.8642252, "lon": -87.6450831}, {"type": "node", "id": 2242858434, "lat": 41.8642071, "lon": -87.6461313}, {"type": "node", "id": 2397026625, "lat": 41.8699282, "lon": -87.6454906}, {"type": "node", "id": 2412572912, "lat": 41.8730968, "lon": -87.6519023}, {"type": "node", "id": 2412572932, "lat": 41.8730627, "lon": -87.6517502}, {"type": "node", "id": 3239038814, "lat": 41.8578459, "lon": -87.6565924, "tags": {"amenity": "restaurant", "name": "Honky Tonk BBQ"}}, {"type": "node", "id": 3239038815, "lat": 41.858141, "lon": -87.6510355, "tags": {"addr:city": "Chicago", "addr:housenumber": "960", "addr:postcode": "60608", "addr:state": "IL", "addr:street": "West 18th Street", "amenity": "bar", "name": "Simone\u2019s", "phone": "+1-312-666-8601", "website": "http://www.simonesbar.com/"}}, {"type": "node", "id": 3919513824, "lat": 41.8578685, "lon": -87.6708525, "tags": {"amenity": "restaurant", "name": "Taqueria El Mezquite"}}, {"type": "node", "id": 4075429622, "lat": 41.8578003, "lon": -87.6574498, "tags": {"addr:city": "Chicago", "addr:housenumber": "1227", "addr:postcode": "60608", "addr:state": "IL", "addr:street": "West 18th Street", "amenity": "restaurant", "name": "Dusek's", "phone": "+1-312-526-3851", "website": "https://www.dusekschicago.com/"}}, {"type": "node", "id": 4075429624, "lat": 41.856988, "lon": -87.6621299, "tags": {"amenity": "restaurant", "name": "La Casa del Pueblo Taqueria"}}, {"type": "node", "id": 4075429625, "lat": 41.8553587, "lon": -87.6630543, "tags": {"amenity": "restaurant", "name": "Taqueria El Milagro"}}, {"type": "node", "id": 4226924443, "lat": 41.869633, "lon": -87.6511322}, {"type": "node", "id": 4356614733, "lat": 41.8581709, "lon": -87.655731, "tags": {"addr:city": "Chicago", "addr:country": "US", "addr:housenumber": "1160", "addr:postcode": "60608", "addr:state": "IL", "addr:street": "West 18th Street", "amenity": "restaurant", "cuisine": "mexican", "name": "La Vaca Margarita Bar", "outdoor_seating": "yes", "phone": "+1-312-829-1147", "takeaway": "yes", "toilets:wheelchair": "no", "wheelchair": "yes"}}, {"type": "node", "id": 4426305522, "lat": 41.8577935, "lon": -87.6556289, "tags": {"amenity": "restaurant", "name": "Perez Restaurant", "phone": "(312) 421-3631"}}, {"type": "node", "id": 5168246245, "lat": 41.8579032, "lon": -87.6534748, "tags": {"addr:city": "Chicago", "addr:housenumber": "1800", "addr:postcode": "60608", "addr:state": "IL", "addr:street": "South Carpenter Street", "amenity": "restaurant", "cuisine": "vietnamese;asian", "description": "Bib Gourmand Recommendation", "name": "HaiSous Vietnamese Kitchen", "phone": "+1-312-702-1303", "website": "https://www.haisous.com"}}, {"type": "node", "id": 5412527235, "lat": 41.8525896, "lon": -87.6588982}, {"type": "node", "id": 5412527236, "lat": 41.8526696, "lon": -87.6589006}, {"type": "node", "id": 5412527237, "lat": 41.8526644, "lon": -87.6592065}, {"type": "node", "id": 5412527238, "lat": 41.8525844, "lon": -87.6592041}, {"type": "node", "id": 5632900492, "lat": 41.8751653, "lon": -87.6519389}, {"type": "node", "id": 5632900499, "lat": 41.8752939, "lon": -87.6555594}, {"type": "node", "id": 5632908777, "lat": 41.8699299, "lon": -87.6510819}, {"type": "node", "id": 5699829867, "lat": 41.8544381, "lon": -87.65616, "tags": {"addr:city": "Chicago", "addr:housenumber": "2023", "addr:postcode": "60608", "addr:state": "IL", "addr:street": "South Racine Avenue", "amenity": "cafe", "internet_access": "yes", "name": "Step Down Caf\u00e9", "phone": "+1-312-877-5410", "website": "http://stepdowncafepilsen.com/"}}, {"type": "node", "id": 5792369884, "lat": 41.8533755, "lon": -87.6526694, "tags": {"addr:city": "Chicago", "addr:housenumber": "2101", "addr:postcode": "60608", "addr:state": "IL", "addr:street": "South Carpenter Street", "amenity": "bar", "name": "Lo Rez Brewing and Taproom", "phone": "+1-888-404-2262", "website": "http://lorezbrewing.com/"}}, {"type": "node", "id": 5792383125, "lat": 41.8532798, "lon": -87.6483419, "tags": {"addr:city": "Chicago", "addr:housenumber": "2136", "addr:postcode": "60608", "addr:state": "IL", "addr:street": "South Peoria Street", "amenity": "bar", "name": "Moody Tongue Brewing Company", "phone": "+1-312-6000-5111", "website": "https://moodytongue.com/"}}, {"type": "node", "id": 5928912596, "lat": 41.8580162, "lon": -87.6595637, "tags": {"addr:city": "Chicago", "addr:housenumber": "1314", "addr:postcode": "60608", "addr:state": "IL", "addr:street": "West 18th Street", "amenity": "restaurant", "cuisine": "mexican", "name": "Casa \u00cdnd\u00edg\u014d", "opening_hours": "Tu-Fr 10:30-20:00; Su-Sa 09:00-15:30", "phone": "+1- 312-929-3653", "website": "http://pilsenkitchen.com"}}, {"type": "node", "id": 5928912597, "lat": 41.8577741, "lon": -87.660619, "tags": {"addr:city": "Chicago", "addr:housenumber": "1345", "addr:postcode": "60608", "addr:state": "IL", "addr:street": "West 18th Street", "amenity": "bar", "brewery": "yes", "name": "Harbee Liquor & Tavern", "phone": "+1-312-733-0333"}}, {"type": "node", "id": 6126571201, "lat": 41.8574586, "lon": -87.6663934, "tags": {"addr:city": "Chicago", "addr:housenumber": "1808", "addr:postcode": "60608", "addr:state": "IL", "addr:street": "South Ashland Avenue", "amenity": "restaurant", "cuisine": "mexican;carnitas", "drink:alcohol": "no", "name": "Sabas Vega", "phone": "+1 312-666-5180", "website": "https://donrafarestaurants.com/sabasvega/"}}, {"type": "node", "id": 6126580564, "lat": 41.8578806, "lon": -87.6702407, "tags": {"addr:city": "Chicago", "addr:housenumber": "1738", "addr:postcode": "60608", "addr:state": "IL", "addr:street": "West 18th Street", "amenity": "cafe", "cuisine": "coffee_shop", "name": "Cafe Mestizo", "phone": "+1 312-425-5724"}}, {"type": "node", "id": 6251767399, "lat": 41.8580855, "lon": -87.6709499, "tags": {"addr:city": "Chicago", "addr:housenumber": "1758", "addr:postcode": "60608", "addr:state": "IL", "addr:street": "West 18th Street", "amenity": "restaurant", "name": "5 Rabanitos Restaurante and Taqueria", "phone": "+1-312-285-2710", "website": "https://5rabanitosdotcom.wordpress.com/"}}, {"type": "node", "id": 6263803114, "lat": 41.8580471, "lon": -87.6579046, "tags": {"addr:city": "Chicago", "addr:housenumber": "1236", "addr:postcode": "60608", "addr:state": "IL", "addr:street": "West 18th Street", "amenity": "restaurant", "name": "Azul 18", "phone": "+1-312 -285-2964", "website": "http://azul18chicago.com/"}}, {"type": "node", "id": 6280027510, "lat": 41.8580582, "lon": -87.6596505, "tags": {"addr:city": "Chicago", "addr:housenumber": "1316", "addr:postcode": "60608", "addr:state": "IL", "addr:street": "West 18th Street", "amenity": "restaurant", "cuisine": "ramen;japanese;asian", "name": "Furious Spoon - Pilsen", "opening_hours": "Mo-Th 16:00-23:00; Fr 16:00-00:00; Sa 11:00-00:00; Su 11:00-23:00", "phone": "+1-312-624-8461", "website": "http://furiousramen.com"}}, {"type": "node", "id": 6280472914, "lat": 41.8548431, "lon": -87.6684053, "tags": {"addr:city": "Chicago", "addr:housenumber": "1659", "addr:postcode": "60608", "addr:state": "IL", "addr:street": "West Cullerton Street", "amenity": "bar", "name": "Caminos De Michoacan Bar", "phone": "+1-312-226-0687", "website": "https://www.tpskaraoke.com/karaoke-fridays-caminos-de-michoacan-bar"}}, {"type": "node", "id": 6280484810, "lat": 41.8579942, "lon": -87.6642865, "tags": {"addr:city": "Chicago", "addr:housenumber": "1510", "addr:postcode": "60608", "addr:state": "IL", "addr:street": "West 18th Street", "amenity": "restaurant", "name": "Canton Regio", "phone": "+1-312-733-3045", "website": "https://cantonregio.business.site/"}}, {"type": "node", "id": 6280524453, "lat": 41.8575892, "lon": -87.6697952, "tags": {"addr:city": "Chicago", "addr:housenumber": "1725", "addr:postcode": "60608", "addr:state": "IL", "addr:street": "West 18th Street", "amenity": "restaurant", "name": "Carnitas Uruapan Restaurant", "phone": "+1-312-226-2654", "website": "http://www.carnitasuruapanchi.com/"}}, {"type": "node", "id": 6284702362, "lat": 41.8577871, "lon": -87.6538182, "tags": {"addr:city": "Chicago", "addr:housenumber": "1113", "addr:postcode": "60608", "addr:state": "IL", "addr:street": "West 18th Street", "amenity": "cafe", "name": "Don Pedro Carnitas", "phone": "+1-312-829-4757"}}, {"type": "node", "id": 6285868671, "lat": 41.8553229, "lon": -87.6630105, "tags": {"addr:city": "Chicago", "addr:housenumber": "1972", "addr:postcode": "60608", "addr:state": "IL", "addr:street": "South Blue Island Avenue", "amenity": "restaurant", "name": "El Milagro Tortilla", "phone": "+1-312-421-7443", "website": "http://www.el-milagro.com/"}}, {"type": "node", "id": 6291551593, "lat": 41.8580305, "lon": -87.6634252, "tags": {"addr:city": "Chicago", "addr:housenumber": "1454", "addr:postcode": "60608", "addr:state": "IL", "addr:street": "West 18th Street", "amenity": "restaurant", "name": "Frida Room", "phone": "+1-312-631-3620"}}, {"type": "node", "id": 6294594846, "lat": 41.8578174, "lon": -87.6567816, "tags": {"addr:city": "Chicago", "addr:housenumber": "1800", "addr:postcode": "60608", "addr:state": "IL", "addr:street": "South Racine Avenue", "amenity": "restaurant", "name": "Honky Tonk BBQ", "phone": "+1-312-226-7427", "website": "http://www.honkytonkbbqchicago.com/"}}, {"type": "node", "id": 6300146985, "lat": 41.8575391, "lon": -87.6697878, "tags": {"addr:city": "Chicago", "addr:housenumber": "1727", "addr:postcode": "60608", "addr:state": "IL", "addr:street": "West 18th Street", "amenity": "cafe", "name": "INTERSECT", "phone": "+1-312-846-6805", "website": "https://www.intersectcoffee.com/"}}, {"type": "node", "id": 6300537487, "lat": 41.8578025, "lon": -87.6573946, "tags": {"addr:city": "Chicago", "addr:housenumber": "1227", "addr:postcode": "60608", "addr:state": "IL", "addr:street": "West 18th Street", "amenity": "bar", "name": "Punch House", "phone": "+1-312-526-3851", "website": "https://www.punchhousechicago.com/"}}, {"type": "node", "id": 6303127333, "lat": 41.8579759, "lon": -87.6655859, "tags": {"addr:city": "Chicago", "addr:housenumber": "1544", "addr:postcode": "60608", "addr:state": "IL", "addr:street": "West 18th Street", "amenity": "restaurant", "name": "Taqueria Los Comales 3", "phone": "+1-312-666-2251", "website": "https://www.loscomales.com/"}}, {"type": "node", "id": 6306942282, "lat": 41.8586774, "lon": -87.6606638, "tags": {"addr:city": "Chicago", "addr:housenumber": "1640", "addr:postcode": "60608", "addr:state": "IL", "addr:street": "South Blue Island Avenue", "amenity": "bar", "name": "Twisted Cantina", "phone": "+1-312-265-0923", "website": "http://twistedcantina.com/"}}, {"type": "node", "id": 6315246763, "lat": 41.8577533, "lon": -87.6578625, "tags": {"addr:city": "Chicago", "addr:housenumber": "1802", "addr:postcode": "60608", "addr:state": "IL", "addr:street": "South Allport Street", "amenity": "bar", "name": "The Green Room Tap", "phone": "+1-773-360-3489"}}, {"type": "node", "id": 6315605303, "lat": 41.857978, "lon": -87.6680425, "tags": {"addr:city": "Chicago", "addr:housenumber": "1646", "addr:postcode": "60608", "addr:state": "IL", "addr:street": "West 18th Street", "amenity": "restaurant", "name": "The Jibarito Stop", "phone": "+1-312-988-0585", "website": "https://thejibaritostop.com/Home/HomeManager"}}, {"type": "node", "id": 6315616974, "lat": 41.8581626, "lon": -87.6599082, "tags": {"addr:city": "Chicago", "addr:housenumber": "1324", "addr:postcode": "60608", "addr:state": "IL", "addr:street": "West 18th Street", "amenity": "cafe", "name": "The Juice House", "phone": "+1-312-846-6844"}}, {"type": "node", "id": 6316993588, "lat": 41.852777, "lon": -87.6526641, "tags": {"addr:city": "Chicago", "addr:housenumber": "2155", "addr:postcode": "60608", "addr:state": "IL", "addr:street": "South Carpenter Street", "amenity": "cafe", "name": "Workwell Food and Beverage", "phone": "+1-844-245-4964", "website": "http://dockspace.co/"}}, {"type": "node", "id": 6317051145, "lat": 41.8574736, "lon": -87.6692665, "tags": {"addr:city": "Chicago", "addr:housenumber": "1711", "addr:postcode": "60608", "addr:state": "IL", "addr:street": "West 18th Street", "amenity": "cafe", "name": "Xurro", "phone": "+1-773-823-9571", "website": "https://www.churrofactory.com/"}}, {"type": "node", "id": 6319920888, "lat": 41.8579154, "lon": -87.6517987, "tags": {"addr:city": "Chicago", "addr:housenumber": "1011", "addr:postcode": "60608", "addr:state": "IL", "addr:street": "West 18th Street", "amenity": "cafe", "name": "La Catrina Cafe", "phone": "+1-312-532-6817", "website": "https://www.lacatrinacafe.com/", "wheelchair": "no"}}, {"type": "node", "id": 6322798692, "lat": 41.8575287, "lon": -87.655619, "tags": {"addr:city": "Chicago", "addr:housenumber": "1163", "addr:postcode": "60608", "addr:state": "IL", "addr:street": "West 18th Street", "amenity": "restaurant", "name": "Monnie Burke\u2019s", "phone": "+1-312-243-2410", "website": "https://www.monnieburkes.com/"}}, {"type": "node", "id": 6366358671, "lat": 41.8741382, "lon": -87.6463662}, {"type": "node", "id": 6366358672, "lat": 41.8742256, "lon": -87.6464115}, {"type": "node", "id": 6366358673, "lat": 41.8742109, "lon": -87.6467369}, {"type": "node", "id": 6397277460, "lat": 41.8578137, "lon": -87.6579875, "tags": {"addr:city": "Chicago", "addr:housenumber": "1239", "addr:postcode": "60608", "addr:state": "IL", "addr:street": "West 18th Street", "amenity": "restaurant", "cuisine": "american;american_new;new_american", "name": "S.K.Y.", "phone": "+1-312-846-1077", "website": "https://www.skyrestaurantchicago.com"}}, {"type": "node", "id": 6779167975, "lat": 41.8749225, "lon": -87.6472949}, {"type": "node", "id": 7282826587, "lat": 41.8751891, "lon": -87.6495149}, {"type": "node", "id": 7282892857, "lat": 41.8751919, "lon": -87.6496031}, {"type": "node", "id": 7509422947, "lat": 41.8753099, "lon": -87.6545869}, {"type": "node", "id": 7511858556, "lat": 41.8641966, "lon": -87.6467374}, {"type": "node", "id": 7511858557, "lat": 41.86477, "lon": -87.6450968}, {"type": "node", "id": 7615474068, "lat": 41.8750061, "lon": -87.647513}, {"type": "way", "id": 209782483, "nodes": [2199651694, 2199651696, 2199651845, 2199651851, 2199653460, 2199653459, 2199651883, 2199651889, 2199651694], "tags": {"addr:city": "Chicago", "addr:housenumber": "1519", "addr:postcode": "60608", "addr:state": "IL", "addr:street": "West 18th Street", "addr:street:name": "18th", "addr:street:prefix": "West", "addr:street:type": "Street", "amenity": "restaurant", "building": "yes", "building:levels": "2", "chicago:building_id": "378444", "name": "Pl-zen", "phone": "+1-312-733-0248", "website": "http://pl-zen.com/"}}, {"type": "way", "id": 209782710, "nodes": [2199652436, 2199653406, 2199653408, 2199652486, 2199652436], "tags": {"addr:housenumber": "1635", "addr:street": "West 18th Street", "addr:street:name": "18th", "addr:street:prefix": "West", "addr:street:type": "Street", "amenity": "cafe", "building": "yes", "chicago:building_id": "378524", "name": "Monsivais Cafe"}}, {"type": "way", "id": 210222147, "nodes": [2203214988, 2203215800, 2203215803, 2203215013, 2203214988], "tags": {"addr:city": "Chicago", "addr:housenumber": "1315", "addr:postcode": "60608", "addr:state": "IL", "addr:street": "West 18th Street", "addr:street:name": "18th", "addr:street:prefix": "West", "addr:street:type": "Street", "amenity": "restaurant", "building": "yes", "building:levels": "2", "chicago:building_id": "378247", "name": "Pollo Express", "phone": "+1-312-829-1550"}}, {"type": "way", "id": 210649421, "nodes": [624842102, 624842100, 1324310267, 1564610532, 1567935487, 1564610597, 1563768183, 1563768280, 1567935483, 1567935392, 1567935613, 1567935437, 1567935428, 1567935598, 1567935379, 1567935611, 1643970061, 1324339868, 4226924443, 1309521523, 1309521533, 5632908777, 1309521528, 1309310753, 1309310795, 1309310786, 1645208835, 1309310830, 1645121278, 1645121508, 1309310769, 1645121392, 1309310772, 1309310781, 1309310834, 1309310791, 1645121523, 2412572932, 2412572912, 1308245862, 2207262135, 2207262136, 2207262255, 5632900499, 7509422947, 2207261995, 2207262259, 2207262178, 2207262112, 5632900492, 1640078314, 7282892857, 7282826587, 1640078316, 1640078326, 1640078310, 1640078325, 1640078305, 7615474068, 6779167975, 1640078309, 1640078313, 1846853878, 1846853875, 6366358673, 6366358672, 6366358671, 1643970081, 1643970052, 1643970072, 1846853872, 1645164035, 2397026625, 1655435366, 258030969, 258030970, 1655435361, 258030971, 258030972, 1655435355, 1655435357, 1655435354, 256618510, 7511858557, 2242858400, 2242858434, 7511858556, 2207262137, 2207262066, 2207262133, 624842118, 624842116, 624842113, 624842102], "tags": {"alt_name": "UIC", "amenity": "university", "education": "university", "ele": "181", "gnis:county_id": "031", "gnis:created": "05/03/1999", "gnis:feature_id": "1837071", "gnis:state_id": "17", "name": "University of Illinois at Chicago", "wikidata": "Q955764", "wikipedia": "en:University of Illinois at Chicago"}}, {"type": "way", "id": 561295402, "nodes": [5412527235, 5412527236, 5412527237, 5412527238, 5412527235], "tags": {"addr:city": "Chicago", "addr:housenumber": "1316", "addr:postcode": "60608", "addr:state": "IL", "addr:street": "West Cermak Road", "amenity": "cafe", "building": "retail", "cuisine": "donut", "name": "Dunkin' Donuts"}}]}