{"version": 0.6, "generator": "Overpass API 0.7.56.1004 6cd3eaec", "osm3s": {"timestamp_osm_base": "2020-07-22T00:55:02Z", "copyright": "The data included in this document is from www.openstreetmap.org. The data is made available under ODbL."}, "elements": [{"type": "node", "id": 318276729, "lat": 41.9208448, "lon": -87.6332051, "tags": {"amenity": "cafe", "name": "Park Place Cafe"}}, {"type": "node", "id": 772288954, "lat": 41.932955, "lon": -87.6444494, "tags": {"amenity": "restaurant"}}, {"type": "node", "id": 1349879207, "lat": 41.9267484, "lon": -87.6409859, "tags": {"addr:housenumber": "2447", "addr:street": "North Clark Street", "addr:street:name": "Clark", "addr:street:prefix": "North", "addr:street:type": "Street", "amenity": "restaurant", "cuisine": "american", "name": "House of Wings"}}, {"type": "node", "id": 1349879445, "lat": 41.9251559, "lon": -87.6399232, "tags": {"amenity": "restaurant", "cuisine": "thai", "name": "Nine", "takeaway": "yes"}}, {"type": "node", "id": 1349879616, "lat": 41.9261777, "lon": -87.6405454, "tags": {"addr:city": "Chicago", "addr:housenumber": "2423", "addr:postcode": "60614", "addr:state": "IL", "addr:street": "North Clark Street", "amenity": "restaurant", "name": "Drawl Southern Cook House & Whiskey Room", "phone": "+1-773-687-8111", "website": "https://www.drawlchicago.com/"}}, {"type": "node", "id": 1349879617, "lat": 41.9258684, "lon": -87.6408981, "tags": {"amenity": "restaurant", "cuisine": "international", "name": "Tapas Restarurant/Bar"}}, {"type": "node", "id": 2204034445, "lat": 41.9230531, "lon": -87.6459254}, {"type": "node", "id": 2204034519, "lat": 41.9230715, "lon": -87.6459558}, {"type": "node", "id": 2204034575, "lat": 41.9230861, "lon": -87.6459754}, {"type": "node", "id": 2204034779, "lat": 41.9231343, "lon": -87.6458217}, {"type": "node", "id": 2204034784, "lat": 41.9231356, "lon": -87.6458033}, {"type": "node", "id": 2204035015, "lat": 41.9232155, "lon": -87.6458109}, {"type": "node", "id": 2204035410, "lat": 41.9233282, "lon": -87.6456194}, {"type": "node", "id": 2204035573, "lat": 41.9233681, "lon": -87.645674}, {"type": "node", "id": 2204035943, "lat": 41.9234782, "lon": -87.6455002}, {"type": "node", "id": 2204036024, "lat": 41.9234865, "lon": -87.6455203}, {"type": "node", "id": 2204036056, "lat": 41.9234904, "lon": -87.6454853}, {"type": "node", "id": 2204036147, "lat": 41.9235015, "lon": -87.6454999}, {"type": "node", "id": 2204036210, "lat": 41.9235131, "lon": -87.6453767}, {"type": "node", "id": 2204036347, "lat": 41.9235532, "lon": -87.6454314}, {"type": "node", "id": 2204047387, "lat": 41.9264871, "lon": -87.641602}, {"type": "node", "id": 2204047439, "lat": 41.9265006, "lon": -87.6415578}, {"type": "node", "id": 2204047720, "lat": 41.9265733, "lon": -87.6413291}, {"type": "node", "id": 2204047724, "lat": 41.9265738, "lon": -87.6416507}, {"type": "node", "id": 2204047824, "lat": 41.9265941, "lon": -87.6415898}, {"type": "node", "id": 2204047916, "lat": 41.9266147, "lon": -87.6413691}, {"type": "node", "id": 2204047937, "lat": 41.9266201, "lon": -87.6413544}, {"type": "node", "id": 2204048116, "lat": 41.9266634, "lon": -87.6413965}, {"type": "node", "id": 2204051362, "lat": 41.9275472, "lon": -87.6414714, "tags": {"addr:housenumber": "2473", "addr:postcode": "60614", "addr:street": "North Clark Street", "amenity": "restaurant", "cuisine": "japanese", "entrance": "main", "name": "Kabuki"}}, {"type": "node", "id": 2207658045, "lat": 41.9243235, "lon": -87.6402119}, {"type": "node", "id": 2207658053, "lat": 41.9243479, "lon": -87.6402288}, {"type": "node", "id": 2207658054, "lat": 41.9243549, "lon": -87.6402415}, {"type": "node", "id": 2207658059, "lat": 41.9243595, "lon": -87.6400908}, {"type": "node", "id": 2207658063, "lat": 41.9243637, "lon": -87.6401073}, {"type": "node", "id": 2207658068, "lat": 41.9243769, "lon": -87.6402523}, {"type": "node", "id": 2207658069, "lat": 41.9243875, "lon": -87.6401953}, {"type": "node", "id": 2207658070, "lat": 41.9243929, "lon": -87.6401823}, {"type": "node", "id": 2207658071, "lat": 41.9243931, "lon": -87.6399857}, {"type": "node", "id": 2207658073, "lat": 41.9243958, "lon": -87.6402025}, {"type": "node", "id": 2207658074, "lat": 41.9244039, "lon": -87.6401767}, {"type": "node", "id": 2207658084, "lat": 41.924428, "lon": -87.6400754}, {"type": "node", "id": 2207658086, "lat": 41.9244309, "lon": -87.6400992}, {"type": "node", "id": 2207658094, "lat": 41.9244468, "lon": -87.6400182}, {"type": "node", "id": 2359667303, "lat": 41.9359579, "lon": -87.644101, "tags": {"addr:city": "Chicago", "addr:housenumber": "2933", "addr:postcode": "60657", "addr:street": "North Broadway", "amenity": "restaurant", "cuisine": "mexican", "name": "Janitzio Burritos Y Tagueria"}}, {"type": "node", "id": 2361072388, "lat": 41.9300231, "lon": -87.643667, "tags": {"addr:housenumber": "2616", "addr:postcode": "60614", "addr:street": "North Clark Street", "amenity": "bar", "name": "Duke's Chicago Bar and Grill"}}, {"type": "node", "id": 2361072391, "lat": 41.9311283, "lon": -87.6439425, "tags": {"addr:housenumber": "2665", "addr:postcode": "60614", "addr:street": "North Clark Street", "amenity": "restaurant", "cuisine": "burger", "name": "Fatty's Burgers and More"}}, {"type": "node", "id": 2399641185, "lat": 41.9272981, "lon": -87.6413164, "tags": {"addr:housenumber": "2465", "addr:postcode": "60614", "addr:street": "North Clark Street", "amenity": "restaurant", "cuisine": "italian", "name": "Basil Leaf", "phone": "773-935-3388"}}, {"type": "node", "id": 2399641189, "lat": 41.9270011, "lon": -87.6411338, "tags": {"addr:city": "Chicago", "addr:housenumber": "2452", "addr:postcode": "60614", "addr:state": "IL", "addr:street": "North Clark Street", "amenity": "cafe", "cuisine": "donut", "name": "Firecakes Donuts", "phone": "+1-773-666-5277", "website": "https://www.firecakesdonuts.com/"}}, {"type": "node", "id": 2399641190, "lat": 41.9268031, "lon": -87.6415082, "tags": {"addr:city": "Chicago", "addr:housenumber": "2450", "addr:postcode": "60614", "addr:state": "IL", "addr:street": "North Clark Street", "addr:street:name": "Clark", "addr:street:prefix": "North", "addr:street:type": "Street", "amenity": "cafe", "name": "Gaslight Coffee Roasters", "opening_hours": "Mo-Fr 11:00-02:00; Sa 09:30-03:00; Su 09:30-02:00", "phone": "+1-773-435-0007", "website": "https://gaslightbar.com/"}}, {"type": "node", "id": 2607221649, "lat": 41.9229445, "lon": -87.6449862, "tags": {"addr:city": "Chicago", "addr:country": "US", "addr:housenumber": "2245", "addr:street": "North Lincoln Avenue", "amenity": "restaurant", "cuisine": "pizza", "name": "Lincoln Park Pizza"}}, {"type": "node", "id": 2607221651, "lat": 41.9235545, "lon": -87.6458622, "tags": {"amenity": "cafe", "brand": "Starbucks", "brand:wikidata": "Q37158", "brand:wikipedia": "en:Starbucks", "cuisine": "coffee_shop", "name": "Starbucks", "official_name": "Starbucks Coffee", "takeaway": "yes"}}, {"type": "node", "id": 2607221928, "lat": 41.923172, "lon": -87.6457498}, {"type": "node", "id": 2673655700, "lat": 41.9187003, "lon": -87.6366459, "tags": {"addr:city": "Chicago", "addr:housenumber": "2020", "addr:postcode": "60614", "addr:state": "IL", "addr:street": "North Lincoln Park West", "amenity": "restaurant", "brand": "The Original Pancake House", "brand:wikidata": "Q7755384", "brand:wikipedia": "en:The Original Pancake House", "cuisine": "breakfast;pancake", "name": "The Original Pancake House"}}, {"type": "node", "id": 3518291652, "lat": 41.9324546, "lon": -87.6459114, "tags": {"addr:city": "Chicago", "addr:housenumber": "659", "addr:postcode": "60614", "addr:state": "IL", "addr:street": "West Diversey Parkway", "amenity": "cafe", "name": "Next Door Cafe", "opening_hours": "Mo-Su 07:00-22:00", "phone": "+1-773-472-3667", "website": "https://www.nextdoorchicago.com"}}, {"type": "node", "id": 3627743049, "lat": 41.9293462, "lon": -87.6428605, "tags": {"addr:city": "Chicago", "addr:housenumber": "2568", "addr:postcode": "60614", "addr:state": "IL", "addr:street": "North Clark Street", "amenity": "restaurant", "capacity": "50", "cuisine": "korean", "delivery": "no", "name": "Del Seoul", "opening_hours": "Mo-Th 11:30-21:30; Fr-Sa 11:30-22:00; Su 11:30-21:00", "phone": "+1-773-248-4227", "website": "https://delseoul.com/", "wheelchair": "yes"}}, {"type": "node", "id": 4045036123, "lat": 41.9233231, "lon": -87.6455687, "tags": {"addr:city": "Chicago", "addr:housenumber": "2265", "addr:postcode": "60614", "addr:state": "IL", "addr:street": "North Lincoln Avenue", "amenity": "bar", "name": "Kelsey's", "phone": "+1-773-348-1666", "website": "http://kelseysbar.com/"}}, {"type": "node", "id": 4045036124, "lat": 41.9232814, "lon": -87.6454858, "tags": {"addr:city": "Chicago", "addr:housenumber": "2263", "addr:postcode": "60614", "addr:state": "IL", "addr:street": "North Lincoln Avenue", "amenity": "bar", "name": "Lincoln Avenue Social", "phone": "+1-773-348-7200", "website": "https://lincolnavenuesocial.com/"}}, {"type": "node", "id": 4045036125, "lat": 41.9231514, "lon": -87.645214, "tags": {"amenity": "bar", "name": "The Apartment"}}, {"type": "node", "id": 4100246313, "lat": 41.9200447, "lon": -87.6366013, "tags": {"addr:city": "Chicago", "addr:housenumber": "2056", "addr:postcode": "60614", "addr:state": "IL", "addr:street": "Lincoln Park West", "amenity": "restaurant", "name": "RJ Grunts", "opening_hours": "Mo-Fr 11:30-23:00; Sa 10:00-23:00; Su 10:00-21:00", "phone": "+1-773-929-5363", "website": "http://www.rjgruntschicago.com/"}}, {"type": "node", "id": 4188110370, "lat": 41.9200282, "lon": -87.6369267, "tags": {"amenity": "cafe", "brand": "Starbucks", "brand:wikidata": "Q37158", "brand:wikipedia": "en:Starbucks", "cuisine": "coffee_shop", "name": "Starbucks", "official_name": "Starbucks Coffee", "takeaway": "yes"}}, {"type": "node", "id": 4191676737, "lat": 41.9234681, "lon": -87.6393605, "tags": {"amenity": "restaurant", "cuisine": "sushi", "name": "Sushi Para II"}}, {"type": "node", "id": 4366103741, "lat": 41.929762, "lon": -87.6432957, "tags": {"amenity": "bar", "name": "D.O.C"}}, {"type": "node", "id": 4366103743, "lat": 41.9299851, "lon": -87.6431533, "tags": {"amenity": "restaurant", "cuisine": "mexican", "name": "Tarascas", "phone": "(773) 549-2595", "website": "http://www.cocinatarascas.com/"}}, {"type": "node", "id": 4525512611, "lat": 41.9288349, "lon": -87.6425793, "tags": {"addr:city": "Chicago", "addr:housenumber": "2534", "addr:postcode": "60614", "addr:state": "IL", "addr:street": "North Clark Street", "amenity": "restaurant", "cuisine": "hawaiian", "name": "Aloha Eats", "opening_hours": "Su,Tu,Th 12:00-20:00; Fr,Sa 12:00-21:00", "phone": "+1-773-935-6828", "website": "https://www.alohaeats.com/"}}, {"type": "node", "id": 4525512613, "lat": 41.9280172, "lon": -87.6417258, "tags": {"addr:city": "Chicago", "addr:housenumber": "2503", "addr:postcode": "60614", "addr:state": "IL", "addr:street": "North Clark Street", "amenity": "bar", "name": "Frank\u2019s Bar", "phone": "+1-773-549-2700", "website": "http://www.franksbarchicago.com/"}}, {"type": "node", "id": 4525512617, "lat": 41.9286324, "lon": -87.6421131, "tags": {"amenity": "cafe", "brand": "Starbucks", "brand:wikidata": "Q37158", "brand:wikipedia": "en:Starbucks", "cuisine": "coffee_shop", "name": "Starbucks", "official_name": "Starbucks Coffee", "takeaway": "yes"}}, {"type": "node", "id": 4525512618, "lat": 41.9277023, "lon": -87.6415754, "tags": {"addr:city": "Chicago", "addr:housenumber": "2483", "addr:postcode": "60614", "addr:state": "IL", "addr:street": "North Clark Street", "amenity": "bar", "email": "info@thetinlizzie.com", "name": "The Tin Lizzie", "phone": "+1-773-549-1132", "website": "https://www.thetinlizzie.com/"}}, {"type": "node", "id": 4564443501, "lat": 41.9208033, "lon": -87.6373192, "tags": {"addr:postcode": "60614", "amenity": "restaurant", "cuisine": "pizza", "name": "Chicago Pizza and Oven Grinder Co.", "opening_hours": "Mo-Th 16:00-23:00; Fr 16:00-00:00; Sa 11:30-00:00; Su 11:30-23:00", "phone": "7732482570", "website": "http://chicagopizzaandovengrinder.com"}}, {"type": "node", "id": 4718874637, "lat": 41.9352464, "lon": -87.6444633, "tags": {"addr:city": "Chicago", "addr:housenumber": "2908", "addr:postcode": "60657", "addr:state": "IL", "addr:street": "North Broadway", "amenity": "restaurant", "cuisine": "turkish", "name": "Troy Mediterranean Grill & Turkish Kitchen", "opening_hours": "Su 12:00-21:00; Mo-Th 12:00-22:00; Fr-Sa 12:00-23:00", "phone": "+1-773-770-3866", "website": "https://www.troymediterraneangrill.com/"}}, {"type": "node", "id": 4726115309, "lat": 41.9259491, "lon": -87.6409341, "tags": {"addr:city": "Chicago", "addr:housenumber": "444", "addr:postcode": "60614", "addr:state": "IL", "addr:street": "West Fullerton Parkway", "amenity": "restaurant", "cuisine": "pizza", "name": "Casati's Pizza Vino", "phone": "+1-773-857-1237", "website": "https://www.cpvino.com/"}}, {"type": "node", "id": 4924475703, "lat": 41.9286556, "lon": -87.6425393, "tags": {"addr:city": "Chicago", "addr:housenumber": "2530", "addr:postcode": "60614", "addr:state": "IL", "addr:street": "North Clark Street", "amenity": "cafe", "name": "Colectivo Coffee", "outdoor_seating": "yes", "phone": "+1-773-687-8078", "website": "http://colectivocoffee.com/cafes/lincoln-park-cafe/"}}, {"type": "node", "id": 5002004773, "lat": 41.9361201, "lon": -87.6444045, "tags": {"addr:housenumber": "2940", "addr:street": "North Broadway", "amenity": "restaurant", "name": "Crisp Korean Restaurant", "phone": "773 697 7610", "website": "http://www.crisponline.com/crisp.aspx"}}, {"type": "node", "id": 5092612001, "lat": 41.9207184, "lon": -87.6373313, "tags": {"addr:city": "Chicago", "addr:housenumber": "2119", "addr:postcode": "60614", "addr:state": "IL", "addr:street": "North Clark Street", "amenity": "restaurant", "name": "Riccardo Trattoria", "phone": "+1-773-549-0038", "website": "http://www.riccardotrattoria.com/"}}, {"type": "node", "id": 5092612002, "lat": 41.920646, "lon": -87.6376583, "tags": {"addr:city": "Chicago", "addr:housenumber": "2116", "addr:postcode": "60614", "addr:state": "IL", "addr:street": "North Clark Street", "amenity": "restaurant", "name": "Riccardo Enoteca", "phone": "+1-773-549-5010", "website": "http://www.riccardoenoteca.com/"}}, {"type": "node", "id": 5640384005, "lat": 41.9293078, "lon": -87.6428324, "tags": {"amenity": "restaurant", "name": "Lito's Empanadas"}}, {"type": "node", "id": 5864459415, "lat": 41.9329255, "lon": -87.645183, "tags": {"addr:city": "Chicago", "addr:housenumber": "2800", "addr:postcode": "60657", "addr:state": "IL", "addr:street": "North Clark Street", "amenity": "cafe", "name": "Stan\u2019s Donuts & Coffee", "phone": "+1-773-883-4764", "website": "http://www.stansdonutschicago.com/"}}, {"type": "node", "id": 5964780985, "lat": 41.9332772, "lon": -87.6445976, "tags": {"addr:city": "Chicago", "addr:housenumber": "2813", "addr:postcode": "60657", "addr:state": "IL", "addr:street": "North Broadway", "amenity": "restaurant", "name": "Gyu-Kaku Japanese Bbq", "phone": "+1- 773-687-8110", "website": "https://www.gyu-kaku.com/chicago-lake-view/"}}, {"type": "node", "id": 6256206803, "lat": 41.9225682, "lon": -87.6443899, "tags": {"addr:city": "Chicago", "addr:housenumber": "2221", "addr:postcode": "60614", "addr:state": "IL", "addr:street": "North Lincoln Avenue", "amenity": "restaurant", "name": "7 Plates Cafe", "phone": "+1-773-687-8817", "website": "https://www.sevenplatescafe.com/"}}, {"type": "node", "id": 6263509527, "lat": 41.9354011, "lon": -87.6446863, "tags": {"addr:city": "Chicago", "addr:housenumber": "2916", "addr:postcode": "60657", "addr:state": "IL", "addr:street": "North Broadway", "amenity": "bar", "name": "Avenue Tavern", "phone": "+1-773-975-7000", "website": "http://avenuetavern.com/"}}, {"type": "node", "id": 6265193537, "lat": 41.9363269, "lon": -87.6441062, "tags": {"addr:city": "Chicago", "addr:housenumber": "2947", "addr:postcode": "60657", "addr:state": "IL", "addr:street": "North Broadway", "amenity": "restaurant", "name": "Bar Pastoral", "phone": "+1-773-472-4781", "website": "https://www.pastoralartisan.com/barpastoral"}}, {"type": "node", "id": 6269851247, "lat": 41.9285045, "lon": -87.6420619, "tags": {"addr:city": "Chicago", "addr:housenumber": "2523", "addr:postcode": "60614", "addr:state": "IL", "addr:street": "North Clark Street", "amenity": "cafe", "name": "Cafe Vienna", "phone": "+1-773-244-9922", "website": "http://www.cafevienna.net/home"}}, {"type": "node", "id": 6282812182, "lat": 41.9199493, "lon": -87.6418258, "tags": {"addr:city": "Chicago", "addr:housenumber": "507", "addr:postcode": "60614", "addr:state": "IL", "addr:street": "West Dickens Avenue", "amenity": "cafe", "name": "CityGrounds Coffee Bar"}}, {"type": "node", "id": 6283371365, "lat": 41.9327184, "lon": -87.6407591, "tags": {"addr:city": "Chicago", "addr:housenumber": "433", "addr:postcode": "60614", "addr:state": "IL", "addr:street": "West Diversey Parkway", "amenity": "bar", "name": "Compass Bar", "phone": "+1-773-248-3230", "website": "https://www.compassbarchicago.com/"}}, {"type": "node", "id": 6291738082, "lat": 41.9332106, "lon": -87.6416208, "tags": {"addr:city": "Chicago", "addr:housenumber": "500", "addr:postcode": "60657", "addr:state": "IL", "addr:street": "West Diversey Parkway", "amenity": "bar", "name": "Galway Bay", "phone": "+1-773-348-3750", "website": "http://www.galwaybaypub.com/"}}, {"type": "node", "id": 6291778778, "lat": 41.9199929, "lon": -87.6408687, "tags": {"addr:city": "Chicago", "addr:housenumber": "2075", "addr:postcode": "60614", "addr:state": "IL", "addr:street": "North Lincoln Avenue", "amenity": "restaurant", "name": "Gemini", "phone": "+1-773-525-2522", "website": "http://www.geminichicago.com/"}}, {"type": "node", "id": 6292131009, "lat": 41.9351529, "lon": -87.6444787, "tags": {"addr:city": "Chicago", "addr:housenumber": "2904", "addr:postcode": "60657", "addr:state": "IL", "addr:street": "North Broadway", "amenity": "restaurant", "name": "Grand Mongolian Hot Pot", "phone": "+1-312-866-9555", "website": "https://grandmongolianhotpot.com/"}}, {"type": "node", "id": 6292415386, "lat": 41.9239642, "lon": -87.6368939, "tags": {"amenity": "restaurant", "cuisine": "japanese", "email": "nnerone@leye.com", "internet_access": "wlan", "name": "Naoki Sushi", "opening_hours": "Su 17:00-21:00; Mo-Th 17:30-21:00; Fr-Sa 17:30-22:00", "phone": "7738680002", "website": "http://naoki-sushi.com/"}}, {"type": "node", "id": 6294397336, "lat": 41.9358429, "lon": -87.639797, "tags": {"addr:city": "Chicago", "addr:housenumber": "2950", "addr:postcode": "60657", "addr:state": "IL", "addr:street": "North Sheridan Road", "amenity": "cafe", "name": "HERO Coffee Bar", "phone": "+1-773-661-1254", "website": "https://www.herocoffeebars.com/"}}, {"type": "node", "id": 6299336421, "lat": 41.9325966, "lon": -87.6408545, "tags": {"addr:city": "Chicago", "addr:housenumber": "435", "addr:postcode": "60614", "addr:state": "IL", "addr:street": "West Diversey Parkway", "amenity": "restaurant", "cuisine": "middle_eastern", "name": "Pars Cove Restaurant", "phone": "+1-773-549-1515", "website": "https://www.parscove.com/"}}, {"type": "node", "id": 6300339549, "lat": 41.9341333, "lon": -87.6373412, "tags": {"addr:city": "Chicago", "addr:housenumber": "2900", "addr:postcode": "60657", "addr:state": "IL", "addr:street": "North Lake Shore Drive West", "amenity": "cafe", "name": "St. Joseph\u2019s Hospital - Lake Shore Cafe", "phone": "+1-773-665-3000"}}, {"type": "node", "id": 6300395997, "lat": 41.9338851, "lon": -87.6442994, "tags": {"addr:city": "Chicago", "addr:housenumber": "2833", "addr:postcode": "60657", "addr:state": "IL", "addr:street": "North Broadway", "amenity": "restaurant", "name": "Pera Turkish Kitchen & Bar", "phone": "+1-773-880-0063", "website": "http://perachicago.com/"}}, {"type": "node", "id": 6301829167, "lat": 41.935976, "lon": -87.6444108, "tags": {"addr:city": "Chicago", "addr:housenumber": "2936", "addr:postcode": "60657", "addr:state": "IL", "addr:street": "North Broadway", "amenity": "restaurant", "name": "Sumo Sushi and Hibachi", "phone": "+1-773-477-8510", "website": "http://www.sumosushichicago.com/"}}, {"type": "node", "id": 6303091617, "lat": 41.9326539, "lon": -87.6432988, "tags": {"addr:city": "Chicago", "addr:housenumber": "553", "addr:postcode": "60614", "addr:state": "IL", "addr:street": "West Diversey Parkway", "amenity": "restaurant", "name": "Tanaka Ramen", "phone": "+1-773-857-5140", "website": "https://tanakaramen.com/"}}, {"type": "node", "id": 6303939519, "lat": 41.9326796, "lon": -87.6433565, "tags": {"addr:city": "Chicago", "addr:housenumber": "557", "addr:postcode": "60614", "addr:state": "IL", "addr:street": "West Diversey Parkway", "amenity": "cafe", "name": "TeaGschwendner", "phone": "+1-773-360-8009", "website": "https://shop.tgtea.com/"}}, {"type": "node", "id": 6304253435, "lat": 41.930152, "lon": -87.6438156, "tags": {"addr:city": "Chicago", "addr:housenumber": "2622", "addr:postcode": "60614", "addr:state": "IL", "addr:street": "North Clark Street", "amenity": "restaurant", "facebook": "https://www.facebook.com/TheWienerCircle/", "name": "The Wiener\u2019s Circle", "name:en": "The Wiener\u2019s Circle", "name:zh": "\u7dad\u7d0d\u723e\u65af\u5c0f\u5403\u5e97", "opening_hours": "Su-Th 10:30-04:00; Fr-Sa 10:30-05:00", "phone": "+1-773-477-7444", "start_date": "1983", "website": "http://www.wienercircle.net/", "wikidata": "Q3523370", "wikipedia": "en:The Wieners Circle"}}, {"type": "node", "id": 6305147152, "lat": 41.9230946, "lon": -87.6451223, "tags": {"addr:city": "Chicago", "addr:housenumber": "2249", "addr:postcode": "60614", "addr:state": "IL", "addr:street": "North Lincoln Avenue", "amenity": "bar", "name": "Tobacco Road Tap Room", "phone": "+1-773-661-6416", "website": "https://www.tobaccoroadchi.com/"}}, {"type": "node", "id": 6305337839, "lat": 41.9321476, "lon": -87.6450562, "tags": {"addr:city": "Chicago", "addr:housenumber": "2546", "addr:postcode": "60614", "addr:state": "IL", "addr:street": "North Clark Street", "amenity": "restaurant", "name": "Toro Sushi", "phone": "+1-773-348-7255"}}, {"type": "node", "id": 6306635320, "lat": 41.9357688, "lon": -87.6445452, "tags": {"addr:city": "Chicago", "addr:housenumber": "2928", "addr:postcode": "60657", "addr:state": "IL", "addr:street": "North Broadway", "amenity": "restaurant", "name": "The Crepe Shop", "phone": "+1-773-857-0018", "website": "https://www.thecrepeshopchicago.com/"}}, {"type": "node", "id": 6315211135, "lat": 41.9272419, "lon": -87.6417085, "tags": {"addr:city": "Chicago", "addr:housenumber": "2468", "addr:postcode": "60603", "addr:state": "IL", "addr:street": "North Clark Street", "amenity": "restaurant", "name": "The Fat Shallot - Lincoln Park", "phone": "+1-773-661-6335", "website": "http://thefatshallot.com/"}}, {"type": "node", "id": 6315216334, "lat": 41.9270976, "lon": -87.6412309, "tags": {"addr:city": "Chicago", "addr:housenumber": "2455", "addr:postcode": "60614", "addr:state": "IL", "addr:street": "North Clark Street", "amenity": "restaurant", "name": "The Field House", "phone": "+1-773-348-6489"}}, {"type": "node", "id": 6315631023, "lat": 41.9271263, "lon": -87.6307613, "tags": {"addr:city": "Chicago", "addr:housenumber": "2401", "addr:postcode": "60614", "addr:state": "IL", "addr:street": "North Lake Shore Drive", "amenity": "restaurant", "name": "The Lakefront Restaurant", "phone": "+1-312-414-1313", "website": "https://theateronthelake.com/restaurant/"}}, {"type": "node", "id": 6315684067, "lat": 41.9264033, "lon": -87.6413997, "tags": {"addr:city": "Chicago", "addr:housenumber": "2436", "addr:postcode": "60614", "addr:state": "IL", "addr:street": "North Clark Street", "amenity": "bar", "name": "The Other Side Bar", "phone": "+1-773-525-8238"}}, {"type": "node", "id": 6315689961, "lat": 41.9263714, "lon": -87.6414025, "tags": {"addr:city": "Chicago", "addr:housenumber": "2434", "addr:postcode": "60614", "addr:state": "IL", "addr:street": "North Clark Street", "amenity": "restaurant", "name": "The Pasta Bowl", "phone": "+1-773-525-2695", "website": "https://www.pastabowl.com/"}}, {"type": "node", "id": 6315706586, "lat": 41.9190822, "lon": -87.6337461, "tags": {"addr:city": "Chicago", "addr:housenumber": "2021", "addr:postcode": "60614", "addr:state": "IL", "addr:street": "North Stockton Drive", "amenity": "cafe", "name": "The Patio at Caf\u00e9 Brauer", "phone": "+1-312-742-2400", "website": "https://www.lpzoo.org/dining/patio-cafe-brauer"}}, {"type": "node", "id": 6316851529, "lat": 41.9349999, "lon": -87.644007, "tags": {"addr:city": "Chicago", "addr:housenumber": "2873", "addr:postcode": "60657", "addr:state": "IL", "addr:street": "North Broadway", "amenity": "bar", "name": "Wheat\u2019s End Cafe", "phone": "+1-773-770-3527", "website": "https://wheatsendcafe.com/"}}, {"type": "node", "id": 6320014611, "lat": 41.9340452, "lon": -87.6456834, "tags": {"addr:city": "Chicago", "addr:housenumber": "2845", "addr:postcode": "60657", "addr:state": "IL", "addr:street": "North Clark Street", "amenity": "restaurant", "name": "La Cr\u00eaperie", "phone": "+1-773-528-9050", "website": "http://www.lacreperiechicago.com/"}}, {"type": "node", "id": 6322600949, "lat": 41.9330704, "lon": -87.6408035, "tags": {"addr:city": "Chicago", "addr:housenumber": "432", "addr:postcode": "60657", "addr:state": "IL", "addr:street": "West Diversey Parkway", "amenity": "restaurant", "name": "MFK Restaurant", "phone": "+1-773-857-2540", "website": "https://mfkrestaurant.com/"}}, {"type": "node", "id": 6322787575, "lat": 41.9242236, "lon": -87.637024, "tags": {"addr:city": "Chicago", "addr:housenumber": "2300", "addr:postcode": "60614", "addr:state": "IL", "addr:street": "North Lincoln Park West", "amenity": "restaurant", "name": "Mon Ami Gabi", "phone": "+1-773-348-8886", "website": "http://www.monamigabi.com/chicago/", "wikidata": "Q6456854", "wikipedia": "en:L2O"}}, {"type": "node", "id": 6323140931, "lat": 41.9235791, "lon": -87.6457972, "tags": {"addr:city": "Chicago", "addr:housenumber": "2273", "addr:postcode": "60614", "addr:state": "IL", "addr:street": "North Lincoln Avenue", "amenity": "cafe", "name": "Nighthawk AM", "phone": "+1-773-697-8899", "website": "https://www.nighthawkam.com/"}}, {"type": "node", "id": 6323209548, "lat": 41.929797, "lon": -87.6375066, "tags": {"addr:city": "Chicago", "addr:housenumber": "2610", "addr:postcode": "60614", "addr:state": "IL", "addr:street": "North Cannon Drive", "amenity": "restaurant", "cuisine": "american", "name": "North Pond", "phone": "+1-773-477-5845", "website": "http://northpondrestaurant.com"}}, {"type": "node", "id": 6324135870, "lat": 41.9330169, "lon": -87.6445527, "tags": {"addr:city": "Chicago", "addr:housenumber": "616", "addr:postcode": "60614", "addr:state": "IL", "addr:street": "West Diversey Parkway", "amenity": "restaurant", "brand": "The Original Pancake House", "brand:wikidata": "Q7755384", "brand:wikipedia": "en:The Original Pancake House", "cuisine": "breakfast;pancake", "name": "The Original Pancake House", "phone": "+1-773-929-8130", "website": "https://www.ophchicagoland.com/lincoln-park/"}}, {"type": "node", "id": 6324379534, "lat": 41.9318129, "lon": -87.6412205, "tags": {"addr:city": "Chicago", "addr:housenumber": "2732", "addr:postcode": "60614", "addr:state": "IL", "addr:street": "North Pine Grove Avenue", "amenity": "bar", "name": "Lakeview Men\u2019s Club", "phone": "+1-773-525-9533"}}, {"type": "node", "id": 7070671349, "lat": 41.9241862, "lon": -87.6344252, "tags": {"amenity": "cafe", "name": "Safari Cafe"}}, {"type": "node", "id": 7081204126, "lat": 41.9219136, "lon": -87.6342484, "tags": {"amenity": "cafe", "name": "Eadie Levy's Landmark Caf\u00e9"}}, {"type": "node", "id": 7277573845, "lat": 41.932665, "lon": -87.6450601, "tags": {"amenity": "cafe", "brand": "Starbucks", "brand:wikidata": "Q37158", "brand:wikipedia": "en:Starbucks", "cuisine": "coffee_shop", "name": "Starbucks", "official_name": "Starbucks Coffee", "takeaway": "yes"}}, {"type": "way", "id": 210318212, "nodes": [2204034784, 2204034779, 2204034445, 2204034519, 2204034575, 2204035015, 2607221928, 2204034784], "tags": {"addr:housenumber": "2254-2264", "addr:street": "North Lincoln Avenue", "addr:street:name": "Lincoln", "addr:street:prefix": "North", "addr:street:type": "Avenue", "amenity": "cafe", "building": "yes", "chicago:building_id": "851014", "name": "Countryside Cafe"}}, {"type": "way", "id": 210318223, "nodes": [2204035573, 2204036024, 2204035943, 2204036056, 2204036147, 2204036347, 2204036210, 2204035410, 2204035573], "tags": {"addr:city": "Chicago", "addr:country": "US", "addr:housenumber": "2269", "addr:postcode": "60614", "addr:street": "North Lincoln Avenue", "addr:street:name": "Lincoln", "addr:street:prefix": "North", "addr:street:type": "Avenue", "amenity": "restaurant", "building": "yes", "chicago:building_id": "851040", "cuisine": "vietnamese", "name": "Simply it", "smoking": "no", "website": "http://www.chicagosimplyit.com/"}}, {"type": "way", "id": 210321426, "nodes": [2204047724, 2204047824, 2204048116, 2204047916, 2204047937, 2204047720, 2204047439, 2204047387, 2204047724], "tags": {"addr:city": "Chicago", "addr:housenumber": "2442", "addr:postcode": "60614", "addr:state": "IL", "addr:street": "North Clark Street", "addr:street:name": "Clark", "addr:street:prefix": "North", "addr:street:type": "Street", "amenity": "bar", "building": "yes", "chicago:building_id": "850323", "name": "Galway Arms", "opening_hours": "Mo-Fr 12:00-02:00; Sa 11:00-03:00; Su 11:00-01:00", "phone": "+1-773-472-5555", "website": "http://www.galwayarms.com/"}}, {"type": "way", "id": 210686862, "nodes": [2207658071, 2207658059, 2207658063, 2207658045, 2207658053, 2207658054, 2207658068, 2207658073, 2207658069, 2207658070, 2207658074, 2207658086, 2207658084, 2207658094, 2207658071], "tags": {"addr:city": "Chicago", "addr:housenumber": "2326", "addr:postcode": "60614", "addr:state": "IL", "addr:street": "North Clark Street", "addr:street:name": "Clark", "addr:street:prefix": "North", "addr:street:type": "Street", "amenity": "bar", "building": "yes", "building:levels": "3", "chicago:building_id": "866325", "name": "Ravens", "phone": "+1-773-348-1774", "website": "ravenschicago.com"}}]}