{"version": 0.6, "generator": "Overpass API 0.7.56.1004 6cd3eaec", "osm3s": {"timestamp_osm_base": "2020-07-22T03:21:05Z", "copyright": "The data included in this document is from www.openstreetmap.org. The data is made available under ODbL."}, "elements": [{"type": "node", "id": 1092085176, "lat": 41.8997523, "lon": -87.6733215, "tags": {"amenity": "bar", "name": "Club Foot"}}, {"type": "node", "id": 1092085195, "lat": 41.8980584, "lon": -87.6745111, "tags": {"addr:city": "Chicago", "addr:housenumber": "1858", "addr:postcode": "60622", "addr:state": "IL", "addr:street": "West Iowa Street", "amenity": "bar", "name": "Nilda's Place"}}, {"type": "node", "id": 1092085206, "lat": 41.9012796, "lon": -87.6745795, "tags": {"addr:city": "Chicago", "addr:housenumber": "1059", "addr:postcode": "60622", "addr:state": "IL", "addr:street": "North Wolcott Avenue", "amenity": "bar", "name": "Happy Village", "phone": "+1-773-486-1512"}}, {"type": "node", "id": 1092085208, "lat": 41.9012696, "lon": -87.6761271, "tags": {"addr:city": "Chicago", "addr:housenumber": "1935", "addr:postcode": "60622", "addr:state": "IL", "addr:street": "West Thomas Street", "amenity": "bar", "name": "Innertown Pub", "phone": "+1-773-235-9795", "website": "https://www.innertownpub.com/"}}, {"type": "node", "id": 2200032209, "lat": 41.8909966, "lon": -87.6722207}, {"type": "node", "id": 2200032211, "lat": 41.8909975, "lon": -87.6721343}, {"type": "node", "id": 2200032617, "lat": 41.8911846, "lon": -87.6722261}, {"type": "node", "id": 2200032621, "lat": 41.8911855, "lon": -87.6721398}, {"type": "node", "id": 2200061284, "lat": 41.8954081, "lon": -87.6806487}, {"type": "node", "id": 2200061318, "lat": 41.8954122, "lon": -87.6804026}, {"type": "node", "id": 2200061528, "lat": 41.895441, "lon": -87.6804023}, {"type": "node", "id": 2200061557, "lat": 41.8954433, "lon": -87.6803178}, {"type": "node", "id": 2200063472, "lat": 41.8955482, "lon": -87.6806693}, {"type": "node", "id": 2200063479, "lat": 41.8955495, "lon": -87.6806528}, {"type": "node", "id": 2200064291, "lat": 41.8956277, "lon": -87.6806575}, {"type": "node", "id": 2200064294, "lat": 41.8956278, "lon": -87.6806722}, {"type": "node", "id": 2200064580, "lat": 41.8956493, "lon": -87.6714785}, {"type": "node", "id": 2200064590, "lat": 41.8956503, "lon": -87.6714124}, {"type": "node", "id": 2200064702, "lat": 41.8956648, "lon": -87.680659}, {"type": "node", "id": 2200064728, "lat": 41.8956717, "lon": -87.6806736}, {"type": "node", "id": 2200065237, "lat": 41.895739, "lon": -87.6806747}, {"type": "node", "id": 2200065266, "lat": 41.8957409, "lon": -87.6714151}, {"type": "node", "id": 2200065269, "lat": 41.8957422, "lon": -87.6714022}, {"type": "node", "id": 2200065283, "lat": 41.8957439, "lon": -87.6803276}, {"type": "node", "id": 2200065894, "lat": 41.8958771, "lon": -87.6714853}, {"type": "node", "id": 2200065897, "lat": 41.895878, "lon": -87.6714063}, {"type": "node", "id": 2200107680, "lat": 41.900711, "lon": -87.6672093}, {"type": "node", "id": 2200107714, "lat": 41.9007148, "lon": -87.6669172}, {"type": "node", "id": 2200107795, "lat": 41.9007262, "lon": -87.6672257}, {"type": "node", "id": 2200107958, "lat": 41.9007578, "lon": -87.6672272}, {"type": "node", "id": 2200108058, "lat": 41.9007769, "lon": -87.6672086}, {"type": "node", "id": 2200108076, "lat": 41.9007807, "lon": -87.6669202}, {"type": "node", "id": 2200109452, "lat": 41.9010733, "lon": -87.6636682}, {"type": "node", "id": 2200109752, "lat": 41.9011176, "lon": -87.6637375}, {"type": "node", "id": 2200111013, "lat": 41.9012804, "lon": -87.6634272}, {"type": "node", "id": 2200111113, "lat": 41.9013247, "lon": -87.6634966}, {"type": "node", "id": 2203580582, "lat": 41.8900939, "lon": -87.6578717}, {"type": "node", "id": 2203580583, "lat": 41.8900957, "lon": -87.6574769}, {"type": "node", "id": 2203580748, "lat": 41.8901667, "lon": -87.6578728}, {"type": "node", "id": 2203580750, "lat": 41.8901685, "lon": -87.6574779}, {"type": "node", "id": 2203583448, "lat": 41.8907222, "lon": -87.6599457}, {"type": "node", "id": 2203583453, "lat": 41.890723, "lon": -87.6598557}, {"type": "node", "id": 2203583502, "lat": 41.8907441, "lon": -87.6599454}, {"type": "node", "id": 2203583549, "lat": 41.8908013, "lon": -87.6598567}, {"type": "node", "id": 2203583552, "lat": 41.8908096, "lon": -87.6598731}, {"type": "node", "id": 2203583587, "lat": 41.8908631, "lon": -87.6598726}, {"type": "node", "id": 2203583591, "lat": 41.8908712, "lon": -87.6598596}, {"type": "node", "id": 2203583715, "lat": 41.8909404, "lon": -87.6599489}, {"type": "node", "id": 2203583724, "lat": 41.8909426, "lon": -87.6598607}, {"type": "node", "id": 2496841186, "lat": 41.8963373, "lon": -87.6670898, "tags": {"addr:city": "Chicago", "addr:housenumber": "811", "addr:postcode": "60622", "addr:state": "IL", "addr:street": "North Ashland Avenue", "amenity": "restaurant", "name": "Taqueria Traspasada", "phone": "+1-312-850-2069"}}, {"type": "node", "id": 2535218213, "lat": 41.8910659, "lon": -87.6718335, "tags": {"addr:city": "Chicago", "addr:housenumber": "1758", "addr:postcode": "60622", "addr:state": "IL", "addr:street": "West Grand Avenue", "amenity": "bar", "delivery": "yes", "name": "Output Lounge & Sports Bar", "phone": "312-929-2515", "website": "outputlounge.com"}}, {"type": "node", "id": 2535218224, "lat": 41.8910216, "lon": -87.6714159, "tags": {"amenity": "restaurant", "cuisine": "pizza", "name": "Tortorice's Pizza"}}, {"type": "node", "id": 3240592096, "lat": 41.8863874, "lon": -87.6667991, "tags": {"addr:city": "Chicago", "addr:housenumber": "235", "addr:postcode": "60607", "addr:state": "IL", "addr:street": "North Ashland Avenue", "amenity": "bar", "name": "Cobra Lounge", "phone": "+1-312-226-6300", "smoking": "no", "website": "https://www.cobralounge.com/"}}, {"type": "node", "id": 3575072897, "lat": 41.9004836, "lon": -87.6676383, "tags": {"addr:city": "Chicago", "addr:housenumber": "1024", "addr:postcode": "60622", "addr:state": "IL", "addr:street": "North Ashland Avenue", "addr:street:name": "Ashland", "addr:street:prefix": "North", "addr:street:type": "Avenue", "amenity": "restaurant", "cuisine": "mexican", "name": "Alegrias Seafood Chicago", "opening_hours": "Mo-Th, Su 10:00-22:00; Fr-Sa 10:00-23:00", "phone": "+1-773-252-7200", "website": "http://alegriasseafoodchicago.com"}}, {"type": "node", "id": 3575084293, "lat": 41.8970869, "lon": -87.6650571, "tags": {"addr:city": "Chicago", "addr:housenumber": "832", "addr:postcode": "60622", "addr:state": "IL", "addr:street": "North Greenview Avenue", "amenity": "bar", "name": "The Chipp Inn", "outdoor_seating": "no", "phone": "+1-312-421-9052"}}, {"type": "node", "id": 3575084296, "lat": 41.8963372, "lon": -87.6629342, "tags": {"addr:city": "Chicago", "addr:housenumber": "1412", "addr:postcode": "60622", "addr:state": "IL", "addr:street": "West Chicago Avenue", "amenity": "bar", "name": "Lush Wine & Spirits", "phone": "+1-312-666-6900", "website": "http://www.luswineandspirits.com/"}}, {"type": "node", "id": 3575084297, "lat": 41.8962244, "lon": -87.6668569, "tags": {"amenity": "restaurant", "cuisine": "thai", "name": "Manee Thai"}}, {"type": "node", "id": 3596874096, "lat": 41.8975839, "lon": -87.6670559, "tags": {"addr:city": "Chicago", "addr:housenumber": "851", "addr:postcode": "60622", "addr:state": "IL", "addr:street": "North Ashland Avenue", "amenity": "restaurant", "cuisine": "american", "delivery": "no", "name": "Ruxbin", "phone": "(312) 624\u20138509", "smoking": "no", "takeaway": "no", "website": "http://www.ruxbinchicago.com"}}, {"type": "node", "id": 3712617658, "lat": 41.8960881, "lon": -87.6756709, "tags": {"addr:city": "chicago", "addr:housenumber": "1924", "addr:state": "il", "addr:street": "West Chicago Avenue", "amenity": "restaurant", "cuisine": "pizza", "name": "Roots Handmade Pizza"}}, {"type": "node", "id": 3898903921, "lat": 41.8958379, "lon": -87.6728839, "tags": {"amenity": "restaurant", "cuisine": "mexican", "name": "Dona Naty's Tacos", "outdoor_seating": "no", "takeaway": "yes"}}, {"type": "node", "id": 4119390732, "lat": 41.8996708, "lon": -87.6773815, "tags": {"addr:city": "Chicago", "addr:housenumber": "1000", "addr:postcode": "60622", "addr:state": "IL", "addr:street": "North Damen Avenue", "amenity": "cafe", "cuisine": "coffee_shop", "name": "Dollop", "website": "https://dollop.coffee/"}}, {"type": "node", "id": 4564043789, "lat": 41.8960919, "lon": -87.6754459, "tags": {"addr:city": "Chicago", "addr:housenumber": "1916", "addr:postcode": "60622", "addr:state": "IL", "addr:street": "West Chicago Avenue", "amenity": "restaurant", "cuisine": "american", "name": "West Town Bakery & Diner"}}, {"type": "node", "id": 4564043790, "lat": 41.8960435, "lon": -87.6778486, "tags": {"addr:city": "Chicago", "addr:housenumber": "2018", "addr:postcode": "60622", "addr:state": "IL", "addr:street": "West Chicago Avenue", "amenity": "restaurant", "cuisine": "american", "name": "Whisk"}}, {"type": "node", "id": 4564043791, "lat": 41.896048, "lon": -87.6776697, "tags": {"addr:city": "Chicago", "addr:housenumber": "2012", "addr:postcode": "60622", "addr:state": "IL", "addr:street": "West Chicago Avenue", "amenity": "restaurant", "cuisine": "american", "name": "Sunrise Cafe", "phone": "+1-773-276-8290", "website": "http://www.sunrisecafechicago.com/"}}, {"type": "node", "id": 4564043792, "lat": 41.895873, "lon": -87.6693545, "tags": {"addr:city": "Chicago", "addr:housenumber": "1651", "addr:postcode": "60622", "addr:state": "IL", "addr:street": "West Chicago Avenue", "amenity": "cafe", "cuisine": "coffee_shop", "name": "Pickwick Coffee"}}, {"type": "node", "id": 4567575190, "lat": 41.8844194, "lon": -87.6613607, "tags": {"addr:city": "Chicago", "addr:housenumber": "1364", "addr:postcode": "60607", "addr:state": "IL", "addr:street": "West Randolph Street", "amenity": "restaurant", "cuisine": "japanese;asian;bbq;barbecue;barbeque", "name": "Gyu-Kaku Japanese BBQ", "name:en": "Gyu-Kaku Japanese BBQ", "opening_hours": "Mo-Th 11:30-22:00; Fr-Sa 11:30-22:30; Su 11:30-21:30", "phone": "+1-312-982-2840", "website": "https://www.gyu-kaku.com/"}}, {"type": "node", "id": 4599121319, "lat": 41.8958892, "lon": -87.6704013, "tags": {"addr:city": "Chicago", "addr:housenumber": "1715", "addr:postcode": "60622", "addr:state": "IL", "addr:street": "West Chicago Avenue", "amenity": "restaurant", "cuisine": "thai", "name": "JJ Thai Street Food", "phone": "+1-312-929-4435", "website": "http://www.jjthaistreetfood.com/"}}, {"type": "node", "id": 4599121320, "lat": 41.8961658, "lon": -87.6715393, "tags": {"addr:city": "Chicago", "addr:housenumber": "1746", "addr:postcode": "60622", "addr:state": "IL", "addr:street": "West Chicago Avenue", "amenity": "bar", "name": "Forbidden Root Restaurant & Brewery", "phone": "+1-312-929-2202", "website": "http://www.forbiddenroot.com"}}, {"type": "node", "id": 4599121321, "lat": 41.8958623, "lon": -87.6717217, "tags": {"addr:city": "Chicago", "addr:housenumber": "1751", "addr:postcode": "60622", "addr:state": "IL", "addr:street": "West Chicago Avenue", "amenity": "restaurant", "cuisine": "japanese", "name": "Yuzu Sushi + Robata Grill", "phone": "+1-815-900-9525", "website": "https://www.yuzuchicago.com/"}}, {"type": "node", "id": 4599121322, "lat": 41.8958333, "lon": -87.6733515, "tags": {"addr:city": "Chicago", "addr:housenumber": "1829", "addr:postcode": "60622", "addr:state": "IL", "addr:street": "West Chicago Avenue", "amenity": "restaurant", "cuisine": "japanese", "name": "Arami", "phone": "+1-312-243-1535", "website": "https://www.aramichicago.com/"}}, {"type": "node", "id": 4599121323, "lat": 41.8961458, "lon": -87.6729172, "tags": {"addr:city": "Chicago", "addr:housenumber": "1814", "addr:postcode": "60622", "addr:state": "IL", "addr:street": "West Chicago Avenue", "amenity": "restaurant", "cuisine": "mexican", "name": "Tecalitlan", "website": "http://www.tecrestaurant.com"}}, {"type": "node", "id": 4697798553, "lat": 41.894242, "lon": -87.659813, "tags": {"addr:city": "Chicago", "addr:housenumber": "1303", "addr:postcode": "60642", "addr:state": "IL", "addr:street": "West Huron Street", "amenity": "restaurant", "cuisine": "mexican", "name": "Taqueria El Jardin", "opening_hours": "09:00-19:30", "outdoor_seating": "no", "smoking": "no", "takeaway": "yes"}}, {"type": "node", "id": 5028745128, "lat": 41.8959528, "lon": -87.6660177, "tags": {"addr:postcode": "60622", "amenity": "restaurant", "cuisine": "mexican;french", "name": "Mexique", "phone": "(312)850-0288"}}, {"type": "node", "id": 5067237460, "lat": 41.8838272, "lon": -87.6629791, "tags": {"addr:city": "Chicago", "addr:housenumber": "1415", "addr:postcode": "60607", "addr:state": "IL", "addr:street": "West Randolph Street", "amenity": "restaurant", "cuisine": "pub;american", "name": "Kaiser Tiger", "opening_hours": "Su-Fr 11:00-02:00; Sa 11:00-03:00", "phone": "+1-312-243-3100", "website": "https://kaisertiger.com/"}}, {"type": "node", "id": 5195156460, "lat": 41.8942344, "lon": -87.676849, "tags": {"addr:city": "Chicago", "addr:housenumber": "701", "addr:postcode": "60622", "addr:state": "IL", "addr:street": "North Damen Avenue", "amenity": "bar", "name": "Damen Tavern", "outdoor_seating": "no", "phone": "+1-312-796-3191", "smoking": "no"}}, {"type": "node", "id": 5460621821, "lat": 41.8844846, "lon": -87.6627038, "tags": {"addr:city": "Chicago", "addr:housenumber": "1400", "addr:postcode": "60607", "addr:state": "IL", "addr:street": "West Randolph Street", "amenity": "restaurant", "cuisine": "asian;barbecue;bbq;barbeque", "name": "bellyQ", "opening_hours": "Mo-Sa 17:00-22:00", "phone": "+1-312-563-1010", "website": "http://www.bellyqchicago.com/"}}, {"type": "node", "id": 5460625911, "lat": 41.8849698, "lon": -87.6604106, "tags": {"addr:city": "Chicago", "addr:housenumber": "177", "addr:postcode": "60607", "addr:state": "IL", "addr:street": "North Ada Street", "addr:unit": "001", "amenity": "restaurant", "cuisine": "american", "name": "The Loyalist", "opening_hours": "Tu-Th 16:00-23:00; Fr-Sa 16:00-01:00", "phone": "+1-773-913-3774", "website": "http://www.smythandtheloyalist.com"}}, {"type": "node", "id": 5460642403, "lat": 41.8845043, "lon": -87.6611939, "tags": {"addr:city": "Chicago", "addr:housenumber": "1358", "addr:postcode": "60607", "addr:state": "IL", "addr:street": "West Randolph Street", "amenity": "restaurant", "cuisine": "breakfast;american", "name": "Bespoke Cuisine", "opening_hours": "Mo-Fr 09:00-17:00", "phone": "+1-312-455-8400", "website": "http://bespokecuisine.com/"}}, {"type": "node", "id": 5460646709, "lat": 41.8844593, "lon": -87.6626445, "tags": {"addr:city": "Chicago", "addr:housenumber": "1400", "addr:postcode": "60607", "addr:state": "IL", "addr:street": "West Randolph Street", "amenity": "restaurant", "cuisine": "asian", "name": "urbanbelly", "opening_hours": "Mo-Sa 11:00-22:00", "phone": "+1-773-583-0500", "website": "http://www.urbanbellychicago.com/"}}, {"type": "node", "id": 5460660364, "lat": 41.8844717, "lon": -87.6609272, "tags": {"addr:city": "Chicago", "addr:housenumber": "1350", "addr:postcode": "60607", "addr:state": "IL", "addr:street": "West Randolph Street", "amenity": "restaurant", "cuisine": "american", "name": "Elske", "opening_hours": "We-Th 18:00-22:00; Fr-Sa 18:00-23:00; Su 18:00-22:00", "phone": "+1-312-733-1314", "website": "https://elskerestaurant.com/"}}, {"type": "node", "id": 5460671009, "lat": 41.8905209, "lon": -87.6591892, "tags": {"addr:city": "Chicago", "addr:housenumber": "459", "addr:postcode": "60642", "addr:state": "IL", "addr:street": "North Ogden Avenue", "amenity": "bar", "name": "G & O", "opening_hours": "Mo-Fr 16:00-02:00; Sa 10:00-03:00; Su 10:00-00:00", "phone": "+1-312-888-3367", "website": "http://grandandogden.com/"}}, {"type": "node", "id": 5460697773, "lat": 41.8852668, "lon": -87.6582229, "tags": {"addr:city": "Chicago", "addr:housenumber": "1235", "addr:postcode": "60607", "addr:state": "IL", "addr:street": "West Lake Street", "amenity": "restaurant", "cuisine": "italian", "name": "Macello Ristorante", "opening_hours": "Tu-Th 11:30-22:00; Fr 11:30-23:00; Sa 17:00-23:00; Su 15:00-20:00", "phone": "+1-312-850-9870"}}, {"type": "node", "id": 5460698312, "lat": 41.8846138, "lon": -87.658239, "tags": {"addr:city": "Chicago", "addr:housenumber": "1240", "addr:postcode": "60607", "addr:state": "IL", "addr:street": "West Randolph Street", "amenity": "restaurant", "cuisine": "middle_eastern", "name": "Alhambra Palace", "opening_hours": "Su-Mo 11:00-22:00; Tu 11:00-02:00; We-Th 11:00-22:00; Fr 11:00-01:45; Sa 11:00-02:45", "phone": "+1-312-666-9555", "website": "http://www.alhambrapalacerestaurant.com/"}}, {"type": "node", "id": 5460722827, "lat": 41.8852803, "lon": -87.6605832, "tags": {"addr:city": "Chicago", "addr:housenumber": "177", "addr:postcode": "60607", "addr:state": "IL", "addr:street": "North Ada Street", "addr:unit": "101", "amenity": "restaurant", "cuisine": "new_american;american", "name": "Smyth", "opening_hours": "Tu-Sa 17:00-22:00", "phone": "+1-773-913-3773", "website": "http://www.smythandtheloyalist.com/smyth"}}, {"type": "node", "id": 5460735957, "lat": 41.8897346, "lon": -87.6620754, "tags": {"addr:city": "Chicago", "addr:housenumber": "1381", "addr:postcode": "60642", "addr:state": "IL", "addr:street": "West Hubbard Street", "amenity": "restaurant", "cuisine": "american;breakfast", "name": "The Breakfast Club & Grill", "phone": "+1-312-666-2372", "website": "https://thebreakfastclubchicago.com/"}}, {"type": "node", "id": 5460871124, "lat": 41.8963394, "lon": -87.6677065, "tags": {"addr:city": "Chicago", "addr:housenumber": "1604", "addr:postcode": "60622", "addr:state": "IL", "addr:street": "West Chicago Avenue", "amenity": "bar", "name": "Beatnik", "opening_hours": "Tu-Fr 17:00-02:00; Sa 11:00-03:00; Su 11:00-02:00", "phone": "+1-312-929-4945", "website": "https://www.beatnikchicago.com/"}}, {"type": "node", "id": 5792394594, "lat": 41.8896255, "lon": -87.670578, "tags": {"addr:city": "Chicago", "addr:housenumber": "1725", "addr:postcode": "60622", "addr:state": "IL", "addr:street": "West Hubbard Street", "amenity": "bar", "name": "On Tour Brewin", "outdoor_seating": "no", "phone": "+1-312-796-3119", "website": "https://ontourbrewing.com/"}}, {"type": "node", "id": 5794886652, "lat": 41.8868879, "lon": -87.6776977, "tags": {"addr:city": "Chicago", "addr:housenumber": "2010", "addr:postcode": "60612", "addr:state": "IL", "addr:street": "West Fulton Street", "amenity": "bar", "craft": "distillery", "name": "Rhine Hall Distillery", "note": "Rhine Hall Distillery has a tasting room that's open to the public.", "opening_hours": "We-Fr 17:00-21:00; Sa 14:00-19:00", "phone": "+1-312-243-4313", "product": "brandy", "website": "https://www.rhinehall.com/"}}, {"type": "node", "id": 5794890475, "lat": 41.886502, "lon": -87.6783765, "tags": {"addr:city": "Chicago", "addr:housenumber": "2021", "addr:postcode": "60612", "addr:state": "IL", "addr:street": "West Fulton Street", "addr:unit": "K-101B", "amenity": "cafe", "name": "Metric Coffee", "opening_hours": "Mo-Fr 07:00-16:00; Sa 08:00-14:00", "phone": "+1-312-982-2196", "website": "https://metriccoffee.com/pages/metric-west-fulton"}}, {"type": "node", "id": 5829654085, "lat": 41.8958975, "lon": -87.6701778, "tags": {"addr:city": "Chicago", "addr:housenumber": "1709", "addr:postcode": "60622", "addr:state": "IL", "addr:street": "West Chicago Avenue", "amenity": "restaurant", "cuisine": "german", "name": "Funkenhausen", "opening_hours": "Mo-Th 17:00-23:00; Fr-Sa 17:00-00:00; Su 17:00-22:00", "phone": "+1-312-929-4727", "website": "https://www.funkenhausen.com/"}}, {"type": "node", "id": 5916848688, "lat": 41.8923569, "lon": -87.6620789, "tags": {"addr:city": "Chicago", "addr:housenumber": "543", "addr:postcode": "60642", "addr:state": "IL", "addr:street": "North Noble Street", "amenity": "restaurant", "name": "Nini's Deli", "phone": "+1-312-243-9822", "website": "https://ninisdeli.com/"}}, {"type": "node", "id": 5952502358, "lat": 41.8957821, "lon": -87.676877, "tags": {"addr:city": "Chicago", "addr:housenumber": "1959", "addr:postcode": "60622", "addr:state": "IL", "addr:street": "West Chicago Avenue", "amenity": "restaurant", "cuisine": "mexican", "name": "El Metro Mexican Cantina"}}, {"type": "node", "id": 6250223840, "lat": 41.8901294, "lon": -87.6595267, "tags": {"addr:city": "Chicago", "addr:housenumber": "439", "addr:postcode": "60642", "addr:state": "IL", "addr:street": "North Ogden Avenue", "amenity": "bar", "name": "439 Nightclub"}}, {"type": "node", "id": 6256421651, "lat": 41.8959957, "lon": -87.6814225, "tags": {"addr:city": "Chicago", "addr:housenumber": "2148", "addr:postcode": "60622", "addr:state": "IL", "addr:street": "West Chicago Avenue", "amenity": "restaurant", "name": "A Tavola", "phone": "+1-773-276-7567", "website": "https://www.atavolachi.com/"}}, {"type": "node", "id": 6261003734, "lat": 41.8957826, "lon": -87.6732482, "tags": {"addr:city": "Chicago", "addr:housenumber": "1825", "addr:postcode": "60622", "addr:state": "IL", "addr:street": "West Chicago Avenue", "amenity": "restaurant", "name": "Alba\u2019s Restaurant", "phone": "+1-312-265-0818"}}, {"type": "node", "id": 6262038806, "lat": 41.9008233, "lon": -87.6627954, "tags": {"addr:city": "Chicago", "addr:housenumber": "1046", "addr:postcode": "60622", "addr:state": "IL", "addr:street": "North Milwaukee Avenue", "amenity": "cafe", "name": "Arabia Caf\u00e9 & Hookah Lounge", "phone": "+1-773-276-2345"}}, {"type": "node", "id": 6263059442, "lat": 41.8899164, "lon": -87.6782682, "tags": {"addr:city": "Chicago", "addr:housenumber": "2032", "addr:postcode": "60612", "addr:state": "IL", "addr:street": "West Hubbard Street", "amenity": "restaurant", "name": "Art Of Dosa", "phone": "+1-312-899-6238"}}, {"type": "node", "id": 6265172903, "lat": 41.8963785, "lon": -87.6644256, "tags": {"addr:city": "Chicago", "addr:housenumber": "1450", "addr:postcode": "60654", "addr:state": "IL", "addr:street": "North Greenview Avenue", "amenity": "restaurant", "cuisine": "spanish;tapas;small_plates", "name": "Bar Biscay", "phone": "+1-312-455-8900", "website": "https://www.barbiscay.com"}}, {"type": "node", "id": 6265647624, "lat": 41.8963937, "lon": -87.6641441, "tags": {"addr:city": "Chicago", "addr:housenumber": "1444", "addr:postcode": "60642", "addr:state": "IL", "addr:street": "West Chicago Avenue", "amenity": "bar", "name": "Beauty Bar", "phone": "+1-312-226-8828", "website": "http://www.thebeautybar.com/"}}, {"type": "node", "id": 6269127897, "lat": 41.8956638, "lon": -87.680397, "tags": {"addr:city": "Chicago", "addr:housenumber": "2119", "addr:postcode": "60622", "addr:state": "IL", "addr:street": "West Chicago Avenue", "amenity": "bar", "name": "Brothers and Sisters", "phone": "+1-773-661-1599", "website": "https://www.brothersandsisters.fun/"}}, {"type": "node", "id": 6269627500, "lat": 41.8959189, "lon": -87.6638671, "tags": {"addr:city": "Chicago", "addr:housenumber": "1437", "addr:postcode": "60642", "addr:state": "IL", "addr:street": "West Chicago Avenue", "amenity": "restaurant", "name": "Cafe Central", "phone": "+1-312-243-6776"}}, {"type": "node", "id": 6273529503, "lat": 41.8852726, "lon": -87.6617947, "tags": {"addr:city": "Chicago", "addr:housenumber": "1375", "addr:postcode": "60607", "addr:state": "IL", "addr:street": "West Lake Street", "amenity": "restaurant", "name": "Bottom Lounge Restaurant & Patio", "phone": "+1-312-666-6775", "website": "https://bottomlounge.com/"}}, {"type": "node", "id": 6282893511, "lat": 41.8956943, "lon": -87.6759915, "tags": {"addr:city": "chicago", "addr:housenumber": "1935", "addr:postcode": "60622", "addr:state": "IL", "addr:street": "West Chicago Avenue", "amenity": "restaurant", "name": "Cleos", "phone": "+1-312-243-5600", "website": "http://www.cleospub.com/"}}, {"type": "node", "id": 6283222471, "lat": 41.9008216, "lon": -87.6627776, "tags": {"addr:city": "Chicago", "addr:housenumber": "1046", "addr:postcode": "60622", "addr:state": "IL", "addr:street": "North Milwaukee Avenue", "amenity": "cafe", "name": "Coffee On Milwaukee", "phone": "+1-773-276-3200"}}, {"type": "node", "id": 6285038717, "lat": 41.8854222, "lon": -87.6712386, "tags": {"addr:city": "Chicago", "addr:housenumber": "1748", "addr:postcode": "60612", "addr:state": "IL", "addr:street": "West Lake Street", "amenity": "restaurant", "name": "Eden", "phone": "+1-312-366-2294", "website": "https://edeninchicago.com/"}}, {"type": "node", "id": 6285894590, "lat": 41.8932185, "lon": -87.6676308, "tags": {"addr:city": "Chicago", "addr:housenumber": "624", "addr:postcode": "60622", "addr:state": "IL", "addr:street": "North Ashland Avenue", "amenity": "restaurant", "name": "El Potosino Grill", "phone": "+1-312-285-2711", "website": "http://orderelpotosinogrill.com/"}}, {"type": "node", "id": 6289954136, "lat": 41.8863189, "lon": -87.672127, "tags": {"addr:city": "Chicago", "addr:housenumber": "1800", "addr:postcode": "60612", "addr:state": "IL", "addr:street": "West Walnut Street", "amenity": "bar", "name": "Finch Beer Co", "phone": "+1-312-929-4773", "website": "https://www.finchbeer.com/"}}, {"type": "node", "id": 6290954452, "lat": 41.8963373, "lon": -87.6638657, "tags": {"addr:city": "Chicago", "addr:housenumber": "1434", "addr:postcode": "60642", "addr:state": "IL", "addr:street": "West Chicago Avenue", "amenity": "restaurant", "name": "Flo", "phone": "+1-312-243-0477", "website": "https://flochicago.com/"}}, {"type": "node", "id": 6291245713, "lat": 41.8975737, "lon": -87.6773583, "tags": {"addr:city": "Chicago", "addr:housenumber": "852", "addr:postcode": "60622", "addr:state": "IL", "addr:street": "North Damen Avenue", "amenity": "cafe", "name": "Francesca\u2019s Cafe", "phone": "+1-630-440-8306", "website": "http://francescasondamen.com/"}}, {"type": "node", "id": 6291791910, "lat": 41.897562, "lon": -87.6772721, "tags": {"addr:city": "Chicago", "addr:housenumber": "852", "addr:postcode": "60622", "addr:state": "IL", "addr:street": "North Damen Avenue", "amenity": "cafe", "name": "Gigi\u2019s Cafe & Juicery", "phone": "+1-312-675-8174", "website": "https://gigis-cafe-juicery.business.site/#details"}}, {"type": "node", "id": 6292138425, "lat": 41.8858542, "lon": -87.6712618, "tags": {"addr:city": "Chicago", "addr:housenumber": "221", "addr:postcode": "60612", "addr:state": "IL", "addr:street": "North Wood Street", "amenity": "bar", "name": "Great Central Brewing Company", "phone": "+1-855-464-4222", "website": "http://www.greatcentralbrewing.com/"}}, {"type": "node", "id": 6294267462, "lat": 41.8965552, "lon": -87.667071, "tags": {"addr:city": "Chicago", "addr:housenumber": "815", "addr:postcode": "60622", "addr:state": "IL", "addr:street": "North Ashland Avenue", "amenity": "cafe", "name": "Healthy and Simple", "phone": "+1-312-624-8971"}}, {"type": "node", "id": 6294395924, "lat": 41.895838, "lon": -87.6693982, "tags": {"addr:city": "Chicago", "addr:housenumber": "1651", "addr:postcode": "60622", "addr:state": "IL", "addr:street": "West Chicago Avenue", "amenity": "cafe", "name": "HERO Coffee Bar", "phone": "+1-312-285-2857", "website": "https://www.herocoffeebars.com/"}}, {"type": "node", "id": 6294445903, "lat": 41.8961863, "lon": -87.6761921, "tags": {"addr:city": "Chicago", "addr:housenumber": "1938", "addr:postcode": "60622", "addr:state": "IL", "addr:street": "West Chicago Avenue", "amenity": "bar", "name": "High Dive", "phone": "+1-773-235-3483", "website": "http://www.highdivechicago.com/"}}, {"type": "node", "id": 6294534344, "lat": 41.8923742, "lon": -87.6619407, "tags": {"addr:city": "Chicago", "addr:housenumber": "1363", "addr:postcode": "60642", "addr:state": "IL", "addr:street": "West Ohio Street", "amenity": "restaurant", "name": "Home Team Pizza", "phone": "+1-312-291-8666", "website": "http://www.hometeampizzachicago.us/"}}, {"type": "node", "id": 6294541117, "lat": 41.8962749, "lon": -87.6756534, "tags": {"addr:city": "Chicago", "addr:housenumber": "1924", "addr:postcode": "60622", "addr:state": "IL", "addr:street": "West Chicago Avenue", "amenity": "restaurant", "name": "Homestead on the Roof", "phone": "+1-773-332-2354", "website": "http://www.homesteadontheroof.com/"}}, {"type": "node", "id": 6298048500, "lat": 41.8875309, "lon": -87.6778969, "tags": {"addr:city": "Chicago", "addr:housenumber": "2023", "addr:postcode": "60612", "addr:state": "IL", "addr:street": "West Carroll Avenue", "amenity": "cafe", "name": "Ineeka", "phone": "+1-312-661-1550", "website": "http://www.treleela.com/"}}, {"type": "node", "id": 6298799785, "lat": 41.89088, "lon": -87.6583534, "tags": {"addr:city": "Chicago", "addr:housenumber": "1223", "addr:postcode": "60642", "addr:state": "IL", "addr:street": "West Grand Avenue", "amenity": "cafe", "name": "Sip Coffee House & Garden", "phone": "+1-312-563-1123", "website": "http://www.sipcoffeehouse.com/"}}, {"type": "node", "id": 6298813013, "lat": 41.895807, "lon": -87.6689374, "tags": {"addr:city": "Chicago", "addr:housenumber": "1641", "addr:postcode": "60622", "addr:state": "IL", "addr:street": "West Chicago Avenue", "amenity": "restaurant", "name": "Six06 Cafe Bar", "phone": "+1-312-929-4911", "website": "http://cafe606.com/"}}, {"type": "node", "id": 6298939468, "lat": 41.8957548, "lon": -87.6758258, "tags": {"addr:city": "chicago", "addr:housenumber": "1931", "addr:postcode": "60622", "addr:state": "IL", "addr:street": "West Chicago Avenue", "amenity": "restaurant", "name": "Soule", "phone": "+1-312-526-3825", "website": "https://www.soulechicago.com/"}}, {"type": "node", "id": 6300078345, "lat": 41.8870697, "lon": -87.6740659, "tags": {"addr:city": "Chicago", "addr:housenumber": "1850", "addr:postcode": "60612", "addr:state": "IL", "addr:street": "West Fulton Street", "amenity": "cafe", "name": "Intelligentsia Roasting Works & Offices", "phone": "+1-888-945-9786", "website": "https://www.intelligentsiacoffee.com/"}}, {"type": "node", "id": 6300667059, "lat": 41.8963169, "lon": -87.6647172, "tags": {"addr:city": "Chicago", "addr:housenumber": "1458", "addr:postcode": "60642", "addr:state": "IL", "addr:street": "West Chicago Avenue", "amenity": "cafe", "name": "Standing Passengers", "phone": "+1-312-374-3177", "website": "https://www.standingpassengers.com/"}}, {"type": "node", "id": 6300877131, "lat": 41.8956256, "lon": -87.6799662, "tags": {"addr:city": "Chicago", "addr:housenumber": "2109", "addr:postcode": "60622", "addr:state": "IL", "addr:street": "West Chicago Avenue", "amenity": "bar", "name": "The Rookery", "phone": "+1-773-772-0406", "website": "http://www.rookery.pub/"}}, {"type": "node", "id": 6301585470, "lat": 41.8989024, "lon": -87.6766499, "tags": {"addr:city": "Chicago", "addr:housenumber": "941", "addr:postcode": "60622", "addr:state": "IL", "addr:street": "North Damen Avenue", "amenity": "restaurant", "name": "Sabroso! Mexican Grill", "phone": "+1-773-253-5001", "website": "http://sabrosochicago.com/"}}, {"type": "node", "id": 6304001071, "lat": 41.8912668, "lon": -87.6618238, "tags": {"addr:city": "Chicago", "addr:housenumber": "1372", "addr:postcode": "60642", "addr:state": "IL", "addr:street": "West Grand Avenue", "amenity": "restaurant", "name": "Tempesta Market", "phone": "+1-312-929-2551", "website": "http://tempestamarket.com/"}}, {"type": "node", "id": 6304017578, "lat": 41.8989063, "lon": -87.6670205, "tags": {"addr:city": "Chicago", "addr:housenumber": "933", "addr:postcode": "60622", "addr:state": "IL", "addr:street": "North Ashland Avenue", "amenity": "restaurant", "cuisine": "american;american_new;new_american", "name": "Temporis", "opening_hours": "Tu-Sa 17:00-21:00", "phone": "+1-773-697-4961", "website": "https://www.temporischicago.com/"}}, {"type": "node", "id": 6307019781, "lat": 41.8913101, "lon": -87.6585687, "tags": {"addr:city": "Chicago", "addr:housenumber": "501", "addr:postcode": "60642", "addr:state": "IL", "addr:street": "North Ogden Avenue", "amenity": "restaurant", "name": "Twisted Spoke", "phone": "+1-312-666-1500", "website": "http://twistedspoke.com/"}}, {"type": "node", "id": 6315603271, "lat": 41.8932944, "lon": -87.6620632, "tags": {"addr:city": "Chicago", "addr:housenumber": "1367", "addr:postcode": "60642", "addr:state": "IL", "addr:street": "West Erie Street", "amenity": "bar", "name": "The Irish Nobleman", "phone": "+1-312-374-3487", "website": "http://www.irishnobleman.com/"}}, {"type": "node", "id": 6316808950, "lat": 41.8962538, "lon": -87.6754191, "tags": {"addr:city": "Chicago", "addr:housenumber": "1916", "addr:postcode": "60622", "addr:state": "IL", "addr:street": "West Chicago Avenue", "amenity": "restaurant", "name": "West Town Bakery & Diner", "phone": "+1-773-904-1414", "website": "https://www.westtownbakery.com/"}}, {"type": "node", "id": 6319238724, "lat": 41.8903498, "lon": -87.677052, "tags": {"addr:city": "Chicago", "addr:housenumber": "456", "addr:postcode": "60612", "addr:state": "IL", "addr:street": "North Damen Avenue", "amenity": "restaurant", "cuisine": "american", "name": "Lilly Bell's Diner"}}, {"type": "node", "id": 6319264224, "lat": 41.8991184, "lon": -87.666976, "tags": {"addr:city": "Chicago", "addr:housenumber": "939", "addr:postcode": "60622", "addr:state": "IL", "addr:street": "North Ashland Avenue", "amenity": "restaurant", "name": "Kimchi Pop", "phone": "+1-872-802-4424", "website": "https://www.kimchipopchicago.com/"}}, {"type": "node", "id": 6319897991, "lat": 41.8963535, "lon": -87.6639632, "tags": {"addr:city": "Chicago", "addr:housenumber": "1438", "addr:postcode": "60642", "addr:state": "IL", "addr:street": "West Chicago Avenue", "amenity": "restaurant", "name": "La Calavera Chicago", "phone": "+1-312-255-7925", "website": "http://www.calaverachicago.com/"}}, {"type": "node", "id": 6320612929, "lat": 41.8962815, "lon": -87.6678216, "tags": {"addr:city": "Chicago", "addr:housenumber": "1610", "addr:postcode": "60622", "addr:state": "IL", "addr:street": "West Chicago Avenue", "amenity": "bar", "name": "Loop Tavern", "phone": "+1-312-226-6740"}}, {"type": "node", "id": 6322126530, "lat": 41.8988016, "lon": -87.6767479, "tags": {"addr:city": "Chicago", "addr:housenumber": "937", "addr:postcode": "60622", "addr:state": "IL", "addr:street": "North Damen Avenue", "amenity": "restaurant", "name": "Tai Nang", "phone": "+1-773-666-5996"}}, {"type": "node", "id": 6323927179, "lat": 41.8991171, "lon": -87.6769007, "tags": {"addr:city": "Chicago", "addr:housenumber": "947", "addr:postcode": "60622", "addr:state": "IL", "addr:street": "North Damen Avenue", "amenity": "bar", "name": "Ola\u2019s Liquor", "phone": "+1-773-384-7250"}}, {"type": "node", "id": 6324088187, "lat": 41.8959969, "lon": -87.6621632, "tags": {"addr:city": "Chicago", "addr:housenumber": "1371", "addr:postcode": "60642", "addr:state": "IL", "addr:street": "West Chicago Avenue", "amenity": "restaurant", "name": "Opart Thai House", "phone": "+1-312-988-0986", "website": "https://www.opartthai.com"}}, {"type": "node", "id": 6386781829, "lat": 41.8910136, "lon": -87.6792392}, {"type": "node", "id": 6386781838, "lat": 41.8910189, "lon": -87.6789727}, {"type": "node", "id": 6386781854, "lat": 41.8908915, "lon": -87.6792348}, {"type": "node", "id": 6386781855, "lat": 41.8908967, "lon": -87.6789684}, {"type": "node", "id": 6394391045, "lat": 41.889422, "lon": -87.6667839, "tags": {"addr:city": "Chicago", "addr:housenumber": "417", "addr:postcode": "60622", "addr:state": "IL", "addr:street": "North Ashland Avenue", "amenity": "bar", "brewery": "yes", "description": "District Brew Yards is a taproom for three breweries: Burnt City Brewing, Bold Dog Beer Co., Around the Bend Beer Co. ", "name": "District Brew Yards"}}, {"type": "node", "id": 6397120472, "lat": 41.8963061, "lon": -87.6648107, "tags": {"addr:city": "Chicago", "addr:housenumber": "1460", "addr:postcode": "60642", "addr:state": "IL", "addr:street": "West Chicago Avenue", "amenity": "restaurant", "cuisine": "asian;japanese", "name": "Jeong", "opening_hours": "Tu-Sa 17:00-22:00", "phone": "+1-312-877-5016", "website": "http://jeongchicago.com"}}, {"type": "node", "id": 7598267988, "lat": 41.8962003, "lon": -87.6719856, "tags": {"addr:housenumber": "1760", "amenity": "restaurant", "name": "Koko's Mediterranean"}}, {"type": "node", "id": 7598304985, "lat": 41.8958747, "lon": -87.6667787, "tags": {"addr:housenumber": "1549", "amenity": "restaurant", "name": "Spicy Fingers Seafood Kitchen"}}, {"type": "way", "id": 209839358, "nodes": [2200064580, 2200065894, 2200065897, 2200065269, 2200065266, 2200064590, 2200064580], "tags": {"addr:housenumber": "1745", "addr:street": "West Chicago Avenue", "addr:street:name": "Chicago", "addr:street:prefix": "West", "addr:street:type": "Avenue", "amenity": "restaurant", "building": "yes", "building:levels": "1", "chicago:building_id": "340087", "cuisine": "mexican", "name": "El Taco Veloz"}}, {"type": "way", "id": 209839539, "nodes": [2200032209, 2200032617, 2200032621, 2200032211, 2200032209], "tags": {"addr:housenumber": "1800", "addr:street": "West Grand Avenue", "addr:street:name": "Grand", "addr:street:prefix": "West", "addr:street:type": "Avenue", "amenity": "restaurant", "building": "yes", "building:levels": "2", "chicago:building_id": "348688", "cuisine": "breakfast", "name": "Breakfast House"}}, {"type": "way", "id": 209841304, "nodes": [2200061284, 2200063479, 2200063472, 2200064294, 2200064291, 2200064702, 2200064728, 2200065237, 2200065283, 2200061557, 2200061528, 2200061318, 2200061284], "tags": {"addr:housenumber": "2119-2127", "addr:street": "West Chicago Avenue", "addr:street:name": "Chicago", "addr:street:prefix": "West", "addr:street:type": "Avenue", "amenity": "bar", "building": "yes", "building:levels": "3", "chicago:building_id": "340465"}}, {"type": "way", "id": 209846451, "nodes": [2200107680, 2200107795, 2200107958, 2200108058, 2200108076, 2200107714, 2200107680], "tags": {"addr:housenumber": "1035", "addr:street": "North Ashland Avenue", "addr:street:name": "Ashland", "addr:street:prefix": "North", "addr:street:type": "Avenue", "amenity": "restaurant", "building": "yes", "building:levels": "1", "chicago:building_id": "327552", "cuisine": "mexican", "name": "El Barco Mariscos"}}, {"type": "way", "id": 209846687, "nodes": [2200109452, 2200109752, 2200111113, 2200111013, 2200109452], "tags": {"addr:city": "Chicago", "addr:housenumber": "1072", "addr:postcode": "60642", "addr:state": "IL", "addr:street": "North Milwaukee Avenue", "addr:street:name": "Milwaukee", "addr:street:prefix": "North", "addr:street:type": "Avenue", "amenity": "restaurant", "building": "yes", "building:levels": "2", "chicago:building_id": "326171", "name": "The Frontier", "phone": "+1-773-772-4322", "website": "https://www.thefrontierchicago.com/", "wikidata": "Q16993845", "wikipedia": "en:Frontier (restaurant)"}}, {"type": "way", "id": 210269961, "nodes": [2203583502, 2203583715, 2203583724, 2203583591, 2203583587, 2203583552, 2203583549, 2203583453, 2203583448, 2203583502], "tags": {"addr:city": "Chicago", "addr:housenumber": "1321", "addr:postcode": "60642", "addr:street": "West Grand Avenue", "addr:street:name": "Grand", "addr:street:prefix": "West", "addr:street:type": "Avenue", "amenity": "restaurant", "building": "yes", "chicago:building_id": "348949", "cuisine": "pizza", "name": "Coalfire", "phone": "312.226.2625", "website": "http://coalfirechicago.com/"}}, {"type": "way", "id": 210270390, "nodes": [2203580582, 2203580748, 2203580750, 2203580583, 2203580582], "tags": {"addr:housenumber": "440", "addr:street": "North Racine Avenue", "addr:street:name": "Racine", "addr:street:prefix": "North", "addr:street:type": "Avenue", "amenity": "restaurant", "building": "yes", "chicago:building_id": "350062", "name": "Mart Anthony's"}}, {"type": "way", "id": 682002315, "nodes": [6386781829, 6386781838, 6386781855, 6386781854, 6386781829], "tags": {"addr:city": "Chicago", "addr:housenumber": "2054", "addr:postcode": "60612", "addr:state": "IL", "addr:street": "West Grand Avenue", "amenity": "restaurant", "building": "yes", "name": "Upton\u2019s Breakroom", "phone": "+1-312-666-7838", "website": "http://www.uptonsnaturals.com/breakroom"}}]}