{"version": 0.6, "generator": "Overpass API 0.7.56.1004 6cd3eaec", "osm3s": {"timestamp_osm_base": "2020-07-22T04:41:02Z", "copyright": "The data included in this document is from www.openstreetmap.org. The data is made available under ODbL."}, "elements": [{"type": "node", "id": 2200109452, "lat": 41.9010733, "lon": -87.6636682}, {"type": "node", "id": 2200109752, "lat": 41.9011176, "lon": -87.6637375}, {"type": "node", "id": 2200111013, "lat": 41.9012804, "lon": -87.6634272}, {"type": "node", "id": 2200111113, "lat": 41.9013247, "lon": -87.6634966}, {"type": "node", "id": 2203580582, "lat": 41.8900939, "lon": -87.6578717}, {"type": "node", "id": 2203580583, "lat": 41.8900957, "lon": -87.6574769}, {"type": "node", "id": 2203580648, "lat": 41.8901189, "lon": -87.6551243}, {"type": "node", "id": 2203580662, "lat": 41.8901248, "lon": -87.6547276}, {"type": "node", "id": 2203580748, "lat": 41.8901667, "lon": -87.6578728}, {"type": "node", "id": 2203580750, "lat": 41.8901685, "lon": -87.6574779}, {"type": "node", "id": 2203580768, "lat": 41.8901779, "lon": -87.6551273}, {"type": "node", "id": 2203580772, "lat": 41.8901838, "lon": -87.6547288}, {"type": "node", "id": 2203583448, "lat": 41.8907222, "lon": -87.6599457}, {"type": "node", "id": 2203583453, "lat": 41.890723, "lon": -87.6598557}, {"type": "node", "id": 2203583502, "lat": 41.8907441, "lon": -87.6599454}, {"type": "node", "id": 2203583549, "lat": 41.8908013, "lon": -87.6598567}, {"type": "node", "id": 2203583552, "lat": 41.8908096, "lon": -87.6598731}, {"type": "node", "id": 2203583587, "lat": 41.8908631, "lon": -87.6598726}, {"type": "node", "id": 2203583591, "lat": 41.8908712, "lon": -87.6598596}, {"type": "node", "id": 2203583715, "lat": 41.8909404, "lon": -87.6599489}, {"type": "node", "id": 2203583724, "lat": 41.8909426, "lon": -87.6598607}, {"type": "node", "id": 2203936165, "lat": 41.8912981, "lon": -87.6472549}, {"type": "node", "id": 2203936451, "lat": 41.8914248, "lon": -87.6472556}, {"type": "node", "id": 2870453012, "lat": 41.8970504, "lon": -87.6433416, "tags": {"addr:city": "Chicago", "addr:housenumber": "600", "addr:postcode": "60654", "addr:street": "West Chicago Avenue", "amenity": "restaurant", "cuisine": "Bar_Food", "name": "Motel Bar", "smoking": "no"}}, {"type": "node", "id": 2870454030, "lat": 41.897217, "lon": -87.6433446, "tags": {"addr:city": "Chicago", "addr:housenumber": "600", "addr:postcode": "60654", "addr:street": "West Chicago Avenue", "amenity": "restaurant", "cuisine": "sandwich", "name": "Snarf's"}}, {"type": "node", "id": 2870517023, "lat": 41.8992975, "lon": -87.6428845, "tags": {"amenity": "restaurant", "cuisine": "sandwich", "name": "Goddess & the Grocer"}}, {"type": "node", "id": 3094904880, "lat": 41.8912975, "lon": -87.6474278}, {"type": "node", "id": 3094904881, "lat": 41.8915099, "lon": -87.6472562}, {"type": "node", "id": 3094904882, "lat": 41.8915093, "lon": -87.6474291}, {"type": "node", "id": 3575084296, "lat": 41.8963372, "lon": -87.6629342, "tags": {"addr:city": "Chicago", "addr:housenumber": "1412", "addr:postcode": "60622", "addr:state": "IL", "addr:street": "West Chicago Avenue", "amenity": "bar", "name": "Lush Wine & Spirits", "phone": "+1-312-666-6900", "website": "http://www.luswineandspirits.com/"}}, {"type": "node", "id": 3575231494, "lat": 41.8910574, "lon": -87.6471083, "tags": {"addr:city": "Chicago", "addr:housenumber": "495", "addr:postcode": "60654", "addr:state": "IL", "addr:street": "North Milwaukee Avenue", "amenity": "bar", "name": "Emmit's Irish Pub", "opening_hours": "Mo-Th 16:00-02:00; Fr 15:00-02:00; Sa 11:00-03:00; Su 11:00-02:00", "phone": "+1-312-563-9631", "website": "https://www.emmits.com/"}}, {"type": "node", "id": 3575231495, "lat": 41.8910436, "lon": -87.6470004, "tags": {"addr:city": "Chicago", "addr:housenumber": "491", "addr:postcode": "60654", "addr:state": "IL", "addr:street": "North Milwaukee Avenue", "amenity": "bar", "name": "Richard's Bar", "opening_hours": "Mo-Fr 08:00-02:00; Sa 09:00-03:00; Su 12:00-02:00", "phone": "+1-312-733-2251"}}, {"type": "node", "id": 3575231496, "lat": 41.8910439, "lon": -87.6468381, "tags": {"addr:city": "Chicago", "addr:housenumber": "721", "addr:postcode": "60654", "addr:state": "IL", "addr:street": "West Grand Avenue", "amenity": "restaurant", "cuisine": "italian", "name": "La Scarola", "opening_hours": "Mo-Fr 17:00-23:00; Sa 16:00-23:00; Su 16:00-22:00", "phone": "+1-312-243-1740", "website": "http://lascarola.com/"}}, {"type": "node", "id": 3575231700, "lat": 41.8896009, "lon": -87.6448653, "tags": {"addr:city": "Chicago", "addr:housenumber": "415", "addr:postcode": "60654", "addr:state": "IL", "addr:street": "North Milwaukee Avenue", "amenity": "bar", "name": "The Swill Inn"}}, {"type": "node", "id": 3618178425, "lat": 41.8961397, "lon": -87.6554969, "tags": {"addr:city": "Chicago", "addr:housenumber": "1105", "addr:postcode": "60622", "addr:state": "IL", "addr:street": "West Chicago Avenue", "amenity": "cafe", "name": "Big Shoulders Coffee", "opening_hours": "Mo-Fr 06:00-19:00; Sa-Su 07:30-17:00"}}, {"type": "node", "id": 4567406790, "lat": 41.8962701, "lon": -87.6482164, "tags": {"addr:city": "Chicago", "addr:housenumber": "811", "addr:postcode": "60642", "addr:state": "IL", "addr:street": "West Chicago Avenue", "amenity": "cafe", "name": "Cafe Blue", "phone": "+1-312-763-2870", "website": "http://www.cafe.blue/"}}, {"type": "node", "id": 4629759398, "lat": 41.9025377, "lon": -87.6413921, "tags": {"amenity": "cafe"}}, {"type": "node", "id": 4697798553, "lat": 41.894242, "lon": -87.659813, "tags": {"addr:city": "Chicago", "addr:housenumber": "1303", "addr:postcode": "60642", "addr:state": "IL", "addr:street": "West Huron Street", "amenity": "restaurant", "cuisine": "mexican", "name": "Taqueria El Jardin", "opening_hours": "09:00-19:30", "outdoor_seating": "no", "smoking": "no", "takeaway": "yes"}}, {"type": "node", "id": 4888074922, "lat": 41.8891109, "lon": -87.6520123, "tags": {"addr:city": "Chicago", "addr:housenumber": "401", "addr:postcode": "60607", "addr:state": "IL", "addr:street": "North Morgan Street", "amenity": "restaurant", "delivery": "no", "description": "The Brass Monkey is a private event venue.", "name": "The Brass Monkey", "outdoor_seating": "no", "phone": "+1-312-763-3316", "takeaway": "no"}}, {"type": "node", "id": 5299997866, "lat": 41.896462, "lon": -87.6550805, "tags": {"addr:city": "Chicago", "addr:housenumber": "1062", "addr:postcode": "60642", "addr:state": "IL", "addr:street": "West Chicago Avenue", "amenity": "restaurant", "name": "Windy City Cafe", "phone": "+1-312-492-8010", "website": "https://windycity-cafe.com/"}}, {"type": "node", "id": 5398863224, "lat": 41.8913731, "lon": -87.648171, "tags": {"addr:city": "Chicago", "addr:housenumber": "506", "addr:postcode": "60642", "addr:state": "IL", "addr:street": "North Milwaukee Avenue", "amenity": "cafe", "cuisine": "coffee_shop", "name": "Starbucks"}}, {"type": "node", "id": 5460661639, "lat": 41.8909236, "lon": -87.6474629, "tags": {"addr:city": "Chicago", "addr:housenumber": "494", "addr:postcode": "60654", "addr:state": "IL", "addr:street": "North Milwaukee Avenue", "amenity": "restaurant", "cuisine": "american;burger", "name": "Maillard Tavern", "opening_hours": "Su-Th 11:00-23:00; Fr-Sa 11:00-01:00", "phone": "+1-312-766-2727", "website": "https://www.maillardtavern.com/"}}, {"type": "node", "id": 5460671009, "lat": 41.8905209, "lon": -87.6591892, "tags": {"addr:city": "Chicago", "addr:housenumber": "459", "addr:postcode": "60642", "addr:state": "IL", "addr:street": "North Ogden Avenue", "amenity": "bar", "name": "G & O", "opening_hours": "Mo-Fr 16:00-02:00; Sa 10:00-03:00; Su 10:00-00:00", "phone": "+1-312-888-3367", "website": "http://grandandogden.com/"}}, {"type": "node", "id": 5460708812, "lat": 41.8908598, "lon": -87.647944, "tags": {"addr:city": "Chicago", "addr:housenumber": "464", "addr:postcode": "60642", "addr:state": "IL", "addr:street": "North Halsted Street", "amenity": "restaurant", "cuisine": "italian", "name": "Piccolo Sogno", "opening_hours": "Mo-Th 11:30-14:30, 17:30-22:30; Fr 11:30-14:30, 17:00-23:00; Sa 17:00-23:00; Su 17:00-22:00", "phone": "+1-312-421-0077", "website": "https://www.piccolosognorestaurant.com/"}}, {"type": "node", "id": 5460735957, "lat": 41.8897346, "lon": -87.6620754, "tags": {"addr:city": "Chicago", "addr:housenumber": "1381", "addr:postcode": "60642", "addr:state": "IL", "addr:street": "West Hubbard Street", "amenity": "restaurant", "cuisine": "american;breakfast", "name": "The Breakfast Club & Grill", "phone": "+1-312-666-2372", "website": "https://thebreakfastclubchicago.com/"}}, {"type": "node", "id": 5460758421, "lat": 41.8912522, "lon": -87.6559754, "tags": {"addr:city": "Chicago", "addr:housenumber": "1132", "addr:postcode": "60642", "addr:state": "IL", "addr:street": "West Grand Avenue", "amenity": "restaurant", "cuisine": "american", "name": "TWO Restaurant", "opening_hours": "Tu-Th 17:00-22:00; Fr-Sa 17:00-23:00; Su 17:00-21:00", "phone": "+1-312-624-8363", "website": "http://113two.com/"}}, {"type": "node", "id": 5916848688, "lat": 41.8923569, "lon": -87.6620789, "tags": {"addr:city": "Chicago", "addr:housenumber": "543", "addr:postcode": "60642", "addr:state": "IL", "addr:street": "North Noble Street", "amenity": "restaurant", "name": "Nini's Deli", "phone": "+1-312-243-9822", "website": "https://ninisdeli.com/"}}, {"type": "node", "id": 6146160785, "lat": 41.8893525, "lon": -87.6445067, "tags": {"addr:city": "Chicago", "addr:housenumber": "401", "addr:postcode": "60654", "addr:state": "IL", "addr:street": "North Milwaukee Avenue", "amenity": "restaurant", "cuisine": "korean", "name": "San Soo Korean BBQ"}}, {"type": "node", "id": 6146181554, "lat": 41.8903215, "lon": -87.6459897, "tags": {"addr:city": "Chicago", "addr:housenumber": "455", "addr:postcode": "60610", "addr:state": "IL", "addr:street": "North Milwaukee Avenue", "amenity": "restaurant", "cuisine": "fried_chicken", "name": "The Roost Carolina Kitchen", "phone": "+1-312-877-5738", "website": "https://www.theroostcarolinakitchen.com/"}}, {"type": "node", "id": 6250223840, "lat": 41.8901294, "lon": -87.6595267, "tags": {"addr:city": "Chicago", "addr:housenumber": "439", "addr:postcode": "60642", "addr:state": "IL", "addr:street": "North Ogden Avenue", "amenity": "bar", "name": "439 Nightclub"}}, {"type": "node", "id": 6262038806, "lat": 41.9008233, "lon": -87.6627954, "tags": {"addr:city": "Chicago", "addr:housenumber": "1046", "addr:postcode": "60622", "addr:state": "IL", "addr:street": "North Milwaukee Avenue", "amenity": "cafe", "name": "Arabia Caf\u00e9 & Hookah Lounge", "phone": "+1-773-276-2345"}}, {"type": "node", "id": 6265172903, "lat": 41.8963785, "lon": -87.6644256, "tags": {"addr:city": "Chicago", "addr:housenumber": "1450", "addr:postcode": "60654", "addr:state": "IL", "addr:street": "North Greenview Avenue", "amenity": "restaurant", "cuisine": "spanish;tapas;small_plates", "name": "Bar Biscay", "phone": "+1-312-455-8900", "website": "https://www.barbiscay.com"}}, {"type": "node", "id": 6265647624, "lat": 41.8963937, "lon": -87.6641441, "tags": {"addr:city": "Chicago", "addr:housenumber": "1444", "addr:postcode": "60642", "addr:state": "IL", "addr:street": "West Chicago Avenue", "amenity": "bar", "name": "Beauty Bar", "phone": "+1-312-226-8828", "website": "http://www.thebeautybar.com/"}}, {"type": "node", "id": 6269384932, "lat": 41.8909218, "lon": -87.6561974, "tags": {"addr:city": "Chicago", "addr:housenumber": "1139", "addr:postcode": "60642", "addr:state": "IL", "addr:street": "West Grand Avenue", "amenity": "restaurant", "name": "Butterfly Sushi Bar & Thai Cuisine", "phone": "+1-312- 563-5555", "website": "http://www.butterflysushi2go.com/"}}, {"type": "node", "id": 6269627500, "lat": 41.8959189, "lon": -87.6638671, "tags": {"addr:city": "Chicago", "addr:housenumber": "1437", "addr:postcode": "60642", "addr:state": "IL", "addr:street": "West Chicago Avenue", "amenity": "restaurant", "name": "Cafe Central", "phone": "+1-312-243-6776"}}, {"type": "node", "id": 6281910607, "lat": 41.8929378, "lon": -87.6416278, "tags": {"addr:city": "Chicago", "addr:housenumber": "600", "addr:postcode": "60610", "addr:state": "IL", "addr:street": "North Kingsbury Street", "amenity": "cafe", "name": "Caribou Coffee Store", "outdoor_seating": "yes", "phone": "+1-312-335-0576"}}, {"type": "node", "id": 6282897113, "lat": 41.8913482, "lon": -87.6468352, "tags": {"addr:city": "Chicago", "addr:housenumber": "722", "addr:postcode": "60654", "addr:state": "IL", "addr:street": "West Grand Avenue", "amenity": "bar", "name": "Clover", "phone": "+1-312-344-1934", "website": "http://cloverchicago.com/"}}, {"type": "node", "id": 6283222471, "lat": 41.9008216, "lon": -87.6627776, "tags": {"addr:city": "Chicago", "addr:housenumber": "1046", "addr:postcode": "60622", "addr:state": "IL", "addr:street": "North Milwaukee Avenue", "amenity": "cafe", "name": "Coffee On Milwaukee", "phone": "+1-773-276-3200"}}, {"type": "node", "id": 6286791027, "lat": 41.9032233, "lon": -87.6576052, "tags": {"addr:city": "Chicago", "addr:housenumber": "1777", "addr:postcode": "60642", "addr:state": "IL", "addr:street": "North Elston Avenue", "amenity": "bar", "name": "Estate", "phone": "+1-312-523-4296", "website": "http://estateultrabar.com"}}, {"type": "node", "id": 6290954452, "lat": 41.8963373, "lon": -87.6638657, "tags": {"addr:city": "Chicago", "addr:housenumber": "1434", "addr:postcode": "60642", "addr:state": "IL", "addr:street": "West Chicago Avenue", "amenity": "restaurant", "name": "Flo", "phone": "+1-312-243-0477", "website": "https://flochicago.com/"}}, {"type": "node", "id": 6292027817, "lat": 41.903415, "lon": -87.652989, "tags": {"addr:city": "Chicago", "addr:housenumber": "1011", "addr:postcode": "60642", "addr:state": "IL", "addr:street": "West Division Street", "amenity": "restaurant", "name": "Goose Island Shrimp House Chicago", "phone": "+1-312-642-3640", "website": "http://gooseislandshrimphouse.com/"}}, {"type": "node", "id": 6294534344, "lat": 41.8923742, "lon": -87.6619407, "tags": {"addr:city": "Chicago", "addr:housenumber": "1363", "addr:postcode": "60642", "addr:state": "IL", "addr:street": "West Ohio Street", "amenity": "restaurant", "name": "Home Team Pizza", "phone": "+1-312-291-8666", "website": "http://www.hometeampizzachicago.us/"}}, {"type": "node", "id": 6297808319, "lat": 41.8918097, "lon": -87.6474344, "tags": {"addr:city": "Chicago", "addr:housenumber": "517", "addr:postcode": "60642", "addr:state": "IL", "addr:street": "North Halsted Street", "amenity": "cafe", "name": "Iguana Caf\u00e9", "phone": "+1-312432-0663", "website": "http://www.iguanacafe.com/"}}, {"type": "node", "id": 6298375107, "lat": 41.8895868, "lon": -87.6507598, "tags": {"addr:city": "Chicago", "addr:housenumber": "415", "addr:postcode": "60642", "addr:state": "IL", "addr:street": "North Sangamon Street", "amenity": "bar", "name": "Illuminated Brew Works", "website": "http://www.ibw-chicago.com/"}}, {"type": "node", "id": 6298799785, "lat": 41.89088, "lon": -87.6583534, "tags": {"addr:city": "Chicago", "addr:housenumber": "1223", "addr:postcode": "60642", "addr:state": "IL", "addr:street": "West Grand Avenue", "amenity": "cafe", "name": "Sip Coffee House & Garden", "phone": "+1-312-563-1123", "website": "http://www.sipcoffeehouse.com/"}}, {"type": "node", "id": 6299500544, "lat": 41.8928813, "lon": -87.6414942, "tags": {"addr:city": "Chicago", "addr:housenumber": "600", "addr:postcode": "60654", "addr:state": "IL", "addr:street": "North Kingsbury Street", "amenity": "cafe", "brand": "Peet's Coffee", "brand:wikidata": "Q1094101", "brand:wikipedia": "en:Peet's Coffee", "cuisine": "coffee_shop", "name": "Peet's Coffee", "phone": "+1-312-489-5061", "takeaway": "yes", "website": "https://www.peets.com/"}}, {"type": "node", "id": 6300667059, "lat": 41.8963169, "lon": -87.6647172, "tags": {"addr:city": "Chicago", "addr:housenumber": "1458", "addr:postcode": "60642", "addr:state": "IL", "addr:street": "West Chicago Avenue", "amenity": "cafe", "name": "Standing Passengers", "phone": "+1-312-374-3177", "website": "https://www.standingpassengers.com/"}}, {"type": "node", "id": 6304001071, "lat": 41.8912668, "lon": -87.6618238, "tags": {"addr:city": "Chicago", "addr:housenumber": "1372", "addr:postcode": "60642", "addr:state": "IL", "addr:street": "West Grand Avenue", "amenity": "restaurant", "name": "Tempesta Market", "phone": "+1-312-929-2551", "website": "http://tempestamarket.com/"}}, {"type": "node", "id": 6307019781, "lat": 41.8913101, "lon": -87.6585687, "tags": {"addr:city": "Chicago", "addr:housenumber": "501", "addr:postcode": "60642", "addr:state": "IL", "addr:street": "North Ogden Avenue", "amenity": "restaurant", "name": "Twisted Spoke", "phone": "+1-312-666-1500", "website": "http://twistedspoke.com/"}}, {"type": "node", "id": 6315186963, "lat": 41.8989749, "lon": -87.6490724, "tags": {"addr:city": "Chicago", "addr:housenumber": "900", "addr:postcode": "60642", "addr:state": "IL", "addr:street": "North Branch Street", "amenity": "cafe", "name": "The Daily Grind", "phone": "+1-312-752-2000"}}, {"type": "node", "id": 6315188078, "lat": 41.8913788, "lon": -87.647221, "tags": {"addr:city": "Chicago", "addr:housenumber": "730", "addr:postcode": "60654", "addr:state": "IL", "addr:street": "West Grand Avenue", "amenity": "restaurant", "name": "The Dawson", "phone": "+1-312-243-8955", "website": "https://the-dawson.com/"}}, {"type": "node", "id": 6315603271, "lat": 41.8932944, "lon": -87.6620632, "tags": {"addr:city": "Chicago", "addr:housenumber": "1367", "addr:postcode": "60642", "addr:state": "IL", "addr:street": "West Erie Street", "amenity": "bar", "name": "The Irish Nobleman", "phone": "+1-312-374-3487", "website": "http://www.irishnobleman.com/"}}, {"type": "node", "id": 6315665345, "lat": 41.8957112, "lon": -87.6548491, "tags": {"addr:city": "Chicago", "addr:housenumber": "770", "addr:postcode": "60642", "addr:state": "IL", "addr:street": "North Milwaukee Avenue", "amenity": "bar", "name": "The Matchbox", "phone": "+1-312-666-9292"}}, {"type": "node", "id": 6319897991, "lat": 41.8963535, "lon": -87.6639632, "tags": {"addr:city": "Chicago", "addr:housenumber": "1438", "addr:postcode": "60642", "addr:state": "IL", "addr:street": "West Chicago Avenue", "amenity": "restaurant", "name": "La Calavera Chicago", "phone": "+1-312-255-7925", "website": "http://www.calaverachicago.com/"}}, {"type": "node", "id": 6321398186, "lat": 41.8909316, "lon": -87.6474389, "tags": {"addr:city": "Chicago", "addr:housenumber": "494", "addr:postcode": "60654", "addr:state": "IL", "addr:street": "North Milwaukee Avenue", "amenity": "bar", "name": "Maillard Tavern", "phone": "+1-312-766-2727", "website": "https://www.maillardtavern.com/"}}, {"type": "node", "id": 6322560906, "lat": 41.8985537, "lon": -87.6427142, "tags": {"addr:city": "Chicago", "addr:housenumber": "869", "addr:postcode": "60610", "addr:state": "IL", "addr:street": "North Larrabee Street", "amenity": "restaurant", "name": "Texican", "phone": "+1-312-877-5441", "website": "https://www.texican-chicago.com/"}}, {"type": "node", "id": 6322760739, "lat": 41.9012153, "lon": -87.6476574, "tags": {"addr:city": "Chicago", "addr:housenumber": "1059", "addr:postcode": "60642", "addr:state": "IL", "addr:street": "North Halsted Street", "amenity": "restaurant", "name": "Mod Mex & Mod Mix With Rick Bayless"}}, {"type": "node", "id": 6323827056, "lat": 41.8913263, "lon": -87.6554785, "tags": {"addr:city": "Chicago", "addr:housenumber": "1118", "addr:postcode": "60642", "addr:state": "IL", "addr:street": "West Grand Avenue", "amenity": "restaurant", "name": "Oggi Trattoria", "phone": "+1-312-733-0442", "website": "http://www.oggitrattoria.org/"}}, {"type": "node", "id": 6324088187, "lat": 41.8959969, "lon": -87.6621632, "tags": {"addr:city": "Chicago", "addr:housenumber": "1371", "addr:postcode": "60642", "addr:state": "IL", "addr:street": "West Chicago Avenue", "amenity": "restaurant", "name": "Opart Thai House", "phone": "+1-312-988-0986", "website": "https://www.opartthai.com"}}, {"type": "node", "id": 6397120472, "lat": 41.8963061, "lon": -87.6648107, "tags": {"addr:city": "Chicago", "addr:housenumber": "1460", "addr:postcode": "60642", "addr:state": "IL", "addr:street": "West Chicago Avenue", "amenity": "restaurant", "cuisine": "asian;japanese", "name": "Jeong", "opening_hours": "Tu-Sa 17:00-22:00", "phone": "+1-312-877-5016", "website": "http://jeongchicago.com"}}, {"type": "node", "id": 6651956670, "lat": 41.8974765, "lon": -87.6433795, "tags": {"addr:city": "Chicago", "addr:housenumber": "600", "addr:postcode": "60654", "addr:state": "IL", "addr:street": "West Chicago Avenue", "amenity": "restaurant", "cuisine": "casual", "name": "Farmer's Fridge", "phone": "+1-312-229-0099", "website": "https://www.farmersfridge.com/"}}, {"type": "node", "id": 6936048967, "lat": 41.8892241, "lon": -87.6490881, "tags": {"addr:city": "Chicago", "addr:housenumber": "838", "addr:postcode": "60607", "addr:state": "IL", "addr:street": "West Kinzie Street", "amenity": "restaurant", "name": "Recess", "phone": "+1-312-801-1181", "website": "https://chicagoinrecess.com"}}, {"type": "node", "id": 7073555751, "lat": 41.8942118, "lon": -87.6525505, "tags": {"addr:city": "Chicago", "addr:housenumber": "694", "addr:postcode": "60642", "addr:state": "IL", "addr:street": "North Milwaukee Avenue", "amenity": "bar", "name": "The Dandy Crown", "phone": "+1-312-846-6420", "website": "http://thedandycrown.com"}}, {"type": "node", "id": 7259838185, "lat": 41.891969, "lon": -87.6490538, "tags": {"addr:housenumber": "522", "addr:street": "North Milwaukee Avenue", "amenity": "restaurant", "name": "Stax Cafe", "opening_hours": "Mo-Fr 07:00-15:00; Sa-Su 07:00-15:30"}}, {"type": "way", "id": 209846687, "nodes": [2200109452, 2200109752, 2200111113, 2200111013, 2200109452], "tags": {"addr:city": "Chicago", "addr:housenumber": "1072", "addr:postcode": "60642", "addr:state": "IL", "addr:street": "North Milwaukee Avenue", "addr:street:name": "Milwaukee", "addr:street:prefix": "North", "addr:street:type": "Avenue", "amenity": "restaurant", "building": "yes", "building:levels": "2", "chicago:building_id": "326171", "name": "The Frontier", "phone": "+1-773-772-4322", "website": "https://www.thefrontierchicago.com/", "wikidata": "Q16993845", "wikipedia": "en:Frontier (restaurant)"}}, {"type": "way", "id": 210269961, "nodes": [2203583502, 2203583715, 2203583724, 2203583591, 2203583587, 2203583552, 2203583549, 2203583453, 2203583448, 2203583502], "tags": {"addr:city": "Chicago", "addr:housenumber": "1321", "addr:postcode": "60642", "addr:street": "West Grand Avenue", "addr:street:name": "Grand", "addr:street:prefix": "West", "addr:street:type": "Avenue", "amenity": "restaurant", "building": "yes", "chicago:building_id": "348949", "cuisine": "pizza", "name": "Coalfire", "phone": "312.226.2625", "website": "http://coalfirechicago.com/"}}, {"type": "way", "id": 210270387, "nodes": [2203580648, 2203580768, 2203580772, 2203580662, 2203580648], "tags": {"addr:city": "Chicago", "addr:housenumber": "440", "addr:postcode": "60642", "addr:state": "IL", "addr:street": "North Aberdeen Street", "addr:street:name": "Aberdeen", "addr:street:prefix": "North", "addr:street:type": "Street", "amenity": "bar", "building": "yes", "chicago:building_id": "350040", "name": "The Aberdeen Tap", "opening_hours": "Su-Fr 11:00-02:00; Sa 11:00-03:00", "phone": "+1-312-929-3845", "website": "http://theaberdeentap.com/", "wheelchair": "limited"}}, {"type": "way", "id": 210270390, "nodes": [2203580582, 2203580748, 2203580750, 2203580583, 2203580582], "tags": {"addr:housenumber": "440", "addr:street": "North Racine Avenue", "addr:street:name": "Racine", "addr:street:prefix": "North", "addr:street:type": "Avenue", "amenity": "restaurant", "building": "yes", "chicago:building_id": "350062", "name": "Mart Anthony's"}}, {"type": "way", "id": 304920610, "nodes": [3094904880, 2203936165, 2203936451, 3094904881, 3094904882, 3094904880], "tags": {"amenity": "restaurant", "building": "yes", "name": "The Dawson"}}]}