{"version": 0.6, "generator": "Overpass API 0.7.56.1004 6cd3eaec", "osm3s": {"timestamp_osm_base": "2020-07-21T22:47:03Z", "copyright": "The data included in this document is from www.openstreetmap.org. The data is made available under ODbL."}, "elements": [{"type": "node", "id": 1745518192, "lat": 41.9679588, "lon": -87.7606604}, {"type": "node", "id": 1745518238, "lat": 41.9679805, "lon": -87.7606161}, {"type": "node", "id": 1745518263, "lat": 41.9680095, "lon": -87.7607055}, {"type": "node", "id": 1745518390, "lat": 41.9680661, "lon": -87.7604443}, {"type": "node", "id": 1745518690, "lat": 41.9681171, "lon": -87.7604917}, {"type": "node", "id": 2297677072, "lat": 41.9681478, "lon": -87.7439183, "tags": {"addr:city": "Chicago", "addr:housenumber": "4624", "addr:postcode": "60630", "addr:street": "West Lawrence Avenue", "amenity": "restaurant", "cuisine": "middle_eastern", "name": "Hala In", "phone": "773-930-3612", "website": "http://www.hala-in.com/"}}, {"type": "node", "id": 4186479471, "lat": 41.9680695, "lon": -87.7610792}, {"type": "node", "id": 4186479475, "lat": 41.9681174, "lon": -87.761121}, {"type": "node", "id": 4186479476, "lat": 41.9679337, "lon": -87.7613616}, {"type": "node", "id": 4186479477, "lat": 41.9679822, "lon": -87.7614041}, {"type": "node", "id": 4186821640, "lat": 41.969289, "lon": -87.7609822, "tags": {"addr:city": "Chicago", "addr:housenumber": "4859", "addr:postcode": "60630", "addr:state": "IL", "addr:street": "North Milwaukee Avenue", "amenity": "restaurant", "cuisine": "filipino", "name": "Kawayan"}}, {"type": "node", "id": 5623406086, "lat": 41.9692208, "lon": -87.7609158, "tags": {"addr:city": "Chicago", "addr:housenumber": "4855", "addr:postcode": "60630", "addr:state": "IL", "addr:street": "North Milwaukee Avenue", "amenity": "restaurant", "cuisine": "chinese", "delivery": "yes", "name": "Excelsior Garden", "outdoor_seating": "no", "takeaway": "yes"}}, {"type": "node", "id": 5769296254, "lat": 41.9751574, "lon": -87.7521628, "tags": {"addr:city": "Chicago", "addr:housenumber": "4945", "addr:postcode": "60630", "addr:state": "IL", "addr:street": "West Foster Avenue", "amenity": "bar", "name": "Rabbit\u2019s Bar and Grill", "outdoor_seating": "yes", "phone": "+1-773-736-5766", "website": "http://www.rabbitsbar.com/"}}, {"type": "node", "id": 6300634167, "lat": 41.9728492, "lon": -87.7454955, "tags": {"addr:city": "Chicago", "addr:housenumber": "5033", "addr:postcode": "60630", "addr:state": "IL", "addr:street": "North Elston Avenue", "amenity": "cafe", "name": "Red Ribbon", "phone": "+1-773-685-5888", "website": "http://redribbonbakeshop.us/"}}, {"type": "node", "id": 6301874985, "lat": 41.9708243, "lon": -87.7440371, "tags": {"addr:city": "Chicago", "addr:housenumber": "4953", "addr:postcode": "60630", "addr:state": "IL", "addr:street": "North Elston Avenue", "amenity": "bar", "name": "Sunnyday Tap", "phone": "+1-773-725-5080"}}, {"type": "node", "id": 6322982333, "lat": 41.9754335, "lon": -87.7522985, "tags": {"addr:city": "Chicago", "addr:housenumber": "5200", "addr:postcode": "60630", "addr:state": "IL", "addr:street": "North Elston Avenue", "amenity": "restaurant", "name": "Mother Cluckers Kitchen", "phone": "+1-773-685-4630", "website": "http://mothercluckerskitchen.com/"}}, {"type": "way", "id": 162704482, "nodes": [1745518263, 1745518690, 1745518390, 1745518238, 1745518192, 1745518263], "tags": {"addr:city": "Chicago", "addr:housenumber": "4801", "addr:postcode": "60630", "addr:state": "IL", "addr:street": "North Milwaukee Avenue", "addr:street:name": "Milwaukee", "addr:street:prefix": "North", "addr:street:type": "Avenue", "amenity": "cafe", "building": "yes", "building:levels": "1", "chicago:building_id": "844615", "cuisine": "coffee_shop", "name": "Costa Cafe"}}, {"type": "way", "id": 418199446, "nodes": [4186479475, 4186479471, 4186479476, 4186479477, 4186479475], "tags": {"addr:city": "Chicago", "addr:housenumber": "4808", "addr:postcode": "60630", "addr:state": "IL", "addr:street": "North Milwaukee Avenue", "amenity": "restaurant", "building": "yes", "cuisine": "mexican", "name": "Taqueria La Estrella"}}]}