{"version": 0.6, "generator": "Overpass API 0.7.56.1004 6cd3eaec", "osm3s": {"timestamp_osm_base": "2020-07-22T01:56:03Z", "copyright": "The data included in this document is from www.openstreetmap.org. The data is made available under ODbL."}, "elements": [{"type": "node", "id": 2211836322, "lat": 41.7657547, "lon": -87.585589}, {"type": "node", "id": 2211836325, "lat": 41.7657535, "lon": -87.5856846}, {"type": "node", "id": 2211836693, "lat": 41.7658228, "lon": -87.5855511}, {"type": "node", "id": 2211836706, "lat": 41.765825, "lon": -87.5855751}, {"type": "node", "id": 2211836916, "lat": 41.7659, "lon": -87.5855147}, {"type": "node", "id": 2211836918, "lat": 41.7658983, "lon": -87.5856894}, {"type": "node", "id": 3293336562, "lat": 41.7659637, "lon": -87.5777724, "tags": {"amenity": "restaurant", "cuisine": "pizza", "name": "Italian Fiesta"}}, {"type": "node", "id": 4439615719, "lat": 41.7667061, "lon": -87.5761044, "tags": {"amenity": "bar", "lgbtq": "primary", "name": "Jeffery Pub"}}, {"type": "node", "id": 5635711630, "lat": 41.7626616, "lon": -87.5767553, "tags": {"addr:housenumber": "1966", "addr:street": "East 73rd Street", "amenity": "restaurant", "cuisine": "vegetarian", "name": "Good Foods Vegan/Vegetarian Deli", "website": "https://www.facebook.com/pages/Good-Foods-VeganVegetarian-Deli/407099532698141"}}, {"type": "node", "id": 6154492739, "lat": 41.7588656, "lon": -87.5909705, "tags": {"addr:city": "Chicago", "addr:housenumber": "1358", "addr:postcode": "60619", "addr:state": "IL", "addr:street": "East 75th Street", "amenity": "restaurant", "name": "Chuckies Grill"}}, {"type": "node", "id": 6154498893, "lat": 41.7663374, "lon": -87.5779586, "tags": {"addr:city": "Chicago", "addr:housenumber": "1918", "addr:postcode": "60649", "addr:state": "IL", "addr:street": "East 71st Street", "amenity": "restaurant", "cuisine": "bbq", "name": "The Slab Bar-B-Que"}}, {"type": "node", "id": 6154498894, "lat": 41.7663445, "lon": -87.5781222, "tags": {"addr:city": "Chicago", "addr:housenumber": "1912", "addr:postcode": "60649", "addr:state": "IL", "addr:street": "East 71st Street", "amenity": "restaurant", "name": "Taste of Chicago"}}, {"type": "node", "id": 6283066010, "lat": 41.7589794, "lon": -87.5870686, "tags": {"addr:city": "Chicago", "addr:housenumber": "1530", "addr:postcode": "60619", "addr:state": "IL", "addr:street": "East 75th Street", "amenity": "bar", "name": "Club Escape", "phone": "+1-773-599-9372"}}, {"type": "node", "id": 6294310786, "lat": 41.7513951, "lon": -87.5789625, "tags": {"addr:city": "Chicago", "addr:housenumber": "1849", "addr:postcode": "60649", "addr:state": "IL", "addr:street": "East 79th Street", "amenity": "cafe", "name": "Heritage Cafe", "phone": "+1-773-530-0045", "website": "https://heritage1849.com/"}}, {"type": "node", "id": 6566849013, "lat": 41.7515441, "lon": -87.5950635, "tags": {"addr:city": "Chicago", "addr:housenumber": "1200", "addr:postcode": "60619", "addr:state": "IL", "addr:street": "East 79th Street", "amenity": "restaurant", "description": "The Woodlawn is a shared kitchen that also has temporary (popup) restaurants.", "name": "The Woodlawn", "phone": "+1-708-986-3008"}}, {"type": "way", "id": 211175584, "nodes": [2211836916, 2211836693, 2211836706, 2211836322, 2211836325, 2211836918, 2211836916], "tags": {"addr:city": "Chicago", "addr:housenumber": "7113", "addr:postcode": "60649", "addr:state": "IL", "addr:street": "South Stony Island Avenue", "addr:street:name": "Stony Island", "addr:street:prefix": "South", "addr:street:type": "Avenue", "amenity": "cafe", "brand": "Starbucks", "brand:wikidata": "Q37158", "brand:wikipedia": "en:Starbucks", "building": "retail", "chicago:building_id": "853372", "cuisine": "coffee_shop", "drive_through": "yes", "name": "Starbucks", "official_name": "Starbucks Coffee", "takeaway": "yes", "website": "https://www.starbucks.com/store/14053/"}}]}