{"version": 0.6, "generator": "Overpass API 0.7.56.3 eb200aeb", "osm3s": {"timestamp_osm_base": "2020-07-22T22:20:03Z", "copyright": "The data included in this document is from www.openstreetmap.org. The data is made available under ODbL."}, "elements": [{"type": "node", "id": 1575900981, "lat": 41.799602, "lon": -87.5945746}, {"type": "node", "id": 1655451070, "lat": 41.8000422, "lon": -87.59524, "tags": {"addr:housenumber": "1236", "addr:street": "East 53rd Street", "amenity": "restaurant", "cuisine": "italian", "name": "Leona's"}}, {"type": "node", "id": 1655576384, "lat": 41.7995902, "lon": -87.5944784}, {"type": "node", "id": 1655576411, "lat": 41.7996559, "lon": -87.5944804}, {"type": "node", "id": 1655576534, "lat": 41.7997437, "lon": -87.5944817}, {"type": "node", "id": 1655576543, "lat": 41.7997429, "lon": -87.5945752}, {"type": "node", "id": 1655576582, "lat": 41.7995891, "lon": -87.5945744}, {"type": "node", "id": 1888650523, "lat": 41.79522, "lon": -87.5969439, "tags": {"addr:city": "Chicago", "addr:housenumber": "1172", "addr:postcode": "60615", "addr:state": "IL", "addr:street": "East 55th Street", "amenity": "bar", "name": "Woodlawn Tap", "phone": "+1-773-643-5516"}}, {"type": "node", "id": 1888650528, "lat": 41.7952167, "lon": -87.5967215, "tags": {"addr:city": "Chicago", "addr:housenumber": "1174", "addr:postcode": "60615", "addr:state": "IL", "addr:street": "East 55th Street", "amenity": "cafe", "brand": "Starbucks", "brand:wikidata": "Q37158", "brand:wikipedia": "en:Starbucks", "cuisine": "coffee_shop", "name": "Starbucks", "official_name": "Starbucks Coffee", "takeaway": "yes", "wheelchair": "no"}}, {"type": "node", "id": 2530062637, "lat": 41.7952204, "lon": -87.5971259, "tags": {"addr:city": "Chicago", "addr:housenumber": "1162", "addr:state": "IL", "addr:street": "East 55th Street", "amenity": "restaurant", "cuisine": "kebab;middle_eastern", "name": "Nile Restaurant"}}, {"type": "node", "id": 4114593404, "lat": 41.7999422, "lon": -87.5960664, "tags": {"addr:city": "Chicago", "addr:housenumber": "1206", "addr:postcode": "60615", "addr:state": "IL", "addr:street": "East 53rd Street", "amenity": "restaurant", "cuisine": "middle_eastern", "name": "Cedars Mediterranean Kitchen"}}, {"type": "node", "id": 5045399746, "lat": 41.7952195, "lon": -87.5970509, "tags": {"addr:city": "Chicago", "addr:housenumber": "1164", "addr:postcode": "60615", "addr:street": "East 55th Street", "amenity": "restaurant", "cuisine": "asian;latin_american", "name": "Saucy Porka", "phone": "+1 773 891 0429"}}, {"type": "node", "id": 5526419551, "lat": 41.7948159, "lon": -87.6005655, "tags": {"addr:city": "Chicago", "addr:housenumber": "1055", "addr:postcode": "60637", "addr:state": "IL", "addr:street": "East 55th Street", "amenity": "bar", "leisure": "bowling_alley", "name": "Seven Ten Lanes"}}, {"type": "node", "id": 5526420067, "lat": 41.7958829, "lon": -87.5985012, "tags": {"amenity": "restaurant", "name": "LSTC Refectory"}}, {"type": "node", "id": 5526423170, "lat": 41.799339, "lon": -87.5948596, "tags": {"addr:housenumber": "1301", "addr:street": "East 53rd Street", "amenity": "restaurant", "cuisine": "bbq;fried_chicken", "name": "Budlong Hot Chicken"}}, {"type": "node", "id": 5674085876, "lat": 41.8098666, "lon": -87.5931455, "tags": {"addr:city": "Chicago", "addr:housenumber": "1358", "addr:postcode": "60653", "addr:street": "East 47th Street", "amenity": "restaurant", "brand": "The Original Pancake House", "brand:wikidata": "Q7755384", "brand:wikipedia": "en:The Original Pancake House", "cuisine": "breakfast;pancake", "name": "The Original Pancake House", "website": "https://www.ophchicagoland.com/hyde-park/"}}, {"type": "node", "id": 5773659979, "lat": 41.799642, "lon": -87.5943698, "tags": {"addr:city": "Chicago", "addr:housenumber": "1312", "addr:postcode": "60615", "addr:state": "IL", "addr:street": "East 53rd Street", "amenity": "restaurant", "cuisine": "pizza;italian;japanese;sandwich", "name": "Sitdown Cafe and Sushi Bar", "outdoor_seating": "yes"}}, {"type": "node", "id": 5773775704, "lat": 41.7948754, "lon": -87.5987636, "tags": {"addr:city": "Chicago", "addr:housenumber": "1125", "addr:postcode": "60637", "addr:state": "IL", "addr:street": "East 55th Street", "amenity": "restaurant", "cuisine": "pizza;italian", "name": "Nella Pizza e Pasta"}}, {"type": "node", "id": 5973273795, "lat": 41.7993786, "lon": -87.591926, "tags": {"addr:city": "Chicago", "addr:housenumber": "5300", "addr:postcode": "60615", "addr:state": "IL", "addr:street": "South Dorchester Avenue", "amenity": "restaurant", "cuisine": "mexican", "name": "Hyde Park Taco Station", "website": "http://hptacostation.com/"}}, {"type": "node", "id": 6282277094, "lat": 41.8099623, "lon": -87.5996723, "tags": {"addr:city": "Chicago", "addr:housenumber": "1060", "addr:postcode": "60653", "addr:state": "IL", "addr:street": "East 47th Street", "addr:unit": "FL 1", "amenity": "cafe", "name": "Carver 47 Cafe", "phone": "+1-773-285-1211", "website": "https://littleblackpearl.squarespace.com/carver-47/"}}, {"type": "node", "id": 6303886441, "lat": 41.7948785, "lon": -87.5989799, "tags": {"addr:city": "Chicago", "addr:housenumber": "1115", "addr:postcode": "60615", "addr:state": "IL", "addr:street": "East 55th Street", "amenity": "cafe", "name": "Te\u2019amo Boba Bar", "phone": "+1-773-947-6547", "website": "http://teamobobabar.com/"}}, {"type": "node", "id": 6314468408, "lat": 41.7996538, "lon": -87.5924057, "tags": {"addr:city": "Chicago", "addr:housenumber": "1368", "addr:postcode": "60615", "addr:state": "IL", "addr:street": "East 53rd Street", "amenity": "restaurant", "cuisine": "soul", "name": "The Soul Shack"}}, {"type": "node", "id": 6322586993, "lat": 41.7992767, "lon": -87.5915431, "tags": {"addr:city": "Chicago", "addr:housenumber": "1411", "addr:postcode": "60615", "addr:state": "IL", "addr:street": "East 53rd Street", "amenity": "bar", "name": "Mesler Kitchen | Bar | Lounge", "phone": "+1-773-289-1005", "website": "https://sophyhotel.com/mesler-kitchen"}}, {"type": "node", "id": 6632496503, "lat": 41.7948858, "lon": -87.5991911, "tags": {"addr:city": "Chicago", "addr:housenumber": "1105", "addr:postcode": "60637", "addr:state": "IL", "addr:street": "East 55th Street", "amenity": "cafe", "brand": "Insomnia", "brand:wikidata": "Q6038271", "brand:wikipedia": "en:Insomnia Coffee Company", "cuisine": "coffee_shop", "name": "Insomnia", "takeaway": "yes"}}, {"type": "node", "id": 6848141104, "lat": 41.7999965, "lon": -87.5965105, "tags": {"addr:city": "Chicago", "addr:housenumber": "5231", "addr:postcode": "60615", "addr:state": "IL", "addr:street": "South Woodlawn Avenue", "amenity": "restaurant", "cuisine": "chinese", "name": "Nicky's Chinese Food", "opening_hours": "Mo-Su 10:30-0:00", "phone": "773-324-5340"}}, {"type": "way", "id": 152775893, "nodes": [1655576543, 1655576534, 1655576411, 1655576384, 1655576582, 1575900981, 1655576543], "tags": {"addr:city": "Chicago", "addr:housenumber": "1310", "addr:postcode": "60615", "addr:state": "IL", "addr:street": "East 53rd Street", "amenity": "restaurant", "building": "yes", "capacity": "20", "cuisine": "mexican", "delivery": "no", "name": "Antoni 1 Grill & Catering", "takeaway": "yes"}}]}