{"version": 0.6, "generator": "Overpass API 0.7.56.3 eb200aeb", "osm3s": {"timestamp_osm_base": "2020-07-04T04:39:02Z", "copyright": "The data included in this document is from www.openstreetmap.org. The data is made available under ODbL."}, "elements": [{"type": "node", "id": 2990179090, "lat": 42.010791, "lon": -87.67421, "tags": {"amenity": "restaurant", "cuisine": "ice_cream", "name": "Something North"}}, {"type": "node", "id": 3226937301, "lat": 42.0084448, "lon": -87.6899119, "tags": {"addr:city": "Chicago", "addr:housenumber": "6977", "addr:postcode": "60645", "addr:state": "IL", "addr:street": "North Western Avenue", "amenity": "restaurant", "name": "Mike's Place"}}, {"type": "node", "id": 4069098504, "lat": 42.0124817, "lon": -87.6744293, "tags": {"addr:housenumber": "7137", "addr:street": "North Clark Street", "amenity": "restaurant", "contact:phone": "773-961-7676", "name": "Markello's Dining Restaurant", "website": "http://markellosonline.com/"}}, {"type": "node", "id": 6298772685, "lat": 42.0099898, "lon": -87.6745597, "tags": {"addr:city": "Chicago", "addr:housenumber": "7030", "addr:postcode": "60626", "addr:state": "IL", "addr:street": "North Clark Street", "amenity": "bar", "name": "Silvana Bar", "phone": "+1-773-465-8590"}}, {"type": "node", "id": 6300979402, "lat": 42.0116351, "lon": -87.6899226, "tags": {"addr:city": "Chicago", "addr:housenumber": "7121", "addr:postcode": "60645", "addr:state": "IL", "addr:street": "North Western Avenue", "amenity": "bar", "name": "Ricky G\u2019s", "phone": "+1-773-764-0322"}}, {"type": "node", "id": 6412790908, "lat": 42.0097903, "lon": -87.6744103, "tags": {"addr:city": "Chicago", "addr:housenumber": "7024", "addr:postcode": "60626", "addr:state": "IL", "addr:street": "North Clark Street", "amenity": "restaurant", "cuisine": "mexican", "name": "Tamales Lo Mejor De Guerrero", "opening_hours": "Tu-Su 05:00-20:00", "phone": "+1-773-338-6450"}}, {"type": "node", "id": 6412790976, "lat": 42.0099178, "lon": -87.6739865, "tags": {"addr:city": "Chicago", "addr:housenumber": "7027", "addr:postcode": "60626", "addr:state": "IL", "addr:street": "North Clark Street", "amenity": "restaurant", "cuisine": "mexican", "name": "El Sabor Pobloano", "opening_hours": "Su-Mo 08:00-21:00; We-Th 08:00-21:00; Fr-Sa 08:00-22:00"}}, {"type": "node", "id": 6412792357, "lat": 42.0097145, "lon": -87.6744344, "tags": {"addr:city": "Chicago", "addr:housenumber": "7022", "addr:postcode": "60626", "addr:state": "IL", "addr:street": "North Clark Street", "amenity": "restaurant", "cuisine": "mexican", "name": "La Choza Mexican Grill", "phone": "+1-773-465-2162", "website": "Su-Th 10:00-00:00;Fr-Sa 10:00-02:00"}}, {"type": "node", "id": 6412795318, "lat": 42.0096687, "lon": -87.6739181, "tags": {"addr:city": "Chicago", "addr:housenumber": "7021", "addr:postcode": "60626", "addr:state": "IL", "addr:street": "North Clark Street", "amenity": "restaurant", "cuisine": "mexican", "name": "Birrier\u00eda Y Carnitas El Gallito", "opening_hours": "Mo-Su 09:00-21:00", "phone": "+1-773-901-9067", "website": "http://orderbirreriaycarnitaselgallito.com"}}, {"type": "node", "id": 6412813680, "lat": 42.0073012, "lon": -87.6738079, "tags": {"addr:city": "Chicago", "addr:housenumber": "6922", "addr:postcode": "60626", "addr:state": "IL", "addr:street": "North Clark Street", "amenity": "restaurant", "cuisine": "mexican", "name": "El Pecado Mexican Restaurant", "phone": "+1-773-681-0220", "website": "http://orderelpecadomexicanrestaurant.com/"}}, {"type": "node", "id": 6412822257, "lat": 42.0104528, "lon": -87.6740973, "tags": {"addr:city": "Chicago", "addr:housenumber": "7047", "addr:postcode": "60626", "addr:state": "IL", "addr:street": "North Clark Street", "amenity": "restaurant", "cuisine": "mexican", "name": "El Famous Burrito", "phone": "+1-773-465-0377"}}, {"type": "node", "id": 6412827080, "lat": 42.0103581, "lon": -87.674002, "tags": {"addr:city": "Chicago", "addr:housenumber": "7043", "addr:postcode": "60626", "addr:state": "IL", "addr:street": "North Clark Street", "amenity": "restaurant", "cuisine": "tacos;mexican", "name": "Rocky's Tacos", "phone": "+1-773-274-4555"}}, {"type": "node", "id": 6412828571, "lat": 42.0123579, "lon": -87.6749547, "tags": {"addr:city": "Chicago", "addr:housenumber": "7138", "addr:postcode": "60626", "addr:state": "IL", "addr:street": "North Clark Street", "amenity": "restaurant", "cuisine": "mexican", "name": "Su Taqueria El Rey Del Taco y Sus Mariscos", "phone": "+1-773-274-9004"}}]}