{"version": 0.6, "generator": "Overpass API 0.7.56.3 eb200aeb", "osm3s": {"timestamp_osm_base": "2020-07-04T04:34:02Z", "copyright": "The data included in this document is from www.openstreetmap.org. The data is made available under ODbL."}, "elements": [{"type": "node", "id": 1743285031, "lat": 41.9391904, "lon": -87.7373556}, {"type": "node", "id": 1743285034, "lat": 41.9391938, "lon": -87.7371664}, {"type": "node", "id": 1743285094, "lat": 41.9392623, "lon": -87.7374061}, {"type": "node", "id": 1743285095, "lat": 41.9392632, "lon": -87.7373579}, {"type": "node", "id": 1743285227, "lat": 41.9393898, "lon": -87.7374102}, {"type": "node", "id": 1743285229, "lat": 41.9393941, "lon": -87.7371728}, {"type": "node", "id": 3554594099, "lat": 41.9427119, "lon": -87.7300074, "tags": {"amenity": "restaurant", "cuisine": "mexican", "name": "La Oaxaque\u00f1a"}}, {"type": "node", "id": 4060122319, "lat": 41.9442432, "lon": -87.7319873, "tags": {"amenity": "pub", "name": "Janina's"}}, {"type": "node", "id": 4217839032, "lat": 41.9429008, "lon": -87.7303791, "tags": {"addr:city": "Chicago", "addr:housenumber": "3394", "addr:postcode": "60641", "addr:state": "IL", "addr:street": "North Milwaukee Avenue", "amenity": "bar", "name": "Live Wire Lounge", "phone": "+1-773-756-5363", "website": "http://www.livewireloungechicago.com/"}}, {"type": "node", "id": 4326051364, "lat": 41.9426103, "lon": -87.7471446, "tags": {"addr:city": "Chicago", "addr:housenumber": "3400", "addr:postcode": "60641", "addr:state": "IL", "addr:street": "North Cicero Avenue", "amenity": "restaurant", "cuisine": "mexican", "name": "Taqueria y Restaurant Poncitlan", "smoking": "no"}}, {"type": "node", "id": 6267140751, "lat": 41.9461358, "lon": -87.7361651, "tags": {"addr:city": "Chicago", "addr:housenumber": "4323", "addr:postcode": "60641", "addr:state": "IL", "addr:street": "North Lowell Avenue", "amenity": "cafe", "cuisine": "sandwiches;coffee_shop;coffee", "diet:vegetarian": "no", "name": "Bia\u2019s Caf\u00e9 Marianao", "opening_hours": "Mo-Sa 06:00-18:00; Su 08:00-16:00", "phone": "+1-773-993-0178"}}, {"type": "node", "id": 6298919086, "lat": 41.9358159, "lon": -87.7470066, "tags": {"addr:city": "Chicago", "addr:housenumber": "3018", "addr:postcode": "60641", "addr:state": "IL", "addr:street": "North Cicero Avenue", "amenity": "restaurant", "name": "Sol de Mexico", "phone": "+1-773-282-4119", "website": "https://soldemexicochicago.com/"}}, {"type": "way", "id": 162436031, "nodes": [1743285031, 1743285095, 1743285094, 1743285227, 1743285229, 1743285034, 1743285031], "tags": {"addr:housenumber": "3208", "addr:street": "North Kostner Avenue", "addr:street:name": "Kostner", "addr:street:prefix": "North", "addr:street:type": "Avenue", "amenity": "restaurant", "building": "yes", "chicago:building_id": "212927", "name": "Astoria"}}]}