{"version": 0.6, "generator": "Overpass API 0.7.56.3 eb200aeb", "osm3s": {"timestamp_osm_base": "2020-07-06T16:29:02Z", "copyright": "The data included in this document is from www.openstreetmap.org. The data is made available under ODbL."}, "elements": [{"type": "node", "id": 258025450, "lat": 41.9049662, "lon": -87.6699526}, {"type": "node", "id": 258281900, "lat": 41.875617, "lon": -87.6352309}, {"type": "node", "id": 258281901, "lat": 41.8756042, "lon": -87.6338748}, {"type": "node", "id": 258281903, "lat": 41.8756843, "lon": -87.6293729}, {"type": "node", "id": 258281905, "lat": 41.8857251, "lon": -87.639345}, {"type": "node", "id": 258281906, "lat": 41.8858639, "lon": -87.6400177}, {"type": "node", "id": 258281907, "lat": 41.8891083, "lon": -87.6443761}, {"type": "node", "id": 258281909, "lat": 41.8951173, "lon": -87.6535892}, {"type": "node", "id": 258940066, "lat": 41.8857568, "lon": -87.6310418, "tags": {"addr:city": "Chicago", "addr:housenumber": "100-124", "addr:postcode": "60601", "addr:state": "IL", "addr:street": "West Lake Street", "name": "Clark/Lake", "network": "CTA", "operator": "Chicago Transit Authority", "platforms": "2", "public_transport": "station", "railway": "station", "station": "subway", "subway": "yes", "wikidata": "Q601041", "wikipedia": "en:Clark/Lake (CTA station)"}}, {"type": "node", "id": 258957340, "lat": 41.8857351, "lon": -87.6325676, "tags": {"highway": "traffic_signals", "traffic_signals": "traffic_lights"}}, {"type": "node", "id": 258957456, "lat": 41.8756298, "lon": -87.6295729}, {"type": "node", "id": 258957458, "lat": 41.8854881, "lon": -87.629509}, {"type": "node", "id": 258957459, "lat": 41.8857187, "lon": -87.6297177}, {"type": "node", "id": 306741002, "lat": 41.8914114, "lon": -87.6096584, "tags": {"amenity": "restaurant", "name": "Bubba Gump Shrimp Co.", "wheelchair": "yes"}}, {"type": "node", "id": 306744471, "lat": 41.8843674, "lon": -87.626481, "tags": {"amenity": "cafe", "brand": "Starbucks", "brand:wikidata": "Q37158", "brand:wikipedia": "en:Starbucks", "cuisine": "coffee_shop", "name": "Starbucks", "official_name": "Starbucks Coffee", "takeaway": "yes"}}, {"type": "node", "id": 365489153, "lat": 41.90293, "lon": -87.6658404}, {"type": "node", "id": 365489154, "lat": 41.9039122, "lon": -87.667895}, {"type": "node", "id": 365489352, "lat": 41.886817, "lon": -87.6413207}, {"type": "node", "id": 706968780, "lat": 41.8757896, "lon": -87.6292725}, {"type": "node", "id": 706968781, "lat": 41.8759374, "lon": -87.6292188}, {"type": "node", "id": 706968782, "lat": 41.8856587, "lon": -87.6296051}, {"type": "node", "id": 706968784, "lat": 41.8857465, "lon": -87.6298791}, {"type": "node", "id": 707905319, "lat": 41.8857571, "lon": -87.6397709}, {"type": "node", "id": 707905321, "lat": 41.885797, "lon": -87.639889}, {"type": "node", "id": 707905651, "lat": 41.887937, "lon": -87.6428142}, {"type": "node", "id": 736035819, "lat": 41.9032414, "lon": -87.6664345}, {"type": "node", "id": 736035820, "lat": 41.9035623, "lon": -87.6671796, "tags": {"name": "Division", "network": "CTA", "operator": "Chicago Transit Authority", "public_transport": "stop_position", "railway": "stop", "subway": "yes"}}, {"type": "node", "id": 736035821, "lat": 41.9045719, "lon": -87.669287}, {"type": "node", "id": 736035822, "lat": 41.9047543, "lon": -87.6696185}, {"type": "node", "id": 736634975, "lat": 41.8857467, "lon": -87.633543, "tags": {"railway": "switch"}}, {"type": "node", "id": 736634999, "lat": 41.8857146, "lon": -87.6335336, "tags": {"railway": "switch"}}, {"type": "node", "id": 736637716, "lat": 41.8857336, "lon": -87.6334344}, {"type": "node", "id": 736666298, "lat": 41.8857151, "lon": -87.6332493}, {"type": "node", "id": 736666306, "lat": 41.8857496, "lon": -87.6327558, "tags": {"railway": "switch"}}, {"type": "node", "id": 736666336, "lat": 41.8857159, "lon": -87.6327544, "tags": {"railway": "switch"}}, {"type": "node", "id": 736666341, "lat": 41.8857477, "lon": -87.6332533}, {"type": "node", "id": 736666404, "lat": 41.8778695, "lon": -87.6260932, "tags": {"railway": "switch"}}, {"type": "node", "id": 736666414, "lat": 41.8775389, "lon": -87.62604, "tags": {"railway": "switch"}}, {"type": "node", "id": 736666471, "lat": 41.8779674, "lon": -87.6260954, "tags": {"railway": "switch"}}, {"type": "node", "id": 736666479, "lat": 41.8782669, "lon": -87.6260564, "tags": {"railway": "switch"}}, {"type": "node", "id": 736666562, "lat": 41.8832775, "lon": -87.6261874, "tags": {"railway": "switch"}}, {"type": "node", "id": 736666574, "lat": 41.8836238, "lon": -87.6262453, "tags": {"railway": "switch"}}, {"type": "node", "id": 736666919, "lat": 41.8772204, "lon": -87.6260328, "tags": {"railway": "switch"}}, {"type": "node", "id": 736667835, "lat": 41.8772394, "lon": -87.6260771, "tags": {"railway": "switch"}}, {"type": "node", "id": 792325825, "lat": 41.8850607, "lon": -87.6217926}, {"type": "node", "id": 792325828, "lat": 41.8850684, "lon": -87.6212259}, {"type": "node", "id": 792325831, "lat": 41.8855018, "lon": -87.6212367}, {"type": "node", "id": 792325834, "lat": 41.8854954, "lon": -87.6218033}, {"type": "node", "id": 873051690, "lat": 41.8780334, "lon": -87.6292842}, {"type": "node", "id": 893474368, "lat": 41.8955398, "lon": -87.6263496, "tags": {"addr:city": "Chicago", "addr:housenumber": "41", "addr:postcode": "60611", "addr:state": "IL", "addr:street": "East Superior Street", "amenity": "restaurant", "name": "Jake Melnick's Corner Tap", "opening_hours": "Mo-Th 11:30-00:00; Fr 11:30-02:00; Sa 11:00-02:00; Su 11:00-23:00", "phone": "+1-312-266-0400", "website": "https://www.jakemelnicks.com/", "wheelchair": "yes"}}, {"type": "node", "id": 1308260687, "lat": 41.8843548, "lon": -87.625863, "tags": {"addr:city": "Chicago", "addr:housenumber": "53", "addr:postcode": "60601", "addr:state": "IL", "addr:street": "East Randolph Street", "amenity": "cafe", "cuisine": "coffee_shop", "name": "Intelligentsia Coffee", "phone": "+1-312-920-9332", "website": "https://www.intelligentsiacoffee.com/millennium-park-coffeebar", "wheelchair": "yes"}}, {"type": "node", "id": 1388390452, "lat": 41.885867, "lon": -87.6272174}, {"type": "node", "id": 1388390454, "lat": 41.8858717, "lon": -87.6264336}, {"type": "node", "id": 1388390491, "lat": 41.886253, "lon": -87.6272216}, {"type": "node", "id": 1388390492, "lat": 41.8862577, "lon": -87.6264377}, {"type": "node", "id": 1468261385, "lat": 41.884655, "lon": -87.6285672, "tags": {"addr:city": "Chicago", "addr:housenumber": "16", "addr:postcode": "60601", "addr:state": "IL", "addr:street": "West Randolph Street", "amenity": "cafe", "contact:website": "http://www.argotea.com", "name": "Argo Tea", "phone": "+1-312-324-3899", "source": "survey", "website": "https://www.argotea.com/"}}, {"type": "node", "id": 1473177162, "lat": 41.8856599, "lon": -87.6263707}, {"type": "node", "id": 1473177163, "lat": 41.8857029, "lon": -87.6264418}, {"type": "node", "id": 1473177164, "lat": 41.8857225, "lon": -87.6263839}, {"type": "node", "id": 1473177165, "lat": 41.8856758, "lon": -87.6263144}, {"type": "node", "id": 1473177166, "lat": 41.8857754, "lon": -87.6266437}, {"type": "node", "id": 1473177167, "lat": 41.8856255, "lon": -87.6262696}, {"type": "node", "id": 1473177168, "lat": 41.8857437, "lon": -87.6266576}, {"type": "node", "id": 1473177169, "lat": 41.8855088, "lon": -87.6262763}, {"type": "node", "id": 1473177170, "lat": 41.8855681, "lon": -87.6262938}, {"type": "node", "id": 1473177171, "lat": 41.8855681, "lon": -87.6262401}, {"type": "node", "id": 1473177172, "lat": 41.8857276, "lon": -87.6265158}, {"type": "node", "id": 1574001630, "lat": 41.8970891, "lon": -87.6258892}, {"type": "node", "id": 1574001640, "lat": 41.8971223, "lon": -87.626701}, {"type": "node", "id": 1574001643, "lat": 41.897128, "lon": -87.6263126}, {"type": "node", "id": 1574001653, "lat": 41.8970834, "lon": -87.6263107}, {"type": "node", "id": 1575966770, "lat": 41.8979838, "lon": -87.6269197}, {"type": "node", "id": 1575966812, "lat": 41.8973019, "lon": -87.6249984}, {"type": "node", "id": 1575966829, "lat": 41.8974927, "lon": -87.6281937}, {"type": "node", "id": 1575966842, "lat": 41.8970974, "lon": -87.6281857}, {"type": "node", "id": 1575966846, "lat": 41.8974987, "lon": -87.6269009}, {"type": "node", "id": 1575966850, "lat": 41.8972879, "lon": -87.6258629}, {"type": "node", "id": 1575966869, "lat": 41.8975276, "lon": -87.6248772}, {"type": "node", "id": 1575966873, "lat": 41.897289, "lon": -87.6257542}, {"type": "node", "id": 1575966965, "lat": 41.8971094, "lon": -87.6274776}, {"type": "node", "id": 1575966977, "lat": 41.8973009, "lon": -87.6248662}, {"type": "node", "id": 1575967022, "lat": 41.8971193, "lon": -87.6268875}, {"type": "node", "id": 1575967024, "lat": 41.8970911, "lon": -87.6257641}, {"type": "node", "id": 1575967029, "lat": 41.89672, "lon": -87.6268767}, {"type": "node", "id": 1575967045, "lat": 41.8967121, "lon": -87.6274628}, {"type": "node", "id": 1577037631, "lat": 41.8979827, "lon": -87.627026}, {"type": "node", "id": 1577037679, "lat": 41.897503, "lon": -87.6273709}, {"type": "node", "id": 1577037687, "lat": 41.8976347, "lon": -87.6273732}, {"type": "node", "id": 1577037689, "lat": 41.8979798, "lon": -87.6273785}, {"type": "node", "id": 1577361178, "lat": 41.897177, "lon": -87.6272259}, {"type": "node", "id": 1577361181, "lat": 41.8974243, "lon": -87.6269869}, {"type": "node", "id": 1577361182, "lat": 41.8974164, "lon": -87.6274347}, {"type": "node", "id": 1577361184, "lat": 41.8971735, "lon": -87.6274271}, {"type": "node", "id": 1577361195, "lat": 41.8968286, "lon": -87.626968}, {"type": "node", "id": 1577361198, "lat": 41.8968243, "lon": -87.6272148}, {"type": "node", "id": 1579399010, "lat": 41.8850928, "lon": -87.6211565}, {"type": "node", "id": 1583441300, "lat": 41.8859629, "lon": -87.6272188}, {"type": "node", "id": 1606917431, "lat": 41.885582, "lon": -87.6295459}, {"type": "node", "id": 1613640656, "lat": 41.8758517, "lon": -87.6292335}, {"type": "node", "id": 1613640678, "lat": 41.8757327, "lon": -87.6293131}, {"type": "node", "id": 1613640702, "lat": 41.8756495, "lon": -87.6294707}, {"type": "node", "id": 1633461356, "lat": 41.8855763, "lon": -87.6293374, "tags": {"amenity": "restaurant", "brand": "Jason's Deli", "brand:wikidata": "Q16997641", "brand:wikipedia": "en:Jason's Deli", "cuisine": "sandwich", "name": "Jason's Deli"}}, {"type": "node", "id": 1648217475, "lat": 41.8932428, "lon": -87.6204681, "tags": {"addr:city": "Chicago", "addr:housenumber": "622", "addr:postcode": "60611", "addr:state": "IL", "addr:street": "North Fairbanks Court", "amenity": "restaurant", "name": "Timothy O\u2019Toole\u2019s Pub - Chicago", "phone": "+1-312-642-0700", "website": "http://www.timothyotooles.com/", "wheelchair": "no"}}, {"type": "node", "id": 1660310799, "lat": 41.8891281, "lon": -87.6292226}, {"type": "node", "id": 1660310824, "lat": 41.8888611, "lon": -87.6292147}, {"type": "node", "id": 1660310960, "lat": 41.8891251, "lon": -87.6294238}, {"type": "node", "id": 1663730890, "lat": 41.8913751, "lon": -87.6225394}, {"type": "node", "id": 1663730900, "lat": 41.8916573, "lon": -87.6225428}, {"type": "node", "id": 1663730902, "lat": 41.8913767, "lon": -87.6224422}, {"type": "node", "id": 1663730933, "lat": 41.8916587, "lon": -87.622448}, {"type": "node", "id": 1666768367, "lat": 41.8899424, "lon": -87.6294499}, {"type": "node", "id": 1666768374, "lat": 41.8896648, "lon": -87.6294426}, {"type": "node", "id": 1666768376, "lat": 41.8899458, "lon": -87.6292155}, {"type": "node", "id": 1666768377, "lat": 41.8896682, "lon": -87.6292082}, {"type": "node", "id": 1668871728, "lat": 41.892586, "lon": -87.6279351, "tags": {"addr:city": "Chicago", "addr:housenumber": "601", "addr:postcode": "60654", "addr:state": "IL", "addr:street": "North State Street", "amenity": "bar", "name": "Pops For Champagne", "opening_hours": "Su-Fr 15:00-02:00; Sa 13:00-02:00", "phone": "+1-312-266-7677", "website": "http://popsforchampagne.com/"}}, {"type": "node", "id": 1669504014, "lat": 41.8904181, "lon": -87.6294668}, {"type": "node", "id": 1669504039, "lat": 41.8901416, "lon": -87.6292232}, {"type": "node", "id": 1669504051, "lat": 41.8901382, "lon": -87.6294596}, {"type": "node", "id": 1669504072, "lat": 41.8904215, "lon": -87.6292299}, {"type": "node", "id": 1707835012, "lat": 41.8930586, "lon": -87.6264502}, {"type": "node", "id": 1707835013, "lat": 41.8930603, "lon": -87.6263345}, {"type": "node", "id": 1707835014, "lat": 41.8930613, "lon": -87.6262413}, {"type": "node", "id": 1707835015, "lat": 41.8930629, "lon": -87.626128}, {"type": "node", "id": 1707835021, "lat": 41.8930908, "lon": -87.6265745}, {"type": "node", "id": 1707835022, "lat": 41.8930926, "lon": -87.6264511}, {"type": "node", "id": 1707835025, "lat": 41.8931322, "lon": -87.6263652}, {"type": "node", "id": 1707835026, "lat": 41.8931326, "lon": -87.6263364}, {"type": "node", "id": 1707835035, "lat": 41.8931752, "lon": -87.6265767}, {"type": "node", "id": 1707835036, "lat": 41.8931782, "lon": -87.6263664}, {"type": "node", "id": 1707835037, "lat": 41.8931787, "lon": -87.6262443}, {"type": "node", "id": 1707835038, "lat": 41.8931803, "lon": -87.626131}, {"type": "node", "id": 1719012044, "lat": 41.8961547, "lon": -87.622917}, {"type": "node", "id": 1719012058, "lat": 41.8958653, "lon": -87.6229095}, {"type": "node", "id": 1720270745, "lat": 41.8961513, "lon": -87.6231505}, {"type": "node", "id": 1720270758, "lat": 41.895862, "lon": -87.6231428}, {"type": "node", "id": 1722519086, "lat": 41.8830668, "lon": -87.6277989}, {"type": "node", "id": 1722519087, "lat": 41.8848091, "lon": -87.6278499}, {"type": "node", "id": 1722519088, "lat": 41.8857296, "lon": -87.6278781}, {"type": "node", "id": 1722519090, "lat": 41.8878453, "lon": -87.6279599}, {"type": "node", "id": 1722519091, "lat": 41.8896486, "lon": -87.6279893}, {"type": "node", "id": 1722519092, "lat": 41.8907147, "lon": -87.6279953}, {"type": "node", "id": 1722519093, "lat": 41.8916803, "lon": -87.6280028, "tags": {"name": "Grand", "network": "CTA", "operator": "Chicago Transit Authority", "public_transport": "stop_position", "subway": "yes"}}, {"type": "node", "id": 1722519094, "lat": 41.8923658, "lon": -87.6280256}, {"type": "node", "id": 1722519095, "lat": 41.8941368, "lon": -87.6280738}, {"type": "node", "id": 1722519096, "lat": 41.8956562, "lon": -87.6281074}, {"type": "node", "id": 1722519098, "lat": 41.8991325, "lon": -87.6282426}, {"type": "node", "id": 1722519099, "lat": 41.9002577, "lon": -87.6282758}, {"type": "node", "id": 1722519100, "lat": 41.9021163, "lon": -87.6283264}, {"type": "node", "id": 1722519101, "lat": 41.9031594, "lon": -87.6285986}, {"type": "node", "id": 1722519102, "lat": 41.9036384, "lon": -87.6286209}, {"type": "node", "id": 1722519103, "lat": 41.9037521, "lon": -87.628645}, {"type": "node", "id": 1722519106, "lat": 41.9038145, "lon": -87.6286733}, {"type": "node", "id": 1722519110, "lat": 41.9038662, "lon": -87.6287234}, {"type": "node", "id": 1722519111, "lat": 41.903899, "lon": -87.6287809}, {"type": "node", "id": 1722519113, "lat": 41.9039242, "lon": -87.6315435, "tags": {"name": "Clark/Division", "network": "CTA", "operator": "Chicago Transit Authority", "public_transport": "stop_position", "railway": "stop", "subway": "yes"}}, {"type": "node", "id": 1722519114, "lat": 41.9039447, "lon": -87.6288934}, {"type": "node", "id": 1722519115, "lat": 41.9039593, "lon": -87.6290546}, {"type": "node", "id": 1768045249, "lat": 41.8926297, "lon": -87.6283717, "tags": {"amenity": "cafe", "brand": "Starbucks", "brand:wikidata": "Q37158", "brand:wikipedia": "en:Starbucks", "cuisine": "coffee_shop", "internet_access": "wlan", "internet_access:fee": "no", "name": "Starbucks", "official_name": "Starbucks Coffee", "takeaway": "yes"}}, {"type": "node", "id": 1830940583, "lat": 41.8846515, "lon": -87.6237671, "tags": {"amenity": "restaurant", "name": "Market Creations"}}, {"type": "node", "id": 1830940587, "lat": 41.8846784, "lon": -87.6228175, "tags": {"amenity": "restaurant", "cuisine": "breakfast", "name": "Wildberry Pancakes and Cafe", "opening_hours": "06:30-14:30", "phone": "312-938-9777"}}, {"type": "node", "id": 1854704954, "lat": 41.8850849, "lon": -87.6191156, "tags": {"addr:city": "Chicago", "addr:housenumber": "333", "addr:postcode": "60601", "addr:street": "East Randolph Street", "amenity": "restaurant", "cuisine": "chinese", "name": "Yum Cha Dim Sum Parlor", "note": "Opened April 2014", "phone": "+1 312 946-8885", "website": "http://www.yumchachicago.com"}}, {"type": "node", "id": 1880197295, "lat": 41.8986312, "lon": -87.6236863, "tags": {"amenity": "restaurant", "name": "Cheescake Factory"}}, {"type": "node", "id": 2014360932, "lat": 41.879681, "lon": -87.6260932, "tags": {"name": "Adams/Wabash", "network": "CTA", "operator": "Chicago Transit Authority", "public_transport": "stop_position", "railway": "stop", "subway": "yes"}}, {"type": "node", "id": 2014360953, "lat": 41.8795483, "lon": -87.6261373, "tags": {"name": "Adams/Wabash", "network": "CTA", "operator": "Chicago Transit Authority", "public_transport": "stop_position", "railway": "stop", "subway": "yes"}}, {"type": "node", "id": 2014402311, "lat": 41.8853171, "lon": -87.6262894}, {"type": "node", "id": 2014402316, "lat": 41.8854525, "lon": -87.6262709}, {"type": "node", "id": 2014402320, "lat": 41.8853959, "lon": -87.6262395}, {"type": "node", "id": 2014402322, "lat": 41.8857693, "lon": -87.6265604}, {"type": "node", "id": 2014402325, "lat": 41.8854563, "lon": -87.6262289}, {"type": "node", "id": 2014402328, "lat": 41.8853802, "lon": -87.6262823}, {"type": "node", "id": 2014402331, "lat": 41.8855188, "lon": -87.6262283}, {"type": "node", "id": 2014402334, "lat": 41.8857547, "lon": -87.6264816}, {"type": "node", "id": 2014402337, "lat": 41.8856237, "lon": -87.6263322}, {"type": "node", "id": 2014402340, "lat": 41.8853379, "lon": -87.6262455}, {"type": "node", "id": 2014402343, "lat": 41.8857389, "lon": -87.6265845}, {"type": "node", "id": 2015341021, "lat": 41.8857699, "lon": -87.6279578, "tags": {"name": "State/Lake", "network": "CTA", "operator": "Chicago Transit Authority", "public_transport": "stop_position", "railway": "stop", "subway": "yes"}}, {"type": "node", "id": 2015341023, "lat": 41.8857386, "lon": -87.6279607, "tags": {"name": "State/Lake", "network": "CTA", "operator": "Chicago Transit Authority", "public_transport": "stop_position", "railway": "stop", "subway": "yes"}}, {"type": "node", "id": 2015352819, "lat": 41.8857265, "lon": -87.6305187, "tags": {"name": "Clark/Lake", "public_transport": "stop_position", "railway": "stop", "subway": "yes"}}, {"type": "node", "id": 2015352823, "lat": 41.885752, "lon": -87.6321675, "tags": {"name": "Clark/Lake", "network": "CTA", "operator": "Chicago Transit Authority", "public_transport": "stop_position", "railway": "stop", "subway": "yes"}}, {"type": "node", "id": 2070963648, "lat": 41.89046, "lon": -87.623798, "tags": {"addr:city": "Chicago", "addr:housenumber": "435", "addr:postcode": "60611", "addr:street": "North Michigan Avenue", "amenity": "cafe", "atm": "no", "brand": "Argo", "drive_through": "no", "internet_access": "no", "opening_hours": "Mo-Fr 06:00-23:00; Sa 07:00-23:00; Su 07:00-22:00", "operator": "Argo Tea", "phone": "+1 (312) 546-4790", "website": "https://www.argotea.com/"}}, {"type": "node", "id": 2125909223, "lat": 41.8909687, "lon": -87.628173}, {"type": "node", "id": 2125909224, "lat": 41.8912432, "lon": -87.6281808}, {"type": "node", "id": 2125909225, "lat": 41.8912355, "lon": -87.6286758}, {"type": "node", "id": 2125909226, "lat": 41.890961, "lon": -87.6286681}, {"type": "node", "id": 2207543668, "lat": 41.8846143, "lon": -87.6251813}, {"type": "node", "id": 2207543680, "lat": 41.8846211, "lon": -87.6247295}, {"type": "node", "id": 2207543684, "lat": 41.884682, "lon": -87.6248133}, {"type": "node", "id": 2207543732, "lat": 41.8847487, "lon": -87.6247189}, {"type": "node", "id": 2207543820, "lat": 41.8850246, "lon": -87.6251878}, {"type": "node", "id": 2207543823, "lat": 41.88503, "lon": -87.6247286}, {"type": "node", "id": 2207598383, "lat": 41.8919681, "lon": -87.6266173}, {"type": "node", "id": 2207598386, "lat": 41.8918099, "lon": -87.625862}, {"type": "node", "id": 2207598569, "lat": 41.8921861, "lon": -87.626913}, {"type": "node", "id": 2207598570, "lat": 41.8921861, "lon": -87.6269518}, {"type": "node", "id": 2207598588, "lat": 41.8922263, "lon": -87.6268841}, {"type": "node", "id": 2207598589, "lat": 41.8922263, "lon": -87.6269131}, {"type": "node", "id": 2207598590, "lat": 41.8922346, "lon": -87.6268623}, {"type": "node", "id": 2207598591, "lat": 41.8922346, "lon": -87.6268841}, {"type": "node", "id": 2207598629, "lat": 41.8923487, "lon": -87.6269212}, {"type": "node", "id": 2207598631, "lat": 41.8923487, "lon": -87.6269521}, {"type": "node", "id": 2207598632, "lat": 41.8923523, "lon": -87.6268624}, {"type": "node", "id": 2207598634, "lat": 41.8923523, "lon": -87.6268792}, {"type": "node", "id": 2207598635, "lat": 41.8923528, "lon": -87.6269102}, {"type": "node", "id": 2207598653, "lat": 41.892387, "lon": -87.6266044}, {"type": "node", "id": 2207598654, "lat": 41.8923982, "lon": -87.6258783}, {"type": "node", "id": 2207601379, "lat": 41.8970833, "lon": -87.6272229}, {"type": "node", "id": 2292889299, "lat": 41.8853925, "lon": -87.6186399, "tags": {"addr:city": "Chicago", "addr:housenumber": "333", "addr:postcode": "60601", "addr:state": "IL", "addr:street": "East Benton Place", "amenity": "restaurant", "cuisine": "diner", "name": "Eggy's", "phone": "+1-773-234-3449", "source": "survey", "website": "https://www.eggysdiner.com/locations/chicago/"}}, {"type": "node", "id": 2296103808, "lat": 41.8935124, "lon": -87.6265885, "tags": {"addr:city": "Chicago", "addr:housenumber": "38", "addr:postcode": "60611", "addr:street": "East Ontario Street", "amenity": "cafe", "brand": "Starbucks", "brand:wikidata": "Q37158", "brand:wikipedia": "en:Starbucks", "cuisine": "coffee_shop", "internet_access": "yes", "name": "Starbucks", "official_name": "Starbucks Coffee", "takeaway": "yes"}}, {"type": "node", "id": 2339944269, "lat": 41.8931098, "lon": -87.6131642, "tags": {"addr:housename": "Caff\u00e8 Oliva", "addr:housenumber": "550", "addr:postcode": "60611", "addr:street": "East Grand Avenue", "amenity": "restaurant", "cuisine": "international", "name": "Caff\u00e8 Oliva", "source": "www.caffeoliva.com", "website": "https://www.caffeoliva.com/"}}, {"type": "node", "id": 2368690664, "lat": 41.8848131, "lon": -87.6279451}, {"type": "node", "id": 2368690670, "lat": 41.8830738, "lon": -87.6278969}, {"type": "node", "id": 2368691220, "lat": 41.8857296, "lon": -87.6279813}, {"type": "node", "id": 2368691222, "lat": 41.8916917, "lon": -87.6281434, "tags": {"name": "Grand", "network": "CTA", "operator": "Chicago Transit Authority", "public_transport": "stop_position", "subway": "yes"}}, {"type": "node", "id": 2368691921, "lat": 41.895654, "lon": -87.6282306}, {"type": "node", "id": 2368691924, "lat": 41.8923536, "lon": -87.6281542}, {"type": "node", "id": 2368691925, "lat": 41.8941416, "lon": -87.6281957}, {"type": "node", "id": 2368694121, "lat": 41.9021154, "lon": -87.6284294}, {"type": "node", "id": 2368694123, "lat": 41.9038832, "lon": -87.6313692, "tags": {"name": "Clark/Division", "network": "CTA", "operator": "Chicago Transit Authority", "public_transport": "stop_position", "railway": "stop", "subway": "yes"}}, {"type": "node", "id": 2368694124, "lat": 41.9038012, "lon": -87.6287717}, {"type": "node", "id": 2368694125, "lat": 41.9039005, "lon": -87.6289597}, {"type": "node", "id": 2368694130, "lat": 41.9039091, "lon": -87.6291132}, {"type": "node", "id": 2368694135, "lat": 41.9038712, "lon": -87.6288605}, {"type": "node", "id": 2368694143, "lat": 41.9036379, "lon": -87.6287239}, {"type": "node", "id": 2368694147, "lat": 41.9037465, "lon": -87.6287469}, {"type": "node", "id": 2368694149, "lat": 41.9031582, "lon": -87.6287015}, {"type": "node", "id": 2368694151, "lat": 41.9002598, "lon": -87.6283789}, {"type": "node", "id": 2368694153, "lat": 41.9038444, "lon": -87.6288136}, {"type": "node", "id": 2368694155, "lat": 41.8991341, "lon": -87.6283457}, {"type": "node", "id": 2389087619, "lat": 41.9031904, "lon": -87.6664792}, {"type": "node", "id": 2389087620, "lat": 41.8890637, "lon": -87.644432}, {"type": "node", "id": 2389087622, "lat": 41.8950465, "lon": -87.6536404}, {"type": "node", "id": 2389087623, "lat": 41.8856856, "lon": -87.6298882}, {"type": "node", "id": 2389087624, "lat": 41.875672, "lon": -87.6316469, "tags": {"name": "LaSalle", "network": "CTA", "operator": "Chicago Transit Authority", "public_transport": "stop_position", "railway": "stop", "subway": "yes"}}, {"type": "node", "id": 2389087625, "lat": 41.878032, "lon": -87.629366}, {"type": "node", "id": 2389087626, "lat": 41.8756651, "lon": -87.6338745}, {"type": "node", "id": 2389087627, "lat": 41.8757682, "lon": -87.6293804}, {"type": "node", "id": 2389087628, "lat": 41.8807251, "lon": -87.6294424, "tags": {"name": "Monroe", "network": "CTA", "operator": "Chicago Transit Authority", "public_transport": "stop_position", "railway": "stop", "subway": "yes"}}, {"type": "node", "id": 2389087629, "lat": 41.875707, "lon": -87.6294988}, {"type": "node", "id": 2389087631, "lat": 41.8856169, "lon": -87.6296672}, {"type": "node", "id": 2389087632, "lat": 41.8756779, "lon": -87.6352309}, {"type": "node", "id": 2389087633, "lat": 41.8758168, "lon": -87.6293457}, {"type": "node", "id": 2389087635, "lat": 41.8856642, "lon": -87.639349}, {"type": "node", "id": 2389087636, "lat": 41.8758689, "lon": -87.629313}, {"type": "node", "id": 2389087637, "lat": 41.878173, "lon": -87.6293704, "tags": {"name": "Jackson", "network": "CTA", "operator": "Chicago Transit Authority", "public_transport": "stop_position", "railway": "stop", "subway": "yes"}}, {"type": "node", "id": 2389087638, "lat": 41.9028819, "lon": -87.6658907}, {"type": "node", "id": 2389087639, "lat": 41.8757342, "lon": -87.6294224}, {"type": "node", "id": 2389087640, "lat": 41.8911449, "lon": -87.6476749, "tags": {"name": "Grand", "network": "CTA", "operator": "Chicago Transit Authority", "public_transport": "stop_position", "railway": "stop", "subway": "yes"}}, {"type": "node", "id": 2389087641, "lat": 41.9045209, "lon": -87.6693317}, {"type": "node", "id": 2389087642, "lat": 41.8857439, "lon": -87.6399297}, {"type": "node", "id": 2389087643, "lat": 41.8856621, "lon": -87.629752}, {"type": "node", "id": 2389087644, "lat": 41.8856727, "lon": -87.6334341}, {"type": "node", "id": 2389087645, "lat": 41.8961627, "lon": -87.6553624, "tags": {"name": "Chicago", "network": "CTA", "operator": "Chicago Transit Authority", "public_transport": "stop_position", "railway": "stop", "subway": "yes"}}, {"type": "node", "id": 2389087646, "lat": 41.8899783, "lon": -87.6458537}, {"type": "node", "id": 2389087647, "lat": 41.9038608, "lon": -87.6679388}, {"type": "node", "id": 2389087648, "lat": 41.8856975, "lon": -87.6397925}, {"type": "node", "id": 2389087649, "lat": 41.8832093, "lon": -87.6294884, "tags": {"name": "Washington", "network": "CTA", "operator": "Chicago Transit Authority", "public_transport": "stop_position", "railway": "stop", "subway": "yes"}}, {"type": "node", "id": 2389087650, "lat": 41.8759406, "lon": -87.6293007}, {"type": "node", "id": 2389087651, "lat": 41.8855579, "lon": -87.6296217}, {"type": "node", "id": 2389087652, "lat": 41.8858169, "lon": -87.6400702}, {"type": "node", "id": 2389087653, "lat": 41.903519, "lon": -87.6672111, "tags": {"name": "Division", "network": "CTA", "operator": "Chicago Transit Authority", "public_transport": "stop_position", "railway": "stop", "subway": "yes"}}, {"type": "node", "id": 2389087654, "lat": 41.9049233, "lon": -87.6699939}, {"type": "node", "id": 2389087657, "lat": 41.8756906, "lon": -87.6295838}, {"type": "node", "id": 2389087658, "lat": 41.8787534, "lon": -87.6293804}, {"type": "node", "id": 2389087659, "lat": 41.8867738, "lon": -87.6413784}, {"type": "node", "id": 2389087660, "lat": 41.8854784, "lon": -87.6295904}, {"type": "node", "id": 2389087661, "lat": 41.9047049, "lon": -87.6696667}, {"type": "node", "id": 2391131209, "lat": 41.8848636, "lon": -87.6247229, "tags": {"entrance": "yes"}}, {"type": "node", "id": 2391278936, "lat": 41.8854601, "lon": -87.6218723, "tags": {"entrance": "yes"}}, {"type": "node", "id": 2391278941, "lat": 41.8855495, "lon": -87.621512, "tags": {"entrance": "yes"}}, {"type": "node", "id": 2391283010, "lat": 41.8851112, "lon": -87.6218641, "tags": {"entrance": "yes"}}, {"type": "node", "id": 2397703811, "lat": 41.8846699, "lon": -87.6247967}, {"type": "node", "id": 2397703812, "lat": 41.8846191, "lon": -87.6248592}, {"type": "node", "id": 2397703813, "lat": 41.88462, "lon": -87.6248016, "tags": {"entrance": "yes"}}, {"type": "node", "id": 2401014861, "lat": 41.8856113, "lon": -87.6258675, "tags": {"addr:city": "Chicago", "addr:housenumber": "53", "addr:postcode": "60601", "addr:state": "IL", "addr:street": "East Lake Street", "amenity": "restaurant", "name": "Pastoral", "opening_hours": "Mo-Fr 10:30-20:00; Sa 11:00-18:00", "phone": "+1-312-658-1250", "website": "https://www.pastoralartisan.com/"}}, {"type": "node", "id": 2401892136, "lat": 41.8976392, "lon": -87.6283786, "tags": {"amenity": "cafe", "brand": "Starbucks", "brand:wikidata": "Q37158", "brand:wikipedia": "en:Starbucks", "cuisine": "coffee_shop", "name": "Starbucks", "official_name": "Starbucks Coffee", "takeaway": "yes"}}, {"type": "node", "id": 2427403731, "lat": 41.8844733, "lon": -87.6238606, "tags": {"amenity": "cafe", "brand": "Starbucks", "brand:wikidata": "Q37158", "brand:wikipedia": "en:Starbucks", "cuisine": "coffee_shop", "layer": "-1", "level": "-1", "name": "Starbucks", "official_name": "Starbucks Coffee", "takeaway": "yes"}}, {"type": "node", "id": 2427546347, "lat": 41.8846595, "lon": -87.6241745, "tags": {"addr:city": "Chicago", "addr:housenumber": "151", "addr:postcode": "60601", "addr:state": "IL", "addr:street": "North Michigan Avenue", "amenity": "bar", "layer": "-1", "level": "+1-312-929-3080", "name": "M Bar", "website": "http://mbarchicago.com/"}}, {"type": "node", "id": 2438340739, "lat": 41.8850138, "lon": -87.6215013, "tags": {"entrance": "yes"}}, {"type": "node", "id": 2471454173, "lat": 41.8902528, "lon": -87.6234629, "tags": {"addr:housename": "Tribune Tower", "addr:housenumber": "435", "addr:postcode": "60611", "addr:street": "North Michigan Avenue", "amenity": "restaurant", "name": "Howells & Hood", "website": "https://www.howellsandhood.com/"}}, {"type": "node", "id": 2514619967, "lat": 41.8934614, "lon": -87.6279283, "tags": {"addr:city": "Chicago", "addr:country": "US", "addr:housenumber": "2", "addr:postcode": "60611", "addr:state": "IL", "addr:street": "East Ontario Street", "amenity": "restaurant", "cuisine": "american;burger", "name": "Wahlburgers", "phone": "+1-312-265-1290", "website": "https://wahlburgers.com/chicago"}}, {"type": "node", "id": 2514625642, "lat": 41.8920577, "lon": -87.6278696, "tags": {"addr:city": "Chicago", "addr:country": "US", "addr:housenumber": "539", "addr:postcode": "60654", "addr:state": "IL", "addr:street": "North State Street", "amenity": "restaurant", "cuisine": "steak;burger;ribs", "name": "Weber Grill", "opening_hours": "Mo-Fr 06:30-10:00; Mo-Th 11:00-23:00; Fr 11:00-00:00; Sa-Su 06:30-11:00; Sa 11:30-00:00; Su 11:30-23:00", "phone": "+1-312-467-9696", "website": "https://www.webergrillrestaurant.com/"}}, {"type": "node", "id": 2553708327, "lat": 41.88541, "lon": -87.61763, "tags": {"addr:housenumber": "180", "addr:street": "North Field Boulevard", "amenity": "restaurant", "cuisine": "steak_house", "internet_access": "wlan", "internet_access:fee": "no", "microbrewery": "no", "name": "III Forks", "organic": "no", "outdoor_seating": "yes", "smoking": "no", "takeaway": "no", "wheelchair": "yes"}}, {"type": "node", "id": 2578978130, "lat": 41.8847334, "lon": -87.6297328, "tags": {"addr:city": "Chicago", "addr:country": "US", "addr:housenumber": "150", "addr:postcode": "60601", "addr:state": "IL", "addr:street": "North Dearborn Street", "amenity": "restaurant", "cuisine": "italian", "name": "Petterino's", "phone": "+1-312-422-0150", "website": "http://www.petterinos.com/"}}, {"type": "node", "id": 2578984144, "lat": 41.8885916, "lon": -87.6293603, "tags": {"addr:city": "Chicago", "addr:housenumber": "333-335", "addr:postcode": "60654", "addr:state": "IL", "addr:street": "North Dearborn Street", "amenity": "restaurant", "cuisine": "american", "name": "Bar Louie", "opening_hours": "Mo-Su 11:00-02:00", "phone": "+1-312-863-2363", "url": "http://www.barlouieamerica.com/", "website": "https://www.barlouie.com/"}}, {"type": "node", "id": 2578986751, "lat": 41.8914217, "lon": -87.6294449, "tags": {"addr:city": "Chicago", "addr:country": "US", "addr:housenumber": "515", "addr:postcode": "60654", "addr:state": "IL", "addr:street": "North Clark Street", "amenity": "restaurant", "cuisine": "sandwich", "name": "NYC Bagel Deli", "opening_hours": "Mo-Fr 05:30-20:00; Sa 06:00-20:00; Su 06:00-16:00", "url": "http://www.nycbd.com/"}}, {"type": "node", "id": 2578986752, "lat": 41.8942218, "lon": -87.6294975, "tags": {"amenity": "cafe", "brand": "Starbucks", "brand:wikidata": "Q37158", "brand:wikipedia": "en:Starbucks", "cuisine": "coffee_shop", "name": "Starbucks", "official_name": "Starbucks Coffee", "takeaway": "yes"}}, {"type": "node", "id": 2607366773, "lat": 41.8918646, "lon": -87.6256252, "tags": {"addr:city": "Chicago", "addr:country": "US", "addr:housenumber": "60", "addr:postcode": "60611", "addr:state": "IL", "addr:street": "East Grand Avenue", "amenity": "restaurant", "cuisine": "steak;seafood;fine_dining", "name": "Joe's Seafood, Prime Steak & Stone Crab", "opening_hours": "Mo-Th 11:30-23:00; Fr 11:30-00:00; Sa 11:00-00:00; Su 11:00-22:30", "phone": "+1-312-379-5637", "website": "https://www.joes.net/"}}, {"type": "node", "id": 2622823033, "lat": 41.8934348, "lon": -87.6283059, "tags": {"addr:city": "Chicago", "addr:housenumber": "626", "addr:postcode": "60654", "addr:state": "IL", "addr:street": "North State Street", "amenity": "restaurant", "cuisine": "Tapas;pizza;pasta", "name": "Quartino Ristorante", "opening_hours": "Mo-Fr 11:30-02:00; Sa 11:30-03:00; Su 11:30-01:00", "phone": "+1-312-698-5000", "website": "https://www.quartinochicago.com/", "wheelchair": "yes"}}, {"type": "node", "id": 2708231824, "lat": 41.8921642, "lon": -87.6180984, "tags": {"addr:city": "Chicago", "addr:housenumber": "355", "addr:postcode": "60611", "addr:state": "IL", "addr:street": "East Ohio Street", "amenity": "cafe", "cuisine": "breakfast", "internet_access": "no", "name": "Yolk", "phone": "+1-312-822-9655", "website": "https://www.eatyolk.com/", "wheelchair": "yes"}}, {"type": "node", "id": 2708231830, "lat": 41.8948036, "lon": -87.6235485, "tags": {"amenity": "cafe", "cuisine": "burger", "name": "M Burger"}}, {"type": "node", "id": 2708232525, "lat": 41.8942859, "lon": -87.6229601, "tags": {"amenity": "cafe", "cuisine": "breakfast", "name": "The Corner Bakery"}}, {"type": "node", "id": 2708233534, "lat": 41.8926488, "lon": -87.6264363, "tags": {"addr:housenumber": "52", "addr:street": "East Ohio Street", "amenity": "restaurant", "brand": "California Pizza Kitchen", "brand:wikidata": "Q15109854", "brand:wikipedia": "en:California Pizza Kitchen", "cuisine": "pizza", "internet_access": "wlan", "internet_access:fee": "no", "name": "California Pizza Kitchen", "website": "https://www.cpk.com/"}}, {"type": "node", "id": 2819072953, "lat": 41.8865103, "lon": -87.6242243, "tags": {"amenity": "restaurant", "name": "Sweetwater"}}, {"type": "node", "id": 2819072959, "lat": 41.8873063, "lon": -87.6258841, "tags": {"amenity": "restaurant", "name": "Hoyt's"}}, {"type": "node", "id": 2819072961, "lat": 41.8864847, "lon": -87.6271655, "tags": {"amenity": "restaurant", "brand": "McCormick & Schmick's", "brand:wikidata": "Q6800562", "brand:wikipedia": "en:McCormick & Schmick's", "cuisine": "seafood;steak", "name": "McCormick & Schmick's"}}, {"type": "node", "id": 2819072963, "lat": 41.8864526, "lon": -87.6265549, "tags": {"addr:city": "Chicago", "addr:housenumber": "216", "addr:postcode": "60601", "addr:state": "IL", "addr:street": "North Wabash Avenue", "amenity": "restaurant", "name": "Emerald Loop", "phone": "+1-312-263-0200", "website": "https://emeraldloop.com/"}}, {"type": "node", "id": 2819072965, "lat": 41.885893, "lon": -87.6257502, "tags": {"addr:city": "Chicago", "addr:housenumber": "60", "addr:postcode": "60601", "addr:state": "IL", "addr:street": "East Lake Street", "amenity": "restaurant", "cuisine": "burger", "name": "Billy Goat Tavern", "phone": "+1-312-346-5620", "website": "https://www.billygoattavern.com/locations/michigan/"}}, {"type": "node", "id": 2819117707, "lat": 41.8847295, "lon": -87.6270788, "tags": {"amenity": "restaurant", "name": "America's Dog\u3000ROSS"}}, {"type": "node", "id": 2819355826, "lat": 41.8859644, "lon": -87.6282313, "tags": {"amenity": "restaurant", "name": "Wow Bao"}}, {"type": "node", "id": 2819355827, "lat": 41.8861984, "lon": -87.627686, "tags": {"addr:city": "Chicago", "addr:housenumber": "201", "addr:postcode": "60601", "addr:state": "IL", "addr:street": "North State Street", "amenity": "restaurant", "cuisine": "american", "name": "State and Lake Chicago Tavern", "phone": "+1-312-239-9400", "website": "https://stateandlakechicago.com/"}}, {"type": "node", "id": 2819355828, "lat": 41.8858956, "lon": -87.6276814, "tags": {"amenity": "cafe", "name": "Caff\u00e8 Caf\u00e9"}}, {"type": "node", "id": 2819355829, "lat": 41.8859197, "lon": -87.6285904, "tags": {"amenity": "restaurant", "name": "Protein Bar"}}, {"type": "node", "id": 2819355832, "lat": 41.8866774, "lon": -87.6267246, "tags": {"amenity": "cafe", "brand": "Starbucks", "brand:wikidata": "Q37158", "brand:wikipedia": "en:Starbucks", "cuisine": "coffee_shop", "name": "Starbucks", "official_name": "Starbucks Coffee", "takeaway": "yes"}}, {"type": "node", "id": 2884825219, "lat": 41.8850104, "lon": -87.6217639}, {"type": "node", "id": 2884825220, "lat": 41.885017, "lon": -87.621252}, {"type": "node", "id": 2884825221, "lat": 41.8850311, "lon": -87.6217919}, {"type": "node", "id": 2884825222, "lat": 41.8850383, "lon": -87.6212252}, {"type": "node", "id": 2884825223, "lat": 41.8850602, "lon": -87.6218312}, {"type": "node", "id": 2884825224, "lat": 41.8850689, "lon": -87.6211867}, {"type": "node", "id": 2884825225, "lat": 41.8850841, "lon": -87.6218635}, {"type": "node", "id": 2884825230, "lat": 41.8854699, "lon": -87.6218725}, {"type": "node", "id": 2884825231, "lat": 41.8854796, "lon": -87.6211655}, {"type": "node", "id": 2884825232, "lat": 41.8854949, "lon": -87.621841}, {"type": "node", "id": 2884825233, "lat": 41.8855024, "lon": -87.6211964}, {"type": "node", "id": 2884825234, "lat": 41.8855244, "lon": -87.6218039}, {"type": "node", "id": 2884825235, "lat": 41.8855327, "lon": -87.6212374}, {"type": "node", "id": 2884825236, "lat": 41.8855461, "lon": -87.6217765}, {"type": "node", "id": 2884825237, "lat": 41.8855528, "lon": -87.6212645}, {"type": "node", "id": 2885201538, "lat": 41.8847203, "lon": -87.624759}, {"type": "node", "id": 2885201541, "lat": 41.8849433, "lon": -87.6251865}, {"type": "node", "id": 3076179333, "lat": 41.8993192, "lon": -87.6280903, "tags": {"addr:city": "Chicago", "addr:housenumber": "10", "addr:postcode": "60611", "addr:state": "IL", "addr:street": "East Delaware Place", "amenity": "cafe", "brand": "Le Pain Quotidien", "brand:wikidata": "Q2046903", "brand:wikipedia": "en:Le Pain Quotidien", "cuisine": "coffee_shop", "name": "Le Pain Quotidien", "phone": "+1-312-380-6665", "takeaway": "yes", "website": "https://www1.lepainquotidien.com/us/en/locations/603/10-e-delaware-pl"}}, {"type": "node", "id": 3076179433, "lat": 41.8984675, "lon": -87.6280907, "tags": {"addr:city": "Chicago", "addr:housenumber": "6", "addr:postcode": "60611", "addr:state": "IL", "addr:street": "East Chestnut Street", "amenity": "cafe", "name": "Tempo Cafe", "phone": "+1-312-943-4373", "website": "http://www.tempochicago.com/"}}, {"type": "node", "id": 3188221400, "lat": 41.8755967, "lon": -87.6375939}, {"type": "node", "id": 3188221401, "lat": 41.8756575, "lon": -87.6376008}, {"type": "node", "id": 3191761980, "lat": 41.8939959, "lon": -87.622591, "tags": {"amenity": "cafe", "brand": "Starbucks", "brand:wikidata": "Q37158", "brand:wikipedia": "en:Starbucks", "cuisine": "coffee_shop", "internet_access": "wlan", "name": "Starbucks", "official_name": "Starbucks Coffee", "takeaway": "yes"}}, {"type": "node", "id": 3343161843, "lat": 41.8906094, "lon": -87.6244952, "tags": {"amenity": "cafe", "brand": "Starbucks", "brand:wikidata": "Q37158", "brand:wikipedia": "en:Starbucks", "cuisine": "coffee_shop", "name": "Starbucks", "official_name": "Starbucks Coffee", "takeaway": "yes"}}, {"type": "node", "id": 3343162069, "lat": 41.8907716, "lon": -87.6246916, "tags": {"amenity": "cafe", "name": "Corner Bakery Cafe"}}, {"type": "node", "id": 3343162071, "lat": 41.891157, "lon": -87.6246273, "tags": {"addr:city": "Chicago", "addr:housenumber": "500", "addr:postcode": "60611", "addr:state": "IL", "addr:street": "North Michigan Avenue", "amenity": "restaurant", "cuisine": "american", "name": "The Purple Pig", "opening_hours": "Mo-Su 11:30-23:00", "phone": "+1-312-464-1744", "website": "https://thepurplepigchicago.com/"}}, {"type": "node", "id": 3343162093, "lat": 41.8895178, "lon": -87.6248168, "tags": {"addr:city": "Chicago", "addr:housenumber": "400", "addr:postcode": "60611", "addr:state": "IL", "addr:street": "North Michigan Avenue", "amenity": "cafe", "brand": "Peet's Coffee", "brand:wikidata": "Q1094101", "brand:wikipedia": "en:Peet's Coffee", "cuisine": "coffee_shop", "name": "Peet's Coffee", "phone": "+1-312-625-5531", "takeaway": "yes", "website": "https://www.peets.com/"}}, {"type": "node", "id": 3343163147, "lat": 41.8931299, "lon": -87.6247284, "tags": {"addr:city": "Chicago", "addr:housenumber": "600", "addr:postcode": "60611", "addr:state": "IL", "addr:street": "North Michigan Avenue", "amenity": "restaurant", "cuisine": "american", "name": "Grand Lux Cafe", "opening_hours": "Mo-Fr 11:00-23:30; Sa 09:00-00:30; Su 09:00-23:30", "phone": "+1-312-276-2500", "website": "https://www.grandluxcafe.com/"}}, {"type": "node", "id": 3364476958, "lat": 41.9005334, "lon": -87.6259823, "tags": {"addr:city": "Chicago", "addr:housenumber": "57", "addr:postcode": "60611", "addr:state": "IL", "addr:street": "East Oak Street", "amenity": "restaurant", "cuisine": "french", "name": "La Colonial", "phone": "+1-312-255-0088", "website": "http://www.lecolonialchicago.com"}}, {"type": "node", "id": 3364504895, "lat": 41.9009817, "lon": -87.6273639, "tags": {"amenity": "cafe", "brand": "Starbucks", "brand:wikidata": "Q37158", "brand:wikipedia": "en:Starbucks", "cuisine": "coffee_shop", "name": "Starbucks", "official_name": "Starbucks Coffee", "takeaway": "yes"}}, {"type": "node", "id": 3399988513, "lat": 41.8919137, "lon": -87.6229257, "tags": {"amenity": "restaurant", "cuisine": "burger", "name": "Chef's Burger Bistro"}}, {"type": "node", "id": 3468511745, "lat": 41.8913274, "lon": -87.6085962, "tags": {"amenity": "bar", "name": "Margaritaville"}}, {"type": "node", "id": 3497376098, "lat": 41.8989054, "lon": -87.623641, "tags": {"addr:city": "Chicago", "addr:housenumber": "857", "addr:postcode": "60611", "addr:state": "IL", "addr:street": "North Michigan Avenue", "amenity": "cafe", "brand": "Starbucks", "brand:wikidata": "Q37158", "brand:wikipedia": "en:Starbucks", "cuisine": "coffee_shop", "name": "Starbucks", "official_name": "Starbucks Coffee", "takeaway": "yes", "website": "https://www.lappetito.com/"}}, {"type": "node", "id": 3549524275, "lat": 41.8862551, "lon": -87.6215867, "tags": {"amenity": "cafe", "brand": "Starbucks", "brand:wikidata": "Q37158", "brand:wikipedia": "en:Starbucks", "cuisine": "coffee_shop", "name": "Starbucks", "official_name": "Starbucks Coffee", "takeaway": "yes"}}, {"type": "node", "id": 3551677217, "lat": 41.8931548, "lon": -87.6204496, "tags": {"amenity": "cafe", "name": "West Egg", "wheelchair": "yes"}}, {"type": "node", "id": 3551688266, "lat": 41.8932431, "lon": -87.6208409, "tags": {"amenity": "restaurant", "cuisine": "indian", "name": "Indian Garden"}}, {"type": "node", "id": 3551688415, "lat": 41.8924751, "lon": -87.6187471, "tags": {"addr:city": "Chicago", "addr:housenumber": "345", "addr:postcode": "60611", "addr:state": "IL", "addr:street": "East Ohio Street", "amenity": "cafe", "name": "Dollop Coffee", "phone": "+1-312-929-4007", "website": "https://dollop.coffee/", "wheelchair": "yes"}}, {"type": "node", "id": 3575163023, "lat": 41.893236, "lon": -87.6221111, "tags": {"amenity": "cafe", "name": "Julius Meinl"}}, {"type": "node", "id": 3575163024, "lat": 41.893236, "lon": -87.6217893, "tags": {"amenity": "restaurant", "brand": "Blaze Pizza", "brand:wikidata": "Q23016666", "brand:wikipedia": "en:Blaze Pizza", "cuisine": "pizza", "name": "Blaze Pizza"}}, {"type": "node", "id": 3575163025, "lat": 41.893234, "lon": -87.6215908, "tags": {"amenity": "restaurant", "cuisine": "burger", "name": "Epic Burger"}}, {"type": "node", "id": 3575164510, "lat": 41.8927469, "lon": -87.6215023, "tags": {"amenity": "restaurant", "cuisine": "thai", "name": "Dao"}}, {"type": "node", "id": 3575164511, "lat": 41.8923735, "lon": -87.6211134, "tags": {"amenity": "restaurant", "cuisine": "spanish", "name": "Emilios Tapas"}}, {"type": "node", "id": 3575164512, "lat": 41.8927289, "lon": -87.622079, "tags": {"amenity": "restaurant", "cuisine": "italian", "name": "Tre Soldi"}}, {"type": "node", "id": 3575164513, "lat": 41.8927269, "lon": -87.6222426, "tags": {"addr:city": "Chicago", "addr:housenumber": "210", "addr:postcode": "60611", "addr:state": "IL", "addr:street": "East Ohio Street", "amenity": "restaurant", "cuisine": "japanese", "name": "Gyu-Kaku", "phone": "+1-312-266-8929", "website": "https://www.gyu-kaku.com"}}, {"type": "node", "id": 3575164515, "lat": 41.892702, "lon": -87.6231371, "tags": {"addr:city": "Chicago", "addr:housenumber": "162", "addr:postcode": "60611", "addr:state": "Il", "addr:street": "East Ohio Street", "amenity": "cafe", "cuisine": "coffee_shop", "name": "Kafenio Lavazza", "phone": "+1-312-255-8850", "website": "http://www.kafeniochicago.com/"}}, {"type": "node", "id": 3575173108, "lat": 41.8997553, "lon": -87.627613, "tags": {"amenity": "bar", "name": "Bernard's Bar"}}, {"type": "node", "id": 3575181784, "lat": 41.8933007, "lon": -87.6175766, "tags": {"amenity": "cafe", "brand": "Starbucks", "brand:wikidata": "Q37158", "brand:wikipedia": "en:Starbucks", "cuisine": "coffee_shop", "name": "Starbucks", "official_name": "Starbucks Coffee", "takeaway": "yes"}}, {"type": "node", "id": 3575181785, "lat": 41.893127, "lon": -87.6175793, "tags": {"amenity": "restaurant", "name": "Local Root"}}, {"type": "node", "id": 3575181786, "lat": 41.8924821, "lon": -87.6184376, "tags": {"amenity": "restaurant", "cuisine": "pizza", "name": "Robert's Pizza Company"}}, {"type": "node", "id": 3575222168, "lat": 41.8910524, "lon": -87.6273558, "tags": {"addr:city": "Chicago", "addr:housenumber": "505", "addr:postcode": "60654", "addr:state": "IL", "addr:street": "North State Street", "addr:unit": "101", "amenity": "restaurant", "name": "Sable Kitchen & Bar", "opening_hours": "Mo-Fr 07:00-10:30, 16:00-02:00; Sa 08:00-02:00; Su 08:00-00:00", "phone": "+1-312-755-9704", "website": "https://sablechicago.com/"}}, {"type": "node", "id": 3586161238, "lat": 41.8913956, "lon": -87.6244867, "tags": {"amenity": "restaurant", "cuisine": "chinese", "name": "Lao Sze Chuan"}}, {"type": "node", "id": 3599587526, "lat": 41.8870669, "lon": -87.6289147, "tags": {"addr:city": "Chicago", "addr:housenumber": "11", "addr:postcode": "60601", "addr:state": "IL", "addr:street": "W. Riverwalk South", "amenity": "bar", "name": "City Winery at the Chicago Riverwalk", "opening_hours": "Mo-Su 11:00-21:00", "phone": "+1-312-229-5593", "website": "http://www.citywinery.com/chicago/riverwalk"}}, {"type": "node", "id": 3617803834, "lat": 41.895043, "lon": -87.6266247, "tags": {"addr:city": "Chicago", "addr:housenumber": "30", "addr:postcode": "60611", "addr:state": "IL", "addr:street": "East Huron Street", "amenity": "cafe", "cuisine": "italian;sandwich", "name": "Cafe L'Appetito", "opening_hours": "Mo-Fr 07:30-18:30; Sa 08:30-18:30", "phone": "+1-312-787-9881", "website": "https://www.lappetito.com/"}}, {"type": "node", "id": 3637654282, "lat": 41.8948585, "lon": -87.6172594, "tags": {"amenity": "cafe", "name": "Cafe Descartes"}}, {"type": "node", "id": 3641173764, "lat": 41.8911753, "lon": -87.6251872, "tags": {"addr:city": "Chicago", "addr:housenumber": "521", "addr:postcode": "60611", "addr:state": "IL", "addr:street": "North Rush Street", "addr:unit": "5", "amenity": "bar", "brand": "Luxury Collection", "fax": "+1-312-645-1550", "internet_access": "wlan", "name": "Upstairs at Gwen", "operator": "Marriott International", "payment:american_express": "yes", "payment:cash": "yes", "payment:diners_club": "yes", "payment:discover_card": "yes", "payment:mastercard": "yes", "payment:visa": "yes", "phone": "+1-312-645-1500", "smoking": "no", "stars": "5", "website": "https://www.thegwenchicago.com/"}}, {"type": "node", "id": 3641178683, "lat": 41.8918368, "lon": -87.6260809, "tags": {"addr:city": "Chicago", "addr:housenumber": "50", "addr:postcode": "60611", "addr:state": "IL", "addr:street": "East Grand Avenue", "amenity": "restaurant", "cuisine": "sushi", "name": "Oysy", "opening_hours": "Mo-Th 11:30-22:00; Fr 11:30-23:00; Sa 12:00-23:00; Su 12:00-21:30", "phone": "+1-312-670-6750", "website": "http://oysysushi.com/"}}, {"type": "node", "id": 3660898211, "lat": 41.8965127, "lon": -87.624786, "tags": {"amenity": "restaurant", "name": "RL"}}, {"type": "node", "id": 3660899325, "lat": 41.8918754, "lon": -87.623299, "tags": {"amenity": "restaurant", "name": "Labriola Ristorante & Cafe"}}, {"type": "node", "id": 3660900078, "lat": 41.8924171, "lon": -87.6232272, "tags": {"amenity": "restaurant", "cuisine": "armenian", "name": "Sayat Nova"}}, {"type": "node", "id": 3660900079, "lat": 41.8923449, "lon": -87.6232272, "tags": {"addr:city": "Chicago", "addr:housenumber": "157", "addr:postcode": "60611", "addr:state": "IL", "addr:street": "East Ohio Street", "amenity": "bar", "name": "Second Story Bar", "phone": "+1-312-923-9536"}}, {"type": "node", "id": 3660900090, "lat": 41.8990545, "lon": -87.6214863, "tags": {"addr:city": "Chicago", "addr:housenumber": "201", "addr:postcode": "60611", "addr:state": "IL", "addr:street": "East Delaware Place", "amenity": "bar", "name": "Drumbar", "phone": "+1-312-933-4805", "website": "https://www.drumbar.com/"}}, {"type": "node", "id": 3888249966, "lat": 41.8986795, "lon": -87.626781}, {"type": "node", "id": 3888249967, "lat": 41.8986984, "lon": -87.626716}, {"type": "node", "id": 3888249968, "lat": 41.8985305, "lon": -87.6267119}, {"type": "node", "id": 3888249969, "lat": 41.89855, "lon": -87.6266425}, {"type": "node", "id": 3917218261, "lat": 41.8924038, "lon": -87.6212638, "tags": {"amenity": "restaurant", "name": "Ramen MisoYa"}}, {"type": "node", "id": 3918941297, "lat": 41.8897038, "lon": -87.6259049, "tags": {"addr:city": "Chicago", "addr:housenumber": "405", "addr:postcode": "60611", "addr:state": "IL", "addr:street": "North Wabash Avenue", "amenity": "restaurant", "cuisine": "pizza;italian", "name": "Bongiorno's Cucina Italiana & Pizzeria", "opening_hours": "Mo-Sa 10:00-22:00; Su 12:00-21:00", "phone": "+1-312-755-1255", "website": "http://www.bongiornoschicago.com/"}}, {"type": "node", "id": 3918944637, "lat": 41.8897262, "lon": -87.6212705, "tags": {"amenity": "cafe", "name": "Illy"}}, {"type": "node", "id": 3985040972, "lat": 41.8861962, "lon": -87.6129597, "tags": {"amenity": "restaurant", "cuisine": "chinese", "name": "Friendship Chinese"}}, {"type": "node", "id": 4012075690, "lat": 41.8842961, "lon": -87.6291579, "tags": {"addr:city": "Chicago", "addr:country": "US", "addr:housenumber": "108", "addr:postcode": "60602", "addr:state": "IL", "addr:street": "North State Street", "amenity": "restaurant", "name": "Latinicity", "wheelchair": "yes"}}, {"type": "node", "id": 4035384265, "lat": 41.8923635, "lon": -87.6265616, "tags": {"amenity": "cafe", "name": "Caff\u00e8 Lavazza"}}, {"type": "node", "id": 4035384266, "lat": 41.8923216, "lon": -87.6262022, "tags": {"amenity": "cafe", "name": "Caff\u00e8 Vergnano"}}, {"type": "node", "id": 4036871250, "lat": 41.9013634, "lon": -87.6276181, "tags": {"addr:city": "Chicago", "addr:housenumber": "1015", "addr:postcode": "60611", "addr:state": "IL", "addr:street": "North Rush Street", "amenity": "restaurant", "cuisine": "italian", "name": "Nico Osteria", "opening_hours": "Mo-Th 07:30-22:00; Fr 07:30-23:00; Sa 09:00-23:00; Su 09:00-22:00", "phone": "+1-312-994-7100", "website": "https://www.nicoosteria.com/"}}, {"type": "node", "id": 4060199301, "lat": 41.892983, "lon": -87.6255876, "tags": {"amenity": "bar", "name": "Jimmy"}}, {"type": "node", "id": 4060205624, "lat": 41.8934902, "lon": -87.6250273, "tags": {"addr:city": "Chicago", "addr:housenumber": "100", "addr:postcode": "60611", "addr:state": "IL", "addr:street": "East Ontario Street", "amenity": "restaurant", "cuisine": "steak_house;steak;american", "name": "Lawry's The Prime Rib", "opening_hours": "Mo-Fr 17:00-21:30; Sa 16:30-22:00; Su 15:30-20:00", "phone": "+1-312-787-5000", "website": "https://www.lawrysonline.com/"}}, {"type": "node", "id": 4097813076, "lat": 41.8909495, "lon": -87.6162491, "tags": {"addr:city": "Chicago", "addr:housenumber": "435", "addr:postcode": "60611", "addr:state": "IL", "addr:street": "East Illinois Street", "amenity": "restaurant", "name": "Pinstripes", "opening_hours": "11:30-23:00", "phone": "+1-312-527-3010", "takeaway": "yes", "website": "https://pinstripes.com/chicago-illinois/", "wheelchair": "limited"}}, {"type": "node", "id": 4130928516, "lat": 41.8939159, "lon": -87.6208256, "tags": {"addr:city": "Chicago", "addr:housenumber": "259", "addr:street": "East Erie Street", "amenity": "bar", "description": "18th Floor", "name": "GreenRiver"}}, {"type": "node", "id": 4130928517, "lat": 41.8935535, "lon": -87.6205329, "tags": {"amenity": "restaurant", "name": "Lyfe Kitchen"}}, {"type": "node", "id": 4199525889, "lat": 41.8958988, "lon": -87.6256814, "tags": {"addr:city": "Chicago", "addr:housenumber": "730", "addr:postcode": "60611", "addr:state": "IL", "addr:street": "North Rush Street", "amenity": "restaurant", "cuisine": "pizza", "name": "Giordano's", "opening_hours": "Su-Th 11:00-23:00; Fr-Sa 11:00-00:00", "phone": "+1-312-951-0747", "website": "https://giordanos.com/"}}, {"type": "node", "id": 4222717943, "lat": 41.8906383, "lon": -87.6173152, "tags": {"amenity": "cafe", "brand": "Starbucks", "brand:wikidata": "Q37158", "brand:wikipedia": "en:Starbucks", "cuisine": "coffee_shop", "name": "Starbucks", "official_name": "Starbucks Coffee", "takeaway": "yes"}}, {"type": "node", "id": 4222717945, "lat": 41.8912617, "lon": -87.6149427, "tags": {"addr:city": "Chicago", "addr:housenumber": "502", "addr:postcode": "60611", "addr:state": "IL", "addr:street": "East Illinois Street", "amenity": "restaurant", "name": "Kanela Breakfast Club", "phone": "+1-312-380-0071", "website": "http://www.kanelabreakfastclub.com/"}}, {"type": "node", "id": 4222717946, "lat": 41.8912044, "lon": -87.6187447, "tags": {"amenity": "restaurant", "name": "Niu Japanese Fusion"}}, {"type": "node", "id": 4236743390, "lat": 41.8842027, "lon": -87.6292577, "tags": {"addr:city": "Chicago", "addr:housenumber": "145", "addr:postcode": "60602", "addr:state": "IL", "addr:street": "North Dearborn Street", "amenity": "restaurant", "cuisine": "american", "name": "The Dearborn", "opening_hours": "Mo 11:00-22:00; Tu-Th 11:00-23:00; Fr 11:00-00:00; Sa 10:00-00:00; Su 10:00-22:00", "phone": "+1-312-384-1242", "website": "https://www.thedearborntavern.com/"}}, {"type": "node", "id": 4266779691, "lat": 41.8885943, "lon": -87.6283157, "tags": {"addr:city": "Chicago", "addr:housenumber": "350", "addr:postcode": "60654", "addr:state": "IL", "addr:street": "North State Street", "amenity": "restaurant", "cuisine": "american", "internet_access": "wlan", "name": "Tortoise Supper Club", "outdoor_seating": "no", "phone": "+1-312-755-1700", "website": "https://www.tortoisesupperclub.com/"}}, {"type": "node", "id": 4306418293, "lat": 41.8882819, "lon": -87.6215145, "tags": {"amenity": "cafe", "name": "Cyrano's Caf\u00e9 & Wine Bar", "opening_hours": "Mo-Su 11:00-22:00"}}, {"type": "node", "id": 4306493789, "lat": 41.8880159, "lon": -87.6187797, "tags": {"amenity": "bar", "name": "Island Party Hut"}}, {"type": "node", "id": 4465471490, "lat": 41.8898798, "lon": -87.6271532, "tags": {"addr:city": "Chicago", "addr:housenumber": "21", "addr:postcode": "60611", "addr:state": "IL", "addr:street": "East Hubbard Street", "amenity": "restaurant", "name": "Shaw\u2019s Crab House", "phone": "+1-312-527-2722", "website": "http://shawscrabhouse.com/chicago/"}}, {"type": "node", "id": 4472140007, "lat": 41.887837, "lon": -87.625384, "tags": {"addr:city": "Chicago", "addr:country": "US", "addr:housenumber": "85", "addr:postcode": "60601", "addr:state": "IL", "addr:street": "East Wacker Drive", "amenity": "bar", "name": "LH Rooftop", "outdoor_seating": "yes", "phone": "+1-312-357-1200", "website": "https://londonhousechicago.com/rooftop/"}}, {"type": "node", "id": 4565730799, "lat": 41.8861373, "lon": -87.6261018, "tags": {"addr:city": "Chicago", "addr:housenumber": "203", "addr:postcode": "60601", "addr:state": "IL", "addr:street": "North Wabash Avenue", "amenity": "bar", "name": "Cerise", "opening_hours": "Mo-Su 06:00-19:00", "phone": "+1-312-940-4774", "website": "https://virginhotels.com/chicago/dine-and-drink/cerise/"}}, {"type": "node", "id": 4567572190, "lat": 41.8918574, "lon": -87.626919, "tags": {"addr:city": "Chicago", "addr:housenumber": "530", "addr:postcode": "60611", "addr:state": "IL", "addr:street": "North Wabash Avenue", "amenity": "restaurant", "brand": "P.F. Chang's", "brand:wikidata": "Q5360181", "brand:wikipedia": "en:P. F. Chang's China Bistro", "cuisine": "asian", "name": "P.F. Chang's", "name:en": "P.F. Chang's", "official_name": "P.F. Chang's China Bistro"}}, {"type": "node", "id": 4634046603, "lat": 41.8866803, "lon": -87.6167118, "tags": {"amenity": "cafe", "leisure": "picnic_table", "name": "ROM", "outdoor_seating": "yes"}}, {"type": "node", "id": 4731329221, "lat": 41.9009516, "lon": -87.6278769, "tags": {"addr:housenumber": "1024", "addr:street": "North Rush Street", "amenity": "restaurant"}}, {"type": "node", "id": 4737382944, "lat": 41.8914743, "lon": -87.6068822, "tags": {"addr:city": "Chicago", "addr:housenumber": "600", "addr:postcode": "60611", "addr:state": "IL", "addr:street": "East Grand Avenue", "amenity": "restaurant", "cuisine": "mexican", "name": "Xurro", "website": "https://www.churrofactory.com/", "website:yelp": "https://www.yelp.com/biz/porkchop-bbq-chicago-2"}}, {"type": "node", "id": 4753133272, "lat": 41.8951218, "lon": -87.6159872}, {"type": "node", "id": 4753133273, "lat": 41.8943551, "lon": -87.6155903}, {"type": "node", "id": 4753133274, "lat": 41.8967789, "lon": -87.6170666}, {"type": "node", "id": 4753133275, "lat": 41.8967123, "lon": -87.6228676}, {"type": "node", "id": 4753133276, "lat": 41.8934615, "lon": -87.6212048}, {"type": "node", "id": 4874072421, "lat": 41.8940111, "lon": -87.6234149, "tags": {"amenity": "restaurant", "brand": "TGI Friday's", "brand:wikidata": "Q1524184", "brand:wikipedia": "en:TGI Fridays", "cuisine": "american", "name": "TGI Friday's", "name:en": "TGI Fridays"}}, {"type": "node", "id": 4980136423, "lat": 41.8888581, "lon": -87.6294161}, {"type": "node", "id": 5009406229, "lat": 41.8948959, "lon": -87.6228478}, {"type": "node", "id": 5009406230, "lat": 41.894893, "lon": -87.6234891}, {"type": "node", "id": 5009406231, "lat": 41.8942213, "lon": -87.6234767}, {"type": "node", "id": 5009406232, "lat": 41.8938634, "lon": -87.6217727}, {"type": "node", "id": 5009406233, "lat": 41.8942391, "lon": -87.6217772}, {"type": "node", "id": 5009406234, "lat": 41.8938791, "lon": -87.6212125}, {"type": "node", "id": 5009406235, "lat": 41.8934672, "lon": -87.6204091}, {"type": "node", "id": 5009406236, "lat": 41.8934962, "lon": -87.6189642}, {"type": "node", "id": 5009406237, "lat": 41.8942855, "lon": -87.6189941}, {"type": "node", "id": 5029780821, "lat": 41.8940244, "lon": -87.6215054, "tags": {"addr:postcode": "60611", "amenity": "cafe", "cuisine": "american", "name": "Do - Rite Donuts & Chicken", "phone": "(312)344-1374"}}, {"type": "node", "id": 5091005360, "lat": 41.8826192, "lon": -87.6262167, "tags": {"name": "Washington/Wabash", "network": "CTA", "operator": "Chicago Transit Authority", "public_transport": "stop_position", "railway": "stop", "subway": "yes"}}, {"type": "node", "id": 5091005361, "lat": 41.8830443, "lon": -87.6261805, "tags": {"name": "Washington/Wabash", "network": "CTA", "operator": "Chicago Transit Authority", "public_transport": "stop_position", "railway": "stop", "subway": "yes"}}, {"type": "node", "id": 5159473692, "lat": 41.8931982, "lon": -87.6245306, "tags": {"addr:city": "Chicago", "addr:country": "US", "addr:postcode": "60611", "addr:state": "IL", "addr:street": "600 N Michigan Avenue", "amenity": "cafe", "lat": "41.89334", "lon": "-87.6242", "name": "Grand Lux Cafe", "phone": "312-276-2500", "website": "https://www.grandluxcafe.com/"}}, {"type": "node", "id": 5168220159, "lat": 41.8905935, "lon": -87.6285195, "tags": {"addr:city": "Chicago", "addr:housenumber": "11", "addr:postcode": "60654", "addr:state": "IL", "addr:street": "West Illinois Street", "amenity": "restaurant", "cuisine": "mexican;caribbean;asian", "name": "Flora Fauna", "opening_hours": "Tu-Th 17:00-22:00; Fr 11:30-14:00; Fr 17:00-23:00; Sa 10:00-14:00; Sa 17:00-23:00; Su 10:00-14:00; Su 17:00-22:00", "phone": "+1-312-624-9276", "website": "http://www.florafaunachicago.com/"}}, {"type": "node", "id": 5267040321, "lat": 41.8967431, "lon": -87.6282666, "tags": {"name": "Chicago", "network": "CTA", "operator": "Chicago Transit Authority", "public_transport": "stop_position", "railway": "stop", "subway": "yes"}}, {"type": "node", "id": 5267040322, "lat": 41.896745, "lon": -87.6281497, "tags": {"name": "Chicago", "network": "CTA", "operator": "Chicago Transit Authority", "public_transport": "stop_position", "railway": "stop", "subway": "yes"}}, {"type": "node", "id": 5267058060, "lat": 41.8854178, "lon": -87.627969, "tags": {"name": "Lake", "network": "CTA", "operator": "Chicago Transit Authority", "public_transport": "stop_position", "railway": "stop", "subway": "yes"}}, {"type": "node", "id": 5267058061, "lat": 41.8854208, "lon": -87.6278686, "tags": {"name": "Lake", "network": "CTA", "operator": "Chicago Transit Authority", "public_transport": "stop_position", "railway": "stop", "subway": "yes"}}, {"type": "node", "id": 5272952064, "lat": 41.891221, "lon": -87.6476367, "tags": {"name": "Grand", "network": "CTA", "operator": "Chicago Transit Authority", "public_transport": "stop_position", "railway": "stop", "subway": "yes"}}, {"type": "node", "id": 5272952065, "lat": 41.8856844, "lon": -87.6312903, "tags": {"name": "Clark/Lake", "network": "CTA", "operator": "Chicago Transit Authority", "public_transport": "stop_position", "railway": "stop", "subway": "yes"}}, {"type": "node", "id": 5272952066, "lat": 41.8857373, "lon": -87.6312876, "tags": {"name": "Clark/Lake", "network": "CTA", "operator": "Chicago Transit Authority", "public_transport": "stop_position", "railway": "stop", "subway": "yes"}}, {"type": "node", "id": 5272952067, "lat": 41.883209, "lon": -87.6294539, "tags": {"name": "Washington", "network": "CTA", "operator": "Chicago Transit Authority", "public_transport": "stop_position", "railway": "stop", "subway": "yes"}}, {"type": "node", "id": 5272957251, "lat": 41.8962122, "lon": -87.6553004, "tags": {"name": "Chicago", "network": "CTA", "operator": "Chicago Transit Authority", "public_transport": "stop_position", "railway": "stop", "subway": "yes"}}, {"type": "node", "id": 5272959956, "lat": 41.8781723, "lon": -87.6292891, "tags": {"name": "Jackson", "network": "CTA", "operator": "Chicago Transit Authority", "public_transport": "stop_position", "railway": "stop", "subway": "yes"}}, {"type": "node", "id": 5272959957, "lat": 41.8807275, "lon": -87.62938, "tags": {"name": "Monroe", "network": "CTA", "operator": "Chicago Transit Authority", "public_transport": "stop_position", "railway": "stop", "subway": "yes"}}, {"type": "node", "id": 5272963174, "lat": 41.8756111, "lon": -87.6316453, "tags": {"name": "LaSalle", "network": "CTA", "operator": "Chicago Transit Authority", "public_transport": "stop_position", "railway": "stop", "subway": "yes"}}, {"type": "node", "id": 5441583586, "lat": 41.8879611, "lon": -87.6285967, "tags": {"addr:city": "Chicago", "addr:housenumber": "318", "addr:postcode": "60654", "addr:state": "IL", "addr:street": "North State Street", "amenity": "restaurant", "cuisine": "steak_house;steak;seafood", "name": "Smith & Wollensky", "opening_hours": "Su-Th 11:30-22:00; Fr-Sa 11:30-23:00", "phone": "+1-312-670-9900", "website": "https://www.smithandwollensky.com/our-restaurants/chicago/"}}, {"type": "node", "id": 5441614823, "lat": 41.8879052, "lon": -87.6292439, "tags": {"addr:city": "Chicago", "addr:housenumber": "315", "addr:postcode": "60654", "addr:state": "IL", "addr:street": "North Dearborn Street", "amenity": "restaurant", "cuisine": "american", "name": "Dick's Last Resort", "opening_hours": "Su-Fr 11:00-00:00; Sa 11:00-02:00", "phone": "+1-312-836-7870", "website": "https://www.dickslastresort.com/"}}, {"type": "node", "id": 5443100457, "lat": 41.8897784, "lon": -87.6281827, "tags": {"addr:city": "Chicago", "addr:housenumber": "412", "addr:postcode": "60654", "addr:state": "IL", "addr:street": "North State Street", "amenity": "bar", "name": "Rossi\u2019s Liquors", "opening_hours": "Mo-Su 07:00-02:00", "phone": "+1-312-644-5775"}}, {"type": "node", "id": 5443109132, "lat": 41.889415, "lon": -87.6282309, "tags": {"addr:city": "Chicago", "addr:housenumber": "400", "addr:postcode": "60654", "addr:state": "IL", "addr:street": "North State Street", "amenity": "restaurant", "cuisine": "american;pub", "name": "Public House", "opening_hours": "Mo-Fr 11:30-02:00; Sa 10:00-03:00; Su 10:00-02:00", "phone": "+1-312-265-1240", "website": "http://www.publichousechicago.com/"}}, {"type": "node", "id": 5443110934, "lat": 41.8896287, "lon": -87.6282314, "tags": {"addr:city": "Chicago", "addr:housenumber": "400", "addr:postcode": "60654", "addr:state": "IL", "addr:street": "North State Street", "amenity": "restaurant", "cuisine": "pizza", "name": "Dough Bros Pizzeria & Sub Shop", "opening_hours": "Su-We 11:00-00:00; Th 11:00-02:00; Fr-Sa 11:00-04:00", "phone": "+1-312-600-9078", "website": "http://www.doughbrospizza.com/"}}, {"type": "node", "id": 5443126530, "lat": 41.8898183, "lon": -87.6285636, "tags": {"addr:city": "Chicago", "addr:housenumber": "15", "addr:postcode": "60654", "addr:state": "IL", "addr:street": "West Hubbard Street", "amenity": "restaurant", "cuisine": "mexican", "name": "El Hefe Mexican Restaurant", "opening_hours": "Mo-Fr 11:00-02:00; Sa 10:00-03:00; Su 10:00-02:00", "phone": "+1-312-548-6841", "website": "http://elhefechicago.com/"}}, {"type": "node", "id": 5443133144, "lat": 41.8899261, "lon": -87.629311, "tags": {"addr:city": "Chicago", "addr:housenumber": "29", "addr:postcode": "60654", "addr:state": "IL", "addr:street": "West Hubbard Street", "amenity": "bar", "name": "O'Callaghan's", "opening_hours": "Su-Fr 11:00-04:00; Sa 11:00-05:00", "phone": "+1-312-527-1180", "website": "http://www.ocallaghanspub.com/"}}, {"type": "node", "id": 5443134580, "lat": 41.8902576, "lon": -87.6286217, "tags": {"addr:city": "Chicago", "addr:housenumber": "18", "addr:postcode": "60654", "addr:state": "IL", "addr:street": "West Hubbard Street", "amenity": "bar", "name": "Henry's", "opening_hours": "Tu-We 17:00-00:00; Th 17:00-02:00; Fr 16:00-02:00; Sa 17:00-03:00; Su 20:00-02:00", "phone": "+1-312-955-8018", "website": "https://www.henrys-chicago.com/"}}, {"type": "node", "id": 5443138701, "lat": 41.8898802, "lon": -87.6286574, "tags": {"addr:city": "Chicago", "addr:housenumber": "9", "addr:postcode": "60654", "addr:state": "IL", "addr:street": "West Hubbard Street", "amenity": "bar", "name": "Theory", "opening_hours": "Mo-We 11:30-00:00; Th-Fr 11:30-02:00; Sa 11:00-03:00; Su 11:00-02:00", "phone": "+1-312-644-0004", "website": "https://www.theorychicago.com/"}}, {"type": "node", "id": 5443148121, "lat": 41.8903874, "lon": -87.6282336, "tags": {"addr:city": "Chicago", "addr:housenumber": "6", "addr:postcode": "60654", "addr:state": "IL", "addr:street": "West Hubbard Street", "amenity": "restaurant", "cuisine": "chinese;asian", "name": "Imperial Lamian", "opening_hours": "Mo-Fr 11:30-22:00; Sa-Su 10:00-22:00", "phone": "+1-312-595-9440", "website": "http://www.imperial-lamian.com/"}}, {"type": "node", "id": 5443150384, "lat": 41.8902795, "lon": -87.6271286, "tags": {"addr:city": "Chicago", "addr:housenumber": "22", "addr:postcode": "60611", "addr:state": "IL", "addr:street": "East Hubbard Street", "amenity": "bar", "name": "Blue Frog's Local 22", "opening_hours": "Mo-Fr 11:00-02:00; Sa 11:00-03:00; Su 12:00-00:00", "phone": "+1-312-527-1200", "website": "http://local22chicago.com/"}}, {"type": "node", "id": 5443170934, "lat": 41.8906429, "lon": -87.6287111, "tags": {"addr:city": "Chicago", "addr:housenumber": "15", "addr:postcode": "60654", "addr:state": "IL", "addr:street": "West Illinois Street", "amenity": "bar", "name": "Fremont", "opening_hours": "We-Fr 17:00-02:00; Sa 10:00-03:00; Su 10:00-00:00", "phone": "+1-312-874-7270", "website": "https://fremontchicago.com/"}}, {"type": "node", "id": 5443174642, "lat": 41.890615, "lon": -87.6293977, "tags": {"addr:city": "Chicago", "addr:housenumber": "445", "addr:postcode": "60654", "addr:state": "IL", "addr:street": "North Dearborn Street", "amenity": "restaurant", "cuisine": "italian", "name": "Mama's Boy", "opening_hours": "Mo-Th 11:00-23:00; Fr 11:00-00:00; Sa-Su 16:00-00:00", "phone": "+1-312-832-7700", "website": "http://www.rosebudrestaurants.com/restaurant/mamas-boy-peasant-italian/"}}, {"type": "node", "id": 5455666774, "lat": 41.890673, "lon": -87.6270304, "tags": {"addr:city": "Chicago", "addr:housenumber": "444", "addr:postcode": "60611", "addr:state": "IL", "addr:street": "North Wabash Avenue", "amenity": "restaurant", "cuisine": "steak_house;steak;seafood;fine_dining", "name": "Benny's Chop House", "opening_hours": "Mo-Su 11:30-23:30", "phone": "+1-312-626-2444", "website": "http://www.bennyschophouse.com/"}}, {"type": "node", "id": 5455670908, "lat": 41.890681, "lon": -87.6274747, "tags": {"addr:city": "Chicago", "addr:housenumber": "11", "addr:postcode": "60611", "addr:state": "IL", "addr:street": "East Illinois Street", "addr:unit": "1", "amenity": "restaurant", "cuisine": "thai;asian", "name": "Star of Siam", "opening_hours": "Su-Th 11:00-22:00; Fr-Sa 11:00-23:00", "phone": "+1-312-670-0100", "website": "https://www.starofsiamchicago.com/"}}, {"type": "node", "id": 5455690908, "lat": 41.8914257, "lon": -87.625565, "tags": {"addr:city": "Chicago", "addr:housenumber": "55", "addr:postcode": "60611", "addr:state": "IL", "addr:street": "East Grand Avenue", "amenity": "cafe", "cuisine": "coffee_shop;coffee", "name": "Ebar", "opening_hours": "Mo-Sa 08:00-21:00; Su 10:00-19:00", "phone": "+1-312-464-1515"}}, {"type": "node", "id": 5455697256, "lat": 41.8916034, "lon": -87.6252136, "tags": {"addr:city": "Chicago", "addr:housenumber": "521", "addr:postcode": "60611", "addr:state": "IL", "addr:street": "North Rush Street", "amenity": "restaurant", "cuisine": "seafood;fine_dining", "name": "Eddie V\u2019s Prime Seafood and Steaks", "opening_hours": "Su-Th 16:00-22:00; Fr-Sa 16:00-23:00", "outdoor_seating": "no", "phone": "+1-312-595-1114", "website": "https://www.eddiev.com/"}}, {"type": "node", "id": 5455708305, "lat": 41.8922943, "lon": -87.6274944, "tags": {"addr:city": "Chicago", "addr:housenumber": "15", "addr:postcode": "60611", "addr:state": "IL", "addr:street": "East Ohio Street", "amenity": "bar", "name": "Bodega", "opening_hours": "Su-Th 16:00-02:00; Sa 16:00-03:00"}}, {"type": "node", "id": 5455715745, "lat": 41.8922743, "lon": -87.6271377, "tags": {"addr:city": "Chicago", "addr:housenumber": "25", "addr:postcode": "60611", "addr:state": "IL", "addr:street": "East Ohio Street", "amenity": "restaurant", "cuisine": "steak_house;steak;wine", "name": "Fleming's Prime Steakhouse & Wine Bar", "opening_hours": "Mo-Th 17:00-22:00; Fr-Sa 17:00-23:00; Su 16:00-21:00", "phone": "+1-312-329-9463", "website": "https://www.flemingssteakhouse.com/"}}, {"type": "node", "id": 5455719094, "lat": 41.8926617, "lon": -87.6260433, "tags": {"addr:city": "Chicago", "addr:housenumber": "60", "addr:postcode": "60611", "addr:state": "IL", "addr:street": "East Ohio Street", "amenity": "restaurant", "cuisine": "asian", "name": "Big Bowl", "opening_hours": "Mo-Th 11:30-22:00; Fr-Sa 11:30-23:00; Su 11:30-21:00", "phone": "+1-312-951-1888", "website": "https://bigbowl.com/"}}, {"type": "node", "id": 5455726917, "lat": 41.8929891, "lon": -87.6264886, "tags": {"addr:city": "Chicago", "addr:housenumber": "615", "addr:postcode": "60611", "addr:state": "IL", "addr:street": "North Wabash Avenue", "amenity": "restaurant", "cuisine": "steak_house;steak", "name": "Steak 48", "phone": "+1-312-266-4848", "website": "https://steak48.com/"}}, {"type": "node", "id": 5456981243, "lat": 41.8939282, "lon": -87.6286954, "tags": {"addr:city": "Chicago", "addr:housenumber": "1", "addr:postcode": "60654", "addr:state": "IL", "addr:street": "West Erie Street", "amenity": "restaurant", "cuisine": "american", "diet:gluten_free": "yes", "diet:vegan": "yes", "diet:vegetarian": "yes", "name": "True Food Kitchen", "opening_hours": "Mo-Th 11:00-22:00; Fr 11:00-23:00; Sa 10:00-23:00; Su 10:00-21:00", "phone": "+1-312-204-6981", "website": "https://www.truefoodkitchen.com/chicago"}}, {"type": "node", "id": 5456983087, "lat": 41.8934341, "lon": -87.6287429, "tags": {"addr:city": "Chicago", "addr:housenumber": "16", "addr:postcode": "60654", "addr:state": "IL", "addr:street": "West Ontario Street", "amenity": "bar", "name": "The Redhead Piano Bar", "opening_hours": "Su-Fr 19:00-04:00; Sa 19:00-05:00", "phone": "+1-312-640-1000", "website": "https://www.redheadpianobar.com/"}}, {"type": "node", "id": 5456988515, "lat": 41.8942694, "lon": -87.6283372, "tags": {"addr:city": "Chicago", "addr:housenumber": "660", "addr:postcode": "60654", "addr:state": "IL", "addr:street": "North State Street", "amenity": "restaurant", "cuisine": "seafood;fine_dining", "name": "Portsmith", "opening_hours": "Mo-Fr 07:00-11:00, 11:30-14:00, 17:00-22:00; Sa-Su 08:00-14:00; Sa 17:00-22:00; Su 16:30-20:30", "phone": "+1-312-202-6050", "website": "https://www.portsmithchicago.com/"}}, {"type": "node", "id": 5456991665, "lat": 41.8942498, "lon": -87.6285058, "tags": {"addr:city": "Chicago", "addr:housenumber": "2", "addr:postcode": "60611", "addr:state": "IL", "addr:street": "West Erie Street", "addr:unit": "FL 26", "amenity": "bar", "name": "Apogee", "opening_hours": "Th-Su 17:00-02:00", "phone": "+1-312-202-6060", "website": "https://www.apogeechicago.com/"}}, {"type": "node", "id": 5457008591, "lat": 41.8942655, "lon": -87.6279262, "tags": {"addr:city": "Chicago", "addr:housenumber": "663", "addr:postcode": "60611", "addr:state": "IL", "addr:street": "North State Street", "amenity": "restaurant", "cuisine": "american", "name": "Bijan's Bistro", "opening_hours": "Su-Fr 10:00-03:00; Sa 10:00-04:00", "phone": "+1-312-202-1904", "website": "https://www.chicagobijansbistro.com/"}}, {"type": "node", "id": 5457017161, "lat": 41.895595, "lon": -87.6258346, "tags": {"addr:city": "Chicago", "addr:housenumber": "720", "addr:postcode": "60611", "addr:state": "IL", "addr:street": "North Rush Street", "amenity": "restaurant", "name": "Rosebud on Rush", "opening_hours": "Mo-Th 11:00-23:00; Fr 11:00-00:00; Sa 08:00-00:00; Su 08:00-23:00", "phone": "+1-312-266-6444", "website": "http://www.rosebudrestaurants.com/"}}, {"type": "node", "id": 5457023054, "lat": 41.8954146, "lon": -87.6256607, "tags": {"addr:city": "Chicago", "addr:housenumber": "710", "addr:postcode": "60611", "addr:state": "IL", "addr:street": "North Rush Street", "amenity": "restaurant", "cuisine": "thai;asian", "name": "Silver Spoon Thai Restaurant", "opening_hours": "Su-Th 11:00-23:00; Fr-Sa 11:00-23:00", "phone": "+1-312-944-7100", "website": "http://www.silverspoonasian.com/"}}, {"type": "node", "id": 5457024827, "lat": 41.8953665, "lon": -87.6258507, "tags": {"addr:city": "Chicago", "addr:housenumber": "710", "addr:postcode": "60611", "addr:state": "IL", "addr:street": "North Rush Street", "amenity": "restaurant", "cuisine": "asian;sushi", "name": "Friends Sushi", "opening_hours": "Su-Th 11:30-22:00; Fr-Sa 11:30-23:00", "phone": "+1-312-787-8998", "website": "https://www.friendssushi.com/"}}, {"type": "node", "id": 5457035870, "lat": 41.8959343, "lon": -87.6265696, "tags": {"addr:city": "Chicago", "addr:housenumber": "42", "addr:postcode": "60611", "addr:state": "IL", "addr:street": "East Superior Street", "amenity": "cafe", "cuisine": "coffee_shop;coffee", "name": "Sunny Side Up & Coffee Shoppe", "opening_hours": "Mo-Fr 08:00-14:00; Sa-Su 08:00-03:00", "phone": "+1-312-930-4242", "website": "http://restaurantwebx.com/SunnySideUp/"}}, {"type": "node", "id": 5457125602, "lat": 41.8914844, "lon": -87.6298622, "tags": {"addr:city": "Chicago", "addr:housenumber": "520", "addr:postcode": "60654", "addr:state": "IL", "addr:street": "North Dearborn Street", "amenity": "restaurant", "cuisine": "steak_house;steak;seafood;fine_dining", "name": "Matro's Steakhouse", "opening_hours": "Mo-Su 17:00-00:00", "phone": "+1-312-521-5100", "website": "https://www.mastrosrestaurants.com/"}}, {"type": "node", "id": 5457420626, "lat": 41.8898489, "lon": -87.6298703, "tags": {"addr:city": "Chicago", "addr:housenumber": "51", "addr:postcode": "60654", "addr:state": "IL", "addr:street": "West Hubbard Street", "amenity": "restaurant", "cuisine": "american", "name": "Hub 51", "opening_hours": "Mo-Th 11:00-23:00; Fr 11:00-02:00; Sa 10:00-03:00; Su 10:00-22:00", "phone": "+1-312-828-0051", "website": "http://hub51chicago.com/"}}, {"type": "node", "id": 5457427229, "lat": 41.8890792, "lon": -87.6298263, "tags": {"addr:city": "Chicago", "addr:housenumber": "51", "addr:postcode": "60654", "addr:state": "IL", "addr:street": "West Kinzie Street", "amenity": "restaurant", "cuisine": "pasta;italian;pizza", "name": "Siena Tavern", "opening_hours": "Mo-Fr 11:30-02:00; Sa 10:00-03:00; Su 10:00-02:00", "phone": "+1-312-595-1322", "website": "http://www.sienatavern.com/"}}, {"type": "node", "id": 5458040469, "lat": 41.8897293, "lon": -87.6256466, "tags": {"addr:city": "Chicago", "addr:housenumber": "405", "addr:postcode": "60611", "addr:state": "IL", "addr:street": "North Wabash Avenue", "amenity": "restaurant", "cuisine": "american;pub", "name": "Beacon Tavern", "opening_hours": "Mo-We 11:00-22:00; Th-Fr 11:00-23:00; Sa 10:00-23:00; Su 10:00-22:00", "outdoor_seating": "no", "phone": "+1-312-955-4226", "website": "http://beacontavern.com/"}}, {"type": "node", "id": 5458040762, "lat": 41.8922764, "lon": -87.6273201, "tags": {"addr:city": "Chicago", "addr:housenumber": "19", "addr:postcode": "60611", "addr:state": "IL", "addr:street": "East Ohio Street", "amenity": "bar", "name": "Broken Shaker Chicago", "opening_hours": "Mo-Fr 16:00-02:00; Sa 16:00-03:00; Su 18:00-02:00", "phone": "+1-773-303-3419", "website": "https://freehandhotels.com/chicago/broken-shaker/"}}, {"type": "node", "id": 5458055683, "lat": 41.8965194, "lon": -87.6266554, "tags": {"addr:city": "Chicago", "addr:housenumber": "39", "addr:postcode": "60611", "addr:state": "IL", "addr:street": "East Chicago Avenue", "amenity": "restaurant", "cuisine": "seafood;american", "name": "Devon Seafood Grill", "opening_hours": "Mo-Th 16:00-22:00; Fr-Sa 16:00-23:00; Su 16:00-21:00", "phone": "+1-312-440-8660", "website": "http://www.devonseafood.com/"}}, {"type": "node", "id": 5458057244, "lat": 41.8969107, "lon": -87.6262665, "tags": {"addr:city": "Chicago", "addr:housenumber": "50", "addr:postcode": "60611", "addr:state": "IL", "addr:street": "East Chicago Avenue", "amenity": "bar", "name": "Streeter's Tavern", "opening_hours": "Su-Fr 11:00-04:00; Sa 11:00-05:00", "phone": "+1-312-944-5206", "website": "https://streeterstavern.com/"}}, {"type": "node", "id": 5458061038, "lat": 41.8915913, "lon": -87.6263144, "tags": {"addr:city": "Chicago", "addr:housenumber": "55", "addr:postcode": "60611", "addr:state": "IL", "addr:street": "East Grand Avenue", "amenity": "restaurant", "cuisine": "american", "name": "Doc B's Fresh Kitchen - River North", "opening_hours": "Mo-Sa 11:00-22:00; Su 11:00-21:00", "phone": "+1-312-999-9300", "website": "https://docbsfreshkitchen.com/"}}, {"type": "node", "id": 5458075851, "lat": 41.8930977, "lon": -87.6294843, "tags": {"addr:city": "Chicago", "addr:housenumber": "35", "addr:postcode": "60654", "addr:state": "IL", "addr:street": "West Ontario Street", "amenity": "cafe", "cuisine": "coffee;american;breakfast", "name": "Eggsperience Cafe", "opening_hours": "Su-Mo 06:00-15:00", "phone": "+1-312-870-6773", "website": "https://www.eggsperiencecafe.com/"}}, {"type": "node", "id": 5458079650, "lat": 41.8931177, "lon": -87.6285875, "tags": {"addr:city": "Chicago", "addr:housenumber": "5", "addr:postcode": "60654", "addr:state": "IL", "addr:street": "West Ontario Street", "amenity": "restaurant", "cuisine": "american;burger", "name": "M Burger", "opening_hours": "Su-Th 11:00-21:00; Fr-Sa 11:00-22:00", "phone": "+1-312-428-3548", "website": "http://mburgerchicago.com/"}}, {"type": "node", "id": 5458099597, "lat": 41.888526, "lon": -87.6293663, "tags": {"addr:city": "Chicago", "addr:housenumber": "339", "addr:postcode": "60654", "addr:state": "IL", "addr:street": "North Dearborn Street", "amenity": "restaurant", "cuisine": "japanese;sushi", "name": "Katana", "opening_hours": "Mo-Fr 11:30-14:30; Su-Tu 17:00-22:00; We-Th 17:00-22:30; Fr-Sa 17:00-00:00", "phone": "+1-312-877-5544", "website": "http://www.innovativedining.com/restaurants/katana"}}, {"type": "node", "id": 5458102900, "lat": 41.8879689, "lon": -87.6284194, "tags": {"addr:city": "Chicago", "addr:housenumber": "318", "addr:postcode": "60654", "addr:state": "IL", "addr:street": "North State Street", "amenity": "restaurant", "cuisine": "american;pub", "name": "Wollensky's Grill", "opening_hours": "Mo-Th 11:30-00:00; Fr-Sa 11:30-01:00; Su 11:30-23:00", "phone": "+1-312-670-9596", "website": "https://www.wollenskysgrill.com/"}}, {"type": "node", "id": 5458112400, "lat": 41.8959255, "lon": -87.6264355, "tags": {"addr:city": "Chicago", "addr:housenumber": "46", "addr:postcode": "60611", "addr:state": "IL", "addr:street": "East Superior Street", "amenity": "restaurant", "cuisine": "mexican", "name": "New Rebozo Chicago", "opening_hours": "Tu-Fr 17:00-22:00; Sa-Su 12:00-22:00", "phone": "+1-312-202-9141", "website": "http://www.newrebozo.com/"}}, {"type": "node", "id": 5458115445, "lat": 41.8931024, "lon": -87.6283685, "tags": {"addr:city": "Chicago", "addr:housenumber": "620", "addr:postcode": "60654", "addr:state": "IL", "addr:street": "North State Street", "amenity": "restaurant", "cuisine": "italian", "name": "Osteria Via Stato", "opening_hours": "Mo-Th 11:30-22:00; Fr-Sa 11:30-23:00; Su 11:30-21:30", "phone": "+1-312-642-8450", "website": "http://osteriaviastato.com/"}}, {"type": "node", "id": 5458122913, "lat": 41.8888011, "lon": -87.626616, "tags": {"addr:city": "Chicago", "addr:housenumber": "401", "addr:postcode": "60611", "addr:state": "IL", "addr:street": "North Wabash Avenue", "amenity": "bar", "name": "Rebar", "opening_hours": "Mo-We 16:00-00:00; Th-Fr 16:00-01:00; Sa 15:00-01:00; Su 13:00-00:00", "phone": "+1-312-588-8034"}}, {"type": "node", "id": 5458124343, "lat": 41.8930228, "lon": -87.6283466, "tags": {"addr:city": "Chicago", "addr:housenumber": "620", "addr:postcode": "60654", "addr:state": "IL", "addr:street": "North State Street", "amenity": "restaurant", "cuisine": "pizza", "name": "Pizzeria Via Stato", "opening_hours": "Mo-Th 11:30-23:00; Fr-Sa 11:30-00:00; Su 11:30-21:30", "phone": "+1-312-642-8450", "website": "http://osteriaviastato.com/"}}, {"type": "node", "id": 5458130326, "lat": 41.8902387, "lon": -87.6284864, "tags": {"addr:city": "Chicago", "addr:housenumber": "18", "addr:postcode": "60654", "addr:state": "IL", "addr:street": "West Hubbard Street", "amenity": "bar", "name": "The Rec Room", "opening_hours": "Th 21:00-02:00; Fr-Sa 21:00-03:00", "phone": "+1-312-955-8018", "website": "https://www.rec-room-chicago.com/"}}, {"type": "node", "id": 5458131876, "lat": 41.8955249, "lon": -87.6286917, "tags": {"addr:city": "Chicago", "addr:housenumber": "720", "addr:postcode": "60654", "addr:state": "IL", "addr:street": "North State Street", "amenity": "restaurant", "cuisine": "hawaiian", "name": "Roy's Restaurant", "opening_hours": "Mo-Th 16:00-22:00; Fr 16:00-23:00; Sa 11:00-23:00; Su 11:00-21:00", "phone": "+1-312-787-7599", "website": "https://www.roysrestaurant.com/"}}, {"type": "node", "id": 5458132932, "lat": 41.8934973, "lon": -87.6259171, "tags": {"addr:city": "Chicago", "addr:housenumber": "60", "addr:postcode": "60611", "addr:state": "IL", "addr:street": "East Ontario Street", "amenity": "restaurant", "cuisine": "american", "name": "Safehouse Chicago", "phone": "+1-312-313-1007", "website": "https://www.safehousechicago.com/"}}, {"type": "node", "id": 5458135944, "lat": 41.8959868, "lon": -87.625003, "tags": {"addr:city": "Chicago", "addr:housenumber": "108", "addr:postcode": "60611", "addr:state": "IL", "addr:street": "East Superior Street", "amenity": "restaurant", "name": "Shanghai Terrace", "phone": "+1-312-573-6695", "website": "https://www.peninsula.com/en/chicago/hotel-fine-dining/shanghai-terrace-cantonese"}}, {"type": "node", "id": 5458139174, "lat": 41.8958997, "lon": -87.6252675, "tags": {"addr:city": "Chicago", "addr:housenumber": "108", "addr:postcode": "60611", "addr:state": "IL", "addr:street": "East Superior Street", "amenity": "restaurant", "cuisine": "european", "name": "Pierrot Gourmet at The Peninsula", "opening_hours": "Mo-Th 07:00-21:00; Fr-Sa 07:00-22:00; Su 07:00-21:00", "phone": "+1-312-573-6749", "website": "https://chicago.peninsula.com/en/fine-dining/pierrot-gourmet-cafe"}}, {"type": "node", "id": 5458142438, "lat": 41.8886729, "lon": -87.6287013, "tags": {"addr:city": "Chicago", "addr:housenumber": "344", "addr:postcode": "60654", "addr:state": "IL", "addr:street": "North State Street", "amenity": "bar", "name": "SPIN Chicago", "phone": "+1-773-635-9999", "website": "http://chicago.wearespin.com/"}}, {"type": "node", "id": 5458143589, "lat": 41.8890096, "lon": -87.6286767, "tags": {"addr:city": "Chicago", "addr:housenumber": "9", "addr:postcode": "60654", "addr:state": "IL", "addr:street": "West Kinzie Street", "amenity": "restaurant", "cuisine": "steak_house;steak;seafood;fine_dining", "name": "STK Chicago", "opening_hours": "Su-Mo 17:00-22:00; Tu-Th 17:00-23:00; Fr-Sa 17:00-00:00", "phone": "+1-312-340-5636", "website": "https://togrp.com/venue/stk-chicago/"}}, {"type": "node", "id": 5458146194, "lat": 41.8931725, "lon": -87.6279377, "tags": {"addr:city": "Chicago", "addr:housenumber": "623", "addr:postcode": "60654", "addr:state": "IL", "addr:street": "North State Street", "amenity": "restaurant", "cuisine": "american;salad", "name": "Sweetgreen", "opening_hours": "Mo-Su 10:30-22:00", "phone": "+1-312-374-8173", "website": "https://www.sweetgreen.com/"}}, {"type": "node", "id": 5458155820, "lat": 41.8885765, "lon": -87.6275978, "tags": {"addr:city": "Chicago", "addr:housenumber": "330", "addr:postcode": "60611", "addr:state": "IL", "addr:street": "North Wabash Avenue", "amenity": "restaurant", "cuisine": "american", "name": "Travelle Kitchen + Bar", "opening_hours": "Mo-Fr 06:30-00:00; Sa-Su 07:00-00:00", "phone": "+1-312-923-7705", "website": "http://www.travellechicago.com/"}}, {"type": "node", "id": 5458159195, "lat": 41.8926249, "lon": -87.6278913, "tags": {"addr:city": "Chicago", "addr:housenumber": "601", "addr:postcode": "60654", "addr:state": "IL", "addr:street": "North State Street", "amenity": "bar", "name": "Watershed", "opening_hours": "Tu-Su 17:00-01:00", "phone": "+1-312-266-7677", "website": "http://watershedbar.com/"}}, {"type": "node", "id": 5460833746, "lat": 41.8856083, "lon": -87.6264952, "tags": {"addr:city": "Chicago", "addr:housenumber": "174", "addr:postcode": "60601", "addr:state": "IL", "addr:street": "North Wabash Avenue", "amenity": "restaurant", "cuisine": "sandwich;american", "name": "Capriotti's Sandwich Shop", "opening_hours": "Mo-Fr 09:00-22:00; Sa-Su 10:30-22:00", "phone": "+1-312-344-1695", "website": "https://www.capriottis.com/"}}, {"type": "node", "id": 5586698397, "lat": 41.8915072, "lon": -87.6269457, "tags": {"amenity": "cafe", "brand": "Starbucks", "brand:wikidata": "Q37158", "brand:wikipedia": "en:Starbucks", "cuisine": "coffee_shop", "name": "Starbucks", "official_name": "Starbucks Coffee", "takeaway": "yes"}}, {"type": "node", "id": 5586698400, "lat": 41.8904253, "lon": -87.6251166, "tags": {"amenity": "restaurant", "name": "437 Rush"}}, {"type": "node", "id": 5686525329, "lat": 41.9024218, "lon": -87.6285093}, {"type": "node", "id": 5688457963, "lat": 41.8939203, "lon": -87.6283916, "tags": {"addr:housenumber": "2", "addr:street": "West Erie Street", "amenity": "bar", "name": "Vertigo Sky Lounge"}}, {"type": "node", "id": 5754229839, "lat": 41.8879469, "lon": -87.6262, "tags": {"amenity": "restaurant", "name": "O'Brien's"}}, {"type": "node", "id": 5756706729, "lat": 41.8931636, "lon": -87.6215926, "tags": {"addr:housenumber": "227", "amenity": "restaurant", "brand": "Nando's", "brand:wikidata": "Q3472954", "brand:wikipedia": "en:Nando's", "cuisine": "chicken;portuguese", "name": "Nando's"}}, {"type": "node", "id": 5756730722, "lat": 41.8855672, "lon": -87.624242, "tags": {"addr:city": "Chicago", "addr:housenumber": "189", "addr:postcode": "60601", "addr:state": "IL", "addr:street": "North Michigan Avenue", "amenity": "restaurant", "name": "Nutella Cafe", "phone": "+1-800-861-4888"}}, {"type": "node", "id": 5756730723, "lat": 41.885489, "lon": -87.6242526, "tags": {"addr:housenumber": "151", "amenity": "cafe", "name": "Garret Popcorn"}}, {"type": "node", "id": 5825114811, "lat": 41.8861341, "lon": -87.6209122, "tags": {"addr:city": "Chicago", "addr:housenumber": "200", "addr:postcode": "60601", "addr:state": "IL", "addr:street": "North Columbus Service Drive", "amenity": "bar", "name": "Columbus Tap", "phone": "+1-312-565-6644", "website": "https://www.columbustap.com/"}}, {"type": "node", "id": 5910507185, "lat": 41.8981579, "lon": -87.6221071, "tags": {"addr:housenumber": "835", "addr:postcode": "60611", "amenity": "cafe", "name": "American Girl Place"}}, {"type": "node", "id": 5946218187, "lat": 41.8863212, "lon": -87.6247899, "tags": {"amenity": "restaurant", "name": "wow bao"}}, {"type": "node", "id": 5954587020, "lat": 41.8912513, "lon": -87.6119668, "tags": {"addr:city": "Chicago", "addr:housenumber": "580", "addr:postcode": "60611", "addr:state": "IL", "addr:street": "East Illinois Street", "amenity": "restaurant", "cuisine": "mexican", "name": "Casa Margarita", "opening_hours": "Mo-Su 11:00-10:30"}}, {"type": "node", "id": 6077923586, "lat": 41.9014579, "lon": -87.6279749, "tags": {"addr:city": "Chicago", "addr:housenumber": "1028", "addr:postcode": "60611", "addr:state": "IL", "addr:street": "North Rush Street", "amenity": "restaurant", "cuisine": "american", "name": "Gibson's Bar & Steakhouse", "opening_hours": "Mo-Su 11:00-02:00", "phone": "+1-312-266-8999", "website": "https://www.gibsonssteakhouse.com/"}}, {"type": "node", "id": 6127339811, "lat": 41.8879091, "lon": -87.6253252, "tags": {"addr:city": "Chicago", "addr:housenumber": "81", "addr:postcode": "60601", "addr:state": "IL", "addr:street": "East Upper Wacker Drive", "amenity": "restaurant", "cuisine": "american", "name": "Land & Lake Kitchen", "opening_hours": "Mo-Fr 06:30-22:00; Sa-Su 07:00-22:00", "phone": "+1-312-253-2337", "website": "https://www.landlkitchen.com"}}, {"type": "node", "id": 6133744155, "lat": 41.8865992, "lon": -87.6260815, "tags": {"addr:city": "Chicago", "addr:housenumber": "225", "addr:postcode": "60601", "addr:state": "IL", "addr:street": "North Wabash Avenue", "amenity": "restaurant", "cuisine": "seafood, beer, bar, american", "name": "Fisk & Co.", "opening_hours": "Su-Mo 17:00-21:00; Tu-Th 17:00-22:00; Fr-Sa 17:00-23:00", "phone": "+1-312-236-9300", "website": "https://www.fiskandcochicago.com"}}, {"type": "node", "id": 6182286946, "lat": 41.8990207, "lon": -87.6236946, "tags": {"amenity": "restaurant", "name": "Dos Toros"}}, {"type": "node", "id": 6182287220, "lat": 41.8990946, "lon": -87.6238024, "tags": {"addr:city": "Chicago", "addr:housenumber": "875", "addr:state": "IL", "addr:street": "North Michigan Avenue", "amenity": "restaurant", "brand": "Benihana", "brand:wikidata": "Q4887996", "brand:wikipedia": "en:Benihana", "cuisine": "japanese;teppanyaki;steak", "name": "Benihana"}}, {"type": "node", "id": 6182288653, "lat": 41.8939657, "lon": -87.6245736, "tags": {"addr:city": "Chicago", "addr:housenumber": "646", "addr:postcode": "60611", "addr:state": "Illinois", "addr:street": "North Michigan Avenue", "amenity": "cafe", "brand": "Starbucks", "brand:wikidata": "Q37158", "brand:wikipedia": "en:Starbucks", "cuisine": "coffee_shop", "name": "Starbucks Reserve", "official_name": "Starbucks Reserve Roastery", "opening_hours": "Mo-Th 07:00-23:00,Fr 07:00-00:00,Sa-Su 08:00-12:00", "phone": "312-283-7100", "takeaway": "yes", "wheelchair": "yes"}}, {"type": "node", "id": 6247716402, "lat": 41.8939244, "lon": -87.6252034, "tags": {"addr:city": "Chicago", "addr:housenumber": "101", "addr:postcode": "60611", "addr:state": "IL", "addr:street": "East Erie Street", "addr:unit": "FL 20", "amenity": "restaurant", "name": "Baptiste & Bottle", "phone": "+1-312-667-6793", "website": "https://www.baptisteandbottle.com/"}}, {"type": "node", "id": 6254497891, "lat": 41.8987007, "lon": -87.6196823, "tags": {"addr:housenumber": "260", "addr:street": "East Chestnut Street", "amenity": "restaurant", "name": "Le Petit Paris"}}, {"type": "node", "id": 6256157068, "lat": 41.8945559, "lon": -87.6247046, "tags": {"addr:city": "Chicago", "addr:housenumber": "676", "addr:postcode": "60611", "addr:state": "IL", "addr:street": "North Michigan Avenue", "amenity": "restaurant", "name": "676 Restaurant & Bar", "phone": "+1-312-944-6664 ext 59", "website": "http://676restaurant.com/"}}, {"type": "node", "id": 6256587729, "lat": 41.8851342, "lon": -87.6249107, "tags": {"addr:city": "Chicago", "addr:housenumber": "168", "addr:postcode": "60601", "addr:state": "IL", "addr:street": "North Michigan Avenue", "amenity": "restaurant", "name": "About Last Knife", "outdoor_seating": "no", "phone": "+1-312-392-2440", "website": "https://alkchicago.com/"}}, {"type": "node", "id": 6258047512, "lat": 41.8929895, "lon": -87.6279157, "tags": {"addr:city": "Chicago", "addr:housenumber": "617", "addr:postcode": "60654", "addr:state": "IL", "addr:street": "North State Street", "amenity": "cafe", "name": "Adagio Teas", "phone": "+1-312-698-9773", "website": "https://www.adagio.com/"}}, {"type": "node", "id": 6260991860, "lat": 41.8880866, "lon": -87.6298613, "tags": {"addr:city": "Chicago", "addr:housenumber": "320", "addr:postcode": "60654", "addr:state": "IL", "addr:street": "North Dearborn Street", "amenity": "restaurant", "cuisine": "american", "name": "320 River Bar", "opening_hours": "Mo-Su 11:00-23:00", "phone": "+1-312-321-7129", "website": "https://www.320riverbar.com/"}}, {"type": "node", "id": 6261054476, "lat": 41.8952585, "lon": -87.6252214, "tags": {"addr:city": "Chicago", "addr:housenumber": "700", "addr:postcode": "60611", "addr:state": "IL", "addr:street": "North Rush Street", "amenity": "restaurant", "name": "ALTHEA", "phone": "+1-312-525-3400", "website": "http://www.matthewkenneycuisine.com/althea"}}, {"type": "node", "id": 6261196846, "lat": 41.8981687, "lon": -87.6222178, "tags": {"addr:city": "Chicago", "addr:housenumber": "835", "addr:postcode": "60611", "addr:state": "IL", "addr:street": "North Michigan Avenue", "amenity": "cafe", "cuisine": "coffee_shop", "name": "American Girl Cafe", "phone": "+1-877-247-5223", "website": "https://www.americangirl.com/"}}, {"type": "node", "id": 6265067983, "lat": 41.8919452, "lon": -87.6235734, "tags": {"addr:city": "Chicago", "addr:housenumber": "535", "addr:postcode": "60611", "addr:state": "IL", "addr:street": "North Michigan Avenue", "amenity": "restaurant", "name": "Bandera Restaurant", "phone": "+1-312-644-3524", "website": "https://banderarestaurants.com/"}}, {"type": "node", "id": 6267298685, "lat": 41.8922133, "lon": -87.6260095, "tags": {"addr:city": "Chicago", "addr:housenumber": "43", "addr:postcode": "60611", "addr:state": "IL", "addr:street": "East Ohio Street", "amenity": "bar", "name": "Birreria"}}, {"type": "node", "id": 6269003684, "lat": 41.8898208, "lon": -87.62637, "tags": {"addr:city": "Chicago", "addr:housenumber": "405", "addr:postcode": "60611", "addr:state": "IL", "addr:street": "North Wabash Avenue", "amenity": "restaurant", "name": "Bongiorno\u2019s Italian Deli & Pizzeria", "phone": "+1-312-755-1255", "website": "http://www.bongiornoschicago.com/"}}, {"type": "node", "id": 6269085723, "lat": 41.8880327, "lon": -87.6250674, "tags": {"addr:city": "Chicago", "addr:housenumber": "330", "addr:postcode": "60601", "addr:state": "IL", "addr:street": "Chicago Riverwalk", "amenity": "bar", "name": "Bridges Lobby Grill at London House"}}, {"type": "node", "id": 6269133412, "lat": 41.8848467, "lon": -87.6187821, "tags": {"addr:city": "Chicago", "addr:housenumber": "340", "addr:postcode": "60601", "addr:state": "IL", "addr:street": "Upper East Randolph Street", "amenity": "restaurant", "name": "Brown Bag Seafood", "phone": "+1-312-496-3999", "website": "https://www.brownbagseafood.com/home/"}}, {"type": "node", "id": 6269917646, "lat": 41.9005593, "lon": -87.6246247, "tags": {"addr:city": "Chicago", "addr:housenumber": "980", "addr:postcode": "60611", "addr:state": "IL", "addr:street": "North Michigan Avenue", "addr:unit": "2", "amenity": "restaurant", "cuisine": "italian", "name": "Spiaggia", "phone": "+1-312-280-2750", "website": "https://spiaggiarestaurant.com"}}, {"type": "node", "id": 6271875115, "lat": 41.8978556, "lon": -87.6264427, "tags": {"addr:city": "Chicago", "addr:housenumber": "871", "addr:postcode": "60611", "addr:state": "IL", "addr:street": "North Wabash Avenue", "amenity": "cafe", "name": "Argo Tea", "phone": "+1-773-649-9644", "website": "https://www.argotea.com/"}}, {"type": "node", "id": 6271908429, "lat": 41.8964014, "lon": -87.6209646, "tags": {"addr:city": "Chicago", "addr:housenumber": "250", "addr:postcode": "60611", "addr:state": "IL", "addr:street": "East Superior Street", "amenity": "cafe", "name": "Argo Tea", "phone": "+1-312-212-8144", "website": "https://www.argotea.com/"}}, {"type": "node", "id": 6272159727, "lat": 41.8873276, "lon": -87.620108, "tags": {"addr:city": "Chicago", "addr:housenumber": "303", "addr:postcode": "60601", "addr:state": "IL", "addr:street": "East Wacker Drive", "amenity": "cafe", "name": "Bake For Me", "outdoor_seating": "yes", "phone": "+1-312-228-9676", "website": "http://www.bakeforme.com/bfm-locations-303-east-wacker.html"}}, {"type": "node", "id": 6272398247, "lat": 41.8927553, "lon": -87.6224945, "tags": {"addr:city": "Chicago", "addr:housenumber": "200", "addr:postcode": "60611", "addr:state": "IL", "addr:street": "East Ohio Street", "amenity": "cafe", "name": "Baskin-Robbins / Dunkin\u2019 Donuts", "phone": "+1-312-787-9055", "website": "https://www.baskinrobbins.com/content/baskinrobbins/en.html"}}, {"type": "node", "id": 6273484387, "lat": 41.8869672, "lon": -87.6232241, "tags": {"addr:city": "Chicago", "addr:housenumber": "233", "addr:postcode": "60601", "addr:state": "IL", "addr:street": "North Michigan Avenue", "amenity": "restaurant", "name": "Blackwood BBQ - Illinois Center", "phone": "+1-312-487-4802", "website": "https://www.blackwoodbbq.com/"}}, {"type": "node", "id": 6273576337, "lat": 41.892319, "lon": -87.6273305, "tags": {"addr:city": "Chicago", "addr:housenumber": "19", "addr:postcode": "60611", "addr:state": "IL", "addr:street": "East Ohio Street", "amenity": "cafe", "name": "Cafe Integral", "phone": "+1-224-231-4190", "website": "https://freehandhotels.com/chicago/cafe-integral/"}}, {"type": "node", "id": 6280476709, "lat": 41.8911021, "lon": -87.6283144, "tags": {"addr:city": "Chicago", "addr:housenumber": "508", "addr:postcode": "60654", "addr:state": "IL", "addr:street": "North State Street", "amenity": "restaurant", "name": "Cantina Laredo", "phone": "+1-312-955-0014", "website": "https://www.cantinalaredo.com/"}}, {"type": "node", "id": 6282321036, "lat": 41.886607, "lon": -87.6291877, "tags": {"addr:city": "Chicago", "addr:housenumber": "35", "addr:postcode": "60601", "addr:state": "IL", "addr:street": "West Upper Wacker Drive", "amenity": "restaurant", "name": "Catch 35", "phone": "+1-312-346-3500", "website": "http://www.catch35.com/"}}, {"type": "node", "id": 6282415461, "lat": 41.889071, "lon": -87.6198699, "tags": {"addr:city": "Chicago", "addr:housenumber": "301", "addr:postcode": "60611", "addr:state": "IL", "addr:street": "East North Water Street", "amenity": "bar", "name": "Chi Bar", "phone": "+1-312-755-2227", "website": "https://www.achiga.io/site-down/"}}, {"type": "node", "id": 6282807044, "lat": 41.8901774, "lon": -87.6210884, "tags": {"addr:city": "Chicago", "addr:housenumber": "455", "addr:postcode": "60611", "addr:state": "IL", "addr:street": "North Cityfront Plaza Drive", "amenity": "cafe", "cuisine": "coffee_shop", "name": "Cityfront Cafe", "phone": "+1-312-374-1169", "website": "https://www.cityfrontcafe.com/"}}, {"type": "node", "id": 6283292191, "lat": 41.8861083, "lon": -87.6259113, "tags": {"addr:city": "Chicago", "addr:housenumber": "203", "addr:postcode": "60601", "addr:state": "IL", "addr:street": "North Wabash Avenue", "amenity": "bar", "name": "Commons Club", "phone": "+1-312-940-4788", "website": "https://virginhotels.com/chicago/dine-and-drink/the-commons-club/?chebs=local-andrewpinckneyinn"}}, {"type": "node", "id": 6283430331, "lat": 41.8931757, "lon": -87.6229652, "tags": {"addr:city": "Chicago", "addr:housenumber": "155", "addr:postcode": "60611", "addr:state": "IL", "addr:street": "East Ontario Street", "amenity": "restaurant", "name": "Copper Fox Gastropub", "phone": "+1-312-255-8505", "website": "https://copperfoxchicago.com/"}}, {"type": "node", "id": 6284038647, "lat": 41.8909189, "lon": -87.6155741, "tags": {"addr:city": "Chicago", "addr:housenumber": "455", "addr:postcode": "60611", "addr:state": "IL", "addr:street": "East Illinois Street", "amenity": "cafe", "name": "Cupitol Coffee & Eatery", "phone": "+1-312-414-1400", "website": "https://cupitol.com/"}}, {"type": "node", "id": 6284067097, "lat": 41.892086, "lon": -87.6192076, "tags": {"addr:city": "Chicago", "addr:housenumber": "345", "addr:postcode": "60611", "addr:state": "IL", "addr:street": "East Ohio Street", "amenity": "bar", "name": "D4 Irish Pub & Cafe", "phone": "+1-312-624-8385", "website": "http://d4pub.com/"}}, {"type": "node", "id": 6284475291, "lat": 41.8986247, "lon": -87.6213715, "tags": {"addr:city": "Chicago", "addr:housenumber": "200", "addr:postcode": "60611", "addr:state": "IL", "addr:street": "East Chestnut Street", "amenity": "restaurant", "name": "DiSotto Enoteca", "phone": "+1-312-482-8727", "website": "http://www.disottoenoteca.com/"}}, {"type": "node", "id": 6284481200, "lat": 41.8986296, "lon": -87.6256676, "tags": {"addr:city": "Chicago", "addr:housenumber": "100", "addr:postcode": "60611", "addr:state": "IL", "addr:street": "East Chestnut Street", "amenity": "restaurant", "name": "Ditka\u2019s Restaurant", "phone": "+1-312-587-8989", "website": "https://www.ditkasrestaurants.com/"}}, {"type": "node", "id": 6284530630, "lat": 41.8940165, "lon": -87.6216897, "tags": {"addr:city": "Chicago", "addr:housenumber": "233", "addr:postcode": "60611", "addr:state": "IL", "addr:street": "East Erie Street", "amenity": "restaurant", "name": "Do-Rite Donuts & Chicken", "phone": "+1-312-344-1374", "website": "http://doritedonuts.com/"}}, {"type": "node", "id": 6284591118, "lat": 41.8978434, "lon": -87.6229575, "tags": {"addr:city": "Chicago", "addr:housenumber": "835", "addr:postcode": "60611", "addr:state": "IL", "addr:street": "North Michigan Avenue", "addr:unit": "2", "amenity": "cafe", "name": "Do-Rite Donuts & Chicken", "phone": "+1-312-270-1144", "website": "http://doritedonuts.com/"}}, {"type": "node", "id": 6284614216, "lat": 41.8847432, "lon": -87.6298339, "tags": {"addr:city": "Chicago", "addr:housenumber": "50", "addr:postcode": "60601", "addr:state": "IL", "addr:street": "West Randolph Street", "amenity": "cafe", "name": "Do-Rite Donuts & Coffee", "phone": "+1-312-488-2483", "website": "http://doritedonuts.com/"}}, {"type": "node", "id": 6284631061, "lat": 41.9002084, "lon": -87.6252109, "tags": {"addr:city": "Chicago", "addr:housenumber": "100", "addr:postcode": "60611", "addr:state": "IL", "addr:street": "East Walton Street", "amenity": "restaurant", "name": "Doc B\u2019s Restaurant + Bar", "phone": "+1-312-626-1300", "website": "https://www.docbsrestaurant.com/"}}, {"type": "node", "id": 6284679810, "lat": 41.8986812, "lon": -87.6208701, "tags": {"addr:city": "Chicago", "addr:housenumber": "860", "addr:postcode": "60611", "addr:state": "IL", "addr:street": "North Dewitt Place", "amenity": "cafe", "name": "Dollop Coffee Co.", "phone": "+1-312-600-6346", "website": "https://dollop.coffee/"}}, {"type": "node", "id": 6284833185, "lat": 41.8867541, "lon": -87.6168158, "tags": {"addr:city": "Chicago", "addr:housenumber": "400", "addr:postcode": "60601", "addr:state": "IL", "addr:street": "East South Water Street", "amenity": "cafe", "name": "Drunken Bean", "phone": "+1-312-549-8000", "website": "https://www.drunkenbeancafe.com/"}}, {"type": "node", "id": 6284978720, "lat": 41.8921058, "lon": -87.6262395, "tags": {"addr:city": "Chicago", "addr:housenumber": "43", "addr:postcode": "60611", "addr:state": "IL", "addr:street": "East Ohio Street", "amenity": "restaurant", "name": "Eataly", "phone": "+1-312-521-8700", "website": "https://www.eataly.com/"}}, {"type": "node", "id": 6286723793, "lat": 41.8938969, "lon": -87.6251568, "tags": {"addr:city": "Chicago", "addr:housenumber": "101", "addr:postcode": "60611", "addr:state": "IL", "addr:street": "East Erie Street", "addr:unit": "14", "amenity": "cafe", "name": "Erie Street Bistro", "website": "http://www.aramarkcafe.com/layouts/classic_new/index.aspx?comp=draftfcb"}}, {"type": "node", "id": 6289511578, "lat": 41.9010063, "lon": -87.6256101, "tags": {"addr:city": "Chicago", "addr:housenumber": "104", "addr:postcode": "60611", "addr:state": "IL", "addr:street": "East Oak Street", "amenity": "restaurant", "cuisine": "mediterranean;spanish", "name": "Fig & Olive", "opening_hours": "Mo-Su 11:00-22:00", "phone": "+1-312-445-0060", "website": "https://www.figandolive.com/location/fig-and-olive-chicago/"}}, {"type": "node", "id": 6290938945, "lat": 41.8920723, "lon": -87.616159, "tags": {"addr:city": "Chicago", "addr:housenumber": "440", "addr:postcode": "60611", "addr:state": "IL", "addr:street": "East Grand Avenue", "amenity": "bar", "name": "Flamingo Bar & Grill", "phone": "+1-312-222-0901"}}, {"type": "node", "id": 6291121079, "lat": 41.8882689, "lon": -87.6291757, "tags": {"addr:city": "Chicago", "addr:housenumber": "29", "addr:postcode": "60654", "addr:state": "IL", "addr:street": "North Dearborn Street", "amenity": "bar", "name": "Foundation Room", "phone": "+1-312-923-7060", "website": "http://houseofblues.com"}}, {"type": "node", "id": 6291474306, "lat": 41.8985881, "lon": -87.6213737, "tags": {"addr:city": "Chicago", "addr:housenumber": "200", "addr:postcode": "60611", "addr:state": "IL", "addr:street": "East Chestnut Street", "amenity": "restaurant", "name": "Francesca\u2019s On Chestnut", "phone": "+1-312-482-8800", "website": "https://www.miafrancesca.com/?/locations/profile/francescas-on-chestnut-gold-coast"}}, {"type": "node", "id": 6291564365, "lat": 41.8969289, "lon": -87.6284821, "tags": {"addr:city": "Chicago", "addr:housenumber": "808", "addr:postcode": "60610", "addr:state": "IL", "addr:street": "North State Street", "addr:unit": "B", "amenity": "restaurant", "name": "Friends Ramen", "phone": "+1-312-643-1209", "website": "http://www.friendsramen.com/"}}, {"type": "node", "id": 6291652179, "lat": 41.8980875, "lon": -87.623288, "tags": {"addr:city": "Chicago", "addr:housenumber": "845", "addr:postcode": "60611", "addr:state": "IL", "addr:street": "North Michigan Avenue", "amenity": "cafe", "name": "Fusion Poke", "phone": "+1-872-256-3229", "website": "https://www.fusionpoke.com/"}}, {"type": "node", "id": 6291816768, "lat": 41.8849499, "lon": -87.6231709, "tags": {"addr:city": "Chicago", "addr:housenumber": "130", "addr:postcode": "60601", "addr:state": "IL", "addr:street": "East Randolph Street", "amenity": "restaurant", "cuisine": "pizza", "name": "Giordano\u2019s", "phone": "+1-312-616-1200", "website": "https://giordanos.com/locations/prudential-plaza-millenium-park/"}}, {"type": "node", "id": 6291823782, "lat": 41.8918168, "lon": -87.6095322, "tags": {"addr:city": "Chicago", "addr:housenumber": "700", "addr:postcode": "60611", "addr:state": "Il", "addr:street": "East Grand Avenue", "amenity": "restaurant", "cuisine": "pizza", "name": "Giordano\u2019s - Navy Pier;Giordano's Pizza", "phone": "+1-312-288-8783", "website": "https://giordanos.com/locations/navy-pier/"}}, {"type": "node", "id": 6291863980, "lat": 41.8916193, "lon": -87.6208279, "tags": {"addr:city": "Chicago", "addr:housenumber": "255", "addr:postcode": "60611", "addr:state": "IL", "addr:street": "East Grand Avenue", "amenity": "cafe", "name": "Glass & Cup Coffee And Wine Bar"}}, {"type": "node", "id": 6294193504, "lat": 41.8918517, "lon": -87.6096704, "tags": {"addr:city": "Chicago", "addr:housenumber": "700", "addr:postcode": "60611", "addr:state": "IL", "addr:street": "East Grand Avenue", "amenity": "restaurant", "name": "Harry Caray\u2019s Tavern", "phone": "+1-312-527-9700", "website": "https://www.harrycarays.com/harry-carays-tavern-navy-pier.html"}}, {"type": "node", "id": 6294203130, "lat": 41.896598, "lon": -87.6181293, "tags": {"addr:city": "Chicago", "addr:housenumber": "357", "addr:postcode": "60611", "addr:state": "IL", "addr:street": "East Chicago Avenue", "amenity": "cafe", "name": "Harry\u2019s Cafe", "phone": "+1-312-503-3573"}}, {"type": "node", "id": 6294279410, "lat": 41.8835361, "lon": -87.6258705, "tags": {"addr:city": "Chicago", "addr:housenumber": "111", "addr:postcode": "60602", "addr:state": "IL", "addr:street": "North Wabash Avenue", "amenity": "restaurant", "cuisine": "cajun;breakfast;lunch;dinner;casual", "name": "Heaven on Seven", "phone": "+1-312-263-6443", "website": "https://www.heavenonseven.com/wabash.html"}}, {"type": "node", "id": 6294287038, "lat": 41.9002877, "lon": -87.6250731, "tags": {"addr:city": "Chicago", "addr:housenumber": "100", "addr:postcode": "60611", "addr:state": "IL", "addr:street": "East Walton Street", "amenity": "cafe", "name": "Hendrickx Belgian Bread Crafter", "phone": "+1-312-649-6717", "website": "http://hendrickxbakery.com/"}}, {"type": "node", "id": 6294506983, "lat": 41.8896433, "lon": -87.6298384, "tags": {"addr:city": "Chicago", "addr:housenumber": "410", "addr:postcode": "60654", "addr:state": "IL", "addr:street": "North Dearborn Street", "addr:unit": "2", "amenity": "bar", "name": "Holloway\u2019s Bar", "phone": "+1-312-644-4071", "website": "https://www.marriott.com/hotels/hotel-information/restaurant/chinr-springhill-suites-chicago-downtown-river-north"}}, {"type": "node", "id": 6297206686, "lat": 41.8902485, "lon": -87.6291445, "tags": {"addr:city": "Chicago", "addr:housenumber": "26", "addr:postcode": "60654", "addr:state": "IL", "addr:street": "West Hubbard Street", "amenity": "bar", "name": "Howl at the Moon Chicago", "phone": "+1-312-863-7427", "website": "http://howlatthemoon.com/"}}, {"type": "node", "id": 6297766776, "lat": 41.9010663, "lon": -87.6279947, "tags": {"addr:city": "Chicago", "addr:housenumber": "1024", "addr:postcode": "60611", "addr:state": "IL", "addr:street": "North Rush Street", "amenity": "restaurant", "name": "Hugo\u2019s Frog Bar & Fish House", "phone": "+1-312-640-0999", "website": "http://www.hugosfrogbar.com/"}}, {"type": "node", "id": 6297831380, "lat": 41.8935618, "lon": -87.6250524, "tags": {"addr:city": "Chicago", "addr:housenumber": "100", "addr:postcode": "60611", "addr:state": "IL", "addr:street": "East Ontario Street", "amenity": "restaurant", "name": "SideDoor", "phone": "+1-312-787-6768", "website": "http://www.sidedoorchicago.com/"}}, {"type": "node", "id": 6298050969, "lat": 41.8839004, "lon": -87.6274021, "tags": {"addr:city": "Chicago", "addr:housenumber": "111", "addr:postcode": "60602", "addr:state": "IL", "addr:street": "North State Street", "amenity": "bar", "name": "Infield\u2019s", "phone": "+1-312-781-3192"}}, {"type": "node", "id": 6298766287, "lat": 41.8988165, "lon": -87.6231126, "tags": {"addr:city": "Chicago", "addr:housenumber": "875", "addr:postcode": "60611", "addr:state": "IL", "addr:street": "North Michigan Avenue", "addr:unit": "9600", "amenity": "bar", "name": "The Signature Lounge", "phone": "+1-312-787-9596", "website": "https://www.signatureroom.com/lounge/"}}, {"type": "node", "id": 6298943995, "lat": 41.8994123, "lon": -87.6220632, "tags": {"addr:city": "Chicago", "addr:housenumber": "198", "addr:postcode": "60611", "addr:state": "IL", "addr:street": "East Delaware Place", "amenity": "restaurant", "name": "Southern Cut Barbeque", "phone": "+1-312-280-8887", "website": "http://www.southerncutbbq.com/"}}, {"type": "node", "id": 6298950385, "lat": 41.8894454, "lon": -87.6288876, "tags": {"addr:city": "Chicago", "addr:housenumber": "20", "addr:postcode": "60654", "addr:state": "IL", "addr:street": "West Kinzie Street", "amenity": "cafe", "name": "Southern Cut Cafe", "phone": "+1-312-291-8366", "website": "http://www.southerncutbbq.com/"}}, {"type": "node", "id": 6300284154, "lat": 41.8986293, "lon": -87.6213252, "tags": {"addr:city": "Chicago", "addr:housenumber": "200", "addr:postcode": "60611", "addr:state": "IL", "addr:street": "East Chestnut Street", "amenity": "cafe", "name": "SPACE 519 | The Lunchroom", "phone": "+1-312-751-1519", "website": "https://www.space519.com/pages/the-coffee-counter"}}, {"type": "node", "id": 6300349874, "lat": 41.8919626, "lon": -87.6236604, "tags": {"addr:city": "Chicago", "addr:housenumber": "535", "addr:postcode": "60611", "addr:state": "IL", "addr:street": "North Michigan Avenue", "amenity": "cafe", "name": "Stan\u2019s Donuts & Coffee", "phone": "+1-312-955-3100", "website": "https://www.stansdonuts.com/"}}, {"type": "node", "id": 6300349926, "lat": 41.8855311, "lon": -87.6240423, "tags": {"addr:city": "Chicago", "addr:housenumber": "181", "addr:postcode": "60601", "addr:state": "IL", "addr:street": "North Michigan Avenue", "amenity": "cafe", "name": "Stan\u2019s Donuts & Coffee", "phone": "+1-312-729-5480", "website": "https://www.stansdonuts.com/"}}, {"type": "node", "id": 6300350303, "lat": 41.8937027, "lon": -87.6209638, "tags": {"addr:city": "Chicago", "addr:housenumber": "259", "addr:postcode": "60611", "addr:state": "IL", "addr:street": "East Erie Street", "amenity": "cafe", "name": "Stan\u2019s Donuts & Coffee", "phone": "+1-312-255-1130", "website": "https://www.stansdonuts.com/"}}, {"type": "node", "id": 6300569033, "lat": 41.8863329, "lon": -87.6283507, "tags": {"addr:city": "Chicago", "addr:housenumber": "1", "addr:postcode": "60601", "addr:state": "IL", "addr:street": "West Upper Wacker Drive", "amenity": "restaurant", "name": "Raised, an Urban Rooftop Bar", "phone": "+1-312-795-3444", "website": "https://www.marriott.com/hotels/hotel-information/restaurant/chisr-renaissance-chicago-downtown-hotel/"}}, {"type": "node", "id": 6300573021, "lat": 41.8924248, "lon": -87.6216836, "tags": {"addr:city": "Chicago", "addr:housenumber": "213", "addr:postcode": "60611", "addr:state": "IL", "addr:street": "East Ohio Street", "amenity": "restaurant", "name": "Ramen Misoya", "phone": "+1-312-496-3566", "website": "https://misoya.net/"}}, {"type": "node", "id": 6300593499, "lat": 41.894538, "lon": -87.6231997, "tags": {"addr:city": "Chicago", "addr:housenumber": "165", "addr:postcode": "60611", "addr:state": "IL", "addr:street": "East Huron Street", "amenity": "restaurant", "name": "RAMEN-SAN", "phone": "+1-312-767-4075", "website": "https://www.ramensan.com/"}}, {"type": "node", "id": 6300739597, "lat": 41.8915969, "lon": -87.620825, "tags": {"addr:city": "Chicago", "addr:housenumber": "255", "addr:postcode": "60611", "addr:state": "IL", "addr:street": "East Grand Avenue", "amenity": "bar", "name": "The Red Star Bar", "phone": "+1-312-379-7900", "website": "http://www.redstarbar.us/"}}, {"type": "node", "id": 6300994446, "lat": 41.886084, "lon": -87.6276358, "tags": {"addr:city": "Chicago", "addr:housenumber": "201", "addr:postcode": "60601", "addr:state": "IL", "addr:street": "North State Street", "amenity": "bar", "name": "ROOF on theWit"}}, {"type": "node", "id": 6301005156, "lat": 41.8917824, "lon": -87.6094511, "tags": {"addr:city": "Chicago", "addr:housenumber": "700", "addr:postcode": "60611", "addr:state": "IL", "addr:street": "East Grand Avenue", "amenity": "cafe", "name": "Riva Crabhouse", "phone": "+1-312-644-7482", "website": "https://www.rivanavypier.com/"}}, {"type": "node", "id": 6302009153, "lat": 41.8988269, "lon": -87.6231776, "tags": {"addr:city": "Chicago", "addr:housenumber": "875", "addr:postcode": "60611", "addr:state": "IL", "addr:street": "North Michigan Avenue", "addr:unit": "8500", "amenity": "restaurant", "name": "The Signature Room at the 95th", "phone": "+1-312-787-9596", "website": "https://www.signatureroom.com/"}}, {"type": "node", "id": 6303823312, "lat": 41.8850448, "lon": -87.6231506, "tags": {"addr:city": "Chicago", "addr:housenumber": "130", "addr:postcode": "60601", "addr:state": "IL", "addr:street": "East Randolph Street", "amenity": "bar", "name": "Tavern at the Park", "phone": "+1-312-552-0070", "website": "https://tavernatthepark.com/"}}, {"type": "node", "id": 6304392895, "lat": 41.8950234, "lon": -87.6229369, "tags": {"addr:city": "Chicago", "addr:housenumber": "160", "addr:postcode": "60611", "addr:state": "IL", "addr:street": "East Huron Street", "amenity": "restaurant", "cuisine": "american", "name": "The Windsor", "phone": "1+312-943-7777", "website": "http://www.thewindsorchicago.com/"}}, {"type": "node", "id": 6305240475, "lat": 41.8861805, "lon": -87.6210463, "tags": {"addr:city": "Chicago", "addr:housenumber": "200", "addr:postcode": "60601", "addr:state": "IL", "addr:street": "North Columbus Service Drive", "amenity": "bar", "name": "THE BAR", "phone": "+1-312-565-8000", "website": "thebarinchicago.com"}}, {"type": "node", "id": 6305269184, "lat": 41.8922088, "lon": -87.6274966, "tags": {"addr:city": "Chicago", "addr:housenumber": "15", "addr:postcode": "60611", "addr:state": "IL", "addr:street": "East Ohio Street", "amenity": "bar", "name": "The Berkshire Room", "phone": "+1-312-894-0945", "website": "https://www.theberkshireroom.com/"}}, {"type": "node", "id": 6306543282, "lat": 41.8938944, "lon": -87.6225092, "tags": {"addr:city": "Chicago", "addr:housenumber": "633", "addr:postcode": "60611", "addr:state": "IL", "addr:street": "North Saint Clair Street", "amenity": "restaurant", "name": "The Capital Grille", "phone": "+1-312-337-9400"}}, {"type": "node", "id": 6306545754, "lat": 41.8988323, "lon": -87.6234702, "tags": {"addr:city": "Chicago", "addr:housenumber": "875", "addr:postcode": "60611", "addr:state": "IL", "addr:street": "North Michigan Avenue", "alt_name": "Cheesecake Factory", "amenity": "restaurant", "brand": "The Cheesecake Factory", "brand:wikidata": "Q1045842", "brand:wikipedia": "en:The Cheesecake Factory", "cuisine": "american", "name": "The Cheesecake Factory", "phone": "+1-312-337-1101", "website": "http://locations.thecheesecakefactory.com/il/chicago-12.html"}}, {"type": "node", "id": 6306778015, "lat": 41.8981567, "lon": -87.6266312, "tags": {"addr:city": "Chicago", "addr:housenumber": "41", "addr:postcode": "60611", "addr:state": "IL", "addr:street": "East Chestnut Street", "amenity": "restaurant", "name": "Truluck\u2019s", "phone": "+1-312-982-0050", "website": "https://trulucks.com/locations/downtown-chicago-illinois/"}}, {"type": "node", "id": 6307072253, "lat": 41.8860864, "lon": -87.6258401, "tags": {"addr:city": "Chicago", "addr:housenumber": "203", "addr:postcode": "60601", "addr:state": "IL", "addr:street": "North Wabash Avenue", "amenity": "bar", "name": "Two Zero Three", "phone": "+1-312-940-4400"}}, {"type": "node", "id": 6315211014, "lat": 41.9010102, "lon": -87.6260647, "tags": {"addr:city": "Chicago", "addr:housenumber": "58", "addr:postcode": "60611", "addr:state": "IL", "addr:street": "East Oak Street", "amenity": "bar", "name": "The Esquire Champagne Room", "phone": "+1-312-846-6575", "website": "https://delfriscos.com/"}}, {"type": "node", "id": 6315656599, "lat": 41.8960253, "lon": -87.625116, "tags": {"addr:city": "Chicago", "addr:housenumber": "108", "addr:postcode": "60611", "addr:state": "IL", "addr:street": "East Superior Street", "amenity": "bar", "name": "The Lobby", "phone": "+1-312-573-6695", "website": "https://www.peninsula.com/en/chicago/hotel-fine-dining/the-lobby-afternoon-tea"}}, {"type": "node", "id": 6315707742, "lat": 41.8960103, "lon": -87.6250719, "tags": {"addr:city": "Chicago", "addr:housenumber": "108", "addr:postcode": "60611", "addr:state": "IL", "addr:street": "East Superior Street", "amenity": "cafe", "name": "The Peninsula Traditional Afternoon Tea", "phone": "+1-312-337-2888"}}, {"type": "node", "id": 6315797885, "lat": 41.8935495, "lon": -87.6260787, "tags": {"addr:city": "Chicago", "addr:housenumber": "58", "addr:postcode": "60611", "addr:state": "IL", "addr:street": "East Ontario Street", "amenity": "cafe", "name": "Vapiano - Magnificent Mile", "phone": "+1-312-631-3656", "website": "https://us.vapiano.com/en/magazine/"}}, {"type": "node", "id": 6316619846, "lat": 41.8915854, "lon": -87.6225213, "tags": {"addr:city": "Chicago", "addr:housenumber": "201", "addr:postcode": "60611", "addr:state": "IL", "addr:street": "East Grand Avenue", "amenity": "restaurant", "name": "Volare Ristorante Italiano", "phone": "+1-312-410-9900", "website": "https://www.volarerestaurant.com/"}}, {"type": "node", "id": 6316788451, "lat": 41.8997205, "lon": -87.6265184, "tags": {"addr:city": "Chicago", "addr:housenumber": "900", "addr:postcode": "60611", "addr:state": "IL", "addr:street": "North Michigan Avenue", "amenity": "cafe", "name": "Wellness Grub", "phone": "+1-312-415-1265", "website": "http://wellnessgrub.com/"}}, {"type": "node", "id": 6316797566, "lat": 41.8922498, "lon": -87.6274949, "tags": {"addr:city": "Chicago", "addr:housenumber": "15", "addr:postcode": "60611", "addr:state": "IL", "addr:street": "East Ohio Street", "amenity": "cafe", "name": "West Town Bakery", "phone": "+1-312-894-0935", "website": "https://www.westtownbakery.com/"}}, {"type": "node", "id": 6317106382, "lat": 41.8959948, "lon": -87.6251129, "tags": {"addr:city": "Chicago", "addr:housenumber": "108", "addr:postcode": "60611", "addr:state": "IL", "addr:street": "East Superior Street", "amenity": "bar", "name": "Z Bar", "phone": "+1-312-573-6888", "website": "https://www.zbarchicago.com/"}}, {"type": "node", "id": 6318390855, "lat": 41.884821, "lon": -87.6249486, "tags": {"addr:city": "Chicago", "addr:housenumber": "150", "addr:postcode": "60601", "addr:state": "IL", "addr:street": "North Michigan Avenue", "amenity": "cafe", "name": "Limitless Coffee & Tea", "phone": "+1-312-624-8394", "website": "https://limitlesscoffee.com/store-locator/"}}, {"type": "node", "id": 6318780335, "lat": 41.8954561, "lon": -87.619776, "tags": {"addr:city": "Chicago", "addr:housenumber": "303", "addr:postcode": "60611", "addr:state": "IL", "addr:street": "East Superior Street", "addr:unit": "1", "amenity": "cafe", "cuisine": "cafe", "name": "Jazzman\u2019s Cafe"}}, {"type": "node", "id": 6318881386, "lat": 41.8964881, "lon": -87.6257222, "tags": {"addr:city": "Chicago", "addr:housenumber": "750", "addr:postcode": "60611", "addr:state": "IL", "addr:street": "North Rush Street", "amenity": "cafe", "name": "JJ Peppers", "phone": "+1-312-642-5474"}}, {"type": "node", "id": 6318893008, "lat": 41.8993176, "lon": -87.6278668, "tags": {"addr:city": "Chicago", "addr:housenumber": "10", "addr:postcode": "60611", "addr:state": "IL", "addr:street": "East Delaware Place", "amenity": "cafe", "brand": "Joe & The Juice", "brand:wikidata": "Q26221514", "brand:wikipedia": "en:Joe & The Juice", "cuisine": "coffee_shop", "name": "Joe & The Juice", "takeaway": "yes", "website": "https://www.joejuice.com/stores/usa/chicago-10-east-delaware/"}}, {"type": "node", "id": 6318906952, "lat": 41.8951337, "lon": -87.6276398, "tags": {"addr:city": "Chicago", "addr:housenumber": "8", "addr:postcode": "60611", "addr:state": "IL", "addr:street": "East Huron Street", "amenity": "cafe", "brand": "Joe & The Juice", "brand:wikidata": "Q26221514", "brand:wikipedia": "en:Joe & The Juice", "cuisine": "coffee_shop", "name": "Joe & The Juice", "takeaway": "yes", "website": "https://www.joejuice.com/stores/usa/chicago-8-east-huron/"}}, {"type": "node", "id": 6319862562, "lat": 41.8927832, "lon": -87.6278992, "tags": {"addr:city": "Chicago", "addr:housenumber": "609", "addr:postcode": "60654", "addr:state": "IL", "addr:street": "North State Street", "amenity": "cafe", "name": "L.A. Burdick Handmade Chocolates", "phone": "+1-312-635-8975", "website": "https://www.burdickchocolate.com/default.aspx"}}, {"type": "node", "id": 6319990140, "lat": 41.8977805, "lon": -87.6222512, "tags": {"addr:city": "Chicago", "addr:housenumber": "160", "addr:postcode": "60611", "addr:state": "IL", "addr:street": "East Pearson Street", "amenity": "cafe", "name": "La Colombe Cafe at the Ritz Carlton"}}, {"type": "node", "id": 6320201558, "lat": 41.8997676, "lon": -87.6274933, "tags": {"addr:city": "Chicago", "addr:housenumber": "11", "addr:postcode": "60611", "addr:state": "IL", "addr:street": "East Walton Street", "amenity": "cafe", "name": "Petit Margeaux", "phone": "+1-312-625-1324", "website": "https://www.michaelmina.net/restaurants/chicago/petitmargeaux/"}}, {"type": "node", "id": 6321265727, "lat": 41.8978761, "lon": -87.6280668, "tags": {"addr:city": "Chicago", "addr:housenumber": "831", "addr:postcode": "60610", "addr:state": "IL", "addr:street": "North State Street", "amenity": "restaurant", "name": "LYFE Kitchen", "phone": "+1-312-967-8600", "website": "https://www.lyfekitchen.com/"}}, {"type": "node", "id": 6321487749, "lat": 41.8997256, "lon": -87.6276208, "tags": {"addr:city": "Chicago", "addr:housenumber": "11", "addr:postcode": "60611", "addr:state": "IL", "addr:street": "East Walton Street", "amenity": "restaurant", "cuisine": "french", "name": "Margeaux Brasserie", "phone": "+1-708-529-1246", "website": "https://www.michaelmina.net/restaurants/chicago/margeaux-brasserie/"}}, {"type": "node", "id": 6321508381, "lat": 41.8960054, "lon": -87.6238191, "tags": {"addr:city": "Chicago", "addr:housenumber": "737", "addr:postcode": "60611", "addr:state": "IL", "addr:street": "North Michigan Avenue", "amenity": "restaurant", "name": "Mariposa", "phone": "+1-312-694-4050", "website": "https://www.neimanmarcus.com/en-bd/restaurants/chicago/il/mariposa/chicago%20-%20michigan%20avenue"}}, {"type": "node", "id": 6321523982, "lat": 41.897401, "lon": -87.6214579, "tags": {"addr:city": "Chicago", "addr:housenumber": "205", "addr:postcode": "60611", "addr:state": "IL", "addr:street": "East Pearson Street", "amenity": "restaurant", "name": "Marisol", "phone": "+1-312-799-3599", "website": "https://www.marisolchicago.com/"}}, {"type": "node", "id": 6321552510, "lat": 41.8998248, "lon": -87.6226204, "tags": {"addr:city": "Chicago", "addr:housenumber": "163", "addr:postcode": "60611", "addr:state": "IL", "addr:street": "East Walton Place", "amenity": "bar", "name": "Martini Bar", "phone": "+1-312-751-8100", "website": "https://www.millenniumhotels.com/en/chicago/millennium-knickerbocker-hotel-chicago/martini-bar/"}}, {"type": "node", "id": 6321792024, "lat": 41.8922985, "lon": -87.6246308, "tags": {"addr:city": "Chicago", "addr:housenumber": "540", "addr:postcode": "60611", "addr:state": "IL", "addr:street": "North Michigan Avenue", "amenity": "bar", "name": "Rush Bar & Lounge", "phone": "+1-312-836-6334", "website": "http://deals.marriott.com/rush-bar-lounge"}}, {"type": "node", "id": 6321822860, "lat": 41.8994775, "lon": -87.6222477, "tags": {"addr:city": "Chicago", "addr:housenumber": "120", "addr:postcode": "60611", "addr:state": "IL", "addr:street": "East Delaware Place", "amenity": "bar", "name": "Seasons Bar", "phone": "+1-312-280-8800", "website": "https://www.fourseasons.com/content/fshr/pages/en/properties/chicago.html"}}, {"type": "node", "id": 6321923617, "lat": 41.8969117, "lon": -87.6266017, "tags": {"addr:city": "Chicago", "addr:housenumber": "42", "addr:postcode": "60611", "addr:state": "IL", "addr:street": "East Chicago Avenue", "amenity": "cafe", "name": "Seattle\u2019s Best Coffee", "phone": "+1-312-337-0885"}}, {"type": "node", "id": 6321984587, "lat": 41.8962604, "lon": -87.6218289, "tags": {"addr:city": "Chicago", "addr:housenumber": "225", "addr:postcode": "60611", "addr:state": "IL", "addr:street": "East Chicago Avenue", "amenity": "cafe", "name": "Sky Caf\u00e9"}}, {"type": "node", "id": 6322131726, "lat": 41.887808, "lon": -87.624171, "tags": {"addr:city": "Chicago", "addr:housenumber": "333", "addr:postcode": "60601", "addr:state": "IL", "addr:street": "North Michigan Avenue", "addr:unit": "4", "amenity": "bar", "name": "Tavern Club at 333", "phone": "+1-312-925-8984", "website": "https://tavernclub333.com/"}}, {"type": "node", "id": 6322557347, "lat": 41.8915341, "lon": -87.6249053, "tags": {"addr:city": "Chicago", "addr:housenumber": "520", "addr:postcode": "60611", "addr:state": "IL", "addr:street": "North Michigan Avenue", "addr:unit": "2", "amenity": "cafe", "name": "Teavana", "phone": "+1-312-527-3584", "website": "https://www.teavana.com/"}}, {"type": "node", "id": 6322563193, "lat": 41.8936646, "lon": -87.6216288, "tags": {"addr:city": "Chicago", "addr:housenumber": "228", "addr:postcode": "60611", "addr:state": "IL", "addr:street": "East Ontario Street", "addr:unit": "1", "amenity": "restaurant", "name": "The Albert", "phone": "+1-312-471-3883", "website": "https://thealbertchicago.com/"}}, {"type": "node", "id": 6322607204, "lat": 41.8913879, "lon": -87.6238131, "tags": {"addr:city": "Chicago", "addr:housenumber": "505", "addr:postcode": "60611", "addr:state": "IL", "addr:street": "North Michigan Avenue", "amenity": "restaurant", "cuisine": "steak_house;steak;american", "name": "Michael Jordan\u2019s Steak House", "phone": "+1-312-321-8823", "website": "http://mjshchicago.com/"}}, {"type": "node", "id": 6322745992, "lat": 41.8860682, "lon": -87.6258495, "tags": {"addr:city": "Chicago", "addr:housenumber": "203", "addr:postcode": "60601", "addr:state": "IL", "addr:street": "North Wabash Avenue", "amenity": "restaurant", "name": "Miss Ricky\u2019s", "phone": "+1-312-940-4777", "website": "https://virginhotels.com/chicago/dine-and-drink/miss-rickys/"}}, {"type": "node", "id": 6322754552, "lat": 41.8980098, "lon": -87.6233413, "tags": {"addr:city": "Chicago", "addr:housenumber": "835", "addr:postcode": "60611", "addr:state": "IL", "addr:street": "North Michigan Avenue", "amenity": "restaurant", "name": "Mity Nice", "phone": "+1-312-335-4745", "website": "http://www.mitynicechicago.com/"}}, {"type": "node", "id": 6322991225, "lat": 41.9004321, "lon": -87.6234171, "tags": {"addr:city": "Chicago", "addr:housenumber": "140", "addr:postcode": "60611", "addr:state": "IL", "addr:street": "East Walton Place", "amenity": "bar", "name": "Movie Mondays at the Drake\u2019s Palm Court", "phone": "+1-312-787-2200", "website": "https://www.thedrakehotel.com/dining/palm-court"}}, {"type": "node", "id": 6323011921, "lat": 41.8931273, "lon": -87.6220066, "tags": {"addr:city": "Chicago", "addr:housenumber": "211", "addr:postcode": "60611", "addr:state": "IL", "addr:street": "East Ontario Street", "amenity": "bar", "name": "Murasaki Lounge", "phone": "+1-312-266-2280", "website": "http://murasakichicago.com/"}}, {"type": "node", "id": 6323023444, "lat": 41.8875875, "lon": -87.6249841, "tags": {"addr:city": "Chicago", "addr:housenumber": "326", "addr:postcode": "60601", "addr:state": "IL", "addr:street": "North Michigan Avenue", "amenity": "restaurant", "name": "Naf Naf Grill", "phone": "+1-312-263-0019", "website": "https://nafnafgrill.com/"}}, {"type": "node", "id": 6323201926, "lat": 41.8913346, "lon": -87.6259401, "tags": {"addr:city": "Chicago", "addr:housenumber": "55", "addr:postcode": "60611", "addr:state": "IL", "addr:street": "East Grand Avenue", "amenity": "cafe", "name": "Nordstrom Ebar Artisan Coffee", "phone": "+1-312-464-1515", "website": "https://shop.nordstrom.com/store-details/nordstrom-michigan-avenue#restaurants?cm_mmc=yelp-_-ycm-_-rest-_-26220"}}, {"type": "node", "id": 6324364633, "lat": 41.8919798, "lon": -87.6235962, "tags": {"addr:city": "Chicago", "addr:housenumber": "535", "addr:postcode": "60611", "addr:state": "IL", "addr:street": "North Michigan Avenue", "amenity": "cafe", "name": "Labriola", "phone": "+1-312-955-3100", "website": "https://www.labriolacafe.com/"}}, {"type": "node", "id": 6324376885, "lat": 41.8891535, "lon": -87.619764, "tags": {"addr:city": "Chicago", "addr:housenumber": "301", "addr:postcode": "60611", "addr:state": "IL", "addr:street": "East North Water Street", "amenity": "cafe", "name": "The Link@Sheraton Cafe", "website": "https://www.marriott.com/hotels/hotel-information/restaurant/chigs-sheraton-grand-chicago?program=spg"}}, {"type": "node", "id": 6324385278, "lat": 41.8981278, "lon": -87.6278173, "tags": {"addr:city": "Chicago", "addr:housenumber": "845", "addr:postcode": "60610", "addr:state": "IL", "addr:street": "North State Street", "amenity": "restaurant", "name": "The Little Beet Table", "phone": "+1-312-549-8600", "website": "http://www.thelittlebeettable.com/chicago"}}, {"type": "node", "id": 6324385517, "lat": 41.8874524, "lon": -87.6216548, "tags": {"addr:city": "Chicago", "addr:housenumber": "151", "addr:postcode": "60601", "addr:state": "IL", "addr:street": "East Upper Wacker Drive", "amenity": "restaurant", "name": "The Living Room", "phone": "+1-312-565-1234", "website": "https://www.hyatt.com/en-US/hotel/illinois/hyatt-regency-chicago/chirc/dining"}}, {"type": "node", "id": 6324386441, "lat": 41.8938743, "lon": -87.6156667, "tags": {"addr:city": "Chicago", "addr:housenumber": "644", "addr:postcode": "60611", "addr:state": "IL", "addr:street": "North Lake Shore Drive", "amenity": "bar", "name": "The Living Room Bar", "phone": "+1-312-943-9200", "website": "https://www.marriott.com/hotels/hotel-information/restaurant/chiwh-w-chicago-lakeshore?program=spg"}}, {"type": "node", "id": 6325990674, "lat": 41.8907631, "lon": -87.6172397, "tags": {"addr:city": "Chicago", "addr:housenumber": "465", "addr:postcode": "60611", "addr:state": "IL", "addr:street": "North McClurg Court", "amenity": "bar", "name": "Winter\u2019s Jazz Club", "website": "https://www.wintersjazzclub.com/"}}, {"type": "node", "id": 6326093861, "lat": 41.8929305, "lon": -87.6270906, "tags": {"addr:city": "Chicago", "addr:housenumber": "600", "addr:postcode": "60611", "addr:state": "IL", "addr:street": "North Wabash Avenue", "addr:unit": "1", "amenity": "cafe", "name": "Nespresso Boutique at Bloomingdales", "phone": "+1-800-562-1465", "website": "https://www.nespresso.com/worldofcoffee/WCP/"}}, {"type": "node", "id": 6326129929, "lat": 41.8997085, "lon": -87.6265979, "tags": {"addr:city": "Chicago", "addr:housenumber": "900", "addr:postcode": "60611", "addr:state": "IL", "addr:street": "North Michigan Avenue", "addr:unit": "3", "amenity": "cafe", "name": "Nespresso Boutique at Sur la table", "phone": "+1-800-562-1465", "website": "https://www.nespresso.com/worldofcoffee/WCP/"}}, {"type": "node", "id": 6326164174, "lat": 41.8971549, "lon": -87.625477, "tags": {"addr:city": "Chicago", "addr:housenumber": "800", "addr:postcode": "60611", "addr:state": "IL", "addr:street": "North Michigan Avenue", "amenity": "restaurant", "name": "NoMI Kitchen", "phone": "+1-312-239-4030", "website": "https://nomichicago.com/"}}, {"type": "node", "id": 6326241834, "lat": 41.8839109, "lon": -87.6283762, "tags": {"addr:city": "Chicago", "addr:housenumber": "108", "addr:postcode": "60602", "addr:state": "IL", "addr:street": "North State Street", "addr:unit": "4", "amenity": "bar", "name": "MacGuffins Bar & Lounge", "website": "https://www.amctheatres.com/food-and-drink/macguffins"}}, {"type": "node", "id": 6326350643, "lat": 41.8873394, "lon": -87.6215813, "tags": {"addr:city": "Chicago", "addr:housenumber": "151", "addr:postcode": "60601", "addr:state": "IL", "addr:street": "East South Water Street", "amenity": "cafe", "name": "Market Chicago"}}, {"type": "node", "id": 6326420731, "lat": 41.8852755, "lon": -87.6187686, "tags": {"addr:city": "Chicago", "addr:housenumber": "333", "addr:postcode": "60601", "addr:state": "IL", "addr:street": "East Benton Place", "amenity": "restaurant", "name": "MingHin Cuisine", "phone": "+1-312-228-1333", "website": "https://www.minghincuisine.com/"}}, {"type": "node", "id": 6326468590, "lat": 41.8936676, "lon": -87.6217796, "tags": {"addr:city": "Chicago", "addr:housenumber": "222", "addr:postcode": "60611", "addr:state": "IL", "addr:street": "East Ontario Street", "amenity": "restaurant", "name": "Les Nomades", "phone": "+1-312-649-9010", "website": "http://www.lesnomades.net/"}}, {"type": "node", "id": 6326472485, "lat": 41.8943435, "lon": -87.628412, "tags": {"addr:city": "Chicago", "addr:housenumber": "660", "addr:postcode": "60654", "addr:state": "IL", "addr:street": "North State Street", "amenity": "bar", "name": "Leviathan", "phone": "+1-312-202-6050", "website": "http://leviathanchicago.com/"}}, {"type": "node", "id": 6326487082, "lat": 41.9003921, "lon": -87.6234555, "tags": {"addr:city": "Chicago", "addr:housenumber": "140", "addr:postcode": "60611", "addr:state": "IL", "addr:street": "East Walton Place", "amenity": "bar", "name": "Palm Court", "phone": "+1-312-787-2200", "website": "https://www.thedrakehotel.com/"}}, {"type": "node", "id": 6326499095, "lat": 41.8922579, "lon": -87.6260944, "tags": {"addr:city": "Chicago", "addr:housenumber": "43", "addr:postcode": "60611", "addr:state": "IL", "addr:street": "East Ohio Street", "amenity": "cafe", "name": "Lavazza", "phone": "+1-312-521-8700"}}, {"type": "node", "id": 6326505491, "lat": 41.9001473, "lon": -87.6238003, "tags": {"addr:city": "Chicago", "addr:housenumber": "140", "addr:postcode": "60611", "addr:state": "IL", "addr:street": "East Walton Street", "amenity": "cafe", "name": "Lavazza Espression", "phone": "+1-312-640-2440", "website": "http://www.lavazzaespression.com/"}}, {"type": "node", "id": 6326512644, "lat": 41.9002461, "lon": -87.6270606, "tags": {"addr:city": "Chicago", "addr:housenumber": "937", "addr:postcode": "60611", "addr:state": "IL", "addr:street": "North Rush Street", "amenity": "restaurant", "name": "Le Colonial", "phone": "+1-312-255-0088", "website": "http://www.lecolonialchicago.com/"}}, {"type": "node", "id": 6356726511, "lat": 41.8898716, "lon": -87.6193007, "tags": {"addr:city": "Chicago", "addr:housenumber": "455", "addr:postcode": "60611", "addr:state": "IL", "addr:street": "North Park Drive", "amenity": "restaurant", "cuisine": "american", "name": "ETA Restaurant + Bar", "opening_hours": "Mo-Th 06:30-21:00; Fr 06:30-22:00; Sa 07:00-22:00; Su 07:00-21:00", "phone": "+1-312-840-6605", "website": "https://www.etarestaurantandbar.com/"}}, {"type": "node", "id": 6397091037, "lat": 41.8885204, "lon": -87.6284558, "tags": {"addr:city": "Chicago", "addr:housenumber": "340", "addr:postcode": "60654", "addr:state": "IL", "addr:street": "North State Street", "amenity": "restaurant", "cuisine": "breakfast;brunch;lunch;american", "name": "Yolk - Marina City", "opening_hours": "Mo-Fr 06:00-15:00; Sa-Su 07:00-15:00", "phone": "+1-312-477-7676", "website": "https://www.eatyolk.com"}}, {"type": "node", "id": 6397097757, "lat": 41.8894461, "lon": -87.6292878, "tags": {"addr:city": "Chicago", "addr:housenumber": "405", "addr:postcode": "60654", "addr:state": "IL", "addr:street": "North Dearborn Street", "amenity": "restaurant", "cuisine": "pizza;american", "name": "Parlor Pizza Bar - River North", "opening_hours": "Mo 11:30-00:00; Tu-Th 11:30-01:00; Fr 11:30-01:30; Sa 10:30-01:30; Su 10:30-00:00", "phone": "+1-312-392-2356", "website": "http://parlorchicago.com"}}, {"type": "node", "id": 6397116085, "lat": 41.8899091, "lon": -87.6289557, "tags": {"addr:city": "Chicago", "addr:housenumber": "23", "addr:postcode": "60654", "addr:state": "IL", "addr:street": "West Hubbard Street", "amenity": "bar", "name": "Jojo's Milk Bar", "opening_hours": "Mo-Th 11:00-00:00; Fr 11:00-02:00; Sa 10:00-03:00; Su 10:00-22:00", "phone": "+1-312-624-8963", "website": "https://www.jojosmilkbar.com"}}, {"type": "node", "id": 6397254336, "lat": 41.8978759, "lon": -87.627138, "tags": {"addr:city": "Chicago", "addr:housenumber": "840", "addr:postcode": "60611", "addr:state": "IL", "addr:street": "North Wabash Avenue", "amenity": "restaurant", "cuisine": "french", "name": "Bistronomic", "phone": "+1-312-944-8400", "website": "https://www.bistronomic.net"}}, {"type": "node", "id": 6397573806, "lat": 41.8997256, "lon": -87.6252642, "tags": {"addr:city": "Chicago", "addr:housenumber": "900", "addr:postcode": "60611", "addr:state": "IL", "addr:street": "North Michigan Avenue", "addr:unit": "5th & 6th Floors", "amenity": "restaurant", "cuisine": "food_court", "name": "Aster Hall", "opening_hours": "Mo-Sa 11:00-20:00; Su 11:00-18:00", "website": "http://www.asterhallchicago.com"}}, {"type": "node", "id": 6407510885, "lat": 41.8919786, "lon": -87.6229324, "tags": {"addr:city": "Chicago", "addr:housenumber": "164", "addr:postcode": "60611", "addr:state": "IL", "addr:street": "East Grand Avenue", "amenity": "restaurant", "cuisine": "seafood", "name": "The Hampton Social", "opening_hours": "Mo-Th 11:00-22:00; Fr-Sa 11:00-23:00; Su 10:00-22:00", "phone": "+1-312-414-1861", "website": "https://www.hamptonsocial.com"}}, {"type": "node", "id": 6412859404, "lat": 41.8879247, "lon": -87.62518, "tags": {"addr:city": "Chicago", "addr:housenumber": "87", "addr:postcode": "60601", "addr:state": "IL", "addr:street": "East Upper Wacker Drive", "amenity": "restaurant", "cuisine": "seafood;fine_dining", "name": "Ocean Prime", "phone": "+1-312-428-4344", "website": "https://www.ocean-prime.com/locations-menus/chicago"}}, {"type": "node", "id": 6412862578, "lat": 41.8863812, "lon": -87.6283156, "tags": {"addr:city": "Chicago", "addr:housenumber": "1", "addr:postcode": "60601", "addr:state": "IL", "addr:street": "West Upper Wacker Drive", "amenity": "restaurant", "cuisine": "american", "name": "Staytion Market & Bar", "phone": "+1-312-372-7200"}}, {"type": "node", "id": 6431659324, "lat": 41.8972949, "lon": -87.6253396}, {"type": "node", "id": 6459376980, "lat": 41.8936481, "lon": -87.6279417, "tags": {"addr:city": "Chicago", "addr:housenumber": "631", "addr:postcode": "60654", "addr:state": "IL", "addr:street": "North State Street", "amenity": "restaurant", "cuisine": "asian", "name": "Brightwok Kitchen", "phone": "+1-312-366-2999", "website": "https://brightwok.com"}}, {"type": "node", "id": 6466670487, "lat": 41.8919449, "lon": -87.6224525, "tags": {"amenity": "restaurant", "name": "Hampton social"}}, {"type": "node", "id": 6466677386, "lat": 41.8925119, "lon": -87.6184597, "tags": {"amenity": "restaurant", "name": "Streeterville pizzeria and tap"}}, {"type": "node", "id": 6468314518, "lat": 41.8994168, "lon": -87.6285324, "tags": {"addr:city": "Chicago", "addr:housenumber": "912", "addr:postcode": "60610", "addr:state": "IL", "addr:street": "North State Street", "amenity": "restaurant", "cuisine": "american", "name": "Walton Street Kitchen + Bar", "phone": "+1- 773-570-3525", "website": "http://www.waltonstreetchicago.com/"}}, {"type": "node", "id": 6642064379, "lat": 41.8912599, "lon": -87.6068669, "tags": {"addr:city": "Chicago", "addr:housenumber": "600", "addr:postcode": "60611", "addr:state": "IL", "addr:street": "East Grand Avenue", "amenity": "restaurant", "cuisine": "middle_eastern;mediterranean", "name": "IDOF - I Dream Of Falafel", "website": "http://www.idreamoffalafel.com/"}}, {"type": "node", "id": 6651885854, "lat": 41.8839064, "lon": -87.6274973, "tags": {"addr:city": "Chicago", "addr:housenumber": "111", "addr:postcode": "60602", "addr:state": "IL", "addr:street": "North State Street", "amenity": "restaurant", "cuisine": "mexican", "name": "Frontera Fresco", "phone": "+1-312-781-2955", "website": "https://www.rickbayless.com/restaurants/frontera-fresco/"}}, {"type": "node", "id": 6651956671, "lat": 41.8840766, "lon": -87.6282032, "tags": {"addr:city": "Chicago", "addr:housenumber": "108", "addr:postcode": "60602", "addr:state": "IL", "addr:street": "North State Street", "amenity": "restaurant", "cuisine": "quick_bite;casual", "name": "Farmer's Fridge", "phone": "+1-312-229-0099"}}, {"type": "node", "id": 6757783215, "lat": 41.8974471, "lon": -87.6251184, "tags": {"addr:city": "Chicago", "addr:housenumber": "822", "addr:postcode": "60611", "addr:state": "IL", "addr:street": "North Michigan Avenue", "amenity": "restaurant", "cuisine": "italian;pizza", "name": "Mozzarella Store, Pizza & Caff\u00e8", "phone": "+1-312-285-2449", "website": "http://mozzarellastores.com"}}, {"type": "node", "id": 6774960135, "lat": 41.8982361, "lon": -87.6584179}, {"type": "node", "id": 6986035376, "lat": 41.8955536, "lon": -87.6287155, "tags": {"addr:housenumber": "720", "addr:street": "North State Street", "amenity": "restaurant", "cuisine": "mexican", "description": "Mexican restaurant", "name": "Tzuco", "opening_hours": "Mo-Th 17:00-22:00; Fr, Sa 17:00-23:00; Fr-Su 10:00-14:30", "phone": "3133748995", "website": "https://www.tzuco.com/"}}, {"type": "node", "id": 6991303059, "lat": 41.8857352, "lon": -87.6323843, "tags": {"highway": "traffic_signals", "traffic_signals": "traffic_lights"}}, {"type": "node", "id": 7015621558, "lat": 41.8857268, "lon": -87.6381883}, {"type": "node", "id": 7025421818, "lat": 41.887335, "lon": -87.627012, "tags": {"amenity": "restaurant", "name": "Chicago Brewhouse Riverwalk"}}, {"type": "node", "id": 7025601483, "lat": 41.8884935, "lon": -87.6248494, "tags": {"amenity": "restaurant", "name": "Beat Kitchen"}}, {"type": "node", "id": 7183400783, "lat": 41.8893659, "lon": -87.6279847}, {"type": "node", "id": 7327191690, "lat": 41.8970247, "lon": -87.6268849}, {"type": "node", "id": 7607793125, "lat": 41.8756808, "lon": -87.6306661, "tags": {"railway": "switch"}}, {"type": "node", "id": 7607793126, "lat": 41.8756222, "lon": -87.6304099, "tags": {"railway": "switch"}}, {"type": "node", "id": 7607793127, "lat": 41.8756193, "lon": -87.6306682, "tags": {"railway": "switch"}}, {"type": "node", "id": 7607793128, "lat": 41.8756833, "lon": -87.6304013, "tags": {"railway": "switch"}}, {"type": "node", "id": 7662839840, "lat": 41.885735, "lon": -87.6326313}, {"type": "node", "id": 7675817127, "lat": 41.8913694, "lon": -87.6280004, "tags": {"railway": "switch"}}, {"type": "node", "id": 7675817128, "lat": 41.8911997, "lon": -87.62813, "tags": {"railway": "switch"}}, {"type": "node", "id": 7675964055, "lat": 41.8836614, "lon": -87.6295087}, {"type": "node", "id": 7676191090, "lat": 41.8922758, "lon": -87.6492293}, {"type": "node", "id": 7676191091, "lat": 41.8933257, "lon": -87.6508241}, {"type": "node", "id": 7676191092, "lat": 41.8959631, "lon": -87.654909}, {"type": "node", "id": 7676191093, "lat": 41.8965232, "lon": -87.655796}, {"type": "node", "id": 7676191096, "lat": 41.8975476, "lon": -87.6573753}, {"type": "node", "id": 7676191098, "lat": 41.8981388, "lon": -87.6582711}, {"type": "way", "id": 24990576, "nodes": [736634999, 736666298, 736666336, 2015352819, 2015341023, 1473177168, 2014402343, 1473177172, 1473177163, 1473177162, 2014402337, 1473177170, 1473177169, 2014402316, 2014402328, 2014402311, 736666574, 5091005360, 2014360953, 736666471, 736666404, 736667835], "tags": {"bridge": "yes", "electrified": "rail", "frequency": "0", "gauge": "1435", "layer": "2", "name": "Loop 'L'", "oneway": "yes", "operator": "Chicago Transit Authority", "railway": "subway", "voltage": "600"}}, {"type": "way", "id": 59399748, "nodes": [736666919, 736666414, 736666479, 2014360932, 5091005361, 736666562, 2014402340, 2014402320, 2014402325, 2014402331, 1473177171, 1473177167, 1473177165, 1473177164, 2014402334, 2014402322, 1473177166, 2015341021, 258940066, 2015352823, 736666306, 736666341, 736634975], "tags": {"bridge": "yes", "electrified": "rail", "frequency": "0", "gauge": "1435", "layer": "2", "name": "Loop 'L'", "oneway": "yes", "operator": "Chicago Transit Authority", "railway": "subway", "voltage": "600"}}, {"type": "way", "id": 59400914, "nodes": [736666562, 736666574], "tags": {"bridge": "yes", "electrified": "rail", "gauge": "1435", "layer": "2", "operator": "Chicago Transit Authority", "railway": "subway", "voltage": "600"}}, {"type": "way", "id": 64388609, "nodes": [792325825, 2884825221, 2884825219, 2438340739, 2884825220, 2884825222, 792325828, 2884825224, 1579399010, 2884825231, 2884825233, 792325831, 2884825235, 2884825237, 2391278941, 2884825236, 2884825234, 792325834, 2884825232, 2884825230, 2391278936, 2391283010, 2884825225, 2884825223, 792325825], "tags": {"addr:city": "Chicago", "addr:housenumber": "200", "addr:postcode": "60601", "addr:state": "IL", "addr:street": "East Randolph Street", "addr:street:name": "Randolph", "addr:street:prefix": "East", "addr:street:type": "Street", "amenity": "bar", "building": "yes", "building:colour": "white", "building:levels": "83", "chicago:building_id": "353242", "height": "340", "name": "Red Bar", "name:ru": "\u0410\u043e\u043d-\u0446\u0435\u043d\u0442\u0440", "name:uk": "\u0410\u043e\u043d \u0446\u0435\u043d\u0442\u0440", "old_name": "Amoco Tower", "roof:material": "concrete", "roof:shape": "flat", "start_date": "1974", "wikidata": "Q271695", "wikipedia": "en:Aon Center (Chicago)"}}, {"type": "way", "id": 124865486, "nodes": [1388390491, 1388390492, 1388390454, 1388390452, 1583441300, 1388390491], "tags": {"addr:housenumber": "30", "addr:postcode": "60601", "addr:street": "East Lake Street", "addr:street:name": "Lake", "addr:street:prefix": "East", "addr:street:type": "Street", "amenity": "university", "building": "school", "building:levels": "10", "chicago:building_id": "352778", "name": "Harold Washington College"}}, {"type": "way", "id": 144124766, "nodes": [1575966869, 1575966977, 1575966812, 6431659324, 1575966873, 1575966850, 1575967024, 1574001630, 1574001653, 1574001643, 1574001640, 1575967022, 7327191690, 1575967029, 1575967045, 1575966965, 1575966842, 1575966829, 1577037679, 1577037687, 1577037689, 1577037631, 1575966770, 1575966846, 1575966869], "tags": {"amenity": "university", "name": "Loyola University Water Tower Campus"}}, {"type": "way", "id": 144153224, "nodes": [1577361182, 1577361181, 1577361195, 1577361198, 2207601379, 1577361178, 1577361184, 1577361182], "tags": {"addr:housenumber": "25", "addr:postcode": "60611", "addr:street": "East Pearson Street", "addr:street:name": "Pearson", "addr:street:prefix": "East", "addr:street:type": "Street", "amenity": "university", "building": "yes", "building:levels": "15", "chicago:building_id": "813600", "name": "Loyola University Tower"}}, {"type": "way", "id": 153320976, "nodes": [4980136423, 1660310824, 1660310799, 1660310960, 4980136423], "tags": {"addr:city": "Chicago", "addr:housenumber": "33", "addr:postcode": "60654", "addr:state": "IL", "addr:street": "West Kinzie Street", "addr:street:name": "Kinzie", "addr:street:prefix": "West", "addr:street:type": "Street", "amenity": "restaurant", "building": "yes", "building:levels": "4", "chicago:building_id": "350838", "cuisine": "steak_house;steak;italian", "name": "Harry Caray's Italian Steakhouse", "opening_hours": "Mo-Th 11:30-22:30; Fr-Sa 11:30-23:00; Su 11:30-22:00", "phone": "+1-312-828-0966", "website": "https://www.harrycarays.com/", "wheelchair": "yes", "wikidata": "Q5095830", "wikipedia": "en:Chicago Varnish Company Building"}}, {"type": "way", "id": 153735901, "nodes": [1663730900, 1663730890, 1663730902, 1663730933, 1663730900], "tags": {"addr:housenumber": "201", "addr:postcode": "60611", "addr:street": "East Grand Avenue", "addr:street:name": "Grand", "addr:street:prefix": "East", "addr:street:type": "Avenue", "amenity": "restaurant", "building": "yes", "building:levels": "2", "chicago:building_id": "347361", "name": "Volare"}}, {"type": "way", "id": 154079706, "nodes": [1666768367, 1666768376, 1666768377, 1666768374, 1666768367], "tags": {"addr:city": "Chicago", "addr:housenumber": "415", "addr:postcode": "60654", "addr:state": "IL", "addr:street": "North Dearborn Street", "addr:street:name": "Dearborn", "addr:street:prefix": "North", "addr:street:type": "Street", "amenity": "restaurant", "building": "office", "building:levels": "5", "chicago:building_id": "350109", "cuisine": "steak_house;steak;seafood", "name": "Sullivan's Steakhouse", "opening_hours": "Mo-Th 17:00-22:00; Fr-Sa 17:00-23:00; Su 16:30-21:30", "phone": "+1-312-527-3510", "website": "https://sullivanssteakhouse.com/chicago/"}}, {"type": "way", "id": 154412239, "nodes": [1669504014, 1669504072, 1669504039, 1669504051, 1669504014], "tags": {"addr:city": "Chicago", "addr:housenumber": "431", "addr:postcode": "60654", "addr:state": "IL", "addr:street": "North Dearborn Street", "addr:street:name": "Dearborn", "addr:street:prefix": "North", "addr:street:type": "Street", "amenity": "restaurant", "brand": "Ruth's Chris Steak House", "brand:wikidata": "Q7382829", "brand:wikipedia": "en:Ruth's Chris Steak House", "building": "office", "building:levels": "2", "chicago:building_id": "814092", "cuisine": "american", "name": "Ruth's Chris Steak House", "opening_hours": "Mo-Th 11:30-22:00; Fr 11:30-22:30; Sa 16:30-22:30; Su 16:00-21:00", "phone": "+1-312-321-2725", "website": "https://www.ruthschris.com/"}}, {"type": "way", "id": 158621267, "nodes": [1707835015, 1707835014, 1707835037, 1707835038, 1707835015], "tags": {"addr:city": "Chicago", "addr:housenumber": "49", "addr:postcode": "60611", "addr:state": "IL", "addr:street": "East Ontario Street", "addr:street:name": "Ontario", "addr:street:prefix": "East", "addr:street:type": "Street", "amenity": "restaurant", "building": "yes", "building:levels": "2", "chicago:building_id": "813888", "cuisine": "mexican", "name": "Su Casa Mexican Restaurant", "opening_hours": "Su-Th 11:00-00:00; Fr-Sa 11:00-01:00", "phone": "+1-312-943-4041", "website": "http://www.sucasamexican.com/"}}, {"type": "way", "id": 158621280, "nodes": [1707835035, 1707835036, 1707835025, 1707835026, 1707835013, 1707835012, 1707835022, 1707835021, 1707835035], "tags": {"addr:city": "Chicago", "addr:housenumber": "619", "addr:postcode": "60611", "addr:state": "IL", "addr:street": "North Wabash Avenue", "addr:street:name": "Wabash", "addr:street:prefix": "North", "addr:street:type": "Avenue", "amenity": "restaurant", "building": "yes", "building:levels": "4", "chicago:building_id": "344628", "cuisine": "pizza", "name": "Pizzeria Due", "opening_hours": "Su-Th 11:00-01:30; Fr-Sa 11:00-02:30", "phone": "+1-312-943-2400", "website": "https://www.pizzeriaunodue.com/"}}, {"type": "way", "id": 159959826, "nodes": [1719012044, 1720270745, 1720270758, 1719012058, 1719012044], "tags": {"addr:city": "Chicago", "addr:housenumber": "162", "addr:postcode": "60611", "addr:state": "IL", "addr:street": "East Superior Street", "addr:street:name": "Superior", "addr:street:prefix": "East", "addr:street:type": "Street", "amenity": "restaurant", "building": "yes", "building:levels": "4", "chicago:building_id": "813654", "cuisine": "pizza", "name": "Gino's East", "phone": "+1-312-266-3337", "website": "https://www.ginoseast.com/magnificent-mile", "wheelchair": "limited", "wikidata": "Q5563202", "wikipedia": "en:Gino's East"}}, {"type": "way", "id": 160184528, "nodes": [1722519086, 1722519087], "tags": {"cta:objectid": "56", "cta:segmentid": "56", "electrified": "rail", "frequency": "0", "gauge": "1435", "layer": "-2", "level": "-1", "name": "State Street Subway", "oneway": "yes", "operator": "Chicago Transit Authority", "railway": "subway", "tunnel": "yes", "voltage": "600"}}, {"type": "way", "id": 160184532, "nodes": [1722519093, 1722519094, 1722519095, 1722519096, 5267040322, 1722519098, 1722519099, 1722519100, 1722519101, 1722519102, 1722519103, 1722519106, 1722519110, 1722519111, 1722519114, 1722519115, 1722519113], "tags": {"cta:objectid": "26;38", "cta:segmentid": "26;38", "electrified": "rail", "frequency": "0", "gauge": "1435", "layer": "-2", "level": "-1", "name": "State Street Subway", "oneway": "yes", "operator": "Chicago Transit Authority", "railway": "subway", "tunnel": "yes", "voltage": "600"}}, {"type": "way", "id": 160184534, "nodes": [1722519087, 5267058061, 1722519088, 1722519090, 7183400783, 1722519091, 1722519092, 7675817127, 1722519093], "tags": {"cta:objectid": "55", "cta:segmentid": "55", "electrified": "rail", "frequency": "0", "gauge": "1435", "layer": "-2", "level": "-1", "name": "State Street Subway", "oneway": "yes", "operator": "Chicago Transit Authority", "railway": "subway", "tunnel": "yes", "voltage": "600"}}, {"type": "way", "id": 202624279, "nodes": [2125909224, 2125909223, 2125909226, 2125909225, 2125909224], "tags": {"addr:city": "Chicago", "addr:housenumber": "508", "addr:postcode": "60654", "addr:state": "IL", "addr:street": "North State Street", "amenity": "restaurant", "building": "yes", "building:levels": "2", "cuisine": "mexican", "name": "Cantina Laredo", "opening_hours": "Su-Th 11:30-22:00; Fr-Sa 11:30-23:00", "phone": "+1-312-955-0014", "website": "https://www.cantinalaredo.com/location/chicago-illinois/"}}, {"type": "way", "id": 210671717, "nodes": [2207543668, 2885201541, 2207543820, 2207543823, 2391131209, 2207543732, 2885201538, 2207543684, 2397703811, 2207543680, 2397703813, 2397703812, 2207543668], "tags": {"addr:housenumber": "150", "addr:street": "North Michigan Avenue", "addr:street:name": "Michigan", "addr:street:prefix": "North", "addr:street:type": "Avenue", "amenity": "cafe", "building": "yes", "chicago:building_id": "353775", "name": "Crain Communications Building", "old_name": "Smurfit-Stone Building", "start_date": "1984", "wikidata": "Q2444330", "wikipedia": "en:Crain Communications Building"}}, {"type": "way", "id": 210679989, "nodes": [2207598653, 2207598654, 2207598386, 2207598383, 2207598653], "tags": {"addr:city": "Chicago", "addr:housenumber": "43", "addr:postcode": "60611", "addr:state": "IL", "addr:street": "East Ohio Street", "addr:street:name": "Ohio", "addr:street:prefix": "East", "addr:street:type": "Street", "amenity": "restaurant", "building": "yes", "building:levels": "19", "chicago:building_id": "837926", "cuisine": "italian", "name": "Eataly", "opening_hours": "Su-Th 07:30-22:00; Fr-Sa 07:30-23:00", "phone": "+1-312-521-8700", "website": "https://www.eataly.com"}}, {"type": "way", "id": 210680487, "nodes": [2207598569, 2207598570, 2207598631, 2207598629, 2207598635, 2207598634, 2207598632, 2207598590, 2207598591, 2207598588, 2207598589, 2207598569], "tags": {"addr:city": "Chicago", "addr:housenumber": "29", "addr:postcode": "60611", "addr:state": "IL", "addr:street": "East Ohio Street", "addr:street:name": "Ohio", "addr:street:prefix": "East", "addr:street:type": "Street", "amenity": "restaurant", "building": "yes", "building:levels": "3", "chicago:building_id": "346256", "cuisine": "pizza", "name": "Pizzeria Uno", "opening_hours": "Su-Th 11:00-01:30; Fr-Sa 11:00-02:30", "phone": "+1-312-321-1000", "url": "http://www.unos.com/", "website": "https://www.pizzeriaunodue.com/"}}, {"type": "way", "id": 228237337, "nodes": [2368690664, 2368690670], "tags": {"electrified": "rail", "frequency": "0", "gauge": "1435", "layer": "-2", "level": "-1", "name": "State Street Subway", "oneway": "yes", "operator": "Chicago Transit Authority", "railway": "subway", "tunnel": "yes", "voltage": "600"}}, {"type": "way", "id": 228237434, "nodes": [2368691222, 7675817128, 2368691220, 5267058060, 2368690664], "tags": {"colour": "red", "electrified": "rail", "frequency": "0", "gauge": "1435", "layer": "-2", "level": "-1", "name": "State Street Subway", "oneway": "yes", "operator": "Chicago Transit Authority", "railway": "subway", "tunnel": "yes", "voltage": "600"}}, {"type": "way", "id": 228237825, "nodes": [2368694123, 2368694130, 2368694125, 2368694135, 2368694153, 2368694124, 2368694147, 2368694143, 2368694149, 5686525329, 2368694121, 2368694151, 2368694155, 5267040321, 2368691921, 2368691925, 2368691924, 2368691222], "tags": {"electrified": "rail", "frequency": "0", "gauge": "1435", "layer": "-2", "level": "-1", "name": "State Street Subway", "oneway": "yes", "operator": "Chicago Transit Authority", "railway": "subway", "tunnel": "yes", "voltage": "600"}}, {"type": "way", "id": 230398414, "nodes": [2389087654, 2389087661, 2389087641, 2389087647, 2389087653, 2389087619, 2389087638, 2389087645, 2389087622, 2389087640, 2389087646, 2389087620, 2389087659, 2389087652, 2389087642, 2389087648, 2389087635, 2389087644, 5272952065, 2389087623, 2389087643, 2389087631, 2389087651, 2389087660, 7675964055, 2389087649, 2389087628, 2389087658, 2389087637, 2389087625, 2389087650, 2389087636, 2389087633, 2389087627, 2389087639, 2389087629, 2389087657, 7607793128, 7607793125, 2389087624, 2389087626, 2389087632, 3188221401], "tags": {"electrified": "rail", "frequency": "0", "gauge": "1435", "layer": "-2", "level": "0", "name": "Dearborn Street Subway", "oneway": "yes", "operator": "Chicago Transit Authority", "railway": "subway", "tunnel": "yes", "voltage": "600"}}, {"type": "way", "id": 312901443, "nodes": [3188221400, 258281900, 258281901, 5272963174, 7607793127, 7607793126, 258957456, 1613640702, 258281903, 1613640678, 706968780, 1613640656, 706968781, 873051690, 5272959956, 5272959957, 5272952067, 258957458, 1606917431, 706968782, 258957459, 706968784, 5272952066, 6991303059, 258957340, 7662839840, 736637716, 7015621558, 258281905, 707905319, 707905321, 258281906, 365489352, 707905651, 258281907, 5272952064, 7676191090, 7676191091, 258281909, 7676191092, 5272957251, 7676191093, 7676191096, 7676191098, 6774960135, 365489153, 736035819, 736035820, 365489154, 736035821, 736035822, 258025450], "tags": {"electrified": "rail", "frequency": "0", "gauge": "1435", "layer": "-2", "level": "-1", "name": "Dearborn Street Subway", "oneway": "yes", "operator": "Chicago Transit Authority", "railway": "subway", "tunnel": "yes", "voltage": "600"}}, {"type": "way", "id": 385480271, "nodes": [3888249966, 3888249967, 3888249969, 3888249968, 3888249966], "tags": {"amenity": "cafe", "building": "yes", "name": "Argo Tea"}}, {"type": "way", "id": 482492795, "nodes": [4753133275, 4753133274, 4753133272, 4753133273, 5009406237, 5009406236, 5009406235, 4753133276, 5009406234, 5009406232, 5009406233, 5009406231, 5009406230, 5009406229, 4753133275], "tags": {"amenity": "university", "internet_access": "wlan", "name": "Northwestern University Chicago Campus", "operator": "Northwestern University", "wikidata": "Q7060409"}}, {"type": "way", "id": 822079894, "nodes": [7675817128, 7675817127], "tags": {"electrified": "rail", "frequency": "0", "layer": "-2", "railway": "subway", "service": "crossover", "tunnel": "yes", "voltage": "600"}}]}