{"version": 0.6, "generator": "Overpass API 0.7.56.3 eb200aeb", "osm3s": {"timestamp_osm_base": "2020-07-04T01:51:02Z", "copyright": "The data included in this document is from www.openstreetmap.org. The data is made available under ODbL."}, "elements": [{"type": "node", "id": 34877708, "lat": 41.9204448, "lon": -87.694344}, {"type": "node", "id": 34877709, "lat": 41.918438, "lon": -87.6910759}, {"type": "node", "id": 34877711, "lat": 41.9159812, "lon": -87.6870645, "tags": {"name": "Western", "network": "CTA", "operator": "Chicago Transit Authority", "public_transport": "stop_position", "railway": "stop", "subway": "yes"}}, {"type": "node", "id": 258282968, "lat": 41.9258971, "lon": -87.7033574}, {"type": "node", "id": 258282969, "lat": 41.9253248, "lon": -87.7024136}, {"type": "node", "id": 258282970, "lat": 41.9242887, "lon": -87.7007116}, {"type": "node", "id": 1282296244, "lat": 41.9216326, "lon": -87.6962535}, {"type": "node", "id": 1282296250, "lat": 41.9162829, "lon": -87.6874563}, {"type": "node", "id": 1282296292, "lat": 41.9221445, "lon": -87.6970834, "tags": {"name": "California", "network": "CTA", "operator": "Chicago Transit Authority", "public_transport": "stop_position", "railway": "stop", "subway": "yes"}}, {"type": "node", "id": 1282296303, "lat": 41.9248197, "lon": -87.7015347}, {"type": "node", "id": 1282296339, "lat": 41.9256878, "lon": -87.702967}, {"type": "node", "id": 1282296350, "lat": 41.9168846, "lon": -87.6884461}, {"type": "node", "id": 1282296364, "lat": 41.9184433, "lon": -87.6910232}, {"type": "node", "id": 1282296369, "lat": 41.9220155, "lon": -87.6969301, "tags": {"name": "California", "network": "CTA", "operator": "Chicago Transit Authority", "public_transport": "stop_position", "railway": "stop", "subway": "yes"}}, {"type": "node", "id": 1282296375, "lat": 41.9175991, "lon": -87.6896231}, {"type": "node", "id": 1282296381, "lat": 41.9206427, "lon": -87.6946254}, {"type": "node", "id": 1282296410, "lat": 41.9259235, "lon": -87.7033303}, {"type": "node", "id": 1282296415, "lat": 41.9241411, "lon": -87.7004082}, {"type": "node", "id": 1282296431, "lat": 41.9154908, "lon": -87.6862997}, {"type": "node", "id": 1282296435, "lat": 41.9233189, "lon": -87.6990483}, {"type": "node", "id": 1585389610, "lat": 41.9165513, "lon": -87.6876454, "tags": {"addr:city": "Chicago", "addr:housenumber": "2403", "addr:postcode": "60647", "addr:state": "IL", "addr:street": "West Homer Street", "amenity": "bar", "name": "Green Eye Lounge", "phone": "+1-773-227-8851", "website": "https://greeneyelounge.com/"}}, {"type": "node", "id": 1585392218, "lat": 41.9162779, "lon": -87.6876159, "tags": {"addr:housenumber": "1912", "addr:postcode": "60647", "addr:street": "North Western Avenue", "amenity": "restaurant", "delivery": "yes", "name": "Belly Shack", "phone": "773-252-1414", "takeaway": "yes", "website": "http://www.bellyshack.com/", "wheelchair": "yes"}}, {"type": "node", "id": 1700855290, "lat": 41.9174886, "lon": -87.6851722, "tags": {"addr:city": "Chicago", "addr:housenumber": "1944", "addr:postcode": "60647", "addr:state": "IL", "addr:street": "North Oakley Avenue", "amenity": "bar", "name": "Floyd's Pub", "phone": "+1-773-276-6060", "website": "http://floydspub.net/"}}, {"type": "node", "id": 2075140757, "lat": 41.9139307, "lon": -87.6838647}, {"type": "node", "id": 2075140759, "lat": 41.9166407, "lon": -87.688114}, {"type": "node", "id": 2090182927, "lat": 41.9160063, "lon": -87.6870338, "tags": {"name": "Western", "network": "CTA", "operator": "Chicago Transit Authority", "public_transport": "stop_position", "railway": "stop", "subway": "yes"}}, {"type": "node", "id": 2166647858, "lat": 41.9137167, "lon": -87.6835347}, {"type": "node", "id": 2166647859, "lat": 41.9137443, "lon": -87.6835083}, {"type": "node", "id": 2166647920, "lat": 41.9142308, "lon": -87.6843331}, {"type": "node", "id": 2166647923, "lat": 41.9142442, "lon": -87.6842874}, {"type": "node", "id": 2196110741, "lat": 41.9030759, "lon": -87.6956077}, {"type": "node", "id": 2196110744, "lat": 41.9030768, "lon": -87.6955287}, {"type": "node", "id": 2196110833, "lat": 41.9031191, "lon": -87.6909479}, {"type": "node", "id": 2196110839, "lat": 41.9031207, "lon": -87.6908429}, {"type": "node", "id": 2196110875, "lat": 41.9031372, "lon": -87.688657}, {"type": "node", "id": 2196110876, "lat": 41.9031382, "lon": -87.688578}, {"type": "node", "id": 2196110988, "lat": 41.9032316, "lon": -87.6909483}, {"type": "node", "id": 2196111001, "lat": 41.9032332, "lon": -87.6908454}, {"type": "node", "id": 2196111201, "lat": 41.9033435, "lon": -87.6956142}, {"type": "node", "id": 2196111203, "lat": 41.9033444, "lon": -87.6955353}, {"type": "node", "id": 2196111223, "lat": 41.9033705, "lon": -87.6886639}, {"type": "node", "id": 2196111225, "lat": 41.9033715, "lon": -87.6885849}, {"type": "node", "id": 2196191472, "lat": 41.9153855, "lon": -87.6850008}, {"type": "node", "id": 2196191717, "lat": 41.9155028, "lon": -87.6850109}, {"type": "node", "id": 2196191866, "lat": 41.9155111, "lon": -87.6851987}, {"type": "node", "id": 2196192238, "lat": 41.9155961, "lon": -87.6850155}, {"type": "node", "id": 2196192241, "lat": 41.9155966, "lon": -87.6850963}, {"type": "node", "id": 2196192517, "lat": 41.9156236, "lon": -87.6850152}, {"type": "node", "id": 2196192520, "lat": 41.9156252, "lon": -87.6850648}, {"type": "node", "id": 2196193268, "lat": 41.9159196, "lon": -87.6867571}, {"type": "node", "id": 2196193451, "lat": 41.9159617, "lon": -87.6868213}, {"type": "node", "id": 2196193545, "lat": 41.915989, "lon": -87.6867898}, {"type": "node", "id": 2196193552, "lat": 41.9159898, "lon": -87.6867913}, {"type": "node", "id": 2196194592, "lat": 41.9161233, "lon": -87.6865173}, {"type": "node", "id": 2196194760, "lat": 41.916162, "lon": -87.6865768}, {"type": "node", "id": 2789537651, "lat": 41.9173555, "lon": -87.6984206, "tags": {"addr:city": "Chicago", "addr:housenumber": "2829", "addr:postcode": "60647", "addr:state": "IL", "addr:street": "West Armitage Avenue", "amenity": "restaurant", "cuisine": "mexican", "name": "Dos Urban Cantina", "opening_hours": "Tu-Th 17:00-21:00; Fr-Sa 17:00-23:00; Su 17:00-21:00", "phone": "+1-773-661-6452", "website": "https://dosurbancantina.com", "wheelchair": "no"}}, {"type": "node", "id": 3570187860, "lat": 41.915257, "lon": -87.6847129, "tags": {"addr:city": "Chicago", "addr:housenumber": "1861", "addr:postcode": "60647", "addr:state": "IL", "addr:street": "North Milwaukee Avenue", "amenity": "bar", "name": "Red & White Wine Bar", "opening_hours": "Mo-We 12:00-21:00; Th-Sa 12:00-22:00; Su 12:00-19:00", "phone": "+1-773-486-4769", "website": "https://www.redandwhitewineschicago.com/"}}, {"type": "node", "id": 3570188608, "lat": 41.9149624, "lon": -87.6847822, "tags": {"addr:city": "Chicago", "addr:housenumber": "1846", "addr:postcode": "60647", "addr:state": "Il", "addr:street": "North Milwaukee Avenue", "amenity": "restaurant", "cuisine": "thai", "name": "Silom 12", "phone": "+1-773-489-1212", "website": "http://www.silom12chicago.com/"}}, {"type": "node", "id": 3570191046, "lat": 41.9128303, "lon": -87.6972374, "tags": {"amenity": "restaurant", "cuisine": "puerto_rican", "name": "El Nuevo Borinquen"}}, {"type": "node", "id": 3575120598, "lat": 41.910214, "lon": -87.6853111, "tags": {"addr:city": "Chicago", "addr:housenumber": "2311", "addr:postcode": "60647", "addr:state": "IL", "addr:street": "West North Avenue", "amenity": "restaurant", "diet:vegan": "yes", "diet:vegetarian": "only", "name": "Handlebar", "opening_hours": "Mo-Su 10:00-01:00", "phone": "+1-773-384-9546", "website": "https://www.handlebarchicago.com/"}}, {"type": "node", "id": 3575120599, "lat": 41.9104695, "lon": -87.68575, "tags": {"amenity": "restaurant", "cuisine": "thai", "name": "Thai Lagoon"}}, {"type": "node", "id": 3575120600, "lat": 41.9101455, "lon": -87.6881071, "tags": {"addr:city": "Chicago", "addr:housenumber": "2421", "addr:postcode": "60647", "addr:state": "IL", "addr:street": "West North Avenue", "amenity": "restaurant", "cuisine": "indian", "delivery": "yes", "name": "Rangoli", "phone": "+1-773-697-7114", "takeaway": "yes", "website": "http://rangolifeast.com/"}}, {"type": "node", "id": 3652955076, "lat": 41.9101567, "lon": -87.6878456, "tags": {"amenity": "restaurant", "name": "China Station"}}, {"type": "node", "id": 3659172691, "lat": 41.9100888, "lon": -87.6938521, "tags": {"addr:city": "Chicago", "addr:housenumber": "2465", "addr:postcode": "60622", "addr:state": "IL", "addr:street": "West North Avenue", "amenity": "bar", "name": "Boulevard Sports Lounge", "phone": "+1-773-687-8456", "website": "http://www.boulevardsportslounge.com/"}}, {"type": "node", "id": 3659172692, "lat": 41.910114, "lon": -87.6927745, "tags": {"amenity": "cafe", "name": "Se\u00f1or Pan Cafe"}}, {"type": "node", "id": 3660358397, "lat": 41.9101245, "lon": -87.6901188, "tags": {"amenity": "pub", "name": "West On North"}}, {"type": "node", "id": 3664687674, "lat": 41.9055766, "lon": -87.7006028, "tags": {"addr:city": "Chicago", "addr:housenumber": "1301", "addr:postcode": "60622", "addr:state": "IL", "addr:street": "North Humboldt Drive", "amenity": "cafe", "name": "The Boathouse Cafe", "phone": "+1-312-838-6205"}}, {"type": "node", "id": 3673559735, "lat": 41.9103602, "lon": -87.7013592, "tags": {"addr:city": "Chicago", "addr:housenumber": "2958", "addr:postcode": "60647", "addr:state": "IL", "addr:street": "West North Avenue", "amenity": "restaurant", "name": "Humboldt Haus", "phone": "+1-773-697-9590"}}, {"type": "node", "id": 3673564376, "lat": 41.9103428, "lon": -87.703029, "tags": {"addr:city": "Chicago", "addr:housenumber": "3018", "addr:postcode": "60647", "addr:state": "IL", "addr:street": "West North Avenue", "amenity": "bar", "name": "Humble Bar & Lounge", "phone": "+1-773-661-2419"}}, {"type": "node", "id": 3675060651, "lat": 41.9065532, "lon": -87.6868969, "tags": {"addr:city": "Chicago", "addr:housenumber": "1357", "addr:postcode": "60622", "addr:state": "IL", "addr:street": "North Western Avenue", "amenity": "restaurant", "cuisine": "american;breakfast;brunch", "name": "Hash Chicago", "opening_hours": "Su-Mo 08:00-15:00; We-Sa 08:00-15:00", "phone": "+1-773-661-2964", "website": "https://www.hashchicago.com/"}}, {"type": "node", "id": 3996419870, "lat": 41.917355, "lon": -87.698579, "tags": {"amenity": "restaurant", "cuisine": "pizza", "name": "Ugo's"}}, {"type": "node", "id": 4039273390, "lat": 41.9135894, "lon": -87.6972582, "tags": {"addr:city": "Chicago", "addr:country": "US", "addr:housenumber": "1752", "addr:postcode": "60647", "addr:state": "IL", "addr:street": "North California Avenue", "amenity": "cafe", "name": "Donut Delight"}}, {"type": "node", "id": 4697800145, "lat": 41.9031227, "lon": -87.6935215, "tags": {"addr:city": "Chicago", "addr:housenumber": "2638", "addr:postcode": "60622", "addr:state": "IL", "addr:street": "West Division Street", "amenity": "cafe", "name": "Caf\u00e9 Colao", "phone": "+1-773-799-8454", "website": "https://www.cafecolaochicago.com/"}}, {"type": "node", "id": 4718913030, "lat": 41.9160583, "lon": -87.6875926, "tags": {"addr:city": "Chicago", "addr:housenumber": "1904", "addr:postcode": "60647", "addr:state": "IL", "addr:street": "North Western Avenue", "amenity": "restaurant", "cuisine": "italian", "name": "Animale", "opening_hours": "Su 12:00-21:00; Mo-Sa 12:00-22:00", "website": "http://www.animalechicago.com/"}}, {"type": "node", "id": 6249982165, "lat": 41.9101156, "lon": -87.6927943, "tags": {"addr:city": "Chicago", "addr:housenumber": "2615", "addr:postcode": "60647", "addr:state": "IL", "addr:street": "West North Avenue", "amenity": "restaurant", "cuisine": "cuban", "name": "1492 Cuban Fusion", "phone": "+1-773 227-9601", "website": "http://1492cubanfusion.com/"}}, {"type": "node", "id": 6269184366, "lat": 41.9100775, "lon": -87.6900295, "tags": {"addr:city": "Chicago", "addr:housenumber": "2507", "addr:postcode": "60647", "addr:state": "IL", "addr:street": "West North Avenue", "amenity": "restaurant", "name": "Bulerias Tapas Bar", "phone": "+1-773-404-2855", "website": "http://www.buleriastapas.com/"}}, {"type": "node", "id": 6284020693, "lat": 41.9101324, "lon": -87.6880221, "tags": {"addr:city": "Chicago", "addr:housenumber": "2415", "addr:postcode": "60647", "addr:state": "IL", "addr:street": "West North Avenue", "amenity": "restaurant", "name": "Cup & Spoon", "phone": "+1-773-697-4421", "website": "http://www.cupandspoonchicago.com/"}}, {"type": "node", "id": 6284196705, "lat": 41.9155759, "lon": -87.6876655, "tags": {"addr:city": "Chicago", "addr:housenumber": "1856", "addr:postcode": "60647", "addr:state": "IL", "addr:street": "North Western Avenue", "amenity": "cafe", "cuisine": "coffee_shop", "name": "Dark Matter Coffee - Electric Mud Coffee Bar", "phone": "+1-773-698-6086", "website": "https://www.darkmattercoffee.com/"}}, {"type": "node", "id": 6301103471, "lat": 41.9101746, "lon": -87.6846028, "tags": {"addr:city": "Chicago", "addr:housenumber": "2257", "addr:postcode": "60647", "addr:state": "IL", "addr:street": "West North Avenue", "amenity": "restaurant", "name": "Runa Japanese", "phone": "+1-773-278-8887", "website": "http://www.runajapanesechicago.com/"}}, {"type": "node", "id": 6319221993, "lat": 41.9173465, "lon": -87.6965099, "tags": {"addr:city": "Chicago", "addr:housenumber": "2745", "addr:postcode": "60647", "addr:state": "IL", "addr:street": "West Armitage Avenue", "amenity": "cafe", "name": "Katherine Anne Confections", "phone": "+1-773-245-1630", "website": "http://www.katherine-anne.com/"}}, {"type": "node", "id": 6323063285, "lat": 41.9033048, "lon": -87.689323, "tags": {"addr:city": "Chicago", "addr:housenumber": "2458", "addr:postcode": "60622", "addr:state": "IL", "addr:street": "West Division Street", "amenity": "restaurant", "name": "Nellie\u2019s", "phone": "+1-773-252-5520", "website": "https://www.nelliesrestaurant.com/"}}, {"type": "node", "id": 6324384805, "lat": 41.9160456, "lon": -87.6876461, "tags": {"addr:city": "Chicago", "addr:housenumber": "1904", "addr:postcode": "60647", "addr:state": "IL", "addr:street": "North Western Avenue", "amenity": "restaurant", "name": "Langhe Market", "phone": "+1-872-315-3912", "website": "http://langhemarket.com/"}}, {"type": "node", "id": 6842444182, "lat": 41.9144405, "lon": -87.6839628, "tags": {"addr:city": "Chicago", "addr:housenumber": "1818", "addr:street": "North Milwaukee Avenue", "amenity": "cafe", "name": "Easthill Tea"}}, {"type": "node", "id": 7185921676, "lat": 41.9174218, "lon": -87.6879726, "tags": {"addr:city": "Chicago", "addr:housenumber": "1965", "addr:postcode": "60647", "addr:state": "IL", "addr:street": "North Milwaukee Avenue", "amenity": "cafe", "name": "Chicago Board Game Cafe", "phone": "+1-(224) 208-5346", "website": "https://www.chicagogamecafe.com"}}, {"type": "way", "id": 59343237, "nodes": [258282968, 258282969, 258282970, 1282296369, 34877708, 34877709, 2075140759, 34877711, 1282296431, 2166647920], "tags": {"bridge": "yes", "electrified": "rail", "frequency": "0", "gauge": "1435", "layer": "2", "name": "O'Hare Branch", "old_name": "Logan Square Branch", "oneway": "yes", "operator": "Chicago Transit Authority", "railway": "subway", "voltage": "600"}}, {"type": "way", "id": 112926174, "nodes": [2166647923, 2090182927, 1282296250, 1282296350, 1282296375, 1282296364, 1282296381, 1282296244, 1282296292, 1282296435, 1282296415, 1282296303, 1282296339, 1282296410], "tags": {"bridge": "yes", "electrified": "rail", "frequency": "0", "gauge": "1435", "name": "O'Hare Branch", "oneway": "yes", "operator": "Chicago Transit Authority", "railway": "subway", "voltage": "600"}}, {"type": "way", "id": 206629207, "nodes": [2166647923, 2166647859], "tags": {"bridge": "yes", "electrified": "rail", "frequency": "0", "gauge": "1435", "layer": "2", "name": "O'Hare Branch", "operator": "Chicago Transit Authority", "railway": "subway", "voltage": "600"}}, {"type": "way", "id": 206629208, "nodes": [2166647920, 2075140757, 2166647858], "tags": {"bridge": "yes", "electrified": "rail", "frequency": "0", "gauge": "1435", "layer": "2", "name": "O'Hare Branch", "old_name": "Logan Square Branch", "operator": "Chicago Transit Authority", "railway": "subway", "voltage": "600"}}, {"type": "way", "id": 209390013, "nodes": [2196110875, 2196111223, 2196111225, 2196110876, 2196110875], "tags": {"addr:housenumber": "2438", "addr:street": "West Division Street", "addr:street:name": "Division", "addr:street:prefix": "West", "addr:street:type": "Street", "amenity": "restaurant", "building": "yes", "building:levels": "2", "chicago:building_id": "322558", "cuisine": "chinese", "name": "New China Restaurant"}}, {"type": "way", "id": 209390479, "nodes": [2196110833, 2196110988, 2196111001, 2196110839, 2196110833], "tags": {"addr:housenumber": "2534", "addr:street": "West Division Street", "addr:street:name": "Division", "addr:street:prefix": "West", "addr:street:type": "Street", "amenity": "restaurant", "building": "yes", "chicago:building_id": "860071", "cuisine": "pizza", "name": "Guerrero's Tacos and Pizza", "wheelchair": "yes"}}, {"type": "way", "id": 209391564, "nodes": [2196110741, 2196111201, 2196111203, 2196110744, 2196110741], "tags": {"addr:housenumber": "2726", "addr:street": "West Division Street", "addr:street:name": "Division", "addr:street:prefix": "West", "addr:street:type": "Street", "amenity": "restaurant", "building": "yes", "building:levels": "2", "chicago:building_id": "322673", "name": "La Bruquena", "wheelchair": "limited"}}, {"type": "way", "id": 209403314, "nodes": [2196191472, 2196191866, 2196192241, 2196192520, 2196192517, 2196192238, 2196191717, 2196191472], "tags": {"addr:housenumber": "1865", "addr:street": "North Milwaukee Avenue", "addr:street:name": "Milwaukee", "addr:street:prefix": "North", "addr:street:type": "Avenue", "amenity": "restaurant", "building": "yes", "building:levels": "1", "chicago:building_id": "291593", "cuisine": "costa_rican", "description": "Costa Rican restaurant, BYOB", "name": "Irazu", "opening_hours": "Mo-Sa 11:30-21:30", "phone": "+1 773-252-5687", "website": "http://www.irazuchicago.com/phone/index.html"}}, {"type": "way", "id": 209403393, "nodes": [2196193451, 2196193545, 2196193552, 2196194760, 2196194592, 2196193268, 2196193451], "tags": {"addr:city": "Chicago", "addr:housenumber": "1910", "addr:postcode": "60647", "addr:state": "IL", "addr:street": "North Milwaukee Avenue", "addr:street:name": "Milwaukee", "addr:street:prefix": "North", "addr:street:type": "Avenue", "amenity": "bar", "building": "yes", "building:levels": "2", "chicago:building_id": "843412", "name": "Remedy", "phone": "+1-773-698-7715", "website": "http://remedybarchicago.com/"}}]}