{"version": 0.6, "generator": "Overpass API 0.7.56.3 eb200aeb", "osm3s": {"timestamp_osm_base": "2020-07-04T03:08:02Z", "copyright": "The data included in this document is from www.openstreetmap.org. The data is made available under ODbL."}, "elements": [{"type": "node", "id": 662726461, "lat": 41.9437805, "lon": -87.6449908, "tags": {"addr:city": "Chicago", "addr:housenumber": "3415", "addr:postcode": "60657", "addr:state": "IL", "addr:street": "North Broadway", "amenity": "restaurant", "name": "Ann Sather", "phone": "+1-773-305-0024", "website": "http://annsather.com/"}}, {"type": "node", "id": 903249436, "lat": 41.9492099, "lon": -87.6497345, "tags": {"amenity": "restaurant", "cuisine": "american", "name": "Kit Kat Club"}}, {"type": "node", "id": 903249885, "lat": 41.9477497, "lon": -87.6473849, "tags": {"addr:city": "Chicago", "addr:country": "US", "addr:housenumber": "3617", "addr:postcode": "60613", "addr:state": "IL", "addr:street": "North Broadway", "amenity": "restaurant", "name": "Waffles"}}, {"type": "node", "id": 903251602, "lat": 41.9471033, "lon": -87.6469665, "tags": {"addr:city": "Chicago", "addr:housenumber": "3561", "addr:postcode": "60657", "addr:state": "IL", "addr:street": "North Broadway", "amenity": "restaurant", "cuisine": "italian", "name": "Angelina's Italian Restaurant", "phone": "+1-773-935-5933", "website": "http://www.angelinaristorante.com/"}}, {"type": "node", "id": 903259931, "lat": 41.9450605, "lon": -87.645679, "tags": {"amenity": "pub", "name": "Rock's", "wheelchair": "yes"}}, {"type": "node", "id": 949089361, "lat": 41.9499295, "lon": -87.6490719, "tags": {"amenity": "bar", "name": "Charlie's Chicago"}}, {"type": "node", "id": 949092165, "lat": 41.9486448, "lon": -87.6493831, "tags": {"amenity": "bar", "name": "Circuit"}}, {"type": "node", "id": 949094037, "lat": 41.946246, "lon": -87.649292, "tags": {"addr:city": "Chicago", "addr:country": "US", "addr:housenumber": "3523", "addr:province": "IL", "addr:street": "North Halsted Street", "amenity": "restaurant", "name": "Las Mananitas", "phone": "+1-773-528-2109"}}, {"type": "node", "id": 949094860, "lat": 41.9453312, "lon": -87.6495882, "tags": {"amenity": "bar", "name": "Hydrate"}}, {"type": "node", "id": 949099772, "lat": 41.9435267, "lon": -87.6495172, "tags": {"amenity": "bar", "name": "Roscoe's Tavern & Cafe"}}, {"type": "node", "id": 949100448, "lat": 41.9435227, "lon": -87.6492449, "tags": {"amenity": "bar", "name": "Progress Bar Chicago"}}, {"type": "node", "id": 949101374, "lat": 41.9432554, "lon": -87.6492221, "tags": {"amenity": "bar", "name": "Sidetrack"}}, {"type": "node", "id": 949101636, "lat": 41.9429791, "lon": -87.6492355, "tags": {"amenity": "bar", "name": "Minibar"}}, {"type": "node", "id": 949101795, "lat": 41.9428145, "lon": -87.6494997, "tags": {"amenity": "restaurant", "name": "Nookie's"}}, {"type": "node", "id": 1239986384, "lat": 41.9501152, "lon": -87.649398, "tags": {"amenity": "bar", "name": "North End"}}, {"type": "node", "id": 1239986677, "lat": 41.9499795, "lon": -87.6494034, "tags": {"amenity": "bar", "name": "Bobby Love's"}}, {"type": "node", "id": 2009284043, "lat": 41.9455726, "lon": -87.6489875, "tags": {"amenity": "restaurant", "cuisine": "american", "name": "Taverna 750"}}, {"type": "node", "id": 2204135999, "lat": 41.9509993, "lon": -87.6499852}, {"type": "node", "id": 2204136014, "lat": 41.9510034, "lon": -87.6497536}, {"type": "node", "id": 2204136027, "lat": 41.9510083, "lon": -87.6501285}, {"type": "node", "id": 2204136034, "lat": 41.9510102, "lon": -87.6499851}, {"type": "node", "id": 2204136136, "lat": 41.9510797, "lon": -87.6501295}, {"type": "node", "id": 2204136138, "lat": 41.9510857, "lon": -87.6497545}, {"type": "node", "id": 2204138385, "lat": 41.9521128, "lon": -87.6416191}, {"type": "node", "id": 2204138496, "lat": 41.9521595, "lon": -87.6415833}, {"type": "node", "id": 2204138516, "lat": 41.95217, "lon": -87.6416082}, {"type": "node", "id": 2204138542, "lat": 41.952184, "lon": -87.6415975}, {"type": "node", "id": 2204138555, "lat": 41.9521947, "lon": -87.6418128}, {"type": "node", "id": 2204138587, "lat": 41.9522086, "lon": -87.6418022}, {"type": "node", "id": 2204138628, "lat": 41.9522185, "lon": -87.6418257}, {"type": "node", "id": 2204138719, "lat": 41.9522654, "lon": -87.6417899}, {"type": "node", "id": 2262363338, "lat": 41.9440287, "lon": -87.6495776, "tags": {"addr:city": "Chicago", "addr:housenumber": "3404", "addr:postcode": "60657", "addr:state": "IL", "addr:street": "North Halsted Street", "amenity": "restaurant", "cuisine": "american", "name": "Home Bistro", "phone": "+1-773-661-0299", "website": "http://homebistrochicago.com/"}}, {"type": "node", "id": 2282741031, "lat": 41.9426831, "lon": -87.6443288, "tags": {"addr:housenumber": "3257", "addr:street": "North Broadway", "amenity": "restaurant", "cuisine": "asian", "name": "Joy's Noodles & Rice"}}, {"type": "node", "id": 3485449403, "lat": 41.9470511, "lon": -87.646931, "tags": {"addr:city": "Chicago", "addr:housenumber": "3555", "addr:postcode": "60657", "addr:state": "IL", "addr:street": "North Broadway", "amenity": "restaurant", "cuisine": "barbecue", "name": "Wrigley BBQ", "opening_hours": "Mo-Th 11:30-22:00; Fr-Sa 11:30-23:00; Su 11:30-21:30", "smoking": "no", "takeaway": "yes"}}, {"type": "node", "id": 3940894157, "lat": 41.945603, "lon": -87.6496353, "tags": {"addr:city": "Chicago", "addr:housenumber": "3500", "addr:postcode": "60657", "addr:state": "IL", "addr:street": "North Halsted Street", "amenity": "cafe", "atm": "no", "brand": "Peet's Coffee", "brand:wikidata": "Q1094101", "brand:wikipedia": "en:Peet's Coffee", "cuisine": "coffee_shop", "drive_through": "no", "internet_access": "wlan", "name": "Peet's Coffee", "opening_hours": "Mo-Sa 05:30-21:00; Su 06:00-20:00", "outdoor_seating": "yes", "phone": "+1-773-360-5280", "smoking": "no", "takeaway": "yes", "website": "https://www.peets.com/", "wheelchair": "yes"}}, {"type": "node", "id": 4390711391, "lat": 41.9492375, "lon": -87.6491974, "tags": {"amenity": "restaurant", "name": "Panino's Pizzeria"}}, {"type": "node", "id": 4704620392, "lat": 41.9425068, "lon": -87.6442948, "tags": {"amenity": "bar", "name": "The Closet", "name:en": "The Closet"}}, {"type": "node", "id": 5356226639, "lat": 41.9568479, "lon": -87.6518177, "tags": {"addr:city": "Chicago", "addr:housenumber": "4091", "addr:postcode": "60613", "addr:state": "IL", "addr:street": "North Broadway", "amenity": "restaurant", "cuisine": "pizza;wings;italian_beef;burger;salad", "delivery": "yes", "name": "Michael's Original PIzzeria & Tavern", "opening_hours": "Mo-Fr 11:30-02:00; Sa 11:30-03:00; Su 11:30-00:00", "phone": "773-929-4149", "smoking": "outside", "takeaway": "yes", "website": "https://www.michaelspizzachicago.com/"}}, {"type": "node", "id": 5364425022, "lat": 41.9427161, "lon": -87.652684, "tags": {"amenity": "restaurant", "name": "El Jardin"}}, {"type": "node", "id": 5693947791, "lat": 41.9438463, "lon": -87.6453016, "tags": {"amenity": "restaurant", "name": "El Mariache Restaurant"}}, {"type": "node", "id": 5693947793, "lat": 41.9438117, "lon": -87.6453073, "tags": {"addr:city": "Chicago", "addr:housenumber": "3420", "addr:postcode": "60657", "addr:state": "Il", "addr:street": "North Broadway", "amenity": "bar", "name": "Jacquelines's", "phone": "+1-773-404-5149"}}, {"type": "node", "id": 5693947794, "lat": 41.9438949, "lon": -87.6453372, "tags": {"amenity": "restaurant", "name": "Shiawase Japanese Restaurant"}}, {"type": "node", "id": 5693948271, "lat": 41.9455874, "lon": -87.6463743, "tags": {"amenity": "restaurant", "name": "Tasty Asian Restaurant"}}, {"type": "node", "id": 5693977769, "lat": 41.9447676, "lon": -87.6492558, "tags": {"amenity": "bar", "name": "Replay"}}, {"type": "node", "id": 5693977770, "lat": 41.944889, "lon": -87.6492509, "tags": {"addr:city": "Chicago", "addr:housenumber": "3441", "addr:postcode": "60657", "addr:state": "IL", "addr:street": "North Halsted Street", "amenity": "bar", "name": "Lark", "phone": "+1-773-799-8968", "website": "https://www.larkchicago.com/"}}, {"type": "node", "id": 5694736438, "lat": 41.9436247, "lon": -87.644836, "tags": {"amenity": "restaurant", "name": "Milt's Barbecue for the Perplexed"}}, {"type": "node", "id": 5695558674, "lat": 41.9429745, "lon": -87.6529045, "tags": {"amenity": "restaurant", "name": "PS Bangkok"}}, {"type": "node", "id": 5695558676, "lat": 41.9428926, "lon": -87.6528527, "tags": {"addr:city": "Chicago", "addr:housenumber": "3343", "addr:postcode": "60657", "addr:state": "IL", "addr:street": "North Clark Street", "amenity": "restaurant", "name": "Lowcountry Lakeview", "phone": "+1-888-883-8375", "website": "https://www.lowcountrychicago.com/"}}, {"type": "node", "id": 5698236642, "lat": 41.9429961, "lon": -87.6495351, "tags": {"addr:city": "Chicago", "addr:housenumber": "3340", "addr:postcode": "60657", "addr:state": "IL", "addr:street": "North Halsted Street", "amenity": "bar", "name": "Town Hall Pub", "phone": "1+773-472-4405", "website": "http://www.townhallpub.com/"}}, {"type": "node", "id": 6283237814, "lat": 41.9504868, "lon": -87.6494162, "tags": {"addr:city": "Chicago", "addr:housenumber": "3752", "addr:postcode": "60613", "addr:state": "IL", "addr:street": "North Broadway", "amenity": "cafe", "name": "Coffee Tree & Tea Leaves", "phone": "+1-773-871-7818", "website": "http://www.coffeetreetealeaves.com/"}}, {"type": "node", "id": 6283857177, "lat": 41.9543869, "lon": -87.6526849, "tags": {"addr:city": "Chicago", "addr:housenumber": "909", "addr:postcode": "60613", "addr:state": "IL", "addr:street": "West Irving Park Road", "amenity": "cafe", "cuisine": "coffee_shop", "name": "Coronas Coffee Shop", "phone": "+1-773-529-1886", "website": "https://www.coronascoffeeshop.com/"}}, {"type": "node", "id": 6286532079, "lat": 41.9452065, "lon": -87.6496265, "tags": {"addr:city": "Chicago", "addr:housenumber": "3452", "addr:postcode": "60657", "addr:state": "IL", "addr:street": "North Halsted Street", "amenity": "bar", "name": "Elixir Lounge", "phone": "+1-773-975-9244", "website": "https://www.elixirchicago.com/"}}, {"type": "node", "id": 6287095694, "lat": 41.9494171, "lon": -87.6483014, "tags": {"addr:city": "Chicago", "addr:housenumber": "3701", "addr:postcode": "60613", "addr:state": "IL", "addr:street": "North Broadway", "amenity": "bar", "name": "F. O\u2019Mahony\u2019s", "phone": "+1-773-549-0226", "website": "http://fomahonys.com/"}}, {"type": "node", "id": 6289265540, "lat": 41.9449947, "lon": -87.649237, "tags": {"addr:city": "Chicago", "addr:housenumber": "3445", "addr:postcode": "60657", "addr:state": "IL", "addr:street": "North Halsted Street", "amenity": "restaurant", "name": "D.S. Fajita Factory", "phone": "+1-773-770-4618", "website": "https://fajitame.com/"}}, {"type": "node", "id": 6297839310, "lat": 41.94334, "lon": -87.6490311, "tags": {"addr:city": "Chicago", "addr:housenumber": "3349", "addr:postcode": "60657", "addr:state": "IL", "addr:street": "North Halsted Street", "amenity": "bar", "name": "Sidetrack", "phone": "+1-773-477-9189", "website": "https://www.sidetrackchicago.com/"}}, {"type": "node", "id": 6300887613, "lat": 41.9458691, "lon": -87.646604, "tags": {"addr:city": "Chicago", "addr:housenumber": "3508", "addr:postcode": "60657", "addr:state": "IL", "addr:street": "North Broadway", "amenity": "cafe", "name": "Rewired Caf\u00e9- Lakeview", "phone": "+1-773-687-9719"}}, {"type": "node", "id": 6306543880, "lat": 41.9440209, "lon": -87.6491763, "tags": {"addr:city": "Chicago", "addr:housenumber": "3411", "addr:postcode": "60657", "addr:state": "IL", "addr:street": "North Halsted Street", "amenity": "restaurant", "diet:gluten_free": "yes", "diet:vegan": "yes", "diet:vegetarian": "only", "name": "The Chicago Diner", "phone": "+1-773-935-6696", "website": "http://www.veggiediner.com/"}}, {"type": "node", "id": 6315218733, "lat": 41.9478821, "lon": -87.6466169, "tags": {"addr:city": "Chicago", "addr:housenumber": "620", "addr:postcode": "60613", "addr:state": "IL", "addr:street": "West Addison Street", "amenity": "restaurant", "name": "The Flower Flat", "phone": "+1-773-697-3682", "website": "http://www.theflowerflat.com/http://www.theflowerflat.com/"}}, {"type": "node", "id": 6316678035, "lat": 41.9425564, "lon": -87.6443063, "tags": {"addr:city": "Chicago", "addr:housenumber": "3317", "addr:postcode": "60657", "addr:state": "IL", "addr:street": "North Broadway", "amenity": "bar", "name": "Wang\u2019s", "phone": "+1-773-296-6800", "website": "http://www.wangslive.com/"}}, {"type": "node", "id": 6316972664, "lat": 41.9428754, "lon": -87.6490912, "tags": {"addr:city": "Chicago", "addr:housenumber": "3335", "addr:postcode": "60657", "addr:state": "IL", "addr:street": "North Halsted Street", "amenity": "restaurant", "name": "Wood", "phone": "+1-773-935-9663", "website": "http://woodchicago.com/"}}, {"type": "node", "id": 6317062826, "lat": 41.9431839, "lon": -87.6496538, "tags": {"addr:city": "Chicago", "addr:housenumber": "3344", "addr:postcode": "60657", "addr:state": "IL", "addr:street": "North Halsted Street", "amenity": "cafe", "name": "Yefseis Cafe", "phone": "+1-773-857-3002", "website": "https://yefseis-cafe.business.site/"}}, {"type": "node", "id": 6318928610, "lat": 41.9472229, "lon": -87.6470188, "tags": {"addr:city": "Chicago", "addr:housenumber": "3563", "addr:postcode": "60657", "addr:state": "IL", "addr:street": "North Broadway", "amenity": "bar", "name": "Joe\u2019s On Broadway", "phone": "+1-773-528-1054"}}, {"type": "node", "id": 6326075700, "lat": 41.942959, "lon": -87.6443966, "tags": {"addr:city": "Chicago", "addr:housenumber": "3343", "addr:postcode": "60657", "addr:state": "IL", "addr:street": "North Broadway", "amenity": "restaurant", "name": "Ms. T\u2019s Southern Fried Chicken", "phone": "+1-773-728-2500", "website": "http://mstssouthernfriedchicken.com/"}}, {"type": "node", "id": 6742635969, "lat": 41.9446738, "lon": -87.6454546, "tags": {"addr:city": "Chicago", "addr:housenumber": "3443", "addr:postcode": "60657", "addr:state": "IL", "addr:street": "North Broadway", "amenity": "restaurant", "cuisine": "steak_house", "name": "Revoluci\u00f3n Steakhouse"}}, {"type": "node", "id": 6742635971, "lat": 41.9453023, "lon": -87.6458274, "tags": {"addr:city": "Chicago", "addr:housenumber": "3477", "addr:postcode": "60657", "addr:state": "IL", "addr:street": "North Broadway", "amenity": "restaurant", "cuisine": "pizza", "name": "Si-Pie Pizzeria"}}, {"type": "node", "id": 6975177633, "lat": 41.9433498, "lon": -87.6495032, "tags": {"amenity": "bar", "name": "D.S. Tequila Company"}}, {"type": "node", "id": 6975184603, "lat": 41.9457115, "lon": -87.6496251, "tags": {"amenity": "restaurant", "name": "Forever Yogurt"}}, {"type": "node", "id": 6975184604, "lat": 41.9455848, "lon": -87.6492845, "tags": {"amenity": "bar", "name": "Little Jim's Tavern"}}, {"type": "node", "id": 6975184605, "lat": 41.9456597, "lon": -87.6492885, "tags": {"amenity": "bar", "name": "Big Jim's"}}, {"type": "node", "id": 6975184606, "lat": 41.9457415, "lon": -87.6491812, "tags": {"amenity": "restaurant", "name": "Taco and Burrito Palace"}}, {"type": "node", "id": 7161087636, "lat": 41.9506255, "lon": -87.6430859, "tags": {"addr:city": "Chicago", "addr:housenumber": "3650", "addr:street": "North Recreation Drive", "amenity": "restaurant", "cuisine": "mexican", "name": "Two Wheel Tacos", "opening_hours": "\"seasonal\""}}, {"type": "node", "id": 7393995558, "lat": 41.9526131, "lon": -87.6494803, "tags": {"amenity": "cafe", "brand": "Starbucks", "brand:wikidata": "Q37158", "brand:wikipedia": "en:Starbucks", "cuisine": "coffee_shop", "name": "Starbucks", "official_name": "Starbucks Coffee", "takeaway": "yes"}}, {"type": "way", "id": 210330261, "nodes": [2204135999, 2204136034, 2204136027, 2204136136, 2204136138, 2204136014, 2204135999], "tags": {"addr:city": "Chicago", "addr:housenumber": "3760", "addr:postcode": "60613", "addr:state": "IL", "addr:street": "North Broadway", "addr:street:name": "Broadway", "addr:street:prefix": "North", "amenity": "restaurant", "brand": "IHOP", "brand:wikidata": "Q1185675", "brand:wikipedia": "en:IHOP", "building": "yes", "building:levels": "1", "chicago:building_id": "161117", "cuisine": "breakfast;pancake", "name": "IHOP"}}, {"type": "way", "id": 210331436, "nodes": [2204138385, 2204138555, 2204138587, 2204138628, 2204138719, 2204138542, 2204138516, 2204138496, 2204138385], "tags": {"amenity": "cafe", "building": "yes", "chicago:building_id": "156953", "name": "Clock Tower Cafe", "phone": "+1-312-742-7930-X3", "website": "http://www.clocktowercafechicago.com/"}}]}