{"version": 0.6, "generator": "Overpass API 0.7.56.1004 6cd3eaec", "osm3s": {"timestamp_osm_base": "2020-07-22T06:22:02Z", "copyright": "The data included in this document is from www.openstreetmap.org. The data is made available under ODbL."}, "elements": [{"type": "node", "id": 2001850413, "lat": 41.8319143, "lon": -87.675847, "tags": {"amenity": "restaurant", "name": "Huck Finn Restaurant"}}, {"type": "node", "id": 2001851198, "lat": 41.8324359, "lon": -87.6755413, "tags": {"addr:city": "Chicago", "addr:housenumber": "2000", "addr:postcode": "60608", "addr:street": "West 34th Street", "amenity": "restaurant", "cuisine": "fish,_Mexican,_seafood", "name": "La Palapa Mariscos", "opening_hours": "Su-Th 10:00-22:00; Fr-Sa 10:00-23:00"}}, {"type": "node", "id": 2199087074, "lat": 41.8371522, "lon": -87.6659276}, {"type": "node", "id": 2199087087, "lat": 41.8372324, "lon": -87.6660167}, {"type": "node", "id": 2199087088, "lat": 41.8372324, "lon": -87.6660222}, {"type": "node", "id": 2199087089, "lat": 41.8372442, "lon": -87.6659248}, {"type": "node", "id": 2199087093, "lat": 41.8372531, "lon": -87.666044}, {"type": "node", "id": 2199087094, "lat": 41.83726, "lon": -87.6660439}, {"type": "node", "id": 2199087101, "lat": 41.8373207, "lon": -87.6661093}, {"type": "node", "id": 2199087102, "lat": 41.8373574, "lon": -87.6660502}, {"type": "node", "id": 2627570685, "lat": 41.8337698, "lon": -87.6729687}, {"type": "node", "id": 2627570686, "lat": 41.8335655, "lon": -87.6727404}, {"type": "node", "id": 2627570687, "lat": 41.8334787, "lon": -87.6728802}, {"type": "node", "id": 2627570688, "lat": 41.8336831, "lon": -87.6731085}, {"type": "node", "id": 5455277097, "lat": 41.827819, "lon": -87.6595253, "tags": {"addr:city": "Chicag", "addr:housenumber": "3630", "addr:postcode": "60608", "addr:state": "IL", "addr:street": "South Iron Street", "amenity": "restaurant", "craft": "brewery", "microbrewery": "yes", "name": "Marz Community Brewing", "website": "http://marzbrewing.com"}}, {"type": "node", "id": 6256333210, "lat": 41.8309312, "lon": -87.6563758, "tags": {"addr:city": "Chicago", "addr:housenumber": "1200", "addr:postcode": "60609", "addr:state": "IL", "addr:street": "West 35th Street", "amenity": "cafe", "name": "8a5e", "phone": "+1-773-609-2347", "website": "http://8a5e.com/"}}, {"type": "node", "id": 6269079234, "lat": 41.841515, "lon": -87.6576937, "tags": {"addr:city": "Chicago", "addr:housenumber": "2901", "addr:postcode": "60608", "addr:state": "IL", "addr:street": "South Archer Avenue", "amenity": "bar", "name": "Bridgeport Inn", "phone": "+1-773-523-5468"}}, {"type": "node", "id": 6303046490, "lat": 41.8306416, "lon": -87.675137, "tags": {"addr:city": "Chicago", "addr:housenumber": "1958", "addr:postcode": "60609", "addr:state": "IL", "addr:street": "West 35th Street", "amenity": "cafe", "name": "T Opera Cafe", "phone": "+1-773-823-7410"}}, {"type": "node", "id": 6321570014, "lat": 41.8278906, "lon": -87.6597278, "tags": {"addr:city": "Chicag", "addr:housenumber": "3630", "addr:postcode": "60609", "addr:state": "IL", "addr:street": "South Iron Street", "amenity": "bar", "name": "Marz Community Brewing", "phone": "+1-773-579-1935", "website": "http://marzbrewing.com/"}}, {"type": "node", "id": 6325952104, "lat": 41.8366466, "lon": -87.6638963, "tags": {"addr:city": "Chicago", "addr:housenumber": "3145", "addr:postcode": "60608", "addr:state": "IL", "addr:street": "South Ashland Avenue", "amenity": "cafe", "name": "Vero Coffee & Gelato", "phone": "+1-773-247-3394", "website": "https://verocoffeeandgelato.com/"}}, {"type": "way", "id": 209711679, "nodes": [2199087074, 2199087087, 2199087088, 2199087093, 2199087094, 2199087101, 2199087102, 2199087089, 2199087074], "tags": {"addr:city": "Chicago", "addr:housenumber": "3115", "addr:postcode": "60608", "addr:state": "IL", "addr:street": "South Archer Avenue", "addr:street:name": "Archer", "addr:street:prefix": "South", "addr:street:type": "Avenue", "amenity": "bar", "building": "yes", "building:levels": "2", "chicago:building_id": "409093", "name": "One City Tap", "website": "http://onecitytap.com/"}}, {"type": "way", "id": 257157146, "nodes": [2627570685, 2627570686, 2627570687, 2627570688, 2627570685], "tags": {"amenity": "restaurant", "building": "yes", "building:levels": "1", "cuisine": "chinese;cantonese", "name": "Taste of Canton", "opening_hours": "Mo-Su 11:00-22:00"}}]}