{"version": 0.6, "generator": "Overpass API 0.7.56.3 eb200aeb", "osm3s": {"timestamp_osm_base": "2020-07-04T02:22:02Z", "copyright": "The data included in this document is from www.openstreetmap.org. The data is made available under ODbL."}, "elements": [{"type": "node", "id": 392722753, "lat": 41.939509, "lon": -87.7004397, "tags": {"addr:city": "Chicago", "addr:housenumber": "2900", "addr:postcode": "60618", "addr:state": "IL", "addr:street": "West Belmont Avenue", "amenity": "pub", "atm": "yes", "cuisine": "american", "food": "yes", "name": "Kuma\u2019s Corner - Belmont", "outdoor_seating": "yes", "phone": "+1-773-604-8769", "smoking": "no", "website": "https://kumascorner.com/"}}, {"type": "node", "id": 2162237021, "lat": 41.9356172, "lon": -87.6975623, "tags": {"amenity": "restaurant", "name": "Orbit Room"}}, {"type": "node", "id": 2196726093, "lat": 41.9304316, "lon": -87.6889427}, {"type": "node", "id": 2196726113, "lat": 41.9304346, "lon": -87.6884961}, {"type": "node", "id": 2196726256, "lat": 41.9304671, "lon": -87.6889074}, {"type": "node", "id": 2196726258, "lat": 41.9304673, "lon": -87.6889423}, {"type": "node", "id": 2196726343, "lat": 41.9304931, "lon": -87.6889072}, {"type": "node", "id": 2196726355, "lat": 41.9304963, "lon": -87.6884955}, {"type": "node", "id": 2196734852, "lat": 41.9321972, "lon": -87.6982412}, {"type": "node", "id": 2196734859, "lat": 41.932198, "lon": -87.6981512}, {"type": "node", "id": 2196735073, "lat": 41.9322589, "lon": -87.6982425}, {"type": "node", "id": 2196735074, "lat": 41.932259, "lon": -87.6982572}, {"type": "node", "id": 2196735080, "lat": 41.9322625, "lon": -87.6885421}, {"type": "node", "id": 2196735084, "lat": 41.9322662, "lon": -87.6882296}, {"type": "node", "id": 2196735239, "lat": 41.9323201, "lon": -87.6885433}, {"type": "node", "id": 2196735242, "lat": 41.9323209, "lon": -87.6884386}, {"type": "node", "id": 2196735244, "lat": 41.9323211, "lon": -87.6882309}, {"type": "node", "id": 2196735246, "lat": 41.9323214, "lon": -87.6882805}, {"type": "node", "id": 2196735348, "lat": 41.9323701, "lon": -87.6982432}, {"type": "node", "id": 2196735349, "lat": 41.9323701, "lon": -87.6982597}, {"type": "node", "id": 2196735356, "lat": 41.9323721, "lon": -87.6882819}, {"type": "node", "id": 2196735382, "lat": 41.9323813, "lon": -87.6884398}, {"type": "node", "id": 2196735386, "lat": 41.9323832, "lon": -87.6882964}, {"type": "node", "id": 2196735588, "lat": 41.9324743, "lon": -87.6982458}, {"type": "node", "id": 2196735590, "lat": 41.9324752, "lon": -87.6981558}, {"type": "node", "id": 2196751322, "lat": 41.9379343, "lon": -87.6857706}, {"type": "node", "id": 2196751467, "lat": 41.9379874, "lon": -87.6857021}, {"type": "node", "id": 2196751525, "lat": 41.938002, "lon": -87.6858673}, {"type": "node", "id": 2196751704, "lat": 41.9380552, "lon": -87.685797}, {"type": "node", "id": 2200391526, "lat": 41.9391951, "lon": -87.6830711}, {"type": "node", "id": 2200391530, "lat": 41.939196, "lon": -87.6829902}, {"type": "node", "id": 2200391693, "lat": 41.9392513, "lon": -87.6830724}, {"type": "node", "id": 2200391751, "lat": 41.9392596, "lon": -87.6830833}, {"type": "node", "id": 2200391864, "lat": 41.9392788, "lon": -87.6830831}, {"type": "node", "id": 2200391876, "lat": 41.9392824, "lon": -87.682993}, {"type": "node", "id": 2200391880, "lat": 41.9392843, "lon": -87.683072}, {"type": "node", "id": 2200391887, "lat": 41.939288, "lon": -87.6830003}, {"type": "node", "id": 2200391936, "lat": 41.9393099, "lon": -87.6830019}, {"type": "node", "id": 2200391950, "lat": 41.9393167, "lon": -87.6829927}, {"type": "node", "id": 2200392020, "lat": 41.9393552, "lon": -87.6829941}, {"type": "node", "id": 2200392021, "lat": 41.9393552, "lon": -87.6829996}, {"type": "node", "id": 2200392173, "lat": 41.9393689, "lon": -87.6829903}, {"type": "node", "id": 2200392174, "lat": 41.9393689, "lon": -87.6830013}, {"type": "node", "id": 2200392234, "lat": 41.9393968, "lon": -87.6830746}, {"type": "node", "id": 2200392245, "lat": 41.9394037, "lon": -87.6830837}, {"type": "node", "id": 2200392290, "lat": 41.9394188, "lon": -87.6830854}, {"type": "node", "id": 2200392308, "lat": 41.9394241, "lon": -87.6830449}, {"type": "node", "id": 2200392311, "lat": 41.9394251, "lon": -87.6829916}, {"type": "node", "id": 2200392339, "lat": 41.939431, "lon": -87.683054}, {"type": "node", "id": 2200392341, "lat": 41.9394311, "lon": -87.6830724}, {"type": "node", "id": 2422425841, "lat": 41.92796, "lon": -87.697351, "tags": {"addr:city": "Chicago", "addr:housenumber": "2543", "addr:postcode": "60618", "addr:street": "North California Avenue", "amenity": "cafe", "brand": "Starbucks", "brand:wikidata": "Q37158", "brand:wikipedia": "en:Starbucks", "cuisine": "coffee_shop", "drive_through": "no", "name": "Starbucks", "official_name": "Starbucks Coffee", "outdoor_seating": "yes", "takeaway": "yes"}}, {"type": "node", "id": 2422436953, "lat": 41.9389697, "lon": -87.6979732, "tags": {"addr:city": "Chicago", "addr:housenumber": "3144", "addr:postcode": "60618", "addr:street": "North California Avenue", "amenity": "restaurant", "cuisine": "mexican", "name": "Taqueria Traspasada", "wheelchair": "yes"}}, {"type": "node", "id": 2495670456, "lat": 41.931995, "lon": -87.698314, "tags": {"addr:city": "Chicago", "addr:housenumber": "2815", "addr:postcode": "60618", "addr:street": "West Diversey Parkway", "amenity": "restaurant", "cuisine": "mexican", "name": "L'Patron", "outdoor_seating": "no", "takeaway": "yes"}}, {"type": "node", "id": 2516917179, "lat": 41.937096, "lon": -87.69797, "tags": {"addr:city": "Chicago", "addr:housenumber": "3046", "addr:postcode": "60618", "addr:street": "North California Avenue", "amenity": "bar", "name": "Clyde's"}}, {"type": "node", "id": 2612365316, "lat": 41.9319208, "lon": -87.7002647, "tags": {"addr:city": "Chicago", "addr:housenumber": "2901", "addr:postcode": "60618", "addr:state": "IL", "addr:street": "West Diversey Parkway", "amenity": "restaurant", "cuisine": "Tequila_Bar", "name": "Masa Azul", "phone": "(773) 687-0300", "website": "http://www.masaazul.com/"}}, {"type": "node", "id": 2904923307, "lat": 41.9275368, "lon": -87.6976401, "tags": {"addr:housenumber": "2528", "addr:street": "North California Avenue", "amenity": "restaurant", "name": "The General", "source:name": "survey"}}, {"type": "node", "id": 3552123092, "lat": 41.9277148, "lon": -87.6973415, "tags": {"addr:city": "Chicago", "addr:housenumber": "2535", "addr:postcode": "60647", "addr:state": "IL", "addr:street": "North California Avenue", "amenity": "restaurant", "name": "Buona Terra", "phone": "+1-773-289-3800", "website": "http://www.buona-terra.com/"}}, {"type": "node", "id": 3552123473, "lat": 41.9276449, "lon": -87.6976526, "tags": {"amenity": "restaurant", "cuisine": "thai", "name": "Anong"}}, {"type": "node", "id": 3552127034, "lat": 41.9271765, "lon": -87.69713, "tags": {"addr:city": "Chicago", "addr:housenumber": "2515", "addr:postcode": "60647", "addr:state": "IL", "addr:street": "North California Avenue", "amenity": "restaurant", "cuisine": "korean", "name": "Gosu", "phone": "+1-773-276-7330", "website": "http://www.gosuchicago.com/"}}, {"type": "node", "id": 3552127994, "lat": 41.9273063, "lon": -87.6972986, "tags": {"amenity": "restaurant", "cuisine": "sushi", "name": "Hachi's Kitchen"}}, {"type": "node", "id": 3572965495, "lat": 41.930495, "lon": -87.6884158}, {"type": "node", "id": 3572965496, "lat": 41.9304414, "lon": -87.6884153}, {"type": "node", "id": 3572965497, "lat": 41.9304429, "lon": -87.6880311}, {"type": "node", "id": 3572965498, "lat": 41.9305022, "lon": -87.6880326}, {"type": "node", "id": 3649687383, "lat": 41.9392689, "lon": -87.6976471, "tags": {"amenity": "restaurant", "name": "Jaiyen Sushi & Noodle"}}, {"type": "node", "id": 3819127811, "lat": 41.9319651, "lon": -87.7003362, "tags": {"amenity": "restaurant", "cuisine": "mexican", "name": "Las Islas Marias"}}, {"type": "node", "id": 3819140676, "lat": 41.9319622, "lon": -87.701037, "tags": {"amenity": "restaurant", "cuisine": "ecuadorean", "name": "Restaurant Ecuador"}}, {"type": "node", "id": 3863354241, "lat": 41.9322534, "lon": -87.6925875, "tags": {"amenity": "restaurant", "name": "Ceviche Peruvian Restaurant"}}, {"type": "node", "id": 3863354248, "lat": 41.9320502, "lon": -87.6886082, "tags": {"amenity": "restaurant", "name": "Lee's Chop Suey"}}, {"type": "node", "id": 3863354249, "lat": 41.931905, "lon": -87.6876711, "tags": {"addr:city": "Chicago", "addr:housenumber": "2753", "addr:postcode": "60618", "addr:state": "IL", "addr:street": "North Western Avenue", "amenity": "cafe", "name": "CornerStone Cafe", "phone": "+1-773-235-1155", "website": "http://chicagocornerstonecafe.com/"}}, {"type": "node", "id": 3863402374, "lat": 41.9310911, "lon": -87.6850726, "tags": {"amenity": "restaurant", "brand": "Pei Wei", "brand:wikidata": "Q7160898", "brand:wikipedia": "en:Pei Wei Asian Diner", "cuisine": "asian", "name": "Pei Wei"}}, {"type": "node", "id": 6262050399, "lat": 41.9315661, "lon": -87.6921939, "tags": {"addr:city": "Chicago", "addr:housenumber": "2545", "addr:postcode": "60647", "addr:state": "IL", "addr:street": "West Diversey Avenue", "amenity": "restaurant", "cuisine": "american", "name": "Arbor", "phone": "+1-312-866-0795", "website": "http://www.arborprojects.com/"}}, {"type": "node", "id": 6263855094, "lat": 41.9390654, "lon": -87.6982113, "tags": {"addr:city": "Chicago", "addr:housenumber": "3188", "addr:postcode": "60618", "addr:state": "IL", "addr:street": "North Elston Avenue", "amenity": "restaurant", "name": "B\u2019el Bar + Kitchen", "phone": "+1-872-241-9032", "website": "https://www.belchicago.com/"}}, {"type": "node", "id": 6284507622, "lat": 41.9391728, "lon": -87.6997382, "tags": {"addr:city": "Chicago", "addr:housenumber": "2849", "addr:postcode": "60618", "addr:state": "IL", "addr:street": "West Belmont Avenue", "amenity": "bar", "name": "DMen Tap", "phone": "+1-773-961-8757", "website": "http://www.dmentap.com/"}}, {"type": "node", "id": 6291502402, "lat": 41.9342762, "lon": -87.6905784, "tags": {"addr:city": "Chicago", "addr:housenumber": "290", "addr:postcode": "60618", "addr:state": "IL", "addr:street": "North Elston Avenue", "amenity": "bar", "name": "Frank and Mary\u2019s Tavern", "phone": "+1-773-463-8179"}}, {"type": "node", "id": 6297771040, "lat": 41.9393248, "lon": -87.6864334, "tags": {"addr:city": "Chicago", "addr:housenumber": "2319", "addr:postcode": "60618", "addr:state": "IL", "addr:street": "West Belmont Avenue", "amenity": "bar", "name": "Hungry Brain", "phone": "+1-773-687-8230", "website": "http://www.hungrybrainchicago.com/"}}, {"type": "node", "id": 6300449137, "lat": 41.9392348, "lon": -87.6974398, "tags": {"addr:city": "Chicago", "addr:housenumber": "2755", "addr:postcode": "60618", "addr:state": "IL", "addr:street": "West Belmont Avenue", "amenity": "restaurant", "name": "Pisolino", "phone": "+1-773-293-6025", "website": "http://pisolinochicago.com/"}}, {"type": "node", "id": 6304083691, "lat": 41.9391867, "lon": -87.6975419, "tags": {"addr:city": "Chicago", "addr:housenumber": "3185", "addr:postcode": "60618", "addr:state": "IL", "addr:street": "North Elston Avenue", "amenity": "cafe", "name": "The Avondale Coffee Club", "phone": "+1-773-754-8140", "website": "https://www.avondalecoffeeclub.com/"}}, {"type": "node", "id": 6305257154, "lat": 41.9388637, "lon": -87.6972279, "tags": {"addr:city": "Chicago", "addr:housenumber": "3173", "addr:postcode": "60618", "addr:state": "IL", "addr:street": "North Elston Avenue", "amenity": "bar", "name": "The Beer Temple", "phone": "+1-773-754-0907", "website": "http://craftbeertemple.com/blog/"}}, {"type": "node", "id": 6320677445, "lat": 41.935612, "lon": -87.69751, "tags": {"addr:city": "Chicago", "addr:housenumber": "2959", "addr:postcode": "60618", "addr:state": "IL", "addr:street": "North California Avenue", "amenity": "bar", "name": "Ludlow Liquors", "phone": "+1-773-754-7492", "website": "https://www.ludlow-liquors.com/"}}, {"type": "node", "id": 6321460385, "lat": 41.9308446, "lon": -87.6911398, "tags": {"addr:city": "Chicago", "addr:housenumber": "2717", "addr:postcode": "60647", "addr:state": "IL", "addr:street": "North Maplewood Avenue", "amenity": "bar", "name": "Maplewood Brewery & Distillery", "phone": "+1-773-270-1061", "website": "http://www.maplewoodbrew.com/"}}, {"type": "node", "id": 6322596969, "lat": 41.9375004, "lon": -87.6925691, "tags": {"addr:city": "Chicago", "addr:housenumber": "3057", "addr:postcode": "60618", "addr:state": "IL", "addr:street": "North Rockwell Street", "amenity": "bar", "name": "Metropolitan Brewing Taproom", "phone": "+1-773-754-0494", "website": "http://metrobrewing.com/"}}, {"type": "node", "id": 6322602685, "lat": 41.9289091, "lon": -87.6977086, "tags": {"addr:city": "Chicago", "addr:housenumber": "2800", "addr:postcode": "60647", "addr:state": "IL", "addr:street": "West Logan Boulevard", "amenity": "restaurant", "cuisine": "mexican", "name": "Mi Tocaya Antojer\u00eda", "opening_hours": "Tu-Th 17:00-22:00; Fr-Sa 17:00-23:00; Su 17:00-21:00", "phone": "+1-872-315-3947", "website": "http://www.mitocaya.com"}}, {"type": "node", "id": 6323011945, "lat": 41.9356744, "lon": -87.692579, "tags": {"addr:city": "Chicago", "addr:housenumber": "2977", "addr:postcode": "60618", "addr:state": "IL", "addr:street": "North Elston Avenue", "amenity": "bar", "name": "\u00d1", "phone": "+1-773-866-9898", "website": "http://www.barranchicago.com/"}}, {"type": "node", "id": 6324382907, "lat": 41.9276471, "lon": -87.6977733, "tags": {"addr:city": "Chicago", "addr:housenumber": "2532", "addr:postcode": "60647", "addr:state": "IL", "addr:street": "North California Avenue", "amenity": "restaurant", "name": "Landbirds", "phone": "+1-773-697-7107", "website": "http://www.landbirdschicago.com/"}}, {"type": "way", "id": 209454109, "nodes": [2196726093, 2196726258, 2196726256, 2196726343, 2196726355, 2196726113, 2196726093], "tags": {"addr:city": "Chicago", "addr:housenumber": "2416-2422", "addr:postcode": "60647", "addr:state": "IL", "addr:street": "West Schubert Avenue", "addr:street:name": "Schubert", "addr:street:prefix": "West", "addr:street:type": "Avenue", "amenity": "restaurant", "building": "yes", "building:levels": "1", "chicago:building_id": "246789", "cuisine": "barbecue", "name": "Fat Willy\u2019s Rib Shack", "phone": "+1-773-782-1800", "website": "https://www.fatwillys.com/"}}, {"type": "way", "id": 209455856, "nodes": [2196735080, 2196735239, 2196735242, 2196735382, 2196735386, 2196735356, 2196735246, 2196735244, 2196735084, 2196735080], "tags": {"addr:city": "Chicago", "addr:housenumber": "2406", "addr:postcode": "60618", "addr:state": "IL", "addr:street": "West Diversey Parkway", "addr:street:name": "Western", "addr:street:prefix": "North", "addr:street:type": "Avenue", "amenity": "restaurant", "building": "yes", "building:levels": "1", "chicago:building_id": "240885", "cuisine": "breakfast;american", "name": "Golden Nugget"}}, {"type": "way", "id": 209455931, "nodes": [2196734852, 2196735073, 2196735074, 2196735349, 2196735348, 2196735588, 2196735590, 2196734859, 2196734852], "tags": {"addr:city": "Chicago", "addr:housenumber": "2818", "addr:street": "West Diversey Avenue", "addr:street:name": "Diversey", "addr:street:prefix": "West", "addr:street:type": "Avenue", "amenity": "restaurant", "brand": "IHOP", "brand:wikidata": "Q1185675", "brand:wikipedia": "en:IHOP", "building": "yes", "building:levels": "1", "chicago:building_id": "240772", "cuisine": "breakfast;pancake", "delivery": "no", "name": "IHOP"}}, {"type": "way", "id": 209457311, "nodes": [2196751322, 2196751525, 2196751704, 2196751467, 2196751322], "tags": {"addr:city": "Chicago", "addr:housenumber": "3101", "addr:postcode": "60618", "addr:state": "IL", "addr:street": "North Clybourn Avenue", "addr:street:name": "Clybourn", "addr:street:prefix": "North", "addr:street:type": "Avenue", "amenity": "restaurant", "building": "yes", "building:levels": "1", "chicago:building_id": "217146", "cuisine": "Cuban", "name": "90 Miles"}}, {"type": "way", "id": 209885839, "nodes": [2200391526, 2200391693, 2200391751, 2200391864, 2200391880, 2200392234, 2200392245, 2200392290, 2200392341, 2200392339, 2200392308, 2200392311, 2200392173, 2200392174, 2200392021, 2200392020, 2200391950, 2200391936, 2200391887, 2200391876, 2200391530, 2200391526], "tags": {"addr:housenumber": "3155-3159", "addr:street": "North Leavitt Street", "addr:street:name": "Leavitt", "addr:street:prefix": "North", "addr:street:type": "Street", "amenity": "cafe", "brand": "Starbucks", "brand:wikidata": "Q37158", "brand:wikipedia": "en:Starbucks", "building": "yes", "building:levels": "2", "chicago:building_id": "211602", "cuisine": "coffee_shop", "name": "Starbucks", "official_name": "Starbucks Coffee", "takeaway": "yes"}}, {"type": "way", "id": 351505403, "nodes": [3572965495, 3572965496, 3572965497, 3572965498, 3572965495], "tags": {"addr:city": "Chicago", "addr:housenumber": "2700", "addr:postcode": "60647", "addr:state": "IL", "addr:street": "North Western Avenue", "amenity": "restaurant", "building": "yes", "cuisine": "british", "name": "Owen & Engine", "phone": "+1-773-235-2930", "website": "https://www.owenandengine.com"}}]}