{"version": 0.6, "generator": "Overpass API 0.7.56.1004 6cd3eaec", "osm3s": {"timestamp_osm_base": "2020-07-09T04:45:03Z", "copyright": "The data included in this document is from www.openstreetmap.org. The data is made available under ODbL."}, "elements": [{"type": "node", "id": 4076939404, "lat": 41.8523519, "lon": -87.6851567, "tags": {"amenity": "restaurant", "name": "Super Taqueria El Taconazo"}}, {"type": "node", "id": 4076939412, "lat": 41.8519228, "lon": -87.6849903, "tags": {"amenity": "restaurant", "brand": "Pizza Hut", "brand:wikidata": "Q191615", "brand:wikipedia": "en:Pizza Hut", "cuisine": "pizza", "name": "Pizza Hut"}}, {"type": "node", "id": 4076939426, "lat": 41.8511632, "lon": -87.6862264, "tags": {"amenity": "restaurant", "cuisine": "chinese", "name": "Canton Star"}}, {"type": "node", "id": 4407607308, "lat": 41.8577607, "lon": -87.6923518, "tags": {"addr:housenumber": "2607", "addr:street": "West 17th Street", "amenity": "bar", "name": "Lagunitas Tap Room", "website": "https://lagunitas.com/taprooms/chicago"}}, {"type": "node", "id": 4470746300, "lat": 41.8462601, "lon": -87.7017746, "tags": {"addr:city": "Chicago", "addr:housenumber": "2600", "addr:postcode": "60623", "addr:state": "IL", "addr:street": "South Whipple Street", "amenity": "restaurant", "name": "La Chapattis Grocery"}}, {"type": "node", "id": 5747434221, "lat": 41.8465892, "lon": -87.7047921, "tags": {"addr:city": "Chicago", "addr:postcode": "60623", "addr:state": "IL", "amenity": "restaurant", "name": "Manolo's. Tamales", "name:en": "Manolo's. Tamales", "opening_hours": "Mo-Su 05:30-21:00", "phone": "7738231071"}}, {"type": "node", "id": 5768012037, "lat": 41.8520598, "lon": -87.6950991, "tags": {"addr:city": "Chicago", "addr:housenumber": "2752", "addr:postcode": "60608", "addr:state": "IL", "addr:street": "West Cermak Road", "amenity": "restaurant", "name": "Fiesta Tapatia Restaurant", "opening_hours": "Mo-Th,Su 07:00-23:00; Fr-Sa 07:00-00:00", "phone": "+1-773-523-0037", "website": "https://www.fiestatapatiarestaurantil.com/"}}, {"type": "node", "id": 6285863501, "lat": 41.8625051, "lon": -87.6868715, "tags": {"addr:city": "Chicago", "addr:housenumber": "2419", "addr:postcode": "60608", "addr:state": "IL", "addr:street": "West 14th Street", "amenity": "restaurant", "cuisine": "american", "name": "EL Ideas", "phone": "+1-312-226-8144", "website": "http://www.elideas.com/"}}, {"type": "node", "id": 6298797639, "lat": 41.851718, "lon": -87.699581, "tags": {"addr:city": "Chicago", "addr:housenumber": "2901", "addr:postcode": "60623", "addr:state": "IL", "addr:street": "West Cermak Road", "amenity": "cafe", "name": "Sip 22 Coffee Lounge", "phone": "+1-773-321-9671", "website": "http://sip22chicago.com/"}}, {"type": "node", "id": 6316691060, "lat": 41.8627522, "lon": -87.6863494, "tags": {"addr:city": "Chicago", "addr:housenumber": "1400", "addr:postcode": "60608", "addr:state": "IL", "addr:street": "South Western Avenue", "amenity": "bar", "name": "Water Hole Lounge", "phone": "+1-312-243-7988", "website": "https://waterholechicago.wixsite.com/waterholechicago"}}]}