{"version": 0.6, "generator": "Overpass API 0.7.56.1004 6cd3eaec", "osm3s": {"timestamp_osm_base": "2020-07-22T05:04:03Z", "copyright": "The data included in this document is from www.openstreetmap.org. The data is made available under ODbL."}, "elements": [{"type": "node", "id": 394817585, "lat": 41.853516, "lon": -87.6347244, "tags": {"amenity": "restaurant", "name": "Shui Wah"}}, {"type": "node", "id": 2206208308, "lat": 41.8515755, "lon": -87.6324261}, {"type": "node", "id": 2206208310, "lat": 41.8515763, "lon": -87.6323325}, {"type": "node", "id": 2206208314, "lat": 41.8515795, "lon": -87.6320997}, {"type": "node", "id": 2206208372, "lat": 41.8516427, "lon": -87.632429}, {"type": "node", "id": 2206208373, "lat": 41.8516436, "lon": -87.6323446}, {"type": "node", "id": 2206208377, "lat": 41.8516476, "lon": -87.6321016}, {"type": "node", "id": 2206240972, "lat": 41.867171, "lon": -87.6261731}, {"type": "node", "id": 2206240974, "lat": 41.867172, "lon": -87.6260095}, {"type": "node", "id": 2206240981, "lat": 41.8672087, "lon": -87.6261735}, {"type": "node", "id": 2206240982, "lat": 41.8672081, "lon": -87.6262677}, {"type": "node", "id": 2206240987, "lat": 41.867267, "lon": -87.6262684}, {"type": "node", "id": 2206240988, "lat": 41.8672686, "lon": -87.6260106}, {"type": "node", "id": 2353611001, "lat": 41.8678267, "lon": -87.6264154}, {"type": "node", "id": 2353611003, "lat": 41.8675921, "lon": -87.6264795}, {"type": "node", "id": 2353611004, "lat": 41.867594, "lon": -87.6264441, "tags": {"entrance": "main"}}, {"type": "node", "id": 2353611005, "lat": 41.8678254, "lon": -87.6264851}, {"type": "node", "id": 2353611006, "lat": 41.8675927, "lon": -87.6264087}, {"type": "node", "id": 2353615733, "lat": 41.8677461, "lon": -87.626052, "tags": {"addr:housenumber": "1150", "addr:postcode": "60605", "addr:street": "South Wabash Avenue", "amenity": "restaurant", "cuisine": "sandwich", "name": "Artists cafe", "website": "http://www.artists-cafe.com"}}, {"type": "node", "id": 2354408925, "lat": 41.8665552, "lon": -87.6255855, "tags": {"addr:city": "Chicago", "addr:housenumber": "1233", "addr:postcode": "60605", "addr:state": "IL", "addr:street": "South Wabash Avenue", "amenity": "bar", "name": "Wabash Tap", "phone": "+1-312-360-9488", "website": "https://www.wabashtap.com/"}}, {"type": "node", "id": 2356511944, "lat": 41.8676519, "lon": -87.6260638, "tags": {"addr:city": "Chicago", "addr:housenumber": "1152", "addr:postcode": "60605", "addr:state": "IL", "addr:street": "South Wabash Avenue", "amenity": "restaurant", "name": "The Bongo Room", "phone": "+1-312-291-0100", "website": "http://thebongoroom.com"}}, {"type": "node", "id": 2356511947, "lat": 41.8676105, "lon": -87.6263471, "tags": {"addr:housenumber": "28", "addr:postcode": "60605", "addr:street": "East Roosevelt Road", "amenity": "restaurant", "cuisine": "chinese", "name": "Yang", "website": "http://www.yangrestaurant.com"}}, {"type": "node", "id": 2356821098, "lat": 41.8677039, "lon": -87.6265356, "tags": {"addr:city": "Chicago", "addr:housenumber": "22", "addr:postcode": "60605", "addr:state": "IL", "addr:street": "East Roosevelt Road", "amenity": "cafe", "cuisine": "sandwich", "name": "Butterfield Kitchen", "website": "http://butterfield-kitchen.com"}}, {"type": "node", "id": 2633069904, "lat": 41.8670718, "lon": -87.6243199, "tags": {"addr:housenumber": "1250", "addr:street": "South Michigan Avenue", "amenity": "restaurant", "cuisine": "Comfort_Food", "name": "Crave Cafe and Lounge"}}, {"type": "node", "id": 3407977972, "lat": 41.8535449, "lon": -87.6329633, "tags": {"amenity": "restaurant", "cuisine": "chinese", "name": "Phoenix"}}, {"type": "node", "id": 3407977973, "lat": 41.853519, "lon": -87.6330894, "tags": {"amenity": "cafe", "cuisine": "chinese", "name": "Saint's Alp Teahouse"}}, {"type": "node", "id": 3581436121, "lat": 41.857775, "lon": -87.6220889, "tags": {"addr:housenumber": "205", "addr:postcode": "60616", "addr:state": "IL", "addr:street": "East 18th Street", "amenity": "cafe", "name": "The Spoke & Bird", "outdoor_seating": "yes", "phone": "1-929-263-2473", "website": "http://www.spokeandbird.com/"}}, {"type": "node", "id": 3586159909, "lat": 41.853343, "lon": -87.6350356, "tags": {"amenity": "restaurant", "cuisine": "chinese", "name": "Lao Sze Chuan"}}, {"type": "node", "id": 3919160343, "lat": 41.8678198, "lon": -87.6245541, "tags": {"addr:city": "Chicago", "addr:country": "US", "addr:housenumber": "1150", "addr:postcode": "60605", "addr:state": "IL", "addr:street": "South Michigan Avenue", "amenity": "restaurant", "cuisine": "burger", "name": "Burger Bar Chicago - South Loop", "phone": "+1-312-988-0162", "website": "http://burgerbarchicago.com/"}}, {"type": "node", "id": 4298039815, "lat": 41.8682328, "lon": -87.626329, "tags": {"amenity": "restaurant", "name": "Belly Up Smokehouse & Saloon"}}, {"type": "node", "id": 4298062192, "lat": 41.8656166, "lon": -87.6254938, "tags": {"amenity": "bar", "name": "The Scout"}}, {"type": "node", "id": 4431002885, "lat": 41.8666021, "lon": -87.6148089}, {"type": "node", "id": 4431002886, "lat": 41.8666407, "lon": -87.6147404}, {"type": "node", "id": 4431002887, "lat": 41.8664067, "lon": -87.61451}, {"type": "node", "id": 4431002888, "lat": 41.8663696, "lon": -87.6145723}, {"type": "node", "id": 4743570455, "lat": 41.8534252, "lon": -87.6333627, "tags": {"addr:city": "Chicago", "addr:housenumber": "2141", "addr:postcode": "60616", "addr:state": "IL", "addr:street": "South Archer Avenue", "amenity": "restaurant", "cuisine": "japanese", "delivery": "yes", "name": "Strings Ramen", "smoking": "no", "takeaway": "yes"}}, {"type": "node", "id": 4831308139, "lat": 41.8526469, "lon": -87.6330884, "tags": {"addr:city": "Chicago", "addr:housenumber": "225", "addr:postcode": "60616", "addr:state": "IL", "addr:street": "West Cermak Road", "amenity": "restaurant", "name": "Xi'an Cuisine", "phone": "+1-312-326 3171", "website": "www.xiancuisinechicago.com"}}, {"type": "node", "id": 5123254321, "lat": 41.8625159, "lon": -87.624269, "tags": {"addr:city": "Chicago", "addr:housenumber": "1454", "addr:postcode": "60605", "addr:state": "IL", "addr:street": "South Michigan Avenue", "amenity": "bar", "name": "Vice District Taproom", "phone": "+1-312-291-9022", "website": "http://www.vicedistrictbrewing.com/"}}, {"type": "node", "id": 5376364522, "lat": 41.864555, "lon": -87.623821, "tags": {"addr:housenumber": "1355", "addr:street": "South Michigan Avenue", "amenity": "restaurant", "name": "Kurah Mediterranean"}}, {"type": "node", "id": 5384474754, "lat": 41.8526305, "lon": -87.6346207, "tags": {"addr:city": "Chicago", "addr:housenumber": "261", "addr:postcode": "60616", "addr:state": "IL", "addr:street": "West Cermak Road", "amenity": "cafe", "brand": "Starbucks", "brand:wikidata": "Q37158", "brand:wikipedia": "en:Starbucks", "cuisine": "coffee_shop", "internet_access": "wlan", "name": "Starbucks", "official_name": "Starbucks Coffee", "smoking": "no", "takeaway": "yes"}}, {"type": "node", "id": 5419560721, "lat": 41.8524362, "lon": -87.6318723, "tags": {"addr:housenumber": "2217", "addr:postcode": "60616", "amenity": "restaurant", "cuisine": "chinese", "name": "Triple Crown Restaurant", "opening_hours": "Mo-Su 09:00-02:00", "phone": "+1 (312) 842-0088", "website": "http://m.triplecrownchicago.com/"}}, {"type": "node", "id": 5571138424, "lat": 41.853545, "lon": -87.6345564, "tags": {"addr:city": "Chicago", "addr:housenumber": "2160", "addr:postcode": "60616", "addr:state": "IL", "addr:street": "South Archer Avenue", "amenity": "restaurant", "name": "Chi Cafe", "opening_hours": "Su-We 08:00-04:00; Th 08:00-00:00; Fr-Sa 00:00-24:00", "phone": "+1-312-842-9993", "website": "https://www.chicafeonline.com/"}}, {"type": "node", "id": 5919468187, "lat": 41.8522923, "lon": -87.6333552, "tags": {"addr:housenumber": "232", "addr:postcode": "60616", "addr:street": "West 22nd Place", "amenity": "restaurant", "cuisine": "chinese", "internet_access": "wlan", "name": "Gao\u2019s Kabob", "opening_hours": "Mo-Su 17:00-02:00", "phone": "3125263836"}}, {"type": "node", "id": 6050592285, "lat": 41.8515642, "lon": -87.6239586, "tags": {"addr:city": "Chicago", "addr:housenumber": "2244", "addr:postcode": "60616", "addr:state": "IL", "addr:street": "South Michigan Avenue", "amenity": "bar", "name": "Bar 22"}}, {"type": "node", "id": 6105248085, "lat": 41.8526635, "lon": -87.6226785, "tags": {"addr:city": "Chicago", "addr:housenumber": "2206", "addr:postcode": "60616", "addr:state": "IL", "addr:street": "South Indiana Avenue", "amenity": "restaurant", "name": "Fatpour Tap Works", "name:en": "Fatpour (McCormick)", "phone": "+1-312-878-9292", "website": "https://www.fatpourmccormick.com/"}}, {"type": "node", "id": 6238937332, "lat": 41.8526537, "lon": -87.6231835, "tags": {"addr:city": "Chicago", "addr:housenumber": "111", "addr:postcode": "60616", "addr:state": "IL", "addr:street": "East Cermak Road", "amenity": "cafe", "brand": "Starbucks", "brand:wikidata": "Q37158", "brand:wikipedia": "en:Starbucks", "cuisine": "coffee_shop", "name": "Starbucks"}}, {"type": "node", "id": 6256604400, "lat": 41.859079, "lon": -87.6252706, "tags": {"addr:city": "Chicago", "addr:housenumber": "1639", "addr:postcode": "60616", "addr:state": "IL", "addr:street": "South Wabash Avenue", "amenity": "restaurant", "cuisine": "american", "name": "Acadia", "phone": "+1-312-360-9500", "website": "https://acadiachicago.com"}}, {"type": "node", "id": 6258149818, "lat": 41.8562971, "lon": -87.6268417, "tags": {"addr:city": "Chicago", "addr:housenumber": "1845", "addr:postcode": "60616", "addr:state": "IL", "addr:street": "South State Street", "amenity": "cafe", "name": "Akhirah\u2019s Praline Candy", "phone": "+1-312-985-1101"}}, {"type": "node", "id": 6268992795, "lat": 41.8536584, "lon": -87.6349663, "tags": {"addr:city": "Chicago", "addr:housenumber": "2163", "addr:postcode": "60616", "addr:state": "IL", "addr:street": "South China Place", "amenity": "restaurant", "name": "Bonchon - Chinatown Chicago", "phone": "+1-312-877-5832", "website": "https://bonchontogo.com/"}}, {"type": "node", "id": 6282561364, "lat": 41.8513723, "lon": -87.6318549, "tags": {"addr:city": "Chicago", "addr:country": "US", "addr:housenumber": "2253", "addr:postcode": "60616", "addr:state": "IL", "addr:street": "South Wentworth Avenue", "amenity": "restaurant", "name": "Chiu Quon Bakery and Dim Sum", "phone": "+1-312-808-1818", "website": "http://www.cqbakery.com/"}}, {"type": "node", "id": 6284701969, "lat": 41.8525597, "lon": -87.6360949, "tags": {"addr:city": "Chicago", "addr:housenumber": "2222", "addr:postcode": "60616", "addr:state": "IL", "addr:street": "South Archer Avenue", "amenity": "restaurant", "name": "Dolo Restaurant and Bar", "phone": "+1-312-877-5117", "website": "http://www.dolorestaurant.com/"}}, {"type": "node", "id": 6286461855, "lat": 41.8551173, "lon": -87.6320961, "tags": {"addr:city": "Chicago", "addr:housenumber": "2002", "addr:postcode": "60616", "addr:state": "IL", "addr:street": "South Wentworth Avenue", "amenity": "cafe", "name": "Elitea", "phone": "+1-312-468-9909", "website": "https://elitea.business.site/"}}, {"type": "node", "id": 6290963934, "lat": 41.865387, "lon": -87.6263756, "tags": {"addr:city": "Chicago", "addr:housenumber": "1310", "addr:postcode": "60605", "addr:state": "IL", "addr:street": "South Wabash Avenue", "amenity": "bar", "name": "Flo & Santos", "phone": "+1-312-566-9817", "website": "http://www.floandsantos.com/"}}, {"type": "node", "id": 6291886315, "lat": 41.8510926, "lon": -87.6325921, "tags": {"addr:city": "Chicago", "addr:housenumber": "212", "addr:postcode": "60616", "addr:state": "IL", "addr:street": "West 23rd Street", "amenity": "restaurant", "name": "Go 4 Food", "phone": "+1-312-842-8688", "website": "https://www.go4foodusa.com/"}}, {"type": "node", "id": 6294285574, "lat": 41.8550842, "lon": -87.6320986, "tags": {"addr:city": "Chicago", "addr:housenumber": "2002", "addr:postcode": "60616", "addr:state": "IL", "addr:street": "South Wentworth Avenue", "amenity": "restaurant", "name": "Hello Jasmine"}}, {"type": "node", "id": 6297526820, "lat": 41.8531462, "lon": -87.6331597, "tags": {"addr:city": "Chicago", "addr:housenumber": "234", "addr:postcode": "60616", "addr:state": "IL", "addr:street": "West Cermak Road", "amenity": "bar", "name": "Sakura Karaoke Bar", "phone": "+1-312-326-9168", "website": "https://www.sakurakaraokebar.com/"}}, {"type": "node", "id": 6300352856, "lat": 41.8676726, "lon": -87.6264521, "tags": {"addr:city": "Chicago", "addr:housenumber": "26", "addr:postcode": "60605", "addr:state": "IL", "addr:street": "East Roosevelt Road", "amenity": "cafe", "name": "Stan\u2019s Donuts & Coffee", "phone": "+1-312-834-0700"}}, {"type": "node", "id": 6300420956, "lat": 41.8531267, "lon": -87.6330669, "tags": {"addr:city": "Chicago", "addr:housenumber": "232", "addr:postcode": "60616", "addr:state": "IL", "addr:street": "West Cermak Road", "amenity": "restaurant", "name": "Pho Cafe", "phone": "+1-312-600-9636", "website": "http://www.phocafechicago.com/"}}, {"type": "node", "id": 6300644757, "lat": 41.8539071, "lon": -87.6268152, "tags": {"addr:city": "Chicago", "addr:housenumber": "2109", "addr:postcode": "60616", "addr:state": "IL", "addr:street": "South State Street", "amenity": "bar", "name": "Reggie\u2019s Trainwreck Rooftop Deck", "phone": "+1-312-949-0120"}}, {"type": "node", "id": 6301056429, "lat": 41.8539929, "lon": -87.6267847, "tags": {"addr:city": "Chicago", "addr:housenumber": "2105", "addr:postcode": "60616", "addr:state": "IL", "addr:street": "South State Street", "amenity": "bar", "name": "Reggies Music Joint", "phone": "+1-312-949-0120", "website": "https://www.reggieslive.com/"}}, {"type": "node", "id": 6301970384, "lat": 41.8656516, "lon": -87.6254846, "tags": {"addr:city": "Chicago", "addr:housenumber": "1301", "addr:postcode": "60605", "addr:state": "IL", "addr:street": "South Wabash Avenue", "amenity": "bar", "name": "The Scout Waterhouse + Kitchen", "phone": "1-312-705-0595", "website": "thescoutchicago.com"}}, {"type": "node", "id": 6303115375, "lat": 41.8610689, "lon": -87.6279127, "tags": {"addr:city": "Chicago", "addr:housenumber": "1530", "addr:postcode": "60605", "addr:state": "IL", "addr:street": "South State Street", "amenity": "restaurant", "name": "Tapas Valencia", "phone": "+1-312-842-4444", "website": "http://www.tapasvalencia.com/"}}, {"type": "node", "id": 6303907654, "lat": 41.8577197, "lon": -87.6258227, "tags": {"addr:city": "Chicago", "addr:housenumber": "1802", "addr:postcode": "60616", "addr:state": "IL", "addr:street": "South Wabash Avenue", "amenity": "cafe", "name": "Tea Pot Brew Bakery", "phone": "+1-312-966-6001"}}, {"type": "node", "id": 6304139897, "lat": 41.8526562, "lon": -87.6244084, "tags": {"addr:city": "Chicago", "addr:housenumber": "67", "addr:postcode": "60616", "addr:state": "IL", "addr:street": "East Cermak Road", "amenity": "bar", "name": "The Velvet Lounge", "phone": "+1-312-631-3398"}}, {"type": "node", "id": 6306514980, "lat": 41.8599865, "lon": -87.6243607, "tags": {"addr:city": "Chicago", "addr:housenumber": "75", "addr:postcode": "60616", "addr:state": "IL", "addr:street": "East 16th Street", "amenity": "bar", "name": "The Bureau Bar", "phone": "+1-312-888-3156"}}, {"type": "node", "id": 6306554132, "lat": 41.8639536, "lon": -87.6237618, "tags": {"addr:city": "Chicago", "addr:housenumber": "1401", "addr:postcode": "60605", "addr:state": "IL", "addr:street": "South Michigan Avenue", "amenity": "restaurant", "name": "The Chicago Firehouse Restaurant", "phone": "+1-312-786-1401", "website": "http://www.chicagofirehouse.com/"}}, {"type": "node", "id": 6316574821, "lat": 41.8635201, "lon": -87.6245316, "tags": {"addr:city": "Chicago", "addr:housenumber": "1416", "addr:postcode": "60605", "addr:state": "IL", "addr:street": "South Michigan Avenue", "amenity": "bar", "name": "Victory Tap Chicago", "phone": "+1-312-566-9300", "website": "http://armandspizzeria.com/"}}, {"type": "node", "id": 6316636401, "lat": 41.8527335, "lon": -87.6227817, "tags": {"addr:city": "Chicago", "addr:housenumber": "133", "addr:postcode": "60616", "addr:state": "IL", "addr:street": "East Cermak Road", "addr:unit": "22", "amenity": "bar", "name": "VU Rooftop Bar", "phone": "+1-312-528-0191", "website": "https://www.vurooftop.com/"}}, {"type": "node", "id": 6316767066, "lat": 41.8619185, "lon": -87.6235586, "tags": {"addr:city": "Chicago", "addr:housenumber": "1503", "addr:postcode": "60605", "addr:state": "IL", "addr:street": "South Michigan Avenue", "amenity": "bar", "name": "Weather Mark Tavern", "phone": "+1-312-588-0230", "website": "https://weathermarktavern.com/"}}, {"type": "node", "id": 6317036888, "lat": 41.8537603, "lon": -87.6196811, "tags": {"addr:city": "Chicago", "addr:housenumber": "2121", "addr:postcode": "60616", "addr:state": "il", "addr:street": "South Calumet Avenue", "amenity": "bar", "name": "Woven + Bound Restaurant", "phone": "+1-312-824-0500", "website": "https://www.marriott.com/hotel-restaurants/chimq-marriott-marquis-chicago/woven-and-bound-restaurant/5718135/home-page.mi"}}, {"type": "node", "id": 6318454174, "lat": 41.8661313, "lon": -87.6213901, "tags": {"addr:city": "Chicago", "addr:housenumber": "1251", "addr:postcode": "60605", "addr:state": "IL", "addr:street": "South Prairie Avenue", "amenity": "cafe", "name": "Little Branch Cafe", "phone": "+1-312-360-0101", "website": "https://www.littlebranchcafe.com/"}}, {"type": "node", "id": 6319021010, "lat": 41.8540741, "lon": -87.6338755, "tags": {"addr:city": "Chicago", "addr:housenumber": "2139", "addr:postcode": "60616", "addr:state": "IL", "addr:street": "South China Place", "amenity": "restaurant", "name": "Joy Yee Noodle", "phone": "+1-312-328-0001", "website": "http://joyyee.com/"}}, {"type": "node", "id": 6319137801, "lat": 41.8661492, "lon": -87.6268823, "tags": {"addr:city": "Chicago", "addr:housenumber": "1255", "addr:postcode": "60605", "addr:state": "IL", "addr:street": "South State Street", "amenity": "restaurant", "name": "Kai Sushi", "name:en": "Kai Sushi", "opening_hours": "Mo-Su 11:30-21:00", "phone": "+1-312-583-0567", "website": "http://orderkaisushi.com/"}}, {"type": "node", "id": 6319826943, "lat": 41.8580669, "lon": -87.6243788, "tags": {"addr:city": "Chicago", "addr:housenumber": "1736", "addr:postcode": "60616", "addr:state": "IL", "addr:street": "South Michigan Avenue", "amenity": "bar", "name": "Krolls South Loop", "phone": "+1-312-235-1400", "website": "http://www.krolls-chicago.com/"}}, {"type": "node", "id": 6319847128, "lat": 41.8543478, "lon": -87.6328364, "tags": {"addr:city": "Chicago", "addr:housenumber": "2126B", "addr:postcode": "60616", "addr:state": "IL", "addr:street": "South Archer Avenue", "amenity": "cafe", "name": "Kung Fu Tea", "opening_hours": "Mo-Th 11:00-20:00; Fr 11:00-21:00; Sa 10:00-21:00; Su 10:00-20:00", "phone": "+1-312-255-7331", "website": "https://www.kungfutea.com/"}}, {"type": "node", "id": 6320260910, "lat": 41.8551501, "lon": -87.6321639, "tags": {"addr:city": "Chicago", "addr:housenumber": "2002", "addr:postcode": "60616", "addr:state": "IL", "addr:street": "South Wentworth Avenue", "amenity": "restaurant", "name": "Qing Xiang Yuan Dumplings", "phone": "+1-312-799-1118", "website": "http://qxydumplings.com/"}}, {"type": "node", "id": 6320662138, "lat": 41.8682519, "lon": -87.6261541, "tags": {"addr:city": "Chicago", "addr:housenumber": "1132", "addr:postcode": "60605", "addr:state": "IL", "addr:street": "South Wabash Avenue", "amenity": "restaurant", "name": "Lowcountry South Loop", "phone": "+1-888-883-8375", "website": "https://www.lowcountrychicago.com/"}}, {"type": "node", "id": 6321298174, "lat": 41.8613629, "lon": -87.6259758, "tags": {"addr:city": "chicago", "addr:housenumber": "1520", "addr:postcode": "60605", "addr:state": "IL", "addr:street": "South Wabash Avenue", "amenity": "bar", "name": "M Lounge", "phone": "+1-312-447-0201", "website": "https://www.mloungechicago.com/"}}, {"type": "node", "id": 6321621334, "lat": 41.8538972, "lon": -87.63369, "tags": {"addr:city": "Chicago", "addr:housenumber": "2138", "addr:postcode": "60616", "addr:state": "IL", "addr:street": "South Archer Avenue", "amenity": "restaurant", "cuisine": "chinese", "name": "MCCB Chicago", "opening_hours": "Su-Th 11:00-22:00, Fr-Sa 11:00-23:00", "phone": "+1-312-881-0168", "website": "https://www.mccbchicago.com/"}}, {"type": "node", "id": 6321803160, "lat": 41.8537554, "lon": -87.6346426, "tags": {"addr:city": "Chicago", "addr:housenumber": "2157", "addr:postcode": "60616", "addr:state": "Il", "addr:street": "South China Place", "amenity": "cafe", "name": "Saint\u2019s Alp Teahouse & Gourmet", "phone": "+1-312-842-8882", "website": "https://www.saintsalpchicago.com/"}}, {"type": "node", "id": 6321934498, "lat": 41.8551095, "lon": -87.6321741, "tags": {"addr:city": "Chicago", "addr:housenumber": "2002", "addr:postcode": "60616", "addr:state": "IL", "addr:street": "South Wentworth Avenue", "amenity": "restaurant", "name": "Shan Shaan Taste", "phone": "+1-312-375-3122", "website": "http://www.shanshaantaste.com/"}}, {"type": "node", "id": 6321945044, "lat": 41.8539444, "lon": -87.6203557, "tags": {"addr:city": "Chicago", "addr:housenumber": "2121", "addr:postcode": "60616", "addr:state": "IL", "addr:street": "South Prairie Avenue", "amenity": "restaurant", "name": "Showroom Food Hall", "phone": "+1-312-824-0500", "website": "https://www.marriott.com/hotels/hotel-information/restaurant/chimq-marriott-marquis-chicago/"}}, {"type": "node", "id": 6324182179, "lat": 41.8604348, "lon": -87.6281304, "tags": {"addr:city": "Chicago", "addr:housenumber": "1550", "addr:postcode": "60605", "addr:state": "IL", "addr:street": "South State Street", "amenity": "cafe", "name": "Overflow Coffee Bar", "phone": "+1-312-772-2356", "website": "http://www.overflowcoffeebar.org/"}}, {"type": "node", "id": 6324385413, "lat": 41.8533254, "lon": -87.635011, "tags": {"addr:city": "Chicago", "addr:housenumber": "2172", "addr:postcode": "60616", "addr:state": "IL", "addr:street": "South Princeton Avenue", "amenity": "restaurant", "name": "Lao Sze Chuan", "phone": "+1-312-326-5040"}}, {"type": "node", "id": 6326004181, "lat": 41.8539177, "lon": -87.6204197, "tags": {"addr:city": "Chicago", "addr:housenumber": "2121", "addr:postcode": "60616", "addr:state": "IL", "addr:street": "South Prairie Avenue", "amenity": "bar", "name": "Woven + Bound Restaurant", "phone": "+1-312-824-0500", "website": "https://www.marriott.com/hotel-restaurants/chimq-marriott-marquis-chicago/woven-and-bound-restaurant/5718135/home-page.mi"}}, {"type": "node", "id": 6326147995, "lat": 41.8526331, "lon": -87.63174, "tags": {"addr:city": "Chicago", "addr:housenumber": "2201", "addr:postcode": "60616", "addr:state": "IL", "addr:street": "South Wentworth Avenue", "addr:unit": "2", "amenity": "bar", "name": "No.18 Karaoke", "phone": "+1-312-600-9184"}}, {"type": "node", "id": 6394851285, "lat": 41.853067, "lon": -87.6240632, "tags": {"amenity": "restaurant", "name": "Papa John's"}}, {"type": "node", "id": 6646187181, "lat": 41.8560708, "lon": -87.6274177, "tags": {"addr:city": "Chicago", "addr:housenumber": "1906", "addr:postcode": "60616", "addr:state": "IL", "addr:street": "South State Street", "amenity": "restaurant", "cuisine": "thai", "name": "Opart Thai House Restaurant", "opening_hours": "Su-Th 11:00-22:00; Fr-Sa 11:00-22:30", "phone": "+1 312-567-9898", "website": "https://www.opartthai.com"}}, {"type": "node", "id": 6663059208, "lat": 41.8546307, "lon": -87.6324354, "tags": {"amenity": "restaurant", "cuisine": "chinese;cantonese;dim_sum", "level": "1", "name": "Cai Restaurant", "opening_hours": "Mo-Fr 09:00-23:00; Sa,Su 08:00-23:00", "phone": "+1-312-326-6888", "website": "http://www.cairestaurant.com/"}}, {"type": "node", "id": 6663059209, "lat": 41.8545887, "lon": -87.6325113, "tags": {"addr:city": "Chicago", "addr:housenumber": "2225", "addr:postcode": "60616", "addr:state": "IL", "addr:street": "South Wentworth Avenue", "amenity": "restaurant", "cuisine": "chinese", "level": "0", "name": "Mayflower Food Inc", "opening_hours": "11:00-01:30", "phone": "+1-312-808-1322", "website": "http://www.mayflowerchinesechicago.com/"}}, {"type": "node", "id": 6663274072, "lat": 41.8536791, "lon": -87.634181, "tags": {"amenity": "restaurant", "cuisine": "bubble_tea", "name": "Bingo Tea", "opening_hours": "Mo Th 12:00-23:00, Fr,Su 11:00-00:30", "phone": "+1-312-328-6668"}}, {"type": "node", "id": 6723254310, "lat": 41.8505912, "lon": -87.6321124, "tags": {"addr:city": "Chicago", "addr:country": "US", "addr:housenumber": "2312", "addr:postcode": "60616", "addr:state": "IL", "addr:street": "South Wentworth Avenue", "amenity": "restaurant", "name": "Seven Treasures Restaurant"}}, {"type": "node", "id": 7157672325, "lat": 41.8664929, "lon": -87.6145948}, {"type": "node", "id": 7157672326, "lat": 41.8665561, "lon": -87.6146571}, {"type": "node", "id": 7157672327, "lat": 41.8665639, "lon": -87.6146406}, {"type": "node", "id": 7157672328, "lat": 41.8665001, "lon": -87.6145783}, {"type": "node", "id": 7185123303, "lat": 41.8520753, "lon": -87.6149913, "tags": {"amenity": "cafe", "name": "22nd Street Cafe"}}, {"type": "way", "id": 210538091, "nodes": [2206208373, 2206208377, 2206208314, 2206208310, 2206208308, 2206208372, 2206208373], "tags": {"addr:city": "Chicago", "addr:housenumber": "2242", "addr:postcode": "60616", "addr:state": "IL", "addr:street": "South Wentworth Avenue", "addr:street:name": "Wentworth", "addr:street:prefix": "South", "addr:street:type": "Avenue", "amenity": "restaurant", "building": "yes", "building:levels": "1", "chicago:building_id": "870623", "name": "Legend Tasty House", "phone": "+1-312-225-8869", "website": "http://www.legendtastyhouse.com/"}}, {"type": "way", "id": 226825895, "nodes": [2353611003, 2353611005, 2353611001, 2353611006, 2353611004, 2353611003], "tags": {"addr:housenumber": "26", "addr:postcode": "60605", "addr:street": "East Roosevelt Road", "amenity": "restaurant", "building": "yes", "cuisine": "donut", "name": "Stan's Donuts"}}, {"type": "way", "id": 226885912, "nodes": [2206240988, 2206240974, 2206240972, 2206240981, 2206240982, 2206240987, 2206240988], "tags": {"addr:housenumber": "31", "addr:postcode": "60605", "addr:street": "East Roosevelt Road", "amenity": "cafe", "brand": "Starbucks", "brand:wikidata": "Q37158", "brand:wikipedia": "en:Starbucks", "building": "yes", "building:levels": "1", "chicago:building_id": "843355", "cuisine": "coffee_shop", "name": "Starbucks", "takeaway": "yes", "website": "https://www.starbucks.com/"}}, {"type": "way", "id": 445721198, "nodes": [4431002885, 4431002886, 7157672326, 7157672327, 7157672328, 7157672325, 4431002887, 4431002888, 4431002885], "tags": {"amenity": "restaurant", "building": "yes", "cuisine": "sandwich", "name": "Museum Campus Cafe"}}]}