{"version": 0.6, "generator": "Overpass API 0.7.56.3 eb200aeb", "osm3s": {"timestamp_osm_base": "2020-07-04T01:19:02Z", "copyright": "The data included in this document is from www.openstreetmap.org. The data is made available under ODbL."}, "elements": [{"type": "node", "id": 2197680023, "lat": 41.9901869, "lon": -87.6936354}, {"type": "node", "id": 2197680024, "lat": 41.9901876, "lon": -87.6935104}, {"type": "node", "id": 2197680090, "lat": 41.9903337, "lon": -87.6936376}, {"type": "node", "id": 2197680094, "lat": 41.9903358, "lon": -87.6935125}, {"type": "node", "id": 5714336861, "lat": 41.9818853, "lon": -87.6936097, "tags": {"addr:city": "Chicago", "addr:housenumber": "5526", "addr:postcode": "60625", "addr:state": "IL", "addr:street": "North Lincoln Avenue", "amenity": "bar", "description": "Karaoke venue, private rooms", "name": "Lincoln Karaoke", "phone": "+1-773-895-2299", "website": "https://www.lincolnkaraokechicago.com/"}}, {"type": "node", "id": 6267337249, "lat": 41.9902594, "lon": -87.6935794, "tags": {"addr:city": "Chicago", "addr:housenumber": "2535", "addr:postcode": "60659", "addr:state": "IL", "addr:street": "West Peterson Avenue", "amenity": "bar", "name": "Black Sheep", "phone": "+1-773-561-6674"}}, {"type": "node", "id": 6272493132, "lat": 41.9819119, "lon": -87.6936136, "tags": {"addr:city": "Chicago", "addr:housenumber": "5530", "addr:postcode": "60625", "addr:state": "IL", "addr:street": "North Lincoln Avenue", "amenity": "cafe", "name": "Bel-Ami", "phone": "+1-773-878-2808"}}, {"type": "node", "id": 6291935293, "lat": 41.9951047, "lon": -87.7000085, "tags": {"addr:city": "Chicago", "addr:housenumber": "6240", "addr:postcode": "60659", "addr:state": "IL", "addr:street": "North California Avenue", "amenity": "restaurant", "name": "Gogi", "phone": "+1-773-274-6669", "website": "http://gogichicago.com/"}}, {"type": "node", "id": 6292149074, "lat": 41.9902257, "lon": -87.6929357, "tags": {"addr:city": "Chicago", "addr:housenumber": "2519", "addr:postcode": "60659", "addr:state": "IL", "addr:street": "West Peterson Avenue", "amenity": "bar", "name": "Greenlight Korean Pub & Karaoke", "phone": "+1-872-806-2014", "website": "https://www.greenlightchicago.com/"}}, {"type": "node", "id": 6304058604, "lat": 41.9846509, "lon": -87.697141, "tags": {"addr:city": "Chicago", "addr:housenumber": "5665", "addr:postcode": "60659", "addr:state": "IL", "addr:street": "North Lincoln Avenue", "amenity": "restaurant", "name": "The Angry Crab", "phone": "+1-773-784-6848", "website": "http://www.theangrycrabchicago.com/"}}, {"type": "node", "id": 6323173022, "lat": 41.9871996, "lon": -87.701334, "tags": {"addr:city": "Chicago", "addr:housenumber": "5801", "addr:postcode": "60659", "addr:state": "IL", "addr:street": "North Lincoln Avenue", "amenity": "cafe", "name": "Ninveh", "phone": "+1-773-654-1763"}}, {"type": "node", "id": 7232041440, "lat": 41.9926179, "lon": -87.6901749, "tags": {"addr:city": "Chicago", "addr:housenumber": "6108", "addr:postcode": "60659", "addr:state": "IL", "addr:street": "North Western Avenue", "amenity": "cafe", "brand": "Starbucks", "brand:wikidata": "Q37158", "brand:wikipedia": "en:Starbucks", "cuisine": "coffee_shop", "name": "Starbucks", "official_name": "Starbucks Coffee", "takeaway": "yes"}}, {"type": "way", "id": 209570116, "nodes": [2197680023, 2197680090, 2197680094, 2197680024, 2197680023], "tags": {"addr:city": "Chicago", "addr:housenumber": "2335", "addr:postcode": "60659", "addr:state": "IL", "addr:street": "West Peterson Avenue", "addr:street:name": "Peterson", "addr:street:prefix": "West", "addr:street:type": "Avenue", "amenity": "bar", "building": "yes", "chicago:building_id": "42771", "name": "Black Sheep", "phone": "+1-773-561-6674"}}]}