{"version": 0.6, "generator": "Overpass API 0.7.56.3 eb200aeb", "osm3s": {"timestamp_osm_base": "2020-07-04T22:05:02Z", "copyright": "The data included in this document is from www.openstreetmap.org. The data is made available under ODbL."}, "elements": [{"type": "node", "id": 1585431689, "lat": 41.9175173, "lon": -87.7092157, "tags": {"amenity": "restaurant", "cuisine": "mexican", "name": "Soul del Sur"}}, {"type": "node", "id": 1755524965, "lat": 41.917421, "lon": -87.7128202}, {"type": "node", "id": 1755524994, "lat": 41.9174233, "lon": -87.7127375}, {"type": "node", "id": 1755525195, "lat": 41.9175015, "lon": -87.7127404}, {"type": "node", "id": 1755525196, "lat": 41.9175016, "lon": -87.7127569}, {"type": "node", "id": 1755525296, "lat": 41.9175495, "lon": -87.7127399}, {"type": "node", "id": 1755525297, "lat": 41.9175497, "lon": -87.7127601}, {"type": "node", "id": 1755525551, "lat": 41.9176282, "lon": -87.7128292}, {"type": "node", "id": 1755525555, "lat": 41.9176305, "lon": -87.7127428}, {"type": "node", "id": 2196202533, "lat": 41.9175502, "lon": -87.7012866}, {"type": "node", "id": 2196202738, "lat": 41.9177234, "lon": -87.7014016}, {"type": "node", "id": 2196202741, "lat": 41.9177234, "lon": -87.7012512}, {"type": "node", "id": 2393555254, "lat": 41.9175501, "lon": -87.7013997}, {"type": "node", "id": 2591867080, "lat": 41.917247, "lon": -87.7101436, "tags": {"addr:city": "Chicago", "addr:housenumber": "3281", "addr:postcode": "60647", "addr:state": "IL", "addr:street": "West Armitage Avenue", "amenity": "bar", "name": "Best Intentions", "phone": "+1-312-818-1254", "website": "http://www.bestintentionschicago.com/"}}, {"type": "node", "id": 3551845150, "lat": 41.9172774, "lon": -87.7072038, "tags": {"addr:city": "Chicago", "addr:housenumber": "3201", "addr:postcode": "60647", "addr:state": "IL", "addr:street": "West Armitage Avenue", "amenity": "restaurant", "name": "Scofflaw", "phone": "+1-773-252-9700", "website": "https://www.scofflawchicago.com/"}}, {"type": "node", "id": 3551845848, "lat": 41.9172729, "lon": -87.7075819, "tags": {"amenity": "restaurant", "name": "Sink|Swim"}}, {"type": "node", "id": 3570245693, "lat": 41.917622, "lon": -87.7012335}, {"type": "node", "id": 3570245694, "lat": 41.9176832, "lon": -87.7012494}, {"type": "node", "id": 3570245695, "lat": 41.9176832, "lon": -87.7012371}, {"type": "node", "id": 3570245696, "lat": 41.9176213, "lon": -87.7012893}, {"type": "node", "id": 3574998907, "lat": 41.9172747, "lon": -87.7078352, "tags": {"amenity": "restaurant", "cuisine": "puerto_rican", "name": "La Bomba"}}, {"type": "node", "id": 3575000275, "lat": 41.9172369, "lon": -87.7108623, "tags": {"addr:city": "Chicago", "addr:country": "US", "addr:housenumber": "3313-3315", "addr:postcode": "60647", "addr:state": "IL", "addr:street": "West Armitage Avenue", "amenity": "restaurant", "cuisine": "vegetarian;vegan;american", "delivery": "yes", "diet:vegan": "yes", "diet:vegetarian": "only", "name": "Ground Control", "phone": "+1-773-772-9446", "website": "https://www.groundcontrolchicago.com/"}}, {"type": "node", "id": 3581811864, "lat": 41.917563, "lon": -87.703649, "tags": {"amenity": "restaurant", "cuisine": "pizza", "name": "Dante's Pizzeria"}}, {"type": "node", "id": 3581811866, "lat": 41.9107207, "lon": -87.7070256, "tags": {"amenity": "restaurant", "cuisine": "sushi", "name": "Zoku Sushi"}}, {"type": "node", "id": 3581811869, "lat": 41.9098615, "lon": -87.7134735, "tags": {"addr:city": "Chicago", "addr:housenumber": "3437", "addr:postcode": "60651", "addr:state": "IL", "addr:street": "West North Avenue", "amenity": "restaurant", "name": "La Encantada", "phone": "+1-773-489-5026", "website": "https://www.laencantadashoppingcenter.com/"}}, {"type": "node", "id": 3659163381, "lat": 41.9171509, "lon": -87.7065151, "tags": {"addr:city": "Chicago", "addr:housenumber": "3129", "addr:postcode": "60647", "addr:state": "IL", "addr:street": "West Armitage Avenue", "amenity": "restaurant", "name": "Logan Eats", "phone": "+1-773-697-7330", "website": "https://www.loganeats.com/"}}, {"type": "node", "id": 3659163383, "lat": 41.9175442, "lon": -87.70471, "tags": {"amenity": "restaurant", "name": "Cheng Chopsticks"}}, {"type": "node", "id": 3659169361, "lat": 41.9175956, "lon": -87.699742, "tags": {"amenity": "pub", "name": "Red Lion Grill"}}, {"type": "node", "id": 3664687674, "lat": 41.9055766, "lon": -87.7006028, "tags": {"addr:city": "Chicago", "addr:housenumber": "1301", "addr:postcode": "60622", "addr:state": "IL", "addr:street": "North Humboldt Drive", "amenity": "cafe", "name": "The Boathouse Cafe", "phone": "+1-312-838-6205"}}, {"type": "node", "id": 3673559735, "lat": 41.9103602, "lon": -87.7013592, "tags": {"addr:city": "Chicago", "addr:housenumber": "2958", "addr:postcode": "60647", "addr:state": "IL", "addr:street": "West North Avenue", "amenity": "restaurant", "name": "Humboldt Haus", "phone": "+1-773-697-9590"}}, {"type": "node", "id": 3673564376, "lat": 41.9103428, "lon": -87.703029, "tags": {"addr:city": "Chicago", "addr:housenumber": "3018", "addr:postcode": "60647", "addr:state": "IL", "addr:street": "West North Avenue", "amenity": "bar", "name": "Humble Bar & Lounge", "phone": "+1-773-661-2419"}}, {"type": "node", "id": 4072448988, "lat": 41.9172859, "lon": -87.7074829, "tags": {"addr:city": "Chicago", "addr:housenumber": "3209", "addr:postcode": "60647", "addr:state": "IL", "addr:street": "West Armitage Avenue", "amenity": "restaurant", "cuisine": "american;american_new;new_american", "name": "Giant", "phone": "+1-773-252-0997", "website": "http://www.giantrestaurant.com"}}, {"type": "node", "id": 4499383715, "lat": 41.9099427, "lon": -87.7090096, "tags": {"amenity": "restaurant", "cuisine": "mexican", "name": "La Perla Tapatia"}}, {"type": "node", "id": 4541895189, "lat": 41.9171209, "lon": -87.711505, "tags": {"addr:city": "Chicago", "addr:country": "US", "addr:housenumber": "3327", "addr:postcode": "60647", "addr:state": "IL", "addr:street": "West Armitage Avenue", "amenity": "restaurant", "cuisine": "mexican", "name": "Tacos Garcias"}}, {"type": "node", "id": 4676051017, "lat": 41.9172177, "lon": -87.7110484, "tags": {"addr:city": "Chicago", "addr:country": "US", "addr:housenumber": "3317", "addr:postcode": "60647", "addr:state": "IL", "addr:street": "West Armitage Avenue", "amenity": "cafe", "name": "Damn Fine Coffee Bar", "phone": "+1-773-904-7051", "website": "http://www.damnfinechicago.com/"}}, {"type": "node", "id": 5701445166, "lat": 41.9175853, "lon": -87.6998369, "tags": {"addr:city": "Chicago", "addr:housenumber": "2910", "addr:postcode": "60647", "addr:state": "IL", "addr:street": "West Armitage Avenue", "amenity": "restaurant", "cuisine": "mexican", "facebook": "https://www.facebook.com/Freshjapeno/", "fax": "+1-773-227-9840", "name": "Super Jalapeno Grill", "opening_hours": "Mo-Sa 10:00-22:00; Su 11:00-22:00", "payment:american_express": "yes", "payment:cash": "yes", "payment:discover_card": "yes", "payment:mastercard": "yes", "payment:visa": "yes", "phone": "+1-773-227-9850", "website": "http://superjalapenochicago.com"}}, {"type": "node", "id": 5718019379, "lat": 41.9175048, "lon": -87.708007, "tags": {"addr:city": "Chicago", "addr:housenumber": "3222", "addr:postcode": "60647", "addr:state": "IL", "addr:street": "West Armitage Avenue", "amenity": "restaurant", "cuisine": "mexican", "name": "El Heredero", "outdoor_seating": "no", "smoking": "no", "takeaway": "yes"}}, {"type": "node", "id": 5769288152, "lat": 41.9177215, "lon": -87.7072785, "tags": {"addr:city": "Chicago", "addr:housenumber": "3204", "addr:postcode": "60647", "addr:state": "IL", "addr:street": "West Armitage Avenue", "amenity": "bar", "name": "The Moonlighter", "operator": "Scofflaw Group", "outdoor_seating": "yes"}}, {"type": "node", "id": 5794904574, "lat": 41.909773, "lon": -87.7071905, "tags": {"addr:city": "Chicago", "addr:housenumber": "1552", "addr:postcode": "60651", "addr:state": "IL", "addr:street": "North Kedzie Avenue", "amenity": "restaurant", "cuisine": "colombian", "delivery": "yes", "name": "ArePA George", "opening_hours": "Tu-Fr 11:00-19:00; Sa 11:00-20:00; Su 11:00-16:00", "outdoor_seating": "no", "phone": "+1-773-969-7945", "smoking": "no", "takeaway": "yes"}}, {"type": "node", "id": 6291889411, "lat": 41.9172303, "lon": -87.7078513, "tags": {"addr:city": "Chicago", "addr:housenumber": "3219", "addr:postcode": "60647", "addr:state": "IL", "addr:street": "West Armitage Avenue", "amenity": "bar", "name": "Go Tavern and Liquors", "phone": "+1-773-227-4052", "website": "https://www.gotavern.com/"}}, {"type": "node", "id": 6301752863, "lat": 41.9102381, "lon": -87.7151597, "tags": {"addr:city": "Chicago", "addr:housenumber": "3524", "addr:postcode": "60647", "addr:state": "IL", "addr:street": "West North Avenue", "amenity": "bar", "name": "Steve\u2019s Sports Bar & Lounge", "phone": "+1-773-384-2778"}}, {"type": "node", "id": 6302052366, "lat": 41.9176452, "lon": -87.6997624, "tags": {"addr:city": "Chicago", "addr:housenumber": "2906", "addr:postcode": "60647", "addr:state": "IL", "addr:street": "West Armitage Avenue", "amenity": "restaurant", "name": "The Spice Room", "phone": "+1-773-360-8689", "website": "http://thespiceroomchicago.com/"}}, {"type": "node", "id": 6303119987, "lat": 41.9175485, "lon": -87.7079694, "tags": {"addr:city": "Chicago", "addr:housenumber": "3222", "addr:postcode": "60647", "addr:state": "IL", "addr:street": "West Armitage Avenue", "amenity": "restaurant", "name": "Taqueria El Heredero", "phone": "+1-312-267-2431", "website": "http://taqueriaelheredero.com/"}}, {"type": "node", "id": 6315668706, "lat": 41.9175996, "lon": -87.7073905, "tags": {"addr:city": "Chicago", "addr:housenumber": "3204", "addr:postcode": "60647", "addr:state": "IL", "addr:street": "West Armitage Avenue", "amenity": "restaurant", "name": "The Moonlighter", "phone": "+1-773-360-8896", "website": "https://www.themoonlighterchicago.com/"}}, {"type": "node", "id": 6320092758, "lat": 41.9057749, "lon": -87.7119373, "tags": {"addr:city": "Chicago", "addr:housenumber": "1340", "addr:postcode": "60651", "addr:state": "IL", "addr:street": "North Homan Avenue", "amenity": "restaurant", "name": "La Palma Puerto Rican Restaurant", "phone": "+1-773-862-0886", "website": "http://ww5.lapalmarestaurant.com/"}}, {"type": "node", "id": 6459363596, "lat": 41.9177233, "lon": -87.6988825, "tags": {"addr:city": "Chicago", "addr:housenumber": "2840", "addr:postcode": "60647", "addr:state": "IL", "addr:street": "West Armitage Avenue", "amenity": "pub", "name": "Middle Brow Bungalow", "phone": "+1-773-687-9076", "website": "https://www.middlebrowbeer.com"}}, {"type": "way", "id": 163885473, "nodes": [1755524965, 1755525551, 1755525555, 1755525296, 1755525297, 1755525196, 1755525195, 1755524994, 1755524965], "tags": {"addr:city": "Chicago", "addr:housenumber": "3420", "addr:postcode": "60647", "addr:street": "West Armitage Avenue", "addr:street:name": "Armitage", "addr:street:prefix": "West", "addr:street:type": "Avenue", "amenity": "bar", "building": "yes", "building:levels": "2", "name": "Rosa's Lounge", "phone": "+1 773-342-0452", "smoking": "no", "website": "http://rosaslounge.com/"}}, {"type": "way", "id": 209406792, "nodes": [2196202738, 2196202741, 3570245694, 3570245695, 3570245693, 3570245696, 2196202533, 2393555254, 2196202738], "tags": {"addr:city": "Chicago", "addr:housenumber": "2952", "addr:postcode": "60647", "addr:state": "IL", "addr:street": "West Armitage Avenue", "addr:street:name": "Armitage", "addr:street:prefix": "West", "addr:street:type": "Avenue", "amenity": "restaurant", "building": "yes", "building:levels": "1", "chicago:building_id": "286728", "cuisine": "american", "name": "Parson's Chicken & Fish", "outdoor_seating": "yes", "phone": "+1-773-384-3333", "smoking": "no", "website": "http://www.parsonschickenandfish.com/"}}]}