{"version": 0.6, "generator": "Overpass API 0.7.56.3 eb200aeb", "osm3s": {"timestamp_osm_base": "2020-07-04T02:04:03Z", "copyright": "The data included in this document is from www.openstreetmap.org. The data is made available under ODbL."}, "elements": [{"type": "node", "id": 286369226, "lat": 41.9252157, "lon": -87.6590264}, {"type": "node", "id": 286369232, "lat": 41.9236965, "lon": -87.6511635}, {"type": "node", "id": 286369233, "lat": 41.9236653, "lon": -87.6529154}, {"type": "node", "id": 286369234, "lat": 41.9218369, "lon": -87.6536137}, {"type": "node", "id": 286369235, "lat": 41.9218071, "lon": -87.6545905}, {"type": "node", "id": 286369237, "lat": 41.9235769, "lon": -87.6582718}, {"type": "node", "id": 286369306, "lat": 41.9263468, "lon": -87.6529996}, {"type": "node", "id": 286369307, "lat": 41.9253718, "lon": -87.6529784}, {"type": "node", "id": 286369308, "lat": 41.9250203, "lon": -87.6512022}, {"type": "node", "id": 286369309, "lat": 41.9243434, "lon": -87.6511679}, {"type": "node", "id": 286369311, "lat": 41.9236164, "lon": -87.6546637}, {"type": "node", "id": 307890165, "lat": 41.9253504, "lon": -87.6498796}, {"type": "node", "id": 307890172, "lat": 41.9237168, "lon": -87.6497863}, {"type": "node", "id": 308675507, "lat": 41.9244322, "lon": -87.6511724}, {"type": "node", "id": 308677177, "lat": 41.9254401, "lon": -87.6568567, "tags": {"amenity": "restaurant", "cuisine": "burger", "name": "Branko's Submarines"}}, {"type": "node", "id": 347433848, "lat": 41.9288055, "lon": -87.6584501, "tags": {"amenity": "cafe", "brand": "Starbucks", "brand:wikidata": "Q37158", "brand:wikipedia": "en:Starbucks", "cuisine": "coffee_shop", "name": "Starbucks", "official_name": "Starbucks Coffee", "takeaway": "yes"}}, {"type": "node", "id": 347433861, "lat": 41.9305296, "lon": -87.6612825, "tags": {"amenity": "pub", "name": "Rocks Lincoln Park"}}, {"type": "node", "id": 349259594, "lat": 41.9261133, "lon": -87.6586308, "tags": {"amenity": "pub", "name": "Gaslight"}}, {"type": "node", "id": 369593953, "lat": 41.927166, "lon": -87.6636019, "tags": {"amenity": "pub", "name": "Bird's Nest", "smoking": "no"}}, {"type": "node", "id": 370093716, "lat": 41.9253655, "lon": -87.6489723}, {"type": "node", "id": 370093749, "lat": 41.9237371, "lon": -87.64883}, {"type": "node", "id": 370093752, "lat": 41.9253329, "lon": -87.6488812}, {"type": "node", "id": 416770215, "lat": 41.9243826, "lon": -87.6582994}, {"type": "node", "id": 416770216, "lat": 41.9243744, "lon": -87.6589981}, {"type": "node", "id": 416772583, "lat": 41.9250835, "lon": -87.6603561, "tags": {"amenity": "cafe", "brand": "Starbucks", "brand:wikidata": "Q37158", "brand:wikipedia": "en:Starbucks", "cuisine": "coffee_shop", "name": "Starbucks", "official_name": "Starbucks Coffee", "takeaway": "yes"}}, {"type": "node", "id": 417255771, "lat": 41.925225, "lon": -87.6583375}, {"type": "node", "id": 417255772, "lat": 41.9258596, "lon": -87.6583677}, {"type": "node", "id": 417255773, "lat": 41.9258724, "lon": -87.6576982}, {"type": "node", "id": 417255774, "lat": 41.9252849, "lon": -87.6576725}, {"type": "node", "id": 417255775, "lat": 41.9258658, "lon": -87.6554215}, {"type": "node", "id": 417255776, "lat": 41.9263308, "lon": -87.6545006}, {"type": "node", "id": 452377015, "lat": 41.9241152, "lon": -87.6498508}, {"type": "node", "id": 452377016, "lat": 41.9237193, "lon": -87.6498337}, {"type": "node", "id": 463772252, "lat": 41.9217617, "lon": -87.6594316, "tags": {"amenity": "pub", "name": "Charlie's Bar & Grill"}}, {"type": "node", "id": 463772253, "lat": 41.9217681, "lon": -87.6585218, "tags": {"addr:city": "Chicago", "addr:housenumber": "1200", "addr:postcode": "60614", "addr:state": "IL", "addr:street": "West Webster Avenue", "amenity": "restaurant", "cuisine": "mexican", "name": "Old Pueblo Cantina", "phone": "+1-773-697-3727", "website": "http://oldpueblochicago.com/"}}, {"type": "node", "id": 463772258, "lat": 41.9215701, "lon": -87.6568052, "tags": {"amenity": "restaurant", "name": "La Canasta Grill"}}, {"type": "node", "id": 463772264, "lat": 41.9217238, "lon": -87.6647779, "tags": {"addr:city": "Chicago", "addr:housenumber": "2200", "addr:postcode": "60614", "addr:state": "IL", "addr:street": "North Clybourn Avenue", "amenity": "cafe", "cuisine": "coffee_shop;american", "name": "CornerStone Cafe", "phone": "+1-773-270-4343", "website": "https://www.cornerstonecafechicago.com/"}}, {"type": "node", "id": 463772319, "lat": 41.9251017, "lon": -87.6593544, "tags": {"amenity": "restaurant", "name": "Duck Walk"}}, {"type": "node", "id": 477087119, "lat": 41.9251337, "lon": -87.6631281, "tags": {"amenity": "bar", "name": "Faith and Whiskey"}}, {"type": "node", "id": 1585419572, "lat": 41.9212374, "lon": -87.67314, "tags": {"addr:city": "Chicago", "addr:housenumber": "1809", "addr:postcode": "60614", "addr:state": "IL", "addr:street": "West Webster Avenue", "amenity": "cafe", "cuisine": "coffee_shop", "name": "Little Beans", "phone": "+1-773-251-1025", "website": "https://littlebeanscafe.com/"}}, {"type": "node", "id": 1585420540, "lat": 41.9220517, "lon": -87.6734351, "tags": {"addr:housenumber": "2222", "addr:postcode": "60614", "addr:street": "North Elston Avenue", "amenity": "restaurant", "cuisine": "sandwich", "name": "The Goddess and Grocer", "website": "http://www.goddessandgrocer.com/elston.php"}}, {"type": "node", "id": 1983543632, "lat": 41.924302, "lon": -87.649851}, {"type": "node", "id": 1983549241, "lat": 41.9222116, "lon": -87.6528996}, {"type": "node", "id": 1983549242, "lat": 41.9222019, "lon": -87.6536129}, {"type": "node", "id": 2167184271, "lat": 41.9278273, "lon": -87.6636143, "tags": {"addr:city": "Chicago", "addr:housenumber": "2524", "addr:postcode": "60614", "addr:street": "North Southport Avenue", "amenity": "restaurant", "name": "The Monkey's Paw", "smoking": "no"}}, {"type": "node", "id": 2200342470, "lat": 41.9247907, "lon": -87.6639806}, {"type": "node", "id": 2200342471, "lat": 41.9247916, "lon": -87.6638924}, {"type": "node", "id": 2200342512, "lat": 41.9248385, "lon": -87.6640738}, {"type": "node", "id": 2200342513, "lat": 41.9248405, "lon": -87.6639918}, {"type": "node", "id": 2200342626, "lat": 41.9248526, "lon": -87.6641558}, {"type": "node", "id": 2200342628, "lat": 41.9248537, "lon": -87.6640849}, {"type": "node", "id": 2200342663, "lat": 41.9250315, "lon": -87.6640901}, {"type": "node", "id": 2200342664, "lat": 41.9250329, "lon": -87.6640901}, {"type": "node", "id": 2200342676, "lat": 41.9250497, "lon": -87.6641561}, {"type": "node", "id": 2200342678, "lat": 41.9250498, "lon": -87.664169}, {"type": "node", "id": 2200342680, "lat": 41.9251254, "lon": -87.6640834}, {"type": "node", "id": 2200342682, "lat": 41.9251254, "lon": -87.6639971}, {"type": "node", "id": 2200342730, "lat": 41.9251129, "lon": -87.664172}, {"type": "node", "id": 2200342732, "lat": 41.9251152, "lon": -87.6640948}, {"type": "node", "id": 2200342733, "lat": 41.925116, "lon": -87.6639882}, {"type": "node", "id": 2200342734, "lat": 41.9251182, "lon": -87.6639018}, {"type": "node", "id": 2200343250, "lat": 41.9257322, "lon": -87.668746}, {"type": "node", "id": 2200343251, "lat": 41.925733, "lon": -87.6686339}, {"type": "node", "id": 2200343272, "lat": 41.9257412, "lon": -87.6686338}, {"type": "node", "id": 2200343276, "lat": 41.925745, "lon": -87.6683509}, {"type": "node", "id": 2200343368, "lat": 41.9257995, "lon": -87.668749}, {"type": "node", "id": 2200343378, "lat": 41.925804, "lon": -87.6683521}, {"type": "node", "id": 2200344091, "lat": 41.9260067, "lon": -87.6687597}, {"type": "node", "id": 2200344094, "lat": 41.9260088, "lon": -87.6686403}, {"type": "node", "id": 2200344103, "lat": 41.9260117, "lon": -87.6684344}, {"type": "node", "id": 2200344106, "lat": 41.9260127, "lon": -87.6683609}, {"type": "node", "id": 2200344121, "lat": 41.9260156, "lon": -87.6686402}, {"type": "node", "id": 2200344140, "lat": 41.9260186, "lon": -87.6684344}, {"type": "node", "id": 2200344284, "lat": 41.9260712, "lon": -87.6687609}, {"type": "node", "id": 2200344309, "lat": 41.9260772, "lon": -87.6683621}, {"type": "node", "id": 2200366030, "lat": 41.9329518, "lon": -87.6641628}, {"type": "node", "id": 2200366044, "lat": 41.9329587, "lon": -87.6637242}, {"type": "node", "id": 2200366395, "lat": 41.933012, "lon": -87.6641645}, {"type": "node", "id": 2200366402, "lat": 41.933019, "lon": -87.663726}, {"type": "node", "id": 2204064432, "lat": 41.9316382, "lon": -87.6572443}, {"type": "node", "id": 2204065117, "lat": 41.9318316, "lon": -87.6575142}, {"type": "node", "id": 2204065252, "lat": 41.9318735, "lon": -87.6569401}, {"type": "node", "id": 2204065299, "lat": 41.9318836, "lon": -87.6575026}, {"type": "node", "id": 2204065421, "lat": 41.9319279, "lon": -87.6575646}, {"type": "node", "id": 2204065568, "lat": 41.9319693, "lon": -87.6571342}, {"type": "node", "id": 2204065575, "lat": 41.9319735, "lon": -87.6573878}, {"type": "node", "id": 2204065617, "lat": 41.9319887, "lon": -87.6574096}, {"type": "node", "id": 2204065625, "lat": 41.9319924, "lon": -87.6571064}, {"type": "node", "id": 2204065636, "lat": 41.9319983, "lon": -87.6571725}, {"type": "node", "id": 2204065661, "lat": 41.9320051, "lon": -87.6571632}, {"type": "node", "id": 2204065675, "lat": 41.9320078, "lon": -87.6573856}, {"type": "node", "id": 2204065782, "lat": 41.9320369, "lon": -87.6574257}, {"type": "node", "id": 2204065833, "lat": 41.9320536, "lon": -87.6572307}, {"type": "node", "id": 2348349944, "lat": 41.9237168, "lon": -87.6496983, "tags": {"barrier": "gate"}}, {"type": "node", "id": 2458410440, "lat": 41.9251354, "lon": -87.6590281}, {"type": "node", "id": 3617756790, "lat": 41.921758, "lon": -87.6643563, "tags": {"amenity": "bar", "name": "The Drinkingbird"}}, {"type": "node", "id": 3660922643, "lat": 41.9252887, "lon": -87.6678214, "tags": {"amenity": "cafe", "name": "Nada Tea & Coffee"}}, {"type": "node", "id": 3660929434, "lat": 41.9249859, "lon": -87.6706571, "tags": {"addr:city": "Chicago", "addr:housenumber": "1665", "addr:street": "West Fullerton Avenue", "amenity": "bar", "name": "Liars Club", "opening_hours": "Su-Fr 20:00-04:00; Sa 20:00-03:00", "phone": "+1-773-665-1110"}}, {"type": "node", "id": 3791781401, "lat": 41.9212458, "lon": -87.6745362}, {"type": "node", "id": 3791781402, "lat": 41.9212687, "lon": -87.6745054}, {"type": "node", "id": 3791781403, "lat": 41.9213604, "lon": -87.6745054}, {"type": "node", "id": 3791781404, "lat": 41.9213833, "lon": -87.6735657}, {"type": "node", "id": 3791781405, "lat": 41.9209615, "lon": -87.6735626}, {"type": "node", "id": 3791781406, "lat": 41.9209615, "lon": -87.6736334}, {"type": "node", "id": 3791781407, "lat": 41.9209088, "lon": -87.6736797}, {"type": "node", "id": 3791781408, "lat": 41.9208881, "lon": -87.6736396}, {"type": "node", "id": 3791781409, "lat": 41.9207941, "lon": -87.6737351}, {"type": "node", "id": 3841977063, "lat": 41.9218198, "lon": -87.6541736}, {"type": "node", "id": 3883912233, "lat": 41.9219437, "lon": -87.664624, "tags": {"amenity": "restaurant", "cuisine": "italian", "name": "Filippos Ristorante"}}, {"type": "node", "id": 3883912234, "lat": 41.9217988, "lon": -87.6644169, "tags": {"amenity": "restaurant", "cuisine": "thai", "name": "Rice Cafe"}}, {"type": "node", "id": 4499383937, "lat": 41.923718, "lon": -87.649649, "tags": {"barrier": "gate"}}, {"type": "node", "id": 4499383938, "lat": 41.9237203, "lon": -87.6495479}, {"type": "node", "id": 5092756819, "lat": 41.925504, "lon": -87.6723414, "tags": {"amenity": "cafe", "brand": "Starbucks", "brand:wikidata": "Q37158", "brand:wikipedia": "en:Starbucks", "cuisine": "coffee_shop", "name": "Starbucks", "official_name": "Starbucks Coffee", "takeaway": "yes"}}, {"type": "node", "id": 5689237336, "lat": 41.9328066, "lon": -87.6593929, "tags": {"addr:housenumber": "2812", "addr:street": "North Lincoln Avenue", "amenity": "bar", "name": "Beermiscuous", "phone": "+1-773-698-6824", "website": "https://beermiscuous.com/"}}, {"type": "node", "id": 6152474394, "lat": 41.9253198, "lon": -87.6554087}, {"type": "node", "id": 6152474396, "lat": 41.9258876, "lon": -87.6544944}, {"type": "node", "id": 6152474397, "lat": 41.9253782, "lon": -87.6523958}, {"type": "node", "id": 6152474398, "lat": 41.9249999, "lon": -87.6523833}, {"type": "node", "id": 6263471199, "lat": 41.9286184, "lon": -87.6715995, "tags": {"addr:city": "Chicago", "addr:housenumber": "1721", "addr:postcode": "60614", "addr:state": "IL", "addr:street": "West Wrightwood Avenue", "amenity": "bar", "name": "Augie\u2019s", "phone": "+1-773-296-0018", "website": "http://augiesbooze.homestead.com/"}}, {"type": "node", "id": 6263526427, "lat": 41.9286414, "lon": -87.6623901, "tags": {"addr:city": "Chicago", "addr:housenumber": "1335", "addr:postcode": "60614", "addr:state": "IL", "addr:street": "West Wrightwood Avenue", "amenity": "restaurant", "name": "Avli Taverna", "phone": "+1-773-857-5577", "website": "http://avli.us/"}}, {"type": "node", "id": 6265680688, "lat": 41.9217939, "lon": -87.6643172, "tags": {"addr:city": "Chicago", "addr:housenumber": "2201", "addr:postcode": "60614", "addr:state": "IL", "addr:street": "North Clybourn Avenue", "amenity": "restaurant", "name": "Beck\u2019s Chicago", "phone": "+1-773-661-1573", "website": "https://beckschicago.com/"}}, {"type": "node", "id": 6269118585, "lat": 41.9284536, "lon": -87.6636452, "tags": {"addr:city": "Chicago", "addr:housenumber": "2548", "addr:postcode": "60614", "addr:state": "IL", "addr:street": "North Southport Avenue", "amenity": "bar", "name": "Broken Barrel Bar", "phone": "+1-773-327-4900", "website": "https://www.brokenbarrelbar.com/"}}, {"type": "node", "id": 6269367678, "lat": 41.9318459, "lon": -87.6572325, "tags": {"addr:city": "Chicago", "addr:housenumber": "2747", "addr:postcode": "60614", "addr:state": "IL", "addr:street": "North Lincoln Avenue", "amenity": "bar", "name": "Burnt City Brewing", "phone": "+1-773-295-1270", "website": "https://burntcitybrewing.com/"}}, {"type": "node", "id": 6270078272, "lat": 41.9253339, "lon": -87.6667824, "tags": {"addr:city": "Chicago", "addr:housenumber": "1524", "addr:postcode": "60614", "addr:state": "IL", "addr:street": "West Fullerton Avenue", "amenity": "restaurant", "name": "Cairo Kebab", "phone": "+1-773-687-8413"}}, {"type": "node", "id": 6283213091, "lat": 41.9332915, "lon": -87.6593217, "tags": {"addr:city": "Chicago", "addr:housenumber": "2823", "addr:postcode": "60614", "addr:state": "IL", "addr:street": "North Lincoln Avenue", "amenity": "cafe", "name": "Coffee Lab & Roasters", "phone": "+1-773-687-9453", "website": "https://www.bcbccoffeelab.com/"}}, {"type": "node", "id": 6284367730, "lat": 41.9322843, "lon": -87.6580892, "tags": {"addr:city": "Chicago", "addr:housenumber": "2771", "addr:postcode": "60614", "addr:state": "IL", "addr:street": "North Lincoln Avenue", "amenity": "bar", "name": "Delilah\u2019", "phone": "+1-773-472-2771", "website": "http://www.delilahschicago.com/"}}, {"type": "node", "id": 6284426181, "lat": 41.9217431, "lon": -87.6651378, "tags": {"addr:city": "Chicago", "addr:housenumber": "1450", "addr:postcode": "60614", "addr:state": "IL", "addr:street": "West Webster Avenue", "amenity": "restaurant", "name": "Devour 312", "phone": "+1-773-360-7312", "website": "https://www.devour312.com/"}}, {"type": "node", "id": 6284478880, "lat": 41.921811, "lon": -87.666291, "tags": {"addr:city": "Chicago", "addr:housenumber": "1480", "addr:postcode": "60614", "addr:state": "IL", "addr:street": "West Webster Avenue", "amenity": "bar", "name": "Distilled Chicago", "phone": "+1-773-770-3703", "website": "http://distilledchicago.com/"}}, {"type": "node", "id": 6290965033, "lat": 41.9218926, "lon": -87.659204, "tags": {"addr:city": "Chicago", "addr:housenumber": "1220", "addr:postcode": "60614", "addr:state": "IL", "addr:street": "West Webster Avenue", "amenity": "restaurant", "name": "Floriole Cafe & Bakery", "phone": "+1-773-883-1313", "website": "http://www.floriole.com/"}}, {"type": "node", "id": 6291153865, "lat": 41.9322813, "lon": -87.6687371, "tags": {"addr:city": "Chicago", "addr:housenumber": "2758", "addr:postcode": "60657", "addr:state": "IL", "addr:street": "North Ashland Avenue", "amenity": "bar", "name": "Four Shadows", "phone": "+1-773-248-9160", "website": "http://fourshadows.net/"}}, {"type": "node", "id": 6292131019, "lat": 41.9250291, "lon": -87.6640426, "tags": {"addr:city": "Chicago", "addr:housenumber": "1417", "addr:postcode": "60614", "addr:state": "IL", "addr:street": "West Fullerton Avenue", "amenity": "restaurant", "name": "Grand Trunk Road", "phone": "+1-773-857-1269", "website": "https://www.grandtrunkroad.co/"}}, {"type": "node", "id": 6294042612, "lat": 41.9249886, "lon": -87.6604965, "tags": {"addr:city": "Chicago", "addr:housenumber": "1251", "addr:postcode": "60614", "addr:state": "IL", "addr:street": "West Fullerton Avenue", "amenity": "restaurant", "cuisine": "indian", "name": "Hakka Bakka Indian Kati Rolls", "phone": "+1-872-802-3968", "website": "http://hakkabakkarolls.com/"}}, {"type": "node", "id": 6297644135, "lat": 41.9250705, "lon": -87.6650212, "tags": {"addr:city": "Chicago", "addr:housenumber": "1443", "addr:postcode": "60614", "addr:state": "IL", "addr:street": "West Fullerton Avenue", "amenity": "restaurant", "name": "Jumbo Crab"}}, {"type": "node", "id": 6299449463, "lat": 41.9333248, "lon": -87.6594383, "tags": {"addr:city": "Chicago", "addr:housenumber": "2825", "addr:postcode": "60657", "addr:state": "IL", "addr:street": "North Lincoln Avenue", "amenity": "restaurant", "name": "Patsy\u2019s Place", "phone": "+1-773-248-2825", "website": "http://www.patsyspub.com/"}}, {"type": "node", "id": 6300393195, "lat": 41.9219536, "lon": -87.6643402, "tags": {"addr:city": "Chicago", "addr:housenumber": "2207", "addr:postcode": "60614", "addr:state": "IL", "addr:street": "North Clybourn Avenue", "amenity": "restaurant", "cuisine": "pizza", "name": "Pequod\u2019s Pizzeria", "outdoor_seating": "yes", "phone": "+1-773-327-1512", "website": "https://pequodspizza.com"}}, {"type": "node", "id": 6304066996, "lat": 41.9251122, "lon": -87.663056, "tags": {"addr:city": "Chicago", "addr:housenumber": "1365", "addr:postcode": "60614", "addr:state": "IL", "addr:street": "West Fullerton Avenue", "amenity": "bar", "name": "The Arrogant Frog Bar", "phone": "+1-773-248-9119", "website": "https://www.thearrogantfrogbar.com/"}}, {"type": "node", "id": 6304238326, "lat": 41.9250423, "lon": -87.664123, "tags": {"addr:city": "Chicago", "addr:housenumber": "1419", "addr:postcode": "60614", "addr:state": "IL", "addr:street": "West Fullerton Avenue", "amenity": "bar", "name": "The Warehouse Bar & Pizzeria Chicago", "phone": "+1-(773) 661-6454", "website": "https://www.thewarehousechicago.com/"}}, {"type": "node", "id": 6315598366, "lat": 41.9331414, "lon": -87.6597871, "tags": {"addr:city": "Chicago", "addr:housenumber": "2828", "addr:postcode": "60657", "addr:state": "IL", "addr:street": "North Lincoln Avenue", "amenity": "bar", "name": "The Hometavern", "phone": "+1-773-549-9253"}}, {"type": "node", "id": 6315803083, "lat": 41.9200991, "lon": -87.6626373, "tags": {"addr:city": "Chicago", "addr:housenumber": "2142", "addr:postcode": "60614", "addr:state": "IL", "addr:street": "North Clybourn Avenue", "amenity": "bar", "name": "Varsity Club", "phone": "+1-773-348-0414"}}, {"type": "node", "id": 6316843887, "lat": 41.9220253, "lon": -87.6645086, "tags": {"addr:city": "Chicago", "addr:housenumber": "2211", "addr:postcode": "60614", "addr:state": "IL", "addr:street": "North Clybourn Avenue", "amenity": "bar", "name": "Whale Tale", "phone": "+1-773-528-2211", "website": "https://www.whaletalechicago.com/"}}, {"type": "node", "id": 6317060712, "lat": 41.9326492, "lon": -87.6584829, "tags": {"addr:city": "Chicago", "addr:postcode": "60657", "addr:state": "IL", "addr:street": "West Diversey Parkway", "amenity": "cafe", "name": "Y2K Cafe"}}, {"type": "node", "id": 6319245707, "lat": 41.9218751, "lon": -87.665271, "tags": {"addr:city": "Chicago", "addr:housenumber": "2212", "addr:postcode": "60614", "addr:state": "IL", "addr:street": "North Clybourn Avenue", "amenity": "bar", "name": "Kibbitznest Books, Brews & Blarney", "phone": "+1-773-360-7591", "website": "http://www.kibbitznest.com/"}}, {"type": "node", "id": 6324601603, "lat": 41.9241811, "lon": -87.6498509}, {"type": "node", "id": 6325945247, "lat": 41.9207648, "lon": -87.6691269, "tags": {"addr:city": "Chicago", "addr:housenumber": "2112", "addr:postcode": "60614", "addr:state": "IL", "addr:street": "North Ashland Avenue", "amenity": "cafe", "name": "Vero Coffee & Gelato", "phone": "+1-773-342-6585", "website": "https://verocoffeeandgelato.com/"}}, {"type": "node", "id": 7330283318, "lat": 41.9213207, "lon": -87.6636865, "tags": {"addr:city": "Chicago", "addr:housenumber": "2187", "addr:postcode": "60614", "addr:state": "IL", "addr:street": "North Clybourn Avenue", "amenity": "restaurant", "cuisine": "sushi", "name": "Rock Wrap & Roll", "phone": "+1-773-472-2800", "website": "https://rockwrapandroll.com/"}}, {"type": "node", "id": 7411640772, "lat": 41.9212534, "lon": -87.6731346, "tags": {"amenity": "cafe", "name": "Little Beans Cafe & Playspace"}}, {"type": "way", "id": 26150036, "nodes": [286369237, 416770215, 416770216, 2458410440, 286369226, 417255771, 417255772, 417255773, 417255774, 6152474394, 417255775, 6152474396, 417255776, 286369306, 286369307, 6152474397, 6152474398, 286369308, 308675507, 286369309, 286369232, 286369233, 1983549241, 1983549242, 286369234, 3841977063, 286369235, 286369311, 286369237], "tags": {"amenity": "university", "name": "DePaul University", "operator": "Depaul University", "operator:type": "university", "wheelchair": "yes", "wikipedia": "en:DePaul University"}}, {"type": "way", "id": 32853826, "nodes": [370093716, 307890165, 1983543632, 6324601603, 452377015, 452377016, 307890172, 2348349944, 4499383937, 4499383938, 370093749, 370093752, 370093716], "tags": {"amenity": "university", "name": "DePaul University", "operator": "DePaul University", "operator:type": "university"}}, {"type": "way", "id": 209880395, "nodes": [2200342470, 2200342733, 2200342734, 2200342471, 2200342470], "tags": {"addr:housenumber": "1415", "addr:street": "West Fullerton Avenue", "addr:street:name": "Fullerton", "addr:street:prefix": "West", "addr:street:type": "Avenue", "amenity": "pub", "building": "yes", "building:levels": "2", "chicago:building_id": "263281", "name": "Beer Bistro"}}, {"type": "way", "id": 209880419, "nodes": [2200342680, 2200342682, 2200342513, 2200342512, 2200342680], "tags": {"addr:housenumber": "1417", "addr:street": "West Fullerton Avenue", "addr:street:name": "Fullerton", "addr:street:prefix": "West", "addr:street:type": "Avenue", "amenity": "restaurant", "building": "yes", "chicago:building_id": "850942", "name": "Knife & Tine"}}, {"type": "way", "id": 209880429, "nodes": [2200342626, 2200342676, 2200342678, 2200342730, 2200342732, 2200342664, 2200342663, 2200342628, 2200342626], "tags": {"addr:housenumber": "1419", "addr:street": "West Fullerton Avenue", "addr:street:name": "Fullerton", "addr:street:prefix": "West", "addr:street:type": "Avenue", "amenity": "restaurant", "building": "yes", "building:levels": "1", "chicago:building_id": "263304", "name": "Warehouse"}}, {"type": "way", "id": 209882840, "nodes": [2200343250, 2200343368, 2200343378, 2200343276, 2200343272, 2200343251, 2200343250], "tags": {"addr:housenumber": "2418", "addr:postcode": "60614", "addr:street": "North Ashland Avenue", "addr:street:name": "Ashland", "addr:street:prefix": "North", "addr:street:type": "Avenue", "amenity": "restaurant", "building": "yes", "building:levels": "1", "chicago:building_id": "261255", "name": "The Squared Circle"}}, {"type": "way", "id": 209882878, "nodes": [2200344091, 2200344284, 2200344309, 2200344106, 2200344103, 2200344140, 2200344121, 2200344094, 2200344091], "tags": {"addr:city": "Chicago", "addr:housenumber": "2428", "addr:postcode": "60614", "addr:state": "IL", "addr:street": "North Ashland Avenue", "addr:street:name": "Ashland", "addr:street:prefix": "North", "addr:street:type": "Avenue", "amenity": "restaurant", "building": "yes", "building:levels": "2", "chicago:building_id": "260281", "name": "Asian Cajun", "phone": "+1-773-828-5642", "website": "https://asiancajunrestaurant.com/"}}, {"type": "way", "id": 209884980, "nodes": [2200366030, 2200366395, 2200366402, 2200366044, 2200366030], "tags": {"addr:housenumber": "2814", "addr:street": "North Southport Avenue", "addr:street:name": "Southport", "addr:street:prefix": "North", "addr:street:type": "Avenue", "amenity": "restaurant", "building": "yes", "building:levels": "2", "chicago:building_id": "238031", "cuisine": "mexican", "name": "Que Rico"}}, {"type": "way", "id": 210322417, "nodes": [2204065252, 2204064432, 2204065117, 2204065833, 2204065661, 2204065636, 2204065568, 2204065625, 2204065252], "tags": {"addr:city": "Chicago", "addr:housenumber": "2747", "addr:postcode": "60614", "addr:state": "IL", "addr:street": "North Lincoln Avenue", "addr:street:name": "Lincoln", "addr:street:prefix": "North", "addr:street:type": "Avenue", "amenity": "bar", "building": "yes", "building:levels": "2", "chicago:building_id": "862997", "microbrewery": "yes", "name": "Burnt City Brewing", "opening_hours": "Mo-Th 17:00-23:00; Fr 17:00-02:00; Sa 12:00-02:00; Su 12:00-23:00", "phone": "+1-773-295-1270", "website": "https://burntcitybrewing.com"}}, {"type": "way", "id": 210322445, "nodes": [2204065299, 2204065421, 2204065782, 2204065675, 2204065617, 2204065575, 2204065299], "tags": {"addr:housenumber": "2751", "addr:street": "North Lincoln Avenue", "addr:street:name": "Lincoln", "addr:street:prefix": "North", "addr:street:type": "Avenue", "amenity": "bar", "building": "yes", "building:levels": "2", "chicago:building_id": "241545", "name": "Delilah's"}}, {"type": "way", "id": 375835721, "nodes": [3791781401, 3791781402, 3791781403, 3791781404, 3791781405, 3791781406, 3791781407, 3791781408, 3791781409, 3791781401], "tags": {"amenity": "bar", "building": "yes", "building:levels": "2", "name": "WhirlyBall"}}, {"type": "relation", "id": 2527861, "members": [{"type": "way", "ref": 26150036, "role": "outer"}, {"type": "way", "ref": 32853826, "role": "outer"}], "tags": {"amenity": "university", "name": "DePaul University", "type": "multipolygon"}}]}