{"version": 0.6, "generator": "Overpass API 0.7.56.3 eb200aeb", "osm3s": {"timestamp_osm_base": "2020-07-04T02:50:02Z", "copyright": "The data included in this document is from www.openstreetmap.org. The data is made available under ODbL."}, "elements": [{"type": "node", "id": 27607035, "lat": 41.8584541, "lon": -87.6266108}, {"type": "node", "id": 27607036, "lat": 41.858163, "lon": -87.6267533}, {"type": "node", "id": 27607037, "lat": 41.8579666, "lon": -87.6269676}, {"type": "node", "id": 27607038, "lat": 41.8578516, "lon": -87.6271876}, {"type": "node", "id": 27607039, "lat": 41.8578005, "lon": -87.627337}, {"type": "node", "id": 27607041, "lat": 41.8577218, "lon": -87.6277933}, {"type": "node", "id": 256618510, "lat": 41.8658835, "lon": -87.6451248}, {"type": "node", "id": 258030969, "lat": 41.8692737, "lon": -87.6454545}, {"type": "node", "id": 258030970, "lat": 41.8688302, "lon": -87.6454313}, {"type": "node", "id": 258030971, "lat": 41.8680786, "lon": -87.6453001}, {"type": "node", "id": 258030972, "lat": 41.8677305, "lon": -87.6452849}, {"type": "node", "id": 258963194, "lat": 41.8566575, "lon": -87.6338326}, {"type": "node", "id": 258963195, "lat": 41.8569241, "lon": -87.6333924}, {"type": "node", "id": 258963196, "lat": 41.857128, "lon": -87.632979}, {"type": "node", "id": 258963197, "lat": 41.8573258, "lon": -87.6324635}, {"type": "node", "id": 258963198, "lat": 41.8574138, "lon": -87.6321675}, {"type": "node", "id": 258963199, "lat": 41.8574955, "lon": -87.6318294}, {"type": "node", "id": 258963200, "lat": 41.8575641, "lon": -87.6314364}, {"type": "node", "id": 258963201, "lat": 41.8576113, "lon": -87.6310585}, {"type": "node", "id": 258963202, "lat": 41.8576302, "lon": -87.6307559}, {"type": "node", "id": 258963204, "lat": 41.8576463, "lon": -87.6301056, "tags": {"railway": "railway_crossing"}}, {"type": "node", "id": 258963205, "lat": 41.8576515, "lon": -87.6296478}, {"type": "node", "id": 394817585, "lat": 41.853516, "lon": -87.6347244, "tags": {"amenity": "restaurant", "name": "Shui Wah"}}, {"type": "node", "id": 624842100, "lat": 41.8661261, "lon": -87.6509285}, {"type": "node", "id": 624842102, "lat": 41.8647519, "lon": -87.6508749}, {"type": "node", "id": 624842113, "lat": 41.8634175, "lon": -87.6508481}, {"type": "node", "id": 624842116, "lat": 41.8623697, "lon": -87.65081}, {"type": "node", "id": 624842118, "lat": 41.8624081, "lon": -87.647875}, {"type": "node", "id": 691850892, "lat": 41.8528159, "lon": -87.6462733, "tags": {"addr:city": "Chicago", "addr:housenumber": "2149", "addr:postcode": "60608", "addr:state": "IL", "addr:street": "South Halsted Street", "amenity": "bar", "name": "Skylark", "phone": "+1 312 948-5275", "website": "http://www.skylarkchicago.com/", "wheelchair": "yes"}}, {"type": "node", "id": 691866426, "lat": 41.858146, "lon": -87.6464453, "tags": {"addr:city": "Chicago", "addr:housenumber": "1733", "addr:postcode": "60608", "addr:state": "IL", "addr:street": "South Halsted Street", "amenity": "cafe", "cuisine": "coffee_shop", "name": "Kristoffer\u2019s Cafe & Bakery", "phone": "+1 312-829-4150", "website": "https://kristofferscakes.com/"}}, {"type": "node", "id": 705009379, "lat": 41.8564108, "lon": -87.63416}, {"type": "node", "id": 705010168, "lat": 41.8588216, "lon": -87.6265627}, {"type": "node", "id": 706934723, "lat": 41.8594396, "lon": -87.6265568}, {"type": "node", "id": 738165148, "lat": 41.8515534, "lon": -87.639005}, {"type": "node", "id": 738165156, "lat": 41.8515722, "lon": -87.6390447}, {"type": "node", "id": 738165169, "lat": 41.85219, "lon": -87.6384406}, {"type": "node", "id": 738165170, "lat": 41.8530102, "lon": -87.6377176}, {"type": "node", "id": 738165171, "lat": 41.8536847, "lon": -87.6371112}, {"type": "node", "id": 738165173, "lat": 41.854479, "lon": -87.6364065}, {"type": "node", "id": 738165175, "lat": 41.8547277, "lon": -87.63618}, {"type": "node", "id": 738165177, "lat": 41.854924, "lon": -87.6359787}, {"type": "node", "id": 738165178, "lat": 41.8550823, "lon": -87.6358013}, {"type": "node", "id": 738165179, "lat": 41.8555471, "lon": -87.635235}, {"type": "node", "id": 738165180, "lat": 41.8561822, "lon": -87.6344471}, {"type": "node", "id": 738165182, "lat": 41.8510473, "lon": -87.6394986}, {"type": "node", "id": 738165183, "lat": 41.8507226, "lon": -87.6397896}, {"type": "node", "id": 738165184, "lat": 41.8505268, "lon": -87.6399707}, {"type": "node", "id": 738165185, "lat": 41.8504009, "lon": -87.6400968}, {"type": "node", "id": 738165186, "lat": 41.8502631, "lon": -87.640251}, {"type": "node", "id": 738165187, "lat": 41.8501552, "lon": -87.6403797}, {"type": "node", "id": 738165188, "lat": 41.8500683, "lon": -87.6405018}, {"type": "node", "id": 738165211, "lat": 41.8499035, "lon": -87.6407378}, {"type": "node", "id": 738165212, "lat": 41.8499854, "lon": -87.6406158}, {"type": "node", "id": 738165227, "lat": 41.8500423, "lon": -87.6404682}, {"type": "node", "id": 738165228, "lat": 41.8501332, "lon": -87.6403435}, {"type": "node", "id": 738165229, "lat": 41.8502591, "lon": -87.6401879}, {"type": "node", "id": 738165230, "lat": 41.8504019, "lon": -87.6400391}, {"type": "node", "id": 738165231, "lat": 41.8505668, "lon": -87.6398741}, {"type": "node", "id": 738165232, "lat": 41.8507136, "lon": -87.6397373}, {"type": "node", "id": 738165233, "lat": 41.8511362, "lon": -87.6393632}, {"type": "node", "id": 738165234, "lat": 41.8499534, "lon": -87.640593}, {"type": "node", "id": 738165277, "lat": 41.8562017, "lon": -87.6344818}, {"type": "node", "id": 738165278, "lat": 41.8555682, "lon": -87.6352677}, {"type": "node", "id": 738165279, "lat": 41.8551035, "lon": -87.6358349}, {"type": "node", "id": 738165280, "lat": 41.8549503, "lon": -87.6360099}, {"type": "node", "id": 738165281, "lat": 41.854731, "lon": -87.6362304}, {"type": "node", "id": 738165282, "lat": 41.8544893, "lon": -87.6364541}, {"type": "node", "id": 738165283, "lat": 41.8537145, "lon": -87.6371431}, {"type": "node", "id": 738165284, "lat": 41.8522126, "lon": -87.6384841}, {"type": "node", "id": 1283483424, "lat": 41.8576987, "lon": -87.6291224}, {"type": "node", "id": 1283483459, "lat": 41.8574509, "lon": -87.632173}, {"type": "node", "id": 1283483460, "lat": 41.8576565, "lon": -87.6309633}, {"type": "node", "id": 1283483474, "lat": 41.857369, "lon": -87.6324549}, {"type": "node", "id": 1283483485, "lat": 41.8577127, "lon": -87.6280145}, {"type": "node", "id": 1283483488, "lat": 41.856817, "lon": -87.633654}, {"type": "node", "id": 1283483493, "lat": 41.8569568, "lon": -87.6334164}, {"type": "node", "id": 1283483520, "lat": 41.8582996, "lon": -87.6266679}, {"type": "node", "id": 1283483578, "lat": 41.8567052, "lon": -87.6338289}, {"type": "node", "id": 1283483583, "lat": 41.8565719, "lon": -87.6339515}, {"type": "node", "id": 1283483590, "lat": 41.8575342, "lon": -87.6318239}, {"type": "node", "id": 1283483594, "lat": 41.857072, "lon": -87.633188}, {"type": "node", "id": 1283483596, "lat": 41.8572255, "lon": -87.632842}, {"type": "node", "id": 1283483618, "lat": 41.8566148, "lon": -87.6339582}, {"type": "node", "id": 1283483630, "lat": 41.8579041, "lon": -87.6270739}, {"type": "node", "id": 1283483637, "lat": 41.8568009, "lon": -87.6336094}, {"type": "node", "id": 1283483678, "lat": 41.857604, "lon": -87.6314324}, {"type": "node", "id": 1283483702, "lat": 41.8576669, "lon": -87.6307303}, {"type": "node", "id": 1283483704, "lat": 41.8576911, "lon": -87.6296431}, {"type": "node", "id": 1283483715, "lat": 41.8580555, "lon": -87.6268558}, {"type": "node", "id": 1283483745, "lat": 41.8576774, "lon": -87.6303463}, {"type": "node", "id": 1308245862, "lat": 41.8730195, "lon": -87.6566515}, {"type": "node", "id": 1309310753, "lat": 41.8705582, "lon": -87.6510938}, {"type": "node", "id": 1309310769, "lat": 41.8728194, "lon": -87.6512488}, {"type": "node", "id": 1309310772, "lat": 41.8728556, "lon": -87.6512875}, {"type": "node", "id": 1309310781, "lat": 41.8728544, "lon": -87.6513238}, {"type": "node", "id": 1309310786, "lat": 41.8718736, "lon": -87.6511361}, {"type": "node", "id": 1309310791, "lat": 41.8729799, "lon": -87.6515273}, {"type": "node", "id": 1309310795, "lat": 41.8711509, "lon": -87.6511104}, {"type": "node", "id": 1309310830, "lat": 41.872569, "lon": -87.6511511}, {"type": "node", "id": 1309310834, "lat": 41.8728564, "lon": -87.6513962}, {"type": "node", "id": 1309521523, "lat": 41.8697849, "lon": -87.6511257}, {"type": "node", "id": 1309521528, "lat": 41.8700144, "lon": -87.6510741}, {"type": "node", "id": 1309521533, "lat": 41.869876, "lon": -87.6510868}, {"type": "node", "id": 1324310267, "lat": 41.8672329, "lon": -87.6509271}, {"type": "node", "id": 1324339868, "lat": 41.8695079, "lon": -87.6511376, "tags": {"highway": "traffic_signals"}}, {"type": "node", "id": 1563768183, "lat": 41.8677741, "lon": -87.6525895}, {"type": "node", "id": 1563768280, "lat": 41.8682055, "lon": -87.6522318}, {"type": "node", "id": 1564610532, "lat": 41.8671888, "lon": -87.6529727}, {"type": "node", "id": 1564610597, "lat": 41.8673195, "lon": -87.6529751}, {"type": "node", "id": 1567935379, "lat": 41.8691481, "lon": -87.6515497}, {"type": "node", "id": 1567935392, "lat": 41.868256, "lon": -87.6522619}, {"type": "node", "id": 1567935428, "lat": 41.8685971, "lon": -87.6519722}, {"type": "node", "id": 1567935437, "lat": 41.8685197, "lon": -87.6520566}, {"type": "node", "id": 1567935483, "lat": 41.8682319, "lon": -87.6522096}, {"type": "node", "id": 1567935487, "lat": 41.8672769, "lon": -87.6529743}, {"type": "node", "id": 1567935598, "lat": 41.8686145, "lon": -87.6520056}, {"type": "node", "id": 1567935611, "lat": 41.8692679, "lon": -87.6514462}, {"type": "node", "id": 1567935613, "lat": 41.8684628, "lon": -87.6520559}, {"type": "node", "id": 1640078305, "lat": 41.8750617, "lon": -87.6477795}, {"type": "node", "id": 1640078309, "lat": 41.8746412, "lon": -87.6472987}, {"type": "node", "id": 1640078310, "lat": 41.8751704, "lon": -87.6489907}, {"type": "node", "id": 1640078313, "lat": 41.8746225, "lon": -87.6472615}, {"type": "node", "id": 1640078314, "lat": 41.8751984, "lon": -87.6497309}, {"type": "node", "id": 1640078316, "lat": 41.8751894, "lon": -87.6494084}, {"type": "node", "id": 1640078325, "lat": 41.8751284, "lon": -87.6485017}, {"type": "node", "id": 1640078326, "lat": 41.8751833, "lon": -87.6492436}, {"type": "node", "id": 1643970052, "lat": 41.8736833, "lon": -87.64619}, {"type": "node", "id": 1643970061, "lat": 41.8695057, "lon": -87.6512623}, {"type": "node", "id": 1643970072, "lat": 41.8734125, "lon": -87.6461313}, {"type": "node", "id": 1643970081, "lat": 41.8739152, "lon": -87.6462705}, {"type": "node", "id": 1645121278, "lat": 41.8726271, "lon": -87.6511611}, {"type": "node", "id": 1645121392, "lat": 41.8728385, "lon": -87.6512586}, {"type": "node", "id": 1645121508, "lat": 41.8726879, "lon": -87.6511848}, {"type": "node", "id": 1645121523, "lat": 41.8730367, "lon": -87.6515997}, {"type": "node", "id": 1645164035, "lat": 41.8726081, "lon": -87.6458381}, {"type": "node", "id": 1645208835, "lat": 41.8720548, "lon": -87.65114}, {"type": "node", "id": 1655435354, "lat": 41.8670032, "lon": -87.6451676}, {"type": "node", "id": 1655435355, "lat": 41.8673, "lon": -87.6452802}, {"type": "node", "id": 1655435357, "lat": 41.8670723, "lon": -87.6452268}, {"type": "node", "id": 1655435361, "lat": 41.8682982, "lon": -87.6453494}, {"type": "node", "id": 1655435366, "lat": 41.8695302, "lon": -87.6454595}, {"type": "node", "id": 1846853872, "lat": 41.8731599, "lon": -87.6460597}, {"type": "node", "id": 1846853875, "lat": 41.8742112, "lon": -87.646933}, {"type": "node", "id": 1846853878, "lat": 41.8742224, "lon": -87.6472729}, {"type": "node", "id": 2203198554, "lat": 41.8535465, "lon": -87.6463894}, {"type": "node", "id": 2203198557, "lat": 41.8535471, "lon": -87.6460297}, {"type": "node", "id": 2203198654, "lat": 41.8536067, "lon": -87.6461318}, {"type": "node", "id": 2203198657, "lat": 41.8536069, "lon": -87.6461539}, {"type": "node", "id": 2203198660, "lat": 41.8536124, "lon": -87.646163}, {"type": "node", "id": 2203198677, "lat": 41.8536124, "lon": -87.6463906}, {"type": "node", "id": 2203198684, "lat": 41.8536135, "lon": -87.6461244}, {"type": "node", "id": 2203198687, "lat": 41.8536144, "lon": -87.646029}, {"type": "node", "id": 2206208308, "lat": 41.8515755, "lon": -87.6324261}, {"type": "node", "id": 2206208310, "lat": 41.8515763, "lon": -87.6323325}, {"type": "node", "id": 2206208314, "lat": 41.8515795, "lon": -87.6320997}, {"type": "node", "id": 2206208372, "lat": 41.8516427, "lon": -87.632429}, {"type": "node", "id": 2206208373, "lat": 41.8516436, "lon": -87.6323446}, {"type": "node", "id": 2206208377, "lat": 41.8516476, "lon": -87.6321016}, {"type": "node", "id": 2207261995, "lat": 41.8753129, "lon": -87.654403}, {"type": "node", "id": 2207262066, "lat": 41.8638442, "lon": -87.6469008}, {"type": "node", "id": 2207262112, "lat": 41.8751211, "lon": -87.6542903}, {"type": "node", "id": 2207262133, "lat": 41.8638244, "lon": -87.6479273}, {"type": "node", "id": 2207262135, "lat": 41.8743682, "lon": -87.656704}, {"type": "node", "id": 2207262136, "lat": 41.8743143, "lon": -87.6596974}, {"type": "node", "id": 2207262137, "lat": 41.8641937, "lon": -87.6469062}, {"type": "node", "id": 2207262178, "lat": 41.8751451, "lon": -87.65436}, {"type": "node", "id": 2207262255, "lat": 41.875225, "lon": -87.6597456}, {"type": "node", "id": 2207262259, "lat": 41.875189, "lon": -87.6543922}, {"type": "node", "id": 2242858400, "lat": 41.8642252, "lon": -87.6450831}, {"type": "node", "id": 2242858434, "lat": 41.8642071, "lon": -87.6461313}, {"type": "node", "id": 2281926056, "lat": 41.8577354, "lon": -87.6276442}, {"type": "node", "id": 2281926147, "lat": 41.8577571, "lon": -87.6274962}, {"type": "node", "id": 2397026625, "lat": 41.8699282, "lon": -87.6454906}, {"type": "node", "id": 2412572912, "lat": 41.8730968, "lon": -87.6519023}, {"type": "node", "id": 2412572932, "lat": 41.8730627, "lon": -87.6517502}, {"type": "node", "id": 3239038815, "lat": 41.858141, "lon": -87.6510355, "tags": {"addr:city": "Chicago", "addr:housenumber": "960", "addr:postcode": "60608", "addr:state": "IL", "addr:street": "West 18th Street", "amenity": "bar", "name": "Simone\u2019s", "phone": "+1-312-666-8601", "website": "http://www.simonesbar.com/"}}, {"type": "node", "id": 3407977972, "lat": 41.8535449, "lon": -87.6329633, "tags": {"amenity": "restaurant", "cuisine": "chinese", "name": "Phoenix"}}, {"type": "node", "id": 3407977973, "lat": 41.853519, "lon": -87.6330894, "tags": {"amenity": "cafe", "cuisine": "chinese", "name": "Saint's Alp Teahouse"}}, {"type": "node", "id": 3586159909, "lat": 41.853343, "lon": -87.6350356, "tags": {"amenity": "restaurant", "cuisine": "chinese", "name": "Lao Sze Chuan"}}, {"type": "node", "id": 4226924443, "lat": 41.869633, "lon": -87.6511322}, {"type": "node", "id": 4743570455, "lat": 41.8534252, "lon": -87.6333627, "tags": {"addr:city": "Chicago", "addr:housenumber": "2141", "addr:postcode": "60616", "addr:state": "IL", "addr:street": "South Archer Avenue", "amenity": "restaurant", "cuisine": "japanese", "delivery": "yes", "name": "Strings Ramen", "smoking": "no", "takeaway": "yes"}}, {"type": "node", "id": 4831308139, "lat": 41.8526469, "lon": -87.6330884, "tags": {"addr:city": "Chicago", "addr:housenumber": "225", "addr:postcode": "60616", "addr:state": "IL", "addr:street": "West Cermak Road", "amenity": "restaurant", "name": "Xi'an Cuisine", "phone": "+1-312-326 3171", "website": "www.xiancuisinechicago.com"}}, {"type": "node", "id": 5168234138, "lat": 41.8590939, "lon": -87.6469302, "tags": {"addr:housenumber": "1626", "addr:street": "South Halsted Street", "amenity": "restaurant", "description": "Bib Gourmand recommendation", "name": "DeColores", "phone": "312 226 9886"}}, {"type": "node", "id": 5384474754, "lat": 41.8526305, "lon": -87.6346207, "tags": {"addr:city": "Chicago", "addr:housenumber": "261", "addr:postcode": "60616", "addr:state": "IL", "addr:street": "West Cermak Road", "amenity": "cafe", "brand": "Starbucks", "brand:wikidata": "Q37158", "brand:wikipedia": "en:Starbucks", "cuisine": "coffee_shop", "internet_access": "wlan", "name": "Starbucks", "official_name": "Starbucks Coffee", "smoking": "no", "takeaway": "yes"}}, {"type": "node", "id": 5419560721, "lat": 41.8524362, "lon": -87.6318723, "tags": {"addr:housenumber": "2217", "addr:postcode": "60616", "amenity": "restaurant", "cuisine": "chinese", "name": "Triple Crown Restaurant", "opening_hours": "Mo-Su 09:00-02:00", "phone": "+1 (312) 842-0088", "website": "http://m.triplecrownchicago.com/"}}, {"type": "node", "id": 5571138424, "lat": 41.853545, "lon": -87.6345564, "tags": {"addr:city": "Chicago", "addr:housenumber": "2160", "addr:postcode": "60616", "addr:state": "IL", "addr:street": "South Archer Avenue", "amenity": "restaurant", "name": "Chi Cafe", "opening_hours": "Su-We 08:00-04:00; Th 08:00-00:00; Fr-Sa 00:00-24:00", "phone": "+1-312-842-9993", "website": "https://www.chicafeonline.com/"}}, {"type": "node", "id": 5632900492, "lat": 41.8751653, "lon": -87.6519389}, {"type": "node", "id": 5632900499, "lat": 41.8752939, "lon": -87.6555594}, {"type": "node", "id": 5632908777, "lat": 41.8699299, "lon": -87.6510819}, {"type": "node", "id": 5792383125, "lat": 41.8532798, "lon": -87.6483419, "tags": {"addr:city": "Chicago", "addr:housenumber": "2136", "addr:postcode": "60608", "addr:state": "IL", "addr:street": "South Peoria Street", "amenity": "bar", "name": "Moody Tongue Brewing Company", "phone": "+1-312-6000-5111", "website": "https://moodytongue.com/"}}, {"type": "node", "id": 5919468187, "lat": 41.8522923, "lon": -87.6333552, "tags": {"addr:housenumber": "232", "addr:postcode": "60616", "addr:street": "West 22nd Place", "amenity": "restaurant", "cuisine": "chinese", "internet_access": "wlan", "name": "Gao\u2019s Kabob", "opening_hours": "Mo-Su 17:00-02:00", "phone": "3125263836"}}, {"type": "node", "id": 5992899998, "lat": 41.8530291, "lon": -87.6377591}, {"type": "node", "id": 6041714235, "lat": 41.8564319, "lon": -87.6341962}, {"type": "node", "id": 6041714236, "lat": 41.8571544, "lon": -87.6330097}, {"type": "node", "id": 6041714237, "lat": 41.8570479, "lon": -87.6331526}, {"type": "node", "id": 6041714238, "lat": 41.8572688, "lon": -87.6326281}, {"type": "node", "id": 6041714239, "lat": 41.8573078, "lon": -87.6326347}, {"type": "node", "id": 6041714240, "lat": 41.8572077, "lon": -87.6327895}, {"type": "node", "id": 6041714241, "lat": 41.8573743, "lon": -87.6323057}, {"type": "node", "id": 6041714242, "lat": 41.8573971, "lon": -87.632366}, {"type": "node", "id": 6041714243, "lat": 41.8574562, "lon": -87.6320036}, {"type": "node", "id": 6041714244, "lat": 41.8574919, "lon": -87.6320108}, {"type": "node", "id": 6041714245, "lat": 41.8575316, "lon": -87.6316344}, {"type": "node", "id": 6041714246, "lat": 41.8575742, "lon": -87.6316215}, {"type": "node", "id": 6041714247, "lat": 41.8575864, "lon": -87.6312852}, {"type": "node", "id": 6041714248, "lat": 41.8576348, "lon": -87.6312015}, {"type": "node", "id": 6041714256, "lat": 41.8576412, "lon": -87.6303513}, {"type": "node", "id": 6126907564, "lat": 41.8590227, "lon": -87.6468929, "tags": {"addr:city": "Chicago", "addr:housenumber": "1700", "addr:postcode": "60608", "addr:state": "IL", "addr:street": "South Halsted Street", "amenity": "restaurant", "cuisine": "mexican", "name": "Tacos Palas", "opening_hours": "07:00-21:00"}}, {"type": "node", "id": 6154694740, "lat": 41.8642637, "lon": -87.6466961, "tags": {"addr:city": "Chicago", "addr:housenumber": "1339", "addr:postcode": "60607", "addr:state": "IL", "addr:street": "South Halsted Street", "amenity": "restaurant", "cuisine": "pizza", "name": "Rostati's Pizza"}}, {"type": "node", "id": 6268992795, "lat": 41.8536584, "lon": -87.6349663, "tags": {"addr:city": "Chicago", "addr:housenumber": "2163", "addr:postcode": "60616", "addr:state": "IL", "addr:street": "South China Place", "amenity": "restaurant", "name": "Bonchon - Chinatown Chicago", "phone": "+1-312-877-5832", "website": "https://bonchontogo.com/"}}, {"type": "node", "id": 6282561364, "lat": 41.8513723, "lon": -87.6318549, "tags": {"addr:city": "Chicago", "addr:country": "US", "addr:housenumber": "2253", "addr:postcode": "60616", "addr:state": "IL", "addr:street": "South Wentworth Avenue", "amenity": "restaurant", "name": "Chiu Quon Bakery and Dim Sum", "phone": "+1-312-808-1818", "website": "http://www.cqbakery.com/"}}, {"type": "node", "id": 6284354686, "lat": 41.8532108, "lon": -87.6462872, "tags": {"addr:city": "Chicago", "addr:housenumber": "2133", "addr:postcode": "60608", "addr:state": "IL", "addr:street": "South Halsted Street", "amenity": "bar", "name": "Del Toro", "phone": "+1-312-733-7144", "website": "http://deltorochicago.com/"}}, {"type": "node", "id": 6284701969, "lat": 41.8525597, "lon": -87.6360949, "tags": {"addr:city": "Chicago", "addr:housenumber": "2222", "addr:postcode": "60616", "addr:state": "IL", "addr:street": "South Archer Avenue", "amenity": "restaurant", "name": "Dolo Restaurant and Bar", "phone": "+1-312-877-5117", "website": "http://www.dolorestaurant.com/"}}, {"type": "node", "id": 6286461855, "lat": 41.8551173, "lon": -87.6320961, "tags": {"addr:city": "Chicago", "addr:housenumber": "2002", "addr:postcode": "60616", "addr:state": "IL", "addr:street": "South Wentworth Avenue", "amenity": "cafe", "name": "Elitea", "phone": "+1-312-468-9909", "website": "https://elitea.business.site/"}}, {"type": "node", "id": 6291886315, "lat": 41.8510926, "lon": -87.6325921, "tags": {"addr:city": "Chicago", "addr:housenumber": "212", "addr:postcode": "60616", "addr:state": "IL", "addr:street": "West 23rd Street", "amenity": "restaurant", "name": "Go 4 Food", "phone": "+1-312-842-8688", "website": "https://www.go4foodusa.com/"}}, {"type": "node", "id": 6294285574, "lat": 41.8550842, "lon": -87.6320986, "tags": {"addr:city": "Chicago", "addr:housenumber": "2002", "addr:postcode": "60616", "addr:state": "IL", "addr:street": "South Wentworth Avenue", "amenity": "restaurant", "name": "Hello Jasmine"}}, {"type": "node", "id": 6297526820, "lat": 41.8531462, "lon": -87.6331597, "tags": {"addr:city": "Chicago", "addr:housenumber": "234", "addr:postcode": "60616", "addr:state": "IL", "addr:street": "West Cermak Road", "amenity": "bar", "name": "Sakura Karaoke Bar", "phone": "+1-312-326-9168", "website": "https://www.sakurakaraokebar.com/"}}, {"type": "node", "id": 6300420956, "lat": 41.8531267, "lon": -87.6330669, "tags": {"addr:city": "Chicago", "addr:housenumber": "232", "addr:postcode": "60616", "addr:state": "IL", "addr:street": "West Cermak Road", "amenity": "restaurant", "name": "Pho Cafe", "phone": "+1-312-600-9636", "website": "http://www.phocafechicago.com/"}}, {"type": "node", "id": 6314865975, "lat": 41.8578705, "lon": -87.6427525, "tags": {"addr:city": "Chicago", "addr:housenumber": "618", "addr:postcode": "60616", "addr:state": "IL", "addr:street": "West 18th Street", "amenity": "bar", "name": "Jack\u2019s Place"}}, {"type": "node", "id": 6317101571, "lat": 41.8582313, "lon": -87.6472729, "tags": {"addr:city": "Chicago", "addr:housenumber": "814", "addr:postcode": "60608", "addr:state": "IL", "addr:street": "West 18th Street", "amenity": "restaurant", "name": "Yvolina\u2019s Tamales", "phone": "+1-312-731-3167", "website": "http://www.yvolinas.com/"}}, {"type": "node", "id": 6319021010, "lat": 41.8540741, "lon": -87.6338755, "tags": {"addr:city": "Chicago", "addr:housenumber": "2139", "addr:postcode": "60616", "addr:state": "IL", "addr:street": "South China Place", "amenity": "restaurant", "name": "Joy Yee Noodle", "phone": "+1-312-328-0001", "website": "http://joyyee.com/"}}, {"type": "node", "id": 6319847128, "lat": 41.8543478, "lon": -87.6328364, "tags": {"addr:city": "Chicago", "addr:housenumber": "2126B", "addr:postcode": "60616", "addr:state": "IL", "addr:street": "South Archer Avenue", "amenity": "cafe", "name": "Kung Fu Tea", "opening_hours": "Mo-Th 11:00-20:00; Fr 11:00-21:00; Sa 10:00-21:00; Su 10:00-20:00", "phone": "+1-312-255-7331", "website": "https://www.kungfutea.com/"}}, {"type": "node", "id": 6320260910, "lat": 41.8551501, "lon": -87.6321639, "tags": {"addr:city": "Chicago", "addr:housenumber": "2002", "addr:postcode": "60616", "addr:state": "IL", "addr:street": "South Wentworth Avenue", "amenity": "restaurant", "name": "Qing Xiang Yuan Dumplings", "phone": "+1-312-799-1118", "website": "http://qxydumplings.com/"}}, {"type": "node", "id": 6321621334, "lat": 41.8538972, "lon": -87.63369, "tags": {"addr:city": "Chicago", "addr:housenumber": "2138", "addr:postcode": "60616", "addr:state": "IL", "addr:street": "South Archer Avenue", "amenity": "restaurant", "cuisine": "chinese", "name": "MCCB Chicago", "opening_hours": "Su-Th 11:00-22:00, Fr-Sa 11:00-23:00", "phone": "+1-312-881-0168", "website": "https://www.mccbchicago.com/"}}, {"type": "node", "id": 6321803160, "lat": 41.8537554, "lon": -87.6346426, "tags": {"addr:city": "Chicago", "addr:housenumber": "2157", "addr:postcode": "60616", "addr:state": "Il", "addr:street": "South China Place", "amenity": "cafe", "name": "Saint\u2019s Alp Teahouse & Gourmet", "phone": "+1-312-842-8882", "website": "https://www.saintsalpchicago.com/"}}, {"type": "node", "id": 6321934498, "lat": 41.8551095, "lon": -87.6321741, "tags": {"addr:city": "Chicago", "addr:housenumber": "2002", "addr:postcode": "60616", "addr:state": "IL", "addr:street": "South Wentworth Avenue", "amenity": "restaurant", "name": "Shan Shaan Taste", "phone": "+1-312-375-3122", "website": "http://www.shanshaantaste.com/"}}, {"type": "node", "id": 6324385413, "lat": 41.8533254, "lon": -87.635011, "tags": {"addr:city": "Chicago", "addr:housenumber": "2172", "addr:postcode": "60616", "addr:state": "IL", "addr:street": "South Princeton Avenue", "amenity": "restaurant", "name": "Lao Sze Chuan", "phone": "+1-312-326-5040"}}, {"type": "node", "id": 6342055610, "lat": 41.8586224, "lon": -87.6265725}, {"type": "node", "id": 6342055617, "lat": 41.8577162, "lon": -87.6278998}, {"type": "node", "id": 6342771973, "lat": 41.8576386, "lon": -87.6304957}, {"type": "node", "id": 6342771974, "lat": 41.8576357, "lon": -87.630627}, {"type": "node", "id": 6342771975, "lat": 41.8576332, "lon": -87.6306949}, {"type": "node", "id": 6342771976, "lat": 41.8576215, "lon": -87.6309327}, {"type": "node", "id": 6342771977, "lat": 41.8576269, "lon": -87.6308137}, {"type": "node", "id": 6342771978, "lat": 41.8576165, "lon": -87.6309966}, {"type": "node", "id": 6342771979, "lat": 41.857599, "lon": -87.6311735}, {"type": "node", "id": 6342771980, "lat": 41.8574774, "lon": -87.6319128}, {"type": "node", "id": 6342771981, "lat": 41.8575153, "lon": -87.631729}, {"type": "node", "id": 6342771982, "lat": 41.8575502, "lon": -87.6315303}, {"type": "node", "id": 6342771983, "lat": 41.8575771, "lon": -87.6313473}, {"type": "node", "id": 6342771984, "lat": 41.8565983, "lon": -87.6339156}, {"type": "node", "id": 6342775385, "lat": 41.8564818, "lon": -87.6340677}, {"type": "node", "id": 6342775386, "lat": 41.8567335, "lon": -87.6337152}, {"type": "node", "id": 6342775387, "lat": 41.8566956, "lon": -87.6337758}, {"type": "node", "id": 6342775388, "lat": 41.8567566, "lon": -87.6336796}, {"type": "node", "id": 6342775389, "lat": 41.8567779, "lon": -87.6336468}, {"type": "node", "id": 6342775390, "lat": 41.8568646, "lon": -87.6334994}, {"type": "node", "id": 6342775391, "lat": 41.8568273, "lon": -87.6335658}, {"type": "node", "id": 6342775392, "lat": 41.856887, "lon": -87.6334593}, {"type": "node", "id": 6342775393, "lat": 41.8568475, "lon": -87.6335298}, {"type": "node", "id": 6342775394, "lat": 41.8569066, "lon": -87.6334249}, {"type": "node", "id": 6342775395, "lat": 41.8569727, "lon": -87.6333014}, {"type": "node", "id": 6342775396, "lat": 41.8570107, "lon": -87.6332279}, {"type": "node", "id": 6342775397, "lat": 41.8569513, "lon": -87.6333427}, {"type": "node", "id": 6342775398, "lat": 41.8569906, "lon": -87.6332679}, {"type": "node", "id": 6342775399, "lat": 41.8570256, "lon": -87.633199}, {"type": "node", "id": 6342775400, "lat": 41.8570752, "lon": -87.6330952}, {"type": "node", "id": 6342775401, "lat": 41.8570945, "lon": -87.6330545}, {"type": "node", "id": 6342775402, "lat": 41.8571102, "lon": -87.6330194}, {"type": "node", "id": 6342775403, "lat": 41.8571608, "lon": -87.6329024}, {"type": "node", "id": 6342775404, "lat": 41.8571437, "lon": -87.6329426}, {"type": "node", "id": 6342775405, "lat": 41.8571808, "lon": -87.6328553}, {"type": "node", "id": 6342775406, "lat": 41.8571911, "lon": -87.6328299}, {"type": "node", "id": 6342775407, "lat": 41.8572315, "lon": -87.6327274}, {"type": "node", "id": 6342775408, "lat": 41.8572505, "lon": -87.6326766}, {"type": "node", "id": 6342775409, "lat": 41.8572883, "lon": -87.6325742}, {"type": "node", "id": 6342775410, "lat": 41.8573059, "lon": -87.6325225}, {"type": "node", "id": 6342775411, "lat": 41.8573419, "lon": -87.6324125}, {"type": "node", "id": 6342775412, "lat": 41.8573565, "lon": -87.6323657}, {"type": "node", "id": 6342775413, "lat": 41.8573869, "lon": -87.632262}, {"type": "node", "id": 6342775414, "lat": 41.8574013, "lon": -87.6322113}, {"type": "node", "id": 6342775415, "lat": 41.8574264, "lon": -87.6321209}, {"type": "node", "id": 6342775416, "lat": 41.8574405, "lon": -87.6320659}, {"type": "node", "id": 6342775417, "lat": 41.8574657, "lon": -87.631962}, {"type": "node", "id": 6342775418, "lat": 41.857487, "lon": -87.6318681}, {"type": "node", "id": 6342775419, "lat": 41.8575059, "lon": -87.6317798}, {"type": "node", "id": 6342775420, "lat": 41.8575234, "lon": -87.6316822}, {"type": "node", "id": 6342775421, "lat": 41.8575427, "lon": -87.6315756}, {"type": "node", "id": 6342775422, "lat": 41.8575572, "lon": -87.6314833}, {"type": "node", "id": 6342775423, "lat": 41.8575715, "lon": -87.6313874}, {"type": "node", "id": 6342775424, "lat": 41.8575931, "lon": -87.6312258}, {"type": "node", "id": 6342775425, "lat": 41.8576047, "lon": -87.6311135}, {"type": "node", "id": 6342775426, "lat": 41.8576231, "lon": -87.6308854}, {"type": "node", "id": 6342775427, "lat": 41.8576368, "lon": -87.6305671}, {"type": "node", "id": 6342775428, "lat": 41.8576708, "lon": -87.630625}, {"type": "node", "id": 6342775429, "lat": 41.857675, "lon": -87.6304527}, {"type": "node", "id": 6342775430, "lat": 41.857673, "lon": -87.6305415}, {"type": "node", "id": 6342775431, "lat": 41.8576618, "lon": -87.6308703}, {"type": "node", "id": 6342775432, "lat": 41.8576632, "lon": -87.6308079}, {"type": "node", "id": 6342775433, "lat": 41.8576466, "lon": -87.6310814}, {"type": "node", "id": 6342775434, "lat": 41.8576519, "lon": -87.6310225}, {"type": "node", "id": 6342775435, "lat": 41.8575062, "lon": -87.6319477}, {"type": "node", "id": 6342775436, "lat": 41.8575428, "lon": -87.6317831}, {"type": "node", "id": 6342775437, "lat": 41.8575531, "lon": -87.6317338}, {"type": "node", "id": 6342775438, "lat": 41.8576203, "lon": -87.6313174}, {"type": "node", "id": 6342775439, "lat": 41.8575891, "lon": -87.631527}, {"type": "node", "id": 6342775440, "lat": 41.8575628, "lon": -87.6316833}, {"type": "node", "id": 6342775441, "lat": 41.857519, "lon": -87.6318935}, {"type": "node", "id": 6342775442, "lat": 41.8574314, "lon": -87.6322445}, {"type": "node", "id": 6342775443, "lat": 41.8574166, "lon": -87.6322993}, {"type": "node", "id": 6342775444, "lat": 41.8574731, "lon": -87.6320856}, {"type": "node", "id": 6342775445, "lat": 41.8574839, "lon": -87.6320433}, {"type": "node", "id": 6342775446, "lat": 41.8574623, "lon": -87.6321297}, {"type": "node", "id": 6342775447, "lat": 41.857527, "lon": -87.6318584}, {"type": "node", "id": 6342775448, "lat": 41.8572752, "lon": -87.6327212}, {"type": "node", "id": 6342775449, "lat": 41.8571886, "lon": -87.6329319}, {"type": "node", "id": 6342775450, "lat": 41.8567719, "lon": -87.6337287}, {"type": "node", "id": 6342775451, "lat": 41.8568594, "lon": -87.633585}, {"type": "node", "id": 6342775452, "lat": 41.8567388, "lon": -87.6337801}, {"type": "node", "id": 6342775453, "lat": 41.8566519, "lon": -87.6339066}, {"type": "node", "id": 6342775454, "lat": 41.8565243, "lon": -87.6340795}, {"type": "node", "id": 6342775455, "lat": 41.8566788, "lon": -87.6338671}, {"type": "node", "id": 6342775456, "lat": 41.8565675, "lon": -87.6340229}, {"type": "node", "id": 6342775457, "lat": 41.8565245, "lon": -87.6340141}, {"type": "node", "id": 6342775458, "lat": 41.8566374, "lon": -87.6338621}, {"type": "node", "id": 6342775459, "lat": 41.8566805, "lon": -87.6337986}, {"type": "node", "id": 6343013843, "lat": 41.8538353, "lon": -87.6369782}, {"type": "node", "id": 6343013844, "lat": 41.853968, "lon": -87.6368609}, {"type": "node", "id": 6343013845, "lat": 41.8538859, "lon": -87.6369904}, {"type": "node", "id": 6343013846, "lat": 41.8541748, "lon": -87.6367353}, {"type": "node", "id": 6343013847, "lat": 41.8545711, "lon": -87.6363238}, {"type": "node", "id": 6343013848, "lat": 41.854662, "lon": -87.6362444}, {"type": "node", "id": 6343013849, "lat": 41.8546165, "lon": -87.6362841}, {"type": "node", "id": 6343013850, "lat": 41.8548049, "lon": -87.636104}, {"type": "node", "id": 6343013851, "lat": 41.8548629, "lon": -87.6360433}, {"type": "node", "id": 6343013852, "lat": 41.8549919, "lon": -87.6359056}, {"type": "node", "id": 6343013853, "lat": 41.8551856, "lon": -87.6356786}, {"type": "node", "id": 6343013854, "lat": 41.8552658, "lon": -87.6355807}, {"type": "node", "id": 6343013855, "lat": 41.8559738, "lon": -87.6347056}, {"type": "node", "id": 6343013856, "lat": 41.8552274, "lon": -87.635687}, {"type": "node", "id": 6343013857, "lat": 41.8553298, "lon": -87.6355644}, {"type": "node", "id": 6343013858, "lat": 41.8554508, "lon": -87.6354137}, {"type": "node", "id": 6343013859, "lat": 41.8556946, "lon": -87.635111}, {"type": "node", "id": 6343013860, "lat": 41.8548446, "lon": -87.6361187}, {"type": "node", "id": 6343013861, "lat": 41.8548919, "lon": -87.6360717}, {"type": "node", "id": 6343013862, "lat": 41.855054, "lon": -87.6358958}, {"type": "node", "id": 6343013863, "lat": 41.8549861, "lon": -87.6359719}, {"type": "node", "id": 6343013864, "lat": 41.8550192, "lon": -87.6359338}, {"type": "node", "id": 6343013865, "lat": 41.8549515, "lon": -87.6359491}, {"type": "node", "id": 6343013866, "lat": 41.8550387, "lon": -87.6358527}, {"type": "node", "id": 6343013867, "lat": 41.8551303, "lon": -87.6357444}, {"type": "node", "id": 6343013868, "lat": 41.8547837, "lon": -87.6361789}, {"type": "node", "id": 6343013869, "lat": 41.8546045, "lon": -87.6363522}, {"type": "node", "id": 6343013870, "lat": 41.8546621, "lon": -87.6362983}, {"type": "node", "id": 6343013871, "lat": 41.8545473, "lon": -87.6364035}, {"type": "node", "id": 6366358671, "lat": 41.8741382, "lon": -87.6463662}, {"type": "node", "id": 6366358672, "lat": 41.8742256, "lon": -87.6464115}, {"type": "node", "id": 6366358673, "lat": 41.8742109, "lon": -87.6467369}, {"type": "node", "id": 6663059208, "lat": 41.8546307, "lon": -87.6324354, "tags": {"amenity": "restaurant", "cuisine": "chinese;cantonese;dim_sum", "level": "1", "name": "Cai Restaurant", "opening_hours": "Mo-Fr 09:00-23:00; Sa,Su 08:00-23:00", "phone": "+1-312-326-6888", "website": "http://www.cairestaurant.com/"}}, {"type": "node", "id": 6663059209, "lat": 41.8545887, "lon": -87.6325113, "tags": {"addr:city": "Chicago", "addr:housenumber": "2225", "addr:postcode": "60616", "addr:state": "IL", "addr:street": "South Wentworth Avenue", "amenity": "restaurant", "cuisine": "chinese", "level": "0", "name": "Mayflower Food Inc", "opening_hours": "11:00-01:30", "phone": "+1-312-808-1322", "website": "http://www.mayflowerchinesechicago.com/"}}, {"type": "node", "id": 6663274072, "lat": 41.8536791, "lon": -87.634181, "tags": {"amenity": "restaurant", "cuisine": "bubble_tea", "name": "Bingo Tea", "opening_hours": "Mo Th 12:00-23:00, Fr,Su 11:00-00:30", "phone": "+1-312-328-6668"}}, {"type": "node", "id": 6723254310, "lat": 41.8505912, "lon": -87.6321124, "tags": {"addr:city": "Chicago", "addr:country": "US", "addr:housenumber": "2312", "addr:postcode": "60616", "addr:state": "IL", "addr:street": "South Wentworth Avenue", "amenity": "restaurant", "name": "Seven Treasures Restaurant"}}, {"type": "node", "id": 6779167975, "lat": 41.8749225, "lon": -87.6472949}, {"type": "node", "id": 7282826587, "lat": 41.8751891, "lon": -87.6495149}, {"type": "node", "id": 7282892857, "lat": 41.8751919, "lon": -87.6496031}, {"type": "node", "id": 7509422947, "lat": 41.8753099, "lon": -87.6545869}, {"type": "node", "id": 7511858556, "lat": 41.8641966, "lon": -87.6467374}, {"type": "node", "id": 7511858557, "lat": 41.86477, "lon": -87.6450968}, {"type": "node", "id": 7615474068, "lat": 41.8750061, "lon": -87.647513}, {"type": "way", "id": 56396393, "nodes": [706934723, 705010168, 6342055610, 27607035, 1283483520, 27607036, 1283483715, 27607037, 1283483630, 27607038, 27607039, 2281926147, 2281926056, 27607041, 6342055617, 1283483485, 1283483424, 1283483704, 1283483745, 6342775429, 6342775430, 6342775428, 1283483702, 6342775432, 6342775431, 1283483460, 6342775434, 6342775433, 6041714248, 6342775438, 1283483678, 6342775439, 6041714246, 6342775440, 6342775437, 6342775436, 1283483590, 6342775447, 6342775441, 6342775435, 6041714244, 6342775445, 6342775444, 6342775446, 1283483459, 6342775442, 6342775443, 6041714242, 1283483474, 6041714239, 6342775448, 1283483596, 6342775449, 6041714236, 1283483594, 1283483493, 6342775451, 1283483488, 6342775450, 6342775452, 1283483578, 6342775455, 6342775453, 1283483618, 6342775456, 6342775454, 6041714235, 738165277], "tags": {"bridge": "yes", "electrified": "rail", "frequency": "0", "gauge": "1435", "layer": "2", "name": "Midway Branch", "oneway": "yes", "operator": "Chicago Transit Authority", "railway": "subway", "voltage": "600"}}, {"type": "way", "id": 59520358, "nodes": [738165148, 738165169, 738165170, 738165171, 6343013843, 6343013844, 738165173, 6343013847, 6343013849, 6343013848, 738165175, 6343013850, 6343013851, 738165177, 6343013865, 6343013852, 6343013866, 738165178, 6343013867, 6343013853, 6343013854, 738165179, 6343013855, 738165180, 705009379, 6342775385, 6342775457, 1283483583, 6342771984, 6342775458, 258963194, 6342775459, 6342775387, 6342775386, 6342775388, 6342775389, 1283483637, 6342775391, 6342775393, 6342775390, 6342775392, 6342775394, 258963195, 6342775397, 6342775395, 6342775398, 6342775396, 6342775399, 6041714237, 6342775400, 6342775401, 6342775402, 258963196, 6342775404, 6342775403, 6342775405, 6342775406, 6041714240, 6342775407, 6342775408, 6041714238, 6342775409, 6342775410, 258963197, 6342775411, 6342775412, 6041714241, 6342775413, 6342775414, 258963198, 6342775415, 6342775416, 6041714243, 6342775417, 6342771980, 6342775418, 258963199, 6342775419, 6342771981, 6342775420, 6041714245, 6342775421, 6342771982, 6342775422, 258963200, 6342775423, 6342771983, 6041714247, 6342775424, 6342771979, 6342775425, 258963201, 6342771978, 6342771976, 6342775426, 6342771977, 258963202, 6342771975, 6342771974, 6342775427, 6342771973, 6041714256, 258963204, 258963205], "tags": {"bridge": "yes", "electrified": "rail", "frequency": "0", "gauge": "1435", "layer": "2", "name": "Orange Line", "oneway": "yes", "operator": "Chicago Transit Authority", "railway": "subway", "voltage": "600"}}, {"type": "way", "id": 59520361, "nodes": [738165156, 738165182, 738165183, 738165184, 738165185, 738165186, 738165187, 738165188], "tags": {"electrified": "rail", "frequency": "0", "gauge": "1435", "name": "Orange Line", "old_railway_operator": "AT&SF", "oneway": "yes", "operator": "Chicago Transit Authority", "railway": "subway", "voltage": "600"}}, {"type": "way", "id": 59520388, "nodes": [738165212, 738165211], "tags": {"electrified": "rail", "frequency": "0", "gauge": "1435", "name": "Orange Line", "old_railway_operator": "AT&SF", "oneway": "yes", "operator": "Chicago Transit Authority", "railway": "subway", "voltage": "600"}}, {"type": "way", "id": 59520390, "nodes": [738165188, 738165212], "tags": {"bridge": "yes", "electrified": "rail", "frequency": "0", "gauge": "1435", "layer": "1", "name": "Orange Line", "old_railway_operator": "AT&SF", "oneway": "yes", "operator": "Chicago Transit Authority", "railway": "subway", "voltage": "600"}}, {"type": "way", "id": 59520397, "nodes": [738165227, 738165228, 738165229, 738165230, 738165231, 738165232, 738165233, 738165148], "tags": {"electrified": "rail", "frequency": "0", "gauge": "1435", "name": "Orange Line", "old_railway_operator": "AT&SF", "oneway": "yes", "operator": "Chicago Transit Authority", "railway": "subway", "voltage": "600"}}, {"type": "way", "id": 59520399, "nodes": [738165234, 738165227], "tags": {"bridge": "yes", "electrified": "rail", "frequency": "0", "gauge": "1435", "layer": "1", "name": "Orange Line", "old_railway_operator": "AT&SF", "oneway": "yes", "operator": "Chicago Transit Authority", "railway": "subway", "voltage": "600"}}, {"type": "way", "id": 59520434, "nodes": [738165277, 6343013859, 738165278, 6343013858, 6343013857, 6343013856, 738165279, 6343013862, 6343013864, 6343013863, 738165280, 6343013861, 6343013860, 6343013868, 738165281, 6343013870, 6343013869, 6343013871, 738165282, 6343013846, 6343013845, 738165283, 5992899998, 738165284, 738165156], "tags": {"bridge": "yes", "electrified": "rail", "frequency": "0", "gauge": "1435", "layer": "2", "name": "Orange Line", "oneway": "yes", "operator": "Chicago Transit Authority", "railway": "subway", "voltage": "600"}}, {"type": "way", "id": 210222910, "nodes": [2203198554, 2203198677, 2203198660, 2203198657, 2203198654, 2203198684, 2203198687, 2203198557, 2203198554], "tags": {"addr:city": "Chicago", "addr:housenumber": "2119", "addr:postcode": "60608", "addr:state": "IL", "addr:street": "South Halsted Street", "addr:street:name": "Halsted", "addr:street:prefix": "South", "addr:street:type": "Street", "amenity": "pub", "building": "yes", "building:levels": "4", "chicago:building_id": "384391", "name": "Pleasant House Pub", "phone": "+1-773-523-7437", "shop": "bakery", "website": "http://www.pleasanthousepub.com/"}}, {"type": "way", "id": 210538091, "nodes": [2206208373, 2206208377, 2206208314, 2206208310, 2206208308, 2206208372, 2206208373], "tags": {"addr:city": "Chicago", "addr:housenumber": "2242", "addr:postcode": "60616", "addr:state": "IL", "addr:street": "South Wentworth Avenue", "addr:street:name": "Wentworth", "addr:street:prefix": "South", "addr:street:type": "Avenue", "amenity": "restaurant", "building": "yes", "building:levels": "1", "chicago:building_id": "870623", "name": "Legend Tasty House", "phone": "+1-312-225-8869", "website": "http://www.legendtastyhouse.com/"}}, {"type": "way", "id": 210649421, "nodes": [624842102, 624842100, 1324310267, 1564610532, 1567935487, 1564610597, 1563768183, 1563768280, 1567935483, 1567935392, 1567935613, 1567935437, 1567935428, 1567935598, 1567935379, 1567935611, 1643970061, 1324339868, 4226924443, 1309521523, 1309521533, 5632908777, 1309521528, 1309310753, 1309310795, 1309310786, 1645208835, 1309310830, 1645121278, 1645121508, 1309310769, 1645121392, 1309310772, 1309310781, 1309310834, 1309310791, 1645121523, 2412572932, 2412572912, 1308245862, 2207262135, 2207262136, 2207262255, 5632900499, 7509422947, 2207261995, 2207262259, 2207262178, 2207262112, 5632900492, 1640078314, 7282892857, 7282826587, 1640078316, 1640078326, 1640078310, 1640078325, 1640078305, 7615474068, 6779167975, 1640078309, 1640078313, 1846853878, 1846853875, 6366358673, 6366358672, 6366358671, 1643970081, 1643970052, 1643970072, 1846853872, 1645164035, 2397026625, 1655435366, 258030969, 258030970, 1655435361, 258030971, 258030972, 1655435355, 1655435357, 1655435354, 256618510, 7511858557, 2242858400, 2242858434, 7511858556, 2207262137, 2207262066, 2207262133, 624842118, 624842116, 624842113, 624842102], "tags": {"alt_name": "UIC", "amenity": "university", "education": "university", "ele": "181", "gnis:county_id": "031", "gnis:created": "05/03/1999", "gnis:feature_id": "1837071", "gnis:state_id": "17", "name": "University of Illinois at Chicago", "wikidata": "Q955764", "wikipedia": "en:University of Illinois at Chicago"}}]}