{"version": 0.6, "generator": "Overpass API 0.7.56.3 eb200aeb", "osm3s": {"timestamp_osm_base": "2020-07-21T20:04:03Z", "copyright": "The data included in this document is from www.openstreetmap.org. The data is made available under ODbL."}, "elements": [{"type": "node", "id": 346233089, "lat": 41.9612616, "lon": -87.6835267, "tags": {"amenity": "cafe", "cuisine": "coffee_shop", "name": "Julius Meinl"}}, {"type": "node", "id": 346235240, "lat": 41.9616342, "lon": -87.6766491, "tags": {"amenity": "restaurant", "cuisine": "mexican", "name": "La Amistad"}}, {"type": "node", "id": 347301872, "lat": 41.9547023, "lon": -87.6789343, "tags": {"amenity": "cafe", "brand": "Starbucks", "brand:wikidata": "Q37158", "brand:wikipedia": "en:Starbucks", "cuisine": "coffee_shop", "name": "Starbucks", "official_name": "Starbucks Coffee", "takeaway": "yes"}}, {"type": "node", "id": 414253932, "lat": 41.9605249, "lon": -87.6836882}, {"type": "node", "id": 414253933, "lat": 41.9608674, "lon": -87.6836899}, {"type": "node", "id": 414253934, "lat": 41.9605679, "lon": -87.6833952}, {"type": "node", "id": 1317827212, "lat": 41.9616108, "lon": -87.6796436, "tags": {"amenity": "restaurant", "brand": "Giordano's Pizzeria", "brand:wikidata": "Q5563393", "brand:wikipedia": "en:Giordano's Pizzeria", "cuisine": "pizza", "name": "Giordano's Pizzeria"}}, {"type": "node", "id": 1317862200, "lat": 41.9613426, "lon": -87.67683, "tags": {"amenity": "restaurant", "cuisine": "pizza", "name": "Chicago's Pizza"}}, {"type": "node", "id": 1317862227, "lat": 41.959724, "lon": -87.6828837, "tags": {"addr:city": "Chicago", "addr:housenumber": "4300", "addr:postcode": "60618", "addr:state": "IL", "addr:street": "North Lincoln Avenue", "amenity": "restaurant", "name": "The Bad Apple", "phone": "+1-773-360-8406", "website": "http://www.badapplebar.com/"}}, {"type": "node", "id": 1432788849, "lat": 41.9613167, "lon": -87.6787734, "tags": {"amenity": "restaurant", "name": "Marmalade"}}, {"type": "node", "id": 1432788850, "lat": 41.9610993, "lon": -87.6839782, "tags": {"amenity": "bar", "name": "Tiny Lounge"}}, {"type": "node", "id": 1432788851, "lat": 41.961224, "lon": -87.6839822, "tags": {"amenity": "restaurant", "cuisine": "american", "name": "Monty Gael's"}}, {"type": "node", "id": 1557244581, "lat": 41.959466, "lon": -87.6826489, "tags": {"addr:city": "Chicago", "addr:housenumber": "4264", "addr:postcode": "60618", "addr:state": "IL", "addr:street": "North Lincoln Avenue", "amenity": "bar", "name": "Gannon\u2019s Pub", "phone": "+1-773-281-1007", "website": "http://www.gannonspub.com/"}}, {"type": "node", "id": 1557244593, "lat": 41.9633493, "lon": -87.6853445, "tags": {"addr:city": "Chicago", "addr:housenumber": "4500", "addr:postcode": "60625", "addr:state": "IL", "addr:street": "North Lincoln Avenue", "amenity": "restaurant", "name": "Gideon Welles", "phone": "+1-773-907-2226", "website": "http://gideonchicago.com/"}}, {"type": "node", "id": 1557259859, "lat": 41.9612392, "lon": -87.6840893, "tags": {"amenity": "restaurant", "cuisine": "pizza", "name": "Apart Pizza"}}, {"type": "node", "id": 1719743394, "lat": 41.9637446, "lon": -87.6855507, "tags": {"amenity": "restaurant", "cuisine": "italian", "name": "Due Lire"}}, {"type": "node", "id": 1719743398, "lat": 41.9639939, "lon": -87.685725, "tags": {"addr:city": "Chicago", "addr:housenumber": "4530", "addr:postcode": "60625", "addr:state": "IL", "addr:street": "North Lincoln Avenue", "amenity": "bar", "name": "The Grafton", "phone": "+1-773-271-9000", "website": "https://www.thegrafton.com/"}}, {"type": "node", "id": 2196801934, "lat": 41.9479014, "lon": -87.6887666}, {"type": "node", "id": 2196801942, "lat": 41.9479059, "lon": -87.6885603}, {"type": "node", "id": 2196802912, "lat": 41.9479946, "lon": -87.6887051}, {"type": "node", "id": 2196802925, "lat": 41.9479123, "lon": -87.6885092}, {"type": "node", "id": 2196803265, "lat": 41.9483151, "lon": -87.6881156}, {"type": "node", "id": 2196803268, "lat": 41.9483155, "lon": -87.687941}, {"type": "node", "id": 2196803460, "lat": 41.948379, "lon": -87.6880139}, {"type": "node", "id": 2196803462, "lat": 41.94838, "lon": -87.6879422}, {"type": "node", "id": 2196803476, "lat": 41.9483851, "lon": -87.6881168}, {"type": "node", "id": 2196803481, "lat": 41.948386, "lon": -87.6880304}, {"type": "node", "id": 2196816832, "lat": 41.9536122, "lon": -87.6993319}, {"type": "node", "id": 2196816834, "lat": 41.9536144, "lon": -87.69924}, {"type": "node", "id": 2196816858, "lat": 41.9536295, "lon": -87.6992417}, {"type": "node", "id": 2196816860, "lat": 41.9536307, "lon": -87.6992104}, {"type": "node", "id": 2196817156, "lat": 41.9538331, "lon": -87.6993371}, {"type": "node", "id": 2196817161, "lat": 41.9538352, "lon": -87.6992158}, {"type": "node", "id": 2196852266, "lat": 41.9605686, "lon": -87.6831149}, {"type": "node", "id": 2196852275, "lat": 41.9605716, "lon": -87.6829126}, {"type": "node", "id": 2196852428, "lat": 41.9606238, "lon": -87.6831603}, {"type": "node", "id": 2196852486, "lat": 41.9606386, "lon": -87.6831178}, {"type": "node", "id": 2196852494, "lat": 41.9606407, "lon": -87.6829947}, {"type": "node", "id": 2196852573, "lat": 41.9606681, "lon": -87.6829944}, {"type": "node", "id": 2196852579, "lat": 41.960669, "lon": -87.6829153}, {"type": "node", "id": 2196853939, "lat": 41.9614408, "lon": -87.6909119, "tags": {"amenity": "restaurant", "name": "Cafe Lutz"}}, {"type": "node", "id": 2196861228, "lat": 41.9635517, "lon": -87.6857981}, {"type": "node", "id": 2196861315, "lat": 41.9635772, "lon": -87.6856967}, {"type": "node", "id": 2196861327, "lat": 41.9635814, "lon": -87.6857169}, {"type": "node", "id": 2196861353, "lat": 41.963588, "lon": -87.6856745}, {"type": "node", "id": 2196861408, "lat": 41.9635989, "lon": -87.6856689}, {"type": "node", "id": 2196861414, "lat": 41.9635999, "lon": -87.6858307}, {"type": "node", "id": 2196861551, "lat": 41.9636233, "lon": -87.6856025}, {"type": "node", "id": 2196861555, "lat": 41.9636242, "lon": -87.6857643}, {"type": "node", "id": 2196861579, "lat": 41.963632, "lon": -87.6856851}, {"type": "node", "id": 2196861620, "lat": 41.9636414, "lon": -87.685663}, {"type": "node", "id": 2196861651, "lat": 41.9636485, "lon": -87.6856978}, {"type": "node", "id": 2196861689, "lat": 41.9636566, "lon": -87.685672}, {"type": "node", "id": 2196861772, "lat": 41.9636773, "lon": -87.6854567}, {"type": "node", "id": 2196862158, "lat": 41.9637242, "lon": -87.6854875}, {"type": "node", "id": 2200725964, "lat": 41.9533183, "lon": -87.6780307}, {"type": "node", "id": 2200725966, "lat": 41.9533184, "lon": -87.6780399}, {"type": "node", "id": 2200726016, "lat": 41.9533237, "lon": -87.6777678}, {"type": "node", "id": 2200726082, "lat": 41.9533374, "lon": -87.6777677}, {"type": "node", "id": 2200726089, "lat": 41.9533385, "lon": -87.6777162}, {"type": "node", "id": 2200726345, "lat": 41.9533776, "lon": -87.6780798}, {"type": "node", "id": 2200726468, "lat": 41.9533897, "lon": -87.67803}, {"type": "node", "id": 2200726469, "lat": 41.9533898, "lon": -87.6780484}, {"type": "node", "id": 2200726510, "lat": 41.9533942, "lon": -87.6778572}, {"type": "node", "id": 2200726534, "lat": 41.9533964, "lon": -87.6777671}, {"type": "node", "id": 2200726538, "lat": 41.9533975, "lon": -87.6777174}, {"type": "node", "id": 2200726901, "lat": 41.9534546, "lon": -87.6778602}, {"type": "node", "id": 2200726915, "lat": 41.9534568, "lon": -87.6777701}, {"type": "node", "id": 2200731343, "lat": 41.9543052, "lon": -87.6780942}, {"type": "node", "id": 2200731346, "lat": 41.9543061, "lon": -87.6780041}, {"type": "node", "id": 2200731347, "lat": 41.9543062, "lon": -87.6780206}, {"type": "node", "id": 2200731469, "lat": 41.9543733, "lon": -87.6780052}, {"type": "node", "id": 2200731489, "lat": 41.9543817, "lon": -87.6780198}, {"type": "node", "id": 2200731493, "lat": 41.954383, "lon": -87.6780235}, {"type": "node", "id": 2200731506, "lat": 41.9543875, "lon": -87.6780804}, {"type": "node", "id": 2200731507, "lat": 41.9543876, "lon": -87.6780951}, {"type": "node", "id": 2200731570, "lat": 41.9544132, "lon": -87.678025}, {"type": "node", "id": 2200731577, "lat": 41.9544187, "lon": -87.6780195}, {"type": "node", "id": 2200731594, "lat": 41.9544218, "lon": -87.6780801}, {"type": "node", "id": 2200731596, "lat": 41.9544219, "lon": -87.6780966}, {"type": "node", "id": 2200731601, "lat": 41.9544241, "lon": -87.6780121}, {"type": "node", "id": 2200732005, "lat": 41.9545495, "lon": -87.6781008}, {"type": "node", "id": 2200732012, "lat": 41.9545504, "lon": -87.6780163}, {"type": "node", "id": 2200732013, "lat": 41.9545504, "lon": -87.6780181}, {"type": "node", "id": 2276406961, "lat": 41.9616119, "lon": -87.6787867, "tags": {"addr:city": "Chicago", "addr:housenumber": "1970", "addr:postcode": "60618", "addr:state": "IL", "addr:street": "West Montrose Avenue", "amenity": "restaurant", "cuisine": "New_American", "name": "Fountainhead", "phone": "+1-773-697-8204", "website": "http://fountainheadchicago.com/"}}, {"type": "node", "id": 3011103181, "lat": 41.9546765, "lon": -87.6887215, "tags": {"addr:housenumber": "4018", "addr:street": "North Western Avenue", "amenity": "restaurant", "cuisine": "thai", "name": "Sticky Rice", "opening_hours": "Mo-Sa 11:30-23:00; Su 12:00-22:00", "website": "http://www.stickyricethai.com/"}}, {"type": "node", "id": 3015672019, "lat": 41.9536402, "lon": -87.6991711, "tags": {"amenity": "restaurant", "cuisine": "mexican", "name": "The Famous Taco Burrito"}}, {"type": "node", "id": 3015676165, "lat": 41.954379, "lon": -87.6986616, "tags": {"amenity": "restaurant", "cuisine": "chinese", "name": "Lo's China Kitchen"}}, {"type": "node", "id": 3908971502, "lat": 41.9479967, "lon": -87.6885857}, {"type": "node", "id": 3908971503, "lat": 41.9478809, "lon": -87.68863}, {"type": "node", "id": 3908971505, "lat": 41.947906, "lon": -87.6886272}, {"type": "node", "id": 3908971506, "lat": 41.9479675, "lon": -87.6887728}, {"type": "node", "id": 3908971507, "lat": 41.9479696, "lon": -87.6887027}, {"type": "node", "id": 3908971508, "lat": 41.9479719, "lon": -87.6885784}, {"type": "node", "id": 3908971509, "lat": 41.9478839, "lon": -87.6885711}, {"type": "node", "id": 3908971510, "lat": 41.9479736, "lon": -87.6885143}, {"type": "node", "id": 3952957928, "lat": 41.9545863, "lon": -87.6786069, "tags": {"addr:city": "Chicago", "addr:housenumber": "4011", "addr:postcode": "60618", "addr:state": "IL", "addr:street": "North Damen Avenue", "amenity": "bar", "name": "The Victor Bar", "phone": "+1-773-360-7049", "website": "http://www.thevictorbarchicago.com/"}}, {"type": "node", "id": 5460811043, "lat": 41.9543611, "lon": -87.6801982, "tags": {"addr:city": "Chicago", "addr:housenumber": "2034", "addr:postcode": "60618", "addr:state": "IL", "addr:street": "West Irving Park Road", "amenity": "bar", "name": "Resi\u2019s Bierstube Restaurant", "opening_hours": "Mo-Th 16:00-02:00; Fr 14:00-02:00; Sa 14:00-03:00; Su 14:00-01:00", "phone": "+1-773-472-1749"}}, {"type": "node", "id": 5460917346, "lat": 41.9544424, "lon": -87.6777722, "tags": {"addr:city": "Chicago", "addr:housenumber": "1934", "addr:postcode": "60613", "addr:state": "IL", "addr:street": "West Irving Park Road", "amenity": "bar", "cuisine": "pub;american", "name": "The Globe Pub", "opening_hours": "Mo-Fr 11:00-02:00; Sa 06:00-03:00; Su 07:00-02:00", "phone": "+1-773-871-3757", "website": "http://www.theglobepub.com/"}}, {"type": "node", "id": 5460924648, "lat": 41.9513376, "lon": -87.6769653, "tags": {"addr:city": "Chicago", "addr:housenumber": "3832", "addr:postcode": "60613", "addr:state": "IL", "addr:street": "North Lincoln Avenue", "amenity": "restaurant", "cuisine": "pizza;barbecue;bbq;barbeque;american", "name": "Big Bricks", "opening_hours": "Mo-Th 17:00-23:00; Fr-Sa 11:30-00:00; Su 11:30-23:00", "phone": "+1-773-525-5022", "website": "http://www.bigbrickschicago.com/"}}, {"type": "node", "id": 5861896117, "lat": 41.9608711, "lon": -87.6836122}, {"type": "node", "id": 5861896118, "lat": 41.9605287, "lon": -87.6835098}, {"type": "node", "id": 6269135159, "lat": 41.9533646, "lon": -87.6778752, "tags": {"addr:city": "Chicago", "addr:housenumber": "3937", "addr:postcode": "60613", "addr:state": "IL", "addr:street": "North Lincoln Avenue", "amenity": "bar", "name": "Brownstone Tavern & Grill", "phone": "+1-773-528-3700"}}, {"type": "node", "id": 6280614231, "lat": 41.9538699, "lon": -87.6854312, "tags": {"addr:city": "Chicago", "addr:housenumber": "2245", "addr:postcode": "60618", "addr:state": "IL", "addr:street": "West Irving Park Road", "amenity": "restaurant", "name": "Chayhana", "phone": "+1-773-942-7720", "website": "http://chayhanachicago.com/"}}, {"type": "node", "id": 6283201843, "lat": 41.9539652, "lon": -87.6810058, "tags": {"addr:city": "Chicago", "addr:housenumber": "2059", "addr:postcode": "60618", "addr:state": "IL", "addr:street": "West Irving Park Road", "amenity": "cafe", "name": "Coffee Joint", "phone": "+1-773-629-1725", "website": "https://coffeejoint.com/"}}, {"type": "node", "id": 6285864716, "lat": 41.9535455, "lon": -87.6779861, "tags": {"addr:city": "Chicago", "addr:housenumber": "3941", "addr:postcode": "60613", "addr:state": "IL", "addr:street": "North Lincoln Avenue", "amenity": "restaurant", "name": "El Llano Restaurant - Northcenter", "phone": "+1-773-868-1899", "website": "https://www.llanochicago.com/"}}, {"type": "node", "id": 6292012650, "lat": 41.9515876, "lon": -87.6767514, "tags": {"addr:city": "Chicago", "addr:housenumber": "3839", "addr:postcode": "60613", "addr:state": "IL", "addr:street": "North Lincoln Avenue", "amenity": "bar", "name": "Goldie\u2019s Pub", "phone": "+1-773-404-5322", "website": "http://www.goldiespub.com/"}}, {"type": "node", "id": 6294280332, "lat": 41.9476722, "lon": -87.6956965, "tags": {"addr:city": "Chicago", "addr:housenumber": "3626", "addr:postcode": "60618", "addr:state": "IL", "addr:street": "North Talman Avenue", "amenity": "bar", "name": "Heineken Pub97", "phone": "+1-773-944-1203", "website": "https://www.heinekenpub97.com/"}}, {"type": "node", "id": 6297627326, "lat": 41.9563958, "lon": -87.6799303, "tags": {"addr:city": "Chicago", "addr:housenumber": "4111", "addr:postcode": "60618", "addr:state": "IL", "addr:street": "North Lincoln Avenue", "amenity": "cafe", "name": "Savanna Restaurant", "phone": "+1-872-817-7340"}}, {"type": "node", "id": 6297629547, "lat": 41.9556851, "lon": -87.6801392, "tags": {"addr:city": "Chicago", "addr:housenumber": "4060", "addr:postcode": "60618", "addr:state": "IL", "addr:street": "North Lincoln Avenue", "amenity": "bar", "name": "Save More Lounge", "phone": "+1-773-281-1444"}}, {"type": "node", "id": 6300337645, "lat": 41.9575235, "lon": -87.6813429, "tags": {"addr:city": "Chicago", "addr:housenumber": "4160", "addr:postcode": "60618", "addr:state": "IL", "addr:street": "North Lincoln Avenue", "amenity": "restaurant", "name": "Square Biscuits", "phone": "+1-773-880-1100", "website": "https://www.squarebiscuits.com/"}}, {"type": "node", "id": 6300622085, "lat": 41.9575579, "lon": -87.6814389, "tags": {"addr:city": "Chicago", "addr:housenumber": "4164", "addr:postcode": "60618", "addr:state": "IL", "addr:street": "North Lincoln Avenue", "amenity": "cafe", "name": "Red Eyes Coffee", "phone": "+1-773-327-9478"}}, {"type": "node", "id": 6301050172, "lat": 41.9466297, "lon": -87.6832356, "tags": {"addr:city": "Chicago", "addr:housenumber": "2159", "addr:postcode": "60618", "addr:state": "IL", "addr:street": "West Addison Street", "amenity": "bar", "name": "Roscoe Village Pub", "phone": "+1-773-472-6160", "website": "https://www.roscoevillagepub.com/"}}, {"type": "node", "id": 6301759131, "lat": 41.9546735, "lon": -87.6887916, "tags": {"addr:city": "Chicago", "addr:housenumber": "4018", "addr:postcode": "60618", "addr:state": "IL", "addr:street": "North Western Avenue", "amenity": "restaurant", "name": "Sticky Rice", "phone": "+1-773-588-0133", "website": "http://stickyricethai.com/index10.php"}}, {"type": "node", "id": 6304278992, "lat": 41.9594754, "lon": -87.6821871, "tags": {"addr:city": "Chicago", "addr:housenumber": "4265", "addr:postcode": "60618", "addr:state": "IL", "addr:street": "North Lincoln Avenue", "amenity": "bar", "name": "The Wild Goose Bar & Grill", "phone": "+1-773-281-7112", "website": "https://www.wildgoosebar.com/"}}, {"type": "node", "id": 6317045353, "lat": 41.9616864, "lon": -87.680248, "tags": {"addr:city": "Chicago", "addr:housenumber": "2030-32", "addr:postcode": "60618", "addr:state": "IL", "addr:street": "West Montrose Avenue", "amenity": "restaurant", "name": "XOchimilco Mexican Restaurant", "phone": "+1-773-661-1534", "website": "https://xochimilco-mexican-restaurant-restaurant.business.site/"}}, {"type": "node", "id": 6319357294, "lat": 41.9585383, "lon": -87.6815872, "tags": {"addr:city": "Chicago", "addr:housenumber": "4229", "addr:postcode": "60618", "addr:state": "IL", "addr:street": "North Lincoln Avenue", "amenity": "restaurant", "name": "Kitsune", "phone": "+1-773-687-9179", "website": "https://www.kitsunerestaurant.com/"}}, {"type": "node", "id": 6323003743, "lat": 41.9526882, "lon": -87.6773223, "tags": {"addr:city": "Chicago", "addr:housenumber": "3905", "addr:postcode": "60613", "addr:state": "IL", "addr:street": "North Lincoln Avenue", "amenity": "restaurant", "name": "Mrs. Murphy & Sons Irish Bistro", "phone": "+1-773-248-3905", "website": "https://irishbistro.com/"}}, {"type": "node", "id": 6323640782, "lat": 41.9544889, "lon": -87.6814266, "tags": {"addr:city": "Chicago", "addr:housenumber": "2100", "addr:postcode": "60618", "addr:state": "IL", "addr:street": "West Irving Park Road", "amenity": "bar", "name": "O\u2019Donovan\u2019s", "phone": "+1-773-478-2100", "website": "http://odonovansbar.com/"}}, {"type": "node", "id": 6323788017, "lat": 41.9612918, "lon": -87.678559, "tags": {"addr:city": "Chicago", "addr:housenumber": "1959", "addr:postcode": "60613", "addr:state": "IL", "addr:street": "West Montrose Avenue", "amenity": "bar", "name": "Oakwood 83", "phone": "+1-773-327-2785"}}, {"type": "node", "id": 6476673188, "lat": 41.9480241, "lon": -87.6877664, "tags": {"addr:housenumber": "3643", "amenity": "restaurant", "name": "MOD Pizza", "opening_hours": "Mo-Th 10:00-21:00; Fr 10:00-22:00; Sa 10:30-22:00; Su 10:30-21:00"}}, {"type": "node", "id": 6721955008, "lat": 41.9612586, "lon": -87.6843625, "tags": {"addr:city": "Chicago", "addr:housenumber": "2213", "addr:postcode": "60618", "addr:state": "IL", "addr:street": "West Montrose Avenue", "amenity": "restaurant", "cuisine": "mexican", "name": "Taqueria El Asadero", "phone": "+1-773-583-5563"}}, {"type": "node", "id": 7283923834, "lat": 41.9612491, "lon": -87.6842016, "tags": {"addr:city": "Chicago", "addr:housenumber": "2207", "addr:postcode": "60618", "addr:state": "IL", "addr:street": "West Montrose Ave", "amenity": "restaurant", "description": "Ramen", "name": "Menya Goku", "phone": "773-227-8180"}}, {"type": "way", "id": 35341584, "nodes": [414253932, 414253933, 5861896117, 414253934, 5861896118, 414253932], "tags": {"addr:city": "Chicago", "addr:housenumber": "4340", "addr:postcode": "60618", "addr:street": "North Lincoln Avenue", "amenity": "restaurant", "brand": "Lou Malnati's Pizzeria", "brand:wikidata": "Q6685628", "brand:wikipedia": "en:Lou Malnati's Pizzeria", "building": "yes", "cuisine": "pizza", "name": "Lou Malnati's Pizzeria", "website": "https://www.loumalnatis.com/chicago-lincoln-square-north-center"}}, {"type": "way", "id": 209464598, "nodes": [2196816832, 2196817156, 2196817161, 2196816860, 2196816858, 2196816834, 2196816832], "tags": {"addr:city": "Chicago", "addr:housenumber": "2825", "addr:postcode": "60618", "addr:state": "IL", "addr:street": "West Irving Park Road", "addr:street:name": "Irving Park", "addr:street:prefix": "West", "addr:street:type": "Road", "amenity": "bar", "building": "yes", "chicago:building_id": "153642", "name": "Pete\u2019s Place"}}, {"type": "way", "id": 209465538, "nodes": [2196801934, 3908971506, 3908971507, 2196802912, 3908971502, 3908971508, 3908971510, 2196802925, 2196801942, 3908971509, 3908971503, 3908971505, 2196801934], "tags": {"addr:city": "Chicago", "addr:housenumber": "3640", "addr:postcode": "60618", "addr:state": "IL", "addr:street": "North Western Avenue", "addr:street:name": "Western", "addr:street:prefix": "North", "addr:street:type": "Avenue", "amenity": "cafe", "building": "yes", "chicago:building_id": "174417", "cuisine": "coffee_shop", "name": "Starbucks"}}, {"type": "way", "id": 209465693, "nodes": [2196803265, 2196803476, 2196803481, 2196803460, 2196803462, 2196803268, 2196803265], "tags": {"addr:city": "Chicago", "addr:housenumber": "3655", "addr:postcode": "60618", "addr:state": "IL", "addr:street": "North Western Avenue", "addr:street:name": "Western", "addr:street:prefix": "North", "addr:street:type": "Avenue", "amenity": "restaurant", "building": "yes", "building:levels": "2", "chicago:building_id": "173601", "name": "Reclaimed Bar and Restaurant", "phone": "+1-773-857-0943", "website": "https://www.reclaimedbarandrestaurant.com/"}}, {"type": "way", "id": 209477174, "nodes": [2196852266, 2196852428, 2196852486, 2196852494, 2196852573, 2196852579, 2196852275, 2196852266], "tags": {"addr:city": "Chicago", "addr:housenumber": "4337", "addr:postcode": "60618", "addr:state": "IL", "addr:street": "North Lincoln Avenue", "amenity": "bar", "cuisine": "burger", "name": "The Northman", "phone": "+1-773-935-2255", "website": "https://thenorthman.com/"}}, {"type": "way", "id": 209477625, "nodes": [2196861228, 2196861414, 2196861555, 2196861651, 2196861579, 2196861620, 2196861689, 2196862158, 2196861772, 2196861551, 2196861408, 2196861353, 2196861315, 2196861327, 2196861228], "tags": {"addr:city": "Chicago", "addr:housenumber": "4518", "addr:postcode": "60625", "addr:state": "IL", "addr:street": "North Lincoln Avenue", "addr:street:name": "Lincoln", "addr:street:prefix": "North", "addr:street:type": "Avenue", "amenity": "restaurant", "building": "yes", "building:levels": "2", "chicago:building_id": "119785", "cuisine": "french", "name": "Bistro Campagne", "phone": "+1-773-271-6100", "website": "http://www.bistrocampagne.com/"}}, {"type": "way", "id": 209919006, "nodes": [2200731343, 2200731507, 2200731506, 2200731594, 2200731596, 2200732005, 2200732013, 2200732012, 2200731601, 2200731577, 2200731570, 2200731493, 2200731489, 2200731469, 2200731346, 2200731347, 2200731343], "tags": {"addr:housenumber": "1942", "addr:street": "West Irving Park Road", "addr:street:name": "Irving Park", "addr:street:prefix": "West", "addr:street:type": "Road", "amenity": "restaurant", "building": "yes", "chicago:building_id": "151392", "cuisine": "chinese", "name": "Orange Garden"}}, {"type": "way", "id": 209919476, "nodes": [2200725964, 2200725966, 2200726345, 2200726469, 2200726468, 2200726510, 2200726901, 2200726915, 2200726534, 2200726538, 2200726089, 2200726082, 2200726016, 2200725964], "tags": {"addr:housenumber": "3937", "addr:street": "North Lincoln Avenue", "addr:street:name": "Lincoln", "addr:street:prefix": "North", "addr:street:type": "Avenue", "amenity": "bar", "building": "yes", "chicago:building_id": "154324"}}]}