{"version": 0.6, "generator": "Overpass API 0.7.56.1004 6cd3eaec", "osm3s": {"timestamp_osm_base": "2020-07-22T03:42:02Z", "copyright": "The data included in this document is from www.openstreetmap.org. The data is made available under ODbL."}, "elements": [{"type": "node", "id": 2209007611, "lat": 41.7581557, "lon": -87.6176743}, {"type": "node", "id": 2209007613, "lat": 41.7581566, "lon": -87.6175955}, {"type": "node", "id": 2209007701, "lat": 41.7581984, "lon": -87.6176867}, {"type": "node", "id": 2209007714, "lat": 41.7581997, "lon": -87.6176757}, {"type": "node", "id": 2209007718, "lat": 41.7582005, "lon": -87.6175969}, {"type": "node", "id": 2209007720, "lat": 41.7582018, "lon": -87.617584}, {"type": "node", "id": 2209007851, "lat": 41.7582601, "lon": -87.6176878}, {"type": "node", "id": 2209007853, "lat": 41.7582608, "lon": -87.6175852}, {"type": "node", "id": 2209007865, "lat": 41.7582696, "lon": -87.6176639}, {"type": "node", "id": 2209007866, "lat": 41.7582706, "lon": -87.6176089}, {"type": "node", "id": 2209007867, "lat": 41.7582721, "lon": -87.6176364}, {"type": "node", "id": 5466051563, "lat": 41.7582333, "lon": -87.6180284, "tags": {"addr:city": "Chicago", "addr:housenumber": "307", "addr:postcode": "60619", "addr:state": "IL", "addr:street": "East 75th Street", "amenity": "bar", "name": "Frances' Cocktail Lounge"}}, {"type": "node", "id": 6050577208, "lat": 41.7558916, "lon": -87.6055361, "tags": {"addr:city": "Chicago", "addr:housenumber": "7628", "addr:postcode": "60619", "addr:state": "IL", "addr:street": "South Cottage Grove Avenue", "amenity": "bar", "name": "Murphy's Lounge"}}, {"type": "node", "id": 6154664271, "lat": 41.7581061, "lon": -87.6055383, "tags": {"addr:city": "Chicago", "addr:housenumber": "7512", "addr:postcode": "60619", "addr:state": "IL", "addr:street": "South Cottage Grove Avenue", "amenity": "bar", "name": "Randy's Lounge"}}, {"type": "node", "id": 6300512910, "lat": 41.7583443, "lon": -87.6082472, "tags": {"addr:city": "Chicago", "addr:housenumber": "653", "addr:postcode": "60619", "addr:state": "IL", "addr:street": "East 75th Street", "amenity": "bar", "name": "President\u2019s Lounge", "phone": "+1-773-874-1212"}}, {"type": "way", "id": 210862949, "nodes": [2209007611, 2209007714, 2209007701, 2209007851, 2209007865, 2209007867, 2209007866, 2209007853, 2209007720, 2209007718, 2209007613, 2209007611], "tags": {"addr:city": "Chicago", "addr:housenumber": "311", "addr:postcode": "60619", "addr:state": "IL", "addr:street": "East 75th Street", "addr:street:name": "75th", "addr:street:prefix": "East", "addr:street:type": "Street", "amenity": "restaurant", "building": "yes", "building:levels": "1", "chicago:building_id": "595299", "cuisine": "barbecue", "name": "Lem's Bar-B-Q", "website": "http://www.lemsbarbq.com/"}}]}