{"version": 0.6, "generator": "Overpass API 0.7.56.3 eb200aeb", "osm3s": {"timestamp_osm_base": "2020-07-20T22:16:02Z", "copyright": "The data included in this document is from www.openstreetmap.org. The data is made available under ODbL."}, "elements": [{"type": "node", "id": 1786793073, "lat": 41.8994722, "lon": -87.6969571, "tags": {"addr:city": "Chicago", "addr:housenumber": "1002", "addr:postcode": "60622", "addr:state": "IL", "addr:street": "North California Avenue", "amenity": "bar", "name": "California Clipper", "phone": "+1-773-384-2547", "website": "http://californiaclipper.com/", "wikidata": "Q42539292"}}, {"type": "node", "id": 3570191046, "lat": 41.9128303, "lon": -87.6972374, "tags": {"amenity": "restaurant", "cuisine": "puerto_rican", "name": "El Nuevo Borinquen"}}, {"type": "node", "id": 3581811866, "lat": 41.9107207, "lon": -87.7070256, "tags": {"amenity": "restaurant", "cuisine": "sushi", "name": "Zoku Sushi"}}, {"type": "node", "id": 3581811869, "lat": 41.9098615, "lon": -87.7134735, "tags": {"addr:city": "Chicago", "addr:housenumber": "3437", "addr:postcode": "60651", "addr:state": "IL", "addr:street": "West North Avenue", "amenity": "restaurant", "name": "La Encantada", "phone": "+1-773-489-5026", "website": "https://www.laencantadashoppingcenter.com/"}}, {"type": "node", "id": 3664687674, "lat": 41.9055766, "lon": -87.7006028, "tags": {"addr:city": "Chicago", "addr:housenumber": "1301", "addr:postcode": "60622", "addr:state": "IL", "addr:street": "North Humboldt Drive", "amenity": "cafe", "name": "The Boathouse Cafe", "phone": "+1-312-838-6205"}}, {"type": "node", "id": 3673559735, "lat": 41.9103602, "lon": -87.7013592, "tags": {"addr:city": "Chicago", "addr:housenumber": "2958", "addr:postcode": "60647", "addr:state": "IL", "addr:street": "West North Avenue", "amenity": "restaurant", "name": "Humboldt Haus", "phone": "+1-773-697-9590"}}, {"type": "node", "id": 3673564376, "lat": 41.9103428, "lon": -87.703029, "tags": {"addr:city": "Chicago", "addr:housenumber": "3018", "addr:postcode": "60647", "addr:state": "IL", "addr:street": "West North Avenue", "amenity": "bar", "name": "Humble Bar & Lounge", "phone": "+1-773-661-2419"}}, {"type": "node", "id": 3908762561, "lat": 41.8993899, "lon": -87.6970785, "tags": {"addr:city": "Chicago", "addr:country": "US", "addr:housenumber": "2806", "addr:postcode": "60622", "addr:state": "IL", "addr:street": "West Augusta Boulevard", "amenity": "cafe", "name": "CC Ferns Coffee Bar & Spirits", "phone": "+1-773-384-2547", "website": "http://ccferns.com/"}}, {"type": "node", "id": 4039273390, "lat": 41.9135894, "lon": -87.6972582, "tags": {"addr:city": "Chicago", "addr:country": "US", "addr:housenumber": "1752", "addr:postcode": "60647", "addr:state": "IL", "addr:street": "North California Avenue", "amenity": "cafe", "name": "Donut Delight"}}, {"type": "node", "id": 4499383715, "lat": 41.9099427, "lon": -87.7090096, "tags": {"amenity": "restaurant", "cuisine": "mexican", "name": "La Perla Tapatia"}}, {"type": "node", "id": 5794904574, "lat": 41.909773, "lon": -87.7071905, "tags": {"addr:city": "Chicago", "addr:housenumber": "1552", "addr:postcode": "60651", "addr:state": "IL", "addr:street": "North Kedzie Avenue", "amenity": "restaurant", "cuisine": "colombian", "delivery": "yes", "name": "ArePA George", "opening_hours": "Tu-Fr 11:00-19:00; Sa 11:00-20:00; Su 11:00-16:00", "outdoor_seating": "no", "phone": "+1-773-969-7945", "smoking": "no", "takeaway": "yes"}}, {"type": "node", "id": 6284447675, "lat": 41.899387, "lon": -87.6995161, "tags": {"addr:city": "Chicago", "addr:housenumber": "1000", "addr:postcode": "60622", "addr:state": "IL", "addr:street": "North Francisco Avenue", "amenity": "restaurant", "name": "Diana\u2019s Food & Restaurant", "phone": "+1-773-235-9218"}}, {"type": "node", "id": 6300304352, "lat": 41.899407, "lon": -87.6971852, "tags": {"addr:city": "Chicago", "addr:housenumber": "1000", "addr:postcode": "60622", "addr:state": "IL", "addr:street": "North California Avenue", "amenity": "cafe", "name": "Spinning J", "phone": "+1-872-829-2793", "website": "http://www.spinningj.com/"}}, {"type": "node", "id": 6301042528, "lat": 41.8990442, "lon": -87.6969506, "tags": {"addr:city": "Chicago", "addr:housenumber": "954", "addr:postcode": "60622", "addr:state": "IL", "addr:street": "North California Avenue", "amenity": "bar", "name": "Rootstock Wine & Beer Bar", "phone": "+1-773-292-1616", "website": "https://www.rootstockbar.com/"}}, {"type": "node", "id": 6301752863, "lat": 41.9102381, "lon": -87.7151597, "tags": {"addr:city": "Chicago", "addr:housenumber": "3524", "addr:postcode": "60647", "addr:state": "IL", "addr:street": "West North Avenue", "amenity": "bar", "name": "Steve\u2019s Sports Bar & Lounge", "phone": "+1-773-384-2778"}}, {"type": "node", "id": 6320092758, "lat": 41.9057749, "lon": -87.7119373, "tags": {"addr:city": "Chicago", "addr:housenumber": "1340", "addr:postcode": "60651", "addr:state": "IL", "addr:street": "North Homan Avenue", "amenity": "restaurant", "name": "La Palma Puerto Rican Restaurant", "phone": "+1-773-862-0886", "website": "http://ww5.lapalmarestaurant.com/"}}]}