{"version": 0.6, "generator": "Overpass API 0.7.56.3 eb200aeb", "osm3s": {"timestamp_osm_base": "2020-07-04T03:06:02Z", "copyright": "The data included in this document is from www.openstreetmap.org. The data is made available under ODbL."}, "elements": [{"type": "node", "id": 846810579, "lat": 41.8993137, "lon": -87.6818666, "tags": {"addr:city": "Chicago", "addr:housenumber": "957", "addr:postcode": "60622", "addr:state": "IL", "addr:street": "North Leavitt Street", "amenity": "bar", "name": "J&M Tap", "phone": "+1-773-235-0499", "website": "https://www.jmtap.com/"}}, {"type": "node", "id": 1786793062, "lat": 41.8994033, "lon": -87.6965093, "tags": {"addr:city": "Chicago", "addr:housenumber": "1001", "addr:postcode": "60622", "addr:state": "IL", "addr:street": "North California Avenue", "amenity": "cafe", "name": "Cafe Marie-Jeanne", "phone": "+1-773-904-7660", "website": "http://www.cafe-marie-jeanne.com/"}}, {"type": "node", "id": 1786793073, "lat": 41.8994722, "lon": -87.6969571, "tags": {"addr:city": "Chicago", "addr:housenumber": "1002", "addr:postcode": "60622", "addr:state": "IL", "addr:street": "North California Avenue", "amenity": "bar", "name": "California Clipper", "phone": "+1-773-384-2547", "website": "http://californiaclipper.com/", "wikidata": "Q42539292"}}, {"type": "node", "id": 1786793076, "lat": 41.8987428, "lon": -87.686696, "tags": {"addr:city": "Chicago", "addr:housenumber": "939", "addr:postcode": "60622", "addr:state": "IL", "addr:street": "North Western Avenue", "amenity": "cafe", "name": "Cafe Ballou", "phone": "+1-773-661-2114"}}, {"type": "node", "id": 1786793079, "lat": 41.897642, "lon": -87.6919568, "tags": {"addr:city": "Chicago", "addr:housenumber": "2600", "addr:postcode": "60622", "addr:state": "IL", "addr:street": "West Iowa Street", "amenity": "bar", "name": "Archie's", "phone": "+1-872-206-5119", "wifi": "no"}}, {"type": "node", "id": 2196100859, "lat": 41.9005157, "lon": -87.6966727}, {"type": "node", "id": 2196100869, "lat": 41.9005181, "lon": -87.6964112}, {"type": "node", "id": 2196100913, "lat": 41.9005473, "lon": -87.6963896}, {"type": "node", "id": 2196100915, "lat": 41.9005474, "lon": -87.6964116}, {"type": "node", "id": 2196101394, "lat": 41.9005726, "lon": -87.6965032}, {"type": "node", "id": 2196101395, "lat": 41.9005728, "lon": -87.6965307}, {"type": "node", "id": 2196101452, "lat": 41.9005846, "lon": -87.6966739}, {"type": "node", "id": 2196101455, "lat": 41.9005851, "lon": -87.6965325}, {"type": "node", "id": 2196101458, "lat": 41.9005863, "lon": -87.6965031}, {"type": "node", "id": 2196101461, "lat": 41.9005871, "lon": -87.696391}, {"type": "node", "id": 2196110741, "lat": 41.9030759, "lon": -87.6956077}, {"type": "node", "id": 2196110744, "lat": 41.9030768, "lon": -87.6955287}, {"type": "node", "id": 2196110833, "lat": 41.9031191, "lon": -87.6909479}, {"type": "node", "id": 2196110839, "lat": 41.9031207, "lon": -87.6908429}, {"type": "node", "id": 2196110875, "lat": 41.9031372, "lon": -87.688657}, {"type": "node", "id": 2196110876, "lat": 41.9031382, "lon": -87.688578}, {"type": "node", "id": 2196110988, "lat": 41.9032316, "lon": -87.6909483}, {"type": "node", "id": 2196111001, "lat": 41.9032332, "lon": -87.6908454}, {"type": "node", "id": 2196111201, "lat": 41.9033435, "lon": -87.6956142}, {"type": "node", "id": 2196111203, "lat": 41.9033444, "lon": -87.6955353}, {"type": "node", "id": 2196111223, "lat": 41.9033705, "lon": -87.6886639}, {"type": "node", "id": 2196111225, "lat": 41.9033715, "lon": -87.6885849}, {"type": "node", "id": 2200128605, "lat": 41.9032797, "lon": -87.6813653}, {"type": "node", "id": 2200128606, "lat": 41.9032811, "lon": -87.6812716}, {"type": "node", "id": 2200128905, "lat": 41.9034915, "lon": -87.6813701}, {"type": "node", "id": 2200128910, "lat": 41.9034935, "lon": -87.6812764}, {"type": "node", "id": 2789533723, "lat": 41.9018656, "lon": -87.6966658, "tags": {"addr:city": "Chicago", "addr:housenumber": "1123", "addr:postcode": "60622", "addr:state": "IL", "addr:street": "North California Avenue", "amenity": "restaurant", "name": "Flying Saucer", "phone": "+1-773-342-9076", "wheelchair": "no"}}, {"type": "node", "id": 3575021393, "lat": 41.9006069, "lon": -87.6867497, "tags": {"addr:city": "Chicago", "addr:housenumber": "1039", "addr:postcode": "60622", "addr:state": "IL", "addr:street": "North Western Avenue", "amenity": "restaurant", "name": "Bite Cafe"}}, {"type": "node", "id": 3575025688, "lat": 41.8998468, "lon": -87.6871843, "tags": {"addr:city": "Chicago", "addr:housenumber": "1012", "addr:postcode": "60622", "addr:state": "IL", "addr:street": "North Western Avenue", "amenity": "restaurant", "name": "Boeufhaus", "phone": "+1-773-661-2116", "website": "http://www.boeufhaus.com/"}}, {"type": "node", "id": 3575025689, "lat": 41.8989825, "lon": -87.6872868, "tags": {"addr:city": "Chicago", "addr:housenumber": "948", "addr:postcode": "60622", "addr:state": "IL", "addr:street": "North Western Avenue", "amenity": "bar", "name": "Sportsman's Club", "phone": "+1-872-206-8054", "website": "https://drinkingandgathering.com/"}}, {"type": "node", "id": 3575025690, "lat": 41.8986011, "lon": -87.6866989, "tags": {"amenity": "bar", "name": "Stella's Tap"}}, {"type": "node", "id": 3575070893, "lat": 41.9032845, "lon": -87.6816046, "tags": {"addr:city": "Chicago", "addr:housenumber": "2124", "addr:postcode": "60622", "addr:state": "IL", "addr:street": "West Division Street", "amenity": "restaurant", "cuisine": "italian", "name": "Enoteca Roma Ristorante", "phone": "+1-773-772-7700", "website": "http://www.superyummy.us/enotecaroma/"}}, {"type": "node", "id": 3575070894, "lat": 41.9032905, "lon": -87.681508, "tags": {"addr:city": "Chicago", "addr:housenumber": "2144", "addr:postcode": "60622", "addr:state": "IL", "addr:street": "West Division Street", "amenity": "cafe", "name": "Letizia's Natural Bakery", "website": "http://fsorano.wix.com/letiziasbakery-the-original"}}, {"type": "node", "id": 3575084300, "lat": 41.8972953, "lon": -87.6866638, "tags": {"addr:city": "Chicago", "addr:housenumber": "853", "addr:postcode": "60622", "addr:state": "IL", "addr:street": "North Western Avenue", "amenity": "bar", "name": "Blind Robin", "phone": "+1-773-395-3002", "website": "http://theblindrobin.com/"}}, {"type": "node", "id": 3575120598, "lat": 41.910214, "lon": -87.6853111, "tags": {"addr:city": "Chicago", "addr:housenumber": "2311", "addr:postcode": "60647", "addr:state": "IL", "addr:street": "West North Avenue", "amenity": "restaurant", "diet:vegan": "yes", "diet:vegetarian": "only", "name": "Handlebar", "opening_hours": "Mo-Su 10:00-01:00", "phone": "+1-773-384-9546", "website": "https://www.handlebarchicago.com/"}}, {"type": "node", "id": 3575120599, "lat": 41.9104695, "lon": -87.68575, "tags": {"amenity": "restaurant", "cuisine": "thai", "name": "Thai Lagoon"}}, {"type": "node", "id": 3575120600, "lat": 41.9101455, "lon": -87.6881071, "tags": {"addr:city": "Chicago", "addr:housenumber": "2421", "addr:postcode": "60647", "addr:state": "IL", "addr:street": "West North Avenue", "amenity": "restaurant", "cuisine": "indian", "delivery": "yes", "name": "Rangoli", "phone": "+1-773-697-7114", "takeaway": "yes", "website": "http://rangolifeast.com/"}}, {"type": "node", "id": 3652955076, "lat": 41.9101567, "lon": -87.6878456, "tags": {"amenity": "restaurant", "name": "China Station"}}, {"type": "node", "id": 3659172691, "lat": 41.9100888, "lon": -87.6938521, "tags": {"addr:city": "Chicago", "addr:housenumber": "2465", "addr:postcode": "60622", "addr:state": "IL", "addr:street": "West North Avenue", "amenity": "bar", "name": "Boulevard Sports Lounge", "phone": "+1-773-687-8456", "website": "http://www.boulevardsportslounge.com/"}}, {"type": "node", "id": 3659172692, "lat": 41.910114, "lon": -87.6927745, "tags": {"amenity": "cafe", "name": "Se\u00f1or Pan Cafe"}}, {"type": "node", "id": 3660358397, "lat": 41.9101245, "lon": -87.6901188, "tags": {"amenity": "pub", "name": "West On North"}}, {"type": "node", "id": 3675060651, "lat": 41.9065532, "lon": -87.6868969, "tags": {"addr:city": "Chicago", "addr:housenumber": "1357", "addr:postcode": "60622", "addr:state": "IL", "addr:street": "North Western Avenue", "amenity": "restaurant", "cuisine": "american;breakfast;brunch", "name": "Hash Chicago", "opening_hours": "Su-Mo 08:00-15:00; We-Sa 08:00-15:00", "phone": "+1-773-661-2964", "website": "https://www.hashchicago.com/"}}, {"type": "node", "id": 3908762561, "lat": 41.8993899, "lon": -87.6970785, "tags": {"addr:city": "Chicago", "addr:country": "US", "addr:housenumber": "2806", "addr:postcode": "60622", "addr:state": "IL", "addr:street": "West Augusta Boulevard", "amenity": "cafe", "name": "CC Ferns Coffee Bar & Spirits", "phone": "+1-773-384-2547", "website": "http://ccferns.com/"}}, {"type": "node", "id": 4130928514, "lat": 41.902948, "lon": -87.6807433, "tags": {"addr:city": "Chicago", "addr:housenumber": "2125", "addr:postcode": "60622", "addr:state": "IL", "addr:street": "West Division Street", "amenity": "bar", "name": "Queen Mary Tavern", "phone": "+1-773-697-3522", "website": "https://www.queenmarytavern.com/"}}, {"type": "node", "id": 4363752189, "lat": 41.9023766, "lon": -87.6967084, "tags": {"addr:city": "Chicago", "addr:housenumber": "1143", "addr:postcode": "60622", "addr:state": "IL", "addr:street": "North California Avenue", "amenity": "restaurant", "cuisine": "american", "name": "Bullhead Cantina", "name:en": "Bullhead Cantina", "phone": "+1-773-250-0567", "website": "http://bullheadcantina.com/"}}, {"type": "node", "id": 4599123098, "lat": 41.8992629, "lon": -87.6867058, "tags": {"addr:city": "Chicago", "addr:housenumber": "959", "addr:postcode": "60622", "addr:state": "IL", "addr:street": "North Western Avenue", "amenity": "restaurant", "cuisine": "american", "name": "Leghorn Chicken", "website": "http://www.leghornchicken.com"}}, {"type": "node", "id": 4697800145, "lat": 41.9031227, "lon": -87.6935215, "tags": {"addr:city": "Chicago", "addr:housenumber": "2638", "addr:postcode": "60622", "addr:state": "IL", "addr:street": "West Division Street", "amenity": "cafe", "name": "Caf\u00e9 Colao", "phone": "+1-773-799-8454", "website": "https://www.cafecolaochicago.com/"}}, {"type": "node", "id": 4724858615, "lat": 41.8982098, "lon": -87.6866754, "tags": {"addr:city": "Chicago", "addr:housenumber": "921", "addr:postcode": "60622", "addr:state": "IL", "addr:street": "North Western Avenue", "amenity": "bar", "name": "EZ Inn", "opening_hours": "Su-Fr 17:00-02:00; Sa 17:00-03:00", "phone": "+1-773-698-7372", "website": "http://www.ez-inn.com"}}, {"type": "node", "id": 6249982165, "lat": 41.9101156, "lon": -87.6927943, "tags": {"addr:city": "Chicago", "addr:housenumber": "2615", "addr:postcode": "60647", "addr:state": "IL", "addr:street": "West North Avenue", "amenity": "restaurant", "cuisine": "cuban", "name": "1492 Cuban Fusion", "phone": "+1-773 227-9601", "website": "http://1492cubanfusion.com/"}}, {"type": "node", "id": 6269184366, "lat": 41.9100775, "lon": -87.6900295, "tags": {"addr:city": "Chicago", "addr:housenumber": "2507", "addr:postcode": "60647", "addr:state": "IL", "addr:street": "West North Avenue", "amenity": "restaurant", "name": "Bulerias Tapas Bar", "phone": "+1-773-404-2855", "website": "http://www.buleriastapas.com/"}}, {"type": "node", "id": 6284020693, "lat": 41.9101324, "lon": -87.6880221, "tags": {"addr:city": "Chicago", "addr:housenumber": "2415", "addr:postcode": "60647", "addr:state": "IL", "addr:street": "West North Avenue", "amenity": "restaurant", "name": "Cup & Spoon", "phone": "+1-773-697-4421", "website": "http://www.cupandspoonchicago.com/"}}, {"type": "node", "id": 6294262005, "lat": 41.9027426, "lon": -87.6904806, "tags": {"addr:city": "Chicago", "addr:housenumber": "2525", "addr:postcode": "60622", "addr:state": "IL", "addr:street": "West Division Street", "amenity": "restaurant", "name": "The Chicago Teachers\u2019 Lounge & Eatery", "phone": "+1-773-366-8700", "website": "https://www.thechicagoteacherslounge.com/"}}, {"type": "node", "id": 6300304352, "lat": 41.899407, "lon": -87.6971852, "tags": {"addr:city": "Chicago", "addr:housenumber": "1000", "addr:postcode": "60622", "addr:state": "IL", "addr:street": "North California Avenue", "amenity": "cafe", "name": "Spinning J", "phone": "+1-872-829-2793", "website": "http://www.spinningj.com/"}}, {"type": "node", "id": 6300782077, "lat": 41.8989745, "lon": -87.6865757, "tags": {"addr:city": "Chicago", "addr:housenumber": "949", "addr:postcode": "60622", "addr:state": "IL", "addr:street": "North Western Avenue", "amenity": "restaurant", "name": "Salsa Picante", "phone": "+1-773-904-8406", "website": "http://www.salsapicante949.com/"}}, {"type": "node", "id": 6301042528, "lat": 41.8990442, "lon": -87.6969506, "tags": {"addr:city": "Chicago", "addr:housenumber": "954", "addr:postcode": "60622", "addr:state": "IL", "addr:street": "North California Avenue", "amenity": "bar", "name": "Rootstock Wine & Beer Bar", "phone": "+1-773-292-1616", "website": "https://www.rootstockbar.com/"}}, {"type": "node", "id": 6301103471, "lat": 41.9101746, "lon": -87.6846028, "tags": {"addr:city": "Chicago", "addr:housenumber": "2257", "addr:postcode": "60647", "addr:state": "IL", "addr:street": "West North Avenue", "amenity": "restaurant", "name": "Runa Japanese", "phone": "+1-773-278-8887", "website": "http://www.runajapanesechicago.com/"}}, {"type": "node", "id": 6301725940, "lat": 41.8986252, "lon": -87.6866105, "tags": {"addr:city": "Chicago", "addr:housenumber": "935", "addr:postcode": "60622", "addr:state": "IL", "addr:street": "West Walton Street", "amenity": "bar", "name": "Stella\u2019s Sports Bar", "phone": "+1-773-384-0077"}}, {"type": "node", "id": 6315209496, "lat": 41.9004807, "lon": -87.6866529, "tags": {"addr:city": "Chicago", "addr:housenumber": "1035", "addr:postcode": "60622", "addr:state": "IL", "addr:street": "North Western Avenue", "amenity": "bar", "name": "The Empty Bottle", "phone": "+1-773-276-3600", "website": "http://emptybottle.com/"}}, {"type": "node", "id": 6319207395, "lat": 41.9028804, "lon": -87.6808451, "tags": {"addr:city": "Chicago", "addr:housenumber": "2127", "addr:postcode": "60622", "addr:state": "IL", "addr:street": "West Division Street", "amenity": "cafe", "name": "Kanela Breakfast Club", "phone": "+1-773-362-5052", "website": "http://www.kanelabreakfastclub.com/"}}, {"type": "node", "id": 6319774899, "lat": 41.910295, "lon": -87.6803201, "tags": {"addr:city": "Chicago", "addr:housenumber": "2101", "addr:postcode": "60647", "addr:state": "IL", "addr:street": "West North Avenue", "amenity": "restaurant", "name": "Knead", "phone": "+1-773-974-6004", "website": "https://kneadpizzas.com/"}}, {"type": "node", "id": 6320597249, "lat": 41.9001764, "lon": -87.6873202, "tags": {"addr:city": "Chicago", "addr:housenumber": "1024", "addr:postcode": "60622", "addr:state": "IL", "addr:street": "North Western Avenue", "amenity": "restaurant", "name": "Lockdown Bar & Grill", "phone": "+1-773-451-5625", "website": "http://www.lockdownbar.com/"}}, {"type": "node", "id": 6320599857, "lat": 41.9001086, "lon": -87.6872894, "tags": {"addr:city": "Chicago", "addr:housenumber": "1022", "addr:postcode": "60622", "addr:state": "IL", "addr:street": "North Western Avenue", "amenity": "restaurant", "name": "Lockdown Smoked", "phone": "+1-773-270-5987"}}, {"type": "node", "id": 6323063285, "lat": 41.9033048, "lon": -87.689323, "tags": {"addr:city": "Chicago", "addr:housenumber": "2458", "addr:postcode": "60622", "addr:state": "IL", "addr:street": "West Division Street", "amenity": "restaurant", "name": "Nellie\u2019s", "phone": "+1-773-252-5520", "website": "https://www.nelliesrestaurant.com/"}}, {"type": "node", "id": 6324324927, "lat": 41.902745, "lon": -87.6902284, "tags": {"addr:city": "Chicago", "addr:housenumber": "2517", "addr:postcode": "60622", "addr:state": "IL", "addr:street": "West Division Street", "amenity": "restaurant", "name": "Papa\u2019s Cache Sabroso", "phone": "+1-773-862-8313", "website": "http://www.papascache.com/"}}, {"type": "node", "id": 6459369044, "lat": 41.9102472, "lon": -87.6828793, "tags": {"addr:city": "Chicago", "addr:housenumber": "2211", "addr:postcode": "60647", "addr:state": "IL", "addr:street": "West North Avenue", "amenity": "restaurant", "cuisine": "filipino", "name": "Cebu", "phone": "+1-773-799-8650", "website": "https://cebuchicago.com"}}, {"type": "way", "id": 209388381, "nodes": [2196100869, 2196100859, 2196101452, 2196101455, 2196101395, 2196101394, 2196101458, 2196101461, 2196100913, 2196100915, 2196100869], "tags": {"addr:city": "Chicago", "addr:housenumber": "1043", "addr:postcode": "60622", "addr:state": "IL", "addr:street": "North California Avenue", "addr:street:name": "California", "addr:street:prefix": "North", "addr:street:type": "Avenue", "amenity": "bar", "building": "yes", "building:levels": "2", "chicago:building_id": "867167", "name": "Lucy\u2019s", "phone": "+1-312-675-8385", "website": "http://www.lucyschicago.com/"}}, {"type": "way", "id": 209390013, "nodes": [2196110875, 2196111223, 2196111225, 2196110876, 2196110875], "tags": {"addr:housenumber": "2438", "addr:street": "West Division Street", "addr:street:name": "Division", "addr:street:prefix": "West", "addr:street:type": "Street", "amenity": "restaurant", "building": "yes", "building:levels": "2", "chicago:building_id": "322558", "cuisine": "chinese", "name": "New China Restaurant"}}, {"type": "way", "id": 209390479, "nodes": [2196110833, 2196110988, 2196111001, 2196110839, 2196110833], "tags": {"addr:housenumber": "2534", "addr:street": "West Division Street", "addr:street:name": "Division", "addr:street:prefix": "West", "addr:street:type": "Street", "amenity": "restaurant", "building": "yes", "chicago:building_id": "860071", "cuisine": "pizza", "name": "Guerrero's Tacos and Pizza", "wheelchair": "yes"}}, {"type": "way", "id": 209391564, "nodes": [2196110741, 2196111201, 2196111203, 2196110744, 2196110741], "tags": {"addr:housenumber": "2726", "addr:street": "West Division Street", "addr:street:name": "Division", "addr:street:prefix": "West", "addr:street:type": "Street", "amenity": "restaurant", "building": "yes", "building:levels": "2", "chicago:building_id": "322673", "name": "La Bruquena", "wheelchair": "limited"}}, {"type": "way", "id": 209854327, "nodes": [2200128606, 2200128605, 2200128905, 2200128910, 2200128606], "tags": {"addr:city": "Chicago", "addr:housenumber": "2140", "addr:postcode": "60622", "addr:state": "IL", "addr:street": "West Division Street", "addr:street:name": "Division", "addr:street:prefix": "West", "addr:street:type": "Street", "amenity": "cafe", "building": "yes", "chicago:building_id": "868559", "name": "Purple Llama", "phone": "+1-773-687-9900", "website": "http://www.purplellamachicago.com/"}}]}