{"version": 0.6, "generator": "Overpass API 0.7.56.3 eb200aeb", "osm3s": {"timestamp_osm_base": "2020-07-21T20:28:02Z", "copyright": "The data included in this document is from www.openstreetmap.org. The data is made available under ODbL."}, "elements": [{"type": "node", "id": 6298925928, "lat": 41.9243572, "lon": -87.7543162, "tags": {"addr:city": "Chicago", "addr:housenumber": "5112", "addr:postcode": "60639", "addr:state": "Il", "addr:street": "West Fullerton Avenue", "amenity": "cafe", "name": "Somethin\u2019 Sweet Donuts", "phone": "+1-773-237-7588", "website": "https://somethinsweetdonuts.com/"}}, {"type": "node", "id": 6300907553, "lat": 41.9168599, "lon": -87.7337071, "tags": {"addr:city": "Chicago", "addr:housenumber": "4253", "addr:postcode": "60639", "addr:state": "IL", "addr:street": "West Armitage Avenue", "amenity": "restaurant", "name": "Rica Arepa", "phone": "+1-773-543-3000", "website": "https://www.ricaarepachicago.com/"}}, {"type": "node", "id": 6303063044, "lat": 41.9245881, "lon": -87.7346906, "tags": {"addr:city": "Chicago", "addr:housenumber": "4312", "addr:postcode": "60639", "addr:state": "IL", "addr:street": "West Fullerton Avenue", "amenity": "restaurant", "name": "Tacotlan", "phone": "+1-773-666-5259"}}]}