{"version": 0.6, "generator": "Overpass API 0.7.56.3 eb200aeb", "osm3s": {"timestamp_osm_base": "2020-07-04T04:05:02Z", "copyright": "The data included in this document is from www.openstreetmap.org. The data is made available under ODbL."}, "elements": [{"type": "node", "id": 252683151, "lat": 41.9661126, "lon": -87.7035103, "tags": {"railway": "level_crossing"}}, {"type": "node", "id": 252683153, "lat": 41.9660515, "lon": -87.7108476, "tags": {"railway": "level_crossing"}}, {"type": "node", "id": 252683154, "lat": 41.966037, "lon": -87.7125854}, {"type": "node", "id": 252683155, "lat": 41.9660753, "lon": -87.7128562}, {"type": "node", "id": 252683157, "lat": 41.9680905, "lon": -87.7131924, "tags": {"name": "Kimball", "network": "CTA", "operator": "Chicago Transit Authority", "public_transport": "stop_position", "railway": "stop", "subway": "yes"}}, {"type": "node", "id": 258940920, "lat": 41.9661515, "lon": -87.6990455}, {"type": "node", "id": 260229867, "lat": 41.9661366, "lon": -87.7010228, "tags": {"railway": "level_crossing"}}, {"type": "node", "id": 260229869, "lat": 41.9660874, "lon": -87.7059476, "tags": {"railway": "level_crossing"}}, {"type": "node", "id": 260229870, "lat": 41.9660697, "lon": -87.7084029, "tags": {"railway": "level_crossing"}}, {"type": "node", "id": 260229872, "lat": 41.9661219, "lon": -87.712975}, {"type": "node", "id": 260229873, "lat": 41.9662812, "lon": -87.7131236}, {"type": "node", "id": 1280962944, "lat": 41.9663651, "lon": -87.7131497}, {"type": "node", "id": 1280962960, "lat": 41.9661906, "lon": -87.7130567}, {"type": "node", "id": 1280963073, "lat": 41.9660483, "lon": -87.7127451}, {"type": "node", "id": 1432726753, "lat": 41.9660603, "lon": -87.7095588, "tags": {"name": "Kedzie", "network": "CTA", "operator": "Chicago Transit Authority", "public_transport": "stop_position", "railway": "stop", "subway": "yes"}}, {"type": "node", "id": 1432732157, "lat": 41.9661187, "lon": -87.7022132, "tags": {"name": "Francisco", "network": "CTA", "operator": "Chicago Transit Authority", "public_transport": "stop_position", "railway": "stop", "subway": "yes"}}, {"type": "node", "id": 1756009344, "lat": 41.9611871, "lon": -87.7173869}, {"type": "node", "id": 1756009348, "lat": 41.9611888, "lon": -87.7169365}, {"type": "node", "id": 1756009690, "lat": 41.96129, "lon": -87.7173877}, {"type": "node", "id": 1756009692, "lat": 41.9612917, "lon": -87.7169373}, {"type": "node", "id": 1992510504, "lat": 41.9665684, "lon": -87.7131446}, {"type": "node", "id": 1992510511, "lat": 41.9665248, "lon": -87.7130821, "tags": {"railway": "railway_crossing"}}, {"type": "node", "id": 1992510513, "lat": 41.9664398, "lon": -87.7130548}, {"type": "node", "id": 1992510515, "lat": 41.9664862, "lon": -87.7131606, "tags": {"railway": "switch"}}, {"type": "node", "id": 1992510519, "lat": 41.9660452, "lon": -87.7115371, "tags": {"railway": "switch"}}, {"type": "node", "id": 1992510521, "lat": 41.9667529, "lon": -87.713086, "tags": {"railway": "railway_crossing"}}, {"type": "node", "id": 1992510522, "lat": 41.9669105, "lon": -87.7130436, "tags": {"railway": "switch"}}, {"type": "node", "id": 1992510523, "lat": 41.9667678, "lon": -87.713166, "tags": {"railway": "switch"}}, {"type": "node", "id": 1992510524, "lat": 41.966425, "lon": -87.7131589}, {"type": "node", "id": 1992510525, "lat": 41.9666404, "lon": -87.7131217, "tags": {"railway": "railway_crossing"}}, {"type": "node", "id": 1992510526, "lat": 41.9663802, "lon": -87.713021, "tags": {"railway": "switch"}}, {"type": "node", "id": 1992606875, "lat": 41.9661, "lon": -87.7046257, "tags": {"railway": "switch"}}, {"type": "node", "id": 1992606919, "lat": 41.9660948, "lon": -87.7052875, "tags": {"railway": "switch"}}, {"type": "node", "id": 2262363842, "lat": 41.968423, "lon": -87.7250172, "tags": {"addr:city": "Chicago", "addr:housenumber": "3914", "addr:postcode": "60625", "addr:state": "IL", "addr:street": "West Lawrence Avenue", "amenity": "restaurant", "cuisine": "sushi", "name": "Lawrence Fish Market", "phone": "+1-773-267-6838", "website": "https://drive.google.com/file/d/1fAi9C06HSz3wj7qBo7Pvrk6oEnyYUtuL/view"}}, {"type": "node", "id": 4427781395, "lat": 41.9661344, "lon": -87.701171, "tags": {"railway": "crossing"}}, {"type": "node", "id": 4427781396, "lat": 41.9661379, "lon": -87.7008666, "tags": {"railway": "crossing"}}, {"type": "node", "id": 6301096133, "lat": 41.9612494, "lon": -87.7221138, "tags": {"addr:city": "Chicago", "addr:housenumber": "3740", "addr:postcode": "60618", "addr:state": "IL", "addr:street": "West Montrose Avenue", "amenity": "restaurant", "name": "Ruby\u2019s Fast Food", "phone": "+1-773-539-2669"}}, {"type": "node", "id": 6303044522, "lat": 41.9573408, "lon": -87.7157832, "tags": {"addr:city": "Chicago", "addr:housenumber": "4156", "addr:postcode": "60618", "addr:state": "IL", "addr:street": "North Saint Louis Avenue", "amenity": "bar", "name": "T & A Too", "phone": "+1-312-555-1212"}}, {"type": "node", "id": 6306526919, "lat": 41.9557745, "lon": -87.7278715, "tags": {"addr:city": "Chicago", "addr:housenumber": "4104", "addr:postcode": "60641", "addr:state": "IL", "addr:street": "North Pulaski Road", "amenity": "bar", "name": "The Cabin At Old Irving", "phone": "+1-773-481-4183", "website": "https://www.thecabinatoldirving.com/"}}, {"type": "node", "id": 6314810327, "lat": 41.9613392, "lon": -87.7134362, "tags": {"addr:city": "Chicago", "addr:housenumber": "3402", "addr:postcode": "60618", "addr:state": "IL", "addr:street": "West Montrose Avenue", "amenity": "restaurant", "name": "Ixcateco Grill", "phone": "+1-773-539-5887", "website": "http://www.ixcatecogrill.com/"}}, {"type": "node", "id": 6322020528, "lat": 41.9670433, "lon": -87.7138068, "tags": {"addr:city": "Chicago", "addr:housenumber": "4712", "addr:postcode": "60625", "addr:state": "IL", "addr:street": "North Kimball Avenue", "amenity": "restaurant", "name": "SUBO Filipino Kitchen", "phone": "+1-773-478-2599", "website": "http://www.3rcafe.com/"}}, {"type": "node", "id": 6323149750, "lat": 41.9678799, "lon": -87.7135535, "tags": {"addr:city": "Chicago", "addr:housenumber": "4744", "addr:postcode": "60625", "addr:state": "IL", "addr:street": "North Kimball Avenue", "amenity": "cafe", "name": "Nighthawk Chicago", "phone": "+1-872-888-8361", "website": "https://www.nighthawkchicago.com/"}}, {"type": "node", "id": 6323628623, "lat": 41.9624699, "lon": -87.732191, "tags": {"addr:city": "Chicago", "addr:housenumber": "4500", "addr:postcode": "60630", "addr:state": "IL", "addr:street": "North Elston Avenue", "amenity": "bar", "name": "O\u2019Donnell\u2019s", "phone": "+1-773-282-0813"}}, {"type": "node", "id": 6324258698, "lat": 41.9571862, "lon": -87.7274109, "tags": {"addr:city": "Chicago", "addr:housenumber": "4157", "addr:postcode": "60641", "addr:state": "IL", "addr:street": "North Pulaski Road", "amenity": "bar", "name": "Paddy Mac\u2019s", "phone": "+1-773-279-9300", "website": "http://www.paddymacschicago.com/"}}, {"type": "node", "id": 6968019524, "lat": 41.9611269, "lon": -87.7263816, "tags": {"addr:city": "Chicago", "addr:housenumber": "3930", "addr:state": "IL", "addr:street": "West Montrose Avenue", "amenity": "restaurant", "cuisine": "mexican", "name": "Taqueria La Fogata"}}, {"type": "node", "id": 7607851379, "lat": 41.9681084, "lon": -87.7131931, "tags": {"railway": "buffer_stop"}}, {"type": "way", "id": 23889843, "nodes": [1992510515, 1992510524, 1280962944, 260229873, 1280962960, 260229872, 252683155, 1280963073, 252683154, 1992510519, 252683153, 1432726753, 260229870, 260229869, 1992606919, 1992606875, 252683151, 1432732157, 4427781395, 260229867, 4427781396, 258940920], "tags": {"electrified": "yes", "gauge": "1435", "history": "Retrieved from v13", "name": "Ravenswood Branch", "oneway": "yes", "operator": "Chicago Transit Authority", "railway": "subway", "voltage": "600"}}, {"type": "way", "id": 163945047, "nodes": [1756009344, 1756009690, 1756009692, 1756009348, 1756009344], "tags": {"addr:city": "Chicago", "addr:housenumber": "3532", "addr:postcode": "60618", "addr:state": "IL", "addr:street": "West Montrose Avenue", "addr:street:name": "Montrose", "addr:street:prefix": "West", "addr:street:type": "Avenue", "amenity": "restaurant", "building": "yes", "building:levels": "3", "name": "Restaurant Los Molcajetes", "phone": "+1-773-267-1834"}}, {"type": "way", "id": 188631481, "nodes": [1992510515, 1992510523, 252683157, 7607851379], "tags": {"electrified": "yes", "gauge": "1435", "history": "Retrieved from v13", "name": "Ravenswood Branch", "operator": "Chicago Transit Authority", "railway": "subway", "voltage": "600"}}, {"type": "way", "id": 188631484, "nodes": [1992510515, 1992510504, 1992510525, 1992510521, 1992510522], "tags": {"electrified": "yes", "gauge": "1435", "operator": "Chicago Transit Authority", "railway": "subway", "service": "crossover", "voltage": "600"}}, {"type": "way", "id": 188631487, "nodes": [1992510526, 1992510513, 1992510511, 1992510525, 1992510523], "tags": {"electrified": "yes", "gauge": "1435", "operator": "Chicago Transit Authority", "railway": "subway", "service": "crossover", "voltage": "600"}}]}