{"version": 0.6, "generator": "Overpass API 0.7.56.3 eb200aeb", "osm3s": {"timestamp_osm_base": "2020-07-21T20:24:02Z", "copyright": "The data included in this document is from www.openstreetmap.org. The data is made available under ODbL."}, "elements": [{"type": "node", "id": 1745518192, "lat": 41.9679588, "lon": -87.7606604}, {"type": "node", "id": 1745518238, "lat": 41.9679805, "lon": -87.7606161}, {"type": "node", "id": 1745518263, "lat": 41.9680095, "lon": -87.7607055}, {"type": "node", "id": 1745518390, "lat": 41.9680661, "lon": -87.7604443}, {"type": "node", "id": 1745518690, "lat": 41.9681171, "lon": -87.7604917}, {"type": "node", "id": 1745526356, "lat": 41.9694732, "lon": -87.7627962}, {"type": "node", "id": 1745526416, "lat": 41.9694787, "lon": -87.7627851}, {"type": "node", "id": 1745526774, "lat": 41.9694964, "lon": -87.7627592}, {"type": "node", "id": 1745526891, "lat": 41.9695119, "lon": -87.7628547}, {"type": "node", "id": 1745527030, "lat": 41.9695344, "lon": -87.7626816}, {"type": "node", "id": 1745527281, "lat": 41.969556, "lon": -87.7626171}, {"type": "node", "id": 1745527366, "lat": 41.9695716, "lon": -87.7627107}, {"type": "node", "id": 1745527428, "lat": 41.9695785, "lon": -87.762718}, {"type": "node", "id": 1745527899, "lat": 41.9696335, "lon": -87.762462}, {"type": "node", "id": 1745528296, "lat": 41.9696776, "lon": -87.762502}, {"type": "node", "id": 1749350451, "lat": 41.9677627, "lon": -87.7760197}, {"type": "node", "id": 1749350456, "lat": 41.9677637, "lon": -87.7759351}, {"type": "node", "id": 1749350504, "lat": 41.9678183, "lon": -87.7716728}, {"type": "node", "id": 1749350512, "lat": 41.9678206, "lon": -87.7715809}, {"type": "node", "id": 1749350636, "lat": 41.9678645, "lon": -87.7715805}, {"type": "node", "id": 1749350665, "lat": 41.9678742, "lon": -87.7715933}, {"type": "node", "id": 1749350735, "lat": 41.9678944, "lon": -87.7760094}, {"type": "node", "id": 1749350736, "lat": 41.9678944, "lon": -87.7760222}, {"type": "node", "id": 1749350877, "lat": 41.9679575, "lon": -87.7760106}, {"type": "node", "id": 1749350926, "lat": 41.9679658, "lon": -87.7760216}, {"type": "node", "id": 1749351298, "lat": 41.9680378, "lon": -87.7716654}, {"type": "node", "id": 1749351299, "lat": 41.9680379, "lon": -87.7716764}, {"type": "node", "id": 1749351303, "lat": 41.9680389, "lon": -87.7716102}, {"type": "node", "id": 1749351309, "lat": 41.9680399, "lon": -87.7760228}, {"type": "node", "id": 1749351313, "lat": 41.9680403, "lon": -87.7715973}, {"type": "node", "id": 1749351319, "lat": 41.9680408, "lon": -87.7759419}, {"type": "node", "id": 1749351472, "lat": 41.9680735, "lon": -87.7716669}, {"type": "node", "id": 1749351476, "lat": 41.9680746, "lon": -87.7716118}, {"type": "node", "id": 1749363459, "lat": 41.9714741, "lon": -87.7714826}, {"type": "node", "id": 1749363541, "lat": 41.9714992, "lon": -87.771578}, {"type": "node", "id": 1749364287, "lat": 41.9716972, "lon": -87.7713758}, {"type": "node", "id": 1749364352, "lat": 41.9717224, "lon": -87.7714712}, {"type": "node", "id": 1749666420, "lat": 41.9764995, "lon": -87.7691234}, {"type": "node", "id": 1749666667, "lat": 41.9766354, "lon": -87.7688574}, {"type": "node", "id": 1749666768, "lat": 41.976669, "lon": -87.7692782}, {"type": "node", "id": 1749667082, "lat": 41.9768049, "lon": -87.7690122}, {"type": "node", "id": 1749669291, "lat": 41.9776297, "lon": -87.7701505}, {"type": "node", "id": 1749669564, "lat": 41.9776834, "lon": -87.7701978}, {"type": "node", "id": 1749669797, "lat": 41.9777615, "lon": -87.7698919}, {"type": "node", "id": 1749669859, "lat": 41.977789, "lon": -87.7699156}, {"type": "node", "id": 1749669861, "lat": 41.9777894, "lon": -87.7699891}, {"type": "node", "id": 1749670020, "lat": 41.9778139, "lon": -87.7699392}, {"type": "node", "id": 1749683401, "lat": 41.981434, "lon": -87.7736937}, {"type": "node", "id": 1749683923, "lat": 41.9815815, "lon": -87.7738267}, {"type": "node", "id": 1749683957, "lat": 41.9815916, "lon": -87.7733853}, {"type": "node", "id": 1749684005, "lat": 41.9816027, "lon": -87.7736812}, {"type": "node", "id": 1749684150, "lat": 41.9816385, "lon": -87.773714}, {"type": "node", "id": 1749684267, "lat": 41.9816788, "lon": -87.7735334}, {"type": "node", "id": 1749684386, "lat": 41.9817006, "lon": -87.7734983}, {"type": "node", "id": 1749684422, "lat": 41.9817047, "lon": -87.7734909}, {"type": "node", "id": 1749684452, "lat": 41.981716, "lon": -87.7735681}, {"type": "node", "id": 1749684504, "lat": 41.981735, "lon": -87.7735293}, {"type": "node", "id": 4134476928, "lat": 41.9679551, "lon": -87.7755004, "tags": {"addr:city": "Chicago", "addr:housenumber": "5914", "addr:postcode": "60630", "addr:state": "IL", "addr:street": "West Lawrence Avenue", "amenity": "restaurant", "cuisine": "vietnamese", "name": "Pho Number One"}}, {"type": "node", "id": 4172392093, "lat": 41.97003, "lon": -87.7628353}, {"type": "node", "id": 4172392094, "lat": 41.9698623, "lon": -87.7631699}, {"type": "node", "id": 4172392095, "lat": 41.9697858, "lon": -87.7631007}, {"type": "node", "id": 4172392096, "lat": 41.9697432, "lon": -87.7631857}, {"type": "node", "id": 4172392097, "lat": 41.9697022, "lon": -87.7631474}, {"type": "node", "id": 4172392098, "lat": 41.9699171, "lon": -87.7627296}, {"type": "node", "id": 4172392103, "lat": 41.9708434, "lon": -87.7632141, "tags": {"addr:city": "Chicago", "addr:housenumber": "4945", "addr:postcode": "60630", "addr:state": "IL", "addr:street": "North Milwaukee Avenue", "amenity": "restaurant", "cuisine": "sushi", "delivery": "yes", "name": "Gorilla Sushi Bar", "takeaway": "yes"}}, {"type": "node", "id": 4186479468, "lat": 41.9705905, "lon": -87.7626602, "tags": {"addr:city": "Chicago", "addr:housenumber": "5364", "addr:postcode": "60630", "addr:state": "IL", "addr:street": "West Gale Street", "amenity": "restaurant", "cuisine": "american", "delivery": "no", "name": "Jefferson Park Grill"}}, {"type": "node", "id": 4186479471, "lat": 41.9680695, "lon": -87.7610792}, {"type": "node", "id": 4186479475, "lat": 41.9681174, "lon": -87.761121}, {"type": "node", "id": 4186479476, "lat": 41.9679337, "lon": -87.7613616}, {"type": "node", "id": 4186479477, "lat": 41.9679822, "lon": -87.7614041}, {"type": "node", "id": 4186821640, "lat": 41.969289, "lon": -87.7609822, "tags": {"addr:city": "Chicago", "addr:housenumber": "4859", "addr:postcode": "60630", "addr:state": "IL", "addr:street": "North Milwaukee Avenue", "amenity": "restaurant", "cuisine": "filipino", "name": "Kawayan"}}, {"type": "node", "id": 4263626450, "lat": 41.9771698, "lon": -87.7697283, "tags": {"addr:city": "Chicago", "addr:housenumber": "5316", "addr:postcode": "60630", "addr:state": "IL", "addr:street": "North Milwaukee Avenue", "amenity": "restaurant", "cuisine": "chinese", "name": "Chinese Kitchen"}}, {"type": "node", "id": 4263932170, "lat": 41.9775973, "lon": -87.7691061, "tags": {"addr:city": "Chicago", "addr:housenumber": "5333", "addr:postcode": "60630", "addr:state": "IL", "addr:street": "North Milwaukee Avenue", "amenity": "bar", "name": "Ham Tree Inn", "phone": "+1-773-792-2072"}}, {"type": "node", "id": 4263932173, "lat": 41.9783028, "lon": -87.7705395, "tags": {"addr:city": "Chicago", "addr:housenumber": "5368", "addr:postcode": "60630", "addr:state": "IL", "addr:street": "North Milwaukee Avenue", "amenity": "bar", "name": "Zachary's"}}, {"type": "node", "id": 4265453763, "lat": 41.9824872, "lon": -87.7745756, "tags": {"addr:city": "Chicago", "addr:housenumber": "5540", "addr:postcode": "60630", "addr:state": "IL", "addr:street": "North Milwaukee Avenue", "amenity": "restaurant", "cuisine": "mexican", "name": "Tuxpan Mexican Grill"}}, {"type": "node", "id": 5210965607, "lat": 41.9852061, "lon": -87.7680718, "tags": {"addr:city": "Chicago", "addr:housenumber": "5707", "addr:postcode": "60646", "addr:state": "IL", "addr:street": "North Central Avenue", "amenity": "restaurant", "cuisine": "italian;pizza;american;steak_house;Ribs", "name": "Colletti's", "opening_hours": "Mo-Th 11:00-23:00"}}, {"type": "node", "id": 5623406086, "lat": 41.9692208, "lon": -87.7609158, "tags": {"addr:city": "Chicago", "addr:housenumber": "4855", "addr:postcode": "60630", "addr:state": "IL", "addr:street": "North Milwaukee Avenue", "amenity": "restaurant", "cuisine": "chinese", "delivery": "yes", "name": "Excelsior Garden", "outdoor_seating": "no", "takeaway": "yes"}}, {"type": "node", "id": 6283857782, "lat": 41.9815209, "lon": -87.7623018, "tags": {"addr:city": "Chicago", "addr:housenumber": "5522", "addr:postcode": "60630", "addr:state": "IL", "addr:street": "North Elston Avenue", "amenity": "bar", "name": "Corrib Irish Pub", "phone": "+1-773-969-0692"}}, {"type": "node", "id": 6317078369, "lat": 41.9838078, "lon": -87.7663036, "tags": {"addr:city": "Chicago", "addr:housenumber": "5640", "addr:postcode": "60646", "addr:state": "IL", "addr:street": "North Elston Avenue", "amenity": "cafe", "name": "Yellow Rose Cafe", "outdoor_seating": "yes", "phone": "+1-773-631-2297"}}, {"type": "node", "id": 6321708060, "lat": 41.9705803, "lon": -87.7628638, "tags": {"addr:city": "Chicago", "addr:housenumber": "4933", "addr:postcode": "60630", "addr:state": "IL", "addr:street": "North Milwaukee Avenue", "amenity": "bar", "name": "Rex Tavern", "phone": "+1-773-202-9444", "website": "http://www.rextavernchicago.com/"}}, {"type": "node", "id": 6412876024, "lat": 41.9679347, "lon": -87.7676669, "tags": {"addr:city": "Chicago", "addr:housenumber": "4800", "addr:postcode": "60630", "addr:state": "IL", "addr:street": "North Central Avenue", "amenity": "restaurant", "cuisine": "colombian", "name": "El Asadero Colombiano", "opening_hours": "Su-Th 10:00-22:00; Fr-Sa 10:00-23:00", "outdoor_seating": "no"}}, {"type": "node", "id": 6412876025, "lat": 41.9695853, "lon": -87.7624103}, {"type": "node", "id": 6412876026, "lat": 41.9694429, "lon": -87.7626862}, {"type": "node", "id": 6412876027, "lat": 41.9694425, "lon": -87.7627287}, {"type": "way", "id": 162704482, "nodes": [1745518263, 1745518690, 1745518390, 1745518238, 1745518192, 1745518263], "tags": {"addr:city": "Chicago", "addr:housenumber": "4801", "addr:postcode": "60630", "addr:state": "IL", "addr:street": "North Milwaukee Avenue", "addr:street:name": "Milwaukee", "addr:street:prefix": "North", "addr:street:type": "Avenue", "amenity": "cafe", "building": "yes", "building:levels": "1", "chicago:building_id": "844615", "cuisine": "coffee_shop", "name": "Costa Cafe"}}, {"type": "way", "id": 162705754, "nodes": [1745526416, 1745526356, 1745526891, 1745527428, 1745527366, 1745528296, 1745527899, 1745527281, 1745527030, 1745526774, 1745526416], "tags": {"addr:city": "Chicago", "addr:housenumber": "4874", "addr:postcode": "60630", "addr:state": "IL", "addr:street": "North Milwaukee Avenue", "addr:street:name": "Milwaukee", "addr:street:prefix": "North", "addr:street:type": "Avenue", "amenity": "bar", "building": "yes", "building:levels": "2", "chicago:building_id": "101987", "name": "Jefferson Inn", "phone": "+1-773-283-5522", "smoking": "isolated"}}, {"type": "way", "id": 163179442, "nodes": [1749363459, 1749363541, 1749364352, 1749364287, 1749363459], "tags": {"addr:city": "Chicago", "addr:housenumber": "5722", "addr:postcode": "60630", "addr:state": "IL", "addr:street": "West Higgins Avenue", "addr:street:name": "Higgins", "addr:street:prefix": "West", "addr:street:type": "Avenue", "amenity": "bar", "building": "yes", "building:levels": "2", "chicago:building_id": "93968", "name": "Bar 57 West", "phone": "+1-773-427-6635"}}, {"type": "way", "id": 163179641, "nodes": [1749350504, 1749351299, 1749351298, 1749351472, 1749351476, 1749351303, 1749351313, 1749350665, 1749350636, 1749350512, 1749350504], "tags": {"addr:city": "Chicago", "addr:housenumber": "5748", "addr:postcode": "60630", "addr:state": "IL", "addr:street": "West Lawrence Avenue", "addr:street:name": "Lawrence", "addr:street:prefix": "West", "addr:street:type": "Avenue", "amenity": "bar", "building": "yes", "building:levels": "2", "chicago:building_id": "107297", "name": "Brigadoon"}}, {"type": "way", "id": 163180198, "nodes": [1749350451, 1749350736, 1749350735, 1749350877, 1749350926, 1749351309, 1749351319, 1749350456, 1749350451], "tags": {"addr:city": "Chicago", "addr:housenumber": "5930", "addr:postcode": "60630", "addr:state": "IL", "addr:street": "West Lawrence Avenue", "addr:street:name": "Lawrence", "addr:street:prefix": "West", "addr:street:type": "Avenue", "amenity": "restaurant", "building": "yes", "building:levels": "2", "chicago:building_id": "107454", "cuisine": "chicken", "delivery": "yes", "name": "Broasted Chicken Royale", "opening_hours": "Tu-Th 15:00-21:00; Fr-Sa 12:00-21:00; Su 12:00-20:00", "outdoor_seating": "no"}}, {"type": "way", "id": 163220727, "nodes": [1749666420, 1749666768, 1749667082, 1749666667, 1749666420], "tags": {"addr:city": "Chicago", "addr:housenumber": "5310", "addr:postcode": "60630", "addr:state": "IL", "addr:street": "North Milwaukee Avenue", "addr:street:name": "Milwaukee", "addr:street:prefix": "North", "addr:street:type": "Avenue", "amenity": "restaurant", "building": "yes", "building:levels": "1", "chicago:building_id": "76488", "cuisine": "pancake", "name": "Elly's Pancake House"}}, {"type": "way", "id": 163221156, "nodes": [1749669291, 1749669564, 1749669861, 1749670020, 1749669859, 1749669797, 1749669291], "tags": {"addr:city": "Chicago", "addr:housenumber": "5346", "addr:postcode": "60630", "addr:state": "IL", "addr:street": "North Milwaukee Avenue", "addr:street:name": "Milwaukee", "addr:street:prefix": "North", "addr:street:type": "Avenue", "amenity": "restaurant", "building": "yes", "building:levels": "1", "chicago:building_id": "73273", "cuisine": "chinese", "name": "Moy Lee Chinese Restaurant"}}, {"type": "way", "id": 163222095, "nodes": [1749683401, 1749683923, 1749684150, 1749684005, 1749684267, 1749684452, 1749684504, 1749684386, 1749684422, 1749683957, 1749683401], "tags": {"addr:city": "Chicago", "addr:housenumber": "5504", "addr:postcode": "60630", "addr:state": "IL", "addr:street": "North Milwaukee Avenue", "addr:street:name": "Milwaukee", "addr:street:prefix": "North", "addr:street:type": "Avenue", "amenity": "restaurant", "building": "yes", "building:levels": "1", "chicago:building_id": "61971", "cuisine": "american", "name": "Lido Banquets"}}, {"type": "way", "id": 416495647, "nodes": [4172392093, 4172392094, 4172392095, 4172392096, 4172392097, 4172392098, 4172392093], "tags": {"addr:city": "Chicago", "addr:housenumber": "4914", "addr:postcode": "60630", "addr:state": "IL", "addr:street": "North Milwaukee Avenue", "amenity": "restaurant", "building": "yes", "chicago:building_id": "100756", "cuisine": "american", "name": "Gale Street Inn", "phone": "+1-773-725-1300", "website": "http://www.galestreet.com/"}}, {"type": "way", "id": 418199446, "nodes": [4186479475, 4186479471, 4186479476, 4186479477, 4186479475], "tags": {"addr:city": "Chicago", "addr:housenumber": "4808", "addr:postcode": "60630", "addr:state": "IL", "addr:street": "North Milwaukee Avenue", "amenity": "restaurant", "building": "yes", "cuisine": "mexican", "name": "Taqueria La Estrella"}}, {"type": "way", "id": 684481665, "nodes": [1745527899, 6412876025, 6412876026, 6412876027, 1745526356, 1745526416, 1745526774, 1745527030, 1745527281, 1745527899], "tags": {"addr:city": "Chicago", "addr:housenumber": "4872", "addr:postcode": "60630", "addr:state": "IL", "addr:street": "North Milwaukee Avenue", "amenity": "cafe", "building": "yes", "internet_access": "wlan", "name": "Weston's Coffee & Tap Co.", "opening_hours": "Mo-Th 6:30-19:00; Fr 6:30-20:30; Sa 7:30-20:30; Su 7:30-19:00", "outdoor_seating": "no", "phone": "+1-708-669-7625", "website": "http://www.westonscoffee.com/"}}]}