{"version": 0.6, "generator": "Overpass API 0.7.56.3 eb200aeb", "osm3s": {"timestamp_osm_base": "2020-07-17T21:20:03Z", "copyright": "The data included in this document is from www.openstreetmap.org. The data is made available under ODbL."}, "elements": [{"type": "node", "id": 2196013729, "lat": 41.8763532, "lon": -87.6966357}, {"type": "node", "id": 2196013731, "lat": 41.876354, "lon": -87.6965841}, {"type": "node", "id": 2196014181, "lat": 41.8763559, "lon": -87.6964683}, {"type": "node", "id": 2196014183, "lat": 41.8763561, "lon": -87.6965197}, {"type": "node", "id": 2196014239, "lat": 41.8764034, "lon": -87.6966367}, {"type": "node", "id": 2196014241, "lat": 41.8764066, "lon": -87.6964696}, {"type": "node", "id": 3914989147, "lat": 41.8788941, "lon": -87.6774089, "tags": {"amenity": "restaurant", "cuisine": "brazilian", "name": "Sinh\u00e1"}}, {"type": "node", "id": 4482981117, "lat": 41.8843015, "lon": -87.6992832, "tags": {"addr:city": "Chicago", "addr:housenumber": "2908", "addr:postcode": "60612", "addr:state": "IL", "addr:street": "West Lake Street", "amenity": "restaurant", "cuisine": "burger", "name": "Al's Under the L"}}, {"type": "node", "id": 5794886652, "lat": 41.8868879, "lon": -87.6776977, "tags": {"addr:city": "Chicago", "addr:housenumber": "2010", "addr:postcode": "60612", "addr:state": "IL", "addr:street": "West Fulton Street", "amenity": "bar", "craft": "distillery", "name": "Rhine Hall Distillery", "note": "Rhine Hall Distillery has a tasting room that's open to the public.", "opening_hours": "We-Fr 17:00-21:00; Sa 14:00-19:00", "phone": "+1-312-243-4313", "product": "brandy", "website": "https://www.rhinehall.com/"}}, {"type": "node", "id": 5794890475, "lat": 41.886502, "lon": -87.6783765, "tags": {"addr:city": "Chicago", "addr:housenumber": "2021", "addr:postcode": "60612", "addr:state": "IL", "addr:street": "West Fulton Street", "addr:unit": "K-101B", "amenity": "cafe", "name": "Metric Coffee", "opening_hours": "Mo-Fr 07:00-16:00; Sa 08:00-14:00", "phone": "+1-312-982-2196", "website": "https://metriccoffee.com/pages/metric-west-fulton"}}, {"type": "node", "id": 6188968653, "lat": 41.880808, "lon": -87.6849333, "tags": {"addr:city": "Chicago", "addr:housenumber": "2323", "addr:postcode": "60612", "addr:state": "IL", "addr:street": "West Madison Street", "amenity": "restaurant", "cuisine": "chinese", "name": "Chan's King Wok", "opening_hours": "24/7"}}, {"type": "node", "id": 6263059442, "lat": 41.8899164, "lon": -87.6782682, "tags": {"addr:city": "Chicago", "addr:housenumber": "2032", "addr:postcode": "60612", "addr:state": "IL", "addr:street": "West Hubbard Street", "amenity": "restaurant", "name": "Art Of Dosa", "phone": "+1-312-899-6238"}}, {"type": "node", "id": 6267353609, "lat": 41.8892412, "lon": -87.6875116, "tags": {"addr:city": "Chicago", "addr:housenumber": "2427", "addr:postcode": "60612", "addr:state": "IL", "addr:street": "West Hubbard Street", "amenity": "cafe", "name": "Blend Cafe", "phone": "+1-312-265-1121"}}, {"type": "node", "id": 6298048500, "lat": 41.8875309, "lon": -87.6778969, "tags": {"addr:city": "Chicago", "addr:housenumber": "2023", "addr:postcode": "60612", "addr:state": "IL", "addr:street": "West Carroll Avenue", "amenity": "cafe", "name": "Ineeka", "phone": "+1-312-661-1550", "website": "http://www.treleela.com/"}}, {"type": "node", "id": 6306612141, "lat": 41.8879186, "lon": -87.6825861, "tags": {"addr:city": "Chicago", "addr:housenumber": "324", "addr:postcode": "60612", "addr:state": "IL", "addr:street": "North Leavitt Street", "amenity": "restaurant", "name": "The Corner Farmacy", "phone": "+1-563-271-7936", "website": "https://www.thecornerfarmacy.com/"}}, {"type": "node", "id": 6319067420, "lat": 41.8878949, "lon": -87.6826783, "tags": {"addr:city": "Chicago", "addr:housenumber": "324", "addr:postcode": "60612", "addr:state": "IL", "addr:street": "North Leavitt Street", "amenity": "restaurant", "name": "Kaathis", "phone": "+1-872-222-0502", "website": "https://kaathis.com/"}}, {"type": "node", "id": 6322955756, "lat": 41.8881143, "lon": -87.6824802, "tags": {"addr:city": "Chicago", "addr:housenumber": "324", "addr:postcode": "60612", "addr:state": "IL", "addr:street": "North Bell Avenue", "amenity": "restaurant", "name": "The Corner Farmacy", "phone": "+1-563-271-7936", "website": "https://www.thecornerfarmacy.com/"}}, {"type": "node", "id": 6326055702, "lat": 41.8805912, "lon": -87.6866485, "tags": {"addr:city": "Chicago", "addr:housenumber": "16", "addr:postcode": "60612", "addr:state": "IL", "addr:street": "South Western Avenue", "amenity": "restaurant", "name": "Moon\u2019s Sandwich Shop", "phone": "+1-312-226-5094", "website": "https://www.moonschicago.com/"}}, {"type": "node", "id": 6790723749, "lat": 41.8727532, "lon": -87.6768999, "tags": {"amenity": "cafe", "brand": "Starbucks", "brand:wikidata": "Q37158", "brand:wikipedia": "en:Starbucks", "cuisine": "coffee_shop", "name": "Starbucks", "official_name": "Starbucks Coffee", "takeaway": "yes"}}, {"type": "way", "id": 209382118, "nodes": [2196013729, 2196014239, 2196014241, 2196014181, 2196014183, 2196013731, 2196013729], "tags": {"addr:housenumber": "2808", "addr:street": "West Van Buren Street", "addr:street:name": "Van Buren", "addr:street:prefix": "West", "addr:street:type": "Street", "amenity": "restaurant", "building": "yes", "building:levels": "1", "chicago:building_id": "362980"}}]}