{"version": 0.6, "generator": "Overpass API 0.7.56.1004 6cd3eaec", "osm3s": {"timestamp_osm_base": "2020-07-22T03:45:03Z", "copyright": "The data included in this document is from www.openstreetmap.org. The data is made available under ODbL."}, "elements": [{"type": "node", "id": 1749350604, "lat": 41.9678553, "lon": -87.7772912}, {"type": "node", "id": 1749350643, "lat": 41.9678674, "lon": -87.7772488}, {"type": "node", "id": 1749350837, "lat": 41.9679505, "lon": -87.7773915}, {"type": "node", "id": 1749351217, "lat": 41.9680211, "lon": -87.7772456}, {"type": "node", "id": 1749353274, "lat": 41.9686262, "lon": -87.7784568}, {"type": "node", "id": 1749353275, "lat": 41.9686265, "lon": -87.7785138}, {"type": "node", "id": 1749353285, "lat": 41.968645, "lon": -87.7786497}, {"type": "node", "id": 1749353287, "lat": 41.9686457, "lon": -87.7785154}, {"type": "node", "id": 1749353623, "lat": 41.9687568, "lon": -87.7781548}, {"type": "node", "id": 1749353634, "lat": 41.9687597, "lon": -87.7778974}, {"type": "node", "id": 1749353804, "lat": 41.9688316, "lon": -87.7786517}, {"type": "node", "id": 1749353813, "lat": 41.9688356, "lon": -87.778637}, {"type": "node", "id": 1749353818, "lat": 41.9688375, "lon": -87.7784605}, {"type": "node", "id": 1749353843, "lat": 41.9688433, "lon": -87.7781559}, {"type": "node", "id": 1749353851, "lat": 41.9688462, "lon": -87.7779003}, {"type": "node", "id": 1749665929, "lat": 41.976337, "lon": -87.7868416}, {"type": "node", "id": 1749666090, "lat": 41.976401, "lon": -87.7870341}, {"type": "node", "id": 1749666254, "lat": 41.9764533, "lon": -87.7867725}, {"type": "node", "id": 1749666433, "lat": 41.9765173, "lon": -87.7869651}, {"type": "node", "id": 4131957038, "lat": 41.9675362, "lon": -87.7771017, "tags": {"addr:city": "Chicago", "addr:housenumber": "5959", "addr:postcode": "60630", "addr:state": "IL", "addr:street": "West Lawrence Avenue", "amenity": "restaurant", "cuisine": "mexican", "name": "Taquer\u00eda Amigo Chino", "opening_hours": "Su-Th 07:00-24:00; Fr-Sa 00:00-24:00"}}, {"type": "node", "id": 4142069187, "lat": 41.9686027, "lon": -87.7817888, "tags": {"addr:city": "Chicago", "addr:housenumber": "6124", "addr:postcode": "60630", "addr:state": "IL", "addr:street": "West Gunnison Street", "amenity": "bar", "name": "Friendly Tavern", "phone": "+1-773-763-9796"}}, {"type": "node", "id": 4186624668, "lat": 41.9687569, "lon": -87.7781439}, {"type": "node", "id": 4186624671, "lat": 41.9687595, "lon": -87.7779182}, {"type": "way", "id": 163177517, "nodes": [1749350604, 1749350837, 1749351217, 1749350643, 1749350604], "tags": {"addr:city": "Chicago", "addr:housenumber": "4801", "addr:postcode": "60630", "addr:state": "IL", "addr:street": "North Austin Avenue", "addr:street:name": "Austin", "addr:street:prefix": "North", "addr:street:type": "Avenue", "amenity": "restaurant", "building": "yes", "chicago:building_id": "107513", "cuisine": "mexican", "delivery": "yes", "name": "Los Encinos Restaurant", "opening_hours": "Su-Th 06:00-22:00; Fr-Sa 06:00-00:00", "outdoor_seating": "no"}}, {"type": "way", "id": 163177651, "nodes": [1749353623, 1749353843, 1749353851, 1749353634, 4186624671, 4186624668, 1749353623], "tags": {"addr:city": "Chicago", "addr:housenumber": "4835", "addr:postcode": "60630", "addr:state": "IL", "addr:street": "North Austin Avenue", "addr:street:name": "Austin", "addr:street:prefix": "North", "addr:street:type": "Avenue", "amenity": "restaurant", "building": "yes", "building:levels": "1", "chicago:building_id": "105366", "cuisine": "barbecue", "name": "Earl's BBQ"}}, {"type": "way", "id": 163180298, "nodes": [1749353274, 1749353275, 1749353287, 1749353285, 1749353804, 1749353813, 1749353818, 1749353274], "tags": {"addr:housenumber": "6000", "addr:street": "West Gunnison Street", "addr:street:name": "Gunnison", "addr:street:prefix": "West", "addr:street:type": "Street", "amenity": "bar", "building": "yes", "chicago:building_id": "105421", "name": "Charlotte's Bar & Grill"}}, {"type": "way", "id": 163226336, "nodes": [1749665929, 1749666090, 1749666433, 1749666254, 1749665929], "tags": {"addr:housenumber": "6348", "addr:street": "West Higgins Avenue", "addr:street:name": "Higgins", "addr:street:prefix": "West", "addr:street:type": "Avenue", "amenity": "restaurant", "building": "yes", "chicago:building_id": "77684", "cuisine": "coffee_shop", "name": "The Big Top Restaurant"}}]}