{"version": 0.6, "generator": "Overpass API 0.7.56.1004 6cd3eaec", "osm3s": {"timestamp_osm_base": "2020-07-22T07:04:02Z", "copyright": "The data included in this document is from www.openstreetmap.org. The data is made available under ODbL."}, "elements": [{"type": "node", "id": 310690817, "lat": 41.8770433, "lon": -87.6274643}, {"type": "node", "id": 310690820, "lat": 41.8777003, "lon": -87.6263143}, {"type": "node", "id": 310690823, "lat": 41.8782472, "lon": -87.6258953}, {"type": "node", "id": 310690824, "lat": 41.8782311, "lon": -87.6269547}, {"type": "node", "id": 310690825, "lat": 41.8786521, "lon": -87.6269691}, {"type": "node", "id": 310690826, "lat": 41.8786439, "lon": -87.6275052}, {"type": "node", "id": 354128581, "lat": 41.8761445, "lon": -87.6251612, "tags": {"addr:city": "Chicago", "addr:housenumber": "430", "addr:postcode": "60605", "addr:state": "IL", "addr:street": "South Michigan Avenue", "amenity": "university", "ele": "180", "gnis:county_id": "031", "gnis:created": "01/15/1980", "gnis:feature_id": "416929", "gnis:state_id": "17", "name": "Roosevelt University", "website": "https://www.roosevelt.edu/", "wikidata": "Q2124886", "wikipedia": "en:Roosevelt University"}}, {"type": "node", "id": 357046400, "lat": 41.8687459, "lon": -87.62632, "tags": {"amenity": "restaurant", "name": "Eleven City Diner", "url": "http://www.elevencitydiner.com/"}}, {"type": "node", "id": 417255753, "lat": 41.8777196, "lon": -87.6252855}, {"type": "node", "id": 417255755, "lat": 41.8786184, "lon": -87.6252568}, {"type": "node", "id": 417255756, "lat": 41.8786095, "lon": -87.6259019}, {"type": "node", "id": 417255758, "lat": 41.8783458, "lon": -87.62525}, {"type": "node", "id": 417255759, "lat": 41.8783369, "lon": -87.6258951}, {"type": "node", "id": 417255762, "lat": 41.8770525, "lon": -87.626933}, {"type": "node", "id": 566504090, "lat": 41.8725708, "lon": -87.6289165, "tags": {"amenity": "restaurant", "cuisine": "western", "name": "Hackney's", "phone": "(312)-1116", "source:name": "local_knowledge", "website": "http://www.hackneysprintersrow.net/"}}, {"type": "node", "id": 872697084, "lat": 41.8775142, "lon": -87.6286154}, {"type": "node", "id": 872697087, "lat": 41.8775162, "lon": -87.6282707}, {"type": "node", "id": 873087094, "lat": 41.8774321, "lon": -87.6286141}, {"type": "node", "id": 873087096, "lat": 41.8774341, "lon": -87.6282695}, {"type": "node", "id": 878223676, "lat": 41.8758557, "lon": -87.6335148}, {"type": "node", "id": 878223677, "lat": 41.8758597, "lon": -87.633146}, {"type": "node", "id": 878226185, "lat": 41.8757715, "lon": -87.633146}, {"type": "node", "id": 878226189, "lat": 41.8757888, "lon": -87.6335135}, {"type": "node", "id": 878233833, "lat": 41.8757898, "lon": -87.6334813}, {"type": "node", "id": 878233845, "lat": 41.8757739, "lon": -87.6334813}, {"type": "node", "id": 878233847, "lat": 41.8757739, "lon": -87.6334625}, {"type": "node", "id": 878233852, "lat": 41.8757669, "lon": -87.6334625}, {"type": "node", "id": 1233948945, "lat": 41.8720597, "lon": -87.6288064, "tags": {"amenity": "restaurant", "name": "Bar Louie"}}, {"type": "node", "id": 1233963027, "lat": 41.8729565, "lon": -87.6271894, "tags": {"amenity": "restaurant", "name": "South Loop Club"}}, {"type": "node", "id": 1388390051, "lat": 41.8777084, "lon": -87.6258865}, {"type": "node", "id": 1407580195, "lat": 41.8781757, "lon": -87.6252389}, {"type": "node", "id": 1586352084, "lat": 41.8783225, "lon": -87.6269578}, {"type": "node", "id": 1586352086, "lat": 41.8783139, "lon": -87.6274957}, {"type": "node", "id": 1589049102, "lat": 41.8770602, "lon": -87.6262954}, {"type": "node", "id": 1619646335, "lat": 41.8677949, "lon": -87.641925, "tags": {"addr:city": "Chicago", "addr:housenumber": "1141", "addr:postcode": "60607", "addr:state": "IL", "addr:street": "South Jefferson Street", "amenity": "restaurant", "cuisine": "sandwich;deli", "name": "Manny\u2019s Cafeteria and Delicatessen", "phone": "+1-312-939-2855", "website": "https://www.mannysdeli.com/"}}, {"type": "node", "id": 1623625816, "lat": 41.8728973, "lon": -87.6261378}, {"type": "node", "id": 1623626008, "lat": 41.8730251, "lon": -87.6261415}, {"type": "node", "id": 1623626170, "lat": 41.8728877, "lon": -87.6267382}, {"type": "node", "id": 1623626541, "lat": 41.8730156, "lon": -87.6267419}, {"type": "node", "id": 1637342160, "lat": 41.8777074, "lon": -87.6421877}, {"type": "node", "id": 1637342162, "lat": 41.8779176, "lon": -87.6421921}, {"type": "node", "id": 1637342168, "lat": 41.8779192, "lon": -87.642046}, {"type": "node", "id": 1637342188, "lat": 41.8777093, "lon": -87.642042}, {"type": "node", "id": 1699207181, "lat": 41.8731754, "lon": -87.6289521, "tags": {"addr:city": "Chicago", "addr:housenumber": "701", "addr:postcode": "60605", "addr:state": "IL", "addr:street": "South Dearborn Street", "amenity": "bar", "name": "Kasey's Tavern", "phone": "+1-312-427-7992", "website": "http://kaseystavern.com/"}}, {"type": "node", "id": 2143100432, "lat": 41.8781253, "lon": -87.6274891}, {"type": "node", "id": 2180600329, "lat": 41.8770544, "lon": -87.6267784}, {"type": "node", "id": 2180600337, "lat": 41.8781403, "lon": -87.6252378}, {"type": "node", "id": 2180600349, "lat": 41.8778542, "lon": -87.6252934}, {"type": "node", "id": 2180600354, "lat": 41.8770594, "lon": -87.6263654}, {"type": "node", "id": 2180600356, "lat": 41.8778553, "lon": -87.6252292}, {"type": "node", "id": 2180600367, "lat": 41.8770569, "lon": -87.6265692}, {"type": "node", "id": 2206240972, "lat": 41.867171, "lon": -87.6261731}, {"type": "node", "id": 2206240974, "lat": 41.867172, "lon": -87.6260095}, {"type": "node", "id": 2206240981, "lat": 41.8672087, "lon": -87.6261735}, {"type": "node", "id": 2206240982, "lat": 41.8672081, "lon": -87.6262677}, {"type": "node", "id": 2206240987, "lat": 41.867267, "lon": -87.6262684}, {"type": "node", "id": 2206240988, "lat": 41.8672686, "lon": -87.6260106}, {"type": "node", "id": 2206240989, "lat": 41.8674262, "lon": -87.6389038}, {"type": "node", "id": 2206240990, "lat": 41.8674239, "lon": -87.6390264}, {"type": "node", "id": 2206241002, "lat": 41.8676265, "lon": -87.6390334}, {"type": "node", "id": 2206241005, "lat": 41.8676342, "lon": -87.6390307}, {"type": "node", "id": 2206241006, "lat": 41.8676473, "lon": -87.639013}, {"type": "node", "id": 2206241007, "lat": 41.8676477, "lon": -87.6389178}, {"type": "node", "id": 2206241008, "lat": 41.8676487, "lon": -87.6390015}, {"type": "node", "id": 2353611001, "lat": 41.8678267, "lon": -87.6264154}, {"type": "node", "id": 2353611003, "lat": 41.8675921, "lon": -87.6264795}, {"type": "node", "id": 2353611004, "lat": 41.867594, "lon": -87.6264441, "tags": {"entrance": "main"}}, {"type": "node", "id": 2353611005, "lat": 41.8678254, "lon": -87.6264851}, {"type": "node", "id": 2353611006, "lat": 41.8675927, "lon": -87.6264087}, {"type": "node", "id": 2353615733, "lat": 41.8677461, "lon": -87.626052, "tags": {"addr:housenumber": "1150", "addr:postcode": "60605", "addr:street": "South Wabash Avenue", "amenity": "restaurant", "cuisine": "sandwich", "name": "Artists cafe", "website": "http://www.artists-cafe.com"}}, {"type": "node", "id": 2354408925, "lat": 41.8665552, "lon": -87.6255855, "tags": {"addr:city": "Chicago", "addr:housenumber": "1233", "addr:postcode": "60605", "addr:state": "IL", "addr:street": "South Wabash Avenue", "amenity": "bar", "name": "Wabash Tap", "phone": "+1-312-360-9488", "website": "https://www.wabashtap.com/"}}, {"type": "node", "id": 2354819233, "lat": 41.8715417, "lon": -87.6271677, "tags": {"addr:city": "Chicago", "addr:housenumber": "805", "addr:postcode": "60605", "addr:state": "IL", "addr:street": "South State Street", "amenity": "restaurant", "name": "Lou Malnati's Pizzeria", "phone": "+1-312-786-1000", "website": "https://www.loumalnatis.com/"}}, {"type": "node", "id": 2356511944, "lat": 41.8676519, "lon": -87.6260638, "tags": {"addr:city": "Chicago", "addr:housenumber": "1152", "addr:postcode": "60605", "addr:state": "IL", "addr:street": "South Wabash Avenue", "amenity": "restaurant", "name": "The Bongo Room", "phone": "+1-312-291-0100", "website": "http://thebongoroom.com"}}, {"type": "node", "id": 2356511947, "lat": 41.8676105, "lon": -87.6263471, "tags": {"addr:housenumber": "28", "addr:postcode": "60605", "addr:street": "East Roosevelt Road", "amenity": "restaurant", "cuisine": "chinese", "name": "Yang", "website": "http://www.yangrestaurant.com"}}, {"type": "node", "id": 2356511949, "lat": 41.8688239, "lon": -87.6246198, "tags": {"addr:city": "Chicago", "addr:housenumber": "1120", "addr:postcode": "60605", "addr:state": "IL", "addr:street": "South Michigan Avenue", "amenity": "restaurant", "cuisine": "breakfast", "name": "Yolk - South Loop", "phone": "+1-312-789-9655", "website": "https://eatyolk.com/"}}, {"type": "node", "id": 2356514770, "lat": 41.8695069, "lon": -87.627184, "tags": {"addr:city": "Chicago", "addr:housenumber": "1023", "addr:postcode": "60605", "addr:state": "IL", "addr:street": "South State Street", "amenity": "bar", "name": "Tantrum", "phone": "+1-312-939-9160", "website": "http://www.tantrumsouthloop.com"}}, {"type": "node", "id": 2356515318, "lat": 41.8733556, "lon": -87.6245716, "tags": {"amenity": "restaurant", "name": "Mercat a La Plaxa"}}, {"type": "node", "id": 2356821098, "lat": 41.8677039, "lon": -87.6265356, "tags": {"addr:city": "Chicago", "addr:housenumber": "22", "addr:postcode": "60605", "addr:state": "IL", "addr:street": "East Roosevelt Road", "amenity": "cafe", "cuisine": "sandwich", "name": "Butterfield Kitchen", "website": "http://butterfield-kitchen.com"}}, {"type": "node", "id": 2633069904, "lat": 41.8670718, "lon": -87.6243199, "tags": {"addr:housenumber": "1250", "addr:street": "South Michigan Avenue", "amenity": "restaurant", "cuisine": "Comfort_Food", "name": "Crave Cafe and Lounge"}}, {"type": "node", "id": 2819630141, "lat": 41.8707557, "lon": -87.6283739, "tags": {"amenity": "restaurant", "cuisine": "indian", "name": "Chicago Curry House"}}, {"type": "node", "id": 2950067046, "lat": 41.8726204, "lon": -87.627332, "tags": {"addr:housenumber": "719", "addr:street": "South State Street", "amenity": "restaurant", "cuisine": "pizza", "name": "Pauly's Pizza-Ria", "phone": "+1-312-957-1111"}}, {"type": "node", "id": 2950067047, "lat": 41.8711564, "lon": -87.6272616, "tags": {"addr:city": "Chicago", "addr:housenumber": "825", "addr:postcode": "60605", "addr:state": "IL", "addr:street": "South State Street", "amenity": "restaurant", "cuisine": "italian", "name": "Pazzo's"}}, {"type": "node", "id": 3131681676, "lat": 41.8716589, "lon": -87.6262014, "tags": {"addr:city": "Chicago", "addr:housenumber": "41", "addr:postcode": "60605", "addr:state": "IL", "addr:street": "East 8th Street", "amenity": "cafe", "brand": "Peet's Coffee", "brand:wikidata": "Q1094101", "brand:wikipedia": "en:Peet's Coffee", "cuisine": "coffee_shop", "name": "Peet's Coffee", "phone": "+1-312-489-5097", "takeaway": "yes", "website": "https://www.peets.com/"}}, {"type": "node", "id": 3131705137, "lat": 41.8734221, "lon": -87.6304581, "tags": {"addr:city": "Chicago", "addr:housenumber": "643", "addr:postcode": "60605", "addr:state": "IL", "addr:street": "South Clark Street", "amenity": "bar", "name": "First Draft", "phone": "+1-312-461-1062", "website": "http://www.firstdraftchicago.com/"}}, {"type": "node", "id": 3217035460, "lat": 41.8762035, "lon": -87.6272172, "tags": {"amenity": "university", "building": "school", "name": "Robert Morris University", "source": "http://www.robertmorris.edu/", "website": "https://robertmorris.edu/", "wikidata": "Q7347822"}}, {"type": "node", "id": 3238872061, "lat": 41.8776265, "lon": -87.6296654, "tags": {"addr:city": "Chicago", "addr:housenumber": "53", "addr:postcode": "60604", "addr:state": "IL", "addr:street": "West Jackson Boulevard", "amenity": "bar", "name": "Cavanaughs", "opening_hours": "Mo-Fr 11:00-22:00, Mo-Fr 11:00-20:00 \"kitchen\"", "phone": "+1 312 939 3125", "smoking": "no", "website": "www.cavanaughschicago.com"}}, {"type": "node", "id": 3263537492, "lat": 41.8739784, "lon": -87.6294588, "tags": {"amenity": "restaurant", "name": "Sofi Restaurant", "website": "http://sofirestaurantandbar.com"}}, {"type": "node", "id": 3368235885, "lat": 41.8779179, "lon": -87.6421661, "tags": {"entrance": "main"}}, {"type": "node", "id": 3919160343, "lat": 41.8678198, "lon": -87.6245541, "tags": {"addr:city": "Chicago", "addr:country": "US", "addr:housenumber": "1150", "addr:postcode": "60605", "addr:state": "IL", "addr:street": "South Michigan Avenue", "amenity": "restaurant", "cuisine": "burger", "name": "Burger Bar Chicago - South Loop", "phone": "+1-312-988-0162", "website": "http://burgerbarchicago.com/"}}, {"type": "node", "id": 4035489532, "lat": 41.8693019, "lon": -87.6327753}, {"type": "node", "id": 4035489533, "lat": 41.8692285, "lon": -87.6327738}, {"type": "node", "id": 4035489534, "lat": 41.8691608, "lon": -87.6327707}, {"type": "node", "id": 4035489535, "lat": 41.8691688, "lon": -87.6326444}, {"type": "node", "id": 4035489536, "lat": 41.8693111, "lon": -87.6326706}, {"type": "node", "id": 4035489537, "lat": 41.8693042, "lon": -87.6326937}, {"type": "node", "id": 4035489538, "lat": 41.8693019, "lon": -87.6327245}, {"type": "node", "id": 4035489539, "lat": 41.8693076, "lon": -87.6327461}, {"type": "node", "id": 4298039815, "lat": 41.8682328, "lon": -87.626329, "tags": {"amenity": "restaurant", "name": "Belly Up Smokehouse & Saloon"}}, {"type": "node", "id": 4298062192, "lat": 41.8656166, "lon": -87.6254938, "tags": {"amenity": "bar", "name": "The Scout"}}, {"type": "node", "id": 4428028171, "lat": 41.8768628, "lon": -87.641939, "tags": {"addr:city": "Chicago", "addr:country": "US", "addr:housenumber": "560", "addr:postcode": "60607", "addr:state": "IL", "addr:street": "West Van Buren Street", "amenity": "restaurant", "cuisine": "indian", "name": "Mughal India Fine Dining", "phone": "(312) 431-8029", "website": "http://www.mughalindiachicago.com/"}}, {"type": "node", "id": 4463574018, "lat": 41.8758177, "lon": -87.6263248, "tags": {"addr:city": "Chicago", "addr:housenumber": "26", "addr:postcode": "60605", "addr:state": "IL", "addr:street": "East Congress Plaza Drive", "amenity": "restaurant", "name": "Cafecito", "phone": "+1-312-922-2233", "website": "http://www.cafecitochicago.com/"}}, {"type": "node", "id": 4564288695, "lat": 41.8681043, "lon": -87.6389402, "tags": {"amenity": "cafe", "brand": "Starbucks", "brand:wikidata": "Q37158", "cuisine": "coffee_shop", "name": "Starbucks", "name:en": "Starbucks", "official_name": "Starbucks Coffee", "takeaway": "yes"}}, {"type": "node", "id": 4567644901, "lat": 41.8765854, "lon": -87.6332999, "tags": {"addr:city": "Chicago", "addr:housenumber": "400", "addr:postcode": "60605", "addr:state": "IL", "addr:street": "South Financial Place", "amenity": "cafe", "cuisine": "cafe", "name": "Saucy Porka", "phone": "+1-312-662-1351", "website": "http://saucyporka.com/"}}, {"type": "node", "id": 4842223674, "lat": 41.8778821, "lon": -87.6429565, "tags": {"addr:city": "Chicago", "addr:housenumber": "601", "addr:postcode": "60661", "addr:state": "IL", "addr:street": "West Jackson Boulevard", "amenity": "cafe", "cuisine": "coffee_shop", "name": "Dark Matter Coffee"}}, {"type": "node", "id": 5003149848, "lat": 41.8759361, "lon": -87.6322103, "tags": {"addr:city": "Chicago", "addr:housenumber": "440", "addr:postcode": "60605", "addr:state": "IL", "addr:street": "South LaSalle Street", "amenity": "restaurant", "cuisine": "french", "name": "Everest", "opening_hours": "Tu-Th 17:30-21:00; Fr 17:30-21:30; Sa 17:00-22:00", "phone": "+1-312-663-8920", "website": "http://www.everestrestaurant.com"}}, {"type": "node", "id": 5123254321, "lat": 41.8625159, "lon": -87.624269, "tags": {"addr:city": "Chicago", "addr:housenumber": "1454", "addr:postcode": "60605", "addr:state": "IL", "addr:street": "South Michigan Avenue", "amenity": "bar", "name": "Vice District Taproom", "phone": "+1-312-291-9022", "website": "http://www.vicedistrictbrewing.com/"}}, {"type": "node", "id": 5348219721, "lat": 41.8754048, "lon": -87.6294315, "tags": {"amenity": "restaurant", "cuisine": "american;italian", "name": "Meli", "opening_hours": "Mo-Th 07:00-22:00; Fr-Sa 07:00-00:00; Su 07:00-22:00", "website": "https://www.melicafe.com/"}}, {"type": "node", "id": 5359347426, "lat": 41.872428, "lon": -87.6304237, "tags": {"addr:city": "Chicago", "addr:housenumber": "755", "addr:postcode": "60605", "addr:state": "IL", "addr:street": "South Clark Street", "amenity": "restaurant", "name": "Half Sour", "phone": "+1-312-224-1772", "website": "https://halfsourchicago.com/"}}, {"type": "node", "id": 5376364522, "lat": 41.864555, "lon": -87.623821, "tags": {"addr:housenumber": "1355", "addr:street": "South Michigan Avenue", "amenity": "restaurant", "name": "Kurah Mediterranean"}}, {"type": "node", "id": 5460620370, "lat": 41.8777616, "lon": -87.6413622, "tags": {"addr:city": "Chicago", "addr:housenumber": "310", "addr:postcode": "60661", "addr:state": "IL", "addr:street": "South Clinton Street", "amenity": "restaurant", "cuisine": "pizza", "name": "Beggars Pizza", "opening_hours": "Mo-Th 11:00-22:30; Fr-Sa 11:00-00:00; Su 11:00-22:00", "phone": "+1-312-588-0055", "website": "https://www.beggarspizza.com/"}}, {"type": "node", "id": 5571123422, "lat": 41.8713931, "lon": -87.6272765, "tags": {"addr:housenumber": "823", "addr:street": "South State Street", "amenity": "restaurant", "name": "Taco Madre", "opening_hours": "Su-Th 11:00-23:00; Fr-Sa 11:00-01:00"}}, {"type": "node", "id": 5913542435, "lat": 41.8676418, "lon": -87.6390257}, {"type": "node", "id": 6050592286, "lat": 41.8765959, "lon": -87.633868, "tags": {"addr:city": "Chicago", "addr:housenumber": "408", "addr:postcode": "60607", "addr:state": "IL", "addr:street": "South Wells Street", "amenity": "bar", "name": "Persona", "phone": "+1-312-285-2271", "website": "https://www.personachi.com/"}}, {"type": "node", "id": 6077923585, "lat": 41.874317, "lon": -87.6254568, "tags": {"addr:city": "Chicago", "addr:housenumber": "63", "addr:postcode": "60605", "addr:state": "IL", "addr:street": "East Harrison Street", "amenity": "cafe", "name": "LaSalle Cafe Luna", "phone": "+1-312-376-1487"}}, {"type": "node", "id": 6119880267, "lat": 41.8772103, "lon": -87.6294485, "tags": {"amenity": "cafe", "name": "Harry's Sandiwch Shop"}}, {"type": "node", "id": 6256247554, "lat": 41.8725283, "lon": -87.6245969, "tags": {"addr:city": "Chicago", "addr:housenumber": "720", "addr:postcode": "60605", "addr:state": "IL", "addr:street": "South Michigan Avenue", "amenity": "bar", "name": "720 South Bar & Grill", "phone": "+1-312-922-4400", "website": "https://www.hiltonchicagomeetings.com/hotel-information/hotel-amenities/restaurants-bars/720-south-bar-grill/"}}, {"type": "node", "id": 6265180601, "lat": 41.8717813, "lon": -87.6290239, "tags": {"addr:city": "Chicago", "addr:housenumber": "47", "addr:postcode": "60605", "addr:state": "IL", "addr:street": "West Polk Street", "amenity": "bar", "name": "Bar Louie", "phone": "+1-312-347-0000", "website": "https://www.barlouie.com/locations/states/illinois/dearborn-station"}}, {"type": "node", "id": 6269042337, "lat": 41.8771699, "lon": -87.6290819, "tags": {"addr:city": "Chicago", "addr:housenumber": "343", "addr:postcode": "60604", "addr:state": "IL", "addr:street": "South Dearborn Street", "amenity": "bar", "name": "Brando\u2019s Speakeasy", "phone": "+1-773- 216-3213", "website": "https://brandoschicago.com/"}}, {"type": "node", "id": 6269164386, "lat": 41.8729704, "lon": -87.6263084, "tags": {"addr:city": "Chicago", "addr:housenumber": "700", "addr:postcode": "60605", "addr:state": "IL", "addr:street": "South Wabash Avenue", "amenity": "restaurant", "name": "Buddy Guy\u2019s Legends", "phone": "+1-312-427-1190", "website": "http://buddyguy.com/"}}, {"type": "node", "id": 6284683038, "lat": 41.8719638, "lon": -87.6333095, "tags": {"addr:city": "Chicago", "addr:housenumber": "801", "addr:postcode": "60607", "addr:state": "IL", "addr:street": "South Financial Place", "amenity": "cafe", "name": "Dollop Coffee Company", "phone": "+1-312-291-8357", "website": "https://dollop.coffee/"}}, {"type": "node", "id": 6284683583, "lat": 41.8771163, "lon": -87.6290762, "tags": {"addr:city": "Chicago", "addr:housenumber": "343", "addr:postcode": "60604", "addr:state": "IL", "addr:street": "South Dearborn Street", "amenity": "cafe", "name": "Dollop Coffee Company", "phone": "+1-312-846-6103", "website": "https://dollop.coffee/"}}, {"type": "node", "id": 6284891836, "lat": 41.8763717, "lon": -87.6272188, "tags": {"addr:city": "Chicago", "addr:housenumber": "401", "addr:postcode": "60605", "addr:state": "IL", "addr:street": "South State Street", "amenity": "cafe", "name": "Eagles\u2019 Landing Cafe", "phone": "+1-312-935-2016"}}, {"type": "node", "id": 6290963934, "lat": 41.865387, "lon": -87.6263756, "tags": {"addr:city": "Chicago", "addr:housenumber": "1310", "addr:postcode": "60605", "addr:state": "IL", "addr:street": "South Wabash Avenue", "amenity": "bar", "name": "Flo & Santos", "phone": "+1-312-566-9817", "website": "http://www.floandsantos.com/"}}, {"type": "node", "id": 6292047481, "lat": 41.8725775, "lon": -87.6288468, "tags": {"addr:city": "Chicago", "addr:housenumber": "729", "addr:postcode": "60605", "addr:state": "IL", "addr:street": "South Dearborn Street", "amenity": "cafe", "name": "Gordo\u2019s", "phone": "+1-312-461-1116", "website": "http://gordosicecream.com/"}}, {"type": "node", "id": 6294287447, "lat": 41.8725045, "lon": -87.6246394, "tags": {"addr:city": "Chicago", "addr:housenumber": "720", "addr:postcode": "60605", "addr:state": "IL", "addr:street": "South Michigan Avenue", "amenity": "cafe", "name": "Herb N\u2019 Kitchen"}}, {"type": "node", "id": 6294385835, "lat": 41.8759712, "lon": -87.6289904, "tags": {"addr:city": "Chicago", "addr:housenumber": "439", "addr:postcode": "60605", "addr:state": "IL", "addr:street": "South Dearborn Street", "amenity": "cafe", "name": "HERO Coffee Bar", "phone": "+1-312-631-3269", "website": "https://www.herocoffeebars.com/"}}, {"type": "node", "id": 6294469390, "lat": 41.8741022, "lon": -87.6262438, "tags": {"addr:city": "Chicago", "addr:housenumber": "606", "addr:postcode": "60605", "addr:state": "IL", "addr:street": "South Wabash Avenue", "amenity": "restaurant", "name": "Himalayan Restaurant", "phone": "+1-312-877-5999"}}, {"type": "node", "id": 6298900774, "lat": 41.8718652, "lon": -87.6309176, "tags": {"addr:city": "Chicago", "addr:housenumber": "800", "addr:postcode": "60605", "addr:state": "IL", "addr:street": "South Clark Street", "amenity": "restaurant", "name": "Sociale Chicago", "phone": "+1-312-588-1100", "website": "http://www.socialechicago.com/"}}, {"type": "node", "id": 6300053565, "lat": 41.8779496, "lon": -87.6296439, "tags": {"addr:city": "Chicago", "addr:housenumber": "53", "addr:postcode": "60604", "addr:state": "IL", "addr:street": "West Jackson Boulevard", "amenity": "cafe", "name": "Intelligentsia Coffee", "phone": "+1-312-253-0594", "website": "https://www.intelligentsiacoffee.com/monadnock-coffeebar"}}, {"type": "node", "id": 6300331698, "lat": 41.877094, "lon": -87.6348597, "tags": {"addr:city": "Chicago", "addr:housenumber": "335", "addr:postcode": "60606", "addr:state": "IL", "addr:street": "South Franklin Street", "amenity": "restaurant", "name": "Spotted Monkey", "phone": "+1-312-285-2303", "website": "http://spottedmonkeyeatery.com/"}}, {"type": "node", "id": 6300352856, "lat": 41.8676726, "lon": -87.6264521, "tags": {"addr:city": "Chicago", "addr:housenumber": "26", "addr:postcode": "60605", "addr:state": "IL", "addr:street": "East Roosevelt Road", "amenity": "cafe", "name": "Stan\u2019s Donuts & Coffee", "phone": "+1-312-834-0700"}}, {"type": "node", "id": 6300753400, "lat": 41.8738709, "lon": -87.6294661, "tags": {"addr:city": "Chicago", "addr:housenumber": "616", "addr:postcode": "60605", "addr:state": "IL", "addr:street": "South Dearborn Street", "amenity": "restaurant", "name": "Sofi Restaurant", "phone": "+1-312-753-5504", "website": "https://www.sofichicago.com/"}}, {"type": "node", "id": 6301872746, "lat": 41.8749127, "lon": -87.6399256, "tags": {"addr:city": "Chicago", "addr:housenumber": "506", "addr:postcode": "60607", "addr:state": "IL", "addr:street": "West Harrison Street", "amenity": "cafe", "name": "Sunny\u2019s Bar & Grill", "phone": "+1-312-506-5500", "website": "https://www.ihg.com/holidayinn/hotels/us/en/chicago/chiwh/hoteldetail/dining"}}, {"type": "node", "id": 6301965552, "lat": 41.8771477, "lon": -87.6427944, "tags": {"addr:city": "Chicago", "addr:housenumber": "328", "addr:postcode": "60661", "addr:state": "IL", "addr:street": "South Jefferson Street", "amenity": "cafe", "name": "The Ruin Daily", "phone": "+1-312-929-2707", "website": "https://www.theruindaily.com/"}}, {"type": "node", "id": 6301970384, "lat": 41.8656516, "lon": -87.6254846, "tags": {"addr:city": "Chicago", "addr:housenumber": "1301", "addr:postcode": "60605", "addr:state": "IL", "addr:street": "South Wabash Avenue", "amenity": "bar", "name": "The Scout Waterhouse + Kitchen", "phone": "1-312-705-0595", "website": "thescoutchicago.com"}}, {"type": "node", "id": 6303115375, "lat": 41.8610689, "lon": -87.6279127, "tags": {"addr:city": "Chicago", "addr:housenumber": "1530", "addr:postcode": "60605", "addr:state": "IL", "addr:street": "South State Street", "amenity": "restaurant", "name": "Tapas Valencia", "phone": "+1-312-842-4444", "website": "http://www.tapasvalencia.com/"}}, {"type": "node", "id": 6306514980, "lat": 41.8599865, "lon": -87.6243607, "tags": {"addr:city": "Chicago", "addr:housenumber": "75", "addr:postcode": "60616", "addr:state": "IL", "addr:street": "East 16th Street", "amenity": "bar", "name": "The Bureau Bar", "phone": "+1-312-888-3156"}}, {"type": "node", "id": 6306554132, "lat": 41.8639536, "lon": -87.6237618, "tags": {"addr:city": "Chicago", "addr:housenumber": "1401", "addr:postcode": "60605", "addr:state": "IL", "addr:street": "South Michigan Avenue", "amenity": "restaurant", "name": "The Chicago Firehouse Restaurant", "phone": "+1-312-786-1401", "website": "http://www.chicagofirehouse.com/"}}, {"type": "node", "id": 6307076632, "lat": 41.8727705, "lon": -87.6308599, "tags": {"addr:city": "Chicago", "addr:housenumber": "730", "addr:postcode": "60605", "addr:state": "IL", "addr:street": "South Clark Street", "amenity": "restaurant", "name": "Umai", "phone": "+1-312-986-8888", "website": "https://www.umaichicago.com/"}}, {"type": "node", "id": 6316574821, "lat": 41.8635201, "lon": -87.6245316, "tags": {"addr:city": "Chicago", "addr:housenumber": "1416", "addr:postcode": "60605", "addr:state": "IL", "addr:street": "South Michigan Avenue", "amenity": "bar", "name": "Victory Tap Chicago", "phone": "+1-312-566-9300", "website": "http://armandspizzeria.com/"}}, {"type": "node", "id": 6316767066, "lat": 41.8619185, "lon": -87.6235586, "tags": {"addr:city": "Chicago", "addr:housenumber": "1503", "addr:postcode": "60605", "addr:state": "IL", "addr:street": "South Michigan Avenue", "amenity": "bar", "name": "Weather Mark Tavern", "phone": "+1-312-588-0230", "website": "https://weathermarktavern.com/"}}, {"type": "node", "id": 6318454174, "lat": 41.8661313, "lon": -87.6213901, "tags": {"addr:city": "Chicago", "addr:housenumber": "1251", "addr:postcode": "60605", "addr:state": "IL", "addr:street": "South Prairie Avenue", "amenity": "cafe", "name": "Little Branch Cafe", "phone": "+1-312-360-0101", "website": "https://www.littlebranchcafe.com/"}}, {"type": "node", "id": 6319137801, "lat": 41.8661492, "lon": -87.6268823, "tags": {"addr:city": "Chicago", "addr:housenumber": "1255", "addr:postcode": "60605", "addr:state": "IL", "addr:street": "South State Street", "amenity": "restaurant", "name": "Kai Sushi", "name:en": "Kai Sushi", "opening_hours": "Mo-Su 11:30-21:00", "phone": "+1-312-583-0567", "website": "http://orderkaisushi.com/"}}, {"type": "node", "id": 6319681793, "lat": 41.8725038, "lon": -87.6245667, "tags": {"addr:city": "Chicago", "addr:housenumber": "720", "addr:postcode": "60605", "addr:state": "IL", "addr:street": "South Michigan Avenue", "amenity": "bar", "name": "Kitty O\u2019Shea\u2019s", "phone": "+1-312-294-6860", "website": "http://hilton.com"}}, {"type": "node", "id": 6320572779, "lat": 41.8776048, "lon": -87.6385644, "tags": {"addr:city": "Chicago", "addr:housenumber": "300", "addr:postcode": "60606", "addr:state": "IL", "addr:street": "South Riverside Plaza", "amenity": "bar", "name": "Little Toasted", "phone": "+1-312-929-2706", "website": "https://littletoasted.com/"}}, {"type": "node", "id": 6320646966, "lat": 41.8778152, "lon": -87.6421162, "tags": {"addr:city": "Chicago", "addr:housenumber": "565", "addr:postcode": "60661", "addr:state": "IL", "addr:street": "West Jackson Boulevard", "amenity": "restaurant", "name": "Lou Mitchell\u2019s Restaurant & Bakery", "outdoor_seating": "no", "phone": "+1-312-462-1056", "website": "http://www.loumitchells.com/"}}, {"type": "node", "id": 6320662138, "lat": 41.8682519, "lon": -87.6261541, "tags": {"addr:city": "Chicago", "addr:housenumber": "1132", "addr:postcode": "60605", "addr:state": "IL", "addr:street": "South Wabash Avenue", "amenity": "restaurant", "name": "Lowcountry South Loop", "phone": "+1-888-883-8375", "website": "https://www.lowcountrychicago.com/"}}, {"type": "node", "id": 6321298174, "lat": 41.8613629, "lon": -87.6259758, "tags": {"addr:city": "chicago", "addr:housenumber": "1520", "addr:postcode": "60605", "addr:state": "IL", "addr:street": "South Wabash Avenue", "amenity": "bar", "name": "M Lounge", "phone": "+1-312-447-0201", "website": "https://www.mloungechicago.com/"}}, {"type": "node", "id": 6321527779, "lat": 41.8733337, "lon": -87.6247013, "tags": {"addr:city": "Chicago", "addr:housenumber": "636", "addr:postcode": "60605", "addr:state": "IL", "addr:street": "South Michigan Avenue", "amenity": "cafe", "name": "Market By The Blackstone", "phone": "+1-312-447-0955"}}, {"type": "node", "id": 6321985494, "lat": 41.8767589, "lon": -87.6310625, "tags": {"addr:city": "Chicago", "addr:housenumber": "105", "addr:postcode": "60605", "addr:state": "IL", "addr:street": "West Van Buren Street", "amenity": "bar", "name": "Sky-Ride Tap", "phone": "+1-312-939-3340"}}, {"type": "node", "id": 6322570530, "lat": 41.8777603, "lon": -87.6428869, "tags": {"addr:city": "Chicago", "addr:housenumber": "601", "addr:postcode": "60661", "addr:state": "IL", "addr:street": "West Jackson Boulevard", "amenity": "cafe", "name": "Meddle Coffee Bar", "phone": "+1-312-631-3553", "website": "https://www.darkmattercoffee.com/pages/about-us"}}, {"type": "node", "id": 6322583240, "lat": 41.8732664, "lon": -87.6246842, "tags": {"addr:city": "Chicago", "addr:housenumber": "638", "addr:postcode": "60605", "addr:state": "IL", "addr:street": "South Michigan Avenue", "amenity": "restaurant", "name": "Mercat a la Planxa", "phone": "+1-312-765-0524", "website": "https://mercatchicago.com/"}}, {"type": "node", "id": 6323177663, "lat": 41.8707401, "lon": -87.6245518, "tags": {"addr:city": "Chicago", "addr:housenumber": "888", "addr:postcode": "60605", "addr:state": "IL", "addr:street": "South Michigan Avenue", "amenity": "restaurant", "name": "Niu B", "phone": "+1-312-922-1127", "website": "https://www.niubchicago.com/"}}, {"type": "node", "id": 6324182179, "lat": 41.8604348, "lon": -87.6281304, "tags": {"addr:city": "Chicago", "addr:housenumber": "1550", "addr:postcode": "60605", "addr:state": "IL", "addr:street": "South State Street", "amenity": "cafe", "name": "Overflow Coffee Bar", "phone": "+1-312-772-2356", "website": "http://www.overflowcoffeebar.org/"}}, {"type": "node", "id": 6326048107, "lat": 41.8778971, "lon": -87.6311319, "tags": {"addr:city": "Chicago", "addr:housenumber": "111", "addr:postcode": "60604", "addr:state": "IL", "addr:street": "West Jackson Boulevard", "amenity": "cafe", "name": "Mojo coffee", "phone": "+1-312-631 3881", "website": "https://us.mojo.coffee/collections/locations/products/111-west-jackson"}}, {"type": "node", "id": 6326180396, "lat": 41.8764183, "lon": -87.6333904, "tags": {"addr:city": "Chicago", "addr:housenumber": "411", "addr:postcode": "60607", "addr:state": "IL", "addr:street": "South Wells Street", "amenity": "bar", "name": "O\u2019Neil\u2019s on Wells", "phone": "+1-312-922-1778", "website": "https://oneilsonwells.com/"}}, {"type": "node", "id": 6327327346, "lat": 41.8674136, "lon": -87.6427193, "tags": {"addr:city": "Chicago", "addr:housenumber": "610", "addr:postcode": "60607", "addr:state": "IL", "addr:street": "West Roosevelt Road", "amenity": "restaurant", "name": "Zaki Mediterranean Grill"}}, {"type": "node", "id": 6651809301, "lat": 41.8766373, "lon": -87.6333261, "tags": {"addr:city": "Chicago", "addr:housenumber": "400", "addr:postcode": "60605", "addr:state": "IL", "addr:street": "South Financial Place", "amenity": "restaurant", "cuisine": "indian", "name": "Tikka N Curry", "phone": "+1- 312-877-5722", "website": "http://www.tikkancurry.com/"}}, {"type": "node", "id": 6651810650, "lat": 41.8766992, "lon": -87.6332724, "tags": {"addr:city": "Chicago", "addr:housenumber": "400", "addr:postcode": "60605", "addr:state": "IL", "addr:street": "South Financial Place", "amenity": "restaurant", "cuisine": "asian", "name": "Chicago Lunchbox", "phone": "+1-773-696-0144", "website": "http://chicagolunchbox.com/"}}, {"type": "node", "id": 6651839435, "lat": 41.8769761, "lon": -87.6343021, "tags": {"addr:city": "Chicago", "addr:housenumber": "212", "addr:postcode": "60607", "addr:state": "IL", "addr:street": "West Van Buren Street", "amenity": "restaurant", "cuisine": "isreali;middle_eastern;mediterranean", "name": "BenjYehuda - Van Buren", "phone": "+1-312-408-2365", "website": "https://www.benjyehuda.com/"}}, {"type": "node", "id": 6651931687, "lat": 41.8772913, "lon": -87.6246238, "tags": {"addr:city": "Chicago", "addr:housenumber": "332", "addr:postcode": "60604", "addr:state": "IL", "addr:street": "South Michigan Avenue", "amenity": "restaurant", "cuisine": "pizza;subs;sandwich", "name": "Fontano's Pizza and Subs", "phone": "+1-312-663-3061", "website": "https://fontanosonmichigan.com/"}}, {"type": "node", "id": 6651934923, "lat": 41.8766742, "lon": -87.6333697, "tags": {"addr:city": "Chicago", "addr:housenumber": "400", "addr:postcode": "60605", "addr:state": "IL", "addr:street": "South Financial Place", "amenity": "restaurant", "cuisine": "chicken", "name": "The Roost Carolina Kitchen", "phone": "+1-312-285-2207", "website": "https://www.theroostcarolinakitchen.com/"}}, {"type": "node", "id": 6920818833, "lat": 41.8683843, "lon": -87.6310303, "tags": {"addr:city": "Chicago", "addr:housenumber": "1154", "addr:postcode": "60605", "addr:state": "IL", "addr:street": "South Clark Street", "amenity": "cafe", "brand": "Starbucks", "brand:wikidata": "Q37158", "brand:wikipedia": "en:Starbucks", "cuisine": "coffee_shop", "name": "Starbucks", "official_name": "Starbucks Coffee", "takeaway": "yes"}}, {"type": "node", "id": 6966999056, "lat": 41.8747058, "lon": -87.6289464, "tags": {"addr:city": "Chicago", "addr:housenumber": "555", "addr:postcode": "60605", "addr:state": "IL", "addr:street": "South Dearborn Street", "amenity": "cafe", "brand": "Starbucks", "brand:wikidata": "Q37158", "brand:wikipedia": "en:Starbucks", "cuisine": "coffee_shop", "internet_access": "wlan", "internet_access:fee": "no", "name": "Starbucks", "official_name": "Starbucks Coffee", "outdoor_seating": "yes", "takeaway": "yes"}}, {"type": "way", "id": 28292665, "nodes": [417255758, 417255755, 417255756, 417255759, 310690823, 310690824, 1586352084, 310690825, 310690826, 1586352086, 2143100432, 310690817, 417255762, 2180600329, 2180600367, 2180600354, 1589049102, 310690820, 1388390051, 417255753, 2180600349, 2180600356, 2180600337, 1407580195, 417255758], "tags": {"amenity": "university", "name": "DePaul University (the Loop Campus)", "wheelchair": "yes"}}, {"type": "way", "id": 73747639, "nodes": [873087094, 872697084, 872697087, 873087096, 873087094], "tags": {"addr:city": "Chicago", "addr:housenumber": "327", "addr:postcode": "60604", "addr:state": "IL", "addr:street": "South Plymouth Court", "addr:street:name": "Plymouth", "addr:street:prefix": "South", "addr:street:type": "Court", "amenity": "restaurant", "building": "yes", "building:levels": "3", "chicago:building_id": "814820", "name": "Plymouth Rooftop Bar & Grill", "phone": "+1-312-362-1212", "website": "http://plymouthgrill.com/"}}, {"type": "way", "id": 74269722, "nodes": [878226185, 878223677, 878223676, 878226189, 878233833, 878233845, 878233847, 878233852, 878226185], "tags": {"addr:city": "Chicago", "addr:housenumber": "501", "addr:postcode": "60607", "addr:state": "IL", "addr:street": "South Wells Street", "amenity": "restaurant", "building": "yes", "cuisine": "italian", "name": "Tutto Italiano"}}, {"type": "way", "id": 149372353, "nodes": [1623626541, 1623626008, 1623625816, 1623626170, 1623626541], "tags": {"addr:housenumber": "700", "addr:postcode": "60605", "addr:street": "South Wabash Avenue", "addr:street:name": "Wabash", "addr:street:prefix": "South", "addr:street:type": "Avenue", "amenity": "bar", "building": "yes", "building:levels": "1", "chicago:building_id": "365890", "name": "Buddy Guy's Legends"}}, {"type": "way", "id": 150864783, "nodes": [1637342168, 3368235885, 1637342162, 1637342160, 1637342188, 1637342168], "tags": {"addr:housenumber": "565", "addr:postcode": "60661", "addr:street": "West Jackson Boulevard", "addr:street:name": "Jackson", "addr:street:prefix": "West", "addr:street:type": "Boulevard", "amenity": "restaurant", "building": "yes", "building:levels": "1", "chicago:building_id": "876542", "cuisine": "american", "name": "Lou Mitchell's Restaurant", "name:en": "Lou Mitchell's Restaurant", "website": "http://www.loumitchellsrestaurant.com/", "wikidata": "Q6685659", "wikipedia": "en:Lou Mitchell's"}}, {"type": "way", "id": 210541840, "nodes": [2206241002, 2206241005, 5913542435, 2206241006, 2206241008, 2206241007, 2206240989, 2206240990, 2206241002], "tags": {"addr:city": "Chicago", "addr:housenumber": "1159", "addr:postcode": "60607", "addr:street": "South Canal Street", "addr:street:name": "Canal", "addr:street:prefix": "South", "addr:street:type": "Street", "amenity": "restaurant", "building": "yes", "chicago:building_id": "834523", "cuisine": "diner", "name": "White Palace Grill"}}, {"type": "way", "id": 226825895, "nodes": [2353611003, 2353611005, 2353611001, 2353611006, 2353611004, 2353611003], "tags": {"addr:housenumber": "26", "addr:postcode": "60605", "addr:street": "East Roosevelt Road", "amenity": "restaurant", "building": "yes", "cuisine": "donut", "name": "Stan's Donuts"}}, {"type": "way", "id": 226885912, "nodes": [2206240988, 2206240974, 2206240972, 2206240981, 2206240982, 2206240987, 2206240988], "tags": {"addr:housenumber": "31", "addr:postcode": "60605", "addr:street": "East Roosevelt Road", "amenity": "cafe", "brand": "Starbucks", "brand:wikidata": "Q37158", "brand:wikipedia": "en:Starbucks", "building": "yes", "building:levels": "1", "chicago:building_id": "843355", "cuisine": "coffee_shop", "name": "Starbucks", "takeaway": "yes", "website": "https://www.starbucks.com/"}}, {"type": "way", "id": 401086007, "nodes": [4035489532, 4035489533, 4035489534, 4035489535, 4035489536, 4035489537, 4035489538, 4035489539, 4035489532], "tags": {"amenity": "cafe", "building": "yes", "name": "Bridgeport Coffee"}}]}