{"version": 0.6, "generator": "Overpass API 0.7.56.1004 6cd3eaec", "osm3s": {"timestamp_osm_base": "2020-07-22T07:34:03Z", "copyright": "The data included in this document is from www.openstreetmap.org. The data is made available under ODbL."}, "elements": [{"type": "node", "id": 347159885, "lat": 41.9112846, "lon": -87.6348689, "tags": {"addr:city": "Chicago", "addr:country": "US", "addr:housenumber": "210", "addr:postcode": "60610", "addr:state": "IL", "addr:street": "West North Avenue", "amenity": "cafe", "brand": "Starbucks", "brand:wikidata": "Q37158", "brand:wikipedia": "en:Starbucks", "cuisine": "coffee_shop", "entrance": "yes", "name": "Starbucks", "official_name": "Starbucks Coffee", "takeaway": "yes"}}, {"type": "node", "id": 347160446, "lat": 41.9127223, "lon": -87.638378, "tags": {"addr:city": "Chicago", "addr:housenumber": "1655", "addr:postcode": "60614", "addr:state": "IL", "addr:street": "North Sedgwick Street", "amenity": "restaurant", "cuisine": "american;ribs", "name": "Twin Anchors Restaurant & Tavern", "opening_hours": "Mo-Tu 17:00-22:30; We-Th 17:00-23:00; Fr 17:00-00:00; Sa 12:00-00:00; Su 12:00-22:30", "phone": "+1-312-266-1616", "website": "https://twinanchorsribs.com/"}}, {"type": "node", "id": 2166039854, "lat": 41.9106416, "lon": -87.6351225}, {"type": "node", "id": 2166039855, "lat": 41.9106425, "lon": -87.635053}, {"type": "node", "id": 2166039857, "lat": 41.9106453, "lon": -87.6348451}, {"type": "node", "id": 2166039861, "lat": 41.9106971, "lon": -87.6351239}, {"type": "node", "id": 2166039862, "lat": 41.9107008, "lon": -87.6348464}, {"type": "node", "id": 2203995852, "lat": 41.9087776, "lon": -87.652174}, {"type": "node", "id": 2203995936, "lat": 41.9088731, "lon": -87.6522512}, {"type": "node", "id": 2203996004, "lat": 41.908952, "lon": -87.6517844}, {"type": "node", "id": 2203996117, "lat": 41.9090475, "lon": -87.6518616}, {"type": "node", "id": 2203998611, "lat": 41.9101419, "lon": -87.6491644}, {"type": "node", "id": 2203998642, "lat": 41.9101919, "lon": -87.6492343}, {"type": "node", "id": 2203998691, "lat": 41.9103457, "lon": -87.6489012}, {"type": "node", "id": 2203998709, "lat": 41.91038, "lon": -87.6506163}, {"type": "node", "id": 2203998712, "lat": 41.9103813, "lon": -87.6503404}, {"type": "node", "id": 2203998719, "lat": 41.9103958, "lon": -87.648971}, {"type": "node", "id": 2203998741, "lat": 41.9104459, "lon": -87.6436874}, {"type": "node", "id": 2203998747, "lat": 41.9104492, "lon": -87.6435478}, {"type": "node", "id": 2203998749, "lat": 41.9104542, "lon": -87.6436892}, {"type": "node", "id": 2203998788, "lat": 41.9105184, "lon": -87.6436407}, {"type": "node", "id": 2203998793, "lat": 41.9105206, "lon": -87.6435507}, {"type": "node", "id": 2203998810, "lat": 41.9105404, "lon": -87.6506176}, {"type": "node", "id": 2203998811, "lat": 41.9105433, "lon": -87.6503417}, {"type": "node", "id": 2203998812, "lat": 41.9105435, "lon": -87.6502776}, {"type": "node", "id": 2203998908, "lat": 41.9106836, "lon": -87.6503386}, {"type": "node", "id": 2203998910, "lat": 41.9106838, "lon": -87.6502787}, {"type": "node", "id": 2203998933, "lat": 41.910726, "lon": -87.6502951}, {"type": "node", "id": 2203998935, "lat": 41.9107259, "lon": -87.650339}, {"type": "node", "id": 2203998973, "lat": 41.9107911, "lon": -87.6502956}, {"type": "node", "id": 2207607263, "lat": 41.9039337, "lon": -87.6361013}, {"type": "node", "id": 2207607264, "lat": 41.9039326, "lon": -87.6362491}, {"type": "node", "id": 2207607343, "lat": 41.9040848, "lon": -87.6361034}, {"type": "node", "id": 2207607348, "lat": 41.9040836, "lon": -87.6362512}, {"type": "node", "id": 2207608395, "lat": 41.9050307, "lon": -87.6350389}, {"type": "node", "id": 2207608406, "lat": 41.9050381, "lon": -87.634666}, {"type": "node", "id": 2207608564, "lat": 41.9050966, "lon": -87.6350233}, {"type": "node", "id": 2207608565, "lat": 41.9050962, "lon": -87.6350412}, {"type": "node", "id": 2207608584, "lat": 41.9051036, "lon": -87.6346683}, {"type": "node", "id": 2207608926, "lat": 41.9052211, "lon": -87.6348978}, {"type": "node", "id": 2207608949, "lat": 41.9052256, "lon": -87.6346727}, {"type": "node", "id": 2207609009, "lat": 41.9052681, "lon": -87.6348995}, {"type": "node", "id": 2207609010, "lat": 41.9052679, "lon": -87.6349087}, {"type": "node", "id": 2207609030, "lat": 41.9052784, "lon": -87.6348583}, {"type": "node", "id": 2207609040, "lat": 41.905282, "lon": -87.6346747}, {"type": "node", "id": 2207609057, "lat": 41.9052917, "lon": -87.6348588}, {"type": "node", "id": 2207609060, "lat": 41.9052907, "lon": -87.6349095}, {"type": "node", "id": 2207609172, "lat": 41.9053678, "lon": -87.6350447}, {"type": "node", "id": 2207609174, "lat": 41.9053698, "lon": -87.6349183}, {"type": "node", "id": 2207609177, "lat": 41.9053694, "lon": -87.6349183}, {"type": "node", "id": 2207609180, "lat": 41.9053714, "lon": -87.6347878}, {"type": "node", "id": 2207609186, "lat": 41.9053717, "lon": -87.6347592}, {"type": "node", "id": 2207609188, "lat": 41.9053728, "lon": -87.6346746}, {"type": "node", "id": 2207609269, "lat": 41.9054415, "lon": -87.6350463}, {"type": "node", "id": 2207609270, "lat": 41.9054429, "lon": -87.6349285}, {"type": "node", "id": 2207609278, "lat": 41.9054461, "lon": -87.6346763}, {"type": "node", "id": 2207638564, "lat": 41.9094986, "lon": -87.6384087}, {"type": "node", "id": 2207638569, "lat": 41.9095013, "lon": -87.6380817}, {"type": "node", "id": 2207638657, "lat": 41.9095425, "lon": -87.6384094}, {"type": "node", "id": 2207638661, "lat": 41.9095453, "lon": -87.6380823}, {"type": "node", "id": 2262364827, "lat": 41.9113354, "lon": -87.6356269, "tags": {"addr:housenumber": "230", "addr:postcode": "60614", "addr:street": "West North Avenue", "amenity": "bar", "name": "UP Comedy Club", "source": "312-664-4032", "website": "http://www.upcomedyclub.com/"}}, {"type": "node", "id": 2280301588, "lat": 41.9102437, "lon": -87.6488384, "tags": {"addr:city": "Chicago", "addr:housenumber": "1578", "addr:postcode": "60642", "addr:state": "IL", "addr:street": "North Clybourn Avenue", "amenity": "restaurant", "cuisine": "burger", "name": "Burger Bar Chicago - Lincoln Park", "opening_hours": "Mo-Th 11:30-22:00; Fr-Sa 11:00-23:00; Su 11:00-21:00", "phone": "+1-312-255-0055", "website": "http://burgerbarchicago.com/"}}, {"type": "node", "id": 2393465775, "lat": 41.9096394, "lon": -87.6348401, "tags": {"addr:city": "Chicago", "addr:country": "US", "addr:housenumber": "1514", "addr:postcode": "60610", "addr:state": "IL", "addr:street": "North Wells Street", "amenity": "restaurant", "cuisine": "italian", "name": "Topo Gigio Ristorante", "opening_hours": "Mo-Sa 11:30-22:30; Su 16:00-21:30", "phone": "+1-312-266-9355", "website": "https://www.topogigiochicago.com/"}}, {"type": "node", "id": 2399641191, "lat": 41.9172647, "lon": -87.6370796, "tags": {"addr:housenumber": "1925", "addr:street": "North Lincoln Avenue", "addr:street:name": "Lincoln", "addr:street:prefix": "North", "addr:street:type": "Avenue", "amenity": "restaurant", "cuisine": "pizza", "name": "Rocco Ranalli's"}}, {"type": "node", "id": 2479668242, "lat": 41.9089305, "lon": -87.6383817}, {"type": "node", "id": 2479668243, "lat": 41.9089363, "lon": -87.6380474}, {"type": "node", "id": 2479668244, "lat": 41.9089981, "lon": -87.6383838}, {"type": "node", "id": 2479668245, "lat": 41.909004, "lon": -87.6380495}, {"type": "node", "id": 2480059861, "lat": 41.9048924, "lon": -87.6390534, "tags": {"amenity": "cafe", "brand": "Starbucks", "brand:wikidata": "Q37158", "brand:wikipedia": "en:Starbucks", "cuisine": "coffee_shop", "name": "Starbucks", "official_name": "Starbucks Coffee", "takeaway": "yes"}}, {"type": "node", "id": 2480104438, "lat": 41.9040444, "lon": -87.6346483, "tags": {"addr:city": "Chicago", "addr:housenumber": "1202", "addr:postcode": "60610", "addr:state": "IL", "addr:street": "North Wells Street", "amenity": "restaurant", "cuisine": "english", "name": "Glunz Tavern", "opening_hours": "Tu-Th 17:00-00:00; Fr 12:00-02:00; Sa 10:00-02:00; Su 10:00-23:00", "phone": "+1-312-642-3001", "website": "http://www.glunztavern.com"}}, {"type": "node", "id": 2485876240, "lat": 41.9105426, "lon": -87.653618, "tags": {"amenity": "cafe", "brand": "Starbucks", "brand:wikidata": "Q37158", "brand:wikipedia": "en:Starbucks", "cuisine": "coffee_shop", "name": "Starbucks", "official_name": "Starbucks Coffee", "takeaway": "yes"}}, {"type": "node", "id": 2577813545, "lat": 41.910787, "lon": -87.6490879, "tags": {"addr:city": "Chicago", "addr:country": "US", "addr:housenumber": "1599", "addr:postcode": "60642", "addr:state": "IL", "addr:street": "North Clybourn Avenue", "amenity": "cafe", "brand": "Starbucks", "brand:wikidata": "Q37158", "brand:wikipedia": "en:Starbucks", "cuisine": "coffee_shop", "name": "Starbucks", "official_name": "Starbucks Coffee", "takeaway": "yes"}}, {"type": "node", "id": 2870579423, "lat": 41.910905, "lon": -87.6408852, "tags": {"amenity": "bar", "name": "Old Town Social"}}, {"type": "node", "id": 2946725325, "lat": 41.9169091, "lon": -87.6366164, "tags": {"amenity": "restaurant", "cuisine": "italian", "name": "Brick's"}}, {"type": "node", "id": 2980328058, "lat": 41.9046047, "lon": -87.6404009, "tags": {"amenity": "cafe", "brand": "Starbucks", "brand:wikidata": "Q37158", "brand:wikipedia": "en:Starbucks", "cuisine": "coffee_shop", "name": "Starbucks", "note": "This Starbucks and the other one inside Jewel exists.", "official_name": "Starbucks Coffee", "takeaway": "yes"}}, {"type": "node", "id": 2986607620, "lat": 41.9107897, "lon": -87.6506196}, {"type": "node", "id": 3114037604, "lat": 41.9003844, "lon": -87.6377709, "tags": {"amenity": "restaurant", "cuisine": "kyrgyz", "name": "Dastorkon"}}, {"type": "node", "id": 3502294519, "lat": 41.9137104, "lon": -87.6481992, "tags": {"addr:city": "Chicago", "addr:housenumber": "1733", "addr:postcode": "60614", "addr:state": "IL", "addr:street": "North Halsted Street", "amenity": "restaurant", "cuisine": "deep_dish_pizza_and_general_Italian", "delivery": "yes", "name": "Pizza Capri", "takeaway": "yes"}}, {"type": "node", "id": 3502294527, "lat": 41.9136386, "lon": -87.6482025, "tags": {"addr:city": "Chicago", "addr:housenumber": "1729", "addr:postcode": "60614", "addr:state": "IL", "addr:street": "North Halsted Street", "amenity": "restaurant", "name": "Boka", "opening_hours": "Mo-Th 17:00-22:00; Fr-Sa 17:00-23:00; Su 17:00-22:00", "phone": "+1-312-337-6070", "website": "http://www.bokachicago.com/", "wikidata": "Q16255079"}}, {"type": "node", "id": 3502294528, "lat": 41.9136875, "lon": -87.6485512, "tags": {"addr:housenumber": "1732", "addr:street": "North Halsted Street", "amenity": "restaurant", "cuisine": "italian", "name": "Vinci"}}, {"type": "node", "id": 3502294529, "lat": 41.9134372, "lon": -87.648199, "tags": {"addr:city": "Chicago", "addr:housenumber": "1723", "addr:postcode": "60614", "addr:state": "IL", "addr:street": "North Halsted Street", "amenity": "restaurant", "cuisine": "fine_dining", "name": "Alinea", "phone": "+1-312-867-0110", "website": "https://www.alinearestaurant.com/", "wikidata": "Q4726773"}}, {"type": "node", "id": 3502294530, "lat": 41.911655, "lon": -87.6480886, "tags": {"amenity": "restaurant", "name": "Circle Sushi & Grill", "takeaway": "yes"}}, {"type": "node", "id": 3502294531, "lat": 41.9117202, "lon": -87.6480993, "tags": {"addr:city": "Chicago", "addr:housenumber": "1625", "addr:postcode": "60614", "addr:state": "IL", "addr:street": "North Halsted Street", "amenity": "restaurant", "cuisine": "mediterranean", "name": "Dawali Mediterranean Kitchen", "phone": "+1-312-944-5800", "takeaway": "yes", "website": "http://dawalikitchen.com/"}}, {"type": "node", "id": 3502294537, "lat": 41.9119981, "lon": -87.6481205, "tags": {"amenity": "restaurant", "cuisine": "italian", "name": "Balena"}}, {"type": "node", "id": 3502328666, "lat": 41.913639, "lon": -87.6530805, "tags": {"addr:housenumber": "953", "addr:street": "West Willow Street", "amenity": "restaurant", "cuisine": "pizza", "name": "Amato's Pizza", "takeaway": "yes"}}, {"type": "node", "id": 3502328667, "lat": 41.9135185, "lon": -87.6529319, "tags": {"addr:housenumber": "1781", "addr:street": "North Clybourn Avenue", "amenity": "restaurant", "cuisine": "mexican", "name": "Jaimito's Burritos", "takeaway": "yes"}}, {"type": "node", "id": 4131053948, "lat": 41.908293, "lon": -87.6468872, "tags": {"addr:city": "Chicago", "addr:housenumber": "1500", "addr:postcode": "60610", "addr:state": "IL", "addr:street": "North Clybourn Avenue", "amenity": "restaurant", "brand": "Nando's", "brand:wikidata": "Q3472954", "brand:wikipedia": "en:Nando's", "cuisine": "chicken;portuguese", "name": "Nando's", "phone": "+1-312-546-9723", "website": "https://www.nandosperiperi.com/"}}, {"type": "node", "id": 4191676729, "lat": 41.9109799, "lon": -87.6349566, "tags": {"addr:city": "Chicago", "addr:housenumber": "1562", "addr:postcode": "60610", "addr:state": "IL", "addr:street": "North Wells Street", "amenity": "cafe", "brand": "Le Pain Quotidien", "brand:wikidata": "Q2046903", "brand:wikipedia": "en:Le Pain Quotidien", "cuisine": "coffee_shop", "name": "Le Pain Quotidien", "phone": "+1-312-281-6775", "takeaway": "yes", "website": "https://www1.lepainquotidien.com/us/en/locations/605/1562-n-wells-st"}}, {"type": "node", "id": 4191676733, "lat": 41.9114966, "lon": -87.6387692, "tags": {"amenity": "bar", "name": "Sedgwick Stop"}}, {"type": "node", "id": 4191676735, "lat": 41.9109006, "lon": -87.6404783, "tags": {"amenity": "restaurant", "cuisine": "japanese", "name": "Shiso"}}, {"type": "node", "id": 4191676738, "lat": 41.9100421, "lon": -87.6493042, "tags": {"addr:city": "Chicago", "addr:housenumber": "1555", "addr:postcode": "60642", "addr:state": "IL", "addr:street": "North Dayton Street", "amenity": "bar", "name": "Weeds Tavern", "phone": "+1-312-943-7815", "website": "http://weedstavern.com/"}}, {"type": "node", "id": 4196277890, "lat": 41.9109839, "lon": -87.635275, "tags": {"addr:city": "Chicago", "addr:country": "US", "addr:postcode": "60614", "addr:state": "IL", "amenity": "restaurant", "building": "entrance", "cuisine": "mexican", "name": "Adobo Grill"}}, {"type": "node", "id": 4629759398, "lat": 41.9025377, "lon": -87.6413921, "tags": {"amenity": "cafe"}}, {"type": "node", "id": 6050593220, "lat": 41.9079334, "lon": -87.6520136, "tags": {"addr:city": "Chicago", "addr:housenumber": "1460", "addr:postcode": "60642", "addr:state": "IL", "addr:street": "North Kingsbury Street", "amenity": "bar", "name": "Off Color Mousetrap", "phone": "+1-312-929-2916", "website": "http://www.offcolorbrewing.com/"}}, {"type": "node", "id": 6191165327, "lat": 41.9109366, "lon": -87.6358742, "tags": {"addr:city": "Chicago", "addr:housenumber": "227", "addr:postcode": "60610", "addr:state": "IL", "addr:street": "West North Avenue", "amenity": "restaurant", "cuisine": "seafood", "name": "Two Lights Seafood & Oyster", "opening_hours": "Mo-Fr 17:00-22:00; Sa 17:00-23:00; Su 17:00-21:00", "phone": "+1-312-929-3091", "website": "twolightschicago.com"}}, {"type": "node", "id": 6226279492, "lat": 41.9041723, "lon": -87.6347462, "tags": {"addr:city": "Chicago", "addr:housenumber": "1208", "addr:postcode": "60610", "addr:state": "IL", "addr:street": "North Wells Street", "amenity": "bar", "name": "The Rabbit Hole", "phone": "+1-312-274-1824", "website": "https://www.therabbitholechicago.com/"}}, {"type": "node", "id": 6256290024, "lat": 41.9093, "lon": -87.6348661, "tags": {"addr:city": "Chicago", "addr:housenumber": "1500", "addr:postcode": "60610", "addr:state": "IL", "addr:street": "North Wells Street", "amenity": "bar", "name": "80 Proof", "phone": "+1-773-966-0404", "website": "https://80proofchi.com/"}}, {"type": "node", "id": 6261017458, "lat": 41.9113447, "lon": -87.6353526, "tags": {"addr:city": "Chicago", "addr:housenumber": "230", "addr:postcode": "60610", "addr:state": "IL", "addr:street": "West North Avenue", "addr:unit": "2nd Floor", "amenity": "restaurant", "cuisine": "pub;american", "name": "1959 Kitchen & Bar", "opening_hours": "Mo-Th 17:00-00:00; Fr-Sa 17:00-02:00; Su 16:00-00:00", "phone": "+1-312-337-3992", "website": "https://www.secondcity.com/1959"}}, {"type": "node", "id": 6261019535, "lat": 41.9109894, "lon": -87.635527, "tags": {"addr:city": "Chicago", "addr:housenumber": "219", "addr:postcode": "60610", "addr:state": "IL", "addr:street": "West North Avenue", "amenity": "bar", "name": "Old Town Ale House", "opening_hours": "Mo-Fr 15:00-04:00; Sa 12:00-05:00; Su 12:00-04:00", "phone": "+1-312-944-7020", "website": "http://www.theoldtownalehouse.com"}}, {"type": "node", "id": 6261025487, "lat": 41.9090121, "lon": -87.63492, "tags": {"addr:city": "Chicago", "addr:housenumber": "1446", "addr:postcode": "60610", "addr:state": "IL", "addr:street": "North Wells Street", "amenity": "bar", "name": "SUITE Lounge", "phone": "+1-312-787-6103", "website": "http://www.suite-lounge.com"}}, {"type": "node", "id": 6261028501, "lat": 41.909098, "lon": -87.6348744, "tags": {"addr:city": "Chicago", "addr:housenumber": "1448", "addr:postcode": "60610", "addr:state": "IL", "addr:street": "North Wells Street", "amenity": "restaurant", "cuisine": "barbecue;bbq;american;southern", "name": "The Fireplace Inn", "opening_hours": "Tu-Th 16:30-00:00; Fr 11:00-02:00; Sa 11:00-03:00; Su 11:00-00:00", "phone": "+1-312-664-5264", "website": "https://fireplaceinn.com"}}, {"type": "node", "id": 6261029018, "lat": 41.9095177, "lon": -87.6349428, "tags": {"addr:city": "Chicago", "addr:housenumber": "1510", "addr:postcode": "60610", "addr:state": "IL", "addr:street": "North Wells Street", "amenity": "restaurant", "cuisine": "bar;grill", "name": "Benchmark", "opening_hours": "Mo-Fr 17:00-02:00; Sa 10:00-03:00; Su 10:00-02:00", "phone": "+1-312-649-9640", "website": "https://benchmarkchicago.com"}}, {"type": "node", "id": 6261040332, "lat": 41.9077491, "lon": -87.634853, "tags": {"addr:city": "Chicago", "addr:housenumber": "1400", "addr:postcode": "60610", "addr:state": "IL", "addr:street": "North Wells Street", "amenity": "restaurant", "cuisine": "mexican", "name": "Broken English Taco Pub", "opening_hours": "Mo-Th 17:00-23:00; Fr 17:00-01:00; Sa 11:00-01:00; Su 11:00-21:00", "outdoor_seating": "yes", "phone": "+1-312-951-7667", "website": "https://www.tacopub.com"}}, {"type": "node", "id": 6267305751, "lat": 41.9089601, "lon": -87.6520568}, {"type": "node", "id": 6267305752, "lat": 41.908942, "lon": -87.6520576, "tags": {"addr:city": "Chicago", "addr:housenumber": "1523", "addr:postcode": "60642", "addr:state": "IL", "addr:street": "North Kingsbury Street", "amenity": "bar", "name": "Bistec Bar and Grill", "phone": "+1-312-929-3182", "website": "https://www.bistecbargrill.com/"}}, {"type": "node", "id": 6284902474, "lat": 41.9092439, "lon": -87.6475313, "tags": {"addr:city": "Chicago", "addr:housenumber": "1538", "addr:postcode": "60642", "addr:state": "IL", "addr:street": "North Clybourn Avenue", "amenity": "restaurant", "cuisine": "american", "name": "Earls Kitchen + Bar", "phone": "+1-312-929-3952", "website": "https://earls.ca/locations/lincoln-park"}}, {"type": "node", "id": 6286791027, "lat": 41.9032233, "lon": -87.6576052, "tags": {"addr:city": "Chicago", "addr:housenumber": "1777", "addr:postcode": "60642", "addr:state": "IL", "addr:street": "North Elston Avenue", "amenity": "bar", "name": "Estate", "phone": "+1-312-523-4296", "website": "http://estateultrabar.com"}}, {"type": "node", "id": 6286959503, "lat": 41.9003849, "lon": -87.6376591, "tags": {"addr:city": "Chicago", "addr:housenumber": "351", "addr:postcode": "60610", "addr:state": "IL", "addr:street": "West Oak Street", "addr:unit": "1", "amenity": "restaurant", "name": "EuroAsia Restaurant", "phone": "+1-312-988-0662", "website": "http://euroasiaca.com/"}}, {"type": "node", "id": 6291060942, "lat": 41.9109045, "lon": -87.6405716, "tags": {"addr:city": "Chicago", "addr:housenumber": "449", "addr:postcode": "60610", "addr:state": "IL", "addr:street": "West North Avenue", "amenity": "restaurant", "name": "Forastero", "phone": "+1-312-265-0322", "website": "https://forastero-llc.mycloveronline.com/"}}, {"type": "node", "id": 6291621644, "lat": 41.9128766, "lon": -87.6485296, "tags": {"addr:city": "Chicago", "addr:housenumber": "1700", "addr:postcode": "60614", "addr:state": "IL", "addr:street": "North Halsted Street", "amenity": "bar", "name": "Front Bar", "phone": "+1-312-649-6880", "website": "http://www.front-bar.com/"}}, {"type": "node", "id": 6292027817, "lat": 41.903415, "lon": -87.652989, "tags": {"addr:city": "Chicago", "addr:housenumber": "1011", "addr:postcode": "60642", "addr:state": "IL", "addr:street": "West Division Street", "amenity": "restaurant", "name": "Goose Island Shrimp House Chicago", "phone": "+1-312-642-3640", "website": "http://gooseislandshrimphouse.com/"}}, {"type": "node", "id": 6294479336, "lat": 41.9081132, "lon": -87.6425061, "tags": {"addr:city": "Chicago", "addr:housenumber": "1416", "addr:postcode": "60610", "addr:state": "IL", "addr:street": "North Mohawk Street", "amenity": "bar", "name": "Hogan, Dean, and Cox", "phone": "+1-314-288-6562"}}, {"type": "node", "id": 6294526485, "lat": 41.9108805, "lon": -87.6393364, "tags": {"addr:city": "Chicago", "addr:housenumber": "417", "addr:postcode": "60610", "addr:state": "IL", "addr:street": "West North Avenue", "amenity": "restaurant", "name": "Hom Mali Thai and Sushi on North Ave", "phone": "+1-312-664-3400", "website": "https://www.hommalichicago.com/"}}, {"type": "node", "id": 6300459970, "lat": 41.9090638, "lon": -87.6508302, "tags": {"addr:city": "Chicago", "addr:housenumber": "1521", "addr:postcode": "60642", "addr:state": "IL", "addr:street": "North Fremont Street", "amenity": "restaurant", "name": "Pizzeria Bebu", "phone": "+1-312-280-6000", "website": "https://bebu.pizza/"}}, {"type": "node", "id": 6301823618, "lat": 41.9086893, "lon": -87.6491398, "tags": {"addr:city": "Chicago", "addr:housenumber": "1501", "addr:postcode": "60642", "addr:state": "IL", "addr:street": "North Dayton Street", "amenity": "bar", "name": "Sully\u2019s House", "phone": "+1-773-244-1234", "website": "https://www.sullyshousechicagoil.com/"}}, {"type": "node", "id": 6315204690, "lat": 41.9169023, "lon": -87.6365441, "tags": {"addr:city": "Chicago", "addr:housenumber": "1909", "addr:postcode": "60614", "addr:state": "IL", "addr:street": "North Lincoln Avenue", "amenity": "bar", "name": "The Drop Lounge", "phone": "+1-312-574-0898", "website": "http://www.thedropchicago.com/"}}, {"type": "node", "id": 6316924033, "lat": 41.9139765, "lon": -87.6486439, "tags": {"addr:city": "Chicago", "addr:housenumber": "1800", "addr:postcode": "60614", "addr:state": "IL", "addr:street": "North Halsted Street", "amenity": "restaurant", "name": "Willow Room", "phone": "+1-312-982-2151", "website": "http://www.willowroomchicago.com/"}}, {"type": "node", "id": 6318996267, "lat": 41.9101115, "lon": -87.6521126, "tags": {"addr:city": "Chicago", "addr:housenumber": "940", "addr:postcode": "60642", "addr:state": "IL", "addr:street": "West Weed Street", "amenity": "bar", "name": "Joe\u2019s On Weed St", "phone": "+1-312-337-3486", "website": "http://joesbar.com/"}}, {"type": "node", "id": 6319303665, "lat": 41.9143668, "lon": -87.648564, "tags": {"addr:city": "Chicago", "addr:housenumber": "1816", "addr:postcode": "60614", "addr:state": "IL", "addr:street": "North Halsted Street", "amenity": "restaurant", "name": "King Crab House", "phone": "+1-312-280-8990", "website": "http://kingcrabchicago.com/"}}, {"type": "node", "id": 6319305750, "lat": 41.9082297, "lon": -87.6466173, "tags": {"addr:city": "Chicago", "addr:housenumber": "1500", "addr:postcode": "60610", "addr:state": "IL", "addr:street": "North Clybourn Avenue", "addr:unit": "102", "amenity": "restaurant", "name": "Kings Dining & Entertainment - Chicago Lincoln Park", "phone": "+1-312-973-4920", "website": "https://www.kings-de.com/lincoln-park"}}, {"type": "node", "id": 6319691545, "lat": 41.9094212, "lon": -87.6478311, "tags": {"addr:city": "Chicago", "addr:housenumber": "1538", "addr:postcode": "60610", "addr:state": "IL", "addr:street": "North Clybourn Avenue", "amenity": "restaurant", "name": "Kizuki Ramen & Izakaya", "phone": "+1-312-631-3165", "website": "https://www.kizuki.com/"}}, {"type": "node", "id": 6321478798, "lat": 41.9145918, "lon": -87.6389496, "tags": {"addr:city": "Chicago", "addr:housenumber": "1758", "addr:postcode": "60614", "addr:state": "IL", "addr:street": "North Sedgwick Street", "amenity": "bar", "name": "Marge\u2019s Still", "phone": "+1-312-664-9775", "website": "http://www.margeschicago.com/"}}, {"type": "node", "id": 6322760739, "lat": 41.9012153, "lon": -87.6476574, "tags": {"addr:city": "Chicago", "addr:housenumber": "1059", "addr:postcode": "60642", "addr:state": "IL", "addr:street": "North Halsted Street", "amenity": "restaurant", "name": "Mod Mex & Mod Mix With Rick Bayless"}}, {"type": "node", "id": 6322771416, "lat": 41.8998396, "lon": -87.63707, "tags": {"addr:city": "Chicago", "addr:housenumber": "931", "addr:postcode": "60610", "addr:state": "IL", "addr:street": "North Orleans Street", "amenity": "restaurant", "name": "Mogadishu Restaurant", "phone": "+1-312-265-1850"}}, {"type": "node", "id": 6323193150, "lat": 41.9142731, "lon": -87.6349799, "tags": {"addr:city": "Chicago", "addr:housenumber": "1746", "addr:postcode": "60614", "addr:state": "IL", "addr:street": "North Wells Street", "amenity": "restaurant", "name": "Nookies", "phone": "+1-312-337-2454", "website": "http://www.nookieschicago.com/"}}, {"type": "node", "id": 6323975670, "lat": 41.9105421, "lon": -87.6536447, "tags": {"addr:city": "Chicago", "addr:housenumber": "1001", "addr:postcode": "60642", "addr:state": "IL", "addr:street": "West North Avenue", "amenity": "restaurant", "name": "Olive Mediterranean Grill", "phone": "+1-312-274-5525", "website": "http://eatomg.com/"}}, {"type": "node", "id": 6324352337, "lat": 41.9169476, "lon": -87.6365562, "tags": {"addr:city": "Chicago", "addr:housenumber": "1909", "addr:postcode": "60614", "addr:state": "IL", "addr:street": "North Lincoln Avenue", "amenity": "restaurant", "name": "La Roccia", "phone": "+1-312-255-0851", "website": "https://www.larocciapizza.com/"}}, {"type": "node", "id": 6326008885, "lat": 41.9081791, "lon": -87.6465338, "tags": {"addr:city": "Chicago", "addr:housenumber": "1500", "addr:postcode": "60610", "addr:state": "IL", "addr:street": "North Clybourn Avenue", "alcohol": "yes", "amenity": "restaurant", "brand": "Yard House", "brand:wikidata": "Q21189156", "brand:wikipedia": "en:Yard House", "cuisine": "american", "name": "Yard House", "phone": "+1-312-951-7317"}}, {"type": "node", "id": 6341811104, "lat": 41.9110998, "lon": -87.6537471, "tags": {"addr:housenumber": "1000", "addr:street": "West North Avenue", "amenity": "cafe", "brand": "Peet's Coffee", "brand:wikidata": "Q1094101", "brand:wikipedia": "en:Peet's Coffee", "cuisine": "coffee_shop", "name": "Peet's Coffee", "opening_hours": "Mo-Fr 05:30-19:30; Sa, Su 06:00-19:30", "phone": "3124759782", "takeaway": "yes"}}, {"type": "node", "id": 6341813651, "lat": 41.9118309, "lon": -87.6543287, "tags": {"addr:housenumber": "1000", "addr:street": "W. North Avenue", "amenity": "restaurant", "name": "Epic Burger", "opening_hours": "Mo-Th 10:30-22:00; Fr,Sa 10:30-23:00; Su 10:30-21:00"}}, {"type": "node", "id": 6425689677, "lat": 41.9068335, "lon": -87.6347845, "tags": {"addr:city": "Chicago", "addr:housenumber": "1342", "addr:postcode": "60610", "addr:state": "IL", "addr:street": "North Wells Street", "amenity": "restaurant", "cuisine": "sushi;japanese", "name": "Cafe Sushi", "opening_hours": "Mo-Th 17:00-22:30; Fr-Sa 17:00-23:30; Su 16:00-21:30", "phone": "+1-312-337-0700", "website": "http://www.cafesushiwells.com/"}}, {"type": "node", "id": 6426543140, "lat": 41.9169513, "lon": -87.6572958, "tags": {"addr:city": "Chicago", "addr:housenumber": "1953", "addr:postcode": "60614", "addr:state": "IL", "addr:street": "North Clybourn Avenue", "amenity": "restaurant", "cuisine": "salad", "diet:vegetarian": "yes", "name": "Protein Bar & Kitchen", "opening_hours": "Mo-Th 07:30-21:00; Fr 07:30-20:00; Sa 08:00-20:00; Su 09:00-18:00", "outdoor_seating": "no", "phone": "(773) 472-1500", "website": "theproteinbar.com"}}, {"type": "node", "id": 6720215383, "lat": 41.9144195, "lon": -87.6547636, "tags": {"addr:city": "Chicago", "addr:housenumber": "1832", "addr:postcode": "60614", "addr:state": "IL", "addr:street": "North Clybourn Avenue", "amenity": "restaurant", "brand": "Buffalo Wild Wings", "brand:wikidata": "Q509255", "brand:wikipedia": "en:Buffalo Wild Wings", "cuisine": "wings", "name": "Buffalo Wild Wings"}}, {"type": "node", "id": 6757774710, "lat": 41.9113754, "lon": -87.6349829, "tags": {"addr:city": "Chicago", "addr:housenumber": "1608", "addr:postcode": "60614", "addr:state": "IL", "addr:street": "North Wells Street", "amenity": "bar", "name": "Utopian Tailgate", "phone": "+1-312-210-7799", "website": "https://www.utopiantailgate.com"}}, {"type": "way", "id": 206585437, "nodes": [2166039857, 2166039862, 2166039861, 2166039854, 2166039855, 2166039857], "tags": {"addr:city": "Chicago", "addr:country": "US", "addr:housenumber": "1552", "addr:postcode": "60610", "addr:state": "IL", "addr:street": "North Wells Street", "addr:street:name": "Wells", "addr:street:prefix": "North", "addr:street:type": "Street", "amenity": "cafe", "building": "yes", "building:levels": "2", "chicago:building_id": "304450", "name": "Kanela Breakfast Club", "phone": "+1-312-255-1206", "source": "Bing 2012", "website": "http://kanelacafe.com/"}}, {"type": "way", "id": 210315300, "nodes": [2203995936, 6267305751, 2203996117, 2203996004, 2203995852, 2203995936], "tags": {"addr:housenumber": "1523", "addr:street": "North Kingsbury Street", "addr:street:name": "Kingsbury", "addr:street:prefix": "North", "addr:street:type": "Street", "amenity": "cafe", "building": "yes", "chicago:building_id": "878193", "name": "Kingsbury Street Cafe"}}, {"type": "way", "id": 210315354, "nodes": [2203998741, 2203998749, 2203998788, 2203998793, 2203998747, 2203998741], "tags": {"addr:housenumber": "1548", "addr:street": "North Larrabee Street", "addr:street:name": "Larrabee", "addr:street:prefix": "North", "addr:street:type": "Street", "amenity": "restaurant", "building": "yes", "building:levels": "1", "chicago:building_id": "305179", "cuisine": "burger"}}, {"type": "way", "id": 210318550, "nodes": [2986607620, 2203998973, 2203998933, 2203998935, 2203998908, 2203998910, 2203998812, 2203998811, 2203998712, 2203998709, 2203998810, 2986607620], "tags": {"addr:city": "Chicago", "addr:housenumber": "855", "addr:postcode": "60642", "addr:state": "IL", "addr:street": "West North Avenue", "addr:street:name": "North", "addr:street:prefix": "West", "addr:street:type": "Avenue", "amenity": "restaurant", "building": "yes", "chicago:building_id": "304440", "cuisine": "mexican", "name": "Uncle Julio's"}}, {"type": "way", "id": 210318903, "nodes": [2203998691, 2203998611, 2203998642, 2203998719, 2203998691], "tags": {"addr:city": "Chicago", "addr:housenumber": "1582", "addr:postcode": "60642", "addr:state": "IL", "addr:street": "North Clybourn Avenue", "amenity": "restaurant", "building": "yes", "chicago:building_id": "878191", "name": "Sono Wood Fired"}}, {"type": "way", "id": 210679421, "nodes": [2207608584, 2207608406, 2207608395, 2207608565, 2207608564, 2207608584], "tags": {"addr:housenumber": "1240", "addr:street": "North Wells Street", "addr:street:name": "Wells", "addr:street:prefix": "North", "addr:street:type": "Street", "amenity": "bar", "building": "yes", "building:levels": "3", "chicago:building_id": "815408", "name": "Declan's"}}, {"type": "way", "id": 210679437, "nodes": [2207608926, 2207609009, 2207609010, 2207609060, 2207609057, 2207609030, 2207609040, 2207608949, 2207608926], "tags": {"addr:housenumber": "1246", "addr:street": "North Wells Street", "addr:street:name": "Wells", "addr:street:prefix": "North", "addr:street:type": "Street", "amenity": "restaurant", "building": "yes", "building:levels": "3", "chicago:building_id": "317889", "cuisine": "chinese", "name": "China Doll"}}, {"type": "way", "id": 210679449, "nodes": [2207609278, 2207609188, 2207609186, 2207609180, 2207609174, 2207609177, 2207609172, 2207609269, 2207609270, 2207609278], "tags": {"addr:housenumber": "1252", "addr:street": "North Wells Street", "addr:street:name": "Wells", "addr:street:prefix": "North", "addr:street:type": "Street", "amenity": "restaurant", "building": "yes", "building:levels": "3", "chicago:building_id": "815387", "cuisine": "mexican", "name": "Salpicon"}}, {"type": "way", "id": 210679752, "nodes": [2207607263, 2207607264, 2207607348, 2207607343, 2207607263], "tags": {"addr:housenumber": "238", "addr:street": "West Division Street", "addr:street:name": "Division", "addr:street:prefix": "West", "addr:street:type": "Street", "amenity": "restaurant", "building": "yes", "building:levels": "1", "chicago:building_id": "320662", "cuisine": "pizza", "name": "Sammy's Red Hots", "opening_hours": "09:00-02:00", "phone": "312-266-7290", "website": "http://sammysredhotschicago.com/"}}, {"type": "way", "id": 210684734, "nodes": [2207638564, 2207638657, 2207638661, 2207638569, 2207638564], "tags": {"addr:housenumber": "1507", "addr:street": "North Sedgwick Street", "addr:street:name": "Sedgwick", "addr:street:prefix": "North", "addr:street:type": "Street", "amenity": "restaurant", "building": "yes", "building:levels": "1", "chicago:building_id": "815577", "cuisine": "chinese", "name": "Lan's China Bistro"}}, {"type": "way", "id": 240217310, "nodes": [2479668244, 2479668242, 2479668243, 2479668245, 2479668244], "tags": {"addr:city": "Chicago", "addr:housenumber": "1447", "addr:postcode": "60610", "addr:state": "IL", "addr:street": "North Sedgwick Street", "addr:street:name": "Sedgwick", "addr:street:prefix": "North", "addr:street:type": "Street", "amenity": "cafe", "building": "yes", "name": "Eva's Cafe", "phone": "+1-312-280-8900", "website": "https://evascafeoldtown.com/"}}]}